{
"type": "Feature",
"properties": {"id":"cshapes-1201-1930-07-06","edge_precision":"unknown","cshapes_gwcode":1201,"cshapes_name":"Inini","cshapes_first_day":"1930-07-06","cshapes_last_day":"1946-03-18","cshapes_status":"colony","cshapes_owner":220,"cshapes_borders_defined":true},
"geometry": {"type": "MultiPolygon", "coordinates": [
[
[
[-54.5977,2.3305],
[-54.5413,2.3152],
[-54.5186,2.2575],
[-54.4647,2.2117],
[-54.3206,2.1615],
[-54.1097,2.1135],
[-53.9326,2.2281],
[-53.9281,2.2528],
[-53.9103,2.2772],
[-53.7994,2.3524],
[-53.7461,2.371],
[-53.7017,2.3103],
[-53.5278,2.2495],
[-53.4586,2.2575],
[-53.3483,2.3227],
[-53.3406,2.3497],
[-53.3199,2.348],
[-53.2965,2.319],
[-53.2261,2.2644],
[-53.2392,2.2083],
[-53.0874,2.2194],
[-53.0549,2.1869],
[-52.9943,2.1757],
[-52.9547,2.1762],
[-52.8965,2.2068],
[-52.7895,2.3033],
[-52.6756,2.3742],
[-52.5945,2.4739],
[-52.5422,2.5656],
[-52.5399,2.5864],
[-52.5528,2.6212],
[-52.352,3.04],
[-52.3449,3.0885],
[-52.3531,3.1317],
[-52.3449,3.1574],
[-52.2736,3.241],
[-52.2267,3.2531],
[-52.1653,3.3422],
[-51.9958,3.6258],
[-51.981,3.7],
[-51.9271,3.7769],
[-51.8123,3.8768],
[-51.7718,3.9835],
[-51.7283,4.0158],
[-51.6445,4.0527],
[-51.661,4.0891],
[-51.6533,4.1316],
[-51.752,4.1891],
[-51.9151,4.3003],
[-51.967,4.3521],
[-52.0856,4.404],
[-52.1671,4.4781],
[-52.3672,4.619],
[-52.5303,4.7153],
[-52.7378,4.8636],
[-52.7971,4.8932],
[-52.9083,4.9821],
[-53.1306,5.1156],
[-53.3678,5.16],
[-53.4864,5.2045],
[-53.7088,5.2341],
[-53.7458,5.2638],
[-53.7903,5.2638],
[-53.8274,5.2564],
[-53.8274,5.1971],
[-53.8422,5.16],
[-53.8422,5.0266],
[-53.857,4.9377],
[-54.1016,4.9377],
[-54.1461,4.9451],
[-54.1831,4.9747],
[-54.2572,5.0785],
[-54.2943,5.0933],
[-54.3478,5.1483],
[-54.4086,5.0806],
[-54.4553,5.004],
[-54.4761,4.8678],
[-54.4778,4.7542],
[-54.4397,4.6692],
[-54.4221,4.6015],
[-54.4233,4.5643],
[-54.4518,4.5124],
[-54.4314,4.3692],
[-54.365,4.1636],
[-54.3608,4.0424],
[-54.2903,3.9339],
[-54.1887,3.8087],
[-54.1276,3.7886],
[-53.9978,3.6269],
[-53.9861,3.6015],
[-54.0011,3.4483],
[-54.0711,3.3128],
[-54.1188,3.2778],
[-54.1872,3.1949],
[-54.2061,3.1453],
[-54.2085,3.1243],
[-54.1761,3.0439],
[-54.1608,2.9536],
[-54.2046,2.775],
[-54.257,2.7189],
[-54.3151,2.6292],
[-54.3659,2.4966],
[-54.4206,2.4347],
[-54.4992,2.365],
[-54.5977,2.3305]
]
]
]}
}
