{
"type": "Feature",
"properties": {"id":"cshapes-6631-1948-05-14","edge_precision":"unknown","cshapes_gwcode":6631,"cshapes_name":"West Bank","cshapes_first_day":"1948-05-14","cshapes_last_day":"1967-06-09","cshapes_status":"occupied","cshapes_owner":663,"cshapes_borders_defined":true},
"geometry": {"type": "MultiPolygon", "coordinates": [
[
[
[34.8882,31.4125],
[34.8899,31.3806],
[34.9082,31.3606],
[34.9376,31.3507],
[35.1386,31.3619],
[35.2204,31.3768],
[35.2406,31.3842],
[35.3786,31.4842],
[35.4007,31.4936],
[35.4782,31.4973],
[35.4981,31.6417],
[35.5554,31.7639],
[35.5164,32.0411],
[35.5586,32.203],
[35.5706,32.2176],
[35.5604,32.3778],
[35.5498,32.3996],
[35.4811,32.4128],
[35.4082,32.5042],
[35.3506,32.5235],
[35.289,32.5162],
[35.2081,32.5464],
[35.0818,32.4715],
[35.0664,32.4472],
[35.0465,32.3889],
[35.0256,32.2393],
[34.9792,32.1531],
[35.0075,32.0281],
[35.0009,31.9853],
[34.9875,31.9689],
[34.9661,31.8614],
[34.9703,31.8269],
[35.0142,31.8203],
[35.1083,31.8331],
[35.2276,31.7751],
[35.2097,31.75],
[35.1629,31.7449],
[35.0017,31.6469],
[34.9614,31.6034],
[34.9458,31.5592],
[34.9464,31.502],
[34.8882,31.4125]
]
]
]}
}
