{
"type": "Feature",
"properties": {"id":"cshapes-41-1915-07-05","edge_precision":"unknown","cshapes_gwcode":41,"cshapes_name":"Haiti","cshapes_first_day":"1915-07-05","cshapes_last_day":"1934-08-14","cshapes_status":"occupied","cshapes_owner":2,"cshapes_borders_defined":true},
"geometry": {"type": "MultiPolygon", "coordinates": [
[
[
[-74.4678,18.4508],
[-74.4489,18.3497],
[-74.3672,18.2915],
[-74.3132,18.2846],
[-74.2776,18.3064],
[-74.2336,18.3064],
[-74.1911,18.2946],
[-74.0981,18.245],
[-73.9606,18.1364],
[-73.9117,18.0675],
[-73.9016,18.0371],
[-73.8817,18.0228],
[-73.7968,18.0293],
[-73.8001,18.0608],
[-73.8406,18.1111],
[-73.827,18.1422],
[-73.7861,18.1717],
[-73.4853,18.2497],
[-73.3864,18.2619],
[-73.3116,18.2425],
[-73.2667,18.2194],
[-73.0072,18.1775],
[-72.8893,18.1419],
[-72.8086,18.1398],
[-72.7389,18.1736],
[-72.7,18.1811],
[-72.5458,18.1831],
[-72.5228,18.2094],
[-72.3822,18.2294],
[-72.2281,18.2158],
[-72.0724,18.24],
[-71.906,18.1726],
[-71.8353,18.1117],
[-71.8163,18.0667],
[-71.8007,18.0506],
[-71.7599,18.0355],
[-71.7492,18.0921],
[-71.7539,18.1456],
[-71.7692,18.2005],
[-71.6947,18.3222],
[-71.7789,18.3567],
[-71.904,18.4364],
[-71.907,18.456],
[-71.8865,18.4771],
[-72,18.5967],
[-71.9751,18.6218],
[-71.9243,18.6273],
[-71.907,18.6108],
[-71.8277,18.6257],
[-71.7634,18.7013],
[-71.7298,18.7126],
[-71.7158,18.7497],
[-71.7089,18.7853],
[-71.7167,18.8783],
[-71.7775,18.956],
[-71.75,19.0197],
[-71.6399,19.1369],
[-71.6292,19.2117],
[-71.692,19.2386],
[-71.7447,19.2858],
[-71.7236,19.36],
[-71.6976,19.4029],
[-71.6918,19.4921],
[-71.7364,19.6187],
[-71.7348,19.6826],
[-71.75,19.7032],
[-71.9808,19.7236],
[-72.0975,19.7225],
[-72.2051,19.745],
[-72.2067,19.7743],
[-72.3175,19.7628],
[-72.4931,19.8206],
[-72.54,19.8456],
[-72.5794,19.8844],
[-72.6793,19.9185],
[-72.7914,19.9425],
[-72.985,19.9144],
[-73.1547,19.9222],
[-73.2883,19.8525],
[-73.345,19.8325],
[-73.3974,19.8327],
[-73.4181,19.8197],
[-73.4609,19.7265],
[-73.4653,19.6878],
[-73.4507,19.6674],
[-73.4076,19.6343],
[-73.37,19.6236],
[-73.1503,19.6139],
[-73.1053,19.6264],
[-73.0145,19.5983],
[-72.7233,19.455],
[-72.7258,19.3744],
[-72.8011,19.2211],
[-72.7614,19.1619],
[-72.8003,19.0331],
[-72.7258,18.9653],
[-72.6403,18.9056],
[-72.547,18.7817],
[-72.4364,18.7152],
[-72.3828,18.7069],
[-72.3297,18.6835],
[-72.3213,18.6664],
[-72.3467,18.536],
[-72.3688,18.5257],
[-72.4222,18.5464],
[-72.5867,18.5637],
[-72.6312,18.5514],
[-72.657,18.5201],
[-72.6828,18.4592],
[-72.7367,18.4246],
[-72.9668,18.4633],
[-73.0695,18.4536],
[-73.4042,18.5133],
[-73.5154,18.5238],
[-73.6044,18.4981],
[-73.6551,18.4972],
[-73.7075,18.5438],
[-73.6775,18.5578],
[-73.6481,18.5472],
[-73.6044,18.5526],
[-73.5843,18.5814],
[-73.6078,18.5853],
[-73.6961,18.5714],
[-73.7198,18.5601],
[-73.7318,18.5435],
[-73.7872,18.5322],
[-74.0336,18.5989],
[-74.1272,18.6508],
[-74.1749,18.6664],
[-74.271,18.6653],
[-74.3846,18.6367],
[-74.4224,18.6101],
[-74.4678,18.4508]
]
],
[
[
[-73.3,18.9272],
[-73.292,18.906],
[-73.2181,18.8342],
[-73.0642,18.7789],
[-72.9319,18.7414],
[-72.85,18.7269],
[-72.8207,18.6972],
[-72.7995,18.7347],
[-72.8268,18.8083],
[-72.8531,18.8319],
[-73.0728,18.9231],
[-73.2021,18.9694],
[-73.2625,18.9583],
[-73.2874,18.9446],
[-73.3,18.9272]
]
],
[
[
[-72.9486,20.0477],
[-72.8761,20.025],
[-72.6939,19.9878],
[-72.6403,19.9853],
[-72.624,19.9969],
[-72.6581,20.03],
[-72.8023,20.0893],
[-72.9204,20.0764],
[-72.9486,20.0477]
]
]
]}
}
