{
"type": "Feature",
"properties": {"id":"cshapes-100-1922-03-24","edge_precision":"unknown","cshapes_gwcode":100,"cshapes_name":"Colombia","cshapes_first_day":"1922-03-24","cshapes_last_day":"2019-12-31","cshapes_status":"independent","cshapes_owner":100,"cshapes_borders_defined":true},
"geometry": {"type": "MultiPolygon", "coordinates": [
[
[
[-81.7201,12.5453],
[-81.7145,12.4925],
[-81.7025,12.5072],
[-81.691,12.5322],
[-81.6868,12.588],
[-81.7047,12.5803],
[-81.7201,12.5453]
]
],
[
[
[-79.0503,1.6318],
[-79.0308,1.5988],
[-78.9854,1.5854],
[-78.9282,1.5806],
[-78.8587,1.5478],
[-78.8097,1.4378],
[-78.6775,1.2856],
[-78.5917,1.2431],
[-78.5603,1.1986],
[-78.5401,1.2094],
[-78.4665,1.1926],
[-78.4415,1.1544],
[-78.3538,1.0687],
[-78.3102,1.0439],
[-78.2483,1.0299],
[-78.1,0.916],
[-78.07,0.9044],
[-77.9993,0.9043],
[-77.9297,0.8753],
[-77.8833,0.8258],
[-77.8539,0.8137],
[-77.8142,0.8083],
[-77.78,0.8279],
[-77.6986,0.8453],
[-77.6783,0.8372],
[-77.6563,0.8094],
[-77.6593,0.7506],
[-77.647,0.7289],
[-77.5358,0.6557],
[-77.4933,0.6653],
[-77.4638,0.6556],
[-77.4435,0.6218],
[-77.4511,0.5412],
[-77.4221,0.4128],
[-77.3795,0.3847],
[-77.2189,0.3361],
[-77.1917,0.3349],
[-77.0796,0.3596],
[-77.0353,0.3062],
[-76.8666,0.2394],
[-76.7703,0.2489],
[-76.727,0.2631],
[-76.7167,0.2832],
[-76.612,0.2589],
[-76.5849,0.2308],
[-76.5452,0.2192],
[-76.4486,0.2469],
[-76.4078,0.2717],
[-76.4008,0.3923],
[-76.2431,0.3956],
[-76.0401,0.3376],
[-75.9128,0.1633],
[-75.7608,0.0468],
[-75.7275,0.0356],
[-75.694,0.0431],
[-75.5754,0.0318],
[-75.4344,-0.0594],
[-75.3497,-0.0783],
[-75.3,-0.1022],
[-75.2858,-0.1197],
[-75.2591,-0.1225],
[-75.2259,-0.096],
[-75.205,-0.0369],
[-75.137,-0.0453],
[-75.0214,-0.1231],
[-74.9606,-0.1706],
[-74.9381,-0.1989],
[-74.8603,-0.2325],
[-74.8126,-0.2057],
[-74.7919,-0.2003],
[-74.7724,-0.2079],
[-74.7211,-0.2897],
[-74.7088,-0.3617],
[-74.6329,-0.4065],
[-74.6075,-0.3836],
[-74.3939,-0.5433],
[-74.3732,-0.5728],
[-74.3161,-0.7817],
[-74.2478,-0.8536],
[-74.2828,-0.9303],
[-74.2407,-1.0129],
[-74.2154,-1.0349],
[-74.0778,-1.0728],
[-73.8681,-1.2086],
[-73.841,-1.2651],
[-73.7522,-1.2897],
[-73.7131,-1.2792],
[-73.6536,-1.2844],
[-73.5557,-1.3753],
[-73.5428,-1.4681],
[-73.477,-1.5525],
[-73.4472,-1.6103],
[-73.487,-1.6544],
[-73.5075,-1.7483],
[-73.4906,-1.7669],
[-73.4204,-1.814],
[-73.2969,-1.8735],
[-73.2389,-1.8456],
[-73.197,-1.8065],
[-73.1328,-1.8492],
[-73.0904,-1.9236],
[-73.0582,-2.1456],
[-73.0778,-2.2003],
[-73.1013,-2.2319],
[-73.1317,-2.2463],
[-73.1153,-2.3288],
[-73.1047,-2.3469],
[-73.0739,-2.3714],
[-73.0031,-2.4106],
[-72.9346,-2.4],
[-72.882,-2.5064],
[-72.8147,-2.49],
[-72.5901,-2.4072],
[-72.4508,-2.4414],
[-72.2995,-2.4914],
[-72.2275,-2.4989],
[-72.07,-2.4078],
[-71.9822,-2.3694],
[-71.8898,-2.3778],
[-71.8714,-2.3203],
[-71.8085,-2.2308],
[-71.722,-2.1592],
[-71.6932,-2.1479],
[-71.6832,-2.1665],
[-71.6842,-2.1961],
[-71.6743,-2.225],
[-71.5767,-2.2367],
[-71.5201,-2.2346],
[-71.4122,-2.2813],
[-71.3617,-2.3469],
[-71.1881,-2.3606],
[-71.1011,-2.3119],
[-70.9764,-2.2783],
[-70.859,-2.2253],
[-70.6576,-2.3582],
[-70.6497,-2.4013],
[-70.5824,-2.4839],
[-70.5645,-2.4933],
[-70.3777,-2.5117],
[-70.3356,-2.4924],
[-70.2954,-2.5013],
[-70.2188,-2.5703],
[-70.1946,-2.644],
[-70.1207,-2.7017],
[-70.0985,-2.6983],
[-70.0675,-2.7556],
[-70.7242,-3.7797],
[-70.528,-3.8592],
[-70.5008,-3.8593],
[-70.4065,-3.8025],
[-70.3622,-3.7878],
[-70.3231,-3.7992],
[-70.2345,-3.8713],
[-70.1819,-3.9374],
[-70.1231,-4.0724],
[-69.95,-4.2109],
[-69.882,-3.9203],
[-69.4526,-1.526],
[-69.3785,-1.3379],
[-69.412,-1.1319],
[-69.442,-1.0178],
[-69.4342,-1.0012],
[-69.4808,-0.955],
[-69.5178,-0.9335],
[-69.6126,-0.7558],
[-69.6153,-0.7243],
[-69.5963,-0.7005],
[-69.5735,-0.6349],
[-69.6065,-0.5199],
[-69.6304,-0.4942],
[-69.6886,-0.4668],
[-69.7395,-0.4557],
[-69.9335,-0.3043],
[-70.0581,-0.1575],
[-70.0447,0.585],
[-69.9835,0.5979],
[-69.7957,0.6015],
[-69.6835,0.6772],
[-69.4593,0.7366],
[-69.3289,0.6564],
[-69.2875,0.6229],
[-69.2098,0.6163],
[-69.1278,0.644],
[-69.1593,0.7529],
[-69.1403,0.8635],
[-69.2279,0.999],
[-69.2649,1.0339],
[-69.3385,1.0729],
[-69.4353,1.0383],
[-69.6136,1.0781],
[-69.8422,1.0722],
[-69.8442,1.7043],
[-69.7849,1.7076],
[-69.7006,1.7453],
[-69.5539,1.7839],
[-69.4003,1.7444],
[-69.3725,1.7281],
[-68.1531,1.7242],
[-68.1826,1.7665],
[-68.2328,1.7756],
[-68.2572,1.8528],
[-68.2267,1.9336],
[-68.1964,1.9775],
[-68.124,1.9637],
[-68.1049,1.9518],
[-68.0885,1.9271],
[-68.0656,1.8533],
[-68.0101,1.7685],
[-67.9678,1.7458],
[-67.9147,1.7453],
[-67.8725,1.7551],
[-67.8117,1.7843],
[-67.771,1.8188],
[-67.6872,1.9196],
[-67.6664,1.9733],
[-67.586,2.0531],
[-67.5058,2.1069],
[-67.4226,2.1428],
[-67.3397,2.1131],
[-67.2647,1.9469],
[-67.2282,1.8918],
[-67.2066,1.8758],
[-67.1608,1.8186],
[-67.1136,1.735],
[-67.0712,1.6204],
[-67.0569,1.5201],
[-67.0636,1.4383],
[-67.0804,1.3853],
[-67.0878,1.2864],
[-67.0842,1.1939],
[-67.0753,1.1725],
[-66.8767,1.2221],
[-66.899,1.2841],
[-66.9264,1.4597],
[-66.9917,1.6958],
[-67.1132,2.0267],
[-67.2115,2.2436],
[-67.2169,2.2753],
[-67.1742,2.3365],
[-67.1925,2.3925],
[-67.2195,2.4131],
[-67.2814,2.4389],
[-67.3252,2.474],
[-67.4856,2.6533],
[-67.5353,2.68],
[-67.6058,2.7933],
[-67.6344,2.8094],
[-67.7658,2.8325],
[-67.8236,2.8271],
[-67.8331,2.8767],
[-67.4356,3.2539],
[-67.3697,3.3047],
[-67.3464,3.3137],
[-67.2929,3.396],
[-67.3066,3.4528],
[-67.3811,3.486],
[-67.3956,3.5125],
[-67.4371,3.6483],
[-67.491,3.7243],
[-67.5117,3.738],
[-67.577,3.7324],
[-67.5999,3.7407],
[-67.6351,3.7976],
[-67.6806,3.9214],
[-67.7085,4.047],
[-67.7867,4.1665],
[-67.8063,4.2318],
[-67.8013,4.3001],
[-67.7848,4.3348],
[-67.8588,4.5612],
[-67.8247,4.7367],
[-67.8016,4.9732],
[-67.8028,5.0394],
[-67.8297,5.1314],
[-67.8486,5.3065],
[-67.8039,5.3833],
[-67.6494,5.4783],
[-67.6159,5.5482],
[-67.6338,5.5783],
[-67.6517,5.6832],
[-67.6429,5.7314],
[-67.62,5.7922],
[-67.5319,5.8913],
[-67.4617,5.9555],
[-67.4263,5.9767],
[-67.414,5.9955],
[-67.435,6.0386],
[-67.4696,6.0697],
[-67.4925,6.1214],
[-67.4892,6.1537],
[-67.4545,6.1931],
[-67.4963,6.2054],
[-67.5636,6.2625],
[-67.6353,6.2851],
[-67.8312,6.3076],
[-67.9181,6.2382],
[-67.9979,6.2072],
[-68.0353,6.2056],
[-68.1036,6.2215],
[-68.1552,6.2228],
[-68.3195,6.1681],
[-68.4193,6.1918],
[-68.4539,6.1906],
[-68.6384,6.1355],
[-68.6861,6.1415],
[-68.712,6.157],
[-68.8278,6.1864],
[-69.0564,6.2161],
[-69.0879,6.2031],
[-69.1952,6.1004],
[-69.2417,6.0841],
[-69.2707,6.091],
[-69.3161,6.1486],
[-69.3713,6.1458],
[-69.4295,6.1186],
[-70.1192,6.9758],
[-70.1585,6.9825],
[-70.2218,6.974],
[-70.2623,6.9457],
[-70.2947,6.9385],
[-70.3439,6.9525],
[-70.3861,6.9831],
[-70.5525,7.0583],
[-70.7197,7.0981],
[-70.8865,7.0751],
[-70.9082,7.0482],
[-71.025,6.9844],
[-71.1813,6.9635],
[-71.2624,6.9874],
[-71.3325,7.0224],
[-71.4639,7.0233],
[-71.6014,7.0579],
[-71.6453,7.0606],
[-71.702,7.0464],
[-71.8328,6.9872],
[-71.8769,6.9865],
[-71.9268,7.0097],
[-71.9924,7.0162],
[-72.0599,7.0623],
[-72.1329,7.1733],
[-72.1646,7.2625],
[-72.1547,7.3253],
[-72.2625,7.3894],
[-72.3997,7.4068],
[-72.4193,7.4206],
[-72.4724,7.498],
[-72.4735,7.6562],
[-72.4597,7.9206],
[-72.3894,8.0476],
[-72.3458,8.0477],
[-72.3286,8.0618],
[-72.325,8.089],
[-72.3367,8.1519],
[-72.3882,8.3694],
[-72.4035,8.385],
[-72.4231,8.3897],
[-72.6645,8.6411],
[-72.7797,9.0803],
[-72.8856,9.1192],
[-72.9625,9.1781],
[-72.9583,9.2011],
[-72.9811,9.2608],
[-73.01,9.302],
[-73.1435,9.2239],
[-73.1656,9.1958],
[-73.222,9.1711],
[-73.3781,9.1714],
[-73.3639,9.2258],
[-73.2451,9.4085],
[-73.0817,9.6094],
[-73.0047,9.7683],
[-72.9775,10.0019],
[-72.9565,10.0821],
[-72.9389,10.1165],
[-72.9035,10.4444],
[-72.81,10.5906],
[-72.6336,10.8964],
[-72.54,11.0319],
[-72.4913,11.1228],
[-72.4721,11.1347],
[-72.3499,11.1635],
[-72.3176,11.1645],
[-72.2094,11.25],
[-71.9685,11.6662],
[-71.7697,11.7008],
[-71.6264,11.7556],
[-71.4033,11.8128],
[-71.3226,11.8579],
[-71.2825,11.9186],
[-71.1313,12.0174],
[-71.1142,12.0489],
[-71.1149,12.0986],
[-71.2208,12.3021],
[-71.2757,12.3461],
[-71.5286,12.4461],
[-71.6615,12.4639],
[-71.6908,12.4593],
[-71.7243,12.441],
[-71.7365,12.4142],
[-71.7044,12.4345],
[-71.655,12.4389],
[-71.6314,12.4216],
[-71.6929,12.3664],
[-71.8097,12.3133],
[-71.8642,12.2108],
[-71.9378,12.1628],
[-71.9631,12.1536],
[-71.986,12.1571],
[-72.0118,12.1926],
[-71.9648,12.252],
[-72.0286,12.2578],
[-72.1386,12.2494],
[-72.1579,12.2411],
[-72.1689,12.2216],
[-72.1458,12.2073],
[-72.1387,12.1064],
[-72.2327,11.9152],
[-72.2586,11.8892],
[-72.4163,11.7978],
[-72.4575,11.785],
[-72.5176,11.7875],
[-72.7688,11.6878],
[-73.1431,11.4244],
[-73.1958,11.3765],
[-73.2063,11.349],
[-73.2845,11.2956],
[-73.3843,11.2739],
[-73.7908,11.2657],
[-73.867,11.2847],
[-73.9513,11.3192],
[-73.9696,11.339],
[-74.0128,11.3553],
[-74.0372,11.3564],
[-74.155,11.3314],
[-74.1889,11.3097],
[-74.237,11.235],
[-74.2299,11.1186],
[-74.3583,10.7834],
[-74.3754,10.7554],
[-74.395,10.7422],
[-74.4578,10.7425],
[-74.4653,10.766],
[-74.5192,10.8128],
[-74.5933,10.7833],
[-74.6075,10.8236],
[-74.5917,10.8776],
[-74.4653,10.9713],
[-74.419,10.9658],
[-74.3547,10.9711],
[-74.3272,10.9749],
[-74.3104,10.9876],
[-74.4236,10.9831],
[-74.505,10.9933],
[-74.8346,11.1056],
[-74.8644,11.1226],
[-75.0231,10.9665],
[-75.0395,10.9058],
[-75.2228,10.8056],
[-75.2641,10.799],
[-75.2682,10.7531],
[-75.2508,10.7461],
[-75.2356,10.762],
[-75.2266,10.7292],
[-75.2518,10.7065],
[-75.2881,10.7244],
[-75.4089,10.6586],
[-75.4761,10.5928],
[-75.504,10.5501],
[-75.4867,10.491],
[-75.4853,10.4467],
[-75.5471,10.4179],
[-75.5317,10.2369],
[-75.534,10.1824],
[-75.5717,10.1344],
[-75.5903,9.9794],
[-75.6608,9.7603],
[-75.6014,9.6656],
[-75.5853,9.6064],
[-75.5981,9.5228],
[-75.6343,9.4482],
[-75.6567,9.4258],
[-75.6879,9.4114],
[-75.816,9.4386],
[-75.9186,9.4222],
[-76.0897,9.3358],
[-76.1726,9.2358],
[-76.1806,9.1919],
[-76.2642,8.9953],
[-76.3175,8.9386],
[-76.3736,8.9161],
[-76.4228,8.9065],
[-76.4324,8.8766],
[-76.6739,8.6766],
[-76.8181,8.6339],
[-76.8847,8.6222],
[-76.9283,8.5683],
[-76.9282,8.5372],
[-76.8767,8.5214],
[-76.8218,8.4822],
[-76.7738,8.4112],
[-76.7319,8.0392],
[-76.7445,7.9358],
[-76.7579,7.9192],
[-76.817,7.905],
[-76.8719,7.9094],
[-76.9239,7.936],
[-76.9275,7.9856],
[-76.9167,8.0315],
[-76.8929,8.0467],
[-76.8367,8.0265],
[-76.8363,8.1312],
[-76.8878,8.1217],
[-76.9486,8.1592],
[-76.9686,8.2383],
[-77.0817,8.3261],
[-77.1345,8.4102],
[-77.1639,8.4342],
[-77.241,8.4647],
[-77.2847,8.5165],
[-77.3003,8.5783],
[-77.347,8.6622],
[-77.3686,8.6694],
[-77.3719,8.6461],
[-77.4758,8.5211],
[-77.4686,8.4717],
[-77.4291,8.4725],
[-77.4058,8.4513],
[-77.375,8.3986],
[-77.3625,8.285],
[-77.2736,8.1986],
[-77.2154,8.0879],
[-77.1983,7.9994],
[-77.2156,7.9372],
[-77.2952,7.9049],
[-77.37,7.7785],
[-77.3301,7.7262],
[-77.331,7.7018],
[-77.5774,7.5262],
[-77.6001,7.5392],
[-77.6639,7.6794],
[-77.744,7.72],
[-77.7589,7.6931],
[-77.7592,7.6333],
[-77.721,7.5365],
[-77.7486,7.4843],
[-77.7757,7.4754],
[-77.8075,7.4787],
[-77.8897,7.2289],
[-77.6808,7.056],
[-77.6529,6.9772],
[-77.6664,6.8767],
[-77.4665,6.7143],
[-77.4438,6.7119],
[-77.4082,6.6906],
[-77.3404,6.5674],
[-77.3558,6.3914],
[-77.3853,6.2817],
[-77.4073,6.2399],
[-77.4758,6.2831],
[-77.4889,6.1853],
[-77.4757,6.1583],
[-77.3389,5.9875],
[-77.245,5.7883],
[-77.2408,5.7582],
[-77.2506,5.709],
[-77.3269,5.6164],
[-77.3592,5.6042],
[-77.3825,5.6178],
[-77.4206,5.624],
[-77.5045,5.5842],
[-77.5322,5.5189],
[-77.4807,5.5042],
[-77.3968,5.4562],
[-77.3478,5.2406],
[-77.3713,5.1549],
[-77.3722,5.0828],
[-77.3535,4.8675],
[-77.3217,4.7194],
[-77.3131,4.5465],
[-77.3824,4.3422],
[-77.3374,4.2693],
[-77.2899,4.2711],
[-77.2423,4.2609],
[-77.2761,4.215],
[-77.3374,4.2172],
[-77.4256,4.1787],
[-77.4371,4.1421],
[-77.4344,4.0314],
[-77.4225,3.9986],
[-77.3663,3.926],
[-77.3444,3.9511],
[-77.3126,4.0408],
[-77.2606,4.0956],
[-77.1872,4.0603],
[-77.2145,3.9719],
[-77.2601,3.9667],
[-77.2859,3.9508],
[-77.2977,3.9159],
[-77.287,3.8519],
[-77.2654,3.8401],
[-77.1886,3.8436],
[-77.1126,3.8944],
[-77.0327,3.9184],
[-77.1257,3.7687],
[-77.1285,3.7089],
[-77.1411,3.6658],
[-77.2117,3.5753],
[-77.2442,3.5664],
[-77.3639,3.4125],
[-77.45,3.3575],
[-77.4681,3.3301],
[-77.4083,3.2881],
[-77.4176,3.2607],
[-77.5478,3.0596],
[-77.5661,3.0503],
[-77.7142,2.8667],
[-77.7811,2.7564],
[-77.7646,2.6426],
[-77.7454,2.6104],
[-77.7877,2.5694],
[-77.861,2.56],
[-77.8974,2.578],
[-77.9036,2.6043],
[-77.9375,2.6509],
[-77.9503,2.5578],
[-77.987,2.5225],
[-78.1225,2.4874],
[-78.265,2.5192],
[-78.3465,2.4378],
[-78.428,2.5083],
[-78.4556,2.5042],
[-78.4653,2.4432],
[-78.5229,2.4342],
[-78.5411,2.4224],
[-78.5568,2.3906],
[-78.5653,2.4292],
[-78.6869,2.1935],
[-78.6542,2.0639],
[-78.6194,2.0299],
[-78.5963,2.0179],
[-78.5461,1.9171],
[-78.5497,1.8822],
[-78.5875,1.7672],
[-78.6211,1.7647],
[-78.7613,1.8208],
[-78.8449,1.8365],
[-78.8807,1.8256],
[-78.9721,1.7524],
[-79.0503,1.6318]
]
],
[
[
[-78.2152,2.5832],
[-78.1309,2.5005],
[-78.1193,2.5021],
[-78.0937,2.5311],
[-78.1035,2.5913],
[-78.1331,2.6461],
[-78.1913,2.6392],
[-78.209,2.6135],
[-78.2152,2.5832]
]
],
[
[
[-77.5485,4.1962],
[-77.5002,4.2097],
[-77.3331,4.2394],
[-77.3197,4.2517],
[-77.3562,4.263],
[-77.3763,4.309],
[-77.4281,4.333],
[-77.5386,4.2325],
[-77.5485,4.1962]
]
]
]}
}
