{
"type": "Feature",
"properties": {"id":"cshapes-565-1886-01-01","edge_precision":"unknown","cshapes_gwcode":565,"cshapes_name":"Namibia","cshapes_first_day":"1886-01-01","cshapes_last_day":"1886-12-29","cshapes_status":"colony","cshapes_owner":255,"cshapes_borders_defined":true},
"geometry": {"type": "MultiPolygon", "coordinates": [
[
[
[11.7702,-17.9945],
[11.8072,-18.0863],
[11.9439,-18.2478],
[11.9975,-18.3743],
[11.9979,-18.4133],
[12.0208,-18.4711],
[12.1256,-18.5778],
[12.2308,-18.6506],
[12.3067,-18.7172],
[12.4417,-18.8992],
[12.5422,-19.0678],
[12.64,-19.2617],
[12.7072,-19.4178],
[12.7733,-19.5391],
[12.9278,-19.7893],
[12.9892,-19.9094],
[13.0557,-20.0736],
[13.0844,-20.0994],
[13.1403,-20.1311],
[13.175,-20.1808],
[13.2239,-20.3078],
[13.2526,-20.4693],
[13.3528,-20.6467],
[13.3764,-20.7399],
[13.3778,-20.8044],
[13.4039,-20.8624],
[13.5769,-21.1292],
[13.8128,-21.4315],
[13.8592,-21.5077],
[13.8779,-21.5946],
[13.9567,-21.7019],
[13.968,-21.7347],
[13.9527,-21.7789],
[14.1025,-21.914],
[14.2858,-22.1233],
[14.4164,-22.3344],
[14.5114,-22.5528],
[14.539,-22.8018],
[14.535,-22.8816],
[14.5171,-22.926],
[14.4624,-22.997],
[14.4447,-22.9606],
[14.4478,-22.9265],
[14.4366,-22.8822],
[14.4106,-22.9672],
[14.4093,-23.0263],
[14.4311,-23.0994],
[14.4614,-23.1664],
[14.4981,-23.3243],
[14.4961,-23.3506],
[14.4816,-23.3731],
[14.4737,-23.346],
[14.4343,-23.4146],
[14.4408,-23.4514],
[14.495,-23.5828],
[14.5103,-23.8264],
[14.4601,-23.9586],
[14.4553,-23.9878],
[14.4626,-24.1033],
[14.4883,-24.1994],
[14.6143,-24.4617],
[14.6193,-24.4868],
[14.5981,-24.5599],
[14.6068,-24.5788],
[14.7294,-24.714],
[14.7793,-24.804],
[14.7943,-24.8585],
[14.7871,-24.8931],
[14.7917,-24.9379],
[14.8389,-25.0114],
[14.8567,-25.0589],
[14.8578,-25.0872],
[14.8342,-25.1875],
[14.801,-25.2804],
[14.8171,-25.3792],
[14.841,-25.4186],
[14.8809,-25.5673],
[14.8492,-25.6336],
[14.8343,-25.7419],
[14.9153,-25.9368],
[14.9575,-25.9878],
[14.9808,-26.0635],
[14.9743,-26.1302],
[14.9474,-26.1374],
[14.9592,-26.3081],
[14.9699,-26.3401],
[15.0475,-26.375],
[15.0881,-26.4032],
[15.1311,-26.4786],
[15.1718,-26.6017],
[15.1368,-26.6747],
[15.1317,-26.6317],
[15.094,-26.6342],
[15.0797,-26.65],
[15.095,-26.7353],
[15.1578,-26.9028],
[15.2186,-26.9367],
[15.2353,-26.9694],
[15.27,-27.1622],
[15.2644,-27.2147],
[15.2942,-27.3225],
[15.3992,-27.455],
[15.5192,-27.6269],
[15.5311,-27.6615],
[15.5219,-27.6818],
[15.531,-27.7304],
[15.6056,-27.7975],
[15.6714,-27.8735],
[15.6827,-27.9091],
[15.6765,-27.9292],
[15.6897,-27.9561],
[15.7564,-28.0342],
[15.8986,-28.1628],
[16.0232,-28.2417],
[16.1719,-28.3992],
[16.3933,-28.5911],
[16.4516,-28.6146],
[16.4896,-28.5782],
[16.6771,-28.4643],
[16.7006,-28.4903],
[16.7195,-28.499],
[16.7767,-28.4417],
[16.8016,-28.3628],
[16.8225,-28.2378],
[16.8869,-28.0924],
[16.9119,-28.0675],
[17.0758,-28.0303],
[17.1079,-28.0458],
[17.1343,-28.0871],
[17.189,-28.1141],
[17.1844,-28.2005],
[17.1986,-28.2236],
[17.2188,-28.2421],
[17.2788,-28.2383],
[17.3096,-28.221],
[17.3431,-28.2331],
[17.3981,-28.3422],
[17.3961,-28.4022],
[17.3614,-28.535],
[17.4009,-28.7084],
[17.422,-28.7153],
[17.4978,-28.6947],
[17.5898,-28.6895],
[17.6053,-28.7531],
[17.6434,-28.774],
[17.6793,-28.7699],
[17.7497,-28.7464],
[17.9125,-28.7792],
[17.9699,-28.8041],
[18.0444,-28.8681],
[18.1813,-28.9085],
[18.7192,-28.8365],
[18.9515,-28.8664],
[18.9704,-28.8776],
[19.0025,-28.9279],
[19.1083,-28.9619],
[19.1458,-28.955],
[19.2539,-28.8994],
[19.26,-28.8554],
[19.2398,-28.8024],
[19.2612,-28.7449],
[19.2772,-28.7313],
[19.3014,-28.7254],
[19.349,-28.7358],
[19.4478,-28.7108],
[19.4664,-28.6997],
[19.4907,-28.669],
[19.4939,-28.6331],
[19.5133,-28.595],
[19.5675,-28.5283],
[19.7436,-28.4856],
[19.7897,-28.4956],
[19.8122,-28.4925],
[19.9969,-28.4156],
[19.9986,-22.0033],
[19.9969,-17.9984],
[14.9943,-17.9937],
[12.167,-18.0009],
[11.7702,-17.9945]
]
]
]}
}
