{
"type": "Feature",
"properties": {"id":"cshapes-350-1886-01-01","edge_precision":"unknown","cshapes_gwcode":350,"cshapes_name":"Greece","cshapes_first_day":"1886-01-01","cshapes_last_day":"1913-08-09","cshapes_status":"independent","cshapes_owner":350,"cshapes_borders_defined":true},
"geometry": {"type": "MultiPolygon", "coordinates": [
[
[
[19.6407,39.7505],
[19.6746,39.676],
[19.7403,39.6247],
[19.8064,39.5906],
[19.8442,39.5519],
[19.8524,39.4897],
[19.8787,39.4485],
[20.0797,39.3683],
[20.1157,39.3674],
[20.0663,39.4486],
[20.0303,39.4321],
[19.9299,39.4744],
[19.925,39.6224],
[19.8467,39.6492],
[19.8394,39.6764],
[19.8425,39.7011],
[19.921,39.726],
[19.9428,39.7442],
[19.9496,39.7706],
[19.9261,39.7944],
[19.86,39.8176],
[19.7942,39.7904],
[19.6731,39.7931],
[19.6508,39.7725],
[19.6407,39.7505]
]
],
[
[
[20.3415,38.1989],
[20.3426,38.1779],
[20.3778,38.1567],
[20.5578,38.0906],
[20.735,38.0608],
[20.7935,38.0633],
[20.8126,38.1149],
[20.6806,38.2775],
[20.6125,38.3942],
[20.5667,38.4696],
[20.5419,38.4706],
[20.5342,38.4347],
[20.5492,38.391],
[20.5459,38.3602],
[20.5364,38.3447],
[20.4808,38.3088],
[20.4418,38.3265],
[20.3986,38.3256],
[20.3415,38.1989]
]
],
[
[
[20.5432,38.5661],
[20.6436,38.5811],
[20.7221,38.6271],
[20.7297,38.8057],
[20.7071,38.8324],
[20.6506,38.8326],
[20.6017,38.7789],
[20.5585,38.686],
[20.5432,38.5661]
]
],
[
[
[20.6143,38.4697],
[20.6447,38.398],
[20.6994,38.3175],
[20.7153,38.3067],
[20.7356,38.31],
[20.7607,38.3235],
[20.7433,38.3725],
[20.7072,38.4433],
[20.6711,38.4933],
[20.6528,38.5007],
[20.6143,38.4697]
]
],
[
[
[20.621,37.8542],
[20.6286,37.8132],
[20.7085,37.7278],
[20.8104,37.6526],
[20.8336,37.6464],
[20.8404,37.6853],
[20.8706,37.7257],
[20.9197,37.7301],
[20.9944,37.6986],
[20.9956,37.7196],
[20.8922,37.8099],
[20.8633,37.8292],
[20.7942,37.8489],
[20.7012,37.9292],
[20.6433,37.8983],
[20.621,37.8542]
]
],
[
[
[20.7328,38.8044],
[20.7688,38.7599],
[20.8097,38.7594],
[20.9011,38.7319],
[20.9879,38.6711],
[21.0864,38.5031],
[21.1105,38.4428],
[21.1077,38.4345],
[21.1385,38.3934],
[21.1087,38.3556],
[21.1642,38.3001],
[21.2383,38.3217],
[21.2669,38.3392],
[21.3372,38.3918],
[21.3581,38.4329],
[21.54,38.316],
[21.5958,38.3436],
[21.6367,38.3542],
[21.7131,38.3531],
[21.9478,38.4094],
[22.0428,38.398],
[22.1256,38.3714],
[22.1939,38.3372],
[22.3743,38.3346],
[22.3937,38.3519],
[22.3777,38.3874],
[22.4086,38.446],
[22.4624,38.426],
[22.5339,38.345],
[22.5878,38.3306],
[22.6897,38.3236],
[22.7735,38.2389],
[22.8353,38.2264],
[22.9444,38.1869],
[22.9431,38.2081],
[22.9669,38.2136],
[23.0253,38.2175],
[23.1183,38.2104],
[23.2246,38.1534],
[23.2158,38.1003],
[23.1689,38.0744],
[23.1001,38.0587],
[23.0524,38.0579],
[22.9555,38.0805],
[22.8814,38.05],
[22.86,38.0331],
[22.8992,38.0261],
[22.9764,37.9799],
[22.9556,37.949],
[22.9081,37.938],
[22.8628,37.9396],
[22.7994,37.9714],
[22.7215,38.0428],
[22.6522,38.0761],
[22.5369,38.1133],
[22.22,38.1836],
[22.0422,38.2739],
[22.0252,38.298],
[21.9586,38.3294],
[21.8536,38.3396],
[21.7768,38.306],
[21.7415,38.2751],
[21.719,38.2217],
[21.6735,38.1721],
[21.6417,38.1589],
[21.6039,38.1506],
[21.5347,38.1605],
[21.445,38.2008],
[21.3844,38.2114],
[21.3672,38.1142],
[21.3158,38.0289],
[21.2836,37.9942],
[21.1842,37.929],
[21.131,37.9371],
[21.111,37.8857],
[21.1108,37.8441],
[21.2179,37.8154],
[21.2853,37.7839],
[21.4011,37.6517],
[21.5764,37.5344],
[21.6497,37.4419],
[21.6814,37.3764],
[21.6958,37.3167],
[21.6724,37.271],
[21.5831,37.2027],
[21.5653,37.1551],
[21.5811,37.0639],
[21.6122,37.0269],
[21.7103,36.9446],
[21.6873,36.8838],
[21.6914,36.8433],
[21.7036,36.8167],
[21.7656,36.7939],
[21.824,36.7971],
[21.8751,36.7235],
[21.9381,36.7622],
[21.9617,36.798],
[21.938,36.8133],
[21.9242,36.8567],
[21.9297,36.974],
[21.9456,36.9926],
[22.0292,37.0247],
[22.1208,37.0267],
[22.1525,37.0185],
[22.1464,36.9508],
[22.1856,36.8928],
[22.2436,36.8733],
[22.2969,36.815],
[22.3561,36.6994],
[22.3775,36.5356],
[22.3975,36.4739],
[22.4889,36.3861],
[22.5078,36.4539],
[22.5036,36.4892],
[22.4856,36.5204],
[22.481,36.5994],
[22.5728,36.7739],
[22.5925,36.7907],
[22.6325,36.8036],
[22.7306,36.8058],
[22.7821,36.7993],
[22.9694,36.5218],
[23.09,36.44],
[23.1378,36.4262],
[23.2015,36.4402],
[23.11,36.5625],
[23.0789,36.5767],
[23.0351,36.63],
[23.029,36.7237],
[23.0869,36.7483],
[23.1138,36.7705],
[23.0908,36.8225],
[23.0528,36.8686],
[23.0146,36.9361],
[23.0064,37.0247],
[22.9572,37.1161],
[22.9074,37.1136],
[22.8957,37.1362],
[22.9044,37.178],
[22.8092,37.3456],
[22.7586,37.4081],
[22.7281,37.4856],
[22.7256,37.5634],
[22.7529,37.5854],
[22.7774,37.5901],
[22.9792,37.5158],
[23.1289,37.4481],
[23.1365,37.4276],
[23.0964,37.3912],
[23.0718,37.3947],
[23.0683,37.3558],
[23.1518,37.2968],
[23.1797,37.2904],
[23.2008,37.3029],
[23.2307,37.3789],
[23.2706,37.4008],
[23.3544,37.4161],
[23.4176,37.4097],
[23.4992,37.4233],
[23.5171,37.4327],
[23.5214,37.46],
[23.4456,37.5047],
[23.4218,37.5272],
[23.4058,37.5883],
[23.3279,37.6056],
[23.3467,37.5864],
[23.3626,37.5515],
[23.3312,37.5328],
[23.2775,37.5533],
[23.1659,37.615],
[23.1486,37.758],
[23.1036,37.8417],
[23.0103,37.8468],
[22.9918,37.8824],
[23.0189,37.9197],
[23.1092,37.9153],
[23.1303,37.9194],
[23.1767,37.9519],
[23.2368,37.9754],
[23.4156,37.986],
[23.4271,38.0025],
[23.4586,38.0206],
[23.5117,38.0393],
[23.5751,38.0429],
[23.5948,38.0285],
[23.5903,38.0036],
[23.5628,37.9805],
[23.7744,37.8344],
[23.8544,37.8082],
[23.8875,37.7828],
[23.9078,37.7611],
[23.9476,37.6719],
[24.034,37.6528],
[24.0658,37.6832],
[24.09,37.7767],
[24.0865,37.7982],
[24.0306,37.8725],
[24.0108,37.9714],
[24.0056,38.0678],
[24.0647,38.1511],
[24.074,38.195],
[23.9606,38.2817],
[23.8511,38.313],
[23.6756,38.3486],
[23.6571,38.3603],
[23.6019,38.4311],
[23.5929,38.4547],
[23.5347,38.4994],
[23.3994,38.5078],
[23.3369,38.5371],
[23.3056,38.5675],
[23.3367,38.6084],
[23.3175,38.644],
[23.2842,38.6537],
[23.1885,38.6556],
[23.1114,38.629],
[23.0662,38.6879],
[22.9536,38.7517],
[22.7643,38.7837],
[22.7133,38.8231],
[22.6686,38.8304],
[22.5819,38.8254],
[22.5558,38.8333],
[22.5239,38.8661],
[22.6144,38.909],
[22.6806,38.8792],
[22.7502,38.8707],
[22.8331,38.8911],
[22.9378,38.9286],
[23.0097,38.9778],
[23.0728,39.0369],
[22.995,39.0428],
[22.9953,39.0681],
[22.9696,39.1131],
[22.8764,39.1751],
[22.8555,39.1571],
[22.8236,39.2122],
[22.8175,39.2424],
[22.8239,39.2661],
[22.9408,39.3594],
[22.9953,39.3528],
[23.1212,39.3053],
[23.1786,39.2556],
[23.2215,39.1823],
[23.2121,39.1522],
[23.1744,39.1303],
[23.1041,39.1071],
[23.1141,39.1422],
[23.0772,39.1425],
[23.0549,39.0979],
[23.0842,39.0858],
[23.2061,39.1053],
[23.3206,39.1512],
[23.3437,39.1818],
[23.3275,39.2254],
[23.2632,39.3264],
[23.1181,39.4569],
[22.9269,39.589],
[22.8662,39.7265],
[22.8569,39.7814],
[22.7028,39.9579],
[22.6615,39.9747],
[22.6036,39.9519],
[22.5362,39.9455],
[22.4881,39.9519],
[22.4208,39.9135],
[22.3951,39.9135],
[22.3406,39.8974],
[22.3054,39.8333],
[22.3374,39.7884],
[22.3214,39.7114],
[22.3022,39.6986],
[22.2124,39.6826],
[22.1418,39.6249],
[22.0232,39.6441],
[22.0136,39.6698],
[21.9559,39.7114],
[21.8533,39.7403],
[21.8533,39.7595],
[21.9078,39.8173],
[21.9174,39.8493],
[21.8725,39.8846],
[21.741,39.8974],
[21.6224,39.8974],
[21.507,39.9359],
[21.4749,39.9359],
[21.4364,39.9295],
[21.3819,39.8878],
[21.2697,39.8814],
[21.2312,39.8718],
[21.1575,39.8269],
[21.1286,39.7467],
[21.0965,39.7211],
[21.0452,39.6185],
[20.9939,39.5511],
[20.9939,39.5062],
[21.0549,39.378],
[21.0613,39.3235],
[21.0516,39.285],
[20.9619,39.2273],
[20.9298,39.1952],
[20.9074,39.1311],
[20.9074,39.0708],
[21.0453,39.0133],
[21.083,39.0567],
[21.102,39.0508],
[21.1645,38.9821],
[21.1408,38.9319],
[21.0851,38.864],
[21.0262,38.8996],
[21.0311,38.9213],
[20.9703,38.9419],
[20.7811,38.9317],
[20.7497,38.9097],
[20.7328,38.8044]
]
],
[
[
[22.8328,38.8291],
[23.0981,38.8394],
[23.1501,38.8494],
[23.1981,38.8318],
[23.4922,38.6322],
[23.5971,38.5712],
[23.6247,38.5431],
[23.6358,38.5096],
[23.6207,38.4684],
[23.6422,38.4189],
[23.8058,38.3892],
[23.9383,38.3867],
[23.9974,38.4018],
[24.0553,38.3816],
[24.0527,38.3737],
[24.1108,38.2883],
[24.1486,38.2153],
[24.3872,37.9936],
[24.4806,37.9562],
[24.5129,37.9549],
[24.5642,37.9872],
[24.5878,38.0367],
[24.5907,38.0622],
[24.5612,38.1443],
[24.4657,38.1385],
[24.3368,38.1594],
[24.2583,38.2173],
[24.1872,38.3925],
[24.1536,38.5733],
[24.1539,38.6467],
[24.0075,38.673],
[23.9489,38.6631],
[23.7653,38.7067],
[23.5919,38.7647],
[23.4667,38.8479],
[23.4464,38.8725],
[23.3735,38.9991],
[23.3044,39.0373],
[23.2794,39.0367],
[23.1297,39.0033],
[22.93,38.8917],
[22.8469,38.8621],
[22.8328,38.8291]
]
],
[
[
[22.8956,36.3221],
[22.9117,36.2011],
[22.9264,36.1819],
[22.9926,36.144],
[23.0507,36.1406],
[23.1063,36.2416],
[22.9889,36.3236],
[22.957,36.3794],
[22.9278,36.3785],
[22.8956,36.3221]
]
],
[
[
[23.4055,37.9006],
[23.4551,37.8793],
[23.5427,37.9251],
[23.5397,37.9843],
[23.4965,37.9994],
[23.4375,37.9858],
[23.4103,37.9292],
[23.4055,37.9006]
]
],
[
[
[23.6028,39.205],
[23.6603,39.0894],
[23.7094,39.0739],
[23.7306,39.0731],
[23.7539,39.0836],
[23.7874,39.1183],
[23.6028,39.205]
]
],
[
[
[24.2694,37.591],
[24.281,37.5268],
[24.3052,37.5301],
[24.3686,37.583],
[24.3951,37.6158],
[24.4114,37.6532],
[24.3942,37.6733],
[24.3687,37.6822],
[24.3308,37.6793],
[24.2996,37.6564],
[24.2837,37.6312],
[24.2694,37.591]
]
],
[
[
[24.3256,36.6573],
[24.4136,36.6603],
[24.4769,36.6628],
[24.5394,36.6776],
[24.5494,36.6961],
[24.5487,36.7579],
[24.5133,36.7675],
[24.3466,36.7419],
[24.3256,36.6573]
]
],
[
[
[24.37,37.4295],
[24.372,37.3088],
[24.4017,37.3142],
[24.4461,37.3514],
[24.4827,37.4017],
[24.4676,37.4272],
[24.4319,37.441],
[24.4412,37.4746],
[24.4044,37.4637],
[24.37,37.4295]
]
],
[
[
[24.4535,38.8889],
[24.5347,38.7836],
[24.5609,38.7678],
[24.5971,38.7887],
[24.6191,38.7684],
[24.6531,38.7658],
[24.6822,38.7783],
[24.6817,38.8021],
[24.5775,38.9261],
[24.5043,38.9718],
[24.4832,38.9774],
[24.4556,38.9577],
[24.4535,38.8889]
]
],
[
[
[24.6936,37.9269],
[24.7151,37.8731],
[24.7369,37.8811],
[24.7671,37.8724],
[24.8306,37.8144],
[24.9156,37.7168],
[24.9539,37.6893],
[24.998,37.7629],
[24.9628,37.8725],
[24.7849,37.9976],
[24.7439,37.9906],
[24.6979,37.9639],
[24.6936,37.9269]
]
],
[
[
[24.9776,37.6683],
[24.995,37.64],
[25.1139,37.5511],
[25.2008,37.5274],
[25.23,37.5354],
[25.2553,37.5868],
[25.2439,37.6176],
[25.1878,37.6415],
[25.0787,37.6508],
[25.0481,37.6762],
[25.0106,37.6775],
[24.9776,37.6683]
]
],
[
[
[25.0988,37.0285],
[25.1218,36.9954],
[25.1914,36.9739],
[25.2503,37.0083],
[25.2662,37.046],
[25.2844,37.1283],
[25.2686,37.1386],
[25.2236,37.1408],
[25.1574,37.1168],
[25.1328,37.0933],
[25.0988,37.0285]
]
],
[
[
[25.2586,36.7289],
[25.3412,36.6529],
[25.3578,36.645],
[25.3882,36.6543],
[25.4078,36.7165],
[25.3056,36.7887],
[25.2775,36.7824],
[25.2631,36.7646],
[25.2586,36.7289]
]
],
[
[
[25.3451,37.0805],
[25.4351,36.9211],
[25.4571,36.9189],
[25.4864,36.9278],
[25.5533,36.9546],
[25.5887,37.0507],
[25.6,37.112],
[25.5958,37.1358],
[25.5656,37.1808],
[25.5419,37.1976],
[25.5033,37.1896],
[25.3451,37.0805]
]
]
]}
}
