{
"type": "Feature",
"properties": {"id":"cshapes-563-1886-01-01","edge_precision":"unknown","cshapes_gwcode":563,"cshapes_name":"Transvaal","cshapes_first_day":"1886-01-01","cshapes_last_day":"1910-05-29","cshapes_status":"independent","cshapes_owner":563,"cshapes_borders_defined":true},
"geometry": {"type": "MultiPolygon", "coordinates": [
[
[
[24.7792,-27.4595],
[24.7944,-27.4787],
[24.9308,-27.4801],
[24.9928,-27.4719],
[24.9983,-27.5091],
[24.979,-27.5476],
[24.9735,-27.5807],
[25.0534,-27.6275],
[25.0837,-27.6634],
[25.103,-27.7212],
[24.9528,-27.9031],
[24.8178,-28.0064],
[24.9418,-28.2062],
[24.9702,-28.2121],
[25.0272,-28.1883],
[25.041,-28.1525],
[25.0465,-28.0753],
[25.0658,-28.045],
[25.1443,-27.9996],
[25.2201,-27.9803],
[25.2422,-27.9651],
[25.3235,-27.8576],
[25.3538,-27.8356],
[25.486,-27.8053],
[25.6087,-27.797],
[25.6528,-27.8129],
[25.6879,-27.8142],
[25.6831,-27.7577],
[25.7072,-27.7398],
[25.774,-27.7357],
[25.8084,-27.7095],
[25.8429,-27.7247],
[25.8691,-27.7495],
[25.9462,-27.7371],
[25.9738,-27.7205],
[26.0096,-27.7316],
[26.0413,-27.7522],
[26.0413,-27.786],
[26.0881,-27.8129],
[26.1171,-27.7991],
[26.1129,-27.7688],
[26.0909,-27.7509],
[26.0881,-27.7068],
[26.0992,-27.6751],
[26.2383,-27.6269],
[26.2163,-27.5786],
[26.2273,-27.5401],
[26.2769,-27.4918],
[26.3169,-27.507],
[26.394,-27.4712],
[26.5153,-27.4753],
[26.5332,-27.4629],
[26.5235,-27.4381],
[26.4629,-27.4174],
[26.4657,-27.3885],
[26.4891,-27.3609],
[26.5042,-27.3058],
[26.456,-27.2452],
[26.4574,-27.208],
[26.569,-27.1763],
[26.6365,-27.2025],
[26.6262,-27.157],
[26.5917,-27.1336],
[26.591,-27.0985],
[26.6186,-27.0723],
[26.6537,-27.0578],
[26.735,-27.0644],
[26.7443,-27.044],
[26.7402,-27.0055],
[26.7616,-26.9951],
[26.805,-27.0027],
[26.8463,-26.9896],
[26.9503,-27.0275],
[26.9551,-27.0061],
[26.9372,-26.9655],
[26.9786,-26.9572],
[27.0006,-26.9779],
[27.0543,-26.9848],
[27.0709,-26.9738],
[27.1453,-26.9779],
[27.2514,-26.9545],
[27.2541,-27.0137],
[27.2803,-27.0137],
[27.3299,-26.9683],
[27.3823,-26.9683],
[27.4718,-26.982],
[27.5917,-26.8787],
[27.5297,-26.8112],
[27.5669,-26.7933],
[27.622,-26.7947],
[27.6496,-26.8332],
[27.7846,-26.8511],
[27.8039,-26.8387],
[27.7901,-26.8015],
[27.8383,-26.7933],
[27.8824,-26.8002],
[27.9279,-26.7464],
[27.9706,-26.7395],
[27.9995,-26.7671],
[28.0533,-26.858],
[28.0381,-26.8883],
[28.1042,-26.9173],
[28.1277,-26.9476],
[28.1345,-26.9903],
[28.2806,-26.9889],
[28.3095,-27.0027],
[28.3426,-27.0068],
[28.3757,-27.0344],
[28.4142,-27.0427],
[28.4735,-27.0206],
[28.5231,-27.0688],
[28.5444,-27.1129],
[28.6044,-27.0957],
[28.6595,-27.0564],
[28.6561,-27.0378],
[28.6003,-27.0165],
[28.6636,-26.98],
[28.6939,-26.9793],
[28.7284,-27.0192],
[28.8634,-27.0723],
[28.9578,-27.0551],
[29.0294,-27.0268],
[29.0715,-27.0268],
[29.1603,-27.0654],
[29.1383,-27.1019],
[29.1824,-27.2142],
[29.3339,-27.2059],
[29.3463,-27.2266],
[29.378,-27.2514],
[29.3532,-27.2941],
[29.3725,-27.3079],
[29.4015,-27.3148],
[29.4814,-27.3106],
[29.5089,-27.3203],
[29.5241,-27.341],
[29.5186,-27.3919],
[29.6384,-27.5628],
[29.7652,-27.589],
[29.7969,-27.5862],
[29.812,-27.5325],
[29.8506,-27.4925],
[29.8961,-27.4071],
[29.976,-27.4429],
[29.9732,-27.5504],
[29.9843,-27.6],
[29.9815,-27.6331],
[30.0187,-27.6771],
[30.0297,-27.7061],
[30.1097,-27.7254],
[30.2199,-27.7708],
[30.2543,-27.8852],
[30.2695,-27.9899],
[30.2901,-28.034],
[30.3425,-28.0588],
[30.3673,-28.1139],
[30.3921,-28.1456],
[30.4293,-28.1704],
[30.4679,-28.2241],
[30.4913,-28.1525],
[30.5382,-28.0932],
[30.5395,-28.0381],
[30.5588,-28.0078],
[30.6208,-28.0712],
[30.6401,-28.1112],
[30.6649,-28.1401],
[30.6925,-28.1539],
[30.7669,-28.2228],
[30.8068,-28.22],
[30.8516,-28.2593],
[30.8606,-28.395],
[30.8991,-28.4859],
[30.9543,-28.5162],
[31.0645,-28.5341],
[31.2105,-28.6017],
[31.2519,-28.6099],
[31.3221,-28.6485],
[31.3414,-28.6458],
[31.3497,-28.6265],
[31.3414,-28.5934],
[31.3483,-28.5714],
[31.4007,-28.5149],
[31.3607,-28.4763],
[31.3373,-28.4363],
[31.3373,-28.3578],
[31.307,-28.2696],
[31.2849,-28.1676],
[31.2877,-28.0574],
[31.2739,-27.9555],
[31.2739,-27.87],
[31.307,-27.8149],
[31.3538,-27.7763],
[31.4613,-27.735],
[31.4889,-27.6248],
[31.5385,-27.5311],
[31.7479,-27.5201],
[31.9573,-27.5201],
[32.0345,-27.5035],
[32.0111,-27.3482],
[31.9856,-27.3164],
[31.5175,-27.3131],
[31.1617,-27.2031],
[30.9683,-26.9608],
[30.8994,-26.7719],
[30.8803,-26.7933],
[30.8208,-26.8102],
[30.8036,-26.7025],
[30.8022,-26.4684],
[30.8294,-26.3908],
[30.9694,-26.2383],
[31.0639,-26.0914],
[31.1093,-25.9879],
[31.1268,-25.9211],
[31.3257,-25.7533],
[31.4217,-25.7283],
[31.8781,-25.9956],
[31.9685,-25.9578],
[31.9194,-25.8142],
[32.0061,-25.6158],
[32.005,-25.5369],
[31.9882,-25.5111],
[31.9911,-25.4211],
[32.01,-25.3461],
[32.0167,-25.1106],
[32.0186,-25.035],
[31.9956,-24.7044],
[32.0161,-24.4594],
[31.9639,-24.3069],
[31.8858,-24.1711],
[31.8773,-23.9574],
[31.8447,-23.9072],
[31.7697,-23.8564],
[31.6886,-23.6803],
[31.6836,-23.6136],
[31.6215,-23.5408],
[31.5508,-23.4767],
[31.5375,-23.4172],
[31.5617,-23.1867],
[31.3021,-22.4186],
[31.2656,-22.3704],
[31.1575,-22.3235],
[31.1224,-22.3253],
[31.0932,-22.3361],
[31.0647,-22.3336],
[30.9043,-22.2893],
[30.7811,-22.2933],
[30.6368,-22.3297],
[30.4862,-22.3118],
[30.4167,-22.3357],
[30.301,-22.3444],
[30.0311,-22.2378],
[29.939,-22.1913],
[29.9027,-22.1946],
[29.7261,-22.1392],
[29.67,-22.1364],
[29.4446,-22.1646],
[29.3736,-22.1924],
[29.2742,-22.1942],
[29.0248,-22.2271],
[28.9611,-22.326],
[28.9647,-22.3888],
[28.9178,-22.455],
[28.6383,-22.5618],
[28.3565,-22.5764],
[28.2983,-22.6094],
[28.1796,-22.6864],
[28.1597,-22.7236],
[28.1566,-22.7715],
[28.0494,-22.8631],
[27.9722,-22.9528],
[27.9439,-23.0314],
[27.7839,-23.1703],
[27.7046,-23.2008],
[27.604,-23.2192],
[27.5728,-23.2667],
[27.5572,-23.3483],
[27.5291,-23.3794],
[27.4072,-23.3872],
[27.3397,-23.3997],
[27.1481,-23.5247],
[27.0697,-23.6361],
[27.0306,-23.6538],
[27.0052,-23.6438],
[26.9783,-23.6917],
[26.9613,-23.7559],
[26.8806,-24.0878],
[26.8524,-24.2538],
[26.8304,-24.2751],
[26.7878,-24.2953],
[26.7263,-24.3108],
[26.555,-24.4369],
[26.4936,-24.5111],
[26.4614,-24.5844],
[26.4403,-24.6064],
[26.398,-24.6288],
[26.36,-24.6189],
[26.2653,-24.6375],
[25.9183,-24.7383],
[25.8714,-24.7444],
[25.8722,-24.9053],
[25.6714,-25.4703],
[25.5858,-25.6199],
[25.5097,-25.6778],
[25.4486,-25.7133],
[25.506,-25.8012],
[25.5405,-25.8302],
[25.6934,-25.9142],
[25.7347,-25.9528],
[25.765,-25.9928],
[25.7595,-26.0203],
[25.5225,-26.1953],
[25.4895,-26.2532],
[25.4681,-26.3172],
[25.4419,-26.3558],
[25.176,-26.5501],
[25.114,-26.6093],
[25.1044,-26.7788],
[25.114,-26.8298],
[25.0947,-26.8904],
[25.0493,-26.9882],
[25.0438,-27.1439],
[25.03,-27.1756],
[24.957,-27.2652],
[24.793,-27.4043],
[24.782,-27.4291],
[24.7792,-27.4595]
]
]
]}
}
