{
"type": "Feature",
"properties": {"id":"cshapes-522-1977-06-27","edge_precision":"unknown","cshapes_gwcode":522,"cshapes_name":"Djibouti","cshapes_first_day":"1977-06-27","cshapes_last_day":"2019-12-31","cshapes_status":"independent","cshapes_owner":522,"cshapes_borders_defined":true},
"geometry": {"type": "MultiPolygon", "coordinates": [
[
[
[41.7599,11.5079],
[41.7937,11.381],
[41.8119,11.2579],
[41.8006,11.0311],
[41.7897,11.0081],
[41.8083,10.9853],
[41.8372,10.9731],
[41.9403,10.95],
[42.0197,10.9447],
[42.1255,10.9994],
[42.3589,11.0192],
[42.6404,11.0971],
[42.7482,11.0779],
[42.7693,11.0232],
[42.811,10.9883],
[42.891,10.9821],
[42.9441,11.0024],
[43.2492,11.4695],
[43.1572,11.5708],
[42.9475,11.5853],
[42.8283,11.5772],
[42.6907,11.5401],
[42.666,11.5183],
[42.6831,11.4904],
[42.6239,11.4667],
[42.5951,11.4686],
[42.5315,11.5119],
[42.5327,11.5473],
[42.5086,11.5672],
[42.5301,11.5801],
[42.6272,11.5444],
[42.6749,11.5624],
[42.7164,11.6522],
[42.7726,11.7312],
[42.8836,11.7742],
[43.0476,11.8001],
[43.1944,11.9481],
[43.2187,11.9578],
[43.2926,11.9656],
[43.3709,11.9933],
[43.4149,12.0631],
[43.4204,12.1387],
[43.4101,12.2347],
[43.3742,12.2847],
[43.3222,12.4789],
[43.2878,12.4936],
[43.2075,12.5844],
[43.1214,12.7083],
[42.9297,12.6239],
[42.8106,12.5249],
[42.8084,12.4879],
[42.8194,12.4456],
[42.7499,12.3876],
[42.6986,12.3639],
[42.6492,12.3986],
[42.5883,12.4678],
[42.5358,12.5042],
[42.4561,12.5292],
[42.3394,12.3969],
[42.3083,12.3083],
[42.2556,12.2633],
[42.1689,12.1372],
[42.1272,12.0903],
[42.0586,11.9758],
[41.9486,11.8167],
[41.8914,11.7736],
[41.829,11.741],
[41.7599,11.5079]
]
]
]}
}
