{
"type": "Feature",
"properties": {"id":"cshapes-439-1947-01-04","edge_precision":"unknown","cshapes_gwcode":439,"cshapes_name":"Burkina Faso (Upper Volta)","cshapes_first_day":"1947-01-04","cshapes_last_day":"1960-08-04","cshapes_status":"colony","cshapes_owner":220,"cshapes_borders_defined":true},
"geometry": {"type": "MultiPolygon", "coordinates": [
[
[
[-5.5202,10.4332],
[-5.4703,10.3481],
[-5.4041,10.2976],
[-5.3711,10.2894],
[-5.2686,10.3192],
[-5.1282,10.3031],
[-4.9903,10.0639],
[-4.9497,9.9486],
[-4.7864,9.8281],
[-4.7854,9.7829],
[-4.8102,9.7778],
[-4.7753,9.7367],
[-4.7044,9.6981],
[-4.6552,9.7029],
[-4.605,9.7207],
[-4.4261,9.6575],
[-4.3111,9.6005],
[-4.2831,9.6517],
[-4.262,9.7429],
[-4.1242,9.8293],
[-4.0342,9.8069],
[-3.8865,9.896],
[-3.7536,9.935],
[-3.6371,9.9544],
[-3.2086,9.9014],
[-2.9861,9.7244],
[-2.9692,9.6999],
[-2.921,9.5768],
[-2.8014,9.4239],
[-2.7797,9.4036],
[-2.757,9.3957],
[-2.7317,9.4108],
[-2.6871,9.4843],
[-2.714,9.5212],
[-2.769,9.5697],
[-2.7696,9.6008],
[-2.7481,9.6547],
[-2.7851,9.6882],
[-2.7942,9.7324],
[-2.7632,9.8006],
[-2.7772,10.0081],
[-2.7954,10.055],
[-2.7944,10.1631],
[-2.7714,10.2169],
[-2.8919,10.5194],
[-2.9164,10.5981],
[-2.9161,10.6553],
[-2.9275,10.7081],
[-2.9069,10.7371],
[-2.8369,10.8858],
[-2.834,11.002],
[-1.5708,11.0003],
[-1.5602,11.0236],
[-1.4197,11.0265],
[-1.3728,10.9997],
[-0.9869,11.0144],
[-0.6792,10.9932],
[-0.6661,10.9568],
[-0.6185,10.9139],
[-0.3642,11.0847],
[-0.2869,11.1557],
[-0.1769,11.1447],
[-0.1456,11.1312],
[-0.0897,11.1272],
[0.5056,11.0046],
[0.5149,10.9754],
[0.5042,10.9369],
[0.6661,10.9961],
[0.918,10.9964],
[0.9853,11.0794],
[1.0831,11.1225],
[1.1489,11.2244],
[1.1928,11.2653],
[1.2647,11.2461],
[1.3438,11.315],
[1.3281,11.3429],
[1.39,11.4335],
[1.4244,11.4524],
[1.4825,11.4597],
[1.57,11.4511],
[1.5864,11.4056],
[1.6124,11.3885],
[1.7369,11.4158],
[1.8039,11.4394],
[1.8747,11.4428],
[1.8972,11.4315],
[1.9893,11.4171],
[2.0167,11.4246],
[2.1939,11.6036],
[2.2622,11.646],
[2.3089,11.6883],
[2.3947,11.894],
[2.0583,12.3572],
[2.0769,12.3835],
[2.1617,12.4156],
[2.2356,12.4185],
[2.2561,12.4811],
[2.2208,12.5936],
[2.2008,12.6308],
[2.1423,12.6941],
[2.1064,12.7147],
[1.9889,12.7311],
[1.9281,12.7006],
[1.8717,12.6089],
[1.5783,12.63],
[1.1172,13.0111],
[1.0114,13.0239],
[0.9892,13.0472],
[0.9917,13.3717],
[1.0439,13.3636],
[1.1794,13.3135],
[1.2765,13.3481],
[1.243,13.3898],
[1.2065,13.3875],
[1.1708,13.3964],
[1.0317,13.4625],
[1.0153,13.4878],
[1.0158,13.5238],
[0.9967,13.566],
[0.7864,13.6689],
[0.625,13.6842],
[0.6076,13.6988],
[0.5156,13.8542],
[0.465,13.9136],
[0.3548,14.131],
[0.3924,14.1807],
[0.4087,14.2451],
[0.3211,14.3628],
[0.2964,14.3672],
[0.1894,14.4647],
[0.1667,14.5231],
[0.2414,14.7522],
[0.1964,14.8421],
[0.2324,14.8802],
[0.235,14.9151],
[-0.2464,15.0775],
[-0.3867,15.0053],
[-0.4436,15.0828],
[-0.7242,15.0826],
[-1.0742,14.7769],
[-1.0939,14.7842],
[-1.3189,14.7286],
[-1.6783,14.5006],
[-1.7778,14.4811],
[-1.9075,14.4886],
[-1.9808,14.4747],
[-2.0069,14.1878],
[-2.1056,14.152],
[-2.2894,14.2383],
[-2.4651,14.2861],
[-2.5997,14.2117],
[-2.6467,14.1619],
[-2.8156,14.0503],
[-2.84,14.0056],
[-2.9038,13.8224],
[-2.9044,13.7217],
[-2.8822,13.6643],
[-2.9503,13.6311],
[-3.0994,13.6861],
[-3.2111,13.7081],
[-3.2575,13.6967],
[-3.2733,13.5503],
[-3.2372,13.3597],
[-3.2322,13.2881],
[-3.4261,13.2761],
[-3.4427,13.261],
[-3.4244,13.2114],
[-3.4271,13.1842],
[-3.4433,13.1689],
[-3.5381,13.1783],
[-3.5886,13.2028],
[-3.9033,13.4485],
[-3.9603,13.5026],
[-3.9761,13.4761],
[-4.1566,13.2782],
[-4.1919,13.276],
[-4.2369,13.2408],
[-4.3136,13.1643],
[-4.3356,13.1195],
[-4.2772,13.0217],
[-4.2176,12.9696],
[-4.2074,12.9485],
[-4.1944,12.8286],
[-4.2211,12.7353],
[-4.2632,12.7178],
[-4.4696,12.7188],
[-4.4749,12.6653],
[-4.4533,12.6381],
[-4.4288,12.629],
[-4.3706,12.5287],
[-4.4186,12.4726],
[-4.4361,12.4293],
[-4.4175,12.3008],
[-4.4825,12.2747],
[-4.5694,12.2011],
[-4.6249,12.1154],
[-4.6334,12.0672],
[-4.6986,12.0628],
[-5.1175,11.9644],
[-5.1471,11.9528],
[-5.2731,11.8439],
[-5.2875,11.7881],
[-5.2686,11.6869],
[-5.2017,11.5382],
[-5.2086,11.4617],
[-5.2478,11.2526],
[-5.2994,11.1394],
[-5.3626,11.1014],
[-5.4636,11.0869],
[-5.4856,11.0773],
[-5.4794,11.0022],
[-5.4433,10.8972],
[-5.4192,10.8694],
[-5.4112,10.8417],
[-5.4643,10.6993],
[-5.4836,10.5272],
[-5.5202,10.4332]
]
]
]}
}
