{
"type": "Feature",
"properties": {"id":"cshapes-960-1903-05-19","edge_precision":"unknown","cshapes_gwcode":960,"cshapes_name":"French Polynesia","cshapes_first_day":"1903-05-19","cshapes_last_day":"2019-12-31","cshapes_status":"colony","cshapes_owner":220,"cshapes_borders_defined":true},
"geometry": {"type": "MultiPolygon", "coordinates": [
[
[
[-152.2222,-16.3932],
[-152.1749,-16.4405],
[-152.113,-16.4223],
[-152.1494,-16.375],
[-152.1967,-16.3678],
[-152.2222,-16.3932]
]
],
[
[
[-151.8258,-16.2133],
[-151.8146,-16.2622],
[-151.7637,-16.2549],
[-151.8001,-16.2113],
[-151.8258,-16.2133]
]
],
[
[
[-151.7382,-16.4478],
[-151.7127,-16.4842],
[-151.6545,-16.4697],
[-151.6509,-16.4333],
[-151.6946,-16.4114],
[-151.7164,-16.4223],
[-151.7382,-16.4478]
]
],
[
[
[-151.5281,-16.6302],
[-151.5136,-16.6484],
[-151.4481,-16.652],
[-151.4263,-16.6375],
[-151.4153,-16.6011],
[-151.4299,-16.5683],
[-151.5136,-16.5538],
[-151.5281,-16.6302]
]
],
[
[
[-151.4699,-16.7794],
[-151.4663,-16.8413],
[-151.4299,-16.8995],
[-151.4226,-16.925],
[-151.3899,-16.8813],
[-151.3316,-16.8704],
[-151.3607,-16.8413],
[-151.3971,-16.834],
[-151.4226,-16.8085],
[-151.4044,-16.7758],
[-151.4081,-16.7503],
[-151.4335,-16.7176],
[-151.4517,-16.7357],
[-151.4699,-16.7794]
]
],
[
[
[-151.4435,-22.3213],
[-151.3416,-22.3359],
[-151.3052,-22.2849],
[-151.3561,-22.2485],
[-151.378,-22.2485],
[-151.4435,-22.2849],
[-151.4435,-22.3213]
]
],
[
[
[-151.0322,-16.6298],
[-151.0068,-16.6443],
[-150.9849,-16.6443],
[-150.9849,-16.5825],
[-151.025,-16.6007],
[-151.0322,-16.6298]
]
],
[
[
[-150.6137,-17.4922],
[-150.6065,-17.5141],
[-150.5519,-17.5359],
[-150.541,-17.5032],
[-150.5592,-17.4922],
[-150.5701,-17.474],
[-150.5919,-17.474],
[-150.6137,-17.4922]
]
],
[
[
[-149.9441,-17.4947],
[-149.8749,-17.5602],
[-149.8313,-17.5493],
[-149.7912,-17.4747],
[-149.8203,-17.4692],
[-149.8403,-17.491],
[-149.8895,-17.4874],
[-149.904,-17.4765],
[-149.9441,-17.4947]
]
],
[
[
[-149.6402,-17.6111],
[-149.602,-17.6985],
[-149.5146,-17.7203],
[-149.4928,-17.7058],
[-149.4819,-17.7458],
[-149.4601,-17.713],
[-149.4018,-17.7276],
[-149.3473,-17.7312],
[-149.3181,-17.7458],
[-149.2817,-17.8149],
[-149.2199,-17.8222],
[-149.1762,-17.8186],
[-149.1617,-17.7603],
[-149.1689,-17.7312],
[-149.1944,-17.7203],
[-149.2672,-17.7203],
[-149.2963,-17.6948],
[-149.34,-17.6985],
[-149.3436,-17.6512],
[-149.3363,-17.6293],
[-149.3509,-17.5966],
[-149.42,-17.5202],
[-149.4637,-17.4983],
[-149.565,-17.5088],
[-149.6165,-17.5384],
[-149.6275,-17.5529],
[-149.6402,-17.6111]
]
],
[
[
[-149.4929,-23.2456],
[-149.4492,-23.2748],
[-149.442,-23.2093],
[-149.4711,-23.1874],
[-149.4929,-23.2456]
]
],
[
[
[-148.1755,-14.9995],
[-148.11,-15.0359],
[-148.0082,-14.9194],
[-148.0809,-14.8976],
[-148.161,-14.9303],
[-148.1634,-14.9774],
[-148.1755,-14.9995]
]
],
[
[
[-147.8626,-23.8279],
[-147.8044,-23.8425],
[-147.7534,-23.8425],
[-147.7389,-23.8133],
[-147.8262,-23.777],
[-147.8626,-23.8279]
]
],
[
[
[-147.848,-15.1086],
[-147.6879,-15.2105],
[-147.3968,-15.3051],
[-147.193,-15.2833],
[-147.1712,-15.2105],
[-147.4841,-15.1523],
[-147.5205,-15.0431],
[-147.5933,-14.9703],
[-147.7461,-14.9412],
[-147.8408,-15.0213],
[-147.848,-15.1086]
]
],
[
[
[-146.8655,-15.6327],
[-146.7709,-15.7637],
[-146.6253,-15.7637],
[-146.4725,-15.8001],
[-146.3997,-15.7491],
[-146.4943,-15.72],
[-146.6326,-15.6545],
[-146.7563,-15.5599],
[-146.8655,-15.6327]
]
],
[
[
[-146.8436,-15.276],
[-146.8291,-15.3561],
[-146.7199,-15.3998],
[-146.6544,-15.3706],
[-146.5962,-15.2979],
[-146.6471,-15.2033],
[-146.7054,-15.1523],
[-146.8073,-15.1741],
[-146.7563,-15.2469],
[-146.8436,-15.276]
]
],
[
[
[-146.4506,-15.4216],
[-146.356,-15.4798],
[-146.1449,-15.3706],
[-146.2104,-15.2979],
[-146.2832,-15.2396],
[-146.3997,-15.2396],
[-146.4361,-15.3124],
[-146.4506,-15.4216]
]
],
[
[
[-146.1231,-15.8437],
[-146.043,-15.9238],
[-145.8756,-15.9311],
[-145.781,-15.9238],
[-145.832,-15.7928],
[-145.9775,-15.7709],
[-146.054,-15.7491],
[-146.0358,-15.8583],
[-146.1231,-15.8437]
]
],
[
[
[-145.781,-16.1057],
[-145.701,-16.2004],
[-145.65,-16.3678],
[-145.6063,-16.4114],
[-145.4826,-16.4624],
[-145.388,-16.4769],
[-145.3152,-16.3896],
[-145.4098,-16.2659],
[-145.5263,-16.1349],
[-145.5918,-16.0402],
[-145.6573,-15.982],
[-145.7374,-16.0548],
[-145.781,-16.1057]
]
],
[
[
[-144.9076,-16.7681],
[-144.8203,-16.819],
[-144.602,-16.8991],
[-144.5583,-16.87],
[-144.682,-16.7826],
[-144.7839,-16.7462],
[-144.8931,-16.7389],
[-144.9076,-16.7681]
]
],
[
[
[-143.9542,-16.3969],
[-143.7868,-16.4915],
[-143.6194,-16.557],
[-143.4738,-16.6516],
[-143.3428,-16.6516],
[-143.3356,-16.5788],
[-143.503,-16.506],
[-143.6412,-16.4697],
[-143.7868,-16.4042],
[-143.8741,-16.3459],
[-143.9542,-16.3969]
]
],
[
[
[-143.2992,-16.95],
[-143.2337,-17.0228],
[-143.1027,-17.0956],
[-142.9935,-17.0592],
[-143.0808,-16.95],
[-143.2264,-16.8481],
[-143.2701,-16.8845],
[-143.2992,-16.95]
]
],
[
[
[-143.1864,-16.2459],
[-143.1172,-16.3386],
[-143.1099,-16.3095],
[-143.0444,-16.2513],
[-143.1099,-16.1822],
[-143.1683,-16.1906],
[-143.1864,-16.2459]
]
],
[
[
[-142.4694,-16.1494],
[-142.2948,-16.0621],
[-142.3093,-15.9383],
[-142.353,-15.8801],
[-142.3748,-15.8728],
[-142.4403,-15.9675],
[-142.4694,-16.1494]
]
],
[
[
[-142.3457,-17.9981],
[-142.2438,-18.0636],
[-142.2293,-18.0927],
[-142.2147,-18.1873],
[-142.1565,-18.1728],
[-142.222,-17.9253],
[-142.2948,-17.918],
[-142.3457,-17.9981]
]
],
[
[
[-141.072,-18.1145],
[-140.9046,-18.3183],
[-140.7955,-18.3911],
[-140.6353,-18.3838],
[-140.7518,-18.2019],
[-140.7955,-18.1],
[-140.9046,-18.0054],
[-141.0284,-18.0417],
[-141.072,-18.1145]
]
],
[
[
[-140.8828,-15.8728],
[-140.7591,-15.851],
[-140.7882,-15.7564],
[-140.8464,-15.7782],
[-140.8828,-15.8728]
]
],
[
[
[-140.7081,-21.7027],
[-140.6062,-21.7318],
[-140.5262,-21.6954],
[-140.599,-21.5498],
[-140.7081,-21.6153],
[-140.7081,-21.7027]
]
],
[
[
[-140.6899,-8.0815],
[-140.6681,-8.1034],
[-140.639,-8.107],
[-140.6244,-8.0852],
[-140.5917,-8.0197],
[-140.6717,-8.0452],
[-140.6899,-8.0815]
]
],
[
[
[-140.1841,-8.8821],
[-140.155,-8.984],
[-140.064,-8.9768],
[-139.9985,-8.9295],
[-139.9512,-8.9331],
[-139.933,-8.9003],
[-139.9585,-8.8421],
[-140.0203,-8.8567],
[-140.1695,-8.853],
[-140.1841,-8.8821]
]
],
[
[
[-140.155,-15.9602],
[-140.1404,-16.0475],
[-140.024,-15.9893],
[-140.024,-15.9238],
[-140.0385,-15.8801],
[-140.0968,-15.9383],
[-140.155,-15.9602]
]
],
[
[
[-140.0786,-9.4025],
[-140.0749,-9.4426],
[-140.0021,-9.4972],
[-139.9694,-9.5008],
[-139.9548,-9.4535],
[-139.9621,-9.3843],
[-140.0058,-9.3516],
[-140.0349,-9.3589],
[-140.0495,-9.3807],
[-140.0786,-9.4025]
]
],
[
[
[-139.58,-8.9513],
[-139.5545,-8.9768],
[-139.5109,-8.9549],
[-139.4526,-8.9586],
[-139.4708,-8.9149],
[-139.5072,-8.904],
[-139.5327,-8.9113],
[-139.5582,-8.9222],
[-139.58,-8.9513]
]
],
[
[
[-139.4053,-19.33],
[-139.3398,-19.3737],
[-139.318,-19.3154],
[-139.2889,-19.2426],
[-139.3835,-19.279],
[-139.4053,-19.33]
]
],
[
[
[-139.2088,-20.7783],
[-139.1433,-20.7929],
[-139.1069,-20.7929],
[-139.1288,-20.742],
[-139.1506,-20.7128],
[-139.2088,-20.7783]
]
],
[
[
[-139.1251,-9.8174],
[-139.0996,-9.8247],
[-139.0669,-9.8683],
[-139.0414,-9.8829],
[-138.9905,-9.821],
[-138.9686,-9.8429],
[-138.9068,-9.8538],
[-138.8449,-9.8174],
[-138.783,-9.7992],
[-138.834,-9.7846],
[-138.8995,-9.7846],
[-139.0159,-9.7337],
[-139.0159,-9.7664],
[-139.1251,-9.8174]
]
],
[
[
[-139.1178,-10.0248],
[-139.0924,-10.0612],
[-139.0924,-10.0285],
[-139.0232,-9.9793],
[-139.0996,-9.9411],
[-139.1178,-9.9993],
[-139.1178,-10.0248]
]
],
[
[
[-139.005,-21.921],
[-138.8231,-21.9065],
[-138.8085,-21.8337],
[-138.925,-21.7682],
[-138.9832,-21.7682],
[-139.005,-21.8482],
[-139.005,-21.921]
]
],
[
[
[-138.8085,-19.41],
[-138.7576,-19.461],
[-138.6411,-19.4683],
[-138.6775,-19.4246],
[-138.7285,-19.3737],
[-138.8085,-19.41]
]
],
[
[
[-138.6193,-20.7783],
[-138.5392,-20.7929],
[-138.5174,-20.7128],
[-138.5683,-20.6837],
[-138.6193,-20.7783]
]
],
[
[
[-138.6084,-10.4615],
[-138.6047,-10.5343],
[-138.5902,-10.5598],
[-138.574,-10.552],
[-138.5611,-10.5125],
[-138.5793,-10.4797],
[-138.6084,-10.4615]
]
],
[
[
[-138.4301,-17.343],
[-138.3791,-17.3503],
[-138.3136,-17.3358],
[-138.299,-17.263],
[-138.3864,-17.2775],
[-138.4301,-17.343]
]
],
[
[
[-137.1491,-23.1947],
[-137.12,-23.2165],
[-137.0363,-23.2384],
[-137.0326,-23.1146],
[-137.12,-23.1074],
[-137.1491,-23.1947]
]
],
[
[
[-137.0981,-18.2965],
[-137.0545,-18.3401],
[-136.7706,-18.4202],
[-137.0181,-18.2455],
[-137.0981,-18.2965]
]
],
[
[
[-136.4649,-21.4043],
[-136.4577,-21.4989],
[-136.3849,-21.5207],
[-136.3558,-21.5862],
[-136.3194,-21.5571],
[-136.363,-21.4843],
[-136.3994,-21.4698],
[-136.4649,-21.4043]
]
],
[
[
[-136.3994,-18.6167],
[-136.152,-18.6094],
[-136.2029,-18.5003],
[-136.2757,-18.4712],
[-136.3849,-18.4639],
[-136.3994,-18.5003],
[-136.3994,-18.6167]
]
],
[
[
[-136.2248,-22.0884],
[-136.2102,-22.103],
[-136.1738,-22.0957],
[-136.1483,-22.0666],
[-136.1447,-22.0375],
[-136.2175,-22.0302],
[-136.2248,-22.0884]
]
],
[
[
[-135.628,-21.5498],
[-135.6061,-21.6444],
[-135.4897,-21.6444],
[-135.4606,-21.5717],
[-135.4533,-21.5134],
[-135.577,-21.5062],
[-135.628,-21.5498]
]
]
]}
}
