{
"type": "Feature",
"properties": {"id":"cshapes-581-1975-07-06","edge_precision":"unknown","cshapes_gwcode":581,"cshapes_name":"Comoros","cshapes_first_day":"1975-07-06","cshapes_last_day":"2019-12-31","cshapes_status":"independent","cshapes_owner":581,"cshapes_borders_defined":true},
"geometry": {"type": "MultiPolygon", "coordinates": [
[
[
[43.2145,-11.7381],
[43.2201,-11.7635],
[43.2726,-11.8335],
[43.2931,-11.8464],
[43.4578,-11.9353],
[43.4871,-11.9164],
[43.4978,-11.8861],
[43.4383,-11.7289],
[43.3836,-11.6444],
[43.3748,-11.6153],
[43.3962,-11.4118],
[43.3767,-11.3768],
[43.3369,-11.3676],
[43.2823,-11.3806],
[43.2631,-11.4043],
[43.2505,-11.4396],
[43.2446,-11.6692],
[43.2197,-11.7142],
[43.2145,-11.7381]
]
],
[
[
[43.6231,-12.2792],
[43.6303,-12.3],
[43.6628,-12.3539],
[43.7119,-12.3636],
[43.775,-12.3636],
[43.8544,-12.3831],
[43.8598,-12.3606],
[43.83,-12.3304],
[43.7311,-12.2711],
[43.6454,-12.2422],
[43.6255,-12.2544],
[43.6231,-12.2792]
]
],
[
[
[44.2122,-12.1635],
[44.2247,-12.1849],
[44.391,-12.2699],
[44.4879,-12.3696],
[44.5131,-12.3793],
[44.5267,-12.3661],
[44.5304,-12.3478],
[44.5183,-12.2136],
[44.4836,-12.0872],
[44.4603,-12.0705],
[44.4132,-12.0933],
[44.4203,-12.1219],
[44.4099,-12.1515],
[44.3739,-12.1781],
[44.2975,-12.1871],
[44.2122,-12.1635]
]
]
]}
}
