{
"type": "Feature",
"properties": {"id":"cshapes-692-1971-08-15","edge_precision":"unknown","cshapes_gwcode":692,"cshapes_name":"Bahrain","cshapes_first_day":"1971-08-15","cshapes_last_day":"2019-12-31","cshapes_status":"independent","cshapes_owner":692,"cshapes_borders_defined":true},
"geometry": {"type": "MultiPolygon", "coordinates": [
[
[
[50.454,26.2048],
[50.4694,26.1117],
[50.4917,26.0514],
[50.4643,25.9838],
[50.464,25.9574],
[50.5553,25.8119],
[50.5733,25.8097],
[50.6075,25.8628],
[50.6192,25.9739],
[50.6183,26.0564],
[50.6146,26.1225],
[50.5542,26.1914],
[50.5989,26.1919],
[50.6093,26.2067],
[50.5859,26.2376],
[50.5473,26.2269],
[50.5054,26.2399],
[50.4651,26.23],
[50.454,26.2048]
]
],
[
[
[50.6076,26.2712],
[50.613,26.2469],
[50.6524,26.2476],
[50.654,26.2706],
[50.6339,26.2854],
[50.6076,26.2712]
]
],
[
[
[50.7417,25.6831],
[50.7447,25.5894],
[50.7719,25.5719],
[50.7614,25.5981],
[50.7636,25.655],
[50.7718,25.6818],
[50.7908,25.6872],
[50.7947,25.7274],
[50.7642,25.7114],
[50.7417,25.6831]
]
]
]}
}
