{
"type": "Feature",
"properties": {"id":"cshapes-310-1918-11-03","edge_precision":"unknown","cshapes_gwcode":310,"cshapes_name":"Hungary","cshapes_first_day":"1918-11-03","cshapes_last_day":"1918-11-30","cshapes_status":"independent","cshapes_owner":310,"cshapes_borders_defined":true},
"geometry": {"type": "MultiPolygon", "coordinates": [
[
[
[14.2748,45.1219],
[14.2753,45.1033],
[14.3536,45.0451],
[14.3925,44.9561],
[14.3972,44.9116],
[14.3621,44.9074],
[14.3414,44.9161],
[14.3314,44.8497],
[14.3904,44.6939],
[14.4511,44.6264],
[14.4884,44.6067],
[14.5168,44.614],
[14.5301,44.6337],
[14.4706,44.7406],
[14.4594,44.8275],
[14.4226,44.9889],
[14.3769,45.0525],
[14.3589,45.1011],
[14.3583,45.1637],
[14.3132,45.1728],
[14.2748,45.1219]
]
],
[
[
[14.3381,44.7067],
[14.3675,44.5903],
[14.5179,44.4744],
[14.5335,44.4911],
[14.4072,44.6039],
[14.3954,44.6265],
[14.3932,44.6854],
[14.3381,44.7067]
]
],
[
[
[14.4288,45.0862],
[14.4364,45.07],
[14.4833,45.0354],
[14.6983,44.9478],
[14.7582,44.9419],
[14.8097,44.9749],
[14.8067,44.9964],
[14.7042,45.0683],
[14.6578,45.1228],
[14.5896,45.2383],
[14.5467,45.2435],
[14.4288,45.0862]
]
],
[
[
[14.4486,45.3212],
[14.4828,45.3111],
[14.585,45.2522],
[14.7249,45.1486],
[14.8315,45.1154],
[14.9193,44.966],
[14.9096,44.9115],
[14.8803,44.8521],
[14.8786,44.8114],
[14.8947,44.6953],
[14.9906,44.5794],
[15.0958,44.5181],
[15.1408,44.4731],
[15.2706,44.3692],
[15.2905,44.3595],
[15.4543,44.38],
[15.6156,44.3118],
[16.0336,44.191],
[16.0923,44.1542],
[16.1436,44.1015],
[16.2169,44.1173],
[16.2316,44.1436],
[16.3068,44.1511],
[16.3468,44.0875],
[16.43,44.036],
[16.5335,44.0157],
[16.6464,43.9122],
[16.7096,43.8337],
[16.9764,43.5861],
[17.1067,43.5103],
[17.2547,43.464],
[17.2707,43.4453],
[17.2578,43.4201],
[17.2782,43.329],
[17.3037,43.2757],
[17.4347,43.1794],
[17.5894,43.1022],
[17.6367,43.0704],
[17.6544,43.0472],
[17.6676,43.0229],
[17.6753,42.9675],
[17.5785,42.9438],
[17.652,42.8867],
[17.6861,42.9203],
[17.7065,42.9271],
[17.7975,42.9039],
[17.8797,42.8214],
[17.9906,42.7647],
[18.1606,42.695],
[18.2747,42.6171],
[18.3625,42.6267],
[18.4047,42.6104],
[18.4595,42.5686],
[18.5433,42.6151],
[18.5721,42.6412],
[18.5735,42.671],
[18.5578,42.714],
[18.5238,42.7276],
[18.4908,42.7664],
[18.4559,42.8313],
[18.4817,42.9662],
[18.5253,43.0114],
[18.647,43.0434],
[18.6581,43.0839],
[18.6461,43.1454],
[18.7028,43.2571],
[18.848,43.3496],
[18.9072,43.3572],
[18.9577,43.3195],
[18.9551,43.2939],
[19.0167,43.2394],
[19.0614,43.2382],
[19.0756,43.2553],
[19.0929,43.3053],
[19.0253,43.4324],
[19.005,43.4474],
[18.9571,43.4559],
[18.9499,43.506],
[19.0092,43.556],
[19.2253,43.5152],
[19.2875,43.5442],
[19.4086,43.5844],
[19.4797,43.5716],
[19.4939,43.5881],
[19.5106,43.6858],
[19.4901,43.7585],
[19.2512,43.9625],
[19.2395,44.0106],
[19.3089,43.9977],
[19.3666,43.9708],
[19.4285,43.9607],
[19.5258,43.9604],
[19.6198,44.0198],
[19.6186,44.0526],
[19.4858,44.1203],
[19.358,44.2094],
[19.2374,44.2652],
[19.1609,44.2868],
[19.1249,44.322],
[19.1044,44.3558],
[19.1308,44.5214],
[19.194,44.5602],
[19.3136,44.7047],
[19.3448,44.7669],
[19.3822,44.8648],
[19.3714,44.8892],
[19.337,44.8996],
[19.4069,44.9095],
[19.4949,44.9407],
[19.5902,44.9225],
[19.6709,44.8732],
[19.7039,44.8342],
[19.9459,44.7118],
[20.0779,44.7327],
[20.2135,44.7431],
[20.3089,44.8264],
[20.4555,44.9355],
[20.5942,44.9365],
[20.8888,44.8391],
[20.987,44.8502],
[21.1126,44.8836],
[21.3686,44.8611],
[21.3626,44.8281],
[21.3987,44.7831],
[21.5352,44.7771],
[21.5969,44.7558],
[21.6156,44.7108],
[21.6177,44.6828],
[21.6434,44.6608],
[21.7342,44.6558],
[21.7836,44.6619],
[21.997,44.633],
[22.0302,44.5917],
[22.0354,44.5595],
[22.0915,44.4989],
[22.1375,44.4803],
[22.1755,44.4833],
[22.3116,44.659],
[22.4288,44.7121],
[22.4661,44.7137],
[22.52,44.756],
[22.4934,44.8032],
[22.4757,44.8628],
[22.4802,44.938],
[22.5554,45.0226],
[22.5731,45.0664],
[22.52,45.1788],
[22.52,45.1975],
[22.5997,45.2411],
[22.6882,45.2723],
[22.7767,45.3159],
[23.1131,45.3283],
[23.1662,45.3532],
[23.4318,45.3283],
[23.5114,45.3408],
[23.5291,45.3905],
[23.5114,45.4465],
[23.5734,45.5085],
[23.6177,45.5023],
[23.6796,45.4589],
[23.777,45.434],
[23.9541,45.4899],
[24.0249,45.5209],
[24.2019,45.5643],
[24.4675,45.5271],
[24.6534,45.5271],
[24.9455,45.5767],
[25.0739,45.5612],
[25.1934,45.4775],
[25.2642,45.3843],
[25.3085,45.3657],
[25.4147,45.3968],
[25.5563,45.4899],
[25.636,45.5085],
[25.7068,45.5023],
[25.7599,45.4713],
[25.813,45.4589],
[25.9193,45.5271],
[26.0078,45.4589],
[26.0786,45.434],
[26.1848,45.5519],
[26.3353,45.6015],
[26.4327,45.6634],
[26.4415,45.7252],
[26.415,45.7808],
[26.4592,45.8919],
[26.4681,46.0825],
[26.4238,46.1378],
[26.3265,46.1991],
[26.2911,46.2481],
[26.3176,46.3337],
[26.3088,46.3704],
[26.1848,46.4253],
[26.1229,46.4741],
[26.1583,46.5594],
[26.1671,46.602],
[26.1229,46.6992],
[26.1229,46.8508],
[26.0343,46.9113],
[25.937,46.9415],
[25.7953,47.0683],
[25.7245,47.0984],
[25.6006,47.1285],
[25.4678,47.1466],
[25.3616,47.1827],
[25.3527,47.2308],
[25.4235,47.2548],
[25.4766,47.3029],
[25.5961,47.3299],
[25.6891,47.3989],
[25.7599,47.4048],
[25.8219,47.3149],
[25.9193,47.3149],
[25.9724,47.3209],
[26.0875,47.3689],
[26.1671,47.3689],
[26.2202,47.4108],
[26.2202,47.4468],
[26.2645,47.4707],
[26.2999,47.4468],
[26.3442,47.4408],
[26.3619,47.4767],
[26.3973,47.4946],
[26.4327,47.4946],
[26.4858,47.4647],
[26.5124,47.4887],
[26.4947,47.5365],
[26.4592,47.5604],
[26.3884,47.5843],
[26.3442,47.6141],
[26.2822,47.7155],
[26.2468,47.7393],
[26.2025,47.7452],
[26.1494,47.7869],
[26.1406,47.8166],
[26.1583,47.8701],
[26.2645,47.9294],
[26.2468,47.9828],
[26.1976,48.0033],
[26.0963,48.1012],
[26.0963,48.1662],
[26.1229,48.2134],
[26.2556,48.1898],
[26.3176,48.1957],
[26.2999,48.2664],
[26.2468,48.3371],
[26.1848,48.39],
[26.1494,48.4488],
[26.171,48.5314],
[26.0803,48.5496],
[25.9173,48.6311],
[25.8154,48.6311],
[25.6524,48.6514],
[25.5709,48.6718],
[25.4893,48.6311],
[25.4078,48.5292],
[25.3671,48.4273],
[25.3671,48.3662],
[25.3263,48.3254],
[25.0818,48.2643],
[25.0206,48.142],
[24.9187,48.0605],
[24.6701,47.8955],
[24.5883,47.9458],
[24.5128,47.9554],
[24.4215,47.9578],
[24.2469,47.9039],
[24.1275,47.912],
[24.0962,47.9324],
[24.0324,47.956],
[23.8239,47.9669],
[23.5661,48],
[23.5086,47.9859],
[23.4103,48.0005],
[23.2991,48.0449],
[23.2607,48.0901],
[23.1742,48.1083],
[23.1524,48.1057],
[23.1256,48.0894],
[23.0878,48.0135],
[23.0443,47.9935],
[22.8954,47.9543],
[22.8592,47.9939],
[22.8832,48.0405],
[22.8465,48.0832],
[22.7903,48.1167],
[22.7378,48.1144],
[22.6798,48.095],
[22.6257,48.1003],
[22.6052,48.1165],
[22.5747,48.1872],
[22.4946,48.2497],
[22.381,48.2449],
[22.2703,48.36],
[22.2702,48.4022],
[22.2143,48.4178],
[22.1511,48.4106],
[22.0986,48.378],
[22.0294,48.3875],
[21.9358,48.3792],
[21.8525,48.3621],
[21.8281,48.3435],
[21.781,48.3407],
[21.7224,48.3553],
[21.6254,48.4589],
[21.6173,48.4925],
[21.4382,48.5753],
[21.3087,48.548],
[21.2539,48.5222],
[21.1533,48.5111],
[20.9464,48.5247],
[20.8181,48.5762],
[20.6529,48.5617],
[20.5397,48.5369],
[20.5008,48.5044],
[20.4994,48.4831],
[20.4358,48.4336],
[20.4142,48.3997],
[20.4025,48.3612],
[20.3631,48.3046],
[20.3172,48.2697],
[20.283,48.2557],
[20.2356,48.275],
[20.0593,48.1763],
[20.0101,48.1739],
[19.9399,48.1362],
[19.9106,48.1305],
[19.755,48.2094],
[19.6306,48.2339],
[19.5302,48.2089],
[19.4724,48.0894],
[19.2083,48.0594],
[19.0417,48.0706],
[18.8453,48.0491],
[18.7717,47.9656],
[18.7597,47.9147],
[18.7835,47.8721],
[18.82,47.8556],
[18.8522,47.8247],
[18.7578,47.8144],
[18.6631,47.7597],
[18.4493,47.7674],
[18.4133,47.7539],
[18.3047,47.7375],
[17.9761,47.7636],
[17.9029,47.7491],
[17.7873,47.7464],
[17.7122,47.7706],
[17.4859,47.878],
[17.3419,47.9958],
[17.2632,48.0075],
[17.2454,48.0253],
[17.1739,48.0167],
[17.1081,47.9714],
[17.0606,47.8769],
[17.0568,47.7946],
[17.0686,47.7683],
[17.0717,47.7286],
[17.0539,47.7094],
[16.9108,47.6908],
[16.7642,47.6854],
[16.7358,47.7021],
[16.7235,47.7265],
[16.6356,47.7603],
[16.5586,47.7564],
[16.4506,47.6981],
[16.4326,47.6664],
[16.4931,47.6467],
[16.5967,47.6289],
[16.6326,47.6344],
[16.6664,47.6144],
[16.7139,47.5439],
[16.7053,47.5211],
[16.6552,47.4582],
[16.5925,47.4253],
[16.452,47.4128],
[16.4564,47.3689],
[16.4914,47.2819],
[16.4743,47.26],
[16.4447,47.2444],
[16.4209,47.2104],
[16.4593,47.1473],
[16.5056,47.115],
[16.5049,47.0068],
[16.3028,47.0114],
[16.2536,46.9583],
[16.1379,46.8789],
[15.9883,46.8316],
[15.9879,46.7551],
[16.0224,46.6937],
[16.1088,46.5912],
[16.2647,46.4397],
[16.2664,46.4191],
[16.1379,46.406],
[16.0753,46.3784],
[16.0804,46.336],
[16.0182,46.2986],
[15.7978,46.2333],
[15.6592,46.2209],
[15.6004,46.1443],
[15.6064,46.1158],
[15.6329,46.0846],
[15.7115,46.0532],
[15.7244,45.9386],
[15.6961,45.8431],
[15.6526,45.8234],
[15.6118,45.8467],
[15.4994,45.8358],
[15.3167,45.757],
[15.294,45.7343],
[15.2905,45.7031],
[15.3566,45.712],
[15.3526,45.6518],
[15.3097,45.6311],
[15.294,45.5945],
[15.304,45.5386],
[15.2772,45.4628],
[15.1745,45.4258],
[15.1567,45.4293],
[15.092,45.4715],
[14.9791,45.5005],
[14.8637,45.4687],
[14.8261,45.4654],
[14.7236,45.5314],
[14.6208,45.6121],
[14.6096,45.633],
[14.6098,45.662],
[14.5696,45.6625],
[14.5534,45.5999],
[14.5613,45.5008],
[14.5141,45.4788],
[14.4591,45.4237],
[14.4486,45.3212]
]
],
[
[
[14.7391,44.6933],
[14.7447,44.6756],
[14.9178,44.5049],
[15.0127,44.4419],
[15.1046,44.3296],
[15.0079,44.49],
[14.9763,44.5192],
[15.0023,44.5154],
[14.9603,44.5792],
[14.9092,44.6078],
[14.8739,44.6081],
[14.7391,44.6933]
]
]
]}
}
