{
"type": "Feature",
"properties": {"id":"cshapes-92-1886-01-01","edge_precision":"unknown","cshapes_gwcode":92,"cshapes_name":"El Salvador","cshapes_first_day":"1886-01-01","cshapes_last_day":"2019-12-31","cshapes_status":"independent","cshapes_owner":92,"cshapes_borders_defined":true},
"geometry": {"type": "MultiPolygon", "coordinates": [
[
[
[-90.1081,13.789],
[-90.0986,13.7476],
[-90,13.698],
[-89.9545,13.664],
[-89.8756,13.6282],
[-89.8463,13.6058],
[-89.8289,13.5761],
[-89.8185,13.5358],
[-89.6508,13.5281],
[-89.6087,13.5151],
[-89.2972,13.4827],
[-89.22,13.4553],
[-88.8817,13.2939],
[-88.8323,13.2584],
[-88.7589,13.2356],
[-88.5059,13.1957],
[-88.5853,13.2633],
[-88.6217,13.2597],
[-88.6419,13.2494],
[-88.7082,13.2609],
[-88.6121,13.284],
[-88.5504,13.274],
[-88.4753,13.2385],
[-88.4111,13.1876],
[-88.22,13.1581],
[-88.0919,13.1667],
[-87.9378,13.1564],
[-87.798,13.2621],
[-87.7858,13.2949],
[-87.8656,13.3603],
[-87.8701,13.3827],
[-87.837,13.4363],
[-87.8156,13.4054],
[-87.7503,13.4431],
[-87.7122,13.4764],
[-87.7153,13.5048],
[-87.7834,13.5242],
[-87.7769,13.5724],
[-87.7012,13.8208],
[-87.7257,13.8346],
[-87.7503,13.8642],
[-87.8008,13.8969],
[-87.9469,13.8956],
[-88.0059,13.875],
[-88.06,13.9639],
[-88.1219,13.9906],
[-88.1617,13.9769],
[-88.1969,13.9876],
[-88.2596,13.9053],
[-88.3193,13.8887],
[-88.3487,13.8713],
[-88.4033,13.884],
[-88.4679,13.8547],
[-88.4889,13.8658],
[-88.4995,13.9158],
[-88.5008,13.9763],
[-88.63,14.0148],
[-88.6615,14.0141],
[-88.7057,14.0442],
[-88.7193,14.0924],
[-88.7522,14.1344],
[-88.7724,14.1335],
[-88.8063,14.0962],
[-88.8293,14.1072],
[-88.8603,14.1711],
[-88.8978,14.2036],
[-88.9202,14.206],
[-88.956,14.1939],
[-88.9778,14.2539],
[-89.031,14.3312],
[-89.1197,14.3244],
[-89.2133,14.3758],
[-89.3239,14.4073],
[-89.3483,14.432],
[-89.4356,14.4149],
[-89.495,14.4214],
[-89.571,14.4147],
[-89.5833,14.3858],
[-89.5892,14.3212],
[-89.5433,14.3042],
[-89.5182,14.2339],
[-89.5795,14.2075],
[-89.627,14.2093],
[-89.6864,14.17],
[-89.7268,14.1179],
[-89.7467,14.0696],
[-89.7397,14.0414],
[-89.8182,14.0665],
[-89.889,14.0442],
[-90.0206,13.9386],
[-90.0865,13.8685],
[-90.1039,13.8233],
[-90.1081,13.789]
]
]
]}
}
