{
"type": "Feature",
"properties": {"id":"cshapes-345-1918-12-01","edge_precision":"unknown","cshapes_gwcode":345,"cshapes_name":"Yugoslavia","cshapes_first_day":"1918-12-01","cshapes_last_day":"1919-09-09","cshapes_status":"independent","cshapes_owner":345,"cshapes_borders_defined":true},
"geometry": {"type": "MultiPolygon", "coordinates": [
[
[
[15.7406,44.8122],
[15.7637,44.78],
[15.8632,44.7121],
[15.9422,44.7078],
[15.9617,44.6939],
[16.0333,44.5742],
[16.0742,44.5305],
[16.1154,44.5092],
[16.1291,44.4932],
[16.1981,44.3536],
[16.1889,44.3063],
[16.1455,44.1987],
[16.1661,44.1925],
[16.2437,44.1975],
[16.2726,44.1832],
[16.3068,44.1511],
[16.3468,44.0875],
[16.43,44.036],
[16.5335,44.0157],
[16.6464,43.9122],
[16.7096,43.8337],
[16.9764,43.5861],
[17.1067,43.5103],
[17.2547,43.464],
[17.2707,43.4453],
[17.2578,43.4201],
[17.2782,43.329],
[17.3037,43.2757],
[17.4347,43.1794],
[17.5894,43.1022],
[17.6367,43.0704],
[17.6676,43.0229],
[17.8797,42.8214],
[17.9906,42.7647],
[18.1606,42.695],
[18.2747,42.6171],
[18.341,42.629],
[18.4047,42.6104],
[18.4595,42.5686],
[18.4578,42.4936],
[18.4981,42.4511],
[18.6786,42.4606],
[18.7076,42.4199],
[18.7035,42.399],
[18.5858,42.4297],
[18.5535,42.4272],
[18.5772,42.3872],
[18.6201,42.3651],
[18.6471,42.3743],
[18.8108,42.2847],
[18.8474,42.2869],
[18.8794,42.2794],
[18.9644,42.19],
[19.0786,42.1117],
[19.1386,42.0433],
[19.146,42.0196],
[19.138,41.9828],
[19.1528,41.9489],
[19.1761,41.9315],
[19.2994,41.8947],
[19.3678,41.849],
[19.3433,41.9125],
[19.3469,41.9556],
[19.3764,42.0728],
[19.3991,42.1041],
[19.2885,42.1829],
[19.6085,42.5428],
[19.6112,42.571],
[19.6515,42.6232],
[19.7178,42.6603],
[19.7543,42.6411],
[19.7648,42.5879],
[19.7468,42.545],
[19.7694,42.501],
[19.8225,42.4719],
[20.0638,42.5619],
[20.1021,42.5335],
[20.1556,42.5132],
[20.2225,42.4283],
[20.2495,42.3271],
[20.3557,42.3118],
[20.431,42.2853],
[20.4575,42.2739],
[20.5251,42.2131],
[20.5953,42.0436],
[20.6217,41.9565],
[20.5849,41.9102],
[20.5896,41.8822],
[20.569,41.8745],
[20.5178,41.744],
[20.5339,41.6347],
[20.4661,41.5555],
[20.4588,41.5208],
[20.4707,41.4993],
[20.5619,41.4087],
[20.55,41.3731],
[20.5242,41.3503],
[20.4989,41.3418],
[20.5192,41.2464],
[20.5783,41.1628],
[20.6006,41.0932],
[20.6625,41.0892],
[20.7408,40.9095],
[20.8142,40.9047],
[20.8374,40.9274],
[20.9442,40.9192],
[20.9805,40.8972],
[20.9835,40.8559],
[21.1508,40.8575],
[21.3499,40.8732],
[21.3746,40.8832],
[21.4101,40.9139],
[21.5284,40.9078],
[21.5758,40.8731],
[21.6,40.8728],
[21.7862,40.9308],
[21.9108,41.0656],
[21.9161,41.0953],
[21.9771,41.1318],
[22.2596,41.171],
[22.3433,41.1344],
[22.4425,41.1214],
[22.5867,41.1199],
[22.7377,41.1561],
[22.7581,41.2278],
[22.762,41.3066],
[22.7768,41.3281],
[22.8085,41.3478],
[22.9318,41.3425],
[22.9559,41.3556],
[22.9667,41.3742],
[22.9542,41.636],
[23.015,41.6954],
[23.031,41.7251],
[23.0092,41.7663],
[22.9659,41.7757],
[22.9425,41.8078],
[22.8231,42.0274],
[22.6858,42.0653],
[22.5194,42.1497],
[22.3653,42.3239],
[22.4108,42.3353],
[22.5218,42.4021],
[22.5566,42.4798],
[22.5469,42.5129],
[22.4677,42.5677],
[22.4472,42.5994],
[22.4429,42.8204],
[22.5284,42.8786],
[22.5949,42.8944],
[22.6586,42.8829],
[22.7416,42.8921],
[22.9664,43.1017],
[22.9877,43.1312],
[22.9965,43.1951],
[22.9406,43.2105],
[22.906,43.2297],
[22.8469,43.2867],
[22.8295,43.3319],
[22.7643,43.3867],
[22.6281,43.4308],
[22.5417,43.4756],
[22.4104,43.7175],
[22.3672,43.8269],
[22.417,44.0024],
[22.5375,44.0577],
[22.6149,44.1196],
[22.6192,44.17],
[22.6518,44.2132],
[22.6851,44.2206],
[22.6878,44.274],
[22.6653,44.2885],
[22.5756,44.3055],
[22.53,44.3453],
[22.4599,44.4611],
[22.4615,44.4833],
[22.5862,44.5476],
[22.6154,44.5517],
[22.7012,44.5236],
[22.7389,44.5331],
[22.7625,44.5526],
[22.7128,44.6051],
[22.6658,44.6194],
[22.6073,44.6224],
[22.4661,44.7137],
[22.4288,44.7121],
[22.3116,44.659],
[22.1755,44.4833],
[22.1375,44.4803],
[22.0915,44.4989],
[22.0354,44.5595],
[22.0302,44.5917],
[21.997,44.633],
[21.7836,44.6619],
[21.7342,44.6558],
[21.6434,44.6608],
[21.6177,44.6828],
[21.6156,44.7108],
[21.5969,44.7558],
[21.5352,44.7771],
[21.3987,44.7831],
[21.3626,44.8281],
[21.3686,44.8611],
[21.1126,44.8836],
[20.987,44.8502],
[20.8888,44.8391],
[20.5942,44.9365],
[20.4555,44.9355],
[20.3089,44.8264],
[20.2135,44.7431],
[20.0779,44.7327],
[19.9459,44.7118],
[19.7039,44.8342],
[19.6709,44.8732],
[19.5902,44.9225],
[19.4949,44.9407],
[19.4069,44.9095],
[19.337,44.8996],
[19.3049,44.9094],
[19.1753,44.9224],
[19.0355,44.8609],
[18.9628,44.8533],
[18.8467,44.8628],
[18.7681,44.9158],
[18.7698,44.9421],
[18.7974,44.9451],
[18.795,44.9936],
[18.6342,45.0833],
[18.4192,45.1089],
[18.2608,45.1378],
[18.2178,45.1259],
[18.2153,45.0985],
[18.2015,45.0833],
[18.1731,45.0782],
[18.118,45.0844],
[18.0703,45.1044],
[17.9331,45.0803],
[17.8603,45.0494],
[17.7581,45.0867],
[17.69,45.1228],
[17.5964,45.1089],
[17.526,45.1095],
[17.2825,45.1764],
[17.2443,45.1531],
[17.1828,45.1483],
[17.0711,45.1883],
[17.0433,45.2112],
[16.9139,45.2659],
[16.8444,45.1963],
[16.8185,45.1875],
[16.6828,45.205],
[16.5959,45.2302],
[16.5311,45.2255],
[16.5054,45.2121],
[16.4178,45.1243],
[16.3527,45.0074],
[16.2918,44.9991],
[16.198,45.0439],
[16.0224,45.2144],
[15.9308,45.2283],
[15.8287,45.2086],
[15.7858,45.169],
[15.7651,45.0779],
[15.7692,44.9228],
[15.7406,44.8122]
]
]
]}
}
