{
"type": "Feature",
"properties": {"id":"cshapes-435-1912-11-27","edge_precision":"unknown","cshapes_gwcode":435,"cshapes_name":"Mauritania","cshapes_first_day":"1912-11-27","cshapes_last_day":"1913-04-22","cshapes_status":"protectorate","cshapes_owner":220,"cshapes_borders_defined":false},
"geometry": {"type": "MultiPolygon", "coordinates": [
[
[
[-17.0756,20.899],
[-17.0534,20.7648],
[-17.0253,20.8447],
[-16.9956,20.9747],
[-16.9984,21.0159],
[-16.9878,21.0656],
[-16.9237,21.1585],
[-16.9032,21.1425],
[-16.6483,20.6614],
[-16.5775,20.59],
[-16.5401,20.566],
[-16.5279,20.7336],
[-16.4957,20.726],
[-16.4522,20.6694],
[-16.4158,20.6031],
[-16.3142,20.3775],
[-16.2368,20.2885],
[-16.1968,20.2261],
[-16.2167,20.0008],
[-16.2433,19.8872],
[-16.2331,19.7939],
[-16.3344,19.6337],
[-16.4272,19.5364],
[-16.4689,19.4486],
[-16.4617,19.4101],
[-16.4406,19.4089],
[-16.4263,19.4779],
[-16.3569,19.5297],
[-16.2862,19.5383],
[-16.3094,19.4675],
[-16.3807,19.3937],
[-16.5117,19.3522],
[-16.4631,19.2554],
[-16.3493,19.204],
[-16.2814,19.1278],
[-16.2322,19.0433],
[-16.1792,18.9131],
[-16.1444,18.69],
[-16.0835,18.5267],
[-16.0567,18.4286],
[-16.063,18.3695],
[-16.0286,18.0806],
[-16.0394,17.7346],
[-16.0897,17.5083],
[-16.135,17.3571],
[-16.2615,17.0593],
[-16.3403,16.9372],
[-16.4676,16.6114],
[-16.4749,16.4742],
[-16.5372,16.3017],
[-16.5277,16.0602],
[-16.5069,16.0942],
[-16.39,16.2206],
[-16.3675,16.2737],
[-16.3218,16.4562],
[-16.3024,16.499],
[-16.2853,16.5171],
[-16.1458,16.5519],
[-16.1154,16.5494],
[-16.0566,16.4837],
[-15.9856,16.49],
[-15.8883,16.5124],
[-15.6703,16.4811],
[-15.5764,16.5133],
[-15.51,16.5567],
[-15.4414,16.5794],
[-15.355,16.5617],
[-15.236,16.5593],
[-15.0883,16.6081],
[-15.0217,16.6387],
[-14.9845,16.6906],
[-14.9598,16.6786],
[-14.9517,16.6484],
[-14.9069,16.6353],
[-14.7564,16.6444],
[-14.505,16.6264],
[-14.4161,16.6503],
[-14.3436,16.6361],
[-14.2192,16.5432],
[-14.0297,16.3578],
[-13.9842,16.2999],
[-13.9697,16.2339],
[-13.8161,16.1353],
[-13.7012,16.1728],
[-13.7103,16.1362],
[-13.6682,16.099],
[-13.5799,16.1356],
[-13.5206,16.1322],
[-13.3954,16.0554],
[-13.3247,15.9294],
[-13.2458,15.6806],
[-13.1847,15.6294],
[-13.1027,15.5214],
[-13.0917,15.4967],
[-13.0566,15.4799],
[-12.9636,15.5004],
[-12.9299,15.3655],
[-12.8608,15.3244],
[-12.8417,15.2965],
[-12.8501,15.2658],
[-12.8858,15.2617],
[-12.8497,15.2081],
[-12.7834,15.1497],
[-12.7081,15.0978],
[-12.686,15.0879],
[-12.6628,15.1047],
[-12.6293,15.0999],
[-12.4788,15.0074],
[-12.4519,14.9412],
[-12.4481,14.9056],
[-12.3958,14.8531],
[-12.2446,14.7594],
[-12.175,14.7683],
[-12.06,14.7256],
[-11.9743,14.7715],
[-11.8414,14.8631],
[-11.8153,14.925],
[-11.7963,15.0148],
[-11.8122,15.0503],
[-11.8409,15.0469],
[-11.8467,15.0972],
[-11.8322,15.1953],
[-11.7406,15.4774],
[-11.7162,15.4987],
[-11.7117,15.545],
[-11.6399,15.5253],
[-11.5997,15.5456],
[-11.5378,15.5964],
[-11.4986,15.6418],
[-11.4739,15.6427],
[-11.4373,15.8211],
[-11.4147,15.8732],
[-11.3922,15.9148],
[-11.3002,15.9791],
[-11.0467,15.9548],
[-10.8488,15.9582],
[-10.7204,15.9478],
[-10.5502,15.9478],
[-10.4218,15.9548],
[-10.2794,15.9791],
[-10.1406,15.9791],
[-9.8923,16.1249],
[-9.7378,16.2429],
[-9.6111,16.354],
[-9.4861,16.4356],
[-9.3091,16.6214],
[-9.1806,16.7915],
[-9.0348,17.1039],
[-8.9827,17.2393],
[-8.6563,17.8678],
[-8.5036,18.201],
[-8.3925,18.4094],
[-8.2328,18.7565],
[-8.1495,18.9093],
[-8.0522,19.1593],
[-7.9585,19.3641],
[-7.6478,19.9509],
[-7.5297,20.246],
[-7.4186,20.4612],
[-7.3561,20.607],
[-7.1964,21.0167],
[-6.884,21.6764],
[-6.7312,21.9055],
[-6.5923,22.218],
[-6.4673,22.5305],
[-6.384,22.704],
[-6.3632,22.8881],
[-6.3537,23.1414],
[-6.5772,24.9992],
[-6.7283,26.1675],
[-7.6936,26.7342],
[-8.6668,27.2905],
[-8.6669,26.0003],
[-12.0092,25.9994],
[-12,25.7331],
[-12.0003,23.4544],
[-12.0989,23.4297],
[-12.2314,23.3806],
[-12.3658,23.3186],
[-12.5714,23.2914],
[-12.9983,23.0247],
[-13.1054,22.8928],
[-13.1503,22.7575],
[-13.08,22.5203],
[-12.9997,21.3381],
[-16.9538,21.3367],
[-16.995,21.1281],
[-17.0756,20.899]
]
],
[
[
[-16.4606,19.6969],
[-16.4526,19.62],
[-16.4323,19.603],
[-16.4107,19.6219],
[-16.3613,19.7333],
[-16.346,19.7958],
[-16.3461,19.8625],
[-16.4165,19.8064],
[-16.4606,19.6969]
]
]
]}
}
