{
"type": "Feature",
"properties": {"id":"cshapes-145-1886-01-01","edge_precision":"unknown","cshapes_gwcode":145,"cshapes_name":"Bolivia","cshapes_first_day":"1886-01-01","cshapes_last_day":"1903-11-16","cshapes_status":"independent","cshapes_owner":145,"cshapes_borders_defined":true},
"geometry": {"type": "MultiPolygon", "coordinates": [
[
[
[-73.2984,-7.0373],
[-73.298,-7.1939],
[-73.1736,-7.3016],
[-73.0161,-7.368],
[-72.9332,-7.426],
[-72.8503,-7.5255],
[-72.8172,-7.6581],
[-72.8172,-7.7493],
[-72.8835,-7.8571],
[-72.842,-7.9897],
[-72.4773,-8.4042],
[-71.6815,-9.2415],
[-70.7779,-10.2528],
[-70.1976,-10.8248],
[-70.3289,-11.0692],
[-70.0509,-11.2919],
[-69.7284,-11.5735],
[-69.5407,-11.7259],
[-69.4586,-12.0485],
[-69.4292,-12.3887],
[-69.3354,-12.9107],
[-69.3119,-13.1336],
[-69.6052,-13.4386],
[-69.7635,-13.6204],
[-69.6228,-13.8961],
[-69.4468,-13.9489],
[-69.1008,-13.9899],
[-68.8986,-14.0318],
[-68.8579,-14.2001],
[-68.9864,-14.2317],
[-69.0024,-14.2488],
[-68.9998,-14.336],
[-68.9858,-14.3794],
[-68.8838,-14.9342],
[-68.7782,-15.4152],
[-68.743,-15.6263],
[-68.8486,-15.814],
[-68.9307,-15.8961],
[-68.919,-16.0486],
[-68.8242,-16.3263],
[-68.7195,-16.5413],
[-68.5436,-16.9401],
[-68.9424,-17.2216],
[-69.0832,-17.3624],
[-68.8838,-17.7495],
[-69.0245,-17.8316],
[-69.3274,-17.7975],
[-69.3187,-17.8251],
[-69.3214,-17.8919],
[-69.3061,-17.9557],
[-69.2913,-17.9794],
[-69.1336,-18.0289],
[-69.0733,-18.0384],
[-69.0732,-18.0683],
[-69.0824,-18.0869],
[-69.1396,-18.1251],
[-69.1489,-18.1507],
[-69.1354,-18.1796],
[-69.091,-18.2281],
[-69.0747,-18.3922],
[-69.0397,-18.441],
[-69.0235,-18.4835],
[-69.0325,-18.56],
[-69.0244,-18.6586],
[-69.0006,-18.7431],
[-68.9328,-18.8828],
[-68.9658,-18.9531],
[-68.8999,-19.0648],
[-68.7825,-19.1419],
[-68.6422,-19.2821],
[-68.5513,-19.3193],
[-68.4917,-19.369],
[-68.4437,-19.4336],
[-68.5514,-19.5397],
[-68.6872,-19.7037],
[-68.6897,-19.7427],
[-68.567,-19.8339],
[-68.5233,-19.9164],
[-68.5778,-20.0535],
[-68.6506,-20.0567],
[-68.7772,-20.0892],
[-68.7847,-20.1144],
[-68.7665,-20.1365],
[-68.7211,-20.2378],
[-68.7036,-20.3381],
[-68.735,-20.3522],
[-68.7548,-20.3735],
[-68.7522,-20.424],
[-68.7247,-20.4708],
[-68.691,-20.505],
[-68.6294,-20.5386],
[-68.5495,-20.5675],
[-68.4925,-20.6047],
[-68.467,-20.6306],
[-68.4722,-20.6507],
[-68.5289,-20.6876],
[-68.565,-20.7338],
[-68.5656,-20.8703],
[-68.5557,-20.8988],
[-68.5318,-20.9264],
[-68.5057,-20.9376],
[-68.424,-20.9389],
[-68.1886,-21.2969],
[-68.1861,-21.6097],
[-68.1388,-21.6669],
[-68.1051,-21.7453],
[-68.0875,-21.8428],
[-68.0852,-21.9617],
[-67.9969,-22.0469],
[-67.9728,-22.0603],
[-67.9445,-22.1047],
[-67.9226,-22.2392],
[-67.9229,-22.2739],
[-67.9328,-22.3003],
[-67.8497,-22.5549],
[-67.8842,-22.7128],
[-67.8764,-22.8281],
[-67.7933,-22.8781],
[-67.5792,-22.9011],
[-67.1836,-22.8217],
[-67.1245,-22.7196],
[-67.0126,-22.6342],
[-67.0225,-22.5239],
[-66.9264,-22.4781],
[-66.7747,-22.4269],
[-66.7714,-22.375],
[-66.7367,-22.2275],
[-66.6889,-22.1961],
[-66.6164,-22.1919],
[-66.3454,-22.1166],
[-66.3069,-22.0769],
[-66.2913,-22.0353],
[-66.2363,-21.797],
[-66.223,-21.7805],
[-66.0775,-21.8319],
[-65.9261,-21.9333],
[-65.8128,-22.0714],
[-65.75,-22.1101],
[-65.5989,-22.1],
[-64.9883,-22.0908],
[-64.9695,-22.1076],
[-64.7157,-22.1821],
[-64.6836,-22.1754],
[-64.5926,-22.2132],
[-64.547,-22.2606],
[-64.5261,-22.4089],
[-64.4619,-22.5144],
[-64.4439,-22.58],
[-64.4553,-22.6156],
[-64.4531,-22.644],
[-64.3631,-22.7369],
[-64.3383,-22.8698],
[-64.3164,-22.8606],
[-64.3014,-22.8325],
[-64.2839,-22.7544],
[-64.2799,-22.6456],
[-64.2533,-22.5678],
[-64.2231,-22.5129],
[-64.1726,-22.4704],
[-64.1267,-22.4103],
[-63.9931,-22.0944],
[-63.9411,-22.0008],
[-62.8172,-21.9974],
[-62.8007,-22.017],
[-62.7924,-22.1154],
[-62.765,-22.1547],
[-62.6501,-22.2377],
[-62.5214,-22.3708],
[-62.3924,-22.4568],
[-62.3635,-22.4685],
[-61.391,-22.1044],
[-60.7223,-21.8757],
[-59.2531,-21.339],
[-58.4555,-21.0692],
[-57.9862,-20.8932],
[-57.8567,-20.8375],
[-57.8596,-20.7347],
[-57.9089,-20.6764],
[-57.9359,-20.6715],
[-57.9677,-20.7101],
[-57.996,-20.6181],
[-58.0088,-20.5135],
[-58.0589,-20.4011],
[-58.1369,-20.2789],
[-58.1558,-20.2286],
[-58.1589,-20.1681],
[-58.1097,-20.1492],
[-57.9008,-20.029],
[-57.8519,-19.9755],
[-58.1211,-19.7414],
[-57.7767,-19.0475],
[-57.7047,-19.0436],
[-57.723,-18.9136],
[-57.7703,-18.9061],
[-57.5633,-18.2747],
[-57.5211,-18.2039],
[-57.7189,-17.845],
[-57.7236,-17.7268],
[-57.7592,-17.6869],
[-57.7795,-17.6377],
[-57.7455,-17.5939],
[-57.9017,-17.4619],
[-57.9836,-17.5007],
[-58.0167,-17.4976],
[-58.0917,-17.4556],
[-58.1206,-17.4128],
[-58.25,-17.3261],
[-58.2944,-17.2997],
[-58.3711,-17.2789],
[-58.3904,-17.2596],
[-58.4094,-17.1906],
[-58.4074,-17.1121],
[-58.4244,-17.0097],
[-58.4635,-16.9007],
[-58.4758,-16.6746],
[-58.4679,-16.644],
[-58.4194,-16.5736],
[-58.3464,-16.5061],
[-58.3244,-16.3961],
[-58.3275,-16.2792],
[-58.3889,-16.2829],
[-58.415,-16.32],
[-58.4392,-16.3297],
[-60.1603,-16.2631],
[-60.2272,-15.4786],
[-60.5714,-15.0975],
[-60.2589,-15.0936],
[-60.2811,-14.6233],
[-60.4275,-14.3243],
[-60.4505,-14.2911],
[-60.482,-14.1679],
[-60.4649,-14.1018],
[-60.4258,-14.0671],
[-60.4006,-14.0297],
[-60.3845,-13.9873],
[-60.4768,-13.8035],
[-60.6756,-13.7386],
[-60.7443,-13.6824],
[-60.7916,-13.6795],
[-60.9578,-13.5828],
[-61.0042,-13.5408],
[-61.039,-13.4931],
[-61.4928,-13.5533],
[-61.5211,-13.5504],
[-61.5775,-13.526],
[-61.5935,-13.5072],
[-61.8101,-13.5487],
[-61.8403,-13.5387],
[-61.8742,-13.4539],
[-61.9729,-13.3754],
[-62.0025,-13.3622],
[-62.0856,-13.2714],
[-62.1137,-13.1537],
[-62.2138,-13.121],
[-62.2446,-13.1267],
[-62.2685,-13.1409],
[-62.3847,-13.1458],
[-62.6455,-13.0324],
[-62.6459,-13.0074],
[-62.6883,-12.9686],
[-62.7697,-13.0058],
[-62.8967,-12.9003],
[-62.9942,-12.8393],
[-63.0492,-12.7475],
[-63.0671,-12.6599],
[-63.1333,-12.6359],
[-63.2161,-12.6809],
[-63.2471,-12.7058],
[-63.3249,-12.7042],
[-63.4156,-12.6539],
[-63.4644,-12.5959],
[-63.4714,-12.5704],
[-63.672,-12.4706],
[-63.7975,-12.46],
[-63.8706,-12.4939],
[-63.8986,-12.5286],
[-63.928,-12.5473],
[-64.02,-12.5371],
[-64.0395,-12.518],
[-64.1764,-12.4856],
[-64.2933,-12.4821],
[-64.3994,-12.4581],
[-64.4969,-12.3663],
[-64.5165,-12.2422],
[-64.6177,-12.211],
[-64.7386,-12.1501],
[-64.7911,-12.0415],
[-64.8096,-12.0286],
[-64.9843,-12.0111],
[-65.0083,-11.9894],
[-65.0356,-11.8817],
[-65.0433,-11.8097],
[-65.0624,-11.7549],
[-65.1184,-11.699],
[-65.1495,-11.7722],
[-65.1917,-11.752],
[-65.2092,-11.7117],
[-65.1695,-11.6147],
[-65.2229,-11.5188],
[-65.2415,-11.506],
[-65.2897,-11.505],
[-65.3103,-11.4941],
[-65.3907,-11.2747],
[-65.4019,-11.1697],
[-65.3027,-10.9856],
[-65.3158,-10.8808],
[-65.39,-10.7558],
[-65.4381,-10.6188],
[-65.442,-10.4735],
[-65.4024,-10.4422],
[-65.3913,-10.4138],
[-65.3958,-10.3935],
[-65.3782,-10.3549],
[-65.3235,-10.3052],
[-65.7957,-10.116],
[-68.7386,-8.8891],
[-71.8887,-7.5959],
[-72.8752,-7.2104],
[-73.2984,-7.0373]
]
]
]}
}
