{
"type": "Feature",
"properties": {"id":"cshapes-660-1920-12-24","edge_precision":"unknown","cshapes_gwcode":660,"cshapes_name":"Lebanon","cshapes_first_day":"1920-12-24","cshapes_last_day":"1944-11-21","cshapes_status":"mandate","cshapes_owner":220,"cshapes_borders_defined":true},
"geometry": {"type": "MultiPolygon", "coordinates": [
[
[
[35.1033,33.0942],
[35.265,33.0986],
[35.3219,33.0881],
[35.3519,33.0625],
[35.4256,33.0683],
[35.5056,33.1065],
[35.5257,33.1267],
[35.5428,33.1965],
[35.5855,33.2703],
[35.6263,33.2459],
[35.6267,33.2763],
[35.7899,33.3487],
[35.8147,33.3711],
[35.8264,33.4033],
[35.8833,33.4296],
[35.9342,33.4667],
[36.0344,33.5533],
[36.0587,33.5856],
[36.0256,33.6192],
[35.9402,33.6442],
[35.9711,33.7182],
[36.071,33.8275],
[36.2408,33.8564],
[36.3533,33.8269],
[36.374,33.8311],
[36.3887,33.8542],
[36.3578,33.8799],
[36.3294,33.8783],
[36.2835,33.9109],
[36.3503,33.9972],
[36.5169,34.1072],
[36.6237,34.205],
[36.5936,34.2282],
[36.5467,34.3442],
[36.5258,34.4319],
[36.4544,34.4914],
[36.43,34.5019],
[36.3512,34.5007],
[36.3642,34.5381],
[36.4528,34.5947],
[36.4593,34.6304],
[36.2986,34.6419],
[36.1165,34.641],
[36.0308,34.6325],
[35.9728,34.6475],
[35.9872,34.6118],
[35.9916,34.557],
[35.9836,34.5275],
[35.9006,34.4719],
[35.8192,34.4314],
[35.6694,34.3125],
[35.6489,34.2811],
[35.6463,34.2172],
[35.6299,34.2022],
[35.6341,34.1415],
[35.6471,34.1057],
[35.6344,34.0128],
[35.5743,33.9121],
[35.5481,33.9017],
[35.5236,33.9072],
[35.4753,33.9018],
[35.4836,33.8582],
[35.4787,33.801],
[35.4169,33.6883],
[35.3562,33.5268],
[35.3297,33.4958],
[35.2733,33.4542],
[35.2203,33.3053],
[35.2046,33.2171],
[35.1883,33.1828],
[35.1033,33.0942]
]
]
]}
}
