{
"type": "Feature",
"properties": {"id":"cshapes-349-1992-04-27","edge_precision":"unknown","cshapes_gwcode":349,"cshapes_name":"Slovenia","cshapes_first_day":"1992-04-27","cshapes_last_day":"2019-12-31","cshapes_status":"independent","cshapes_owner":349,"cshapes_borders_defined":true},
"geometry": {"type": "MultiPolygon", "coordinates": [
[
[
[13.3835,46.2951],
[13.4189,46.2131],
[13.4885,46.2319],
[13.5506,46.218],
[13.666,46.1753],
[13.6482,46.1455],
[13.595,46.1063],
[13.5389,46.0794],
[13.4832,46.0164],
[13.5099,45.9862],
[13.5403,45.9683],
[13.5931,45.9929],
[13.6351,45.982],
[13.6347,45.9479],
[13.6141,45.9051],
[13.5907,45.8881],
[13.5783,45.8503],
[13.6037,45.8089],
[13.7915,45.7528],
[13.9183,45.6364],
[13.8564,45.5871],
[13.7169,45.5961],
[13.7499,45.549],
[13.6658,45.5431],
[13.5971,45.5196],
[13.5966,45.4774],
[13.6405,45.4537],
[13.7036,45.4442],
[14.3925,45.4861],
[14.4135,45.4917],
[14.4961,45.5437],
[14.5696,45.6625],
[14.6098,45.662],
[14.6096,45.633],
[14.6208,45.6121],
[14.7236,45.5314],
[14.8261,45.4654],
[14.8637,45.4687],
[14.9791,45.5005],
[15.092,45.4715],
[15.1567,45.4293],
[15.1745,45.4258],
[15.2772,45.4628],
[15.304,45.5386],
[15.294,45.5945],
[15.3097,45.6311],
[15.3526,45.6518],
[15.3566,45.712],
[15.2905,45.7031],
[15.294,45.7343],
[15.3167,45.757],
[15.4994,45.8358],
[15.6118,45.8467],
[15.6526,45.8234],
[15.6961,45.8431],
[15.7244,45.9386],
[15.7115,46.0532],
[15.6329,46.0846],
[15.6064,46.1158],
[15.6004,46.1443],
[15.6592,46.2209],
[15.7978,46.2333],
[16.0182,46.2986],
[16.0804,46.336],
[16.0753,46.3784],
[16.1379,46.406],
[16.2664,46.4191],
[16.2524,46.4956],
[16.2925,46.5308],
[16.3842,46.5358],
[16.4639,46.521],
[16.5178,46.4916],
[16.5645,46.4771],
[16.6004,46.4783],
[16.531,46.509],
[16.4086,46.6589],
[16.3856,46.7017],
[16.3253,46.7558],
[16.3155,46.7943],
[16.3372,46.8092],
[16.349,46.8424],
[16.2982,46.8693],
[16.2697,46.8744],
[16.2294,46.8762],
[16.1398,46.8592],
[16.1118,46.8697],
[15.9883,46.8316],
[15.9879,46.7551],
[15.859,46.7232],
[15.4061,46.6525],
[15.1018,46.6563],
[14.8675,46.6133],
[14.832,46.565],
[14.8159,46.5182],
[14.545,46.4075],
[14.4781,46.4194],
[14.1537,46.4426],
[14.1158,46.4789],
[13.9369,46.5158],
[13.7187,46.522],
[13.692,46.4517],
[13.6578,46.4497],
[13.5114,46.3847],
[13.4408,46.3464],
[13.3835,46.2951]
]
]
]}
}
