{
"type": "Feature",
"properties": {"id":"cshapes-812-1954-05-01","edge_precision":"unknown","cshapes_gwcode":812,"cshapes_name":"Laos","cshapes_first_day":"1954-05-01","cshapes_last_day":"2019-12-31","cshapes_status":"independent","cshapes_owner":812,"cshapes_borders_defined":true},
"geometry": {"type": "MultiPolygon", "coordinates": [
[
[
[100.0883,20.3486],
[100.1053,20.3094],
[100.1655,20.2919],
[100.2609,20.3861],
[100.3211,20.3915],
[100.3433,20.3822],
[100.3793,20.3371],
[100.4187,20.2382],
[100.4579,20.1881],
[100.521,20.1458],
[100.5776,20.1601],
[100.571,20.0917],
[100.5062,19.8785],
[100.4112,19.7718],
[100.4063,19.7438],
[100.4455,19.6278],
[100.4909,19.5378],
[100.5164,19.5189],
[100.582,19.4937],
[100.613,19.5382],
[100.6409,19.5506],
[100.7553,19.5079],
[100.7739,19.4858],
[100.9122,19.6197],
[101.0322,19.6192],
[101.0861,19.5903],
[101.2251,19.5944],
[101.2593,19.5857],
[101.2791,19.5662],
[101.2851,19.5206],
[101.2644,19.4744],
[101.2159,19.4615],
[101.2025,19.3539],
[101.29,19.1061],
[101.3535,19.0444],
[101.3396,19.0107],
[101.3,18.9758],
[101.2539,18.8948],
[101.2369,18.7414],
[101.268,18.6846],
[101.2411,18.6376],
[101.1801,18.5601],
[101.107,18.5187],
[101.0578,18.4416],
[101.059,18.4186],
[101.0913,18.3808],
[101.1546,18.345],
[101.1767,18.1753],
[101.1708,18.0872],
[101.1137,17.9571],
[101.0872,17.9301],
[101.0288,17.898],
[100.9897,17.8061],
[100.9825,17.7566],
[100.9885,17.7321],
[100.9535,17.6497],
[100.9112,17.5994],
[100.9222,17.569],
[100.9879,17.5615],
[101.0335,17.5412],
[101.0758,17.4999],
[101.1597,17.4608],
[101.3097,17.6247],
[101.5811,17.7974],
[101.5597,17.8138],
[101.5772,17.8601],
[101.6361,17.8896],
[101.6891,17.9058],
[101.7417,17.9728],
[101.7619,18.0383],
[101.7841,18.0635],
[101.8851,18.0314],
[101.9107,18.0368],
[101.9994,18.1275],
[102.0478,18.1917],
[102.0894,18.215],
[102.1571,18.2042],
[102.18,18.191],
[102.2133,18.1383],
[102.2991,18.0476],
[102.4237,17.9819],
[102.4725,17.9706],
[102.5441,17.9717],
[102.6042,17.9468],
[102.6128,17.9186],
[102.6107,17.8867],
[102.6836,17.82],
[102.7306,17.8831],
[102.8586,17.9747],
[102.9465,18.006],
[103.0159,17.98],
[103.0471,17.997],
[103.0684,18.0288],
[103.0694,18.123],
[103.1408,18.1653],
[103.2567,18.275],
[103.2411,18.339],
[103.2422,18.3654],
[103.3011,18.419],
[103.3972,18.435],
[103.5078,18.4217],
[103.8425,18.3111],
[103.9762,18.3269],
[104.0719,18.1997],
[104.1018,18.1094],
[104.2158,17.989],
[104.2664,17.865],
[104.2858,17.8456],
[104.3355,17.8264],
[104.4614,17.6493],
[104.6921,17.5285],
[104.793,17.4082],
[104.8055,17.3819],
[104.8136,17.2861],
[104.8091,17.1903],
[104.7975,17.1333],
[104.7464,17.0376],
[104.7411,17.0107],
[104.7455,16.9103],
[104.7687,16.7247],
[104.7426,16.5662],
[104.7496,16.5244],
[104.91,16.3462],
[105.0125,16.2517],
[105.0449,16.1329],
[105.0807,16.095],
[105.1889,16.0564],
[105.3086,16.0386],
[105.4262,16.0049],
[105.3855,15.9899],
[105.346,15.926],
[105.4011,15.8072],
[105.4423,15.7613],
[105.5078,15.7665],
[105.5575,15.7489],
[105.6039,15.7201],
[105.6351,15.6692],
[105.6393,15.6394],
[105.6002,15.4349],
[105.5658,15.4058],
[105.5371,15.3953],
[105.4747,15.1747],
[105.4712,15.1102],
[105.5244,15.0703],
[105.5906,15.0006],
[105.5664,14.8831],
[105.516,14.8156],
[105.5354,14.5639],
[105.4444,14.4506],
[105.2975,14.3694],
[105.2181,14.346],
[105.2092,14.2887],
[105.283,14.1783],
[105.3748,14.1065],
[105.4397,14.1153],
[105.5591,14.1683],
[105.7333,14.1109],
[105.7846,14.0763],
[105.7935,14.0329],
[105.9129,13.9265],
[106.0566,13.93],
[106.1111,13.9458],
[106.1742,14.0586],
[106.1676,14.0814],
[106.0346,14.2369],
[105.9962,14.3317],
[106.0008,14.3672],
[106.0998,14.3814],
[106.1401,14.3785],
[106.1695,14.3658],
[106.2219,14.3817],
[106.2394,14.4136],
[106.2519,14.4889],
[106.2903,14.4814],
[106.3226,14.4485],
[106.4087,14.4581],
[106.4322,14.4856],
[106.4314,14.5081],
[106.4746,14.5642],
[106.5345,14.5974],
[106.6289,14.466],
[106.7526,14.4094],
[106.8035,14.341],
[106.8503,14.3039],
[107.1184,14.4039],
[107.2342,14.4972],
[107.2536,14.5311],
[107.3475,14.5953],
[107.473,14.64],
[107.5495,14.7057],
[107.5517,14.8475],
[107.5401,14.9189],
[107.48,14.9715],
[107.4707,15.0295],
[107.5868,15.0456],
[107.6158,15.0636],
[107.6953,15.2708],
[107.5175,15.4683],
[107.4203,15.5033],
[107.263,15.6478],
[107.183,15.7654],
[107.1763,15.7903],
[107.2039,15.859],
[107.2293,15.8664],
[107.2555,15.8585],
[107.4019,15.9185],
[107.4756,16.0249],
[107.4608,16.0805],
[107.3376,16.0561],
[107.1651,16.1837],
[107.1521,16.2058],
[107.1472,16.2633],
[107.0939,16.3008],
[107.0106,16.3074],
[106.9872,16.2997],
[106.9839,16.3372],
[106.8953,16.5178],
[106.8751,16.5369],
[106.8434,16.5324],
[106.8139,16.473],
[106.7825,16.4325],
[106.7566,16.4203],
[106.7022,16.4397],
[106.6847,16.4593],
[106.5607,16.6774],
[106.5553,16.8887],
[106.5611,16.9969],
[106.5202,16.9674],
[106.4412,16.9925],
[106.4205,17.0647],
[106.3408,17.1692],
[106.2487,17.2465],
[106.2116,17.2617],
[106.0901,17.3568],
[106.0214,17.4261],
[105.8608,17.6186],
[105.8328,17.6402],
[105.7543,17.6704],
[105.6819,17.8144],
[105.6272,17.9875],
[105.5044,18.1683],
[105.4,18.1576],
[105.3573,18.1682],
[105.3271,18.1914],
[105.3258,18.2428],
[105.3085,18.2561],
[105.2671,18.2525],
[105.1833,18.3344],
[105.1087,18.438],
[105.1039,18.4703],
[105.1153,18.5176],
[105.1503,18.5987],
[105.1941,18.61],
[105.1932,18.6367],
[105.1056,18.6967],
[104.7446,18.7962],
[104.573,18.903],
[104.5303,18.9722],
[104.2788,19.1109],
[104.2208,19.1113],
[104.226,19.1451],
[104.1746,19.1905],
[104.0611,19.2386],
[104.0069,19.2334],
[103.8777,19.3095],
[103.9716,19.3921],
[104.0414,19.4185],
[104.1039,19.4786],
[104.1016,19.5586],
[104.0789,19.5692],
[104.0505,19.5994],
[104.0214,19.6691],
[104.0388,19.6937],
[104.0874,19.6643],
[104.1416,19.6626],
[104.1544,19.6846],
[104.2461,19.7044],
[104.4228,19.6699],
[104.4498,19.6453],
[104.5196,19.6054],
[104.6442,19.6167],
[104.6672,19.6872],
[104.717,19.748],
[104.7703,19.7569],
[104.832,19.7874],
[104.8491,19.8442],
[104.8265,19.8639],
[104.7902,19.864],
[104.7897,19.8919],
[104.8422,19.9389],
[104.8994,19.9733],
[104.9627,19.9884],
[104.9778,20.004],
[104.9847,20.0983],
[104.9393,20.1835],
[104.8449,20.2251],
[104.715,20.3131],
[104.709,20.3415],
[104.6155,20.416],
[104.5204,20.4071],
[104.4205,20.4242],
[104.3937,20.4353],
[104.3815,20.4546],
[104.4544,20.5044],
[104.5161,20.5172],
[104.63,20.6186],
[104.6419,20.6524],
[104.5019,20.7122],
[104.4094,20.7783],
[104.3442,20.8432],
[104.3307,20.8771],
[104.1944,20.9433],
[104.1039,20.9759],
[103.8566,20.8525],
[103.7789,20.7844],
[103.7714,20.7372],
[103.7384,20.671],
[103.6871,20.6596],
[103.6374,20.7179],
[103.6054,20.7403],
[103.425,20.7939],
[103.2186,20.8303],
[103.1831,20.844],
[103.1178,20.8936],
[103.0421,21.046],
[102.9373,21.1633],
[102.9144,21.1681],
[102.9191,21.2289],
[102.8886,21.2522],
[102.905,21.4403],
[102.8769,21.4301],
[102.8907,21.4661],
[102.9875,21.5743],
[102.9874,21.7127],
[102.9705,21.7451],
[102.8614,21.7183],
[102.754,21.6707],
[102.6752,21.6585],
[102.6541,21.7349],
[102.6617,21.7868],
[102.6472,21.8531],
[102.6044,21.9285],
[102.5266,21.9478],
[102.5018,21.9668],
[102.4228,22.1157],
[102.3048,22.2101],
[102.2774,22.2159],
[102.2383,22.2425],
[102.1849,22.3004],
[102.1801,22.3261],
[102.1469,22.3908],
[102.1148,22.433],
[102.031,22.4549],
[101.9253,22.4374],
[101.7735,22.4999],
[101.7415,22.4978],
[101.6914,22.4722],
[101.671,22.4433],
[101.6619,22.4115],
[101.6755,22.3884],
[101.6259,22.2807],
[101.5744,22.2092],
[101.6271,21.9704],
[101.6728,21.9333],
[101.7653,21.8344],
[101.7523,21.7321],
[101.7817,21.6535],
[101.741,21.3139],
[101.7687,21.2929],
[101.8065,21.2856],
[101.849,21.2465],
[101.8453,21.2161],
[101.786,21.1445],
[101.7326,21.1395],
[101.6771,21.1964],
[101.6089,21.2347],
[101.5705,21.2472],
[101.5086,21.2468],
[101.3875,21.2232],
[101.3382,21.1887],
[101.2919,21.1769],
[101.2536,21.2104],
[101.2346,21.252],
[101.2472,21.3333],
[101.2648,21.3744],
[101.1847,21.5589],
[101.1482,21.5726],
[101.1621,21.5364],
[101.1272,21.4908],
[101.0014,21.3983],
[100.8392,21.3043],
[100.8182,21.2996],
[100.7272,21.3078],
[100.7032,21.2275],
[100.6996,21.1826],
[100.6719,21.1281],
[100.6246,21.0547],
[100.6029,21.0386],
[100.5468,21.0261],
[100.5207,20.9519],
[100.5217,20.8767],
[100.5439,20.8678],
[100.6105,20.8886],
[100.6425,20.8849],
[100.6405,20.8617],
[100.6113,20.8372],
[100.5261,20.8046],
[100.3717,20.8262],
[100.2587,20.749],
[100.2094,20.6931],
[100.1728,20.6279],
[100.1494,20.5447],
[100.1257,20.4012],
[100.0883,20.3486]
]
]
]}
}
