{
"type": "Feature",
"properties": {"id":"cshapes-750-1937-04-01","edge_precision":"unknown","cshapes_gwcode":750,"cshapes_name":"India","cshapes_first_day":"1937-04-01","cshapes_last_day":"1947-08-14","cshapes_status":"colony","cshapes_owner":200,"cshapes_borders_defined":true},
"geometry": {"type": "MultiPolygon", "coordinates": [
[
[
[73,18.0448],
[73.0114,17.9908],
[73.1091,17.7697],
[73.1212,17.7151],
[73.1055,17.6935],
[73.1171,17.6311],
[73.1786,17.4711],
[73.1982,17.3687],
[73.2747,17.0819],
[73.2715,17.0339],
[73.2531,16.9989],
[73.2697,16.8533],
[73.3125,16.6064],
[73.3605,16.5122],
[73.3389,16.5133],
[73.3261,16.4858],
[73.408,16.2344],
[73.4475,16.0586],
[73.4855,15.9914],
[73.5903,15.8962],
[73.6111,15.8639],
[73.65,15.7773],
[73.6439,15.7396],
[73.6705,15.7217],
[73.6972,15.7219],
[73.6831,15.7051],
[73.7655,15.4878],
[73.7937,15.4499],
[73.8439,15.4447],
[73.919,15.4181],
[73.9495,15.3985],
[73.9598,15.3653],
[73.9172,15.3999],
[73.8317,15.4061],
[73.7886,15.399],
[73.8107,15.3729],
[73.8655,15.3505],
[73.9058,15.3014],
[73.9517,15.1625],
[73.9583,15.0658],
[74.1014,14.8671],
[74.098,14.7875],
[74.1761,14.7417],
[74.2253,14.7372],
[74.2472,14.7224],
[74.271,14.68],
[74.3032,14.5204],
[74.3353,14.5212],
[74.3475,14.563],
[74.3753,14.5417],
[74.4119,14.4833],
[74.3959,14.4555],
[74.3753,14.4483],
[74.43,14.2792],
[74.4508,14.2461],
[74.4978,14.0464],
[74.6191,13.8325],
[74.6703,13.6181],
[74.6754,13.5158],
[74.8169,12.8571],
[74.8378,12.8461],
[74.8586,12.7513],
[75.1275,12.2081],
[75.1939,12.0101],
[75.2744,12.0078],
[75.3775,11.8606],
[75.5286,11.7003],
[75.58,11.5469],
[75.618,11.4708],
[75.6467,11.4647],
[75.6837,11.4406],
[75.8616,10.9806],
[75.9241,10.7556],
[76.0814,10.4067],
[76.1642,10.1878],
[76.1836,10.0867],
[76.2043,10.0354],
[76.2269,10],
[76.2379,10],
[76.2386,10.0131],
[76.228,10.0692],
[76.213,10.0951],
[76.2117,10.1285],
[76.2401,10.1108],
[76.2695,10],
[79.2355,10],
[79.25,10.0172],
[79.2593,10.0462],
[79.2415,10.0835],
[79.2357,10.1478],
[79.2419,10.1831],
[79.2719,10.2299],
[79.3244,10.2799],
[79.3937,10.3183],
[79.4928,10.3072],
[79.7113,10.2662],
[79.7676,10.2637],
[79.7497,10.2829],
[79.6837,10.3053],
[79.7481,10.3025],
[79.7786,10.2882],
[79.7879,10.2695],
[79.8264,10.2715],
[79.8581,10.2858],
[79.8644,10.3856],
[79.8408,10.8178],
[79.8477,10.8484],
[79.8411,10.9436],
[79.8532,10.9961],
[79.8533,11.1457],
[79.8303,11.3419],
[79.7835,11.4281],
[79.7511,11.5547],
[79.7643,11.6562],
[79.786,11.7763],
[79.8035,11.7981],
[79.8048,11.8323],
[79.8586,11.9818],
[79.8655,12.0283],
[80.1603,12.4731],
[80.2564,12.7729],
[80.2636,12.9542],
[80.2807,13.0481],
[80.3217,13.1733],
[80.3487,13.3426],
[80.3345,13.3991],
[80.2614,13.4653],
[80.224,13.4815],
[80.1189,13.4997],
[80.0586,13.5875],
[80.0494,13.6206],
[80.0908,13.6885],
[80.1525,13.7181],
[80.2505,13.5736],
[80.3091,13.4381],
[80.3138,13.4571],
[80.2683,13.5547],
[80.2283,13.6704],
[80.2257,13.7018],
[80.2322,13.7389],
[80.2483,13.7674],
[80.2486,13.8],
[80.1514,14.0358],
[80.1261,14.2003],
[80.1385,14.2598],
[80.1749,14.3487],
[80.195,14.5558],
[80.1814,14.6022],
[80.1086,14.76],
[80.0491,15.0556],
[80.0939,15.3157],
[80.2092,15.5308],
[80.233,15.6075],
[80.2794,15.6992],
[80.3672,15.7742],
[80.5571,15.8779],
[80.6847,15.9],
[80.7294,15.8958],
[80.7771,15.8781],
[80.806,15.8426],
[80.8253,15.7519],
[80.8882,15.8778],
[80.8968,15.9197],
[80.8826,16.0119],
[80.9036,16.0081],
[80.908,15.9778],
[80.9122,15.9322],
[80.9016,15.8633],
[81.0133,15.7834],
[81,15.8399],
[81.0381,15.8863],
[81.1503,15.97],
[81.1639,16.0661],
[81.2479,16.3143],
[81.321,16.3671],
[81.4123,16.3853],
[81.43,16.3681],
[81.6507,16.3349],
[81.7206,16.3139],
[81.9889,16.4055],
[82.1989,16.5092],
[82.3017,16.5831],
[82.3464,16.7047],
[82.3646,16.7847],
[82.3685,16.8395],
[82.3657,16.8308],
[82.2743,16.8608],
[82.2535,16.8824],
[82.2484,16.9119],
[82.2953,17.0201],
[82.3621,17.0983],
[82.4753,17.2022],
[82.615,17.2911],
[82.7775,17.3722],
[82.8842,17.4081],
[83.0103,17.4872],
[83.1611,17.5485],
[83.2341,17.5925],
[83.3864,17.7664],
[83.5812,18.0153],
[83.7724,18.1397],
[84.0767,18.2666],
[84.1159,18.3021],
[84.1342,18.3417],
[84.3494,18.5689],
[84.4944,18.7353],
[84.613,18.8897],
[84.6358,18.9154],
[84.6764,18.9419],
[84.76,19.0614],
[84.7641,19.0942],
[84.7423,19.0756],
[84.718,19.1049],
[84.7266,19.124],
[84.7657,19.1125],
[84.7903,19.1176],
[84.8805,19.2283],
[85.1818,19.4792],
[85.3298,19.5712],
[85.3027,19.5797],
[85.2928,19.5974],
[85.3616,19.6008],
[85.3825,19.6125],
[85.4079,19.6613],
[85.3804,19.6764],
[85.3088,19.6419],
[85.2494,19.6495],
[85.2323,19.6008],
[85.1919,19.5724],
[85.1878,19.5422],
[85.1606,19.505],
[85.1252,19.5073],
[85.1438,19.603],
[85.1703,19.625],
[85.2388,19.7406],
[85.3268,19.7928],
[85.3532,19.8292],
[85.4349,19.887],
[85.4588,19.9033],
[85.5342,19.8807],
[85.575,19.8355],
[85.5593,19.8015],
[85.5606,19.7513],
[85.5492,19.7324],
[85.4613,19.7136],
[85.4311,19.6941],
[85.4493,19.6668],
[85.4833,19.666],
[85.6342,19.7278],
[86.158,19.8714],
[86.2721,19.9107],
[86.3553,19.9658],
[86.2972,20.0044],
[86.2453,20.0233],
[86.1964,20.075],
[86.2896,20.0601],
[86.3105,20.0307],
[86.3771,19.9806],
[86.4212,19.9849],
[86.4857,20.145],
[86.4878,20.1771],
[86.542,20.206],
[86.6517,20.2439],
[86.7103,20.2826],
[86.8017,20.3839],
[86.8075,20.4042],
[86.8021,20.4342],
[86.7719,20.4011],
[86.7278,20.37],
[86.7176,20.3928],
[86.7278,20.4541],
[86.7558,20.4914],
[86.8087,20.5389],
[87.0256,20.6748],
[86.9869,20.6778],
[86.939,20.6982],
[86.8914,20.7594],
[86.9612,20.7853],
[86.9619,20.8171],
[86.8833,20.9691],
[86.836,21.1028],
[86.828,21.1525],
[86.8466,21.2228],
[86.88,21.2804],
[86.9633,21.3819],
[87.0675,21.4789],
[87.1146,21.5099],
[87.2072,21.5493],
[87.3292,21.5617],
[87.455,21.6065],
[87.679,21.6458],
[87.7964,21.6989],
[87.9662,21.834],
[88.0846,22.0194],
[88.1162,22.04],
[88.1665,22.0897],
[88.1746,22.1111],
[88.1708,22.1308],
[88.1305,22.1782],
[88.0016,22.2049],
[87.9819,22.223],
[87.9439,22.2817],
[87.9061,22.4204],
[87.9348,22.4173],
[87.9682,22.2924],
[88.0075,22.2353],
[88.0311,22.22],
[88.17,22.1833],
[88.1993,22.1519],
[88.2187,22.0768],
[88.2122,22.054],
[88.1769,22.015],
[88.1436,21.9583],
[88.1542,21.8776],
[88.2064,21.7919],
[88.2028,21.7121],
[88.1805,21.6776],
[88.2012,21.6097],
[88.2575,21.5487],
[88.3045,21.5671],
[88.2907,21.6878],
[88.2592,21.7732],
[88.2612,21.7969],
[88.2955,21.7766],
[88.3078,21.6942],
[88.3063,21.6106],
[88.4026,21.5837],
[88.4504,21.6114],
[88.4734,21.6741],
[88.4716,21.8886],
[88.5003,21.948],
[88.5122,21.9311],
[88.5319,21.8317],
[88.5255,21.6558],
[88.5117,21.5918],
[88.4918,21.5779],
[88.4832,21.5539],
[88.5041,21.5222],
[88.5383,21.5258],
[88.5722,21.56],
[88.6017,21.6097],
[88.628,21.7226],
[88.628,21.7525],
[88.6044,21.7777],
[88.5658,21.7687],
[88.5578,21.8186],
[88.5747,21.8787],
[88.5886,21.8933],
[88.6036,21.9369],
[88.5966,21.9884],
[88.6258,22.0397],
[88.6132,22.0983],
[88.6403,22.1608],
[88.6768,22.1971],
[88.6796,22.1686],
[88.6565,22.1469],
[88.6378,22.0967],
[88.6587,22.017],
[88.6244,21.9617],
[88.6356,21.9412],
[88.6845,21.9331],
[88.7278,22.0231],
[88.713,22.0619],
[88.7526,22.0437],
[88.7656,22.0052],
[88.724,21.9635],
[88.6966,21.843],
[88.6835,21.6862],
[88.712,21.5623],
[88.7362,21.5503],
[88.7785,21.555],
[88.8525,21.6289],
[88.9208,21.6339],
[89.0097,21.6009],
[89.0604,21.6086],
[89.0844,21.6252],
[89.088,21.6562],
[89.0056,21.9036],
[89.0582,21.9322],
[89.0637,22.0076],
[89.0372,22.0887],
[89.0545,22.1294],
[89.063,22.1155],
[89.0591,22.0621],
[89.0896,22.0146],
[89.0789,21.8967],
[89.102,21.8094],
[89.1538,21.7856],
[89.19,21.7875],
[89.2167,21.7236],
[89.2075,21.6522],
[89.245,21.6428],
[89.293,21.6694],
[89.2958,21.7614],
[89.355,21.966],
[89.3847,21.8926],
[89.3816,21.8635],
[89.3675,21.8415],
[89.363,21.7694],
[89.3728,21.731],
[89.3926,21.7111],
[89.4182,21.7138],
[89.4628,21.7689],
[89.5167,21.9103],
[89.5194,21.9533],
[89.4877,22.0323],
[89.5189,22.0644],
[89.4621,22.2199],
[89.4747,22.2892],
[89.4958,22.2609],
[89.4872,22.1969],
[89.534,22.0639],
[89.5283,21.9907],
[89.5491,21.9967],
[89.5806,22.1196],
[89.5773,22.1415],
[89.5478,22.189],
[89.55,22.2103],
[89.6151,22.3196],
[89.6039,22.2572],
[89.598,22.0817],
[89.5682,21.8861],
[89.5262,21.8287],
[89.5217,21.8003],
[89.544,21.7321],
[89.5614,21.7093],
[89.5811,21.7017],
[89.6989,21.7839],
[89.8182,21.835],
[89.8837,21.8946],
[89.854,21.9487],
[89.8469,21.9818],
[89.8708,22.1019],
[89.8633,22.1807],
[89.8414,22.261],
[89.86,22.3147],
[89.9094,22.3903],
[89.943,22.4336],
[90,22.4838],
[89.9725,22.4299],
[89.9128,22.3606],
[89.8741,22.2767],
[89.8759,22.2431],
[89.9147,22.1362],
[89.9158,22.0372],
[89.9339,21.9947],
[89.9587,21.9724],
[89.9819,21.9831],
[89.978,22.0268],
[90.0401,22.1412],
[90.0741,22.1589],
[90.0407,22.1276],
[89.9919,22.0253],
[90.0026,21.9942],
[90.0481,21.983],
[90.0647,21.9994],
[90.0953,22.0617],
[90.1487,22.1181],
[90.2384,22.1828],
[90.2194,22.1201],
[90.1625,22.1076],
[90.0928,22.0353],
[90.0299,21.9438],
[90.0233,21.8635],
[90.1155,21.8122],
[90.1628,21.8],
[90.2025,21.803],
[90.27,21.8469],
[90.3172,22.0022],
[90.3407,22.0474],
[90.3671,22.076],
[90.3964,22.1642],
[90.3885,22.2121],
[90.4014,22.2606],
[90.4058,22.1517],
[90.3903,22.1003],
[90.436,22.0731],
[90.4909,22.1439],
[90.4959,22.1722],
[90.5621,22.2068],
[90.6033,22.2744],
[90.6125,22.3028],
[90.6169,22.3711],
[90.5904,22.4324],
[90.6015,22.4718],
[90.5839,22.5275],
[90.4953,22.6944],
[90.4561,22.7494],
[90.4244,22.7702],
[90.4689,22.8797],
[90.4817,22.9647],
[90.4492,23.0436],
[90.453,23.0658],
[90.5589,23.0739],
[90.5786,23.09],
[90.5983,23.1179],
[90.6147,23.1894],
[90.6132,23.2183],
[90.6055,23.243],
[90.5667,23.2901],
[90.4986,23.2987],
[90.4265,23.325],
[90.3089,23.4144],
[90.3108,23.4358],
[90.548,23.3843],
[90.5747,23.4425],
[90.5778,23.5367],
[90.5076,23.551],
[90.4736,23.5758],
[90.5608,23.5867],
[90.5938,23.598],
[90.6085,23.5817],
[90.5873,23.5421],
[90.6002,23.4917],
[90.6664,23.5177],
[90.695,23.5152],
[90.6917,23.5514],
[90.7096,23.5497],
[90.716,23.5068],
[90.6948,23.4783],
[90.6404,23.4862],
[90.6023,23.4667],
[90.5937,23.3737],
[90.622,23.323],
[90.6412,23.1987],
[90.6246,23.0584],
[90.6797,22.9917],
[90.7226,22.924],
[90.7469,22.8661],
[90.7508,22.823],
[90.779,22.7612],
[90.8315,22.6883],
[90.946,22.5803],
[90.9653,22.5707],
[91.0419,22.5911],
[91.1187,22.5775],
[91.2307,22.5864],
[91.2594,22.6264],
[91.2546,22.6546],
[91.4558,22.79],
[91.5441,22.7025],
[91.6694,22.5372],
[91.7419,22.4047],
[91.7589,22.3533],
[91.7719,22.2587],
[91.8114,22.1936],
[91.8193,22.1453],
[91.833,22.1213],
[91.85,22.1094],
[91.9153,21.8628],
[91.9014,21.7744],
[91.9502,21.7916],
[91.9546,21.7558],
[91.9464,21.7335],
[91.9619,21.6801],
[91.9826,21.6508],
[92.0151,21.6724],
[92.0245,21.7036],
[92.0394,21.6603],
[92.0047,21.4961],
[91.9553,21.4505],
[92.048,21.285],
[92.048,21.165],
[92.123,21.0669],
[92.2075,20.9331],
[92.3005,20.7603],
[92.3271,20.7448],
[92.3303,20.7742],
[92.2608,20.9347],
[92.2561,21.0296],
[92.2619,21.0543],
[92.2329,21.1153],
[92.2149,21.1367],
[92.205,21.3006],
[92.2222,21.3581],
[92.2608,21.4144],
[92.3601,21.4724],
[92.3817,21.4721],
[92.5375,21.3781],
[92.5864,21.2626],
[92.6067,21.2523],
[92.6677,21.2952],
[92.618,21.47],
[92.6003,21.6342],
[92.5992,21.795],
[92.6205,21.8798],
[92.6027,21.9826],
[92.6759,22.0251],
[92.7063,22.1545],
[92.7987,22.1091],
[92.8621,22.0526],
[92.8851,22.0136],
[92.9244,22.005],
[92.9908,22.0486],
[93.047,22.2045],
[93.0714,22.2117],
[93.1058,22.2053],
[93.1293,22.186],
[93.1556,22.1878],
[93.1979,22.2647],
[93.1894,22.3844],
[93.1762,22.4415],
[93.1418,22.4656],
[93.1193,22.5303],
[93.0928,22.7144],
[93.1022,22.8017],
[93.14,22.9532],
[93.1261,23.0142],
[93.1396,23.0471],
[93.1847,23.0592],
[93.2099,23.0512],
[93.2264,23.0179],
[93.2474,23.0069],
[93.2747,23.0043],
[93.3055,23.0176],
[93.349,23.0711],
[93.3878,23.2315],
[93.3719,23.3578],
[93.3994,23.4233],
[93.4251,23.6024],
[93.4228,23.6625],
[93.3842,23.8481],
[93.3511,23.9533],
[93.3292,23.9806],
[93.3279,24.036],
[93.3375,24.0718],
[93.3674,24.091],
[93.4076,24.0745],
[93.4736,23.971],
[93.5001,23.9624],
[93.5935,23.9712],
[93.6286,24.0165],
[93.6897,24.0153],
[93.7661,24.0003],
[93.8005,23.9489],
[93.8226,23.9351],
[93.9102,23.9558],
[94.0315,23.9197],
[94.0943,23.8862],
[94.1413,23.8476],
[94.22,24.0108],
[94.2703,24.1794],
[94.3139,24.2858],
[94.4722,24.5817],
[94.5005,24.6032],
[94.6183,24.7603],
[94.7352,25.032],
[94.734,25.1231],
[94.7214,25.14],
[94.663,25.1639],
[94.6167,25.1705],
[94.5942,25.1842],
[94.5785,25.2092],
[94.5825,25.2889],
[94.6286,25.4019],
[94.6617,25.428],
[94.687,25.4659],
[94.7401,25.4948],
[94.7685,25.4915],
[94.7937,25.4999],
[94.8853,25.5786],
[94.9964,25.7322],
[95.0673,25.9462],
[95.1178,25.9833],
[95.165,26.0368],
[95.1751,26.0661],
[95.1133,26.1383],
[95.0803,26.2343],
[95.0667,26.3117],
[95.0659,26.4755],
[95.145,26.6162],
[95.2459,26.6778],
[95.2616,26.6499],
[95.3883,26.6847],
[95.4454,26.7124],
[95.4773,26.7524],
[95.5075,26.8129],
[95.5258,26.8247],
[95.6061,26.8231],
[95.6711,26.8983],
[95.8061,27.0026],
[95.8737,27.0129],
[95.9122,27.0308],
[95.9619,27.0803],
[96.0114,27.169],
[96.0296,27.1875],
[96.0982,27.2321],
[96.1912,27.2699],
[96.4262,27.3046],
[96.4966,27.3022],
[96.6219,27.3658],
[96.7259,27.3657],
[96.7841,27.3469],
[96.8215,27.3215],
[96.8553,27.2628],
[96.8639,27.2124],
[96.8821,27.1828],
[96.9983,27.1339],
[97.0597,27.093],
[97.1354,27.0872],
[97.159,27.1281],
[97.045,27.2869],
[96.9689,27.3661],
[96.9036,27.4574],
[96.8864,27.5999],
[96.8903,27.6197],
[96.9322,27.6622],
[97.0466,27.7497],
[97.3611,27.9408],
[97.3805,27.9914],
[97.36,28.0436],
[97.3169,28.0875],
[97.3489,28.2227],
[97.3071,28.2342],
[97.248,28.2867],
[97.2379,28.309],
[97.1282,28.3819],
[97.0987,28.3803],
[97.0139,28.3339],
[96.9847,28.3325],
[96.7787,28.3768],
[96.7447,28.4229],
[96.6539,28.4675],
[96.5987,28.4685],
[96.4512,28.4161],
[96.4019,28.3511],
[96.3616,28.3928],
[96.3403,28.525],
[96.4303,28.5907],
[96.6154,28.7607],
[96.6137,28.7957],
[96.4844,28.9683],
[96.4958,29.0361],
[96.4708,29.0567],
[96.3471,29.0333],
[96.3186,29.0157],
[96.2503,28.9408],
[96.1753,28.9014],
[96.1497,28.9368],
[96.1489,29.0597],
[96.2189,29.1472],
[96.2587,29.1645],
[96.3489,29.1814],
[96.3917,29.2576],
[96.3585,29.2862],
[96.2925,29.2424],
[96.2619,29.2437],
[96.2332,29.256],
[96.1869,29.3129],
[96.1807,29.3515],
[96.0831,29.4644],
[96.0523,29.4612],
[95.9489,29.3958],
[95.7897,29.3428],
[95.6247,29.255],
[95.5414,29.1911],
[95.5253,29.1361],
[95.4614,29.0541],
[95.4391,29.0414],
[95.3878,29.0353],
[95.13,29.1175],
[94.9825,29.1401],
[94.8641,29.175],
[94.7923,29.2608],
[94.6974,29.3365],
[94.6475,29.3335],
[94.5932,29.2724],
[94.5812,29.2315],
[94.5389,29.2148],
[94.4278,29.2155],
[94.3081,29.1412],
[94.2346,29.0735],
[94.1917,29.0089],
[94.1874,28.9748],
[94.1525,28.9307],
[94.0211,28.836],
[93.9617,28.6692],
[93.8585,28.6904],
[93.7319,28.6776],
[93.6473,28.6475],
[93.5952,28.6536],
[93.5021,28.6792],
[93.3519,28.6188],
[93.3287,28.595],
[93.3204,28.5405],
[93.2155,28.4183],
[93.2382,28.3874],
[93.2377,28.3431],
[93.2221,28.3193],
[93.0457,28.3103],
[92.8873,28.1987],
[92.8529,28.2001],
[92.83,28.2128],
[92.7104,28.1419],
[92.6871,28.1148],
[92.6752,28.0807],
[92.6865,28.0602],
[92.7208,28.0411],
[92.7196,27.979],
[92.6994,27.9555],
[92.6437,27.9162],
[92.545,27.8619],
[92.4525,27.8264],
[92.3147,27.7961],
[92.2655,27.8684],
[92.2573,27.8197],
[92.1183,27.8125],
[92.0744,27.7867],
[92.0464,27.7503],
[92.0144,27.7347],
[91.9783,27.7286],
[91.8847,27.7311],
[91.8244,27.7664],
[91.6574,27.7709],
[91.6544,27.7167],
[91.5989,27.6601],
[91.6003,27.6154],
[91.6314,27.5364],
[91.6758,27.4871],
[91.7708,27.4317],
[91.951,27.4532],
[91.9937,27.4756],
[92.078,27.3686],
[92.1142,27.2931],
[92.0442,27.1883],
[92.0153,27.1681],
[92.01,27.1015],
[92.0175,27.08],
[92.0714,27.0371],
[92.0867,27.0147],
[92.1132,26.9303],
[92.103,26.8955],
[92.0869,26.8738],
[92.0312,26.8519],
[91.8382,26.8633],
[91.7155,26.801],
[91.5428,26.8053],
[91.5013,26.8673],
[91.4173,26.8712],
[91.3755,26.8042],
[91.3073,26.7781],
[91.2849,26.7799],
[91.2312,26.8062],
[91.1197,26.8092],
[91.0497,26.7889],
[90.7086,26.7725],
[90.6414,26.7825],
[90.5641,26.8051],
[90.4571,26.858],
[90.4172,26.8944],
[90.3887,26.9035],
[90.2169,26.8508],
[90.1832,26.8137],
[90.1762,26.7739],
[90.149,26.7554],
[90.0819,26.7392],
[89.7699,26.7036],
[89.6431,26.7153],
[89.6228,26.7251],
[89.6433,26.7576],
[89.5887,26.7924],
[89.5262,26.8117],
[89.4818,26.8001],
[89.364,26.8597],
[89.3,26.8508],
[89.2762,26.8315],
[89.2208,26.8147],
[89.1261,26.8236],
[89.1063,26.8326],
[89.0846,26.8856],
[89.0382,26.9225],
[88.9478,26.9694],
[88.8939,26.9756],
[88.8617,27.0937],
[88.7925,27.1424],
[88.7525,27.1483],
[88.7622,27.1844],
[88.8107,27.2547],
[88.891,27.2769],
[88.9112,27.294],
[88.9171,27.3196],
[88.8233,27.3867],
[88.7997,27.4164],
[88.7812,27.4436],
[88.7646,27.5424],
[88.8014,27.6158],
[88.8305,27.6546],
[88.855,27.724],
[88.8811,27.8396],
[88.873,27.8955],
[88.8358,28.0081],
[88.7405,28.0697],
[88.6244,28.1168],
[88.5092,28.0406],
[88.3908,27.9836],
[88.1381,27.9494],
[88.1221,27.907],
[88.1306,27.8755],
[88.1883,27.8492],
[88.1873,27.7826],
[88.1207,27.6119],
[88.0934,27.5872],
[88.0569,27.5333],
[88.0473,27.4965],
[88.0347,27.2836],
[88.014,27.2236],
[88.0108,27.1514],
[87.995,27.1123],
[88.0353,27.0493],
[88.073,27.031],
[88.1186,26.9844],
[88.1743,26.8768],
[88.1946,26.7604],
[88.1918,26.726],
[88.1728,26.6657],
[88.1019,26.5303],
[88.1074,26.4888],
[88.0907,26.4332],
[88.0202,26.3684],
[87.9475,26.4025],
[87.8942,26.4693],
[87.7914,26.4589],
[87.6868,26.4253],
[87.6468,26.3961],
[87.5536,26.4058],
[87.4858,26.434],
[87.4551,26.4336],
[87.2697,26.3753],
[87.17,26.4],
[87.0844,26.4864],
[87.0044,26.5344],
[86.9652,26.5258],
[86.948,26.5309],
[86.9007,26.5004],
[86.8916,26.4771],
[86.821,26.4367],
[86.7334,26.4202],
[86.3342,26.6078],
[86.2048,26.5876],
[86.1839,26.6081],
[86.1383,26.6035],
[86.105,26.6186],
[86.0639,26.654],
[86.0329,26.6632],
[85.9658,26.6481],
[85.9506,26.6277],
[85.8605,26.5728],
[85.7535,26.6428],
[85.7289,26.6736],
[85.7302,26.7871],
[85.7105,26.8161],
[85.6308,26.866],
[85.5686,26.8451],
[85.3327,26.7365],
[85.3105,26.7394],
[85.2219,26.7631],
[85.2012,26.7751],
[85.1855,26.7981],
[84.9678,26.9358],
[84.855,26.9955],
[84.8022,27.0153],
[84.7535,27.0074],
[84.6553,27.0403],
[84.6462,27.0614],
[84.6798,27.1357],
[84.6851,27.2062],
[84.6803,27.2322],
[84.638,27.3111],
[84.5984,27.34],
[84.3297,27.3778],
[84.2978,27.3883],
[84.1472,27.5114],
[84.0514,27.453],
[84.0191,27.4431],
[83.9291,27.4495],
[83.8714,27.4403],
[83.8722,27.3853],
[83.8583,27.3522],
[83.6078,27.4692],
[83.4183,27.4728],
[83.3766,27.3753],
[83.3424,27.3425],
[83.31,27.3362],
[83.2735,27.3447],
[83.2518,27.39],
[83.1766,27.447],
[83.0287,27.4496],
[82.7665,27.5035],
[82.7437,27.5559],
[82.7469,27.5817],
[82.7176,27.6904],
[82.7011,27.7111],
[82.4789,27.6728],
[82.4288,27.6779],
[82.1489,27.8642],
[82.0664,27.9142],
[82.0433,27.9186],
[81.9997,27.9222],
[81.9695,27.9131],
[81.9011,27.8549],
[81.7808,27.9108],
[81.7269,27.9558],
[81.4788,28.0844],
[81.3744,28.1661],
[81.298,28.1639],
[81.2225,28.3247],
[81.1912,28.3679],
[81.0314,28.403],
[80.9303,28.4455],
[80.7047,28.5786],
[80.5414,28.6853],
[80.5059,28.6553],
[80.5108,28.6211],
[80.4722,28.59],
[80.3875,28.625],
[80.2503,28.7475],
[80.0614,28.8299],
[80.0522,28.8983],
[80.0697,28.9494],
[80.1969,29.1283],
[80.2491,29.1636],
[80.2878,29.2056],
[80.3062,29.3089],
[80.2857,29.3202],
[80.238,29.423],
[80.2903,29.4831],
[80.3461,29.5214],
[80.4085,29.6014],
[80.4166,29.64],
[80.3842,29.6812],
[80.375,29.7402],
[80.4158,29.7857],
[80.4433,29.7965],
[80.4828,29.7983],
[80.5373,29.8446],
[80.5955,29.9496],
[80.6255,29.9629],
[80.6789,29.9703],
[80.744,30.0196],
[80.8741,30.141],
[80.943,30.1811],
[81.0276,30.2086],
[80.9935,30.264],
[80.902,30.2859],
[80.8087,30.3242],
[80.791,30.3371],
[80.7586,30.3856],
[80.6118,30.4721],
[80.5214,30.4772],
[80.3162,30.5661],
[80.207,30.5755],
[80.224,30.5978],
[80.2542,30.7337],
[80.1886,30.7951],
[79.9553,30.8847],
[79.9297,30.8879],
[79.898,30.9192],
[79.886,30.9498],
[79.863,30.9658],
[79.7453,30.9893],
[79.6605,30.9736],
[79.61,30.9385],
[79.5543,30.9571],
[79.4194,31.0522],
[79.3932,31.1011],
[79.3144,31.1346],
[79.2418,31.2417],
[79.2179,31.301],
[79.2206,31.326],
[79.1642,31.3953],
[79.0808,31.4373],
[79.0441,31.4269],
[79.0185,31.4098],
[78.8777,31.2916],
[78.8175,31.2879],
[78.7682,31.309],
[78.7125,31.5027],
[78.7219,31.5253],
[78.7723,31.5528],
[78.8425,31.6075],
[78.7158,31.7264],
[78.6929,31.7797],
[78.7708,31.9685],
[78.7317,32.0065],
[78.6875,32.0307],
[78.6569,32.0597],
[78.5975,32.1249],
[78.5614,32.1897],
[78.538,32.2144],
[78.4814,32.2473],
[78.4723,32.4324],
[78.3971,32.5346],
[78.406,32.5561],
[78.4994,32.5826],
[78.5722,32.5667],
[78.6386,32.5778],
[78.6826,32.599],
[78.7055,32.6292],
[78.7462,32.639],
[78.7691,32.6258],
[78.7754,32.5983],
[78.765,32.5461],
[78.7744,32.49],
[78.7855,32.4718],
[78.9226,32.3649],
[78.9711,32.3508],
[79.078,32.3814],
[79.1396,32.4799],
[79.1726,32.4953],
[79.2532,32.516],
[79.3023,32.4956],
[79.4528,32.599],
[79.5154,32.6746],
[79.5303,32.728],
[79.5287,32.7567],
[79.4482,32.8843],
[79.3739,32.9372],
[79.3566,32.9684],
[79.3751,33.0994],
[79.2747,33.1894],
[79.1011,33.2533],
[78.9948,33.3177],
[78.9365,33.408],
[78.899,33.4276],
[78.8343,33.4822],
[78.8067,33.549],
[78.8178,33.7497],
[78.8119,33.8172],
[78.7328,34.0386],
[78.7358,34.0683],
[78.7512,34.0942],
[78.7746,34.1097],
[78.898,34.146],
[78.9503,34.1758],
[79.0034,34.1584],
[79.1969,34.1713],
[79.4894,34.1713],
[79.4894,34.3433],
[79.5238,34.4809],
[79.8334,34.4809],
[79.9194,34.5153],
[79.9366,34.6013],
[79.8678,34.8078],
[79.9022,34.8078],
[80.057,34.9454],
[80.1602,35.083],
[80.1602,35.4442],
[80.0699,35.6549],
[79.8721,35.7495],
[79.7001,35.8613],
[79.2442,35.8699],
[79.1152,35.9645],
[78.711,36.2053],
[78.496,36.2913],
[78.066,36.4117],
[78.023,36.5494],
[77.8424,36.6268],
[77.722,36.7042],
[77.5155,36.7128],
[77.3435,36.6354],
[77.2489,36.6354],
[77.0597,36.6612],
[76.8017,36.7214],
[76.6641,36.7816],
[76.4663,36.7816],
[76.3373,36.816],
[76.1567,37.0482],
[76.1567,37.246],
[76.1137,37.3234],
[76.0105,37.3664],
[75.8987,37.3406],
[75.8298,37.246],
[75.6578,37.246],
[75.546,37.3062],
[75.4944,37.4008],
[75.3654,37.461],
[75.1875,37.4066],
[75.0966,37.3219],
[74.9157,37.2373],
[74.8087,37.2242],
[74.7603,37.2991],
[74.7397,37.3014],
[74.6694,37.266],
[74.5278,37.2408],
[74.3909,37.17],
[74.395,37.1465],
[74.5678,37.0245],
[74.5548,36.9651],
[74.5307,36.9683],
[74.5074,36.9987],
[74.4766,37.0105],
[74.4169,37],
[74.2058,36.9033],
[74.1226,36.8436],
[74.0622,36.8213],
[74.0353,36.8154],
[73.9576,36.8398],
[73.9275,36.8634],
[73.8353,36.8961],
[73.6683,36.9096],
[73.54,36.8805],
[73.4848,36.8918],
[73.3858,36.8892],
[73.0547,36.8688],
[73,36.8624],
[73,21.7069],
[73.0265,21.7175],
[73.0589,21.7399],
[73.1271,21.7578],
[73.1175,21.7351],
[73,21.6855],
[73,19.2876],
[73.0005,19.2874],
[73.0331,19.2519],
[73.0426,19.211],
[73.017,19.2073],
[73,19.2404],
[73,19.0523],
[73.0542,19.0047],
[73,18.9647],
[73,18.0448]
]
],
[
[
[88.0453,21.6661],
[88.0486,21.641],
[88.065,21.6297],
[88.1323,21.6206],
[88.1654,21.7261],
[88.1647,21.8117],
[88.1463,21.8656],
[88.1248,21.8708],
[88.0962,21.826],
[88.053,21.7208],
[88.0453,21.6661]
]
],
[
[
[90.4575,22.7649],
[90.4846,22.7557],
[90.5194,22.6858],
[90.5472,22.7194],
[90.5416,22.7832],
[90.5654,22.7838],
[90.6511,22.7944],
[90.6781,22.8079],
[90.6922,22.8378],
[90.6836,22.8539],
[90.6608,22.865],
[90.5878,22.8822],
[90.4699,22.8673],
[90.4575,22.7649]
]
],
[
[
[90.4794,22.0382],
[90.4974,22.0036],
[90.5182,21.9894],
[90.5437,22.0028],
[90.567,22.0434],
[90.6092,22.1575],
[90.5867,22.1535],
[90.49,22.0817],
[90.4794,22.0382]
]
],
[
[
[90.5512,22.6336],
[90.5569,22.6053],
[90.6071,22.5669],
[90.6428,22.5531],
[90.6655,22.5022],
[90.6847,22.3925],
[90.6833,22.3414],
[90.6764,22.2697],
[90.6571,22.2297],
[90.6239,22.1561],
[90.602,22.0317],
[90.6374,21.9926],
[90.6714,21.9872],
[90.7697,22.0701],
[90.8203,22.1358],
[90.8658,22.3185],
[90.8789,22.4367],
[90.8643,22.4938],
[90.7941,22.5539],
[90.7128,22.6519],
[90.6946,22.7339],
[90.6742,22.778],
[90.6507,22.7822],
[90.5869,22.7703],
[90.5747,22.7511],
[90.5512,22.6336]
]
],
[
[
[91.0312,22.0848],
[91.0478,22.0922],
[91.1607,22.1826],
[91.1729,22.2108],
[91.1787,22.2564],
[91.1739,22.3211],
[91.1441,22.4092],
[91.0953,22.5178],
[91.0749,22.5139],
[91.0536,22.1842],
[91.0312,22.0848]
]
],
[
[
[91.404,22.5174],
[91.4068,22.4775],
[91.4807,22.3578],
[91.5064,22.3465],
[91.5297,22.3478],
[91.556,22.3646],
[91.5683,22.3941],
[91.5639,22.4206],
[91.5288,22.5028],
[91.46,22.6056],
[91.44,22.6216],
[91.404,22.5174]
]
],
[
[
[91.8449,21.6974],
[91.8544,21.5131],
[91.8735,21.4808],
[91.8921,21.4751],
[91.9594,21.5098],
[91.9794,21.5892],
[91.9805,21.6329],
[91.9472,21.683],
[91.9364,21.7342],
[91.884,21.755],
[91.8661,21.7478],
[91.8449,21.6974]
]
],
[
[
[92.3466,10.6942],
[92.3637,10.54],
[92.4611,10.515],
[92.4953,10.5194],
[92.5361,10.5758],
[92.5764,10.6878],
[92.5605,10.777],
[92.528,10.8716],
[92.498,10.9008],
[92.4358,10.8636],
[92.3549,10.7834],
[92.3466,10.6942]
]
],
[
[
[92.5253,11.8554],
[92.6186,11.6039],
[92.6744,11.5139],
[92.7219,11.4976],
[92.7605,11.6156],
[92.7958,11.9019],
[92.7572,12.0627],
[92.7546,12.0715],
[92.8065,12.0908],
[92.8611,12.1622],
[92.9017,12.2658],
[92.8994,12.2882],
[92.8568,12.3058],
[92.8744,12.3067],
[92.8941,12.3217],
[92.8815,12.3681],
[92.8589,12.3924],
[92.8487,12.4281],
[92.9006,12.4483],
[92.934,12.4158],
[92.9917,12.525],
[92.9925,12.7087],
[92.9594,12.8625],
[92.9234,12.9112],
[92.8846,12.8949],
[92.8758,12.8845],
[92.8546,12.8947],
[92.8182,12.8962],
[92.7392,12.8155],
[92.7464,12.685],
[92.7142,12.4208],
[92.716,12.3493],
[92.7358,12.3137],
[92.7589,12.305],
[92.7912,12.3192],
[92.8295,12.3186],
[92.8395,12.3129],
[92.8288,12.3174],
[92.7856,12.3128],
[92.7939,12.2916],
[92.789,12.2753],
[92.761,12.2675],
[92.7904,12.202],
[92.7855,12.1869],
[92.768,12.1771],
[92.7701,12.1606],
[92.7517,12.0949],
[92.754,12.0735],
[92.7487,12.0915],
[92.7675,12.1594],
[92.7662,12.1782],
[92.7482,12.1805],
[92.7229,12.1693],
[92.7171,12.1828],
[92.7222,12.2182],
[92.7098,12.2343],
[92.6741,12.2128],
[92.6418,12.1472],
[92.6469,12.1172],
[92.6247,11.9433],
[92.6,11.8933],
[92.5685,11.9299],
[92.5513,11.9194],
[92.5253,11.8554]
]
],
[
[
[92.5963,11.3739],
[92.623,11.3575],
[92.6762,11.3621],
[92.7026,11.3836],
[92.6918,11.4596],
[92.6814,11.4822],
[92.6402,11.5122],
[92.6279,11.4949],
[92.5963,11.3739]
]
],
[
[
[92.8064,13.0344],
[92.8108,12.9208],
[92.8195,12.8992],
[92.8561,12.8989],
[92.8755,12.8876],
[92.8818,12.8943],
[92.8768,12.9074],
[92.9301,13.064],
[92.9605,13.0797],
[92.966,13.0637],
[92.96,13.0375],
[92.9815,13.0246],
[93.0298,13.0418],
[93.0464,13.0714],
[93.0644,13.2375],
[93.0814,13.3994],
[93.0589,13.5461],
[93.045,13.5701],
[93.0064,13.5714],
[92.9439,13.5431],
[92.8925,13.465],
[92.9003,13.4347],
[92.8851,13.3791],
[92.8608,13.3701],
[92.8407,13.3275],
[92.8321,13.1639],
[92.8064,13.0344]
]
]
]}
}
