{
"type": "Feature",
"properties": {"id":"cshapes-471-1922-07-20","edge_precision":"unknown","cshapes_gwcode":471,"cshapes_name":"Cameroon","cshapes_first_day":"1922-07-20","cshapes_last_day":"1959-12-31","cshapes_status":"mandate","cshapes_owner":220,"cshapes_borders_defined":true},
"geometry": {"type": "MultiPolygon", "coordinates": [
[
[
[9.4566,4.2587],
[9.539,4.2587],
[9.5649,4.1504],
[9.5012,4.0958],
[9.4987,4.0694],
[9.5283,4.03],
[9.6131,3.9494],
[9.7225,3.8653],
[9.7217,3.8425],
[9.6406,3.8572],
[9.5431,3.8115],
[9.6367,3.6467],
[9.6271,3.5972],
[9.7085,3.5996],
[9.7458,3.6176],
[9.7359,3.5879],
[9.6617,3.5312],
[9.7219,3.4897],
[9.8119,3.3967],
[9.8783,3.3025],
[9.9279,3.2683],
[9.9133,3.2471],
[9.9651,3.0852],
[9.9622,3.0589],
[9.9525,3.0331],
[9.9099,2.984],
[9.8962,2.9557],
[9.8233,2.5667],
[9.8144,2.4817],
[9.8214,2.4264],
[9.8139,2.3463],
[9.8258,2.2786],
[9.8331,2.259],
[9.8967,2.2097],
[9.9826,2.1733],
[10.021,2.1682],
[11.3416,2.1666],
[11.3673,2.2989],
[11.5797,2.3153],
[11.7,2.3078],
[11.7564,2.2824],
[12.2292,2.2837],
[12.3357,2.3179],
[12.4818,2.3001],
[12.5958,2.2589],
[12.7519,2.2331],
[13,2.2561],
[13.1714,2.2829],
[13.2546,2.2661],
[13.2944,2.226],
[13.2983,2.1657],
[14.1186,2.1581],
[14.4631,2.1431],
[14.5626,2.1685],
[14.7142,2.1242],
[14.7592,2.0725],
[14.8567,2.0828],
[14.8872,2.0167],
[15.0292,1.9869],
[15.0933,1.9805],
[15.1489,2.0387],
[15.2111,2.0361],
[15.2392,2.0297],
[15.2947,1.9767],
[15.4483,1.9689],
[15.4915,1.9747],
[15.5192,1.9611],
[15.6461,1.9314],
[15.6875,1.9335],
[15.7574,1.9086],
[15.8806,1.8203],
[15.9783,1.7711],
[16.0261,1.7306],
[16.0451,1.6743],
[16.0722,1.6542],
[16.161,1.7247],
[16.0953,1.9501],
[16.0839,2.0447],
[16.0835,2.1525],
[16.1121,2.2002],
[16.1581,2.1864],
[16.2055,2.2179],
[16.1114,2.4106],
[16.0947,2.4978],
[16.0706,2.7908],
[16.1124,2.8256],
[16.1031,2.8983],
[16.0736,2.9433],
[15.94,3.1006],
[15.9069,3.1125],
[15.8176,3.1004],
[15.7678,3.1475],
[15.5903,3.3447],
[15.2637,3.6704],
[15.0769,3.9206],
[15.0439,4.0292],
[15.145,4.0718],
[15.1035,4.1404],
[15.0869,4.2947],
[15.0137,4.4147],
[14.8922,4.4767],
[14.8043,4.5381],
[14.7374,4.6153],
[14.7235,4.6437],
[14.7204,4.8053],
[14.7108,4.8781],
[14.6911,4.9814],
[14.6744,5.0138],
[14.686,5.0375],
[14.6878,5.1191],
[14.6725,5.18],
[14.6515,5.2195],
[14.5854,5.2453],
[14.5326,5.2912],
[14.5514,5.3425],
[14.5914,5.4047],
[14.6224,5.5207],
[14.6268,5.7247],
[14.6172,5.9012],
[14.6047,5.9222],
[14.5803,5.9272],
[14.5564,5.9066],
[14.4928,5.916],
[14.4242,6.0069],
[14.4189,6.041],
[14.4298,6.0797],
[14.5803,6.1889],
[14.7424,6.2647],
[14.805,6.3467],
[14.7969,6.39],
[14.8267,6.4336],
[14.9619,6.736],
[14.9961,6.7408],
[15.0529,6.7713],
[15.1297,6.9511],
[15.1421,7.0165],
[15.2314,7.2361],
[15.2992,7.2975],
[15.4456,7.3947],
[15.5002,7.5278],
[15.547,7.582],
[15.5728,7.63],
[15.5843,7.6901],
[15.58,7.7604],
[15.5023,7.7749],
[15.4779,7.8103],
[15.3892,8.0396],
[15.3765,8.1121],
[15.2647,8.3392],
[15.2072,8.4774],
[15.0742,8.6436],
[14.8879,8.8007],
[14.8635,8.8142],
[14.8328,8.8136],
[14.5594,9.0075],
[14.3481,9.1969],
[14.3524,9.2294],
[14.3286,9.2583],
[14.0078,9.6175],
[13.9691,9.6303],
[13.9576,9.6465],
[14.0288,9.7519],
[14.0775,9.7836],
[14.1233,9.8317],
[14.1806,9.9361],
[14.1948,9.9818],
[14.4585,9.9971],
[14.6528,9.9592],
[14.7835,9.9232],
[14.9267,9.9701],
[15.0175,9.9497],
[15.0587,9.9497],
[15.0869,9.9594],
[15.1012,9.9758],
[15.1516,9.988],
[15.2387,9.9875],
[15.4222,9.9269],
[15.6692,9.9894],
[15.6535,10.0118],
[15.6303,10.0272],
[15.499,10.1014],
[15.3731,10.2486],
[15.1903,10.5028],
[15.1367,10.6606],
[15.0582,10.8019],
[15.0581,10.8253],
[15.0772,10.8801],
[15.076,10.9031],
[15.0261,11.0794],
[15.0183,11.2022],
[15.051,11.3949],
[15.0676,11.4367],
[15.1093,11.4965],
[15.0625,11.69],
[15.0819,11.7547],
[15.0426,12.0789],
[14.9518,12.0976],
[14.8943,12.1558],
[14.9075,12.3284],
[14.9023,12.376],
[14.8224,12.6338],
[14.7087,12.7147],
[14.5815,12.7381],
[14.5462,12.7717],
[14.5256,12.975],
[14.436,13.085],
[14.1597,13.0831],
[14.0744,13.0748],
[14.1992,12.5014],
[14.1842,12.415],
[14.1744,12.3967],
[14.239,12.3542],
[14.3925,12.3528],
[14.4908,12.3358],
[14.5198,12.3149],
[14.5521,12.2489],
[14.6453,12.1883],
[14.6497,12.121],
[14.6197,12.0286],
[14.6372,11.9799],
[14.6308,11.8914],
[14.5886,11.755],
[14.5937,11.6903],
[14.6381,11.6508],
[14.6445,11.5724],
[14.6147,11.5036],
[14.4621,11.4142],
[14.4057,11.4001],
[14.3297,11.3389],
[14.1886,11.2442],
[14.1544,11.2349],
[14.0063,11.2783],
[13.9847,11.2675],
[13.8867,11.1706],
[13.8072,11.0558],
[13.7742,10.9711],
[13.7709,10.9393],
[13.7273,10.8914],
[13.7062,10.8464],
[13.5833,10.6911],
[13.5582,10.6358],
[13.5194,10.5022],
[13.459,10.2386],
[13.4663,10.1856],
[13.4573,10.1642],
[13.3996,10.1126],
[13.2708,10.0869],
[13.2531,10.0718],
[13.2282,9.9062],
[13.2597,9.7517],
[13.2418,9.585],
[13.1912,9.5289],
[13.1503,9.5152],
[13.061,9.5103],
[13.0239,9.4961],
[12.9737,9.4565],
[12.8978,9.3481],
[12.8381,9.0686],
[12.8512,9.0179],
[12.8254,8.8533],
[12.7972,8.7714],
[12.6811,8.6568],
[12.5464,8.6131],
[12.4767,8.6279],
[12.4043,8.6003],
[12.4028,8.5631],
[12.4161,8.5469],
[12.4204,8.5042],
[12.371,8.4469],
[12.339,8.4221],
[12.2908,8.4332],
[12.2693,8.4239],
[12.2506,8.401],
[12.2379,8.311],
[12.2556,8.1978],
[12.204,8.1174],
[12.1996,8.084],
[12.2092,8.0047],
[12.1372,7.8731],
[12.0767,7.7964],
[12.0315,7.7096],
[12.026,7.6768],
[12.0423,7.5774],
[11.9137,7.4453],
[11.8643,7.405],
[11.7927,7.2923],
[11.755,7.2683],
[11.7883,7.2528],
[11.8825,7.1322],
[11.8642,7.0847],
[11.7607,7.0021],
[11.636,6.9404],
[11.5836,6.8858],
[11.5592,6.8196],
[11.5869,6.7862],
[11.5886,6.7594],
[11.5578,6.6583],
[11.5122,6.6034],
[11.464,6.6017],
[11.4381,6.59],
[11.4097,6.4843],
[11.3808,6.4547],
[11.3403,6.4408],
[11.27,6.4332],
[11.1526,6.4363],
[11.1679,6.2581],
[11.1147,6.2353],
[10.9903,6.2277],
[10.999,6.0978],
[10.8343,6.0068],
[10.7087,6.0285],
[10.6697,6.0068],
[10.5874,5.8248],
[10.4271,5.8205],
[10.3058,5.7252],
[10.2451,5.7772],
[10.1368,5.7512],
[10.0935,5.6905],
[9.9722,5.6104],
[9.9332,5.4674],
[9.8032,5.3331],
[9.7397,5.2492],
[9.8206,5.1598],
[9.8379,5.0515],
[9.7816,5.0515],
[9.7599,4.8782],
[9.6169,4.6573],
[9.5346,4.6573],
[9.5216,4.4493],
[9.461,4.3367],
[9.4566,4.2587]
]
]
]}
}
