{
"type": "Feature",
"properties": {"id":"cshapes-212-1886-01-01","edge_precision":"unknown","cshapes_gwcode":212,"cshapes_name":"Luxembourg","cshapes_first_day":"1886-01-01","cshapes_last_day":"2019-12-31","cshapes_status":"independent","cshapes_owner":212,"cshapes_borders_defined":true},
"geometry": {"type": "MultiPolygon", "coordinates": [
[
[
[5.7344,49.835],
[5.7526,49.7923],
[5.7903,49.7808],
[5.8728,49.7148],
[5.8992,49.6628],
[5.9003,49.6405],
[5.8631,49.5717],
[5.836,49.5497],
[5.8007,49.5438],
[5.8553,49.5011],
[5.9796,49.4485],
[6.0925,49.4536],
[6.1607,49.5043],
[6.241,49.507],
[6.3028,49.4767],
[6.3622,49.4594],
[6.3565,49.5259],
[6.4208,49.6658],
[6.5058,49.7066],
[6.524,49.8077],
[6.4297,49.8089],
[6.401,49.8164],
[6.2528,49.8824],
[6.1742,49.9511],
[6.1306,50.0139],
[6.1133,50.059],
[6.126,50.1278],
[6.0306,50.1631],
[6.0221,50.1815],
[5.9731,50.17],
[5.8877,50.0974],
[5.8344,49.9869],
[5.7786,49.957],
[5.7478,49.9075],
[5.7344,49.835]
]
]
]}
}
