{
"type": "Feature",
"properties": {"id":"cshapes-452-1888-12-01","edge_precision":"unknown","cshapes_gwcode":452,"cshapes_name":"Ghana","cshapes_first_day":"1888-12-01","cshapes_last_day":"1898-06-13","cshapes_status":"colony","cshapes_owner":200,"cshapes_borders_defined":false},
"geometry": {"type": "MultiPolygon", "coordinates": [
[
[
[-3.2489,6.6137],
[-3.1692,6.2928],
[-3.1676,6.2629],
[-3.1471,6.2479],
[-3.0947,6.1453],
[-3.0703,5.9919],
[-3.0064,5.8578],
[-3.0136,5.7075],
[-2.9603,5.6272],
[-2.931,5.612],
[-2.84,5.6294],
[-2.7975,5.6156],
[-2.7644,5.5792],
[-2.7417,5.4464],
[-2.7836,5.2803],
[-2.7626,5.2042],
[-2.7293,5.1414],
[-2.7344,5.1128],
[-2.7536,5.1008],
[-2.9302,5.1077],
[-2.9281,5.1002],
[-2.9756,5.0831],
[-3.0417,5.1072],
[-3.1023,5.1095],
[-3.103,5.085],
[-2.9775,5.0499],
[-2.73,5.0064],
[-2.5042,4.9464],
[-2.33,4.9139],
[-2.2572,4.8769],
[-2.0868,4.7271],
[-2.0589,4.7308],
[-1.9558,4.7686],
[-1.7103,4.928],
[-1.6196,5.0168],
[-1.5951,5.0242],
[-1.5688,5.0194],
[-1.5364,5.035],
[-1.4156,5.0653],
[-1.2606,5.0921],
[-1.1792,5.1244],
[-1.1292,5.1631],
[-1.0668,5.1944],
[-0.7981,5.2078],
[-0.6942,5.3051],
[-0.5794,5.3517],
[-0.5342,5.3542],
[-0.4851,5.3749],
[-0.4283,5.4369],
[-0.3579,5.4931],
[-0.2663,5.5112],
[-0.0692,5.5781],
[0.0364,5.629],
[0.0692,5.669],
[0.1383,5.7122],
[0.2558,5.7578],
[0.3097,5.7764],
[0.3626,5.7779],
[0.4647,5.7642],
[0.6637,5.7599],
[0.6395,5.8455],
[0.6427,5.8846],
[0.6178,5.9424],
[0.575,5.9919],
[0.4304,6.0698],
[0.4085,6.0615],
[0.3785,6.0262],
[0.3537,6.0233],
[0.3095,6.0388],
[0.2522,6.0826],
[0.2082,6.0897],
[0.2172,6.0982],
[0.2376,6.1049],
[0.261,6.101],
[0.3113,6.0586],
[0.3806,6.0513],
[0.4051,6.081],
[0.4471,6.0808],
[0.5065,6.0586],
[0.5812,6.0012],
[0.6358,5.9445],
[0.6578,5.8803],
[0.6524,5.8406],
[0.6667,5.8032],
[0.6947,5.7734],
[0.688,5.7539],
[0.79,5.7567],
[0.92,5.7719],
[0.969,5.7978],
[0.9924,5.8249],
[1.01,5.9133],
[1.0306,5.9619],
[1.0749,6.02],
[1.2008,6.1092],
[1.2011,6.16],
[1.1075,6.1606],
[1.0668,6.2122],
[1.0086,6.2268],
[0.8818,6.3066],
[0.3576,6.3031],
[0.2135,6.2892],
[0.2864,6.3969],
[0.4079,6.5149],
[0.4808,6.5739],
[0.3385,6.567],
[0.092,6.5705],
[0.0746,6.6486],
[0.0434,6.6955],
[0.0451,6.7788],
[0.0677,6.8135],
[0.1701,6.8604],
[0.2014,6.8829],
[0.2014,6.9888],
[0.2465,7.0531],
[0.2413,7.1155],
[0.2638,7.1433],
[0.2638,7.178],
[0.217,7.3308],
[0.1771,7.3586],
[0.1545,7.3968],
[0.1337,7.494],
[0.0989,7.527],
[0.0156,7.5773],
[0.0139,7.6329],
[-0.0538,7.6797],
[-0.0677,7.8238],
[-0.0608,7.9089],
[-0.1371,7.9662],
[-0.1756,8.0068],
[-0.3084,8.1072],
[-0.5189,8.1688],
[-0.6387,8.2465],
[-0.6549,8.2918],
[-0.7294,8.3339],
[-0.7553,8.3987],
[-0.8104,8.4635],
[-0.8719,8.5088],
[-0.8719,8.5574],
[-0.9237,8.6416],
[-1.0079,8.674],
[-1.1148,8.6869],
[-1.2443,8.6837],
[-1.3771,8.7646],
[-1.4548,8.7517],
[-1.5002,8.7193],
[-1.5488,8.6675],
[-1.5941,8.6837],
[-1.6751,8.6643],
[-1.7139,8.6222],
[-1.8208,8.6416],
[-1.8694,8.6027],
[-1.8856,8.538],
[-1.892,8.457],
[-1.9179,8.4181],
[-1.8888,8.3177],
[-1.9212,8.2206],
[-1.9471,8.1785],
[-2.0151,8.1493],
[-2.1025,8.1623],
[-2.3292,8.3404],
[-2.5122,8.3526],
[-2.4878,8.1978],
[-2.5603,8.1642],
[-2.6003,8.1219],
[-2.6603,8.0231],
[-2.7751,7.9429],
[-2.785,7.8536],
[-2.8397,7.7567],
[-2.855,7.742],
[-2.9236,7.5956],
[-2.9733,7.2622],
[-3.0239,7.0731],
[-3.0964,7.0506],
[-3.2244,6.8186],
[-3.2089,6.7533],
[-3.2067,6.6953],
[-3.2419,6.6428],
[-3.2489,6.6137]
]
]
]}
}
