{
"type": "Feature",
"properties": {"id":"cshapes-541-1886-01-01","edge_precision":"unknown","cshapes_gwcode":541,"cshapes_name":"Mozambique","cshapes_first_day":"1886-01-01","cshapes_last_day":"1891-06-10","cshapes_status":"colony","cshapes_owner":235,"cshapes_borders_defined":false},
"geometry": {"type": "MultiPolygon", "coordinates": [
[
[
[31.3021,-22.4186],
[31.5617,-23.1867],
[31.5375,-23.4172],
[31.5508,-23.4767],
[31.6215,-23.5408],
[31.6836,-23.6136],
[31.6886,-23.6803],
[31.7697,-23.8564],
[31.8447,-23.9072],
[31.8773,-23.9574],
[31.8858,-24.1711],
[31.9639,-24.3069],
[32.0161,-24.4594],
[31.9956,-24.7044],
[32.0186,-25.035],
[32.0167,-25.1106],
[32.01,-25.3461],
[31.9911,-25.4211],
[31.9882,-25.5111],
[32.005,-25.5369],
[32.0061,-25.6158],
[31.9194,-25.8142],
[31.9685,-25.9578],
[31.9986,-25.9908],
[32.0747,-26.0372],
[32.1019,-26.1554],
[32.0611,-26.2614],
[32.0722,-26.3933],
[32.1261,-26.499],
[32.1334,-26.8396],
[32.175,-26.8517],
[32.3483,-26.8603],
[32.8904,-26.8471],
[32.8819,-26.8192],
[32.9025,-26.7153],
[32.9456,-26.0877],
[32.9024,-26.1078],
[32.8642,-26.2093],
[32.8733,-26.2724],
[32.8432,-26.2911],
[32.8065,-26.2753],
[32.6039,-26.0314],
[32.5872,-25.9724],
[32.6479,-25.9265],
[32.6939,-25.8741],
[32.7044,-25.8258],
[32.7334,-25.8062],
[32.7703,-25.6836],
[32.8111,-25.6121],
[32.8821,-25.5383],
[33.1319,-25.3812],
[33.3658,-25.265],
[33.7226,-25.109],
[34.3039,-24.9269],
[34.3742,-24.8917],
[34.8128,-24.7433],
[35.0122,-24.6542],
[35.1439,-24.57],
[35.1855,-24.5222],
[35.1924,-24.4903],
[35.3094,-24.3658],
[35.39,-24.2661],
[35.4956,-24.1022],
[35.4833,-24.0481],
[35.5017,-23.9667],
[35.5398,-23.8731],
[35.5229,-23.7955],
[35.49,-23.7929],
[35.4397,-23.8786],
[35.3763,-23.858],
[35.3603,-23.9533],
[35.3397,-23.9694],
[35.3383,-23.9058],
[35.3478,-23.6953],
[35.4069,-23.6561],
[35.4126,-23.5213],
[35.4868,-23.2818],
[35.4798,-23.1785],
[35.5192,-23.0831],
[35.5633,-23.0153],
[35.5973,-22.9197],
[35.5353,-22.9503],
[35.5044,-22.8342],
[35.4858,-22.6292],
[35.4919,-22.5703],
[35.5406,-22.4142],
[35.5453,-22.2325],
[35.4806,-22.0958],
[35.4458,-22.1203],
[35.4186,-22.1711],
[35.4031,-22.2214],
[35.3893,-22.2988],
[35.3914,-22.3471],
[35.4094,-22.4142],
[35.3972,-22.46],
[35.3717,-22.4661],
[35.3067,-22.4075],
[35.3024,-22.3304],
[35.3269,-22.234],
[35.3375,-22.0744],
[35.33,-21.9933],
[35.2767,-21.8192],
[35.2636,-21.7117],
[35.2719,-21.6792],
[35.2696,-21.6486],
[35.2468,-21.5906],
[35.1839,-21.5167],
[35.0792,-21.3242],
[35.0503,-21.0978],
[35.0825,-21.0872],
[35.1179,-20.9744],
[35.103,-20.9573],
[35.1118,-20.9333],
[35.0744,-20.9131],
[35.0089,-20.8069],
[35.0125,-20.7789],
[34.9869,-20.7253],
[34.953,-20.6956],
[34.8711,-20.6567],
[34.7393,-20.5578],
[34.6669,-20.3912],
[34.6951,-20.3811],
[34.7594,-20.1806],
[34.7505,-20.0367],
[34.7761,-19.8259],
[34.7425,-19.769],
[34.6839,-19.739],
[34.6414,-19.6719],
[34.6268,-19.6186],
[34.8127,-19.7784],
[34.8476,-19.8556],
[34.8907,-19.8604],
[35.1122,-19.7169],
[35.4471,-19.419],
[35.5761,-19.2714],
[35.6367,-19.1872],
[35.6704,-19.1219],
[35.8789,-18.975],
[35.9828,-18.9269],
[36.0592,-18.8661],
[36.1001,-18.8131],
[36.1231,-18.8025],
[36.131,-18.8088],
[36.1226,-18.841],
[36.131,-18.9001],
[36.1581,-18.9039],
[36.2528,-18.8914],
[36.3205,-18.7944],
[36.3986,-18.7333],
[36.4189,-18.6742],
[36.4797,-18.5769],
[36.7736,-18.3015],
[36.9439,-18.1086],
[36.9705,-18.0594],
[36.9522,-18.0294],
[36.8215,-17.8948],
[36.8464,-17.8756],
[36.8701,-17.8757],
[36.8999,-17.89],
[36.9164,-17.9506],
[36.9839,-18.0014],
[37.0042,-17.9894],
[37.0886,-17.8719],
[37.2206,-17.7501],
[37.8722,-17.3764],
[37.9608,-17.345],
[38.0965,-17.3169],
[38.1981,-17.2696],
[38.2497,-17.2294],
[38.6861,-17.0708],
[38.8244,-17.0568],
[39.0962,-16.9844],
[39.125,-16.9378],
[39.1275,-16.8704],
[39.3106,-16.7522],
[39.5067,-16.6533],
[39.6986,-16.5369],
[39.8175,-16.4128],
[39.7826,-16.3056],
[39.8081,-16.2819],
[39.8839,-16.2393],
[39.9328,-16.2433],
[39.9767,-16.2356],
[40.0975,-16.0829],
[40.134,-15.9976],
[40.1255,-15.94],
[40.3603,-15.7233],
[40.4379,-15.6021],
[40.5592,-15.5219],
[40.5878,-15.4797],
[40.6843,-15.2549],
[40.6683,-15.1915],
[40.6318,-15.1578],
[40.6056,-15.1633],
[40.5816,-15.196],
[40.5383,-15.1942],
[40.5144,-15.1839],
[40.5378,-15.124],
[40.6075,-15.1153],
[40.7039,-15.0818],
[40.7703,-14.9783],
[40.7285,-14.889],
[40.82,-14.8111],
[40.8453,-14.7342],
[40.8461,-14.6978],
[40.8311,-14.4594],
[40.8211,-14.4235],
[40.8064,-14.406],
[40.7751,-14.4044],
[40.69,-14.4358],
[40.6706,-14.4878],
[40.6361,-14.4847],
[40.6436,-14.4014],
[40.6823,-14.3656],
[40.7286,-14.3431],
[40.7447,-14.2747],
[40.7228,-14.2021],
[40.6989,-14.1832],
[40.6689,-14.1903],
[40.6492,-14.1975],
[40.5986,-14.2458],
[40.5594,-14.2081],
[40.5328,-14.1675],
[40.6163,-14.132],
[40.6428,-14.0708],
[40.6497,-14.0217],
[40.6358,-13.9463],
[40.6028,-13.8968],
[40.5393,-13.6404],
[40.5769,-13.5872],
[40.5789,-13.5672],
[40.5258,-13.5153],
[40.5899,-13.3719],
[40.5394,-13.3122],
[40.5719,-13.2028],
[40.5929,-12.9707],
[40.4927,-12.955],
[40.5092,-12.9861],
[40.5108,-13.0068],
[40.494,-13.0254],
[40.4611,-13.0164],
[40.4128,-12.9692],
[40.4158,-12.9354],
[40.4497,-12.9031],
[40.4767,-12.8842],
[40.5136,-12.885],
[40.644,-12.7774],
[40.646,-12.7554],
[40.6111,-12.7089],
[40.5589,-12.5533],
[40.4742,-12.5049],
[40.51,-12.434],
[40.5147,-12.3164],
[40.5056,-11.9572],
[40.4242,-11.6497],
[40.4289,-11.5747],
[40.4512,-11.5221],
[40.4767,-11.4041],
[40.3878,-11.3178],
[40.4986,-11.1767],
[40.5617,-11.0664],
[40.5638,-11.0242],
[40.5312,-11.0163],
[40.5062,-11.0314],
[40.5017,-10.9581],
[40.5092,-10.9298],
[40.5332,-10.8979],
[40.6083,-10.8624],
[40.6172,-10.8417],
[40.6022,-10.8238],
[40.5514,-10.7997],
[40.5031,-10.7911],
[40.5883,-10.6867],
[40.5694,-10.5972],
[40.5162,-10.4819],
[40.4423,-10.4746],
[40.4278,-10.4994],
[40.3814,-10.5403],
[40.1589,-10.6775],
[40.0197,-10.7792],
[39.8983,-10.8317],
[39.7669,-10.9206],
[39.5039,-10.9976],
[39.2625,-11.1694],
[39.206,-11.1732],
[39.1361,-11.1424],
[38.9057,-11.1701],
[38.6725,-11.2708],
[38.5339,-11.3725],
[38.4917,-11.4153],
[38.4168,-11.3972],
[38.3339,-11.3479],
[38.0967,-11.2563],
[38.0328,-11.2608],
[37.9344,-11.2881],
[37.8651,-11.3328],
[37.8102,-11.4838],
[37.8227,-11.5101],
[37.8169,-11.5363],
[37.7919,-11.5611],
[37.5972,-11.6397],
[37.4732,-11.7187],
[37.3996,-11.7232],
[37.3158,-12.2225],
[37.2851,-12.3453],
[37.1265,-12.6678],
[36.8859,-13.1233],
[36.845,-13.2359],
[36.7017,-13.3485],
[36.5276,-13.6556],
[36.4662,-13.7989],
[36.456,-13.8398],
[36.4048,-13.9217],
[36.3639,-14.0138],
[36.3434,-14.0957],
[36.3127,-14.1571],
[36.3025,-14.2186],
[36.2513,-14.3926],
[36.241,-14.454],
[36.241,-14.5256],
[36.2206,-14.6485],
[36.1489,-14.7201],
[36.1387,-14.7508],
[36.0773,-14.8327],
[35.868,-15.0197],
[35.8024,-15.1867],
[35.8672,-15.4194],
[35.816,-16.0136],
[35.7936,-16.0552],
[35.7094,-16.1106],
[35.5403,-16.1644],
[35.4869,-16.1328],
[35.4422,-16.1228],
[35.4117,-16.1263],
[35.2917,-16.2283],
[35.243,-16.4733],
[35.1386,-16.5497],
[35.1728,-16.6242],
[35.2231,-16.646],
[35.2781,-16.7047],
[35.3022,-16.8092],
[35.2892,-16.8678],
[35.2828,-16.9664],
[35.3081,-17.0614],
[35.3043,-17.1083],
[35.2901,-17.1343],
[35.0878,-17.1271],
[35.0546,-17.024],
[35.0685,-17.0006],
[35.1297,-16.9636],
[35.1433,-16.9376],
[35.1451,-16.8361],
[35.1242,-16.818],
[35.0437,-16.8221],
[34.9985,-16.7943],
[34.7675,-16.5464],
[34.66,-16.4536],
[34.5942,-16.3794],
[34.5717,-16.3205],
[34.5486,-16.301],
[34.4678,-16.2925],
[34.4507,-16.2807],
[34.4096,-16.1992],
[34.4075,-16.1319],
[34.4268,-16.0921],
[34.4287,-16.069],
[34.4207,-16.0501],
[34.3315,-15.9579],
[34.2625,-15.9115],
[34.2544,-15.8889],
[33.9993,-15.8666],
[33.7639,-15.7028],
[33.6001,-15.5288],
[33.4159,-15.4981],
[33.2726,-15.6618],
[33.1804,-15.9075],
[33.0576,-15.9382],
[32.9859,-16.0201],
[32.9655,-16.1941],
[32.8324,-16.3477],
[32.58,-16.5458],
[32.7074,-16.6117],
[32.7281,-16.6936],
[32.7675,-16.718],
[32.9305,-16.7027],
[32.9811,-16.7091],
[32.9669,-16.7753],
[32.9386,-16.8422],
[32.865,-16.9186],
[32.9175,-17.0547],
[32.9683,-17.1475],
[32.9872,-17.2278],
[32.9938,-17.3081],
[33.0398,-17.3487],
[32.9565,-17.5055],
[32.9783,-17.5574],
[33.0285,-17.5781],
[33.0408,-17.6],
[33.0424,-17.6293],
[33.015,-17.7453],
[32.975,-17.8176],
[32.9524,-17.8808],
[32.9461,-17.975],
[32.9547,-18.0417],
[32.9881,-18.1222],
[32.9993,-18.1877],
[32.9741,-18.2501],
[33.0716,-18.3497],
[33.0206,-18.4597],
[32.9962,-18.4815],
[32.8883,-18.5306],
[32.8894,-18.5714],
[32.9497,-18.6903],
[32.9203,-18.7767],
[32.8931,-18.7911],
[32.8322,-18.7783],
[32.7903,-18.7889],
[32.7042,-18.8331],
[32.6994,-18.9479],
[32.7145,-19.018],
[32.7397,-19.0258],
[32.834,-19.0231],
[32.8849,-19.1053],
[32.855,-19.2742],
[32.7928,-19.3624],
[32.7854,-19.4671],
[32.8402,-19.4756],
[32.8518,-19.5],
[32.8506,-19.6178],
[32.9847,-19.6872],
[33.0594,-19.7803],
[33.0189,-19.9433],
[32.9828,-20.0222],
[32.9042,-20.1242],
[32.8739,-20.274],
[32.6658,-20.5572],
[32.5508,-20.555],
[32.5022,-20.5986],
[32.4842,-20.6703],
[32.5008,-20.8194],
[32.5214,-20.9142],
[32.4808,-20.9922],
[32.3761,-21.1061],
[32.3606,-21.1356],
[32.4708,-21.3234],
[32.4101,-21.3128],
[31.4004,-22.3472],
[31.3021,-22.4186]
]
]
]}
}
