{
"type": "Feature",
"properties": {"id":"cshapes-585-1886-01-01","edge_precision":"unknown","cshapes_gwcode":585,"cshapes_name":"Reunion","cshapes_first_day":"1886-01-01","cshapes_last_day":"2019-12-31","cshapes_status":"colony","cshapes_owner":220,"cshapes_borders_defined":true},
"geometry": {"type": "MultiPolygon", "coordinates": [
[
[
[55.2206,-21.025],
[55.2297,-21.0764],
[55.2933,-21.2064],
[55.3433,-21.2686],
[55.4278,-21.3125],
[55.5333,-21.3547],
[55.6742,-21.3739],
[55.7904,-21.3504],
[55.824,-21.3231],
[55.8531,-21.1686],
[55.8503,-21.134],
[55.7854,-21.105],
[55.745,-21.0575],
[55.71,-20.9981],
[55.7028,-20.955],
[55.6878,-20.9281],
[55.66,-20.9026],
[55.4525,-20.8565],
[55.4053,-20.8689],
[55.2944,-20.9217],
[55.2206,-21.025]
]
]
]}
}
