{
"type": "Feature",
"properties": {"id":"cshapes-373-1991-12-26","edge_precision":"unknown","cshapes_gwcode":373,"cshapes_name":"Azerbaijan","cshapes_first_day":"1991-12-26","cshapes_last_day":"2019-12-31","cshapes_status":"independent","cshapes_owner":373,"cshapes_borders_defined":true},
"geometry": {"type": "MultiPolygon", "coordinates": [
[
[
[44.7866,39.7088],
[44.8147,39.6383],
[44.8685,39.6223],
[44.8886,39.6058],
[44.9278,39.4766],
[44.9546,39.4324],
[45.0022,39.4167],
[45.063,39.373],
[45.1158,39.3122],
[45.1418,39.2471],
[45.1435,39.2169],
[45.2712,39.1872],
[45.2984,39.1976],
[45.3455,39.1647],
[45.4211,39.0608],
[45.4335,39.0032],
[45.5386,38.9655],
[45.8411,38.9036],
[46.0747,38.8719],
[46.1869,38.8426],
[46.1236,38.91],
[45.9687,39.1746],
[45.9694,39.1978],
[46.0056,39.249],
[45.9851,39.2754],
[45.8556,39.348],
[45.8289,39.4463],
[45.8194,39.5492],
[45.7919,39.5655],
[45.7384,39.5792],
[45.5992,39.5517],
[45.5024,39.5044],
[45.465,39.494],
[45.3269,39.539],
[45.2664,39.6111],
[45.0755,39.7723],
[45.0471,39.7792],
[44.9605,39.7294],
[44.9268,39.7198],
[44.8583,39.725],
[44.7866,39.7088]
]
],
[
[
[44.9842,41.0576],
[45.0179,41.0318],
[45.0497,41.0387],
[45.0553,41.0597],
[45.0239,41.0871],
[44.9926,41.0854],
[44.9842,41.0576]
]
],
[
[
[45.0229,41.2971],
[45.0469,41.2233],
[45.1436,41.2015],
[45.2114,41.1597],
[45.2211,41.14],
[45.2047,41.1208],
[45.176,41.115],
[45.0821,41.1136],
[45.08,41.0804],
[45.0964,41.0597],
[45.351,41.001],
[45.6194,40.8666],
[45.618,40.836],
[45.6027,40.8005],
[45.5769,40.7775],
[45.4364,40.7337],
[45.4204,40.72],
[45.3892,40.6637],
[45.4136,40.608],
[45.5364,40.4569],
[45.6628,40.3758],
[45.8822,40.2675],
[45.956,40.2721],
[45.9977,40.2308],
[45.9774,40.1185],
[45.908,40.0239],
[45.8805,40.014],
[45.7136,40.0261],
[45.638,40.0217],
[45.6136,40.0144],
[45.5976,39.9974],
[45.6078,39.9718],
[45.7297,39.9583],
[45.7793,39.9405],
[45.7969,39.9179],
[45.8203,39.8604],
[45.8507,39.829],
[45.9176,39.7917],
[46.0087,39.7702],
[46.0575,39.6998],
[46.2076,39.5971],
[46.2442,39.595],
[46.3294,39.6251],
[46.3572,39.6265],
[46.5262,39.5781],
[46.5457,39.5494],
[46.513,39.4756],
[46.4043,39.4512],
[46.386,39.4387],
[46.3842,39.406],
[46.3982,39.3842],
[46.6205,39.2255],
[46.5417,39.1894],
[46.4558,39.2176],
[46.4231,39.2087],
[46.4244,39.1656],
[46.4951,39.1264],
[46.5178,39.0737],
[46.5236,39.0442],
[46.5022,38.9998],
[46.4955,38.9573],
[46.5404,38.8756],
[46.5725,38.9158],
[46.7455,39.051],
[46.7589,39.086],
[46.8489,39.1606],
[46.9087,39.1679],
[46.9529,39.1564],
[47.0339,39.1967],
[47.0435,39.2379],
[47.0997,39.3044],
[47.1646,39.3353],
[47.1995,39.34],
[47.2869,39.3744],
[47.3917,39.4705],
[47.4607,39.4982],
[47.5425,39.5153],
[47.7699,39.6337],
[47.7939,39.6668],
[47.8129,39.6792],
[47.9847,39.7156],
[48.0633,39.6656],
[48.2125,39.5264],
[48.3219,39.4408],
[48.3405,39.4235],
[48.3579,39.3899],
[48.2789,39.3503],
[48.1985,39.3361],
[48.1489,39.3068],
[48.1239,39.2782],
[48.1217,39.2518],
[48.1333,39.211],
[48.2292,39.1399],
[48.2939,39.1125],
[48.3269,39.0544],
[48.3254,39.0322],
[48.3087,39.0037],
[48.2637,38.9776],
[48.1441,38.9683],
[48.0768,38.9539],
[48.0121,38.8971],
[48.0132,38.863],
[48.0246,38.8334],
[48.1236,38.7722],
[48.1847,38.7505],
[48.2469,38.7154],
[48.2436,38.6721],
[48.3317,38.6028],
[48.4328,38.6246],
[48.5653,38.4714],
[48.5992,38.4169],
[48.6235,38.3965],
[48.6629,38.3892],
[48.7837,38.4455],
[48.8696,38.4456],
[48.8667,38.7458],
[48.8867,38.8772],
[48.9083,38.9013],
[48.9342,38.9542],
[48.9524,39.025],
[48.9326,39.052],
[48.9325,39.1136],
[48.9642,39.1757],
[49.0028,39.1887],
[49.0439,39.1796],
[49.1458,39.0934],
[49.1397,39.0475],
[49.1055,39.0161],
[49.0596,39.007],
[49.0605,38.9692],
[49.0846,38.9642],
[49.159,38.9864],
[49.2007,39.0258],
[49.2411,39.2875],
[49.2551,39.3149],
[49.2937,39.3428],
[49.3462,39.3252],
[49.3955,39.3503],
[49.4105,39.3867],
[49.2994,39.4671],
[49.2837,39.4905],
[49.3138,39.6043],
[49.3874,39.6889],
[49.4175,39.853],
[49.45,39.965],
[49.4553,40.015],
[49.4264,40.0514],
[49.494,40.1555],
[49.5692,40.2114],
[49.7674,40.2903],
[49.9231,40.34],
[50.1286,40.3578],
[50.2596,40.3299],
[50.3099,40.3068],
[50.375,40.2622],
[50.3519,40.3811],
[50.2337,40.4919],
[50.0793,40.5562],
[49.973,40.5894],
[49.805,40.5647],
[49.694,40.5854],
[49.5739,40.6278],
[49.528,40.6628],
[49.5101,40.6882],
[49.5142,40.7211],
[49.5354,40.7675],
[49.5287,40.7912],
[49.4958,40.8203],
[49.4053,40.8448],
[49.2274,41.0124],
[49.1928,41.0611],
[49.155,41.1516],
[49.1397,41.2649],
[49.0361,41.4179],
[48.9918,41.4407],
[48.9009,41.5252],
[48.8583,41.5969],
[48.6753,41.7844],
[48.5877,41.8399],
[48.3997,41.5891],
[48.2489,41.5092],
[48.1058,41.4803],
[48.0703,41.464],
[47.9583,41.3558],
[47.9084,41.2781],
[47.9218,41.2515],
[47.9155,41.225],
[47.8592,41.2078],
[47.7608,41.1966],
[47.6515,41.2355],
[47.5762,41.2113],
[47.3711,41.2719],
[47.2746,41.3211],
[47.261,41.3743],
[47.2591,41.4203],
[47.1586,41.5629],
[47.1296,41.5764],
[47.0924,41.5693],
[46.9405,41.6839],
[46.8069,41.7691],
[46.7744,41.7956],
[46.7617,41.8605],
[46.6422,41.8176],
[46.5648,41.8819],
[46.4493,41.9004],
[46.4358,41.8618],
[46.4147,41.8318],
[46.3505,41.7733],
[46.3248,41.7565],
[46.2305,41.7625],
[46.2097,41.7467],
[46.1944,41.698],
[46.2161,41.625],
[46.3319,41.4835],
[46.5026,41.3962],
[46.5933,41.3794],
[46.6896,41.3173],
[46.7108,41.2583],
[46.6972,41.2117],
[46.6667,41.1505],
[46.6225,41.1005],
[46.5147,41.048],
[46.3783,41.1042],
[46.24,41.2047],
[46.1356,41.2026],
[46.0915,41.1789],
[46.0396,41.1703],
[45.9661,41.1792],
[45.8697,41.2061],
[45.8046,41.2304],
[45.7112,41.2872],
[45.7169,41.3486],
[45.3416,41.461],
[45.3067,41.4611],
[45.261,41.4493],
[45.0229,41.2971]
],
[
[45.4919,40.6369],
[45.5094,40.6618],
[45.5639,40.6642],
[45.5879,40.6511],
[45.5731,40.6325],
[45.5289,40.6061],
[45.5061,40.6121],
[45.4919,40.6369]
]
],
[
[
[45.202,40.9994],
[45.2064,40.9794],
[45.2292,40.9692],
[45.2411,40.9851],
[45.202,40.9994]
]
]
]}
}
