{
"type": "Feature",
"properties": {"id":"cshapes-51-1962-08-06","edge_precision":"unknown","cshapes_gwcode":51,"cshapes_name":"Jamaica","cshapes_first_day":"1962-08-06","cshapes_last_day":"2019-12-31","cshapes_status":"independent","cshapes_owner":51,"cshapes_borders_defined":true},
"geometry": {"type": "MultiPolygon", "coordinates": [
[
[
[-78.369,18.2672],
[-78.3658,18.2383],
[-78.3389,18.219],
[-78.2542,18.1944],
[-78.2313,18.1898],
[-78.1945,18.1997],
[-78.1286,18.2031],
[-78.0572,18.1964],
[-78.0433,18.1849],
[-77.9436,18.0281],
[-77.8745,18.0226],
[-77.849,18.0119],
[-77.7924,17.8878],
[-77.7276,17.8486],
[-77.5664,17.8595],
[-77.5129,17.8383],
[-77.4865,17.8385],
[-77.4532,17.8558],
[-77.4122,17.8597],
[-77.3492,17.8217],
[-77.2222,17.7163],
[-77.1825,17.6981],
[-77.1342,17.7112],
[-77.126,17.7288],
[-77.1438,17.7603],
[-77.1939,17.7797],
[-77.1489,17.8622],
[-77.112,17.8919],
[-77.0803,17.8994],
[-77.0518,17.8946],
[-77.0363,17.8883],
[-77.0053,17.8447],
[-76.9515,17.8293],
[-76.9191,17.8468],
[-76.8478,17.9826],
[-76.8329,17.9871],
[-76.8006,17.9667],
[-76.7464,17.9631],
[-76.6936,17.9375],
[-76.6577,17.9293],
[-76.6107,17.87],
[-76.5943,17.8612],
[-76.5342,17.8569],
[-76.3506,17.8556],
[-76.2653,17.8797],
[-76.2211,17.9042],
[-76.2767,18.046],
[-76.3417,18.1497],
[-76.3833,18.1669],
[-76.5333,18.1928],
[-76.6403,18.2231],
[-76.7034,18.2665],
[-76.7877,18.2733],
[-76.8056,18.3028],
[-76.8961,18.3747],
[-76.9112,18.4008],
[-76.9453,18.3944],
[-77.0404,18.4119],
[-77.1367,18.4072],
[-77.1817,18.4342],
[-77.2472,18.4522],
[-77.4078,18.4567],
[-77.4608,18.4661],
[-77.4814,18.4781],
[-77.5613,18.4893],
[-77.64,18.4792],
[-77.7,18.4894],
[-77.7358,18.505],
[-77.8571,18.5221],
[-77.9208,18.5092],
[-78,18.4414],
[-78.0195,18.4519],
[-78.211,18.4514],
[-78.3398,18.3607],
[-78.3425,18.2986],
[-78.369,18.2672]
]
]
]}
}
