{
"type": "Feature",
"properties": {"id":"cshapes-432-1959-04-04","edge_precision":"unknown","cshapes_gwcode":432,"cshapes_name":"Mali","cshapes_first_day":"1959-04-04","cshapes_last_day":"1960-06-19","cshapes_status":"colony","cshapes_owner":220,"cshapes_borders_defined":true},
"geometry": {"type": "MultiPolygon", "coordinates": [
[
[
[-17.5328,14.7501],
[-17.4463,14.6567],
[-17.4278,14.6747],
[-17.4315,14.7089],
[-17.4209,14.7311],
[-17.3909,14.74],
[-17.3378,14.7333],
[-17.2258,14.6886],
[-17.1756,14.6544],
[-17.1483,14.6139],
[-17.0894,14.4867],
[-17.0625,14.454],
[-17.0006,14.4282],
[-16.9478,14.3756],
[-16.9006,14.2633],
[-16.8767,14.1784],
[-16.8133,14.1228],
[-16.7758,14.0125],
[-16.6607,14],
[-16.6364,14.0035],
[-16.5614,14.0672],
[-16.5133,14.1433],
[-16.4531,14.1744],
[-16.3847,14.1625],
[-16.3674,14.1664],
[-16.5058,14.105],
[-16.5594,14.0536],
[-16.5783,14.0017],
[-16.6389,13.9617],
[-16.6874,13.9929],
[-16.7189,13.9828],
[-16.7453,13.9535],
[-16.7356,13.8164],
[-16.6984,13.7704],
[-16.5603,13.8625],
[-16.4908,13.9581],
[-16.4972,13.8675],
[-16.5211,13.8319],
[-16.5408,13.8428],
[-16.5731,13.8331],
[-16.6253,13.7771],
[-16.6386,13.7528],
[-16.6422,13.6969],
[-16.5657,13.59],
[-15.4882,13.5908],
[-15.4841,13.6408],
[-15.4556,13.7083],
[-15.4203,13.7433],
[-15.3644,13.7814],
[-15.3367,13.7929],
[-15.3005,13.7904],
[-15.2715,13.7706],
[-15.2514,13.7447],
[-15.1644,13.795],
[-15.0703,13.8264],
[-14.9117,13.8024],
[-14.8583,13.7797],
[-14.8161,13.7411],
[-14.7936,13.6786],
[-14.7919,13.6533],
[-14.7165,13.6133],
[-14.6683,13.6533],
[-14.6257,13.6679],
[-14.5989,13.6703],
[-14.5357,13.6507],
[-14.5046,13.6281],
[-14.4833,13.5937],
[-14.4728,13.5344],
[-14.4464,13.5264],
[-14.3983,13.4833],
[-14.3349,13.454],
[-14.2371,13.4815],
[-14.1983,13.5162],
[-14.0824,13.5606],
[-13.9804,13.5828],
[-13.9192,13.5682],
[-13.887,13.5444],
[-13.8685,13.508],
[-13.8275,13.4806],
[-13.8038,13.4432],
[-13.7986,13.4131],
[-13.8035,13.3844],
[-13.824,13.3561],
[-13.8731,13.3208],
[-14.0956,13.285],
[-14.1517,13.2464],
[-14.1883,13.2331],
[-14.3511,13.2378],
[-14.3888,13.2487],
[-14.5211,13.3139],
[-14.5478,13.3359],
[-14.6478,13.3439],
[-14.7147,13.3606],
[-14.7354,13.3756],
[-14.7704,13.4244],
[-14.8333,13.4353],
[-14.9547,13.4719],
[-15.0453,13.5281],
[-15.1117,13.5958],
[-15.1479,13.5862],
[-15.2015,13.5251],
[-15.2047,13.4619],
[-15.2243,13.4132],
[-15.2904,13.3728],
[-15.3342,13.3658],
[-15.4181,13.3753],
[-15.8065,13.3394],
[-15.8097,13.1597],
[-16.6183,13.165],
[-16.7003,13.1572],
[-16.7502,13.055],
[-16.7575,12.8981],
[-16.7968,12.8275],
[-16.8001,12.8074],
[-16.775,12.579],
[-16.7529,12.5647],
[-16.6467,12.6324],
[-16.649,12.7212],
[-16.594,12.7833],
[-16.5972,12.7354],
[-16.5711,12.6714],
[-16.4217,12.5768],
[-16.3674,12.5642],
[-16.3497,12.5822],
[-16.2942,12.6014],
[-16.2056,12.6122],
[-16.1583,12.6078],
[-16.0715,12.6346],
[-16.0461,12.6579],
[-16.0214,12.7249],
[-16.0153,12.7014],
[-15.9824,12.6534],
[-15.9454,12.6164],
[-15.9059,12.594],
[-15.7676,12.6193],
[-15.6983,12.6143],
[-15.6671,12.6022],
[-15.6666,12.5735],
[-15.6456,12.5571],
[-15.6186,12.5714],
[-15.5511,12.6332],
[-15.5398,12.6544],
[-15.5646,12.7344],
[-15.5539,12.7739],
[-15.5269,12.8058],
[-15.4458,12.8319],
[-15.3918,12.8329],
[-15.3994,12.7972],
[-15.4311,12.8042],
[-15.5299,12.7821],
[-15.5421,12.7158],
[-15.5289,12.6972],
[-15.5093,12.6371],
[-15.5753,12.561],
[-15.6344,12.531],
[-15.677,12.543],
[-15.691,12.5731],
[-15.7297,12.5867],
[-15.7743,12.5874],
[-15.8247,12.5508],
[-15.9364,12.5778],
[-15.9978,12.6242],
[-16.0283,12.6305],
[-16.1964,12.5803],
[-16.2336,12.5908],
[-16.2922,12.5889],
[-16.3744,12.5454],
[-16.4217,12.5589],
[-16.5838,12.6326],
[-16.7624,12.5357],
[-16.8001,12.4864],
[-16.8018,12.4461],
[-16.7932,12.4229],
[-16.7224,12.332],
[-16.6928,12.3558],
[-16.6633,12.3608],
[-16.5486,12.3572],
[-16.5186,12.3476],
[-16.3817,12.3747],
[-16.2092,12.4608],
[-16.1022,12.4714],
[-16.04,12.4672],
[-15.9622,12.4361],
[-15.8885,12.4481],
[-15.6853,12.43],
[-15.4194,12.5514],
[-15.3614,12.5981],
[-15.2181,12.6847],
[-13.6278,12.6775],
[-13.3567,12.6653],
[-13.3102,12.6497],
[-13.2064,12.6522],
[-13.0563,12.6341],
[-13.0424,12.59],
[-13.0688,12.5321],
[-13.0639,12.5029],
[-13.0457,12.479],
[-12.9616,12.4737],
[-12.9464,12.5232],
[-12.927,12.5422],
[-12.8963,12.545],
[-12.7869,12.465],
[-12.634,12.4364],
[-12.5853,12.3678],
[-12.5025,12.3951],
[-12.4792,12.3951],
[-12.3947,12.3674],
[-12.3454,12.3017],
[-12.1703,12.3539],
[-12.1281,12.3828],
[-12.0339,12.4006],
[-11.8953,12.4092],
[-11.8417,12.3864],
[-11.7364,12.3806],
[-11.6936,12.3906],
[-11.6456,12.4215],
[-11.4765,12.4358],
[-11.4272,12.4264],
[-11.3731,12.4078],
[-11.4507,12.2444],
[-11.4815,12.2276],
[-11.4947,12.2061],
[-11.4942,12.1764],
[-11.4544,12.1332],
[-11.375,12.1048],
[-11.3196,12.0257],
[-11.2431,11.9952],
[-11.1739,12.0221],
[-11.1507,12.044],
[-11.0457,12.2046],
[-10.9582,12.2261],
[-10.9289,12.2244],
[-10.8885,12.1976],
[-10.8147,12.1128],
[-10.728,11.9192],
[-10.685,11.8981],
[-10.6527,11.8926],
[-10.4529,12.1171],
[-10.3572,12.1664],
[-10.3309,12.1958],
[-10.3271,12.2235],
[-10.0988,12.179],
[-9.9119,12.0933],
[-9.8652,12.0548],
[-9.7579,12.0278],
[-9.7019,12.0292],
[-9.6672,12.0818],
[-9.664,12.1317],
[-9.6283,12.1656],
[-9.3981,12.2544],
[-9.3458,12.2528],
[-9.3185,12.2681],
[-9.302,12.3128],
[-9.295,12.3622],
[-9.4003,12.4521],
[-9.3599,12.4885],
[-9.3117,12.5047],
[-9.1531,12.4851],
[-9.0847,12.4375],
[-9.0562,12.435],
[-8.98,12.3928],
[-8.9483,12.3547],
[-8.9436,12.3347],
[-8.9775,12.2785],
[-8.9804,12.2296],
[-8.9621,12.1957],
[-8.9368,12.1912],
[-8.7969,12.0063],
[-8.7797,11.9258],
[-8.8317,11.6617],
[-8.7739,11.6399],
[-8.737,11.6386],
[-8.706,11.656],
[-8.6725,11.5567],
[-8.6381,11.4972],
[-8.6047,11.4751],
[-8.5778,11.47],
[-8.5478,11.48],
[-8.5339,11.4939],
[-8.5165,11.4347],
[-8.496,11.4206],
[-8.4606,11.4198],
[-8.3906,11.3928],
[-8.3628,11.3751],
[-8.3561,11.3142],
[-8.369,11.2874],
[-8.3939,11.2797],
[-8.4314,11.281],
[-8.4517,11.2919],
[-8.4774,11.2884],
[-8.61,11.1272],
[-8.6798,11.0025],
[-8.6715,10.9589],
[-8.5836,10.9728],
[-8.5111,11.0056],
[-8.4581,11.0508],
[-8.3461,11.0533],
[-8.2897,11.0078],
[-8.2875,10.8494],
[-8.3214,10.7608],
[-8.27,10.5025],
[-8.2181,10.4257],
[-8.1865,10.4165],
[-8.1411,10.4239],
[-7.9765,10.3288],
[-7.942,10.243],
[-7.9693,10.163],
[-7.9394,10.1571],
[-7.8265,10.2024],
[-7.7878,10.2453],
[-7.7566,10.2961],
[-7.7547,10.3308],
[-7.7319,10.3772],
[-7.638,10.4467],
[-7.4517,10.3972],
[-7.3597,10.3508],
[-7.3482,10.3271],
[-7.2697,10.2544],
[-7.1281,10.2231],
[-7.0786,10.2033],
[-7.0194,10.1422],
[-6.9881,10.1475],
[-6.9483,10.1775],
[-6.9454,10.2082],
[-6.981,10.2478],
[-6.9605,10.3335],
[-6.9408,10.3537],
[-6.7197,10.3506],
[-6.6536,10.3575],
[-6.6319,10.4336],
[-6.6692,10.4607],
[-6.685,10.4917],
[-6.6767,10.5983],
[-6.6692,10.6282],
[-6.6456,10.664],
[-6.6216,10.6609],
[-6.5893,10.61],
[-6.5331,10.5761],
[-6.4219,10.5517],
[-6.3881,10.5941],
[-6.4171,10.6231],
[-6.4135,10.688],
[-6.2434,10.7353],
[-6.2244,10.7229],
[-6.1891,10.6365],
[-6.2125,10.5694],
[-6.1831,10.4636],
[-6.18,10.3647],
[-6.1927,10.234],
[-6.0903,10.1908],
[-6.0042,10.1912],
[-5.9774,10.2165],
[-5.8822,10.3697],
[-5.7899,10.4238],
[-5.7261,10.4228],
[-5.6692,10.446],
[-5.5657,10.4572],
[-5.5202,10.4332],
[-5.4836,10.5272],
[-5.4643,10.6993],
[-5.4112,10.8417],
[-5.4192,10.8694],
[-5.4433,10.8972],
[-5.4794,11.0022],
[-5.4856,11.0773],
[-5.4636,11.0869],
[-5.3626,11.1014],
[-5.2994,11.1394],
[-5.2478,11.2526],
[-5.2086,11.4617],
[-5.2017,11.5382],
[-5.2686,11.6869],
[-5.2875,11.7881],
[-5.2731,11.8439],
[-5.1471,11.9528],
[-5.1175,11.9644],
[-4.6986,12.0628],
[-4.6334,12.0672],
[-4.6249,12.1154],
[-4.5694,12.2011],
[-4.4825,12.2747],
[-4.4175,12.3008],
[-4.4361,12.4293],
[-4.4186,12.4726],
[-4.3706,12.5287],
[-4.4288,12.629],
[-4.4533,12.6381],
[-4.4749,12.6653],
[-4.4696,12.7188],
[-4.2632,12.7178],
[-4.2211,12.7353],
[-4.1944,12.8286],
[-4.2074,12.9485],
[-4.2176,12.9696],
[-4.2772,13.0217],
[-4.3356,13.1195],
[-4.3136,13.1643],
[-4.2369,13.2408],
[-4.1919,13.276],
[-4.1566,13.2782],
[-3.9761,13.4761],
[-3.9603,13.5026],
[-3.9033,13.4485],
[-3.5886,13.2028],
[-3.5381,13.1783],
[-3.4433,13.1689],
[-3.4271,13.1842],
[-3.4244,13.2114],
[-3.4427,13.261],
[-3.4261,13.2761],
[-3.2322,13.2881],
[-3.2372,13.3597],
[-3.2733,13.5503],
[-3.2575,13.6967],
[-3.2111,13.7081],
[-3.0994,13.6861],
[-2.9503,13.6311],
[-2.8822,13.6643],
[-2.9044,13.7217],
[-2.9038,13.8224],
[-2.84,14.0056],
[-2.8156,14.0503],
[-2.6467,14.1619],
[-2.5997,14.2117],
[-2.4651,14.2861],
[-2.2894,14.2383],
[-2.1056,14.152],
[-2.0069,14.1878],
[-1.9808,14.4747],
[-1.9075,14.4886],
[-1.7778,14.4811],
[-1.6783,14.5006],
[-1.3189,14.7286],
[-1.0939,14.7842],
[-1.0742,14.7769],
[-0.7242,15.0826],
[-0.4436,15.0828],
[-0.3867,15.0053],
[-0.2464,15.0775],
[0.235,14.9151],
[0.2378,15],
[0.3967,14.9606],
[0.5122,15.0008],
[0.695,14.9422],
[0.7311,14.9608],
[0.7783,14.9686],
[0.9747,14.9786],
[1.3125,15.2867],
[2.6281,15.3506],
[3.0118,15.3418],
[3.0228,15.414],
[3.0325,15.4331],
[3.5181,15.3599],
[3.5672,15.5122],
[3.7333,15.6549],
[3.8181,15.664],
[3.8464,15.6742],
[3.8835,15.7079],
[3.9022,15.7486],
[3.9808,16.0703],
[4.0721,16.2986],
[4.1142,16.3481],
[4.2008,16.3939],
[4.1989,16.8208],
[4.2211,16.915],
[4.2514,16.994],
[4.2453,19.1467],
[3.3319,18.9764],
[3.1839,19.0786],
[3.1374,19.1171],
[3.117,19.1456],
[3.1258,19.18],
[3.1911,19.2561],
[3.2726,19.3767],
[3.2781,19.4058],
[3.2704,19.4257],
[3.2484,19.446],
[3.2115,19.5567],
[3.2231,19.6233],
[3.2331,19.8171],
[3.0286,19.9178],
[2.9022,19.9669],
[2.7026,20.0025],
[2.5878,20.0017],
[2.4217,20.0531],
[2.4059,20.0656],
[2.3442,20.1778],
[2.2758,20.242],
[2.2036,20.2831],
[2.1739,20.2765],
[2.1292,20.2364],
[2.0908,20.2187],
[1.9003,20.2597],
[1.7897,20.3129],
[1.6684,20.4156],
[1.6719,20.4647],
[1.6617,20.5382],
[1.6275,20.5711],
[1.4783,20.6414],
[1.1764,20.7337],
[1.1634,20.7549],
[1.1603,20.8001],
[1.1864,20.9006],
[1.1971,21.0025],
[1.1708,21.1009],
[-0.0081,21.8306],
[-1.1428,22.6128],
[-2.4483,23.4872],
[-3.4628,24.1489],
[-4.8089,25.0025],
[-6.5772,24.9992],
[-6.3197,22.8556],
[-5.9742,19.8664],
[-5.6014,16.5078],
[-5.335,16.3281],
[-5.4943,15.507],
[-5.5836,15.4994],
[-7.0189,15.5072],
[-9.3336,15.4997],
[-9.3325,15.5636],
[-9.3118,15.6775],
[-9.3381,15.7047],
[-9.4425,15.5969],
[-9.4097,15.4443],
[-9.6967,15.43],
[-9.8114,15.3747],
[-10.0328,15.3669],
[-10.1181,15.3728],
[-10.3107,15.4412],
[-10.605,15.4281],
[-10.7164,15.4389],
[-10.7194,15.3744],
[-10.7346,15.3414],
[-10.8481,15.2061],
[-10.8966,15.1104],
[-10.9739,15.1989],
[-10.9931,15.2428],
[-11.2867,15.4556],
[-11.3651,15.5757],
[-11.4181,15.6335],
[-11.4553,15.6433],
[-11.4986,15.6418],
[-11.5378,15.5964],
[-11.5997,15.5456],
[-11.6399,15.5253],
[-11.7117,15.545],
[-11.7162,15.4987],
[-11.7406,15.4774],
[-11.8322,15.1953],
[-11.8467,15.0972],
[-11.8409,15.0469],
[-11.8122,15.0503],
[-11.7963,15.0148],
[-11.8153,14.925],
[-11.8414,14.8631],
[-11.9743,14.7715],
[-12.06,14.7256],
[-12.175,14.7683],
[-12.2446,14.7594],
[-12.3958,14.8531],
[-12.4481,14.9056],
[-12.4519,14.9412],
[-12.4788,15.0074],
[-12.6293,15.0999],
[-12.6628,15.1047],
[-12.686,15.0879],
[-12.7081,15.0978],
[-12.7834,15.1497],
[-12.8497,15.2081],
[-12.8858,15.2617],
[-12.8501,15.2658],
[-12.8417,15.2965],
[-12.8608,15.3244],
[-12.9299,15.3655],
[-12.9636,15.5004],
[-13.0566,15.4799],
[-13.0917,15.4967],
[-13.1027,15.5214],
[-13.1847,15.6294],
[-13.2458,15.6806],
[-13.3247,15.9294],
[-13.3954,16.0554],
[-13.5206,16.1322],
[-13.5799,16.1356],
[-13.6682,16.099],
[-13.7103,16.1362],
[-13.7012,16.1728],
[-13.8161,16.1353],
[-13.9697,16.2339],
[-13.9842,16.2999],
[-14.0297,16.3578],
[-14.2192,16.5432],
[-14.3436,16.6361],
[-14.4161,16.6503],
[-14.505,16.6264],
[-14.7564,16.6444],
[-14.9069,16.6353],
[-14.9517,16.6484],
[-14.9598,16.6786],
[-14.9845,16.6906],
[-15.0217,16.6387],
[-15.0883,16.6081],
[-15.236,16.5593],
[-15.355,16.5617],
[-15.4414,16.5794],
[-15.51,16.5567],
[-15.5764,16.5133],
[-15.6703,16.4811],
[-15.8883,16.5124],
[-15.9856,16.49],
[-16.0566,16.4837],
[-16.1154,16.5494],
[-16.1458,16.5519],
[-16.2853,16.5171],
[-16.3024,16.499],
[-16.3218,16.4562],
[-16.3675,16.2737],
[-16.39,16.2206],
[-16.5069,16.0942],
[-16.5277,16.0602],
[-16.5435,15.811],
[-16.5367,15.7862],
[-16.5464,15.7567],
[-16.6703,15.5553],
[-16.7769,15.4106],
[-16.8794,15.2243],
[-17.1461,14.9181],
[-17.3833,14.7967],
[-17.5328,14.7501]
]
]
]}
}
