{
"type": "Feature",
"properties": {"id":"cshapes-902-1886-01-01","edge_precision":"unknown","cshapes_gwcode":902,"cshapes_name":"Western Australia","cshapes_first_day":"1886-01-01","cshapes_last_day":"1900-12-31","cshapes_status":"colony","cshapes_owner":200,"cshapes_borders_defined":true},
"geometry": {"type": "MultiPolygon", "coordinates": [
[
[
[112.9072,-25.6275],
[112.9525,-25.7844],
[113.0275,-25.9203],
[113.1761,-26.1231],
[113.2074,-26.1428],
[113.2271,-26.1088],
[113.1969,-26.0189],
[113.1591,-25.9778],
[113.1053,-25.8764],
[113.0269,-25.6544],
[112.9872,-25.5708],
[112.983,-25.5436],
[113.0004,-25.5062],
[112.9486,-25.4915],
[112.9168,-25.5333],
[112.9083,-25.5647],
[112.9072,-25.6275]
]
],
[
[
[113.2244,-26.2392],
[113.2811,-26.3994],
[113.4984,-26.5963],
[113.5858,-26.6908],
[113.7991,-26.9675],
[113.9369,-27.1989],
[114.0728,-27.4511],
[114.1214,-27.6033],
[114.141,-27.7072],
[114.1075,-27.7772],
[114.0947,-27.8515],
[114.1543,-28.091],
[114.2317,-28.1889],
[114.3075,-28.2299],
[114.3697,-28.3208],
[114.5028,-28.4881],
[114.5841,-28.6331],
[114.5965,-28.7253],
[114.5917,-28.7975],
[114.5966,-28.8283],
[114.6193,-28.8711],
[114.656,-28.9189],
[114.72,-28.9681],
[114.8349,-29.0965],
[114.8873,-29.2058],
[114.9031,-29.2586],
[114.9028,-29.2992],
[114.9282,-29.3356],
[114.978,-29.4878],
[114.9794,-29.5082],
[114.9419,-29.6706],
[114.9372,-30.0603],
[114.9572,-30.0756],
[115.0236,-30.2742],
[115.0545,-30.4772],
[115.0473,-30.5047],
[115.1675,-30.7719],
[115.2094,-30.8474],
[115.3102,-30.9867],
[115.3686,-31.1022],
[115.395,-31.1842],
[115.4378,-31.2796],
[115.6817,-31.6606],
[115.7058,-31.7164],
[115.7433,-31.8933],
[115.7378,-32.0953],
[115.7553,-32.1918],
[115.735,-32.2649],
[115.7325,-32.3208],
[115.7619,-32.5725],
[115.716,-32.7157],
[115.7182,-32.7703],
[115.7003,-32.7811],
[115.6727,-32.7458],
[115.6321,-32.6486],
[115.6337,-32.6078],
[115.6912,-32.5541],
[115.6945,-32.5222],
[115.6176,-32.6028],
[115.5944,-32.6707],
[115.6194,-32.8067],
[115.6694,-32.9819],
[115.7143,-33.2422],
[115.7044,-33.2864],
[115.6903,-33.3028],
[115.6678,-33.3103],
[115.4297,-33.6051],
[115.3636,-33.6331],
[115.3155,-33.646],
[115.2205,-33.6533],
[115.1558,-33.6356],
[115.1013,-33.6112],
[115.0819,-33.5757],
[115.0397,-33.5337],
[114.9971,-33.5241],
[114.9537,-33.6924],
[114.9578,-33.8661],
[114.9766,-34.0186],
[115.0103,-34.1759],
[115.0089,-34.2624],
[115.1222,-34.3628],
[115.1467,-34.344],
[115.1683,-34.3128],
[115.241,-34.2979],
[115.314,-34.3049],
[115.4957,-34.3836],
[115.648,-34.4678],
[115.8141,-34.6078],
[115.9133,-34.7032],
[115.9439,-34.7511],
[115.9736,-34.8195],
[116.2169,-34.8661],
[116.3247,-34.9183],
[116.4605,-34.9996],
[116.6019,-35.0331],
[116.658,-35.0322],
[116.7244,-35.0169],
[116.873,-35.0567],
[116.8957,-35.0561],
[116.9484,-35.0158],
[117.1839,-35.0119],
[117.3325,-35.0189],
[117.5333,-35.0883],
[117.6097,-35.1383],
[117.6196,-35.0908],
[117.6328,-35.0694],
[117.6641,-35.0513],
[117.7266,-35.0481],
[117.7841,-35.0653],
[117.8584,-35.1141],
[117.9341,-35.1253],
[117.9959,-35.0969],
[117.883,-35.0826],
[117.8578,-35.0719],
[117.8338,-35.0506],
[117.838,-35.0301],
[118.0817,-34.9939],
[118.2817,-34.9056],
[118.3876,-34.8403],
[118.3997,-34.8011],
[118.4181,-34.7742],
[118.4446,-34.7435],
[118.4771,-34.7237],
[118.6379,-34.6805],
[118.7191,-34.6397],
[118.7542,-34.6069],
[118.7194,-34.575],
[118.7397,-34.55],
[118.8903,-34.4622],
[118.9353,-34.4494],
[119.0789,-34.4661],
[119.2086,-34.5044],
[119.3255,-34.4469],
[119.4675,-34.3318],
[119.4809,-34.2704],
[119.5636,-34.1497],
[119.6161,-34.1],
[119.7389,-34.0458],
[119.7889,-33.9915],
[119.8129,-33.9781],
[120.0283,-33.9256],
[120.2531,-33.9397],
[120.417,-33.9739],
[120.4855,-33.9489],
[120.5403,-33.9172],
[120.7914,-33.8881],
[120.8625,-33.8567],
[120.9297,-33.8628],
[121.0517,-33.8569],
[121.3708,-33.8153],
[121.5226,-33.8215],
[121.6725,-33.8603],
[121.781,-33.8995],
[121.8616,-33.8806],
[121.9168,-33.8364],
[121.9939,-33.8247],
[122.0137,-33.8311],
[122.0715,-33.8932],
[122.1009,-33.9802],
[122.0797,-34.0178],
[122.1183,-34.0286],
[122.2514,-34.0167],
[122.2623,-33.9659],
[122.2982,-33.9316],
[122.3544,-33.9129],
[122.4333,-33.9258],
[122.5757,-33.9133],
[122.5938,-33.8981],
[122.7303,-33.8933],
[122.845,-33.9069],
[123.0178,-33.8576],
[123.1007,-33.8869],
[123.1394,-33.9492],
[123.1681,-34.0186],
[123.2364,-34],
[123.2827,-33.9712],
[123.3428,-33.9038],
[123.369,-33.8951],
[123.4294,-33.8969],
[123.4701,-33.9085],
[123.5408,-33.9058],
[123.6908,-33.8206],
[123.735,-33.7797],
[123.7359,-33.7524],
[123.7525,-33.7142],
[123.7697,-33.6953],
[123.86,-33.6158],
[123.9559,-33.5596],
[124.0025,-33.3936],
[124.091,-33.1621],
[124.1064,-33.1394],
[124.1901,-33.0492],
[124.2819,-32.9856],
[124.3289,-32.9647],
[124.4028,-32.9455],
[124.6647,-32.9164],
[124.7466,-32.8978],
[124.8796,-32.8299],
[124.9272,-32.7856],
[124.9955,-32.7422],
[125.3023,-32.5988],
[125.4443,-32.5733],
[125.515,-32.5468],
[125.6178,-32.4678],
[125.8065,-32.3436],
[125.9723,-32.2667],
[126.0693,-32.285],
[126.1529,-32.2435],
[126.1797,-32.2385],
[126.2831,-32.2564],
[126.3994,-32.2922],
[126.6872,-32.3158],
[127.125,-32.2985],
[127.3347,-32.2669],
[127.7375,-32.1347],
[128.0123,-32.0896],
[128.1827,-32.0317],
[128.5544,-31.8883],
[128.793,-31.7694],
[128.9455,-31.7062],
[128.997,-14.8701],
[128.9028,-14.8403],
[128.536,-14.7585],
[128.3877,-14.8],
[128.4186,-14.9319],
[128.4582,-15.0017],
[128.4483,-15.0471],
[128.353,-15.0442],
[128.3404,-15.0192],
[128.3263,-14.9165],
[128.3063,-14.9128],
[128.2208,-15.0149],
[128.1921,-15.0652],
[128.2244,-15.1906],
[128.285,-15.2811],
[128.2919,-15.3038],
[128.2872,-15.4007],
[128.2646,-15.3512],
[128.2576,-15.306],
[128.1817,-15.2334],
[128.1321,-15.2141],
[128.1181,-15.2487],
[128.1139,-15.3431],
[128.097,-15.4343],
[128.069,-15.4718],
[128.0208,-15.4982],
[128.0318,-15.4726],
[128.0533,-15.4519],
[128.073,-15.3965],
[128.0797,-15.2061],
[128.0694,-15.1008],
[128.14,-14.8678],
[128.1883,-14.8003],
[128.1827,-14.7417],
[128.1694,-14.7028],
[128.1234,-14.6563],
[128.0001,-14.5607],
[127.9572,-14.5817],
[127.8733,-14.4733],
[127.7605,-14.3006],
[127.658,-14.176],
[127.5211,-14.0861],
[127.4253,-13.954],
[127.2419,-13.8964],
[127.1542,-13.9],
[127.1536,-13.9328],
[127.1284,-13.9715],
[127.0575,-13.8863],
[127.0747,-13.8486],
[127.0178,-13.7764],
[126.9558,-13.7282],
[126.8579,-13.751],
[126.746,-13.7954],
[126.7619,-13.8394],
[126.7891,-13.9714],
[126.7039,-14.1237],
[126.6005,-14.2297],
[126.5683,-14.2206],
[126.4553,-14.0775],
[126.4911,-14.0092],
[126.5025,-13.9647],
[126.4314,-13.975],
[126.3342,-14.0504],
[126.3091,-14.0894],
[126.2946,-14.1406],
[126.3133,-14.1936],
[126.2878,-14.2331],
[126.2802,-14.2151],
[126.2341,-14.1797],
[126.1916,-14.1684],
[126.1573,-14.0591],
[126.2089,-14.0373],
[126.2175,-13.9619],
[126.148,-13.9275],
[126.0675,-13.9156],
[126.0176,-13.9265],
[126.0815,-13.9659],
[126.1467,-14.13],
[126.1433,-14.1925],
[126.0664,-14.3442],
[126.0376,-14.5152],
[125.991,-14.5472],
[125.9239,-14.6175],
[125.9089,-14.6453],
[125.9028,-14.6436],
[125.8439,-14.6074],
[125.825,-14.5725],
[125.843,-14.4649],
[125.7228,-14.4043],
[125.7051,-14.4832],
[125.6608,-14.6117],
[125.6422,-14.6301],
[125.7068,-14.3396],
[125.7287,-14.2732],
[125.6183,-14.2224],
[125.5928,-14.2417],
[125.58,-14.3089],
[125.5994,-14.4269],
[125.5889,-14.5494],
[125.553,-14.556],
[125.3883,-14.545],
[125.3361,-14.5231],
[125.2433,-14.5981],
[125.136,-14.7474],
[125.2011,-14.8535],
[125.243,-14.9019],
[125.2161,-14.9106],
[125.1829,-14.9483],
[125.2811,-14.9956],
[125.39,-15.0708],
[125.3602,-15.0987],
[125.387,-15.1219],
[125.4171,-15.1192],
[125.4348,-15.1331],
[125.4148,-15.1515],
[125.3217,-15.156],
[125.2818,-15.1371],
[125.2793,-15.1012],
[125.1617,-15.0339],
[125.1619,-15.0797],
[125.1746,-15.1194],
[125.1647,-15.1624],
[125.1472,-15.1514],
[125.0783,-14.9997],
[125.0183,-15.0408],
[125.0329,-15.0747],
[124.9803,-15.1108],
[124.9592,-15.1172],
[124.9005,-15.1004],
[124.8569,-15.1203],
[124.8249,-15.1603],
[124.8544,-15.2361],
[124.8818,-15.2374],
[125.0128,-15.1536],
[125.0443,-15.1616],
[125.0044,-15.2281],
[124.9758,-15.2106],
[124.9375,-15.2283],
[124.9008,-15.2789],
[124.9121,-15.336],
[125.0114,-15.3006],
[125.0973,-15.3018],
[125.1186,-15.3232],
[125.0963,-15.3451],
[125.0711,-15.4078],
[125.0764,-15.4304],
[125.177,-15.5069],
[125.1818,-15.5207],
[124.9937,-15.4318],
[124.9125,-15.3561],
[124.7053,-15.2533],
[124.6633,-15.2631],
[124.6608,-15.3428],
[124.6741,-15.455],
[124.6564,-15.4797],
[124.5818,-15.5168],
[124.4889,-15.4652],
[124.4573,-15.4783],
[124.3719,-15.6683],
[124.4002,-15.8643],
[124.4878,-15.9372],
[124.5347,-15.9364],
[124.5608,-15.8808],
[124.6162,-15.8023],
[124.6701,-15.7869],
[124.7267,-15.809],
[124.6147,-15.9186],
[124.5853,-16.0228],
[124.593,-16.1142],
[124.5187,-16.1636],
[124.4708,-16.0933],
[124.4305,-16.1025],
[124.3919,-16.1724],
[124.3761,-16.2219],
[124.3822,-16.2825],
[124.4005,-16.3294],
[124.4179,-16.3475],
[124.48,-16.3475],
[124.5025,-16.3354],
[124.5623,-16.3242],
[124.6153,-16.3278],
[124.6973,-16.3469],
[124.7492,-16.3758],
[124.8153,-16.4],
[124.893,-16.4067],
[124.8358,-16.43],
[124.7623,-16.3897],
[124.7291,-16.3849],
[124.5786,-16.4056],
[124.4758,-16.3958],
[124.3844,-16.3528],
[124.333,-16.4099],
[124.2298,-16.4042],
[124.2026,-16.3852],
[124.1664,-16.3025],
[124.14,-16.2853],
[124.0862,-16.2625],
[123.9644,-16.2456],
[123.8928,-16.3399],
[123.8914,-16.3789],
[123.8392,-16.3681],
[123.7327,-16.2595],
[123.7839,-16.2461],
[123.8064,-16.199],
[123.7262,-16.1386],
[123.6032,-16.1563],
[123.5709,-16.1717],
[123.5572,-16.2006],
[123.5603,-16.2883],
[123.5957,-16.3191],
[123.7075,-16.3401],
[123.7175,-16.3789],
[123.7089,-16.4303],
[123.6411,-16.5294],
[123.6173,-16.5314],
[123.4933,-16.4972],
[123.4252,-16.4995],
[123.4589,-16.5378],
[123.5014,-16.566],
[123.6136,-16.5642],
[123.6078,-16.6733],
[123.7178,-16.7881],
[123.7664,-16.8882],
[123.7822,-16.8989],
[123.8583,-16.8764],
[123.8917,-16.8933],
[123.8369,-16.9439],
[123.7964,-16.998],
[123.8319,-17.1362],
[123.8776,-17.191],
[123.916,-17.2083],
[123.8914,-17.2212],
[123.8558,-17.2064],
[123.7825,-17.1425],
[123.7275,-17.0667],
[123.6558,-16.9948],
[123.5926,-16.9967],
[123.5765,-17.0301],
[123.574,-17.0729],
[123.619,-17.2061],
[123.5636,-17.3672],
[123.56,-17.4458],
[123.594,-17.5097],
[123.5837,-17.5866],
[123.5753,-17.5975],
[123.5534,-17.515],
[123.4347,-17.3428],
[123.3077,-17.1375],
[123.1164,-16.7928],
[123.0961,-16.7161],
[123.0197,-16.6703],
[122.9772,-16.6281],
[122.9562,-16.5868],
[122.9895,-16.476],
[123.0391,-16.4813],
[123.0602,-16.4556],
[122.9917,-16.3897],
[122.9203,-16.4146],
[122.8994,-16.4473],
[122.8943,-16.5024],
[122.8414,-16.5588],
[122.8172,-16.5688],
[122.7887,-16.5692],
[122.7606,-16.6006],
[122.7366,-16.6974],
[122.7622,-16.7336],
[122.7522,-16.7622],
[122.6397,-16.7997],
[122.6162,-16.7997],
[122.5939,-16.7793],
[122.5665,-16.7899],
[122.5239,-16.8447],
[122.5271,-16.8647],
[122.5743,-16.9533],
[122.4474,-16.9542],
[122.3792,-16.9961],
[122.2567,-17.1078],
[122.175,-17.2433],
[122.1439,-17.3631],
[122.1408,-17.5581],
[122.1764,-17.6631],
[122.1998,-17.7046],
[122.2111,-17.8936],
[122.2528,-17.9583],
[122.3322,-17.9794],
[122.351,-17.9886],
[122.3617,-18.0056],
[122.3676,-18.0606],
[122.3375,-18.1314],
[122.3143,-18.1565],
[122.1286,-18.2886],
[122.0667,-18.3175],
[122.0136,-18.3922],
[121.9397,-18.4481],
[121.8898,-18.4737],
[121.8489,-18.4703],
[121.8241,-18.4584],
[121.8005,-18.4803],
[121.765,-18.5561],
[121.7642,-18.6024],
[121.7773,-18.6368],
[121.6394,-18.8139],
[121.4886,-19.1231],
[121.3339,-19.3322],
[121.2767,-19.395],
[121.208,-19.4592],
[121.0275,-19.5922],
[120.8786,-19.6653],
[120.3372,-19.8785],
[120.2396,-19.9088],
[120.0225,-19.9331],
[119.7855,-19.9717],
[119.5818,-20.0708],
[119.5526,-20.0667],
[119.4341,-20.0169],
[119.1889,-19.9594],
[119.0803,-19.9687],
[118.9799,-20.0413],
[118.95,-20.1169],
[118.8205,-20.2733],
[118.8011,-20.2858],
[118.6578,-20.3311],
[118.5453,-20.3253],
[118.235,-20.3742],
[118.1922,-20.3735],
[118.1785,-20.3487],
[118.1385,-20.3646],
[118.0692,-20.41],
[117.9337,-20.5299],
[117.9219,-20.5546],
[117.8503,-20.6083],
[117.6854,-20.6764],
[117.4062,-20.7299],
[117.3423,-20.7306],
[117.2679,-20.7176],
[117.1976,-20.6882],
[117.1653,-20.6538],
[117.0667,-20.6217],
[116.9933,-20.6522],
[116.9258,-20.6969],
[116.8757,-20.7175],
[116.8319,-20.706],
[116.7885,-20.6656],
[116.7075,-20.6492],
[116.6063,-20.7301],
[116.4755,-20.8061],
[116.3094,-20.8617],
[116.2489,-20.8689],
[116.1855,-20.9019],
[116.1599,-20.9658],
[115.9253,-21.069],
[115.8625,-21.1456],
[115.8065,-21.2365],
[115.68,-21.2875],
[115.6194,-21.3319],
[115.4519,-21.5178],
[115.3366,-21.5664],
[115.2455,-21.5919],
[115.0528,-21.6811],
[115.0239,-21.6903],
[114.9428,-21.6887],
[114.7389,-21.8008],
[114.6961,-21.8133],
[114.6511,-21.84],
[114.6362,-21.8592],
[114.6254,-21.9229],
[114.5181,-22.0872],
[114.4608,-22.1903],
[114.4,-22.3356],
[114.3725,-22.4425],
[114.1539,-22.5278],
[114.1372,-22.5215],
[114.1103,-22.4865],
[114.1181,-22.3969],
[114.1419,-22.3014],
[114.1214,-22.2733],
[114.0778,-22.1742],
[114.1266,-21.9103],
[114.1359,-21.8786],
[114.176,-21.8228],
[114.163,-21.7988],
[114.0893,-21.8108],
[114.013,-21.8568],
[113.9333,-21.9761],
[113.895,-22.0553],
[113.7997,-22.3342],
[113.7333,-22.4753],
[113.6564,-22.6047],
[113.6711,-22.6861],
[113.753,-22.7939],
[113.8075,-22.9333],
[113.8183,-23.0306],
[113.7991,-23.085],
[113.7825,-23.1056],
[113.7603,-23.1939],
[113.782,-23.3267],
[113.7683,-23.4417],
[113.743,-23.5272],
[113.6713,-23.5864],
[113.6354,-23.599],
[113.6012,-23.6303],
[113.5322,-23.7572],
[113.4464,-24.0114],
[113.4244,-24.1344],
[113.3841,-24.2308],
[113.3897,-24.4294],
[113.4003,-24.4725],
[113.4257,-24.5253],
[113.5517,-24.66],
[113.6141,-24.7537],
[113.615,-24.8132],
[113.6028,-24.8446],
[113.6111,-24.8892],
[113.6516,-25.0153],
[113.7011,-25.1224],
[113.7455,-25.1411],
[113.8066,-25.1812],
[113.9151,-25.4317],
[114.0343,-25.6338],
[114.2581,-25.8478],
[114.2569,-25.9706],
[114.2397,-26.0014],
[114.2064,-25.9892],
[114.1719,-26.1826],
[114.1912,-26.2536],
[114.2101,-26.2671],
[114.2214,-26.2925],
[114.1949,-26.3729],
[114.0693,-26.4617],
[113.9589,-26.3278],
[113.9312,-26.2636],
[113.9269,-26.2094],
[113.8789,-26.0289],
[113.7986,-26.1683],
[113.7648,-26.2012],
[113.714,-26.1969],
[113.6843,-26.1196],
[113.6819,-26.0349],
[113.7098,-26.0076],
[113.7341,-25.889],
[113.6974,-25.7952],
[113.5911,-25.7122],
[113.5297,-25.6236],
[113.4978,-25.5603],
[113.4694,-25.5408],
[113.4086,-25.6282],
[113.3925,-25.6783],
[113.3911,-25.7104],
[113.4928,-25.8587],
[113.5512,-26.075],
[113.6522,-26.1694],
[113.7891,-26.2506],
[113.8288,-26.2849],
[113.8614,-26.3365],
[113.8639,-26.4847],
[113.8558,-26.5075],
[113.8153,-26.5739],
[113.784,-26.6035],
[113.7419,-26.5942],
[113.6775,-26.6342],
[113.6744,-26.66],
[113.6435,-26.6543],
[113.5697,-26.5697],
[113.5464,-26.5081],
[113.5346,-26.3379],
[113.5143,-26.2842],
[113.3655,-26.1189],
[113.3578,-26.1864],
[113.3342,-26.2786],
[113.3042,-26.2225],
[113.3017,-26.1261],
[113.2877,-26.0278],
[113.2679,-26.04],
[113.2642,-26.064],
[113.2736,-26.1283],
[113.2705,-26.1565],
[113.2244,-26.2392]
]
],
[
[
[115.3014,-20.8238],
[115.302,-20.8645],
[115.335,-20.8535],
[115.3573,-20.861],
[115.3735,-20.8785],
[115.4019,-20.8578],
[115.4574,-20.7776],
[115.4642,-20.7422],
[115.45,-20.6737],
[115.4329,-20.6686],
[115.4053,-20.6861],
[115.3128,-20.8011],
[115.3014,-20.8238]
]
],
[
[
[124.4605,-15.3692],
[124.5139,-15.4172],
[124.5225,-15.4453],
[124.6262,-15.4106],
[124.6465,-15.4007],
[124.551,-15.2608],
[124.4943,-15.2862],
[124.4692,-15.3247],
[124.4605,-15.3692]
]
],
[
[
[125.086,-14.6123],
[125.1355,-14.6486],
[125.1491,-14.6157],
[125.1853,-14.5989],
[125.208,-14.4892],
[125.1653,-14.4431],
[125.1153,-14.4867],
[125.0925,-14.5444],
[125.086,-14.6123]
]
]
]}
}
