{
"type": "Feature",
"properties": {"id":"cshapes-380-1905-08-26","edge_precision":"unknown","cshapes_gwcode":380,"cshapes_name":"Sweden","cshapes_first_day":"1905-08-26","cshapes_last_day":"2019-12-31","cshapes_status":"independent","cshapes_owner":380,"cshapes_borders_defined":true},
"geometry": {"type": "MultiPolygon", "coordinates": [
[
[
[11.1133,59.0036],
[11.1194,58.9412],
[11.1942,58.9175],
[11.2322,58.8392],
[11.2293,58.7942],
[11.1793,58.7393],
[11.1794,58.7115],
[11.2103,58.6797],
[11.25,58.6553],
[11.2603,58.635],
[11.2664,58.5794],
[11.2014,58.3994],
[11.2383,58.3469],
[11.3842,58.3119],
[11.4056,58.2611],
[11.5286,58.2308],
[11.6011,58.259],
[11.7292,58.3286],
[11.7981,58.3183],
[11.8805,58.2021],
[11.8372,58.1547],
[11.7767,58.0563],
[11.7987,58.0391],
[11.7956,58.0061],
[11.7493,57.8947],
[11.699,57.8858],
[11.6681,57.8458],
[11.7231,57.8072],
[11.7019,57.6999],
[11.746,57.6887],
[11.8878,57.6939],
[11.83,57.6614],
[11.8625,57.6078],
[11.9078,57.6174],
[11.9222,57.5639],
[11.9098,57.522],
[11.9028,57.4243],
[11.9428,57.3761],
[11.986,57.345],
[12.0096,57.4255],
[12.0476,57.4573],
[12.095,57.4269],
[12.1458,57.3092],
[12.1424,57.2799],
[12.11,57.25],
[12.1481,57.1861],
[12.2457,57.0539],
[12.2861,57.0325],
[12.35,56.97],
[12.3489,56.9168],
[12.4765,56.8847],
[12.5767,56.8321],
[12.5981,56.8103],
[12.5994,56.7837],
[12.6136,56.7469],
[12.6708,56.6761],
[12.7219,56.6415],
[12.785,56.6436],
[12.8175,56.6575],
[12.8802,56.643],
[12.9348,56.5363],
[12.9303,56.5011],
[12.9011,56.4572],
[12.8724,56.4425],
[12.8328,56.4397],
[12.7314,56.4668],
[12.6762,56.465],
[12.6344,56.4392],
[12.6243,56.4183],
[12.6326,56.3919],
[12.734,56.3567],
[12.8304,56.2534],
[12.7992,56.2259],
[12.7187,56.2228],
[12.6372,56.2561],
[12.4601,56.2967],
[12.5811,56.1417],
[12.6814,56.0619],
[12.9281,55.8231],
[13.0611,55.6808],
[13.0387,55.6269],
[12.9212,55.5724],
[12.9167,55.5459],
[12.9822,55.4006],
[13.2954,55.3414],
[13.3447,55.3392],
[13.3756,55.34],
[13.4658,55.3736],
[13.6369,55.4167],
[13.7306,55.4256],
[13.9119,55.4339],
[13.9694,55.4211],
[14.0375,55.3894],
[14.1225,55.3794],
[14.1935,55.3861],
[14.3367,55.5011],
[14.3659,55.5428],
[14.3414,55.5786],
[14.2769,55.6472],
[14.2106,55.7008],
[14.1926,55.7287],
[14.195,55.7732],
[14.2172,55.8303],
[14.2636,55.8861],
[14.3303,55.9369],
[14.5551,56.0562],
[14.6036,56.0519],
[14.6353,56.0075],
[14.72,56.0003],
[14.7383,56.0108],
[14.7672,56.0333],
[14.7124,56.101],
[14.6825,56.1232],
[14.6926,56.1582],
[15.0889,56.16],
[15.3753,56.1381],
[15.5981,56.1947],
[15.7758,56.1478],
[15.7886,56.1119],
[15.8656,56.0922],
[16.0035,56.2131],
[16.0433,56.2689],
[16.0547,56.3136],
[16.1042,56.4256],
[16.2161,56.6072],
[16.2536,56.6461],
[16.2815,56.6579],
[16.3798,56.6633],
[16.375,56.7208],
[16.4267,56.8436],
[16.4544,56.9553],
[16.4972,57.0379],
[16.5844,57.0467],
[16.5633,57.0939],
[16.5349,57.1184],
[16.5139,57.1172],
[16.4609,57.1707],
[16.4554,57.2029],
[16.4722,57.2903],
[16.5524,57.3814],
[16.6299,57.3787],
[16.6369,57.4031],
[16.6658,57.4085],
[16.6912,57.4787],
[16.6325,57.5522],
[16.6256,57.6197],
[16.7114,57.7026],
[16.6606,57.7411],
[16.4683,57.8458],
[16.4192,57.8891],
[16.5579,57.8232],
[16.5967,57.7987],
[16.6162,57.7763],
[16.6952,57.7417],
[16.6853,57.7597],
[16.5643,57.8542],
[16.5223,57.8778],
[16.5062,57.992],
[16.6035,57.9278],
[16.6179,57.8912],
[16.7371,57.8726],
[16.7636,57.8812],
[16.7762,57.9203],
[16.7391,57.9577],
[16.6202,57.987],
[16.7469,58.011],
[16.7318,58.0492],
[16.7428,58.0861],
[16.7645,58.1252],
[16.8028,58.1387],
[16.8258,58.1767],
[16.8247,58.1994],
[16.77,58.3672],
[16.6928,58.4087],
[16.4228,58.4778],
[16.4756,58.4797],
[16.6006,58.4469],
[16.7461,58.429],
[16.8264,58.4427],
[16.9336,58.4883],
[16.7775,58.5814],
[16.6494,58.6206],
[16.4346,58.6396],
[16.4117,58.6133],
[16.3706,58.6053],
[16.1936,58.6275],
[16.2379,58.6639],
[16.2983,58.6631],
[16.9073,58.6167],
[17.0344,58.6372],
[17.1403,58.6967],
[17.0319,58.7477],
[17.0885,58.7631],
[17.1567,58.7328],
[17.2236,58.7306],
[17.35,58.7522],
[17.5811,58.8475],
[17.6291,58.9102],
[17.5783,58.9505],
[17.6136,58.9747],
[17.6242,59.0744],
[17.6662,59.1674],
[17.7647,59.1208],
[17.7689,59.0967],
[17.7567,59.0183],
[17.7894,58.9431],
[17.8933,58.8665],
[17.894,58.9048],
[18.0214,59.0419],
[18.2258,59.1178],
[18.3114,59.1325],
[18.31,59.2197],
[18.2694,59.2686],
[18.2772,59.3108],
[18.3305,59.3229],
[18.3465,59.3073],
[18.5222,59.2958],
[18.5931,59.3017],
[18.6432,59.3219],
[18.6103,59.37],
[18.5264,59.4193],
[18.4772,59.4353],
[18.4305,59.428],
[18.4686,59.3656],
[18.4744,59.3377],
[18.4547,59.3311],
[18.4393,59.3471],
[18.3979,59.3676],
[18.3486,59.3733],
[18.2785,59.3661],
[18.2069,59.3294],
[18.1336,59.3181],
[18.0525,59.3164],
[17.99,59.3328],
[17.944,59.3183],
[17.8472,59.2644],
[17.5858,59.2822],
[17.4708,59.2964],
[17.3529,59.3215],
[17.3569,59.2921],
[17.392,59.2521],
[17.3706,59.2481],
[17.2529,59.2643],
[17.2639,59.2908],
[17.301,59.3228],
[17.3086,59.3468],
[17.1744,59.3731],
[17.1117,59.3744],
[16.9579,59.425],
[16.8975,59.4675],
[16.8367,59.4896],
[16.6996,59.4682],
[16.8006,59.4255],
[16.8912,59.3981],
[16.8778,59.3819],
[16.8119,59.3881],
[16.6647,59.4736],
[16.1753,59.4397],
[16.0716,59.4553],
[16.0325,59.4902],
[16.0967,59.4722],
[16.1733,59.4651],
[16.33,59.4678],
[16.4808,59.4998],
[16.543,59.5544],
[16.4991,59.5929],
[16.5586,59.6099],
[16.6197,59.5835],
[16.6599,59.5503],
[16.7869,59.5589],
[16.8264,59.5853],
[16.865,59.5847],
[16.9447,59.5449],
[17.0253,59.5368],
[17.1172,59.5478],
[17.1853,59.5386],
[17.2586,59.5062],
[17.4044,59.4692],
[17.419,59.4885],
[17.4055,59.5496],
[17.3487,59.6144],
[17.3828,59.6524],
[17.373,59.6119],
[17.4428,59.5587],
[17.4953,59.5411],
[17.5461,59.537],
[17.5227,59.5075],
[17.5479,59.4901],
[17.7314,59.4449],
[17.7858,59.5326],
[17.7624,59.5768],
[17.7422,59.5906],
[17.5897,59.6394],
[17.5612,59.6684],
[17.6161,59.6955],
[17.6126,59.7324],
[17.5375,59.7322],
[17.5101,59.6967],
[17.5249,59.6056],
[17.5432,59.573],
[17.5237,59.5785],
[17.4447,59.6761],
[17.4481,59.7355],
[17.5385,59.7482],
[17.581,59.778],
[17.591,59.8031],
[17.6297,59.7865],
[17.6542,59.718],
[17.6533,59.6821],
[17.6453,59.666],
[17.6015,59.6562],
[17.6425,59.6375],
[17.7183,59.6228],
[17.7207,59.6586],
[17.7068,59.6774],
[17.7211,59.696],
[17.7565,59.6183],
[17.8177,59.5865],
[17.8435,59.5307],
[17.8092,59.5182],
[17.7847,59.4934],
[17.7597,59.4149],
[17.7828,59.3892],
[17.8328,59.365],
[17.9321,59.3365],
[18.0074,59.345],
[18.0914,59.3344],
[18.0889,59.3672],
[18.0572,59.3914],
[18.0872,59.4346],
[18.12,59.4539],
[18.1951,59.4501],
[18.1917,59.4246],
[18.1656,59.4108],
[18.3283,59.3979],
[18.2866,59.4123],
[18.2594,59.4464],
[18.2751,59.4758],
[18.3733,59.4669],
[18.6664,59.5914],
[18.7369,59.6421],
[18.6998,59.6441],
[18.7172,59.6714],
[18.7456,59.6892],
[18.8414,59.7125],
[19.0322,59.72],
[19.0726,59.7382],
[19.0797,59.7674],
[18.8647,59.798],
[18.9361,59.87],
[18.9692,59.8656],
[19.0332,59.8287],
[19.0654,59.8325],
[19.0706,59.8897],
[19.0072,59.9128],
[18.9297,59.9247],
[18.9074,59.9379],
[18.8172,60.0755],
[18.8164,60.0964],
[18.6328,60.145],
[18.5074,60.1527],
[18.4217,60.1872],
[18.3961,60.2081],
[18.3171,60.3082],
[18.3815,60.2705],
[18.4708,60.235],
[18.5569,60.2244],
[18.5996,60.2356],
[18.4658,60.2994],
[18.4378,60.34],
[18.3139,60.3539],
[18.2702,60.3453],
[18.2396,60.329],
[18.2142,60.343],
[17.961,60.5921],
[17.8858,60.5974],
[17.7731,60.5711],
[17.7284,60.5367],
[17.7335,60.4983],
[17.6879,60.4974],
[17.6321,60.5204],
[17.6087,60.5535],
[17.6059,60.581],
[17.6506,60.601],
[17.6358,60.6186],
[17.6092,60.6322],
[17.5206,60.6431],
[17.4018,60.6304],
[17.3771,60.619],
[17.3597,60.6405],
[17.2753,60.6761],
[17.2853,60.7319],
[17.2761,60.843],
[17.2429,60.8935],
[17.1525,60.9428],
[17.1811,61.1903],
[17.2092,61.3271],
[17.145,61.3578],
[17.1053,61.3999],
[17.154,61.4283],
[17.2197,61.4347],
[17.1654,61.5196],
[17.1178,61.5555],
[17.0986,61.6028],
[17.1371,61.6374],
[17.1856,61.6347],
[17.2645,61.6854],
[17.1488,61.7173],
[17.2274,61.7228],
[17.3332,61.7135],
[17.3881,61.6896],
[17.4222,61.6422],
[17.4453,61.6289],
[17.4952,61.6346],
[17.5236,61.6989],
[17.4974,61.726],
[17.4768,61.7315],
[17.4403,61.7269],
[17.3857,61.7565],
[17.3364,61.8181],
[17.3508,61.9435],
[17.4051,61.9897],
[17.4403,61.9917],
[17.4636,62.0064],
[17.4833,62.1251],
[17.5147,62.2299],
[17.5624,62.2307],
[17.5465,62.2024],
[17.6,62.2094],
[17.6489,62.2317],
[17.4653,62.2655],
[17.3739,62.3268],
[17.3597,62.3603],
[17.3308,62.4878],
[17.4053,62.5362],
[17.43,62.5336],
[17.5092,62.4817],
[17.5336,62.4544],
[17.555,62.4433],
[17.6125,62.4346],
[17.6739,62.4443],
[17.6583,62.468],
[17.6894,62.4919],
[17.7818,62.5012],
[17.8186,62.4825],
[17.8394,62.4856],
[18.0464,62.5953],
[18.0401,62.625],
[17.9664,62.6344],
[17.8792,62.6624],
[17.9517,62.6697],
[17.9718,62.6565],
[17.9939,62.6549],
[18.0046,62.699],
[17.9947,62.7306],
[17.8819,62.8836],
[17.8347,62.9333],
[17.7621,62.9587],
[17.7006,62.9927],
[17.8243,62.9946],
[17.9275,62.8425],
[17.9808,62.8185],
[18.0372,62.8392],
[18.0733,62.8367],
[18.1354,62.8091],
[18.1044,62.8042],
[18.0828,62.7811],
[18.1261,62.7658],
[18.204,62.7774],
[18.4704,62.8604],
[18.5752,62.9618],
[18.5572,62.9805],
[18.3962,62.9933],
[18.3467,62.9881],
[18.2892,62.9972],
[18.3822,63.0517],
[18.7374,63.1701],
[18.7296,63.2061],
[18.7852,63.1983],
[18.7562,63.1865],
[18.7803,63.1624],
[18.8975,63.1917],
[18.9117,63.2085],
[18.8839,63.2271],
[18.8066,63.2475],
[18.8967,63.2732],
[19.0419,63.1754],
[19.0625,63.1769],
[19.1094,63.211],
[19.0547,63.2174],
[19.0472,63.2412],
[19.1493,63.3128],
[19.2306,63.3275],
[19.2767,63.4143],
[19.289,63.4574],
[19.3092,63.4636],
[19.3587,63.4351],
[19.4472,63.4403],
[19.4736,63.453],
[19.4258,63.5463],
[19.4669,63.56],
[19.6164,63.4947],
[19.6415,63.4671],
[19.6385,63.4446],
[19.6756,63.4306],
[19.705,63.4319],
[19.7759,63.46],
[19.7533,63.5057],
[19.7753,63.5333],
[19.8962,63.6078],
[20.1,63.6558],
[20.2639,63.6658],
[20.2986,63.6464],
[20.3167,63.66],
[20.3808,63.6741],
[20.4157,63.6944],
[20.4478,63.7583],
[20.5025,63.8206],
[20.535,63.7992],
[20.6383,63.8133],
[20.774,63.8671],
[20.8956,64.0025],
[20.905,64.0494],
[20.9637,64.1427],
[21.2478,64.3072],
[21.2723,64.2969],
[21.3178,64.3085],
[21.4581,64.3611],
[21.585,64.4397],
[21.5542,64.5325],
[21.4653,64.5755],
[21.2714,64.6153],
[21.1192,64.6844],
[21.1047,64.7198],
[21.1528,64.7236],
[21.2974,64.6629],
[21.3034,64.7617],
[21.2222,64.7824],
[21.1299,64.7755],
[21.0942,64.783],
[21.0394,64.8238],
[21.0422,64.8448],
[21.0756,64.8534],
[21.0959,64.827],
[21.1272,64.8185],
[21.1831,64.83],
[21.2089,64.8625],
[21.206,64.889],
[21.2494,64.9486],
[21.3008,64.9544],
[21.4667,65.0072],
[21.4716,65.0403],
[21.486,65.0598],
[21.5777,65.0599],
[21.6194,65.1514],
[21.5536,65.2151],
[21.4172,65.3061],
[21.2649,65.3383],
[21.3287,65.3703],
[21.4666,65.312],
[21.5581,65.2342],
[21.6593,65.2458],
[21.6992,65.2837],
[21.6171,65.3247],
[21.5841,65.3206],
[21.5387,65.327],
[21.5018,65.3499],
[21.4712,65.3837],
[21.5447,65.4081],
[21.6028,65.4141],
[21.6549,65.3919],
[21.9294,65.398],
[22.014,65.4262],
[22.031,65.4597],
[21.9792,65.4897],
[21.9268,65.5082],
[21.9397,65.4853],
[21.92,65.4871],
[21.8572,65.5301],
[21.8896,65.5344],
[21.9939,65.5144],
[22.0538,65.5174],
[22.1944,65.5423],
[22.121,65.5814],
[22.0225,65.5981],
[21.8482,65.6561],
[21.7658,65.7121],
[21.8242,65.6993],
[21.8513,65.6721],
[22.0797,65.6072],
[22.3726,65.55],
[22.4,65.5368],
[22.4224,65.5468],
[22.3856,65.6289],
[22.3231,65.6592],
[22.291,65.6648],
[22.3153,65.6295],
[22.2491,65.6325],
[22.2578,65.6911],
[22.3292,65.8297],
[22.3682,65.8592],
[22.4792,65.8511],
[22.6086,65.7969],
[22.6541,65.759],
[22.6793,65.7605],
[22.7047,65.8075],
[22.6762,65.8755],
[22.6426,65.8987],
[22.6758,65.9022],
[22.7903,65.8564],
[22.8268,65.8217],
[23.0003,65.7528],
[23.0774,65.7008],
[23.1364,65.7132],
[23.2344,65.7636],
[23.2497,65.8008],
[23.4347,65.7605],
[23.5183,65.8008],
[23.6539,65.8064],
[23.7733,65.7953],
[23.9313,65.7605],
[23.9532,65.78],
[24.0462,65.8073],
[24.1136,65.7996],
[24.1487,65.8036],
[24.167,65.814],
[24.1641,65.8326],
[24.0314,66.0203],
[23.9678,66.0725],
[23.9356,66.1285],
[23.919,66.1442],
[23.8864,66.1567],
[23.8143,66.1682],
[23.7261,66.1983],
[23.6625,66.3122],
[23.6397,66.4333],
[23.656,66.4572],
[23.7253,66.5008],
[23.8072,66.5378],
[23.8742,66.5553],
[23.8897,66.5758],
[23.9028,66.6803],
[23.8921,66.7448],
[23.9425,66.7879],
[24.0008,66.8023],
[23.9407,66.8798],
[23.7878,66.9814],
[23.7311,67.0083],
[23.6811,67.0475],
[23.5733,67.157],
[23.5906,67.2407],
[23.61,67.2614],
[23.7432,67.2863],
[23.7803,67.3263],
[23.7651,67.4169],
[23.5819,67.45],
[23.5429,67.4526],
[23.4937,67.4372],
[23.4483,67.4525],
[23.4308,67.4798],
[23.4719,67.5564],
[23.5078,67.6655],
[23.4706,67.8199],
[23.4888,67.871],
[23.5111,67.8836],
[23.6021,67.8964],
[23.6557,67.9212],
[23.6598,67.9459],
[23.3944,68.0425],
[23.3533,68.0836],
[23.0554,68.2911],
[22.905,68.33],
[22.8267,68.386],
[22.6668,68.4217],
[22.5817,68.4272],
[22.3719,68.4636],
[22.1592,68.465],
[22.0486,68.4815],
[22.0008,68.5215],
[21.8893,68.5712],
[21.7654,68.5757],
[21.7269,68.5874],
[21.7066,68.615],
[21.6231,68.6494],
[21.4942,68.6699],
[21.4539,68.6867],
[21.4206,68.7242],
[21.2122,68.8179],
[21.0814,68.8667],
[20.9008,68.8921],
[20.8859,68.9182],
[20.931,68.9492],
[20.9307,68.9707],
[20.9089,68.9855],
[20.8464,69.0119],
[20.6501,69.0438],
[20.6068,69.0613],
[20.0969,69.0422],
[20.3147,68.9283],
[20.3503,68.7867],
[20.2025,68.6622],
[20.0631,68.5831],
[19.9564,68.5439],
[20.2042,68.4709],
[20.1715,68.446],
[20.0392,68.3992],
[19.9524,68.3428],
[19.9308,68.3371],
[19.8983,68.3414],
[18.9522,68.4878],
[18.6119,68.4753],
[18.3581,68.5392],
[18.1494,68.5153],
[18.0929,68.5041],
[18.0581,68.44],
[18.0496,68.4003],
[18.1553,68.1661],
[17.9397,67.9978],
[17.8842,67.9455],
[17.8256,67.9553],
[17.5925,68.0297],
[17.2736,68.0905],
[17.1883,68.0303],
[16.7269,67.8992],
[16.5736,67.6612],
[16.5083,67.6092],
[16.3825,67.5155],
[16.1992,67.5008],
[16.0881,67.4054],
[16.1386,67.3675],
[16.2126,67.3337],
[16.3375,67.2608],
[16.3614,67.2378],
[16.4025,67.1705],
[16.3539,67.0178],
[16.01,66.8908],
[15.6258,66.6058],
[15.3628,66.48],
[15.4681,66.2839],
[15.0253,66.15],
[14.7178,66.1405],
[14.5071,66.1236],
[14.5376,66.0164],
[14.6332,65.8218],
[14.6039,65.7733],
[14.5347,65.701],
[14.5006,65.5858],
[14.4931,65.3136],
[14.3689,65.2467],
[14.3194,65.13],
[14.2964,65.1021],
[14.2353,65.0489],
[14.0914,64.9492],
[13.8328,64.7333],
[13.7022,64.6346],
[13.6769,64.6078],
[13.6683,64.5802],
[13.9008,64.5075],
[14.1164,64.4706],
[14.1506,64.3393],
[14.1507,64.1798],
[13.985,64.0155],
[13.23,64.093],
[12.9381,64.0533],
[12.6819,63.9672],
[12.6339,63.9428],
[12.4731,63.8333],
[12.3467,63.7289],
[12.1467,63.5896],
[12.195,63.4853],
[11.9364,63.2722],
[12.0322,63.1782],
[12.1686,63.0158],
[12.0289,62.8925],
[12.0894,62.7494],
[12.0467,62.6653],
[12.0475,62.59],
[12.0847,62.5292],
[12.2049,62.3974],
[12.2714,62.3081],
[12.2942,62.2627],
[12.1244,61.7286],
[12.3997,61.5769],
[12.5265,61.5667],
[12.8561,61.3625],
[12.7722,61.2008],
[12.6703,61.0878],
[12.6299,61.0553],
[12.5672,61.048],
[12.4078,61.0539],
[12.2478,61.0186],
[12.2162,60.9987],
[12.2719,60.9461],
[12.3825,60.7556],
[12.5058,60.63],
[12.591,60.5218],
[12.6072,60.4684],
[12.6001,60.4339],
[12.5897,60.3992],
[12.5328,60.339],
[12.4945,60.113],
[12.4694,60.07],
[12.3169,59.9726],
[12.1631,59.8969],
[12.1072,59.8858],
[12.0342,59.8861],
[11.9655,59.8969],
[11.816,59.8461],
[11.8821,59.8024],
[11.8976,59.7786],
[11.8991,59.6997],
[11.8181,59.6487],
[11.7647,59.638],
[11.667,59.5936],
[11.7831,59.3247],
[11.7979,59.2665],
[11.7927,59.2378],
[11.7657,59.2119],
[11.7526,59.1812],
[11.7419,59.12],
[11.7518,59.0951],
[11.624,58.9069],
[11.4967,58.8847],
[11.4312,58.891],
[11.4235,58.9192],
[11.4284,58.9877],
[11.4233,58.9878],
[11.3442,59.0882],
[11.32,59.1003],
[11.2656,59.0939],
[11.1694,59.0665],
[11.1133,59.0036]
]
],
[
[
[11.4063,58.1406],
[11.4604,58.0708],
[11.4665,58.0986],
[11.5831,58.1189],
[11.6764,58.0989],
[11.7147,58.1011],
[11.8033,58.1187],
[11.8158,58.1719],
[11.8124,58.2177],
[11.7367,58.2817],
[11.7153,58.2853],
[11.6732,58.2855],
[11.4063,58.1406]
]
],
[
[
[11.4978,58.0099],
[11.5181,57.9807],
[11.5253,57.95],
[11.5822,57.9317],
[11.6528,57.9542],
[11.7308,57.9968],
[11.7388,58.0347],
[11.5253,58.0485],
[11.5,58.034],
[11.4978,58.0099]
]
],
[
[
[16.3917,56.465],
[16.4033,56.2742],
[16.4147,56.2191],
[16.4335,56.2101],
[16.4736,56.2244],
[16.4912,56.2361],
[16.5531,56.3264],
[16.5723,56.367],
[16.5767,56.4069],
[16.7703,56.7958],
[16.8126,56.825],
[16.8335,56.8274],
[16.8483,56.8439],
[16.9267,57.0381],
[17.0506,57.1867],
[17.1242,57.3208],
[17.1021,57.3494],
[17.0567,57.3592],
[16.9879,57.3201],
[16.9599,57.2772],
[16.9612,57.2265],
[16.8481,57.0642],
[16.7494,56.9397],
[16.6143,56.871],
[16.5425,56.7764],
[16.4203,56.5864],
[16.3946,56.5325],
[16.3917,56.465]
]
],
[
[
[17.0701,59.4567],
[17.1514,59.3851],
[17.2614,59.3739],
[17.3153,59.4008],
[17.2803,59.4369],
[17.2619,59.4454],
[17.0701,59.4567]
]
],
[
[
[17.3708,62.4718],
[17.4161,62.378],
[17.4504,62.3664],
[17.5092,62.3633],
[17.5425,62.3661],
[17.5144,62.4144],
[17.4676,62.46],
[17.3708,62.4718]
]
],
[
[
[17.6156,59.4222],
[17.6175,59.3978],
[17.6669,59.3389],
[17.7217,59.3161],
[17.7829,59.3116],
[17.7756,59.3704],
[17.7408,59.3915],
[17.6447,59.4251],
[17.6156,59.4222]
]
],
[
[
[18.1101,57.5046],
[18.1425,57.4094],
[18.1581,57.3158],
[18.1483,57.2353],
[18.1733,57.1419],
[18.2544,57.0792],
[18.2567,57.0322],
[18.1583,56.9417],
[18.1446,56.9148],
[18.2108,56.9125],
[18.2987,56.9361],
[18.3403,57.0135],
[18.3429,57.0755],
[18.3931,57.1308],
[18.7132,57.2443],
[18.7883,57.4483],
[18.7687,57.4697],
[18.7597,57.508],
[18.8092,57.7036],
[18.8489,57.7211],
[18.9294,57.7397],
[19.0333,57.8269],
[19.0047,57.9025],
[18.8819,57.9197],
[18.7206,57.9219],
[18.686,57.9149],
[18.4665,57.8103],
[18.3389,57.6817],
[18.2761,57.6342],
[18.1853,57.5922],
[18.1153,57.5253],
[18.1101,57.5046]
]
],
[
[
[18.3791,60.5008],
[18.3819,60.4164],
[18.3972,60.3712],
[18.5169,60.3175],
[18.5578,60.307],
[18.5372,60.3425],
[18.5072,60.3481],
[18.4225,60.4867],
[18.4089,60.4997],
[18.3791,60.5008]
]
],
[
[
[19.0356,57.9072],
[19.0754,57.8604],
[19.1261,57.8397],
[19.1408,57.9047],
[19.1667,57.9282],
[19.2567,57.9494],
[19.2767,57.9428],
[19.3342,57.9594],
[19.2993,57.9756],
[19.0985,57.9736],
[19.0356,57.9072]
]
]
]}
}
