{
"type": "Feature",
"properties": {"id":"cshapes-91-1886-01-01","edge_precision":"unknown","cshapes_gwcode":91,"cshapes_name":"Honduras","cshapes_first_day":"1886-01-01","cshapes_last_day":"2019-12-31","cshapes_status":"independent","cshapes_owner":91,"cshapes_borders_defined":true},
"geometry": {"type": "MultiPolygon", "coordinates": [
[
[
[-89.3505,14.4715],
[-89.3483,14.432],
[-89.3239,14.4073],
[-89.2133,14.3758],
[-89.1197,14.3244],
[-89.031,14.3312],
[-88.9778,14.2539],
[-88.956,14.1939],
[-88.9202,14.206],
[-88.8978,14.2036],
[-88.8603,14.1711],
[-88.8293,14.1072],
[-88.8063,14.0962],
[-88.7724,14.1335],
[-88.7522,14.1344],
[-88.7193,14.0924],
[-88.7057,14.0442],
[-88.6615,14.0141],
[-88.63,14.0148],
[-88.5008,13.9763],
[-88.4995,13.9158],
[-88.4889,13.8658],
[-88.4679,13.8547],
[-88.4033,13.884],
[-88.3487,13.8713],
[-88.3193,13.8887],
[-88.2596,13.9053],
[-88.1969,13.9876],
[-88.1617,13.9769],
[-88.1219,13.9906],
[-88.06,13.9639],
[-88.0059,13.875],
[-87.9469,13.8956],
[-87.8008,13.8969],
[-87.7012,13.8208],
[-87.7769,13.5724],
[-87.7834,13.5242],
[-87.7153,13.5048],
[-87.7122,13.4764],
[-87.7503,13.4431],
[-87.8156,13.4054],
[-87.7381,13.3554],
[-87.7106,13.3536],
[-87.6811,13.3626],
[-87.66,13.3854],
[-87.6376,13.4591],
[-87.6147,13.4403],
[-87.6067,13.3794],
[-87.5568,13.3642],
[-87.5314,13.3464],
[-87.4714,13.3611],
[-87.4744,13.3876],
[-87.4493,13.4146],
[-87.3983,13.4124],
[-87.3806,13.3902],
[-87.38,13.3738],
[-87.4443,13.3499],
[-87.5006,13.2981],
[-87.5118,13.2773],
[-87.3414,13.0897],
[-87.3014,12.9866],
[-87.3058,12.9815],
[-87.0931,12.9986],
[-87.0488,12.9852],
[-87.0228,12.9882],
[-86.9557,13.0367],
[-86.9247,13.0828],
[-86.9133,13.1633],
[-86.9181,13.195],
[-86.9026,13.2486],
[-86.86,13.2833],
[-86.8175,13.2984],
[-86.7405,13.2622],
[-86.6961,13.2988],
[-86.6961,13.3539],
[-86.7108,13.4342],
[-86.7271,13.4655],
[-86.7508,13.5678],
[-86.7642,13.7107],
[-86.7586,13.754],
[-86.7108,13.7747],
[-86.5664,13.7792],
[-86.4011,13.7492],
[-86.3256,13.7635],
[-86.1324,13.9952],
[-86.1197,14.0307],
[-86.0701,14.056],
[-86.0086,14.0552],
[-86.0203,14.0053],
[-85.9961,13.9803],
[-85.7943,13.8365],
[-85.7325,13.8309],
[-85.7247,13.8645],
[-85.7483,13.8851],
[-85.7289,13.9626],
[-85.5508,14.0446],
[-85.437,14.1225],
[-85.4165,14.1457],
[-85.3782,14.2356],
[-85.3222,14.2762],
[-85.2764,14.2958],
[-85.2172,14.2965],
[-85.1803,14.3147],
[-85.1591,14.3357],
[-85.1597,14.3597],
[-85.1795,14.3853],
[-85.1806,14.4267],
[-85.1464,14.4892],
[-85.0275,14.5809],
[-85.0189,14.5982],
[-85.03,14.67],
[-84.9844,14.7413],
[-84.91,14.8067],
[-84.8264,14.829],
[-84.797,14.8139],
[-84.6886,14.6783],
[-84.4805,14.6188],
[-84.2603,14.6819],
[-84.1967,14.7164],
[-84.0353,14.7544],
[-83.9381,14.7539],
[-83.8424,14.7856],
[-83.567,14.9179],
[-83.5464,14.9483],
[-83.4858,15.0061],
[-83.3842,15.0222],
[-83.2297,14.9817],
[-83.1571,14.984],
[-83.1319,14.993],
[-83.232,15.0327],
[-83.2826,15.0657],
[-83.3075,15.0958],
[-83.3565,15.2247],
[-83.3935,15.2564],
[-83.4375,15.276],
[-83.6167,15.3472],
[-83.5663,15.3083],
[-83.5072,15.2806],
[-83.4969,15.2031],
[-83.5704,15.1581],
[-83.6163,15.17],
[-83.6235,15.1892],
[-83.5897,15.2327],
[-83.5631,15.2212],
[-83.5469,15.1984],
[-83.5281,15.2172],
[-83.5199,15.2478],
[-83.5314,15.2689],
[-83.5792,15.2609],
[-83.6287,15.2679],
[-83.7583,15.1967],
[-83.7711,15.2802],
[-83.8193,15.3218],
[-83.9639,15.4076],
[-83.9986,15.4146],
[-84.0277,15.4009],
[-84.0057,15.3647],
[-83.9831,15.3473],
[-83.8935,15.3197],
[-83.8301,15.271],
[-83.9113,15.2395],
[-84.0745,15.3492],
[-84.1008,15.374],
[-84.2,15.5186],
[-84.2095,15.5457],
[-84.162,15.5503],
[-84.0108,15.5357],
[-83.9428,15.5107],
[-83.9106,15.4778],
[-83.8556,15.46],
[-84.1153,15.7025],
[-84.2601,15.826],
[-84.4797,15.85],
[-84.5256,15.8461],
[-84.4411,15.8258],
[-84.5111,15.7825],
[-84.5992,15.7756],
[-84.6213,15.8006],
[-84.6274,15.829],
[-84.6776,15.877],
[-84.9206,15.9775],
[-84.997,15.9913],
[-85.0269,15.9849],
[-85.0722,15.9606],
[-85.1097,15.9262],
[-85.1772,15.9089],
[-85.2458,15.8989],
[-85.4961,15.889],
[-85.5989,15.9219],
[-85.6582,15.9561],
[-85.7643,15.9967],
[-85.9239,16.02],
[-86.0116,16.0216],
[-85.9686,16.001],
[-85.9379,16.0019],
[-85.9069,15.9921],
[-85.9101,15.9558],
[-85.952,15.9171],
[-85.9914,15.8983],
[-86.1246,15.8954],
[-86.1865,15.8806],
[-86.2292,15.8567],
[-86.2715,15.8112],
[-86.3578,15.7694],
[-86.4035,15.7676],
[-86.4883,15.8011],
[-86.7975,15.7842],
[-86.8185,15.7714],
[-86.8975,15.7556],
[-86.9647,15.7589],
[-87.3133,15.8361],
[-87.3825,15.8214],
[-87.445,15.7864],
[-87.4744,15.7844],
[-87.5254,15.8029],
[-87.5942,15.8625],
[-87.7078,15.9213],
[-87.7272,15.9181],
[-87.7478,15.8975],
[-87.805,15.9001],
[-87.8647,15.8878],
[-87.9164,15.8647],
[-88.032,15.7864],
[-88.1104,15.6958],
[-88.137,15.6828],
[-88.1696,15.6878],
[-88.2211,15.7264],
[-88.3155,15.6673],
[-88.3278,15.6353],
[-88.6683,15.35],
[-88.8372,15.2472],
[-88.9806,15.1356],
[-89.1466,15.0752],
[-89.1708,15.03],
[-89.1774,14.9985],
[-89.1549,14.9808],
[-89.1758,14.9241],
[-89.2231,14.8719],
[-89.2217,14.8444],
[-89.1549,14.7335],
[-89.1311,14.7151],
[-89.1378,14.6847],
[-89.1972,14.585],
[-89.2358,14.5824],
[-89.3505,14.4715]
]
],
[
[
[-86.6344,16.2931],
[-86.6303,16.2719],
[-86.5988,16.2969],
[-86.5747,16.31],
[-86.5161,16.3231],
[-86.374,16.3999],
[-86.2714,16.4197],
[-86.3372,16.4358],
[-86.4061,16.4228],
[-86.5915,16.34],
[-86.6344,16.2931]
]
]
]}
}
