{
"type": "Feature",
"properties": {"id":"cshapes-630-1886-01-01","edge_precision":"unknown","cshapes_gwcode":630,"cshapes_name":"Iran (Persia)","cshapes_first_day":"1886-01-01","cshapes_last_day":"2019-12-31","cshapes_status":"independent","cshapes_owner":630,"cshapes_borders_defined":true},
"geometry": {"type": "MultiPolygon", "coordinates": [
[
[
[44.0357,39.3815],
[44.2164,39.1365],
[44.198,39.0567],
[44.1624,39.0052],
[44.2094,38.8935],
[44.2505,38.8655],
[44.2837,38.8625],
[44.3003,38.8426],
[44.3032,38.81],
[44.2618,38.7243],
[44.3065,38.6473],
[44.3172,38.613],
[44.3215,38.5094],
[44.3042,38.4494],
[44.3053,38.4005],
[44.3181,38.3821],
[44.4367,38.3948],
[44.4825,38.3413],
[44.4732,38.3167],
[44.2389,37.9603],
[44.224,37.8992],
[44.5768,37.7668],
[44.6178,37.718],
[44.5989,37.6908],
[44.5844,37.6139],
[44.5889,37.4431],
[44.6486,37.4278],
[44.8017,37.3217],
[44.8182,37.2974],
[44.8205,37.2687],
[44.7873,37.1497],
[44.7662,37.1123],
[44.8175,37.0558],
[44.8565,37.0526],
[44.9031,37.0305],
[44.9055,36.8926],
[44.8445,36.8219],
[44.853,36.7946],
[44.8705,36.7846],
[44.9392,36.7821],
[45.0256,36.7364],
[45.0654,36.683],
[45.0628,36.6396],
[45.0388,36.6142],
[45.0145,36.5503],
[45.0553,36.5061],
[45.0839,36.4576],
[45.0865,36.4352],
[45.1069,36.4182],
[45.1392,36.4089],
[45.2161,36.4289],
[45.2437,36.4283],
[45.2792,36.3811],
[45.3197,36.2383],
[45.3544,36.0644],
[45.4139,35.9954],
[45.4725,36.0168],
[45.5153,36.0145],
[45.6245,35.9663],
[45.6825,35.9219],
[45.7189,35.8796],
[45.74,35.8322],
[45.7571,35.8173],
[45.8679,35.8178],
[45.8882,35.832],
[46.0894,35.8655],
[46.1355,35.8474],
[46.1477,35.824],
[46.1729,35.8074],
[46.2007,35.8028],
[46.2589,35.813],
[46.291,35.8315],
[46.3236,35.8326],
[46.3452,35.8142],
[46.3342,35.7775],
[46.2686,35.728],
[46.2294,35.7122],
[46.1512,35.6948],
[46.0728,35.6967],
[46.0342,35.689],
[45.98,35.5847],
[45.991,35.4852],
[46.0511,35.3992],
[46.148,35.2975],
[46.133,35.2725],
[46.1602,35.2342],
[46.1866,35.2217],
[46.166,35.1085],
[46.0358,35.0592],
[45.9498,35.0933],
[45.8778,35.0325],
[45.8805,34.9989],
[45.8924,34.973],
[45.8678,34.9036],
[45.8487,34.8969],
[45.7977,34.914],
[45.7651,34.8463],
[45.6911,34.8165],
[45.6527,34.7326],
[45.7083,34.6592],
[45.7296,34.5856],
[45.7147,34.5576],
[45.5629,34.5861],
[45.4386,34.4578],
[45.4605,34.3785],
[45.4924,34.3351],
[45.5199,34.3474],
[45.5494,34.3455],
[45.5733,34.324],
[45.5842,34.3013],
[45.5665,34.1513],
[45.4672,34.0771],
[45.4036,33.9752],
[45.4237,33.9511],
[45.4468,33.9425],
[45.5001,33.9459],
[45.6411,33.7674],
[45.6474,33.7351],
[45.6967,33.6694],
[45.7523,33.6373],
[45.7517,33.595],
[45.7861,33.6005],
[45.8151,33.6224],
[45.8989,33.633],
[45.9448,33.5544],
[45.8907,33.5216],
[45.8742,33.4998],
[45.9519,33.4797],
[46.0065,33.4858],
[46.0442,33.4374],
[46.0492,33.3836],
[46.1269,33.3036],
[46.1771,33.2648],
[46.199,33.1935],
[46.1451,33.1358],
[46.1131,33.0831],
[46.097,33.003],
[46.1064,32.9711],
[46.1517,32.9526],
[46.245,32.9653],
[46.3047,32.9636],
[46.3733,32.9514],
[46.4508,32.9253],
[46.6539,32.7989],
[46.7475,32.7531],
[46.9033,32.623],
[47.1328,32.4658],
[47.1514,32.4585],
[47.1989,32.4622],
[47.2489,32.4735],
[47.271,32.4886],
[47.3612,32.4738],
[47.4379,32.3856],
[47.4161,32.3495],
[47.6332,32.0532],
[47.8644,31.7986],
[47.6972,31.4078],
[47.6939,31.0011],
[48.0367,30.9961],
[48.0325,30.4914],
[48.0675,30.4638],
[48.1414,30.44],
[48.2894,30.3297],
[48.4119,30.1997],
[48.4111,30.1036],
[48.4501,30.0054],
[48.4734,29.9829],
[48.5957,29.951],
[48.6178,29.9532],
[48.6424,29.9624],
[48.6599,29.9954],
[48.7081,30.0272],
[48.8678,30.0208],
[48.9174,30.0407],
[48.9347,30.0872],
[48.9429,30.169],
[48.9136,30.255],
[48.8885,30.2731],
[48.862,30.3081],
[48.8664,30.359],
[48.9489,30.4964],
[48.9789,30.5115],
[49.0389,30.5192],
[49.1003,30.5161],
[49.1928,30.4897],
[49.2239,30.4733],
[49.2635,30.4291],
[49.2225,30.3733],
[49.1905,30.3607],
[49.1149,30.3936],
[49.0639,30.4061],
[48.9289,30.387],
[49.0047,30.2974],
[49.2383,30.188],
[49.3158,30.1636],
[49.353,30.1717],
[49.4233,30.1703],
[49.4858,30.1487],
[49.5001,30.0964],
[49.4985,30.0674],
[49.5551,30.0072],
[49.5789,30.0082],
[49.8989,30.1981],
[50.0032,30.2186],
[50.0555,30.2028],
[50.0994,30.1483],
[50.1336,30.0689],
[50.1389,30.0269],
[50.1335,29.9525],
[50.1475,29.9328],
[50.1872,29.895],
[50.2376,29.8622],
[50.394,29.6553],
[50.4658,29.6244],
[50.6253,29.4922],
[50.6392,29.4704],
[50.6687,29.4003],
[50.6564,29.2489],
[50.6299,29.186],
[50.6389,29.1428],
[50.6871,29.1196],
[50.7167,29.1324],
[50.8266,29.1366],
[50.8853,29.1033],
[50.9237,29.0646],
[50.926,29.0053],
[50.8917,28.9449],
[50.8606,28.9741],
[50.8258,28.9916],
[50.8003,28.9709],
[50.801,28.9298],
[50.879,28.8309],
[50.9479,28.8218],
[51.0086,28.8006],
[51.0547,28.7387],
[51.0692,28.7044],
[51.0755,28.5625],
[51.0933,28.4972],
[51.1389,28.4083],
[51.2342,28.2817],
[51.2647,28.155],
[51.3253,28.0483],
[51.4303,27.9378],
[51.5822,27.8492],
[51.6064,27.8419],
[51.7173,27.8327],
[51.7922,27.8511],
[52.0261,27.8283],
[52.1285,27.7614],
[52.1739,27.7122],
[52.2242,27.6864],
[52.3631,27.6511],
[52.434,27.6425],
[52.4997,27.6086],
[52.6264,27.4617],
[52.615,27.4112],
[52.5736,27.3862],
[52.6083,27.3482],
[52.7564,27.2892],
[52.8531,27.2094],
[53.0011,27.1294],
[53.1664,27.0633],
[53.3075,27.0172],
[53.39,27.0011],
[53.4393,26.9744],
[53.4624,26.9532],
[53.4707,26.9337],
[53.4732,26.8731],
[53.486,26.8551],
[53.6464,26.7531],
[53.7478,26.7092],
[53.8361,26.6992],
[54.0658,26.7247],
[54.1258,26.7061],
[54.2119,26.6958],
[54.2699,26.7176],
[54.2969,26.7161],
[54.3275,26.7011],
[54.3605,26.6558],
[54.4725,26.5883],
[54.6903,26.5061],
[54.7885,26.4904],
[54.8528,26.5192],
[55.1625,26.7169],
[55.2397,26.7787],
[55.2747,26.7869],
[55.3557,26.7769],
[55.3708,26.7629],
[55.4172,26.7547],
[55.4817,26.7606],
[55.5983,26.7986],
[55.5789,26.9112],
[55.6414,26.9801],
[55.69,26.9961],
[55.8449,27.0068],
[55.9563,27.0321],
[55.9753,27.0617],
[56.1328,27.1603],
[56.3558,27.2003],
[56.5322,27.1608],
[56.6453,27.155],
[56.8089,27.1236],
[56.8675,27.0594],
[56.8441,27.0307],
[57.009,26.8714],
[57.0235,26.8475],
[57.0882,26.6337],
[57.0904,26.4936],
[57.0751,26.4551],
[57.1695,26.1039],
[57.1664,26.0779],
[57.1989,25.9956],
[57.2307,25.9851],
[57.2714,25.9194],
[57.2911,25.8656],
[57.3008,25.8006],
[57.3191,25.7715],
[57.5242,25.7378],
[57.634,25.7322],
[57.664,25.7462],
[57.7304,25.7478],
[57.7566,25.7407],
[57.7861,25.7008],
[57.7786,25.6686],
[57.8339,25.6647],
[57.9512,25.7],
[57.9761,25.6854],
[58.009,25.6222],
[58.0518,25.5721],
[58.1282,25.5429],
[58.163,25.539],
[58.3238,25.5805],
[58.3401,25.5958],
[58.3686,25.6044],
[58.7204,25.5565],
[58.79,25.5647],
[58.8183,25.56],
[58.9121,25.5185],
[58.9365,25.5001],
[59.0001,25.4133],
[59.0229,25.3986],
[59.12,25.3917],
[59.4505,25.4778],
[59.4905,25.4735],
[59.5286,25.4508],
[59.5617,25.4156],
[59.613,25.3929],
[59.7803,25.4122],
[59.8317,25.4114],
[59.958,25.3728],
[60.0919,25.3753],
[60.1969,25.3653],
[60.2956,25.3457],
[60.3097,25.3281],
[60.444,25.2672],
[60.4668,25.266],
[60.4373,25.3294],
[60.4085,25.3329],
[60.395,25.3653],
[60.4103,25.3978],
[60.455,25.4317],
[60.488,25.4406],
[60.551,25.4411],
[60.5722,25.4342],
[60.6036,25.3978],
[60.6061,25.3297],
[60.6226,25.2699],
[60.9661,25.2172],
[61.1764,25.1736],
[61.1989,25.1585],
[61.219,25.1231],
[61.4414,25.076],
[61.4994,25.1181],
[61.5184,25.1641],
[61.5811,25.1997],
[61.611,25.1976],
[61.6436,25.2983],
[61.6876,25.7975],
[61.7619,25.8078],
[61.78,25.8439],
[61.8169,26.1086],
[61.8328,26.1794],
[61.8549,26.2306],
[61.871,26.244],
[62.0608,26.3117],
[62.1039,26.3144],
[62.139,26.3795],
[62.2749,26.3566],
[62.2886,26.379],
[62.2726,26.4204],
[62.3153,26.509],
[62.4379,26.5665],
[62.6008,26.5803],
[62.7039,26.6022],
[62.7457,26.6189],
[62.7703,26.6487],
[62.9736,26.6478],
[63.1636,26.6306],
[63.1851,26.6392],
[63.2161,26.8539],
[63.2582,26.9404],
[63.2526,27.0806],
[63.2765,27.1206],
[63.3288,27.128],
[63.3303,27.1489],
[63.2849,27.2222],
[63.2019,27.2676],
[63.0392,27.2414],
[62.9359,27.2147],
[62.8149,27.235],
[62.7803,27.2668],
[62.8006,27.3844],
[62.8397,27.4744],
[62.8219,27.7603],
[62.7592,27.9953],
[62.7889,28.2125],
[62.7822,28.2637],
[62.5925,28.2336],
[62.5308,28.295],
[62.4891,28.3556],
[62.3999,28.4194],
[62.2086,28.4594],
[61.946,28.5318],
[61.9055,28.555],
[61.6514,28.7853],
[61.5828,28.9094],
[61.5119,29.0711],
[61.428,29.1514],
[61.3603,29.2658],
[61.3144,29.3958],
[60.8684,29.865],
[61.7583,30.7903],
[61.8501,31.0239],
[61.8111,31.1772],
[61.7668,31.2562],
[61.7711,31.3183],
[61.7136,31.3833],
[60.8488,31.4961],
[60.8114,31.6597],
[60.8242,31.7744],
[60.8235,31.9485],
[60.8069,31.9967],
[60.8367,32.0903],
[60.8583,32.226],
[60.8328,32.3219],
[60.6597,32.8186],
[60.5825,33.0661],
[60.5833,33.1496],
[60.8033,33.3908],
[60.8527,33.4842],
[60.8776,33.5008],
[60.9344,33.511],
[60.9155,33.5479],
[60.894,33.5558],
[60.6661,33.5675],
[60.5705,33.6111],
[60.5308,33.64],
[60.5133,33.6897],
[60.5087,33.74],
[60.5406,33.7769],
[60.5517,33.7972],
[60.5536,33.8219],
[60.5042,34.0917],
[60.511,34.1455],
[60.5461,34.1964],
[60.6751,34.314],
[60.7667,34.3222],
[60.8789,34.3197],
[60.8836,34.3553],
[60.7983,34.4633],
[60.7678,34.478],
[60.7239,34.5279],
[60.74,34.5447],
[60.8532,34.5676],
[60.9767,34.6508],
[61.0511,34.7894],
[61.1317,35.0858],
[61.136,35.1321],
[61.0998,35.1766],
[61.0962,35.2362],
[61.1058,35.2818],
[61.1836,35.3486],
[61.2765,35.5176],
[61.2879,35.5556],
[61.2766,35.6072],
[61.2332,35.6626],
[61.2305,35.6923],
[61.2621,35.8165],
[61.2117,35.9375],
[61.2011,36.0692],
[61.2169,36.1086],
[61.2208,36.1789],
[61.1844,36.2867],
[61.1626,36.4197],
[61.1895,36.569],
[61.1537,36.6504],
[60.3647,36.6455],
[60.3312,36.658],
[60.1061,36.9369],
[60.0635,37.0117],
[60.0158,37.0438],
[59.813,37.1247],
[59.7155,37.1472],
[59.48,37.2328],
[59.3931,37.3231],
[59.3719,37.4042],
[59.3755,37.496],
[59.343,37.5355],
[59.3157,37.5408],
[59.2599,37.5171],
[59.238,37.5181],
[59.2022,37.5331],
[59.0528,37.6314],
[58.9336,37.6686],
[58.8063,37.671],
[58.7194,37.6497],
[58.6464,37.6617],
[58.4707,37.6403],
[58.4072,37.6411],
[58.2337,37.6787],
[58.221,37.6988],
[58.2244,37.7212],
[58.1978,37.7862],
[58.1744,37.7964],
[57.6996,37.9264],
[57.5286,37.9272],
[57.454,37.9385],
[57.3789,37.9747],
[57.3517,37.9933],
[57.3721,38.0905],
[57.2415,38.2724],
[57.1825,38.2818],
[57.1543,38.2652],
[57.1369,38.2398],
[57.0626,38.1954],
[56.8667,38.2256],
[56.796,38.2528],
[56.7557,38.2863],
[56.6953,38.2669],
[56.5697,38.259],
[56.5428,38.2661],
[56.4711,38.2631],
[56.4193,38.2521],
[56.323,38.1828],
[56.3267,38.1627],
[56.3496,38.136],
[56.3318,38.0869],
[56.2197,38.0712],
[56.1687,38.0947],
[55.9871,38.0725],
[55.8683,38.0939],
[55.8064,38.1225],
[55.7639,38.1242],
[55.4376,38.0833],
[55.3765,38.0385],
[55.1401,37.9549],
[55.0704,37.9058],
[55.0378,37.8658],
[54.9547,37.805],
[54.92,37.7842],
[54.8633,37.7667],
[54.8331,37.7464],
[54.8097,37.7111],
[54.7819,37.643],
[54.8089,37.5779],
[54.7807,37.5139],
[54.6687,37.4401],
[54.6305,37.4403],
[54.5801,37.4529],
[54.3561,37.3608],
[54.2017,37.3303],
[53.9091,37.3506],
[53.9436,37.22],
[54.0087,37.0378],
[54.0329,36.9071],
[54.0329,36.8424],
[54.0158,36.8181],
[53.8862,36.7942],
[53.7638,36.8079],
[53.6662,36.8224],
[53.613,36.8686],
[53.6439,36.8789],
[53.6714,36.8722],
[53.9343,36.9059],
[54.0068,36.9415],
[53.8721,36.914],
[53.5353,36.8903],
[53.1791,36.8382],
[52.8158,36.745],
[52.3645,36.6705],
[52.0167,36.5836],
[51.8819,36.5833],
[51.6131,36.6325],
[51.3764,36.6847],
[51.0916,36.7317],
[50.9822,36.776],
[50.9111,36.8214],
[50.4835,37.0304],
[50.3187,37.1487],
[50.2308,37.3005],
[50.2203,37.3676],
[50.1968,37.3865],
[49.9361,37.4525],
[49.42,37.4933],
[49.2747,37.5458],
[49.1497,37.6086],
[49.066,37.6755],
[49.0022,37.7569],
[48.9432,37.9021],
[48.9204,37.9978],
[48.8693,38.3064],
[48.8697,38.4456],
[48.7837,38.4455],
[48.6629,38.3892],
[48.6235,38.3965],
[48.5992,38.4169],
[48.5653,38.4714],
[48.4328,38.6246],
[48.3317,38.6028],
[48.2436,38.6721],
[48.2469,38.7154],
[48.1847,38.7505],
[48.1236,38.7722],
[48.0246,38.8334],
[48.0132,38.863],
[48.0121,38.8971],
[48.0768,38.9539],
[48.1441,38.9683],
[48.2637,38.9776],
[48.3087,39.0037],
[48.3254,39.0322],
[48.3269,39.0544],
[48.2939,39.1125],
[48.2292,39.1399],
[48.1333,39.211],
[48.1217,39.2518],
[48.1239,39.2782],
[48.1489,39.3068],
[48.1985,39.3361],
[48.2789,39.3503],
[48.3579,39.3899],
[48.3405,39.4235],
[48.3219,39.4408],
[48.2125,39.5264],
[48.0633,39.6656],
[47.9847,39.7156],
[47.8129,39.6792],
[47.7939,39.6668],
[47.7699,39.6337],
[47.5425,39.5153],
[47.4607,39.4982],
[47.3917,39.4705],
[47.2869,39.3744],
[47.1995,39.34],
[47.1646,39.3353],
[47.0997,39.3044],
[47.0435,39.2379],
[47.0339,39.1967],
[46.9529,39.1564],
[46.9087,39.1679],
[46.8489,39.1606],
[46.7589,39.086],
[46.7455,39.051],
[46.5725,38.9158],
[46.5404,38.8756],
[46.3511,38.91],
[46.2947,38.8958],
[46.1869,38.8426],
[46.0747,38.8719],
[45.8411,38.9036],
[45.5386,38.9655],
[45.4335,39.0032],
[45.4211,39.0608],
[45.3455,39.1647],
[45.2984,39.1976],
[45.2712,39.1872],
[45.1435,39.2169],
[45.1305,39.2856],
[45.063,39.373],
[45.0022,39.4167],
[44.9546,39.4324],
[44.9278,39.4766],
[44.8886,39.6058],
[44.8685,39.6223],
[44.8147,39.6383],
[44.7367,39.7018],
[44.6085,39.7792],
[44.4711,39.6989],
[44.4779,39.6407],
[44.4258,39.4364],
[44.4011,39.4165],
[44.3045,39.3873],
[44.201,39.4169],
[44.0769,39.4117],
[44.0357,39.3815]
]
]
]}
}
