{
"type": "Feature",
"properties": {"id":"cshapes-610-1900-06-27","edge_precision":"unknown","cshapes_gwcode":610,"cshapes_name":"Spanish West Africa","cshapes_first_day":"1900-06-27","cshapes_last_day":"1912-11-26","cshapes_status":"protectorate","cshapes_owner":230,"cshapes_borders_defined":true},
"geometry": {"type": "MultiPolygon", "coordinates": [
[
[
[-17.1015,20.8374],
[-17.0534,20.7648],
[-17.0756,20.899],
[-16.995,21.1281],
[-16.9538,21.3367],
[-12.9997,21.3381],
[-13.08,22.5203],
[-13.1503,22.7575],
[-13.1054,22.8928],
[-12.9983,23.0247],
[-12.5714,23.2914],
[-12.3658,23.3186],
[-12.2314,23.3806],
[-12.0989,23.4297],
[-12.0003,23.4544],
[-12,25.7331],
[-12.0092,25.9994],
[-14.4638,26.0002],
[-14.4947,25.9951],
[-14.5385,25.8929],
[-14.629,25.7737],
[-14.6828,25.6239],
[-14.7536,25.4806],
[-14.791,25.4312],
[-14.846,25.2139],
[-14.8474,25.1133],
[-14.8306,25.0381],
[-14.8346,24.9186],
[-14.9009,24.6896],
[-15.0314,24.5417],
[-15.1733,24.4919],
[-15.2282,24.4412],
[-15.2983,24.3319],
[-15.4575,24.2011],
[-15.5822,24.0606],
[-15.8322,23.9017],
[-15.9117,23.8219],
[-15.994,23.6485],
[-15.9433,23.6822],
[-15.8908,23.8039],
[-15.7794,23.9094],
[-15.7603,23.8581],
[-15.7647,23.7865],
[-15.83,23.6838],
[-15.8828,23.6386],
[-15.9217,23.5835],
[-15.9628,23.5172],
[-15.9806,23.4476],
[-15.9969,23.4153],
[-16.0358,23.3628],
[-16.0725,23.3283],
[-16.1783,23.085],
[-16.1514,23.0639],
[-16.1524,23.0247],
[-16.1639,22.9889],
[-16.2008,22.9322],
[-16.2673,22.8999],
[-16.3236,22.7944],
[-16.3371,22.7569],
[-16.3458,22.6347],
[-16.3627,22.5646],
[-16.4241,22.5203],
[-16.4654,22.384],
[-16.4981,22.3253],
[-16.5986,22.2814],
[-16.6358,22.2765],
[-16.6652,22.293],
[-16.7194,22.2608],
[-16.8519,22.0735],
[-16.9163,21.9454],
[-16.9582,21.8278],
[-16.9689,21.6253],
[-17.0106,21.4411],
[-17.0294,21.285],
[-17.0944,20.9437],
[-17.1015,20.8374]
]
]
]}
}
