{
"type": "Feature",
"properties": {"id":"cshapes-66-1886-01-01","edge_precision":"unknown","cshapes_gwcode":66,"cshapes_name":"Martinique","cshapes_first_day":"1886-01-01","cshapes_last_day":"2019-12-31","cshapes_status":"colony","cshapes_owner":220,"cshapes_borders_defined":true},
"geometry": {"type": "MultiPolygon", "coordinates": [
[
[
[-61.2315,14.8125],
[-61.1725,14.6931],
[-61.0339,14.4658],
[-60.975,14.4714],
[-60.8869,14.4656],
[-60.8608,14.4028],
[-60.8394,14.4153],
[-60.8169,14.4733],
[-60.8297,14.57],
[-60.9067,14.6525],
[-60.9425,14.7278],
[-60.9408,14.7408],
[-61.0371,14.8306],
[-61.1447,14.8778],
[-61.1747,14.8769],
[-61.2267,14.8322],
[-61.2315,14.8125]
]
]
]}
}
