{
"type": "Feature",
"properties": {"id":"cshapes-645-1920-04-26","edge_precision":"unknown","cshapes_gwcode":645,"cshapes_name":"Iraq","cshapes_first_day":"1920-04-26","cshapes_last_day":"1920-12-23","cshapes_status":"occupied","cshapes_owner":200,"cshapes_borders_defined":false},
"geometry": {"type": "MultiPolygon", "coordinates": [
[
[
[39.9457,33.9223],
[39.9861,33.9135],
[40.8968,33.9135],
[41.0956,33.9007],
[41.2559,33.9007],
[41.397,33.8879],
[41.7753,33.6634],
[41.8395,33.5736],
[41.9292,33.4839],
[42.1846,33.4174],
[42.289,33.3245],
[42.4051,33.2665],
[42.6837,33.0692],
[42.8462,32.9067],
[42.9159,32.8254],
[42.9391,32.779],
[42.9971,32.7325],
[43.1572,32.5272],
[43.2847,32.434],
[43.3631,32.287],
[43.7845,31.8753],
[43.9757,31.7038],
[44.3335,31.4784],
[44.5197,31.3215],
[44.6513,31.2583],
[44.9937,31.0378],
[45.2375,30.8985],
[45.3109,30.8251],
[45.4563,30.7712],
[46.0078,30.6109],
[46.2002,30.5468],
[46.5786,30.38],
[46.7517,30.2967],
[46.9569,30.1492],
[47.1339,29.9805],
[47.17,30.0153],
[47.2043,30.0333],
[47.3511,30.0817],
[47.7235,30.0842],
[47.9401,30.0176],
[47.9594,30.0331],
[48.0717,30.045],
[48.1585,30.0378],
[48.2333,30.0117],
[48.3064,29.9706],
[48.3839,29.9397],
[48.443,29.9275],
[48.534,29.9246],
[48.5607,29.9392],
[48.5456,29.963],
[48.4734,29.9829],
[48.4501,30.0054],
[48.4111,30.1036],
[48.4119,30.1997],
[48.2894,30.3297],
[48.1414,30.44],
[48.0675,30.4638],
[48.0325,30.4914],
[48.0367,30.9961],
[47.6939,31.0011],
[47.6972,31.4078],
[47.8644,31.7986],
[47.6332,32.0532],
[47.4161,32.3495],
[47.4379,32.3856],
[47.3612,32.4738],
[47.271,32.4886],
[47.2489,32.4735],
[47.1989,32.4622],
[47.1514,32.4585],
[47.1328,32.4658],
[46.9033,32.623],
[46.7475,32.7531],
[46.6539,32.7989],
[46.4508,32.9253],
[46.3733,32.9514],
[46.3047,32.9636],
[46.245,32.9653],
[46.1517,32.9526],
[46.1064,32.9711],
[46.097,33.003],
[46.1131,33.0831],
[46.1451,33.1358],
[46.199,33.1935],
[46.1771,33.2648],
[46.1269,33.3036],
[46.0492,33.3836],
[46.0442,33.4374],
[46.0065,33.4858],
[45.9519,33.4797],
[45.8742,33.4998],
[45.8907,33.5216],
[45.9448,33.5544],
[45.8989,33.633],
[45.8151,33.6224],
[45.7861,33.6005],
[45.7517,33.595],
[45.7523,33.6373],
[45.6967,33.6694],
[45.6474,33.7351],
[45.6411,33.7674],
[45.5001,33.9459],
[45.4468,33.9425],
[45.4237,33.9511],
[45.4036,33.9752],
[45.4672,34.0771],
[45.5665,34.1513],
[45.5842,34.3013],
[45.5733,34.324],
[45.5494,34.3455],
[45.5199,34.3474],
[45.4924,34.3351],
[45.4605,34.3785],
[45.4386,34.4578],
[45.5629,34.5861],
[45.7147,34.5576],
[45.7296,34.5856],
[45.7083,34.6592],
[45.6527,34.7326],
[45.6911,34.8165],
[45.7651,34.8463],
[45.7977,34.914],
[45.8487,34.8969],
[45.8678,34.9036],
[45.8924,34.973],
[45.8805,34.9989],
[45.8778,35.0325],
[45.9498,35.0933],
[46.0358,35.0592],
[46.166,35.1085],
[46.1866,35.2217],
[46.1602,35.2342],
[46.133,35.2725],
[46.148,35.2975],
[46.0511,35.3992],
[45.991,35.4852],
[45.98,35.5847],
[46.0342,35.689],
[46.0728,35.6967],
[46.1512,35.6948],
[46.2294,35.7122],
[46.2686,35.728],
[46.3342,35.7775],
[46.3452,35.8142],
[46.3236,35.8326],
[46.291,35.8315],
[46.2589,35.813],
[46.2007,35.8028],
[46.1729,35.8074],
[46.1477,35.824],
[46.1355,35.8474],
[46.0894,35.8655],
[45.8882,35.832],
[45.8679,35.8178],
[45.7571,35.8173],
[45.74,35.8322],
[45.7189,35.8796],
[45.6825,35.9219],
[45.6245,35.9663],
[45.5153,36.0145],
[45.4725,36.0168],
[45.4139,35.9954],
[45.3544,36.0644],
[45.3197,36.2383],
[45.2792,36.3811],
[45.2437,36.4283],
[45.2161,36.4289],
[45.1392,36.4089],
[45.1069,36.4182],
[45.0865,36.4352],
[45.0839,36.4576],
[45.0553,36.5061],
[45.0145,36.5503],
[45.0388,36.6142],
[45.0628,36.6396],
[45.0654,36.683],
[45.0256,36.7364],
[44.9392,36.7821],
[44.8705,36.7846],
[44.853,36.7946],
[44.8445,36.8219],
[44.9055,36.8926],
[44.9031,37.0305],
[44.8565,37.0526],
[44.8175,37.0558],
[44.785,37.0847],
[44.7662,37.1123],
[44.7873,37.1497],
[44.7741,37.166],
[44.7458,37.1744],
[44.6422,37.1885],
[44.5828,37.1632],
[44.5505,37.1326],
[44.4364,37.063],
[44.3497,37.0383],
[44.3411,37.0067],
[44.3192,36.9712],
[44.2571,36.9857],
[44.196,37.0964],
[44.2303,37.154],
[44.2626,37.1635],
[44.2683,37.195],
[44.2621,37.2365],
[44.2306,37.2762],
[44.1189,37.3157],
[44.048,37.3222],
[44.009,37.3178],
[43.9558,37.2796],
[43.913,37.2266],
[43.8164,37.2219],
[43.623,37.23],
[43.49,37.2512],
[43.1569,37.3739],
[42.9606,37.3235],
[42.8944,37.3355],
[42.7868,37.3837],
[42.7247,37.3519],
[42.588,37.1757],
[42.5795,37.1537],
[42.3769,37.1175],
[42.3556,37.1069],
[42.3718,37.0618],
[41.8353,36.5989],
[41.403,36.5256],
[41.2903,36.3556],
[41.255,36.055],
[41.3783,35.8369],
[41.384,35.631],
[41.2778,35.4955],
[41.2622,35.3678],
[41.2153,35.2247],
[41.2125,35.1128],
[41.2248,34.7829],
[41.0994,34.6086],
[41.0039,34.4194],
[39.9457,33.9223]
]
]
]}
}
