{
"type": "Feature",
"properties": {"id":"cshapes-710-1899-01-01","edge_precision":"unknown","cshapes_gwcode":710,"cshapes_name":"China","cshapes_first_day":"1899-01-01","cshapes_last_day":"1912-12-31","cshapes_status":"independent","cshapes_owner":710,"cshapes_borders_defined":true},
"geometry": {"type": "MultiPolygon", "coordinates": [
[
[
[73.62,39.2357],
[73.7284,39.0763],
[73.7761,39.0497],
[73.8419,38.9961],
[73.8523,38.9726],
[73.8457,38.9474],
[73.8192,38.9373],
[73.7498,38.9294],
[73.7233,38.9124],
[73.7082,38.8865],
[73.7086,38.8584],
[73.763,38.7616],
[73.814,38.6127],
[73.9394,38.5399],
[73.9673,38.5341],
[74.0787,38.5451],
[74.0621,38.5942],
[74.1228,38.6669],
[74.1452,38.6768],
[74.3547,38.6744],
[74.7932,38.5237],
[74.8544,38.4726],
[74.8682,38.4209],
[74.8622,38.3853],
[74.8029,38.3249],
[74.7943,38.3006],
[74.7925,38.1952],
[74.8177,38.074],
[74.8444,38.0516],
[74.9049,38.0259],
[74.916,38.0079],
[74.9062,37.8418],
[74.9271,37.8205],
[74.9865,37.7866],
[74.9394,37.6863],
[74.9144,37.6703],
[74.9036,37.6524],
[74.9211,37.6041],
[74.9543,37.5596],
[75.0694,37.5058],
[75.1875,37.4066],
[75.3654,37.461],
[75.4944,37.4008],
[75.546,37.3062],
[75.6578,37.246],
[75.8298,37.246],
[75.8987,37.3406],
[76.0105,37.3664],
[76.1137,37.3234],
[76.1567,37.246],
[76.1567,37.0482],
[76.3373,36.816],
[76.4663,36.7816],
[76.6641,36.7816],
[76.8017,36.7214],
[77.0597,36.6612],
[77.2489,36.6354],
[77.3435,36.6354],
[77.5155,36.7128],
[77.722,36.7042],
[77.8424,36.6268],
[78.023,36.5494],
[78.066,36.4117],
[78.496,36.2913],
[78.711,36.2053],
[79.1152,35.9645],
[79.2442,35.8699],
[79.7001,35.8613],
[79.8721,35.7495],
[80.0699,35.6549],
[80.1602,35.4442],
[80.1602,35.083],
[80.057,34.9454],
[79.9022,34.8078],
[79.8678,34.8078],
[79.9366,34.6013],
[79.9194,34.5153],
[79.8334,34.4809],
[79.5238,34.4809],
[79.4894,34.3433],
[79.4894,34.1713],
[79.1969,34.1713],
[79.0034,34.1584],
[78.9503,34.1758],
[78.898,34.146],
[78.7746,34.1097],
[78.7512,34.0942],
[78.7358,34.0683],
[78.7328,34.0386],
[78.8119,33.8172],
[78.8178,33.7497],
[78.8067,33.549],
[78.8343,33.4822],
[78.899,33.4276],
[78.9365,33.408],
[78.9948,33.3177],
[79.1011,33.2533],
[79.2747,33.1894],
[79.3751,33.0994],
[79.3566,32.9684],
[79.3739,32.9372],
[79.4482,32.8843],
[79.5287,32.7567],
[79.5303,32.728],
[79.5154,32.6746],
[79.4528,32.599],
[79.3023,32.4956],
[79.2532,32.516],
[79.1726,32.4953],
[79.1396,32.4799],
[79.078,32.3814],
[78.9711,32.3508],
[78.9226,32.3649],
[78.7855,32.4718],
[78.7744,32.49],
[78.765,32.5461],
[78.7754,32.5983],
[78.7691,32.6258],
[78.7462,32.639],
[78.7055,32.6292],
[78.6826,32.599],
[78.6386,32.5778],
[78.5722,32.5667],
[78.4994,32.5826],
[78.406,32.5561],
[78.3971,32.5346],
[78.4723,32.4324],
[78.4814,32.2473],
[78.538,32.2144],
[78.5614,32.1897],
[78.5975,32.1249],
[78.6569,32.0597],
[78.6875,32.0307],
[78.7317,32.0065],
[78.7708,31.9685],
[78.6929,31.7797],
[78.7158,31.7264],
[78.8425,31.6075],
[78.7723,31.5528],
[78.7219,31.5253],
[78.7125,31.5027],
[78.7682,31.309],
[78.8175,31.2879],
[78.8777,31.2916],
[79.0185,31.4098],
[79.0441,31.4269],
[79.0808,31.4373],
[79.1642,31.3953],
[79.2206,31.326],
[79.2179,31.301],
[79.2418,31.2417],
[79.3144,31.1346],
[79.3932,31.1011],
[79.4194,31.0522],
[79.5543,30.9571],
[79.61,30.9385],
[79.6605,30.9736],
[79.7453,30.9893],
[79.863,30.9658],
[79.886,30.9498],
[79.898,30.9192],
[79.9297,30.8879],
[79.9553,30.8847],
[80.1886,30.7951],
[80.2542,30.7337],
[80.224,30.5978],
[80.207,30.5755],
[80.3162,30.5661],
[80.5214,30.4772],
[80.6118,30.4721],
[80.7586,30.3856],
[80.791,30.3371],
[80.8087,30.3242],
[80.902,30.2859],
[80.9935,30.264],
[81.0739,30.1286],
[81.1194,30.0194],
[81.161,30.0304],
[81.2322,30.0119],
[81.2533,30.0287],
[81.2475,30.0564],
[81.2986,30.0781],
[81.3808,30.1725],
[81.3928,30.2656],
[81.391,30.3153],
[81.4086,30.3756],
[81.4262,30.385],
[81.4936,30.3415],
[81.5457,30.3321],
[81.5605,30.3844],
[81.6303,30.4247],
[81.8083,30.3637],
[81.853,30.3767],
[82.1112,30.3344],
[82.1512,30.1204],
[82.1753,30.0692],
[82.2249,30.075],
[82.4208,30.0103],
[82.5986,29.8922],
[82.7767,29.7339],
[82.8721,29.6669],
[82.9082,29.6906],
[82.9986,29.67],
[83.06,29.6233],
[83.1208,29.6221],
[83.1911,29.6317],
[83.2575,29.58],
[83.3792,29.4661],
[83.3805,29.4164],
[83.5479,29.189],
[83.6059,29.1647],
[83.6723,29.1633],
[83.6951,29.2064],
[83.7205,29.2289],
[83.9125,29.2897],
[83.9761,29.2969],
[84.1165,29.261],
[84.181,29.2097],
[84.1804,29.1833],
[84.1594,29.1567],
[84.1621,29.13],
[84.24,29.0539],
[84.2328,28.9761],
[84.2407,28.9162],
[84.3265,28.8718],
[84.3886,28.8633],
[84.4055,28.8492],
[84.4592,28.7592],
[84.4862,28.734],
[84.6364,28.7028],
[84.7085,28.6515],
[84.7031,28.6072],
[84.8466,28.5444],
[84.9472,28.5421],
[85.0317,28.6039],
[85.0523,28.6342],
[85.0722,28.6414],
[85.1069,28.6367],
[85.1952,28.591],
[85.1819,28.53],
[85.1351,28.4653],
[85.1136,28.3958],
[85.1071,28.3115],
[85.14,28.2953],
[85.3766,28.2636],
[85.3972,28.2664],
[85.4369,28.3001],
[85.4589,28.3017],
[85.5836,28.2825],
[85.7214,28.2792],
[85.7425,28.2426],
[85.7808,28.2061],
[85.8694,28.1673],
[85.8878,28.1486],
[85.9517,28.0131],
[85.9764,27.9101],
[86.0054,27.8862],
[86.0894,27.8908],
[86.136,27.9353],
[86.1039,28.0269],
[86.0962,28.0867],
[86.1977,28.1581],
[86.2146,28.1124],
[86.1969,28.0721],
[86.223,28.0114],
[86.3521,27.945],
[86.4514,27.9089],
[86.5178,27.9403],
[86.5378,27.9597],
[86.5411,28.0242],
[86.5694,28.1004],
[86.5886,28.1131],
[86.6953,28.1117],
[86.7561,28.0822],
[86.76,28.0306],
[86.9471,27.9476],
[87.0326,27.9633],
[87.0865,27.9243],
[87.0971,27.8912],
[87.1415,27.844],
[87.1927,27.8231],
[87.3061,27.8164],
[87.4089,27.8431],
[87.5367,27.8403],
[87.5905,27.8149],
[87.6261,27.8136],
[87.6605,27.8289],
[87.7205,27.805],
[87.7803,27.825],
[87.8046,27.8439],
[87.849,27.9107],
[87.8726,27.9172],
[88.0031,27.8858],
[88.0544,27.8986],
[88.1306,27.8755],
[88.1221,27.907],
[88.1381,27.9494],
[88.3908,27.9836],
[88.5092,28.0406],
[88.6244,28.1168],
[88.7405,28.0697],
[88.8358,28.0081],
[88.873,27.8955],
[88.8811,27.8396],
[88.855,27.724],
[88.8305,27.6546],
[88.8014,27.6158],
[88.7646,27.5424],
[88.7812,27.4436],
[88.7997,27.4164],
[88.8233,27.3867],
[88.9171,27.3196],
[88.9466,27.3853],
[88.9675,27.4664],
[89.0155,27.5099],
[89.0864,27.5383],
[89.1286,27.5717],
[89.128,27.6233],
[89.1796,27.6968],
[89.237,27.8072],
[89.36,27.8717],
[89.4875,28.0578],
[89.5882,28.1417],
[89.6265,28.1594],
[89.6928,28.1736],
[89.7464,28.1756],
[89.7919,28.1947],
[89.8367,28.2517],
[89.863,28.2714],
[89.9982,28.3237],
[90.1786,28.3006],
[90.389,28.2426],
[90.3954,28.2005],
[90.3566,28.1325],
[90.3533,28.0985],
[90.3765,28.0796],
[90.4664,28.0717],
[90.5325,28.0806],
[90.5562,28.0751],
[90.6505,28.0786],
[90.8403,28.0481],
[90.9179,28.0465],
[90.9514,28.0325],
[91.0204,27.9769],
[91.0869,27.97],
[91.1123,27.9719],
[91.1316,27.9836],
[91.165,28.0261],
[91.2189,28.0747],
[91.3014,28.0811],
[91.3569,28.0419],
[91.45,27.9972],
[91.5205,27.9914],
[91.6069,27.9694],
[91.6628,27.945],
[91.6771,27.9292],
[91.653,27.8361],
[91.6544,27.7167],
[91.5989,27.6601],
[91.6003,27.6154],
[91.6211,27.5545],
[91.6758,27.4871],
[91.7708,27.4317],
[91.951,27.4532],
[91.9937,27.4756],
[92.0892,27.3494],
[92.1142,27.2931],
[92.0442,27.1883],
[92.0153,27.1681],
[92.01,27.1015],
[92.0175,27.08],
[92.0714,27.0371],
[92.0867,27.0147],
[92.1132,26.9303],
[92.103,26.8955],
[92.0869,26.8738],
[92.0312,26.8519],
[91.9918,26.8537],
[92.0518,26.7525],
[92.162,26.7525],
[92.2213,26.744],
[92.3314,26.7694],
[92.467,26.8203],
[92.5517,26.8372],
[92.6449,26.8542],
[92.8229,26.8626],
[92.8991,26.8626],
[93.0093,26.8457],
[93.1533,26.8033],
[93.4753,26.8118],
[93.7295,26.8965],
[93.8142,26.9558],
[93.899,26.9813],
[93.9667,27.0236],
[94.0261,27.0829],
[94.2294,27.227],
[94.2718,27.2693],
[94.3057,27.3202],
[94.3819,27.3541],
[94.4328,27.3541],
[94.526,27.371],
[94.5768,27.4049],
[94.7293,27.4642],
[94.9073,27.6083],
[95.0005,27.6676],
[95.1021,27.7947],
[95.297,27.9472],
[95.3224,27.9896],
[95.3817,28.0235],
[95.458,28.0235],
[95.619,28.0404],
[95.7546,28.0404],
[95.9325,28.015],
[96.0172,27.9811],
[96.1189,27.9133],
[96.1782,27.7947],
[96.246,27.7608],
[96.2714,27.7608],
[96.3307,27.8625],
[96.3816,27.8879],
[96.4494,27.854],
[96.5256,27.7608],
[96.6822,27.8791],
[96.7601,27.9262],
[96.8453,27.9963],
[97.0695,28.0983],
[97.1307,28.1544],
[97.2021,28.1951],
[97.248,28.2867],
[97.3071,28.2342],
[97.3489,28.2227],
[97.3601,28.2449],
[97.4158,28.295],
[97.4691,28.2982],
[97.4964,28.4169],
[97.5589,28.5465],
[97.7061,28.519],
[97.7221,28.5015],
[97.7434,28.4203],
[97.8046,28.3458],
[97.837,28.3554],
[97.8533,28.3724],
[97.907,28.3744],
[98.0203,28.2693],
[98.0163,28.2157],
[98.1406,28.1526],
[98.1561,28.1214],
[98.1462,28.0083],
[98.1958,27.84],
[98.2303,27.7514],
[98.2921,27.6325],
[98.3032,27.5733],
[98.3199,27.5401],
[98.3474,27.5287],
[98.3771,27.5333],
[98.407,27.5569],
[98.4243,27.5908],
[98.4261,27.6328],
[98.4589,27.6725],
[98.6461,27.6053],
[98.697,27.5297],
[98.6858,27.4693],
[98.7032,27.3796],
[98.7321,27.3631],
[98.7355,27.3208],
[98.6912,27.208],
[98.7386,27.0056],
[98.7778,26.7917],
[98.7785,26.6396],
[98.7074,26.24],
[98.7311,26.1847],
[98.7086,26.1325],
[98.6766,26.1057],
[98.6553,26.1001],
[98.6479,26.1465],
[98.5753,26.1285],
[98.5753,26.0833],
[98.6058,25.9892],
[98.6553,25.9539],
[98.7143,25.8925],
[98.7104,25.856],
[98.6286,25.8033],
[98.5408,25.8449],
[98.4873,25.8007],
[98.4779,25.7642],
[98.4386,25.6911],
[98.383,25.5919],
[98.3614,25.5694],
[98.3076,25.5524],
[98.1911,25.6153],
[98.1674,25.5711],
[98.1355,25.4103],
[98.0651,25.3101],
[97.945,25.2162],
[97.9096,25.2118],
[97.8856,25.2472],
[97.8522,25.2669],
[97.8274,25.2509],
[97.8026,25.1634],
[97.7576,25.0914],
[97.7258,25.0647],
[97.7228,24.9814],
[97.7366,24.9189],
[97.6894,24.8344],
[97.5526,24.7399],
[97.5681,24.6654],
[97.5618,24.5651],
[97.543,24.4767],
[97.6651,24.4422],
[97.7128,24.3753],
[97.7592,24.2595],
[97.7484,24.1611],
[97.7264,24.1216],
[97.5372,23.9486],
[97.5476,23.93],
[97.5814,23.9211],
[97.6339,23.8884],
[97.6479,23.8599],
[97.8653,23.9805],
[97.9125,24.0267],
[98.0451,24.0833],
[98.1615,24.113],
[98.2208,24.1253],
[98.4466,24.135],
[98.547,24.1244],
[98.5865,24.0953],
[98.8576,24.1342],
[98.8899,24.1593],
[98.9051,24.1252],
[98.8975,24.1016],
[98.7537,23.9975],
[98.6799,23.9708],
[98.6875,23.8164],
[98.8172,23.7607],
[98.8528,23.6378],
[98.8066,23.5417],
[98.8279,23.4805],
[98.8627,23.4858],
[98.8874,23.473],
[98.9153,23.4125],
[98.9275,23.1892],
[99.1041,23.1039],
[99.2017,23.1003],
[99.2579,23.1176],
[99.3578,23.1342],
[99.5113,23.082],
[99.5648,22.9366],
[99.5514,22.9178],
[99.5144,22.9126],
[99.4425,22.87],
[99.3446,22.71],
[99.3862,22.5898],
[99.3846,22.5069],
[99.3672,22.4753],
[99.2932,22.4049],
[99.1678,22.1559],
[99.2411,22.1125],
[99.3651,22.0937],
[99.4096,22.1064],
[99.4655,22.1358],
[99.6606,22.087],
[99.6855,22.0754],
[99.7092,22.0397],
[99.7439,22.0737],
[99.9574,22.0502],
[99.9904,21.9644],
[99.946,21.8567],
[99.9422,21.8212],
[99.9777,21.7254],
[99.9992,21.6997],
[100.0842,21.6861],
[100.1404,21.635],
[100.1076,21.5851],
[100.1203,21.5145],
[100.1675,21.4611],
[100.2057,21.4355],
[100.3728,21.5373],
[100.4265,21.5294],
[100.4773,21.4621],
[100.5722,21.4524],
[100.7212,21.5111],
[100.8002,21.5881],
[100.8358,21.6467],
[101.099,21.769],
[101.1206,21.7705],
[101.1671,21.6337],
[101.1694,21.6037],
[101.1482,21.5726],
[101.1847,21.5589],
[101.2648,21.3744],
[101.2472,21.3333],
[101.2346,21.252],
[101.2536,21.2104],
[101.2919,21.1769],
[101.3382,21.1887],
[101.3875,21.2232],
[101.5086,21.2468],
[101.5705,21.2472],
[101.6089,21.2347],
[101.6771,21.1964],
[101.7326,21.1395],
[101.786,21.1445],
[101.8453,21.2161],
[101.849,21.2465],
[101.8065,21.2856],
[101.7687,21.2929],
[101.741,21.3139],
[101.7817,21.6535],
[101.7523,21.7321],
[101.7653,21.8344],
[101.6728,21.9333],
[101.6271,21.9704],
[101.5744,22.2092],
[101.6259,22.2807],
[101.6755,22.3884],
[101.6619,22.4115],
[101.671,22.4433],
[101.6914,22.4722],
[101.7415,22.4978],
[101.7735,22.4999],
[101.9253,22.4374],
[102.031,22.4549],
[102.1148,22.433],
[102.1469,22.3908],
[102.1675,22.4233],
[102.2697,22.4917],
[102.3889,22.6092],
[102.4541,22.7537],
[102.4744,22.7719],
[102.501,22.7718],
[102.7025,22.6842],
[102.87,22.5929],
[102.8806,22.5544],
[102.9289,22.4823],
[103.0304,22.4365],
[103.0647,22.4408],
[103.1669,22.5425],
[103.3337,22.7945],
[103.3597,22.7921],
[103.395,22.7719],
[103.4599,22.6392],
[103.5076,22.5915],
[103.5299,22.5859],
[103.5837,22.6486],
[103.5664,22.6982],
[103.6181,22.7794],
[103.6538,22.7829],
[103.7941,22.6514],
[103.8611,22.5772],
[103.9094,22.5378],
[103.9687,22.5039],
[104.0086,22.5232],
[104.0339,22.6864],
[104.0615,22.7406],
[104.1113,22.7981],
[104.2592,22.8279],
[104.2546,22.7737],
[104.2652,22.7349],
[104.3668,22.6874],
[104.4611,22.7419],
[104.5736,22.83],
[104.6513,22.8262],
[104.6735,22.8131],
[104.7319,22.8181],
[104.8522,22.9625],
[104.8245,23.0993],
[104.9075,23.1803],
[105.258,23.3044],
[105.3587,23.3242],
[105.3992,23.2807],
[105.5513,23.1624],
[105.5739,23.0633],
[105.6393,23.0629],
[105.7686,23.0201],
[105.8771,22.9125],
[105.9914,22.9382],
[106.0057,22.9528],
[106.0148,22.9825],
[106.0775,22.9908],
[106.1347,22.9886],
[106.1956,22.9739],
[106.2236,22.9556],
[106.2521,22.9042],
[106.2561,22.8721],
[106.2943,22.8571],
[106.3412,22.8533],
[106.4736,22.8906],
[106.5003,22.9057],
[106.522,22.9327],
[106.5925,22.9136],
[106.7029,22.8669],
[106.7783,22.8031],
[106.7875,22.7639],
[106.7175,22.6306],
[106.6071,22.6049],
[106.5517,22.4568],
[106.565,22.3493],
[106.5867,22.3354],
[106.6487,22.3288],
[106.6922,22.2163],
[106.6701,22.2042],
[106.6686,22.1747],
[106.6933,22.0308],
[106.7375,21.9997],
[106.8633,21.9792],
[107.0211,21.9392],
[107.044,21.9214],
[107.0425,21.8895],
[107.0158,21.8499],
[107.024,21.8206],
[107.2136,21.7115],
[107.2534,21.7102],
[107.2686,21.7242],
[107.2986,21.7294],
[107.3404,21.6814],
[107.3627,21.6053],
[107.5318,21.5864],
[107.6603,21.61],
[107.7101,21.6272],
[107.7831,21.6669],
[107.8608,21.6478],
[107.9475,21.5444],
[107.9689,21.5357],
[107.9914,21.5439],
[108.0167,21.5536],
[108.0775,21.5344],
[108.2044,21.5944],
[108.2358,21.5544],
[108.208,21.4992],
[108.2447,21.5144],
[108.2839,21.5399],
[108.3112,21.5825],
[108.32,21.6236],
[108.3139,21.6784],
[108.3336,21.69],
[108.4383,21.6568],
[108.3855,21.5911],
[108.3998,21.5539],
[108.4662,21.5587],
[108.5125,21.5901],
[108.5591,21.6837],
[108.493,21.7675],
[108.4429,21.8657],
[108.4525,21.9076],
[108.4692,21.9356],
[108.6047,21.9108],
[108.6308,21.8842],
[108.6062,21.8381],
[108.6503,21.723],
[108.7383,21.6072],
[108.7939,21.6398],
[108.8253,21.6252],
[108.8526,21.6301],
[108.8317,21.7016],
[108.8483,21.7614],
[108.7925,21.815],
[108.8702,21.7989],
[108.9208,21.7565],
[108.8859,21.7421],
[108.8664,21.7222],
[108.8565,21.6818],
[108.911,21.6161],
[108.974,21.6036],
[109.0414,21.6158],
[109.1375,21.5831],
[109.1499,21.5335],
[109.1415,21.5069],
[109.093,21.4819],
[109.068,21.4322],
[109.1428,21.3967],
[109.1647,21.4117],
[109.3389,21.4486],
[109.4268,21.4508],
[109.5344,21.495],
[109.5544,21.5206],
[109.5748,21.5773],
[109.5039,21.6764],
[109.5733,21.7233],
[109.5565,21.7025],
[109.5611,21.6735],
[109.6105,21.575],
[109.6605,21.5057],
[109.7325,21.4697],
[109.7703,21.4869],
[109.7494,21.5322],
[109.7423,21.5729],
[109.7436,21.5794],
[109.7634,21.5798],
[109.8228,21.4606],
[109.8628,21.4797],
[109.9241,21.4742],
[109.9411,21.4469],
[109.9047,21.388],
[109.8566,21.3594],
[109.7691,21.3347],
[109.6739,21.1289],
[109.6917,21.0183],
[109.6629,20.9242],
[109.666,20.8657],
[109.7005,20.8172],
[109.7511,20.6411],
[109.8508,20.5044],
[109.9504,20.4483],
[109.984,20.4481],
[110.0069,20.4318],
[110.0091,20.4067],
[109.9779,20.3578],
[109.9512,20.3824],
[109.8828,20.36],
[109.9244,20.2336],
[109.9798,20.2919],
[110.0419,20.2978],
[110.115,20.2404],
[110.2789,20.2461],
[110.4053,20.3033],
[110.5145,20.4296],
[110.5274,20.4862],
[110.5072,20.5278],
[110.4735,20.5708],
[110.4433,20.5663],
[110.4103,20.5806],
[110.3875,20.6043],
[110.3905,20.609],
[110.3239,20.64],
[110.3094,20.7436],
[110.3424,20.7975],
[110.3533,20.7354],
[110.3789,20.7103],
[110.4008,20.7343],
[110.4011,20.7832],
[110.3755,20.8408],
[110.3177,20.8538],
[110.2405,20.8322],
[110.1594,20.8438],
[110.1491,20.9322],
[110.1536,20.9853],
[110.2003,21.0478],
[110.3303,21.1119],
[110.3906,21.163],
[110.4089,21.2279],
[110.3755,21.2778],
[110.3725,21.3181],
[110.3944,21.3732],
[110.4246,21.3722],
[110.4203,21.2631],
[110.4327,21.2175],
[110.4536,21.2086],
[110.4835,21.2208],
[110.5328,21.2114],
[110.6355,21.239],
[110.6121,21.3272],
[110.6277,21.3694],
[110.7618,21.4262],
[110.7446,21.4033],
[110.6886,21.3906],
[110.6324,21.3586],
[110.6495,21.2552],
[110.6929,21.3326],
[110.7361,21.3722],
[110.7982,21.3996],
[110.843,21.3842],
[110.8769,21.3837],
[111.0003,21.4256],
[111.0596,21.4797],
[111.0183,21.4673],
[110.9998,21.4444],
[110.978,21.4456],
[110.9926,21.514],
[111.0285,21.5253],
[111.0746,21.504],
[111.0955,21.4671],
[111.1467,21.4651],
[111.2969,21.4983],
[111.3792,21.5294],
[111.4735,21.5127],
[111.644,21.5268],
[111.6749,21.5837],
[111.6992,21.6114],
[111.7832,21.6126],
[111.7704,21.7077],
[111.7508,21.7269],
[111.7014,21.752],
[111.6762,21.7782],
[111.7958,21.7369],
[111.8239,21.72],
[111.8337,21.683],
[111.8585,21.6733],
[111.8872,21.6824],
[111.9669,21.7514],
[111.9744,21.7714],
[111.9297,21.7931],
[111.899,21.826],
[111.8921,21.9161],
[111.9137,21.9113],
[111.9521,21.8528],
[112.2472,21.7062],
[112.2819,21.7014],
[112.3354,21.718],
[112.478,21.8025],
[112.5667,21.7637],
[112.5928,21.77],
[112.631,21.7914],
[112.6933,21.885],
[112.7533,21.9382],
[112.824,21.9647],
[112.8461,21.951],
[112.8657,21.8969],
[112.8919,21.8596],
[112.94,21.8693],
[112.9786,21.8964],
[113.0044,21.9389],
[112.9873,22.0893],
[113.0128,22.1294],
[113.0848,22.2049],
[113.1068,22.2124],
[113.1256,22.1522],
[113.116,22.0901],
[113.2226,22.0407],
[113.2526,22.0625],
[113.249,22.0974],
[113.2558,22.1242],
[113.3027,22.1773],
[113.3351,22.1795],
[113.3564,22.1665],
[113.3868,22.1796],
[113.2346,22.4172],
[113.16,22.4787],
[113.1547,22.5064],
[113.1687,22.567],
[113.2133,22.4969],
[113.2675,22.3828],
[113.4334,22.1785],
[113.4567,22.1679],
[113.5146,22.1789],
[113.5317,22.1947],
[113.5527,22.187],
[113.5544,22.2127],
[113.5794,22.2499],
[113.5899,22.3582],
[113.5381,22.3913],
[113.5334,22.4225],
[113.5583,22.4783],
[113.5648,22.5494],
[113.5417,22.6169],
[113.5,22.6785],
[113.4378,22.7378],
[113.4917,22.7709],
[113.4533,22.7917],
[113.3629,22.8799],
[113.378,22.9104],
[113.4213,22.9288],
[113.4799,22.9172],
[113.4957,23.0042],
[113.4793,23.0508],
[113.6836,23.1527],
[113.7122,23.1553],
[113.8219,23.1172],
[113.7064,23.1312],
[113.6123,23.1032],
[113.5471,23.0753],
[113.5253,23.0503],
[113.5233,23.0166],
[113.5463,22.9833],
[113.6025,22.9912],
[113.5906,22.8803],
[113.606,22.8346],
[113.7544,22.7518],
[113.8375,22.5611],
[113.8608,22.4744],
[113.9489,22.5219],
[114.0011,22.5208],
[114.0337,22.5087],
[113.8969,22.4053],
[113.9056,22.3674],
[113.9322,22.3544],
[114.0255,22.3519],
[114.198,22.3181],
[114.2961,22.2606],
[114.3066,22.2854],
[114.2743,22.3243],
[114.2621,22.3596],
[114.2926,22.3818],
[114.3825,22.3714],
[114.3885,22.4299],
[114.3125,22.4746],
[114.2394,22.4308],
[114.2194,22.4744],
[114.2223,22.55],
[114.2398,22.5659],
[114.3017,22.5936],
[114.3917,22.61],
[114.4673,22.5509],
[114.4747,22.525],
[114.5183,22.4744],
[114.6136,22.5042],
[114.5978,22.5385],
[114.5258,22.585],
[114.501,22.6533],
[114.5208,22.6997],
[114.5594,22.7342],
[114.7782,22.814],
[114.8124,22.784],
[114.7837,22.7568],
[114.7443,22.7456],
[114.7239,22.7249],
[114.718,22.6403],
[114.7387,22.5867],
[114.8487,22.5872],
[114.8794,22.5701],
[114.875,22.5338],
[114.901,22.5464],
[114.9367,22.65],
[114.8889,22.7028],
[114.9433,22.7439],
[115.1614,22.8083],
[115.2405,22.8275],
[115.223,22.7865],
[115.3759,22.6818],
[115.5367,22.6589],
[115.5625,22.6819],
[115.5355,22.8328],
[115.565,22.8547],
[115.6403,22.8842],
[115.6694,22.8778],
[115.7839,22.7972],
[115.7978,22.7392],
[115.8622,22.7892],
[116.0503,22.8525],
[116.0779,22.8325],
[116.1326,22.8474],
[116.2269,22.9308],
[116.3253,22.9383],
[116.3791,22.9264],
[116.4817,22.939],
[116.5369,23.0065],
[116.5139,23.2108],
[116.7488,23.224],
[116.7803,23.2093],
[116.7871,23.2367],
[116.7415,23.3184],
[116.6231,23.3206],
[116.5913,23.3113],
[116.5509,23.3367],
[116.529,23.3639],
[116.5222,23.3867],
[116.5322,23.4202],
[116.5586,23.3949],
[116.6325,23.3617],
[116.7603,23.355],
[116.8247,23.4183],
[116.8592,23.4644],
[116.8796,23.5517],
[116.8748,23.5975],
[116.9179,23.6592],
[117.0342,23.6568],
[117.1244,23.5914],
[117.1957,23.6244],
[117.2553,23.6644],
[117.2669,23.7297],
[117.3047,23.7583],
[117.4772,23.8403],
[117.6147,23.8636],
[117.7097,24.0417],
[117.7626,24.06],
[117.7948,24.0037],
[117.7704,23.9883],
[117.728,23.9415],
[117.7353,23.9003],
[117.7633,23.9172],
[117.96,24.1536],
[118.023,24.205],
[118.1237,24.2587],
[118.1194,24.2925],
[118.095,24.3428],
[118.0371,24.4035],
[117.8967,24.3836],
[117.8346,24.4181],
[117.7947,24.4602],
[117.8236,24.4792],
[117.8492,24.4851],
[117.8928,24.4796],
[117.9605,24.4503],
[118.0199,24.4402],
[118.0514,24.5172],
[117.9782,24.5413],
[117.9825,24.5643],
[118.0436,24.6158],
[118.1688,24.6819],
[118.193,24.6497],
[118.195,24.6106],
[118.2397,24.5364],
[118.3269,24.5839],
[118.44,24.6283],
[118.5597,24.5761],
[118.5535,24.5124],
[118.6228,24.5439],
[118.6575,24.575],
[118.7631,24.7567],
[118.7078,24.8024],
[118.6265,24.7712],
[118.5729,24.8829],
[118.6668,24.9472],
[118.7062,24.9314],
[118.7255,24.8875],
[118.7057,24.8736],
[118.694,24.8517],
[118.7172,24.8431],
[118.985,24.9269],
[119.0114,24.9476],
[118.9866,24.9719],
[118.8686,25.0439],
[118.8471,25.083],
[118.8603,25.1012],
[118.9391,25.1063],
[118.9678,25.1773],
[118.9126,25.2186],
[118.8824,25.2193],
[118.8749,25.2426],
[118.9929,25.2817],
[119.0614,25.2731],
[119.0686,25.206],
[119.055,25.1749],
[119.0319,25.1644],
[119.0351,25.1269],
[119.0921,25.1056],
[119.1461,25.1183],
[119.2726,25.1721],
[119.3526,25.2532],
[119.2811,25.3243],
[119.2425,25.3247],
[119.17,25.3442],
[119.1064,25.3971],
[119.1053,25.421],
[119.1692,25.455],
[119.2221,25.4727],
[119.2561,25.5008],
[119.3022,25.5647],
[119.3149,25.6065],
[119.351,25.6029],
[119.3792,25.5858],
[119.4233,25.5108],
[119.5047,25.4747],
[119.5807,25.4182],
[119.5917,25.3606],
[119.609,25.3397],
[119.6454,25.3533],
[119.6446,25.4165],
[119.5529,25.5636],
[119.5055,25.5574],
[119.4803,25.5728],
[119.4576,25.6169],
[119.4522,25.6822],
[119.5133,25.6867],
[119.5807,25.68],
[119.6211,25.7567],
[119.6003,25.809],
[119.5914,25.8636],
[119.6722,25.9294],
[119.7058,25.9907],
[119.6828,26.0135],
[119.5721,26.0431],
[119.5169,26.0402],
[119.5011,26.0225],
[119.4917,25.9947],
[119.4475,25.9603],
[119.354,25.9379],
[119.2567,25.9631],
[119.0975,26.1404],
[119.1986,26.1083],
[119.3414,26.0442],
[119.4253,25.9969],
[119.5075,26.0558],
[119.593,26.1739],
[119.6354,26.2565],
[119.6689,26.2818],
[119.768,26.2896],
[119.7928,26.2806],
[119.7932,26.3033],
[119.8169,26.3226],
[119.8501,26.3228],
[119.8841,26.3106],
[119.9489,26.3678],
[119.8187,26.4186],
[119.7564,26.3658],
[119.7374,26.332],
[119.6894,26.3179],
[119.658,26.3386],
[119.5655,26.4433],
[119.5775,26.4739],
[119.653,26.4928],
[119.7661,26.4076],
[119.7886,26.4092],
[119.8204,26.4422],
[119.7803,26.5728],
[119.7371,26.6081],
[119.6657,26.6101],
[119.5997,26.5739],
[119.5526,26.6175],
[119.5339,26.6478],
[119.5503,26.7562],
[119.5767,26.7856],
[119.6184,26.7939],
[119.6308,26.7511],
[119.7037,26.6943],
[119.7284,26.7112],
[119.6875,26.7403],
[119.6762,26.7721],
[119.688,26.8127],
[119.7879,26.7961],
[119.7915,26.6921],
[119.8668,26.6489],
[119.8926,26.6694],
[119.8922,26.6969],
[119.923,26.7898],
[119.9647,26.795],
[120.0733,26.7882],
[119.976,26.6522],
[119.9479,26.6262],
[119.9027,26.6215],
[119.8542,26.593],
[119.8329,26.5599],
[119.8357,26.5273],
[119.8603,26.5178],
[119.8866,26.5206],
[119.9934,26.5993],
[120.0969,26.6219],
[120.128,26.6446],
[120.1042,26.7939],
[120.0585,26.819],
[120.0336,26.8189],
[120.0194,26.84],
[120.0332,26.8981],
[120.1371,26.9256],
[120.2042,26.9161],
[120.2358,26.9819],
[120.2364,27.0611],
[120.2533,27.1292],
[120.2774,27.1103],
[120.3853,27.0947],
[120.4211,27.1476],
[120.3289,27.2294],
[120.2544,27.2519],
[120.2229,27.2454],
[120.2025,27.2203],
[120.1761,27.2228],
[120.1896,27.2828],
[120.2693,27.3186],
[120.3102,27.3111],
[120.3383,27.2414],
[120.4222,27.1745],
[120.4197,27.2142],
[120.4511,27.2217],
[120.4712,27.1791],
[120.5075,27.2078],
[120.5255,27.2292],
[120.5494,27.3242],
[120.5833,27.3894],
[120.6321,27.3715],
[120.6655,27.4508],
[120.6397,27.496],
[120.6087,27.5044],
[120.5861,27.5372],
[120.5812,27.5932],
[120.621,27.5971],
[120.6553,27.6167],
[120.6745,27.6453],
[120.6947,27.7222],
[120.7953,27.8465],
[120.84,27.8723],
[120.8396,27.9484],
[120.6133,28.0186],
[120.5908,28.0794],
[120.6783,28.0397],
[120.8319,27.9944],
[120.9353,27.9822],
[120.9542,27.9925],
[121.1039,28.2061],
[121.1148,28.2412],
[121.1022,28.2908],
[121.1651,28.3828],
[121.1855,28.3797],
[121.2097,28.3575],
[121.2482,28.2754],
[121.2603,28.2048],
[121.2836,28.1769],
[121.3419,28.1389],
[121.3744,28.1883],
[121.4083,28.3036],
[121.4553,28.3381],
[121.5257,28.3314],
[121.574,28.3029],
[121.58,28.2756],
[121.6417,28.3472],
[121.5928,28.3928],
[121.5236,28.5003],
[121.5225,28.5489],
[121.4844,28.6699],
[121.4654,28.6822],
[121.41,28.6903],
[121.2908,28.7353],
[121.159,28.8065],
[121.1464,28.8421],
[121.3011,28.7433],
[121.3738,28.7103],
[121.5011,28.6943],
[121.6113,28.728],
[121.6594,28.7967],
[121.6596,28.8319],
[121.5881,28.8895],
[121.5341,28.8978],
[121.5122,28.9094],
[121.4908,28.9359],
[121.5026,28.9529],
[121.5394,28.9508],
[121.6822,28.9165],
[121.7133,28.9486],
[121.6914,29.0219],
[121.6278,29.1011],
[121.5639,29.1142],
[121.4683,29.0958],
[121.4391,29.1078],
[121.425,29.1256],
[121.4135,29.1634],
[121.505,29.2056],
[121.5611,29.2911],
[121.6572,29.1886],
[121.6768,29.1835],
[121.7444,29.1973],
[121.7692,29.2731],
[121.764,29.3635],
[121.7969,29.3724],
[121.8103,29.2708],
[121.8027,29.2042],
[121.8119,29.1839],
[121.8475,29.1622],
[121.9336,29.1953],
[121.9869,29.255],
[121.9679,29.281],
[121.944,29.266],
[121.9119,29.2708],
[121.8975,29.2921],
[121.8893,29.3867],
[121.9121,29.4201],
[121.9744,29.5892],
[121.9386,29.6239],
[121.9058,29.6353],
[121.7901,29.6042],
[121.7383,29.5501],
[121.8236,29.5436],
[121.8487,29.5289],
[121.7988,29.4774],
[121.7467,29.4712],
[121.7565,29.524],
[121.7118,29.5344],
[121.4675,29.4594],
[121.4397,29.4169],
[121.4289,29.4615],
[121.4483,29.5117],
[121.4729,29.5358],
[121.5021,29.5453],
[121.523,29.5169],
[121.6918,29.5608],
[121.8671,29.7649],
[121.9566,29.8128],
[122.0576,29.8474],
[122.1196,29.8821],
[122.1045,29.9008],
[122.0266,29.8816],
[121.939,29.8814],
[121.8008,29.9469],
[121.6778,29.9631],
[121.6125,30.0136],
[121.4836,30.1853],
[121.4064,30.2479],
[121.3505,30.2786],
[121.2808,30.3046],
[121.1705,30.3012],
[121.0721,30.2591],
[120.7761,30.0911],
[120.7916,30.0646],
[120.675,30.0825],
[120.6151,30.1105],
[120.5778,30.1651],
[120.538,30.2772],
[120.5258,30.3],
[120.5082,30.3103],
[120.4548,30.3065],
[120.3053,30.2222],
[120.15,30.1969],
[120.3919,30.3717],
[120.4586,30.393],
[120.6492,30.3976],
[120.7147,30.3749],
[120.751,30.3383],
[120.7955,30.3287],
[120.8144,30.3356],
[120.8753,30.3639],
[120.9369,30.4188],
[120.9322,30.4708],
[120.961,30.5379],
[120.9915,30.5689],
[121.22,30.6718],
[121.3344,30.7028],
[121.3544,30.7169],
[121.393,30.7679],
[121.4691,30.8164],
[121.5594,30.8436],
[121.6983,30.8631],
[121.7928,30.8515],
[121.8469,30.8531],
[121.8747,30.8707],
[121.8917,30.9279],
[121.8828,30.9799],
[121.7565,31.2112],
[121.7098,31.2737],
[121.6681,31.3089],
[121.4511,31.4186],
[121.3251,31.4922],
[121.2653,31.5782],
[121.2254,31.6207],
[121.084,31.7072],
[120.9618,31.7544],
[120.8793,31.7493],
[120.854,31.7544],
[120.7489,31.7992],
[120.7196,31.8194],
[120.7211,31.8529],
[120.7383,31.8325],
[120.7689,31.8168],
[120.7897,31.8743],
[120.7325,31.9701],
[120.7026,31.9883],
[120.4992,32.0211],
[120.4336,32.0158],
[120.3778,31.9547],
[120.2255,31.9032],
[120.1364,31.9039],
[119.9958,31.9455],
[119.885,31.9919],
[119.8702,32.0056],
[119.8726,32.0668],
[119.768,32.1198],
[119.7645,32.1561],
[119.7872,32.188],
[119.7283,32.2105],
[119.6941,32.2363],
[119.6746,32.2258],
[119.6492,32.1928],
[119.6131,32.1906],
[119.6317,32.2628],
[119.6808,32.303],
[119.7618,32.3273],
[119.8267,32.3064],
[119.8617,32.2746],
[119.9003,32.1953],
[119.9046,32.1473],
[119.9181,32.1097],
[119.9642,32.0458],
[120.0181,31.9824],
[120.099,31.9456],
[120.2175,31.9336],
[120.2727,31.9467],
[120.3544,32.0172],
[120.472,32.0924],
[120.5074,32.1018],
[120.6019,32.0936],
[120.737,32.056],
[120.8128,32.0175],
[120.8836,31.9483],
[120.9444,31.8664],
[121.0702,31.8599],
[121.2915,31.8703],
[121.4314,31.8337],
[121.4821,31.8129],
[121.647,31.7128],
[121.8275,31.6783],
[121.8737,31.6784],
[121.8935,31.6932],
[121.8965,31.7415],
[121.829,31.9162],
[121.7389,31.9986],
[121.6608,32.0544],
[121.5603,32.1031],
[121.52,32.116],
[121.4412,32.1133],
[121.3803,32.2331],
[121.4194,32.2438],
[121.4071,32.3669],
[121.3348,32.4296],
[121.2608,32.4669],
[121.1003,32.5161],
[120.9308,32.5889],
[120.8375,32.6389],
[120.8276,32.6572],
[120.8264,32.6965],
[120.8792,32.7969],
[120.895,32.8953],
[120.8858,32.975],
[120.7865,33.1657],
[120.662,33.3295],
[120.649,33.4207],
[120.6361,33.4558],
[120.6119,33.4871],
[120.5919,33.4992],
[120.548,33.5579],
[120.4983,33.6572],
[120.4808,33.7619],
[120.3933,33.9594],
[120.3408,34.1233],
[120.2487,34.3115],
[119.9243,34.4564],
[119.8326,34.4617],
[119.652,34.5281],
[119.5349,34.6075],
[119.4623,34.6842],
[119.4771,34.704],
[119.4576,34.7335],
[119.4378,34.7461],
[119.3683,34.7633],
[119.2858,34.7478],
[119.2233,34.7578],
[119.1975,34.7697],
[119.1761,34.885],
[119.2004,35.0296],
[119.2118,35.054],
[119.2349,35.0664],
[119.2803,35.0682],
[119.3492,35.094],
[119.3703,35.1125],
[119.3901,35.2243],
[119.4014,35.2489],
[119.4517,35.31],
[119.5147,35.333],
[119.5497,35.3772],
[119.6208,35.5086],
[119.6475,35.5789],
[119.7257,35.6179],
[119.8286,35.6217],
[119.9029,35.6496],
[119.9067,35.7428],
[120.0993,35.9003],
[120.2378,35.9594],
[120.1803,35.9797],
[120.0909,36.1082],
[120.084,36.1345],
[120.0889,36.2],
[120.1619,36.2089],
[120.2724,36.2027],
[120.287,36.2619],
[120.3078,36.2634],
[120.3532,36.1961],
[120.3547,36.1729],
[120.3161,36.0917],
[120.2919,36.0607],
[120.3436,36.0419],
[120.4179,36.0552],
[120.6956,36.1407],
[120.6712,36.2625],
[120.6829,36.3808],
[120.7062,36.4228],
[120.7546,36.4565],
[120.7797,36.4626],
[120.8182,36.4592],
[120.87,36.3743],
[120.898,36.4019],
[120.96,36.5264],
[120.9406,36.5507],
[120.8583,36.6003],
[120.8359,36.6001],
[120.807,36.5731],
[120.7953,36.5479],
[120.7735,36.5367],
[120.7382,36.5554],
[120.7525,36.5944],
[120.8205,36.6453],
[120.8758,36.6392],
[120.9307,36.6193],
[120.9522,36.5964],
[121.0157,36.581],
[121.0701,36.6046],
[121.1111,36.6392],
[121.1755,36.6775],
[121.3728,36.7228],
[121.4484,36.7727],
[121.4894,36.8211],
[121.5853,36.8442],
[121.6066,36.8361],
[121.5447,36.7915],
[121.5112,36.7793],
[121.5225,36.7498],
[121.5944,36.7589],
[121.7372,36.8389],
[121.9383,36.9335],
[121.9191,36.9785],
[121.9566,37.0003],
[122.045,36.985],
[122.1647,36.9442],
[122.1753,36.8736],
[122.1923,36.843],
[122.3125,36.8233],
[122.3544,36.8278],
[122.5047,36.8936],
[122.5233,36.9099],
[122.5392,37.0198],
[122.4104,36.9996],
[122.4005,37.0258],
[122.4524,37.1436],
[122.4675,37.1058],
[122.4774,37.1312],
[122.4979,37.1487],
[122.5347,37.15],
[122.5972,37.21],
[122.5586,37.3962],
[122.1814,37.4183],
[122.1618,37.426],
[122.1353,37.4644],
[122.127,37.4933],
[122.1501,37.5121],
[122.1282,37.5526],
[122.0678,37.5367],
[122.0189,37.5128],
[121.9758,37.4744],
[121.9405,37.4611],
[121.6947,37.458],
[121.6694,37.4396],
[121.58,37.4246],
[121.4785,37.4665],
[121.3828,37.5536],
[121.1611,37.5792],
[121.1385,37.5967],
[121.1275,37.6533],
[120.9603,37.7569],
[120.9352,37.781],
[120.9324,37.8115],
[120.878,37.8283],
[120.7371,37.835],
[120.7108,37.8261],
[120.661,37.7881],
[120.5067,37.7483],
[120.3489,37.6853],
[120.3094,37.6625],
[120.322,37.6439],
[120.3078,37.6029],
[120.1417,37.4761],
[120.0589,37.4319],
[119.9947,37.4164],
[119.8529,37.3523],
[119.894,37.2632],
[119.8861,37.24],
[119.7672,37.1514],
[119.6428,37.1322],
[119.5467,37.1378],
[119.3958,37.1228],
[119.2328,37.1436],
[119.1589,37.1711],
[118.9711,37.2708],
[118.9408,37.3425],
[118.9378,37.3814],
[118.9633,37.5758],
[118.9833,37.6162],
[119.0379,37.6665],
[119.0491,37.7622],
[119.0355,37.8783],
[118.9517,38.0385],
[118.8378,38.1529],
[118.7944,38.1589],
[118.5992,38.1108],
[118.4836,38.1005],
[118.4521,38.1134],
[118.3572,38.1292],
[118.1105,38.1464],
[118.0281,38.1672],
[117.8839,38.2444],
[117.8032,38.2739],
[117.6722,38.3867],
[117.5536,38.5925],
[117.5364,38.6756],
[117.5853,38.8028],
[117.6508,38.8983],
[117.7232,39.0244],
[117.7275,39.07],
[117.7439,39.105],
[117.7994,39.1533],
[117.889,39.1985],
[118.0553,39.223],
[118.1501,39.1911],
[118.2167,39.1328],
[118.2352,39.107],
[118.2416,39.0738],
[118.3273,39.0408],
[118.3978,39.0655],
[118.5081,39.123],
[118.5441,39.1621],
[118.6091,39.1893],
[118.6619,39.1767],
[118.7184,39.1495],
[118.7551,39.144],
[118.8408,39.1792],
[118.9675,39.1901],
[118.9428,39.1615],
[118.9155,39.1485],
[118.899,39.1239],
[118.9715,39.1569],
[119.1328,39.3186],
[119.2361,39.385],
[119.2557,39.4067],
[119.2558,39.5511],
[119.3395,39.7121],
[119.5264,39.8724],
[119.6575,39.93],
[119.8514,39.9822],
[119.9464,40.0406],
[120.4468,40.1961],
[120.498,40.2386],
[120.5401,40.3926],
[120.6794,40.5125],
[120.8258,40.6611],
[120.8444,40.6711],
[120.9286,40.675],
[121.0324,40.711],
[120.9961,40.7302],
[120.9525,40.7276],
[120.9364,40.7502],
[120.9698,40.8153],
[121.0016,40.8294],
[121.0817,40.8394],
[121.1089,40.8714],
[121.1775,40.9219],
[121.3637,40.9314],
[121.5239,40.888],
[121.5589,40.8413],
[121.6147,40.8336],
[121.7514,40.8408],
[122.0521,40.7387],
[122.1314,40.68],
[122.2825,40.5336],
[122.2987,40.5056],
[122.2878,40.4719],
[122.1058,40.2439],
[121.881,40.0031],
[121.7814,39.9205],
[121.7573,39.9121],
[121.6969,39.9257],
[121.54,39.8612],
[121.4683,39.8114],
[121.4554,39.7436],
[121.5039,39.6844],
[121.5342,39.6857],
[121.533,39.6232],
[121.4619,39.6267],
[121.2991,39.5817],
[121.2283,39.5285],
[121.3097,39.4978],
[121.3536,39.5221],
[121.4317,39.5117],
[121.4638,39.4644],
[121.4839,39.3925],
[121.5092,39.3674],
[121.5339,39.3594],
[121.7511,39.3517],
[121.5994,39.2186],
[121.5961,39.1838],
[121.6439,39.1578],
[121.6879,39.1183],
[121.6794,39.0901],
[121.6515,39.0736],
[121.5403,39.0472],
[121.2185,38.9342],
[121.1861,38.9478],
[121.1275,38.9437],
[121.0887,38.9122],
[121.1216,38.7628],
[121.1383,38.7322],
[121.1873,38.7191],
[121.2398,38.7715],
[121.3361,38.8125],
[121.3636,38.8158],
[121.4119,38.8033],
[121.4477,38.8064],
[121.6982,38.8611],
[121.7104,38.8901],
[121.6549,38.9257],
[121.6436,38.9522],
[121.648,38.9964],
[121.724,39.0303],
[121.9136,39.0472],
[121.9467,39.0352],
[122.1314,39.1411],
[122.2878,39.3458],
[122.3986,39.4117],
[122.4585,39.41],
[122.7744,39.5522],
[122.8144,39.5819],
[122.9656,39.6092],
[122.9958,39.6357],
[123.2167,39.6739],
[123.2638,39.6993],
[123.2485,39.7232],
[123.21,39.7489],
[123.2422,39.8143],
[123.378,39.7775],
[123.4069,39.7344],
[123.5511,39.7686],
[123.698,39.8317],
[123.9853,39.81],
[124.128,39.8278],
[124.2917,39.9278],
[124.3444,39.9819],
[124.3628,40.0096],
[124.3569,40.0696],
[124.368,40.0944],
[124.5547,40.2422],
[124.6269,40.2836],
[124.711,40.307],
[124.8851,40.4704],
[124.9622,40.4592],
[125.04,40.4607],
[125.0247,40.4942],
[125.0428,40.5375],
[125.2861,40.6475],
[125.315,40.65],
[125.3691,40.64],
[125.4127,40.6538],
[125.4575,40.7033],
[125.6039,40.7558],
[125.6958,40.8561],
[125.9325,40.8776],
[126.0118,40.8969],
[126.1247,41.0347],
[126.2792,41.1528],
[126.31,41.2144],
[126.3669,41.2757],
[126.4561,41.3572],
[126.484,41.3667],
[126.5103,41.39],
[126.5832,41.5708],
[126.568,41.5897],
[126.5661,41.6118],
[126.6455,41.6605],
[126.7128,41.6911],
[126.7955,41.708],
[126.8479,41.7358],
[126.9047,41.7922],
[126.9276,41.7961],
[127.048,41.7083],
[127.0608,41.6911],
[127.057,41.6435],
[127.135,41.5936],
[127.1594,41.53],
[127.2708,41.4725],
[127.6208,41.4181],
[127.6942,41.4131],
[127.8353,41.41],
[127.928,41.4473],
[128.0117,41.4158],
[128.0441,41.3894],
[128.1143,41.3718],
[128.1529,41.3812],
[128.1927,41.4075],
[128.2225,41.4411],
[128.2822,41.5303],
[128.3002,41.5828],
[128.2694,41.6369],
[128.1557,41.7146],
[128.0984,41.803],
[128.0608,41.9105],
[128.0501,41.9816],
[128.0566,42.0012],
[128.2755,42.0383],
[128.3361,42.0397],
[128.4225,42.0286],
[128.4729,41.9976],
[128.4971,41.9955],
[128.5703,42.0003],
[128.6831,42.021],
[128.9269,42.0274],
[128.9493,42.0521],
[128.9581,42.0784],
[129.0154,42.0946],
[129.1144,42.1394],
[129.2112,42.2213],
[129.2094,42.2658],
[129.2461,42.3758],
[129.3493,42.4462],
[129.4451,42.4328],
[129.5147,42.3869],
[129.6955,42.4358],
[129.7166,42.4525],
[129.7283,42.4754],
[129.7329,42.5222],
[129.7255,42.5475],
[129.7533,42.7139],
[129.847,42.9425],
[129.8777,42.9918],
[129.9046,43.0046],
[129.9292,43.0061],
[130.0341,42.958],
[130.2514,42.8879],
[130.2503,42.8317],
[130.2362,42.7862],
[130.2468,42.7142],
[130.3284,42.6418],
[130.5142,42.5681],
[130.5675,42.443],
[130.6044,42.4219],
[130.5803,42.4811],
[130.6187,42.5854],
[130.6052,42.6197],
[130.585,42.645],
[130.5361,42.682],
[130.4711,42.6792],
[130.4111,42.7031],
[130.4327,42.7449],
[130.638,42.8317],
[130.7955,42.8719],
[130.8186,42.8761],
[130.8872,42.8518],
[131.0214,42.8571],
[131.1285,42.9164],
[131.1334,42.9397],
[131.104,42.9822],
[131.1062,43.0389],
[131.1919,43.1858],
[131.2642,43.2703],
[131.3104,43.3896],
[131.301,43.4571],
[131.1912,43.5362],
[131.1991,43.8189],
[131.2311,43.9739],
[131.2444,44.0214],
[131.298,44.0519],
[131.0955,44.6914],
[131.0556,44.7535],
[131.0007,44.7819],
[130.953,44.8365],
[131.0677,44.9097],
[131.1245,44.9274],
[131.1493,44.9281],
[131.1771,44.9119],
[131.2125,44.9105],
[131.2862,44.9318],
[131.3411,44.971],
[131.4691,44.9739],
[131.6464,45.1081],
[131.6528,45.1337],
[131.7033,45.2161],
[131.8362,45.3343],
[131.8684,45.3458],
[131.8958,45.3376],
[131.9237,45.2861],
[131.9924,45.2414],
[132.7994,45.065],
[132.9315,45.0214],
[133.0253,45.0569],
[133.1175,45.1246],
[133.1262,45.1647],
[133.0992,45.2289],
[133.1019,45.2944],
[133.1302,45.4146],
[133.1491,45.4508],
[133.1922,45.5038],
[133.2441,45.5161],
[133.3822,45.57],
[133.4702,45.6246],
[133.4875,45.6783],
[133.4761,45.8235],
[133.5211,45.8834],
[133.5506,45.8846],
[133.5795,45.8713],
[133.6602,45.9352],
[133.7238,46.069],
[133.7447,46.1558],
[133.8302,46.195],
[133.9016,46.2536],
[133.9297,46.3819],
[133.9028,46.4212],
[133.8505,46.4432],
[133.8472,46.4789],
[133.9089,46.5781],
[133.9709,46.6113],
[134.0194,46.6667],
[134.0433,46.7668],
[134.0394,46.8605],
[134.0658,46.9542],
[134.1136,47.0558],
[134.1371,47.0767],
[134.1872,47.0839],
[134.2152,47.0997],
[134.2228,47.13],
[134.1493,47.2486],
[134.1825,47.3233],
[134.2958,47.4136],
[134.3147,47.4211],
[134.3875,47.4308],
[134.4858,47.4296],
[134.5548,47.4691],
[134.7608,47.7003],
[134.7685,47.7373],
[134.6844,47.8009],
[134.5937,47.9111],
[134.5576,47.9921],
[134.5662,48.0321],
[134.5818,48.0604],
[134.6016,48.0762],
[134.661,48.1006],
[134.6862,48.1828],
[134.6808,48.2147],
[134.7169,48.2658],
[134.4827,48.3503],
[134.4153,48.3911],
[134.2069,48.3425],
[134.0393,48.3231],
[134.011,48.3057],
[133.8847,48.2642],
[133.7514,48.2497],
[133.5963,48.174],
[133.5408,48.0989],
[133.5152,48.0759],
[133.4843,48.0689],
[133.4287,48.0854],
[133.2722,48.1042],
[133.1941,48.1094],
[133.0827,48.0989],
[132.8639,47.9944],
[132.6621,47.8719],
[132.5779,47.7333],
[132.5211,47.7103],
[132.3411,47.7425],
[132.2897,47.7364],
[132.1216,47.6928],
[131.915,47.67],
[131.8152,47.6747],
[131.618,47.6639],
[131.5471,47.6975],
[131.535,47.7192],
[131.4167,47.7386],
[131.2682,47.7303],
[131.0859,47.6722],
[130.9922,47.6872],
[130.94,47.7203],
[130.9351,47.7408],
[130.9461,47.7978],
[130.93,47.8386],
[130.8837,47.9062],
[130.6796,48.0476],
[130.6598,48.1084],
[130.6784,48.139],
[130.7539,48.1925],
[130.8315,48.2939],
[130.824,48.3268],
[130.7375,48.4294],
[130.6094,48.52],
[130.5236,48.6058],
[130.6338,48.8105],
[130.6705,48.8397],
[130.674,48.8604],
[130.6353,48.875],
[130.5643,48.8564],
[130.509,48.8515],
[130.4847,48.861],
[130.4515,48.8924],
[130.418,48.8961],
[130.2643,48.8603],
[130.2246,48.8646],
[129.9076,49.0417],
[129.9127,49.0717],
[129.7736,49.1702],
[129.7463,49.1816],
[129.7321,49.2023],
[129.7366,49.2277],
[129.7255,49.2622],
[129.686,49.2789],
[129.6052,49.2683],
[129.5524,49.2878],
[129.5307,49.3139],
[129.5235,49.3912],
[129.4902,49.4158],
[129.4212,49.4313],
[129.3905,49.4279],
[129.1847,49.3875],
[129.1364,49.3524],
[129.1118,49.3468],
[129.0523,49.364],
[129.0241,49.4153],
[129.0024,49.436],
[128.8752,49.4778],
[128.8033,49.5469],
[128.7903,49.5682],
[128.7119,49.5844],
[128.653,49.5922],
[128.3978,49.5771],
[128.1868,49.5342],
[128.1028,49.5367],
[127.838,49.5867],
[127.6888,49.6704],
[127.6718,49.746],
[127.6283,49.765],
[127.5357,49.7858],
[127.515,49.8059],
[127.5062,49.8275],
[127.4859,50.0189],
[127.4896,50.0454],
[127.5744,50.1369],
[127.5855,50.1677],
[127.5811,50.2096],
[127.5433,50.2311],
[127.3755,50.2868],
[127.334,50.3147],
[127.2909,50.4592],
[127.3332,50.5246],
[127.3618,50.5512],
[127.3669,50.5761],
[127.3586,50.5959],
[127.2792,50.6847],
[127.2919,50.7414],
[127.193,50.8247],
[127.1332,50.9096],
[127.0461,50.9554],
[126.9331,51.0583],
[126.8987,51.1811],
[126.9061,51.2107],
[126.9752,51.2997],
[126.9689,51.3192],
[126.8938,51.3032],
[126.9003,51.2606],
[126.8935,51.2412],
[126.8511,51.2412],
[126.8176,51.2656],
[126.8073,51.3046],
[126.8198,51.3274],
[126.8904,51.3503],
[126.9139,51.3814],
[126.8936,51.3986],
[126.7944,51.4231],
[126.7264,51.6341],
[126.7184,51.7101],
[126.6092,51.7872],
[126.4711,51.93],
[126.4412,51.9944],
[126.4546,52.0207],
[126.4768,52.034],
[126.5094,52.0374],
[126.5346,52.0694],
[126.555,52.1269],
[126.4698,52.1657],
[126.3189,52.1922],
[126.3075,52.2126],
[126.3278,52.2347],
[126.3486,52.2917],
[126.3473,52.3692],
[126.3339,52.3958],
[126.2757,52.4535],
[126.2388,52.4634],
[126.209,52.4607],
[126.1964,52.4764],
[126.2113,52.5057],
[126.2018,52.5278],
[126.18,52.544],
[126.0869,52.5892],
[126.0332,52.5643],
[125.9943,52.5761],
[125.9766,52.6108],
[125.973,52.6375],
[126.0372,52.7161],
[126.0968,52.7572],
[126.0648,52.7816],
[126.011,52.778],
[125.9729,52.764],
[125.8758,52.8361],
[125.8557,52.8628],
[125.7444,52.89],
[125.6573,52.8752],
[125.645,52.8976],
[125.6603,52.9236],
[125.7223,52.9457],
[125.7275,52.9815],
[125.62,53.0503],
[125.4855,53.0692],
[125.165,53.193],
[125.1342,53.1975],
[124.9636,53.1828],
[124.919,53.1719],
[124.879,53.1467],
[124.8183,53.1269],
[124.6439,53.1878],
[124.4933,53.1883],
[124.4022,53.2122],
[124.3389,53.2556],
[124.3222,53.2879],
[124.269,53.3468],
[124.2294,53.3631],
[124.1944,53.3608],
[124.1332,53.3362],
[124.1044,53.3408],
[124.0218,53.3858],
[123.9815,53.4313],
[123.9108,53.4647],
[123.6147,53.5436],
[123.4872,53.5394],
[123.4427,53.5225],
[123.3746,53.5292],
[123.3144,53.5494],
[123.2547,53.5537],
[123.2258,53.5461],
[123.1533,53.5005],
[122.9236,53.4786],
[122.8148,53.4497],
[122.6128,53.4567],
[122.4817,53.4489],
[122.2461,53.4569],
[122.0614,53.4129],
[121.9535,53.4222],
[121.83,53.413],
[121.523,53.3331],
[121.4192,53.3159],
[121.3336,53.3192],
[121.2119,53.2715],
[121.13,53.2725],
[121.0661,53.2914],
[120.8665,53.2798],
[120.8307,53.2637],
[120.6939,53.1592],
[120.4695,53.0201],
[120.3507,52.9253],
[120.3306,52.8978],
[120.2687,52.8571],
[120.1687,52.8097],
[120.1168,52.8069],
[120.0314,52.7682],
[120.0257,52.6415],
[120.0406,52.6068],
[120.0819,52.588],
[120.1856,52.5798],
[120.2894,52.6155],
[120.4403,52.6372],
[120.7122,52.5427],
[120.6833,52.4285],
[120.6259,52.3442],
[120.6525,52.2987],
[120.7219,52.2517],
[120.7818,52.1576],
[120.7767,52.115],
[120.711,51.98],
[120.652,51.9143],
[120.4916,51.8786],
[120.3103,51.773],
[120.2222,51.7125],
[120.1972,51.6861],
[120.1616,51.6667],
[120.1077,51.6642],
[120.0641,51.6208],
[119.983,51.493],
[119.9714,51.4236],
[119.9566,51.39],
[119.8643,51.2872],
[119.8155,51.2692],
[119.7761,51.2136],
[119.7662,51.1886],
[119.7803,51.1687],
[119.7479,51.0765],
[119.6888,51.0184],
[119.5897,50.9728],
[119.5208,50.9024],
[119.5167,50.7936],
[119.506,50.749],
[119.4588,50.6962],
[119.2941,50.5975],
[119.2633,50.5142],
[119.2555,50.4705],
[119.238,50.441],
[119.2042,50.4108],
[119.1665,50.4126],
[119.1386,50.3903],
[119.1767,50.3528],
[119.1983,50.3453],
[119.348,50.3462],
[119.36,50.3303],
[119.3301,50.2753],
[119.329,50.2104],
[119.3459,50.1933],
[119.3465,50.1502],
[119.321,50.0963],
[119.2166,50.0171],
[119.1741,50.0014],
[119.0003,49.9769],
[118.9215,49.9863],
[118.7159,49.9494],
[118.6747,49.9553],
[118.5746,49.9226],
[118.4923,49.87],
[118.4807,49.8417],
[118.1722,49.6689],
[117.8747,49.5206],
[117.7948,49.5182],
[117.4944,49.623],
[117.2594,49.6311],
[116.983,49.7094],
[116.7158,49.8275],
[116.6169,49.929],
[116.4521,49.9599],
[116.2461,50.0275],
[116.1505,50.0211],
[116.0697,50.0028],
[115.788,49.8955],
[115.73,49.8808],
[115.5794,49.9072],
[115.522,49.8953],
[115.4147,49.8983],
[115.3908,49.9037],
[115.2133,49.9933],
[115.095,50.0811],
[115.0341,50.1451],
[114.8473,50.2299],
[114.666,50.2644],
[114.5553,50.2461],
[114.4439,50.2453],
[114.3493,50.2812],
[114.3225,50.2843],
[114.1764,50.2483],
[114.0119,50.1742],
[113.8721,50.0871],
[113.7851,50.0868],
[113.5569,50.0019],
[113.4842,49.9636],
[113.4605,49.9362],
[113.2384,49.831],
[113.1868,49.7943],
[113.0981,49.6702],
[113.0962,49.6037],
[112.8314,49.5183],
[112.7743,49.5024],
[112.7105,49.4989],
[112.6496,49.5189],
[112.4917,49.5414],
[112.1314,49.4369],
[111.9639,49.4069],
[111.8408,49.398],
[111.6915,49.4069],
[111.6453,49.3983],
[111.5441,49.3582],
[111.3269,49.3425],
[111.173,49.3047],
[111.1285,49.2875],
[111.0087,49.2143],
[110.9561,49.1913],
[110.7886,49.1494],
[110.7003,49.1422],
[110.6303,49.1525],
[110.4819,49.2],
[110.3522,49.2136],
[110.2683,49.175],
[110.208,49.1692],
[109.8019,49.2192],
[109.5535,49.2315],
[109.5171,49.2422],
[109.4964,49.2604],
[109.3445,49.3392],
[109.1976,49.3599],
[109.075,49.3344],
[109.0268,49.3383],
[108.9593,49.3565],
[108.6508,49.3317],
[108.5635,49.3349],
[108.5278,49.3458],
[108.3637,49.4418],
[108.2986,49.4933],
[108.0715,49.5903],
[107.9504,49.6894],
[107.9758,49.7889],
[107.9844,49.9289],
[107.9058,49.9447],
[107.8165,49.9489],
[107.7457,49.9799],
[107.4628,49.9823],
[107.2549,50.0032],
[107.1761,50.0269],
[107.0808,50.0832],
[107.0075,50.1992],
[106.7882,50.3105],
[106.663,50.3386],
[106.5469,50.3461],
[106.3279,50.3141],
[106.2748,50.2989],
[106.245,50.3],
[106.0743,50.3458],
[106.0694,50.3753],
[106.026,50.4005],
[105.9892,50.4105],
[105.8075,50.436],
[105.7283,50.4308],
[105.3355,50.4836],
[105.283,50.473],
[105.1872,50.4183],
[105.1322,50.3983],
[105.0593,50.3921],
[104.9988,50.4078],
[104.9667,50.4048],
[104.7094,50.3591],
[104.6208,50.318],
[104.4966,50.3204],
[104.4182,50.3092],
[104.2934,50.2382],
[104.2546,50.1887],
[104.1121,50.1524],
[104.0305,50.1492],
[103.8257,50.2012],
[103.7715,50.1849],
[103.7354,50.1473],
[103.7062,50.1375],
[103.6489,50.1374],
[103.5314,50.1756],
[103.3167,50.1994],
[103.2802,50.222],
[103.2542,50.293],
[103.2236,50.3086],
[103.1575,50.3128],
[103.0075,50.3029],
[102.9186,50.3153],
[102.7797,50.3872],
[102.6345,50.4084],
[102.6059,50.4244],
[102.5953,50.4528],
[102.541,50.509],
[102.4865,50.5317],
[102.3537,50.5527],
[102.3322,50.5658],
[102.3122,50.5936],
[102.2965,50.6242],
[102.2948,50.6454],
[102.3459,50.7015],
[102.3549,50.7209],
[102.3397,50.7507],
[102.2765,50.7811],
[102.2355,50.8205],
[102.236,50.8559],
[102.2621,50.8886],
[102.2549,50.987],
[102.2153,51.031],
[102.1683,51.1204],
[102.1628,51.2518],
[102.225,51.3064],
[102.2236,51.3266],
[102.0821,51.3889],
[101.9928,51.3955],
[101.8672,51.4194],
[101.7408,51.4592],
[101.6011,51.4842],
[101.5143,51.4827],
[101.4086,51.4521],
[101.3855,51.4519],
[101.3476,51.4637],
[101.2816,51.5156],
[101.2447,51.5292],
[101.1239,51.5508],
[101.038,51.5761],
[100.6941,51.6989],
[100.5575,51.735],
[100.2528,51.7317],
[100.0219,51.7396],
[99.9469,51.7514],
[99.8871,51.7778],
[99.7286,51.8905],
[99.5708,51.9005],
[99.345,51.9422],
[99.3171,51.951],
[99.2933,51.9697],
[99.0202,52.0653],
[98.9339,52.1417],
[98.9043,52.1341],
[98.8797,52.1117],
[98.8711,52.044],
[98.8061,51.9417],
[98.7163,51.9922],
[98.566,52.0319],
[98.4908,52.0913],
[98.4908,52.1572],
[98.5123,52.2296],
[98.523,52.3019],
[98.5445,52.3609],
[98.6197,52.5311],
[98.6733,52.6028],
[98.6841,52.6745],
[98.6519,52.7526],
[98.5874,52.837],
[98.2439,52.9665],
[98.0828,53.0117],
[97.7393,53.0763],
[97.3957,53.16],
[97.1166,53.2693],
[97.0629,53.3078],
[97.0199,53.4296],
[96.9233,53.519],
[96.8052,53.5892],
[96.6978,53.6274],
[96.2684,53.7291],
[95.9677,53.7291],
[95.9033,53.7164],
[95.7638,53.6592],
[95.6671,53.6147],
[95.6457,53.5892],
[95.5705,53.5509],
[95.4953,53.5382],
[95.4417,53.5126],
[95.388,53.4743],
[95.1947,53.4296],
[95.0015,53.404],
[94.8726,53.3719],
[94.7331,53.3591],
[94.5935,53.3014],
[94.5299,53.2247],
[94.505,53.1701],
[94.4802,53.0806],
[94.4802,53.0109],
[94.4553,52.961],
[94.4139,52.916],
[94.1653,52.8085],
[93.9664,52.8009],
[93.7509,52.806],
[93.5189,52.7909],
[93.4692,52.7608],
[93.4443,52.7006],
[93.4443,52.6252],
[93.4609,52.5396],
[93.5272,52.4741],
[93.6515,52.3983],
[93.6929,52.3528],
[93.6929,52.292],
[93.6349,52.1956],
[93.6183,52.1498],
[93.552,52.1091],
[93.378,52.0684],
[93.1294,52.0327],
[92.9305,51.9919],
[92.5908,51.9511],
[92.309,51.8386],
[92.2096,51.7822],
[92.1516,51.7617],
[92.0936,51.7155],
[92.0107,51.7053],
[91.6213,51.7053],
[91.5384,51.7207],
[91.4804,51.772],
[91.3229,51.8027],
[91.3064,51.8232],
[91.2069,51.8949],
[91.0909,51.9613],
[90.9832,52.0072],
[90.834,52.1193],
[90.7014,52.1549],
[90.3451,52.1498],
[90.2622,52.1397],
[90.2125,52.1091],
[90.1794,52.0786],
[90.1131,51.9817],
[90.1545,51.9051],
[90.1628,51.8642],
[90.1462,51.7874],
[90.1131,51.7463],
[89.9142,51.6745],
[89.765,51.6333],
[89.7319,51.6333],
[89.5082,51.5664],
[89.2264,51.5561],
[89.0855,51.5767],
[88.9944,51.5716],
[88.9778,51.5561],
[88.9281,51.4581],
[88.8535,51.4375],
[88.8535,51.3909],
[88.9695,51.277],
[88.9695,51.2511],
[88.9281,51.1836],
[88.9281,51.0796],
[89.0027,51.0171],
[89.0192,50.9336],
[89.0358,50.9023],
[89.1104,50.8343],
[89.185,50.7819],
[89.2513,50.7138],
[89.2761,50.7033],
[89.3258,50.6613],
[89.4004,50.5771],
[89.4211,50.5403],
[89.4584,50.5192],
[89.6076,50.4718],
[89.6905,50.4349],
[89.8728,50.3979],
[89.8976,50.3503],
[90.0882,50.3027],
[90.2954,50.2815],
[90.3783,50.2603],
[90.4504,50.207],
[90.3385,50.1699],
[90.2444,50.1203],
[90.1036,50.0989],
[90.0486,50.081],
[90.0319,50.0682],
[90.0211,49.9964],
[89.9814,49.9711],
[89.9003,49.948],
[89.7628,49.9467],
[89.6686,49.9222],
[89.6442,49.9012],
[89.6389,49.8531],
[89.659,49.7882],
[89.7216,49.7643],
[89.735,49.745],
[89.722,49.7224],
[89.6269,49.6843],
[89.565,49.6782],
[89.4569,49.6485],
[89.403,49.5917],
[89.3731,49.5821],
[89.2855,49.6325],
[89.253,49.643],
[89.2233,49.6369],
[89.2041,49.6225],
[89.201,49.6014],
[89.2334,49.5702],
[89.2364,49.546],
[89.1886,49.5096],
[89.0082,49.4631],
[88.9874,49.4689],
[88.9246,49.5466],
[88.8856,49.5338],
[88.8775,49.4783],
[88.9028,49.45],
[88.8517,49.4417],
[88.7308,49.4508],
[88.5689,49.4758],
[88.4078,49.4839],
[88.3464,49.4822],
[88.2208,49.4617],
[88.1794,49.4342],
[88.1335,49.3694],
[88.1734,49.2872],
[88.1566,49.2689],
[87.9923,49.1799],
[87.888,49.1625],
[87.8388,49.1731],
[87.7053,49.163],
[87.5193,49.1172],
[87.5073,49.0992],
[87.4669,49.0797],
[87.3739,49.085],
[87.1754,49.1322],
[86.876,49.1102],
[86.7708,49.0236],
[86.731,48.972],
[86.7464,48.9109],
[86.8078,48.8239],
[86.7789,48.7211],
[86.638,48.608],
[86.6051,48.5703],
[86.5979,48.5428],
[86.468,48.4944],
[86.3441,48.4953],
[86.3225,48.4878],
[86.2971,48.4558],
[86.2349,48.4266],
[86.0305,48.4371],
[85.8036,48.4139],
[85.766,48.3933],
[85.7392,48.3564],
[85.6182,48.1651],
[85.6037,48.1247],
[85.6014,48.0708],
[85.5696,47.9964],
[85.5448,47.9699],
[85.5371,47.9372],
[85.6222,47.6211],
[85.6233,47.5975],
[85.6039,47.5222],
[85.6091,47.4994],
[85.6216,47.4733],
[85.6822,47.4092],
[85.7029,47.376],
[85.7014,47.2622],
[85.6895,47.218],
[85.5655,47.1368],
[85.5226,47.0591],
[85.2669,47.0526],
[85.219,47.039],
[85.1919,47.0001],
[85.1686,46.9819],
[85.064,46.9228],
[85.0233,46.9176],
[84.9846,46.8964],
[84.9697,46.87],
[84.8032,46.8277],
[84.7444,46.8332],
[84.7819,46.9144],
[84.7743,46.9357],
[84.7183,46.9787],
[84.678,46.9936],
[84.5944,46.9908],
[84.2947,47.0075],
[84.1795,46.9987],
[84.1111,46.9717],
[83.9,46.9772],
[83.7811,47.0208],
[83.5587,47.0633],
[83.4601,47.1107],
[83.425,47.1357],
[83.3283,47.1678],
[83.2301,47.1842],
[83.1852,47.2141],
[83.1551,47.2247],
[83.0619,47.22],
[83.0344,47.2006],
[83.0317,47.0844],
[83.0112,46.9532],
[82.8739,46.7636],
[82.8075,46.6228],
[82.7089,46.3542],
[82.6072,46.2301],
[82.5714,46.1678],
[82.5589,46.075],
[82.5108,45.9019],
[82.4808,45.8408],
[82.4139,45.7619],
[82.3218,45.5831],
[82.3173,45.5371],
[82.3351,45.5105],
[82.3536,45.4994],
[82.4098,45.4846],
[82.5892,45.4639],
[82.6462,45.4358],
[82.6598,45.3854],
[82.6586,45.3455],
[82.6323,45.233],
[82.5867,45.1526],
[82.5453,45.1223],
[82.515,45.1194],
[82.4817,45.1275],
[82.3482,45.2198],
[82.2969,45.2378],
[82.1683,45.2128],
[82.013,45.1594],
[81.948,45.1575],
[81.8242,45.1962],
[81.8076,45.2195],
[81.8115,45.2728],
[81.7832,45.3214],
[81.7517,45.3451],
[81.6793,45.3497],
[81.6464,45.3419],
[81.5564,45.2958],
[81.3967,45.2704],
[80.9169,45.1503],
[80.7658,45.1519],
[80.525,45.1086],
[80.4007,45.0504],
[80.2614,45.0361],
[80.1132,45.0373],
[80.0767,45.0247],
[79.8711,44.9028],
[79.8741,44.8682],
[79.9987,44.799],
[80.0533,44.7955],
[80.2622,44.8244],
[80.5159,44.7341],
[80.5126,44.7062],
[80.385,44.6358],
[80.3494,44.4472],
[80.4,44.2612],
[80.3871,44.1986],
[80.3664,44.1552],
[80.3689,44.1138],
[80.4358,44.0339],
[80.5008,43.9158],
[80.5178,43.865],
[80.5485,43.8169],
[80.6191,43.6658],
[80.7397,43.4658],
[80.7778,43.2711],
[80.8153,43.1683],
[80.816,43.148],
[80.8036,43.1248],
[80.7746,43.1093],
[80.7436,43.1077],
[80.678,43.1419],
[80.6548,43.142],
[80.6153,43.1322],
[80.384,43.0291],
[80.388,42.9948],
[80.4423,42.9569],
[80.4901,42.9394],
[80.5508,42.93],
[80.5745,42.9122],
[80.5723,42.8855],
[80.369,42.825],
[80.2818,42.8298],
[80.258,42.8157],
[80.158,42.6325],
[80.2383,42.3633],
[80.2705,42.3178],
[80.2939,42.2522],
[80.2851,42.2161],
[80.234,42.1962],
[80.2816,42.0831],
[80.2694,42.0543],
[80.2451,42.0395],
[80.1797,42.0266],
[80.0253,42.0363],
[79.8732,42.0134],
[79.8444,41.992],
[79.8262,41.9659],
[79.8158,41.9248],
[79.7916,41.8949],
[79.7533,41.8825],
[79.659,41.8833],
[79.5267,41.8313],
[79.3408,41.7922],
[78.6708,41.5319],
[78.3955,41.3929],
[78.3705,41.3726],
[78.3636,41.353],
[78.3833,41.2938],
[78.3698,41.2748],
[78.2905,41.2297],
[78.2366,41.1455],
[78.1889,41.1013],
[78.0808,41.0408],
[78.0287,41.0563],
[77.8606,41.0697],
[77.8278,41.0624],
[77.6847,41.0019],
[77.5436,40.9866],
[77.5058,40.9861],
[77.3821,41.0251],
[77.338,41.0273],
[77.2744,41.0063],
[77.14,41.016],
[77.0733,41.0465],
[77.0214,41.0496],
[76.8707,41.0126],
[76.791,40.9509],
[76.6484,40.7413],
[76.6444,40.6191],
[76.5697,40.5623],
[76.5375,40.5197],
[76.5142,40.4589],
[76.4503,40.4041],
[76.3344,40.3532],
[76.315,40.3847],
[76.2236,40.4038],
[76.0681,40.3958],
[75.9835,40.3666],
[75.943,40.3149],
[75.9001,40.3012],
[75.7037,40.298],
[75.6882,40.312],
[75.6658,40.3738],
[75.6289,40.5379],
[75.6241,40.5947],
[75.6043,40.6286],
[75.5828,40.6445],
[75.4864,40.6088],
[75.3397,40.5265],
[75.2339,40.4504],
[75.0661,40.4476],
[74.9911,40.4658],
[74.8823,40.5192],
[74.8588,40.5172],
[74.845,40.504],
[74.8319,40.4636],
[74.8261,40.408],
[74.8908,40.3491],
[74.8809,40.3279],
[74.8489,40.3249],
[74.7605,40.3449],
[74.7343,40.3408],
[74.6004,40.2619],
[74.5147,40.1883],
[74.4422,40.1394],
[74.3543,40.0978],
[74.2948,40.0927],
[74.258,40.1113],
[74.226,40.1173],
[74.1893,40.1117],
[74.0247,40.0674],
[73.991,40.042],
[73.8478,39.8169],
[73.8429,39.769],
[73.8623,39.7452],
[73.9074,39.7282],
[73.9547,39.5997],
[73.8637,39.4852],
[73.84,39.4738],
[73.6555,39.4554],
[73.669,39.3416],
[73.62,39.2357]
]
],
[
[
[108.6176,19.0887],
[108.6544,18.9375],
[108.6933,18.715],
[108.6964,18.6283],
[108.6736,18.5634],
[108.6871,18.5056],
[108.7119,18.4939],
[108.7746,18.4885],
[108.8042,18.4781],
[108.9578,18.3947],
[109.0558,18.37],
[109.2228,18.3031],
[109.329,18.3032],
[109.463,18.2768],
[109.5447,18.2211],
[109.5667,18.1689],
[109.6296,18.2267],
[109.6773,18.2374],
[109.7079,18.2008],
[109.738,18.2455],
[109.7039,18.2597],
[109.7594,18.3915],
[109.915,18.4194],
[109.9991,18.3737],
[110.0503,18.3852],
[110.0835,18.4971],
[110.1072,18.5422],
[110.2069,18.6272],
[110.2454,18.6507],
[110.3964,18.7036],
[110.5031,18.7761],
[110.5255,18.8008],
[110.4891,18.9108],
[110.5658,19.0836],
[110.5795,19.1393],
[110.544,19.1402],
[110.5232,19.1238],
[110.4988,19.1346],
[110.4832,19.1676],
[110.5226,19.1485],
[110.5836,19.1563],
[110.6686,19.3567],
[110.7275,19.4108],
[110.8221,19.5467],
[110.855,19.5289],
[110.9678,19.6317],
[111.0215,19.6383],
[110.968,19.8903],
[110.9425,19.9786],
[110.926,20.0037],
[110.8508,19.9889],
[110.7786,20.0096],
[110.7158,20.0689],
[110.6655,20.1336],
[110.5979,20.1097],
[110.571,20.089],
[110.5696,20.0321],
[110.5133,20.0147],
[110.37,20.0525],
[110.1533,20.06],
[110.1311,20.0124],
[110.0939,19.973],
[110.0169,19.9486],
[109.9769,19.9472],
[109.9366,19.9918],
[109.7858,19.9655],
[109.7358,19.9753],
[109.7187,20.0031],
[109.6108,19.9939],
[109.5846,19.9845],
[109.5262,19.9447],
[109.5178,19.8806],
[109.4658,19.8286],
[109.456,19.8605],
[109.3003,19.9192],
[109.2572,19.8997],
[109.1691,19.8069],
[109.1602,19.7851],
[109.1653,19.7236],
[109.2056,19.7372],
[109.2247,19.7577],
[109.2728,19.7871],
[109.301,19.7835],
[109.2939,19.76],
[109.1603,19.6496],
[109.0874,19.6116],
[109.0257,19.6036],
[109.008,19.5942],
[108.9384,19.5174],
[108.7644,19.3885],
[108.7237,19.3745],
[108.6941,19.3789],
[108.6283,19.2803],
[108.6176,19.0887]
]
],
[
[
[110.2478,21.0228],
[110.2516,20.9756],
[110.2828,20.9714],
[110.3436,21.0033],
[110.4453,21.0019],
[110.47,20.9908],
[110.498,20.9558],
[110.5194,20.9714],
[110.5464,21.0361],
[110.5453,21.0647],
[110.5137,21.0814],
[110.4556,21.0574],
[110.4186,21.0528],
[110.3792,21.08],
[110.3292,21.0756],
[110.2739,21.0542],
[110.2478,21.0228]
]
],
[
[
[110.4425,21.1571],
[110.5369,21.0975],
[110.5621,21.1099],
[110.6115,21.1938],
[110.5314,21.1986],
[110.5087,21.1861],
[110.4651,21.1805],
[110.4659,21.1905],
[110.4967,21.1947],
[110.483,21.2085],
[110.4547,21.2014],
[110.4447,21.1864],
[110.4425,21.1571]
]
],
[
[
[111.8111,21.5604],
[111.8361,21.5653],
[111.9905,21.6129],
[112.0061,21.6292],
[112.0008,21.6537],
[111.8386,21.6414],
[111.8111,21.5604]
]
],
[
[
[112.7028,21.6847],
[112.7287,21.6147],
[112.7621,21.5796],
[112.7907,21.5743],
[112.8058,21.6533],
[112.8661,21.7563],
[112.8336,21.7742],
[112.779,21.7683],
[112.7028,21.6847]
]
],
[
[
[113.3892,22.8942],
[113.4549,22.8233],
[113.5569,22.7531],
[113.5821,22.7497],
[113.6013,22.7688],
[113.5597,22.8258],
[113.4922,22.8944],
[113.4769,22.9033],
[113.43,22.9079],
[113.3892,22.8942]
]
],
[
[
[113.824,22.2261],
[113.8376,22.197],
[113.903,22.1964],
[113.965,22.2181],
[113.9922,22.2364],
[113.9937,22.264],
[114.0488,22.3334],
[113.8916,22.2853],
[113.8387,22.2479],
[113.824,22.2261]
]
],
[
[
[114.1234,22.2761],
[114.1506,22.25],
[114.1897,22.241],
[114.2008,22.1947],
[114.2189,22.2319],
[114.244,22.2008],
[114.248,22.244],
[114.235,22.2661],
[114.1978,22.2912],
[114.1445,22.2862],
[114.1234,22.2761]
]
],
[
[
[116.9494,23.4275],
[117.0336,23.4039],
[117.113,23.4],
[117.1297,23.4478],
[117.1005,23.4893],
[116.9592,23.4535],
[116.9494,23.4275]
]
],
[
[
[117.3105,23.5819],
[117.3568,23.5699],
[117.3941,23.5853],
[117.4144,23.6022],
[117.5067,23.7257],
[117.5037,23.745],
[117.4014,23.7718],
[117.3756,23.7673],
[117.3389,23.695],
[117.3105,23.5819]
]
],
[
[
[118.0653,24.4875],
[118.0723,24.4449],
[118.1032,24.4284],
[118.138,24.4292],
[118.1885,24.4919],
[118.1783,24.5292],
[118.0968,24.5522],
[118.0653,24.4875]
]
],
[
[
[118.2829,24.3979],
[118.421,24.3976],
[118.4447,24.4277],
[118.4503,24.4633],
[118.4378,24.4958],
[118.3984,24.5183],
[118.3303,24.4633],
[118.2965,24.4267],
[118.2829,24.3979]
]
],
[
[
[119.6697,25.4819],
[119.6962,25.4304],
[119.7436,25.405],
[119.7625,25.4098],
[119.8053,25.5279],
[119.8253,25.5444],
[119.834,25.5432],
[119.8267,25.5828],
[119.7796,25.6555],
[119.7569,25.6608],
[119.723,25.6389],
[119.6919,25.5987],
[119.6697,25.4819]
]
],
[
[
[119.7155,32.2702],
[119.7185,32.246],
[119.8196,32.1923],
[119.7853,32.1288],
[119.8973,32.0711],
[119.835,32.2503],
[119.8205,32.2703],
[119.7803,32.2897],
[119.7572,32.2914],
[119.7155,32.2702]
]
],
[
[
[121.1211,28.1358],
[121.13,28.0986],
[121.1283,28.0594],
[121.1472,28.0472],
[121.1972,28.0522],
[121.2394,28.0869],
[121.2654,28.1824],
[121.238,28.2011],
[121.201,28.2041],
[121.1211,28.1358]
]
],
[
[
[121.2039,31.8005],
[121.2178,31.7653],
[121.2986,31.6689],
[121.4019,31.5983],
[121.5464,31.5311],
[121.7497,31.4647],
[121.8249,31.4517],
[121.8701,31.4933],
[121.8746,31.5182],
[121.8607,31.5401],
[121.808,31.5628],
[121.7486,31.5703],
[121.6122,31.6164],
[121.4936,31.675],
[121.4667,31.7055],
[121.4784,31.7151],
[121.478,31.7361],
[121.4273,31.7756],
[121.3331,31.8183],
[121.2392,31.8171],
[121.2039,31.8005]
]
],
[
[
[121.2558,39.4094],
[121.259,39.3804],
[121.2825,39.3805],
[121.298,39.39],
[121.4154,39.3635],
[121.435,39.3887],
[121.4515,39.4446],
[121.4367,39.4667],
[121.414,39.4767],
[121.3372,39.4786],
[121.2633,39.436],
[121.2558,39.4094]
]
],
[
[
[121.9637,30.139],
[121.9699,30.0615],
[122.008,30.0044],
[122.0703,30.0151],
[122.1758,29.9939],
[122.2372,29.9711],
[122.286,29.9319],
[122.3252,30.0155],
[122.2869,30.0675],
[122.1632,30.1199],
[122.0444,30.1403],
[121.9803,30.1464],
[121.9637,30.139]
]
],
[
[
[122.0332,29.7337],
[122.0337,29.7135],
[122.0657,29.7253],
[122.1007,29.7149],
[122.1233,29.6864],
[122.1273,29.6654],
[122.1685,29.6539],
[122.1794,29.6683],
[122.1833,29.6929],
[122.1093,29.7886],
[122.0585,29.7762],
[122.0332,29.7337]
]
],
[
[
[122.0826,30.2959],
[122.0986,30.2714],
[122.1365,30.2524],
[122.2065,30.2403],
[122.2353,30.3111],
[122.2145,30.3369],
[122.1741,30.3354],
[122.1122,30.3165],
[122.0826,30.2959]
]
]
]}
}
