{
"type": "Feature",
"properties": {"id":"cshapes-625-2011-07-09","edge_precision":"unknown","cshapes_gwcode":625,"cshapes_name":"Sudan","cshapes_first_day":"2011-07-09","cshapes_last_day":"2019-12-31","cshapes_status":"independent","cshapes_owner":625,"cshapes_borders_defined":true},
"geometry": {"type": "MultiPolygon", "coordinates": [
[
[
[21.8291,12.7972],
[21.9069,12.6694],
[21.9528,12.6439],
[22.05,12.6375],
[22.1453,12.6574],
[22.1619,12.6687],
[22.2233,12.7472],
[22.3317,12.6733],
[22.4643,12.6149],
[22.4076,12.4851],
[22.439,12.3472],
[22.5033,12.1658],
[22.6114,11.9928],
[22.5532,11.666],
[22.559,11.629],
[22.6483,11.5118],
[22.7903,11.4294],
[22.9332,11.4087],
[22.9714,11.2803],
[22.9741,11.2098],
[22.8936,10.9769],
[22.8665,10.9224],
[23.0094,10.6986],
[23.0603,10.6644],
[23.3094,10.4517],
[23.6692,9.8669],
[23.6939,9.6681],
[23.626,9.5428],
[23.642,9.4431],
[23.6647,9.4347],
[23.6493,9.276],
[23.5644,9.1872],
[23.4996,9.1772],
[23.4758,9.1375],
[23.4483,9.0196],
[23.4579,8.9908],
[23.5099,8.9583],
[23.5322,8.9611],
[23.5612,9.0006],
[23.5817,8.9937],
[23.5826,8.9122],
[23.5365,8.8316],
[23.5081,8.8081],
[23.4976,8.7718],
[23.5297,8.7083],
[23.7392,8.7053],
[23.7819,8.7233],
[23.8239,8.7278],
[23.9258,8.7181],
[24.0869,8.6883],
[24.1412,8.6867],
[24.1745,8.6959],
[24.2011,8.6869],
[24.2403,8.629],
[24.2833,8.6797],
[24.4123,8.7974],
[24.5692,8.8647],
[24.6196,8.9712],
[24.586,9.0833],
[24.6084,9.2234],
[24.6701,9.3299],
[24.6477,9.3915],
[24.7878,9.498],
[24.799,9.6157],
[24.7822,9.7671],
[24.8831,9.8063],
[25.1185,10.1258],
[25.0905,10.1818],
[25.1858,10.3332],
[25.4996,10.3556],
[25.9088,10.4173],
[25.9929,10.3668],
[25.9873,10.1706],
[26.0826,10.1258],
[26.1835,9.9632],
[26.2507,9.896],
[26.3572,9.6213],
[26.4413,9.5429],
[26.772,9.4588],
[26.9289,9.5317],
[27.1419,9.5877],
[27.3829,9.5989],
[27.6127,9.5765],
[27.9434,9.5765],
[28.0724,9.3187],
[28.7898,9.3131],
[28.801,9.3971],
[28.8347,9.4588],
[29.1149,9.7222],
[29.5633,9.711],
[29.5745,10.0305],
[29.9837,10.2547],
[30.1294,10.1874],
[30.5498,9.9128],
[30.8469,9.6718],
[30.9309,9.7054],
[31.2728,9.7054],
[31.441,9.8399],
[31.6764,10.1426],
[31.8053,10.2491],
[32.0127,10.6022],
[32.2089,10.7311],
[32.4723,11.0114],
[32.4051,11.1515],
[32.4163,11.6336],
[32.1248,11.897],
[32.7582,11.8914],
[32.7694,12.0595],
[32.7302,12.1772],
[33.3019,12.1716],
[33.257,12.082],
[33.1954,11.7849],
[33.1898,11.6952],
[33.1281,11.5775],
[33.2739,10.8096],
[33.229,10.7031],
[33.4756,10.6302],
[33.6998,10.3668],
[33.7951,10.3052],
[33.8904,10.137],
[33.9521,10.137],
[33.9689,10.0585],
[33.9913,10.0249],
[33.9801,9.7895],
[33.9184,9.7334],
[33.8904,9.5933],
[33.9016,9.4812],
[34.0922,9.4775],
[34.0858,9.5531],
[34.14,9.7581],
[34.2072,9.905],
[34.2306,10.0276],
[34.3231,10.1172],
[34.3483,10.2385],
[34.2861,10.5542],
[34.3528,10.6317],
[34.4397,10.7844],
[34.5944,10.8878],
[34.6739,10.8347],
[34.8006,10.7233],
[34.8606,10.732],
[34.9753,10.8644],
[34.9786,10.9153],
[34.9333,10.9567],
[35.0056,11.1744],
[35.0075,11.1983],
[34.975,11.2275],
[34.9642,11.2504],
[34.9671,11.2749],
[35.0875,11.5358],
[35.0952,11.5765],
[35.0917,11.5989],
[35.0668,11.6465],
[35.0583,11.7303],
[35.0836,11.8056],
[35.1162,11.8508],
[35.1344,11.8639],
[35.2314,11.8982],
[35.2654,11.9336],
[35.2839,11.9833],
[35.3836,12.1656],
[35.6474,12.5915],
[35.6862,12.6022],
[35.7001,12.625],
[35.7011,12.6661],
[35.9647,12.7156],
[36.0126,12.7206],
[36.0372,12.715],
[36.0723,12.7241],
[36.1119,12.694],
[36.1425,12.7149],
[36.1592,12.8814],
[36.1353,12.9254],
[36.1511,12.9717],
[36.1689,12.99],
[36.1574,13.0331],
[36.2486,13.3681],
[36.3975,13.5678],
[36.4114,13.6156],
[36.409,13.6575],
[36.4869,13.8394],
[36.4464,13.9569],
[36.5394,14.2461],
[36.5422,14.2701],
[36.5155,14.4503],
[36.4433,15.15],
[36.5428,15.2347],
[36.6105,15.4372],
[36.6962,15.7486],
[36.7636,15.8081],
[36.9247,16.2271],
[36.9669,16.2599],
[36.9739,16.2856],
[36.9528,16.4336],
[36.9028,16.4936],
[36.8967,16.5147],
[36.914,16.6444],
[36.9393,16.6776],
[36.9726,16.7],
[36.9889,16.7256],
[37.009,16.7863],
[37.0131,17.0224],
[36.9938,17.0649],
[37.0261,17.0772],
[37.1083,17.0479],
[37.1478,17.017],
[37.3814,17.0431],
[37.4233,17.0342],
[37.4861,17.1106],
[37.5206,17.1958],
[37.5307,17.2494],
[37.5121,17.3212],
[37.5887,17.3501],
[37.7447,17.3819],
[37.8956,17.4414],
[37.9339,17.4586],
[37.9665,17.4997],
[38.0587,17.5525],
[38.0923,17.5432],
[38.1356,17.4989],
[38.2575,17.5328],
[38.3692,17.6644],
[38.4586,17.8711],
[38.6041,18.0029],
[38.589,18.0668],
[38.5758,18.0875],
[38.5462,18.1072],
[38.4397,18.1344],
[38.3692,18.1875],
[38.2714,18.2228],
[38.1895,18.2408],
[38.1183,18.2822],
[38.0894,18.3074],
[38.1014,18.3449],
[38.0047,18.4892],
[37.9503,18.5407],
[37.8289,18.6008],
[37.7619,18.6647],
[37.7681,18.6953],
[37.7505,18.7064],
[37.6807,18.7179],
[37.6425,18.7089],
[37.5531,18.71],
[37.5164,18.7244],
[37.4357,18.8539],
[37.3364,19.1519],
[37.3119,19.3],
[37.3069,19.3957],
[37.2903,19.475],
[37.2676,19.5275],
[37.2416,19.5646],
[37.2403,19.6649],
[37.2576,19.6879],
[37.2653,19.7628],
[37.2572,19.8339],
[37.2183,19.9175],
[37.1858,20.0135],
[37.1774,20.2206],
[37.1847,20.4019],
[37.2008,20.4581],
[37.2269,20.4664],
[37.2282,20.5564],
[37.2078,20.6264],
[37.1714,20.6996],
[37.1375,20.9681],
[37.0938,21.1691],
[37.1032,21.2079],
[37.1538,21.1953],
[37.2303,21.1292],
[37.2642,21.053],
[37.2376,21.0614],
[37.1994,21.0942],
[37.2254,21.0257],
[37.2475,21.0017],
[37.3057,21.0173],
[37.3066,21.0633],
[37.2333,21.1665],
[37.0989,21.2917],
[37.0692,21.3308],
[37.0003,21.4312],
[36.9114,21.6086],
[36.9,21.6372],
[36.8742,21.7869],
[36.8542,21.9717],
[36.8907,22.004],
[35.7811,21.9969],
[32.4444,22.0042],
[31.4603,21.9982],
[31.5138,22.1599],
[31.5082,22.1897],
[31.479,22.2214],
[31.4483,22.2322],
[31.4217,22.2272],
[31.3954,22.2114],
[31.2743,21.9987],
[30.7481,22.003],
[29.0708,21.9956],
[28.2611,22.0034],
[27.3867,21.9942],
[25.0014,21.9997],
[25.0005,19.9991],
[24.0058,19.9988],
[24.0003,19.9064],
[23.9976,15.7028],
[23.9732,15.6979],
[23.8004,15.7479],
[23.6633,15.7575],
[23.5642,15.7497],
[23.4792,15.7258],
[23.409,15.6908],
[23.3569,15.6817],
[23.1703,15.7106],
[23.1134,15.7083],
[22.9372,15.5619],
[22.9233,15.5401],
[22.9231,15.4872],
[22.9827,15.4142],
[22.9972,15.3713],
[22.9972,15.3358],
[22.9787,15.2079],
[22.9294,15.114],
[22.8728,15.0969],
[22.8457,15.0749],
[22.7533,14.9769],
[22.6692,14.8537],
[22.6799,14.7581],
[22.6999,14.7041],
[22.47,14.6294],
[22.4161,14.6003],
[22.3986,14.5862],
[22.3865,14.5626],
[22.3847,14.5251],
[22.4382,14.4928],
[22.4461,14.4737],
[22.4494,14.33],
[22.5117,14.2403],
[22.5537,14.229],
[22.5668,14.1672],
[22.5562,14.1298],
[22.4344,14.0517],
[22.3171,14.0107],
[22.2343,13.9656],
[22.0844,13.7792],
[22.1361,13.665],
[22.2947,13.3727],
[22.285,13.3406],
[22.1531,13.1865],
[22.0675,13.1486],
[22.025,13.1403],
[21.9421,13.0512],
[21.8919,12.9544],
[21.8291,12.7972]
]
]
]}
}
