{
"type": "Feature",
"properties": {"id":"cshapes-460-1887-01-01","edge_precision":"unknown","cshapes_gwcode":460,"cshapes_name":"German Togoland","cshapes_first_day":"1887-01-01","cshapes_last_day":"1888-11-30","cshapes_status":"colony","cshapes_owner":255,"cshapes_borders_defined":false},
"geometry": {"type": "MultiPolygon", "coordinates": [
[
[
[0.6807,6.3068],
[0.8818,6.3066],
[1.0086,6.2268],
[1.0668,6.2122],
[1.1075,6.1606],
[1.2011,6.16],
[1.2008,6.1092],
[1.6331,6.2272],
[1.6525,6.2503],
[1.7978,6.2803],
[1.7715,6.4149],
[1.7492,6.4567],
[1.6931,6.5492],
[1.6168,6.5962],
[1.5753,6.6797],
[1.6075,6.7967],
[1.6058,6.8452],
[0.9441,6.8442],
[0.8995,6.7341],
[0.7554,6.4538],
[0.702,6.3649],
[0.6807,6.3068]
]
]
]}
}
