{
"type": "Feature",
"properties": {"id":"cshapes-355-1886-01-01","edge_precision":"unknown","cshapes_gwcode":355,"cshapes_name":"Bulgaria","cshapes_first_day":"1886-01-01","cshapes_last_day":"1913-08-09","cshapes_status":"independent","cshapes_owner":355,"cshapes_borders_defined":true},
"geometry": {"type": "MultiPolygon", "coordinates": [
[
[
[22.3672,43.8269],
[22.4104,43.7175],
[22.5417,43.4756],
[22.6281,43.4308],
[22.7643,43.3867],
[22.8295,43.3319],
[22.8469,43.2867],
[22.906,43.2297],
[22.9406,43.2105],
[22.9965,43.1951],
[22.9877,43.1312],
[22.9664,43.1017],
[22.7416,42.8921],
[22.6586,42.8829],
[22.5949,42.8944],
[22.5284,42.8786],
[22.4429,42.8204],
[22.4472,42.5994],
[22.4677,42.5677],
[22.5469,42.5129],
[22.5566,42.4798],
[22.6225,42.4258],
[22.6866,42.3104],
[22.8213,42.2398],
[22.9047,42.227],
[23.0009,42.1372],
[23.0906,42.0987],
[23.1355,42.0923],
[23.1932,42.1372],
[23.251,42.15],
[23.4113,42.1244],
[23.4946,42.1244],
[23.5908,42.1629],
[23.6678,42.227],
[23.7576,42.2142],
[23.8153,42.1308],
[23.8922,41.9384],
[23.9243,41.8807],
[24.1039,41.7973],
[24.2129,41.7845],
[24.3027,41.7845],
[24.277,41.8743],
[24.3411,41.8615],
[24.3636,41.8871],
[24.5015,41.9769],
[24.5335,41.9769],
[24.5464,41.9192],
[24.5464,41.8679],
[24.572,41.8037],
[24.6041,41.7589],
[24.6682,41.714],
[24.7323,41.6947],
[24.8991,41.6819],
[24.9696,41.7076],
[25.0209,41.7845],
[25.0466,41.8037],
[25.1043,41.8166],
[25.1684,41.8166],
[25.3351,41.7973],
[25.4442,41.7589],
[25.5596,41.746],
[25.6237,41.6563],
[25.6622,41.6434],
[25.7007,41.6691],
[25.7327,41.6563],
[25.8033,41.6498],
[25.8546,41.6883],
[25.9444,41.7268],
[25.9764,41.7268],
[26.0085,41.7781],
[26.1047,41.7973],
[26.156,41.8166],
[26.1945,41.8743],
[26.2137,41.9192],
[26.2137,41.9961],
[26.3227,42.041],
[26.374,42.0474],
[26.3933,41.9961],
[26.4574,41.9577],
[26.5961,41.9553],
[26.6214,41.9731],
[26.9331,42.0069],
[26.9622,42.0033],
[27.0372,42.0836],
[27.3023,42.1757],
[27.4338,42.1949],
[27.7954,42.215],
[27.7554,42.2543],
[27.7039,42.3689],
[27.7003,42.3953],
[27.6792,42.4183],
[27.6167,42.4472],
[27.5539,42.4489],
[27.5152,42.4351],
[27.465,42.4494],
[27.4496,42.473],
[27.5107,42.5522],
[27.6325,42.6317],
[27.7329,42.7111],
[27.8941,42.7031],
[27.8981,42.784],
[27.8792,42.8411],
[27.9017,42.8556],
[27.9039,42.8911],
[27.8874,43.0369],
[27.945,43.1672],
[28.0158,43.2258],
[28.0533,43.2808],
[28.0849,43.3571],
[28.1272,43.395],
[28.1504,43.4044],
[28.2997,43.4217],
[28.3825,43.4128],
[28.4533,43.3853],
[28.4794,43.3933],
[28.5576,43.4533],
[28.6051,43.534],
[28.6004,43.5619],
[28.5776,43.5917],
[28.57,43.6897],
[28.5818,43.7528],
[28.485,43.7442],
[28.2578,43.7644],
[28.0385,43.8354],
[27.9981,43.8595],
[27.9522,43.9744],
[27.9222,44.0039],
[27.8333,43.9692],
[27.7418,43.9594],
[27.7168,43.9692],
[27.6787,44.0297],
[27.6524,44.0417],
[27.6248,44.0282],
[27.4075,44.0218],
[27.2953,44.0843],
[27.2793,44.1039],
[27.2727,44.1321],
[27.2303,44.1208],
[27.0364,44.1473],
[26.8902,44.132],
[26.7947,44.0953],
[26.6711,44.0719],
[26.3057,44.0314],
[26.1364,43.9828],
[26.1117,43.9683],
[25.9427,43.8484],
[25.8846,43.793],
[25.7665,43.7033],
[25.6756,43.6882],
[25.6092,43.6622],
[25.5319,43.6436],
[25.3788,43.6233],
[25.2247,43.6875],
[25.0228,43.7102],
[24.7142,43.7147],
[24.6869,43.7184],
[24.6058,43.7515],
[24.5286,43.7611],
[24.4996,43.7604],
[24.3553,43.6969],
[24.2864,43.6971],
[24.1892,43.6849],
[24.1161,43.6999],
[23.9875,43.7442],
[23.7742,43.7883],
[23.6071,43.7974],
[23.5703,43.8069],
[23.5115,43.8366],
[23.4227,43.8557],
[23.2621,43.8478],
[23.1432,43.8097],
[23.0675,43.8022],
[22.9669,43.8169],
[22.8693,43.8454],
[22.8525,43.8607],
[22.842,43.8967],
[22.8822,43.9849],
[22.9134,44.0009],
[22.9939,44.0152],
[23.0376,44.0507],
[23.043,44.0726],
[23.0128,44.0961],
[22.9146,44.1111],
[22.6851,44.2206],
[22.6518,44.2132],
[22.6192,44.17],
[22.6149,44.1196],
[22.5375,44.0577],
[22.417,44.0024],
[22.3672,43.8269]
]
]
]}
}
