{
"type": "Feature",
"properties": {"id":"cshapes-305-1918-11-03","edge_precision":"unknown","cshapes_gwcode":305,"cshapes_name":"Austria","cshapes_first_day":"1918-11-03","cshapes_last_day":"1919-09-09","cshapes_status":"independent","cshapes_owner":305,"cshapes_borders_defined":true},
"geometry": {"type": "MultiPolygon", "coordinates": [
[
[
[9.5368,47.2794],
[9.5664,47.2439],
[9.6339,47.1306],
[9.6336,47.0971],
[9.6035,47.0645],
[9.8729,47.023],
[9.8916,47.0003],
[9.8758,46.9682],
[9.8778,46.9404],
[10.0589,46.8664],
[10.1094,46.8503],
[10.1367,46.8509],
[10.2275,46.8769],
[10.3133,46.9336],
[10.3506,46.9912],
[10.3908,47.0026],
[10.43,46.9842],
[10.4882,46.936],
[10.4475,46.7631],
[10.4708,46.6358],
[10.4865,46.6174],
[10.4857,46.5926],
[10.4719,46.5558],
[10.4533,46.5407],
[10.476,46.5037],
[10.5862,46.4767],
[10.594,46.417],
[10.5311,46.3668],
[10.5547,46.3193],
[10.5547,46.235],
[10.535,46.2024],
[10.4957,46.1779],
[10.5075,46.1534],
[10.5527,46.137],
[10.5626,46.1125],
[10.5547,46.0852],
[10.5114,46.0333],
[10.476,46.0115],
[10.4682,45.9705],
[10.4682,45.8802],
[10.476,45.8419],
[10.5114,45.8007],
[10.5626,45.7486],
[10.6019,45.7294],
[10.6334,45.7349],
[10.653,45.7788],
[10.657,45.8227],
[10.7002,45.8391],
[10.7514,45.8391],
[10.8261,45.8199],
[10.8694,45.7925],
[10.8694,45.7376],
[10.834,45.7129],
[10.9126,45.6854],
[10.9362,45.6662],
[11.011,45.6937],
[11.1368,45.6758],
[11.1762,45.7404],
[11.1919,45.8117],
[11.2194,45.8364],
[11.2352,45.8775],
[11.2745,45.9076],
[11.3375,45.9076],
[11.3493,45.9322],
[11.3493,45.9541],
[11.4869,46.0115],
[11.5341,46.0142],
[11.5695,45.9896],
[11.6364,45.9787],
[11.6561,45.9869],
[11.6639,46.0238],
[11.7151,46.0743],
[11.8095,46.0988],
[11.8409,46.0988],
[11.8999,46.1425],
[11.9078,46.1806],
[11.8803,46.2514],
[11.8449,46.2677],
[11.7977,46.3492],
[11.8134,46.4008],
[11.8331,46.4387],
[11.8527,46.4577],
[11.9314,46.4875],
[12.0376,46.455],
[12.0966,46.4929],
[12.1753,46.4794],
[12.2579,46.4983],
[12.2854,46.5146],
[12.2736,46.5687],
[12.2972,46.6227],
[12.3995,46.6605],
[12.4406,46.6908],
[12.5544,46.6617],
[12.6925,46.6597],
[12.7356,46.6413],
[12.7783,46.6479],
[12.8256,46.6312],
[13.1762,46.575],
[13.1848,46.546],
[13.2316,46.5117],
[13.3377,46.4923],
[13.3627,46.4709],
[13.4002,46.4666],
[13.4594,46.473],
[13.461,46.4365],
[13.5114,46.3847],
[13.4408,46.3464],
[13.3835,46.2951],
[13.4189,46.2131],
[13.4885,46.2319],
[13.5506,46.218],
[13.666,46.1753],
[13.6482,46.1455],
[13.5219,46.0633],
[13.4832,46.0164],
[13.4314,45.9743],
[13.4158,45.9276],
[13.3768,45.8929],
[13.3471,45.9005],
[13.2941,45.8592],
[13.2956,45.8016],
[13.2563,45.7666],
[13.4151,45.7206],
[13.4222,45.6956],
[13.3874,45.6783],
[13.4289,45.6772],
[13.4994,45.7094],
[13.5265,45.7351],
[13.5251,45.761],
[13.5426,45.7833],
[13.63,45.77],
[13.7357,45.6943],
[13.7981,45.6075],
[13.7169,45.5961],
[13.7499,45.549],
[13.6658,45.5431],
[13.5971,45.5196],
[13.5966,45.4774],
[13.555,45.4944],
[13.5048,45.502],
[13.5336,45.4017],
[13.595,45.2507],
[13.6031,45.1578],
[13.6811,45.0514],
[13.7569,44.9814],
[13.8392,44.8764],
[13.8169,44.8601],
[13.9044,44.7726],
[13.9952,44.8144],
[13.9758,44.824],
[13.9758,44.8469],
[13.9949,44.8906],
[14.0875,44.9614],
[14.1443,44.9622],
[14.1674,44.9891],
[14.1558,45.0394],
[14.1601,45.0769],
[14.2167,45.1233],
[14.2308,45.1442],
[14.2539,45.2319],
[14.2866,45.315],
[14.3231,45.351],
[14.4453,45.322],
[14.4591,45.4237],
[14.5141,45.4788],
[14.5613,45.5008],
[14.5534,45.5999],
[14.5696,45.6625],
[14.6098,45.662],
[14.6096,45.633],
[14.6208,45.6121],
[14.7236,45.5314],
[14.8261,45.4654],
[14.8637,45.4687],
[14.9791,45.5005],
[15.092,45.4715],
[15.1567,45.4293],
[15.1745,45.4258],
[15.2772,45.4628],
[15.304,45.5386],
[15.294,45.5945],
[15.3097,45.6311],
[15.3526,45.6518],
[15.3566,45.712],
[15.2905,45.7031],
[15.294,45.7343],
[15.3167,45.757],
[15.4994,45.8358],
[15.6118,45.8467],
[15.6526,45.8234],
[15.6961,45.8431],
[15.7244,45.9386],
[15.7115,46.0532],
[15.6329,46.0846],
[15.6064,46.1158],
[15.6004,46.1443],
[15.6592,46.2209],
[15.7978,46.2333],
[16.0182,46.2986],
[16.0804,46.336],
[16.0753,46.3784],
[16.1379,46.406],
[16.2664,46.4191],
[16.2647,46.4397],
[16.1088,46.5912],
[16.0224,46.6937],
[15.9879,46.7551],
[15.9883,46.8316],
[16.1379,46.8789],
[16.2536,46.9583],
[16.3028,47.0114],
[16.5049,47.0068],
[16.5056,47.115],
[16.4593,47.1473],
[16.4209,47.2104],
[16.4447,47.2444],
[16.4743,47.26],
[16.4914,47.2819],
[16.4564,47.3689],
[16.452,47.4128],
[16.5925,47.4253],
[16.6552,47.4582],
[16.7053,47.5211],
[16.7139,47.5439],
[16.6664,47.6144],
[16.6326,47.6344],
[16.5967,47.6289],
[16.4931,47.6467],
[16.4326,47.6664],
[16.4506,47.6981],
[16.5586,47.7564],
[16.6356,47.7603],
[16.7235,47.7265],
[16.7358,47.7021],
[16.7642,47.6854],
[16.9108,47.6908],
[17.0539,47.7094],
[17.0717,47.7286],
[17.0686,47.7683],
[17.0568,47.7946],
[17.0606,47.8769],
[17.1081,47.9714],
[17.1739,48.0167],
[17.1167,48.0386],
[17.0811,48.0883],
[17.0691,48.1353],
[17.0335,48.1453],
[16.9753,48.1883],
[16.9524,48.2503],
[16.9497,48.278],
[16.9239,48.2821],
[16.8447,48.362],
[16.8558,48.4494],
[16.8657,48.4687],
[16.9333,48.5328],
[16.9462,48.6191],
[16.9179,48.7032],
[16.8925,48.7258],
[16.8329,48.7162],
[16.7856,48.7199],
[16.7117,48.7464],
[16.6588,48.7853],
[16.5406,48.8124],
[16.4583,48.8112],
[16.413,48.7519],
[16.3822,48.736],
[16.3331,48.7331],
[16.1033,48.75],
[16.0606,48.7603],
[15.8494,48.8597],
[15.686,48.864],
[15.5644,48.9092],
[15.5144,48.92],
[15.359,48.9847],
[15.1567,48.9997],
[15.0286,49.0187],
[15.0042,49.0114],
[14.9796,48.9799],
[14.985,48.9392],
[14.9589,48.7947],
[14.8856,48.7828],
[14.8237,48.7851],
[14.7272,48.6935],
[14.7167,48.6543],
[14.7194,48.604],
[14.7029,48.5833],
[14.6119,48.6285],
[14.5056,48.6283],
[14.4464,48.6189],
[14.3903,48.5925],
[14.2783,48.5825],
[14.1842,48.5961],
[14.0514,48.6698],
[13.9986,48.714],
[13.8836,48.7636],
[13.8336,48.7736],
[13.8147,48.7381],
[13.8225,48.6247],
[13.8037,48.5826],
[13.726,48.5156],
[13.6769,48.5323],
[13.6346,48.558],
[13.5186,48.5846],
[13.4432,48.5602],
[13.4575,48.5156],
[13.4379,48.4294],
[13.4223,48.3921],
[13.395,48.3661],
[13.2917,48.3077],
[13.1544,48.2922],
[13.0178,48.2594],
[12.8712,48.2029],
[12.7597,48.1217],
[12.7662,48.0822],
[12.9189,47.9578],
[13.0089,47.8542],
[12.9442,47.7887],
[12.914,47.725],
[12.9937,47.7142],
[13.0231,47.7242],
[13.072,47.6927],
[13.097,47.649],
[13.0533,47.4976],
[13.0198,47.4748],
[12.9579,47.477],
[12.8067,47.5547],
[12.7882,47.5835],
[12.8016,47.6071],
[12.8278,47.6212],
[12.7369,47.6827],
[12.6658,47.685],
[12.6034,47.6723],
[12.5771,47.647],
[12.5144,47.6333],
[12.455,47.6678],
[12.2011,47.6575],
[12.2016,47.613],
[12.1414,47.6111],
[12.0064,47.6244],
[11.6831,47.5847],
[11.5799,47.5241],
[11.5083,47.5096],
[11.4575,47.5122],
[11.2964,47.4289],
[11.104,47.3965],
[10.9822,47.3995],
[10.9094,47.5181],
[10.6908,47.5539],
[10.5694,47.5403],
[10.4818,47.5865],
[10.4337,47.5805],
[10.4364,47.5292],
[10.4662,47.4829],
[10.4737,47.4376],
[10.3427,47.3181],
[10.2289,47.276],
[10.1733,47.2747],
[10.2109,47.3216],
[10.2317,47.3737],
[10.0431,47.4953],
[9.9579,47.5382],
[9.8034,47.5935],
[9.7754,47.5912],
[9.7472,47.5667],
[9.7328,47.5411],
[9.6925,47.5295],
[9.6088,47.5295],
[9.5721,47.539],
[9.5598,47.5021],
[9.5966,47.4694],
[9.6497,47.4586],
[9.6703,47.3907],
[9.611,47.3622],
[9.5368,47.2794]
]
],
[
[
[15.118,44.2708],
[15.1517,44.1964],
[15.2817,44.0731],
[15.4575,43.9226],
[15.526,43.895],
[15.5387,43.8793],
[15.5994,43.8453],
[15.6889,43.7789],
[15.7822,43.7562],
[15.9408,43.6836],
[15.9659,43.6318],
[15.9307,43.6282],
[15.9188,43.5669],
[15.9883,43.5044],
[16.0369,43.4818],
[16.1027,43.4758],
[16.1706,43.4923],
[16.1906,43.5117],
[16.3103,43.5431],
[16.354,43.5508],
[16.4306,43.5457],
[16.4692,43.5335],
[16.4992,43.5031],
[16.6378,43.4411],
[16.7642,43.4114],
[16.8817,43.4036],
[16.94,43.3647],
[17.045,43.2725],
[17.0682,43.241],
[17.1314,43.1989],
[17.1778,43.1739],
[17.2517,43.1542],
[17.3265,43.1164],
[17.455,43.0333],
[17.4706,43.0178],
[17.4762,42.9859],
[17.5189,42.9528],
[17.5785,42.9438],
[17.6753,42.9675],
[17.6676,43.0229],
[17.6367,43.0704],
[17.5894,43.1022],
[17.4347,43.1794],
[17.3037,43.2757],
[17.2782,43.329],
[17.2578,43.4201],
[17.2707,43.4453],
[17.2547,43.464],
[17.1067,43.5103],
[16.9764,43.5861],
[16.7096,43.8337],
[16.6464,43.9122],
[16.5335,44.0157],
[16.43,44.036],
[16.3468,44.0875],
[16.3068,44.1511],
[16.2316,44.1436],
[16.2169,44.1173],
[16.1436,44.1015],
[16.0923,44.1542],
[16.0336,44.191],
[15.6156,44.3118],
[15.4543,44.38],
[15.2905,44.3595],
[15.4486,44.2832],
[15.5033,44.2761],
[15.5223,44.2633],
[15.4144,44.26],
[15.3214,44.3005],
[15.28,44.3058],
[15.2913,44.2534],
[15.2039,44.255],
[15.1451,44.2801],
[15.118,44.2708]
]
],
[
[
[16.0583,43.0667],
[16.0644,43.0106],
[16.2099,43.0235],
[16.2521,43.0646],
[16.2306,43.0783],
[16.1397,43.0825],
[16.085,43.0775],
[16.0583,43.0667]
]
],
[
[
[16.3778,43.1953],
[16.4306,43.1694],
[16.6601,43.1194],
[17.0578,43.1125],
[17.11,43.1164],
[17.1164,43.1361],
[16.8111,43.1614],
[16.6133,43.2139],
[16.5653,43.218],
[16.4572,43.2103],
[16.3778,43.1953]
]
],
[
[
[16.4101,43.3204],
[16.5197,43.2764],
[16.6289,43.2619],
[16.8474,43.2679],
[16.8872,43.2978],
[16.8847,43.3172],
[16.7761,43.3594],
[16.4321,43.3905],
[16.4101,43.3204]
]
],
[
[
[16.6386,42.9845],
[16.6722,42.9261],
[16.8661,42.8978],
[16.9411,42.9114],
[17.1292,42.9115],
[17.1836,42.9186],
[17.1358,42.9619],
[17.0447,42.9753],
[16.9656,42.9764],
[16.8633,42.9561],
[16.6861,42.9908],
[16.6386,42.9845]
]
],
[
[
[17.0106,43.048],
[17.0124,43.0062],
[17.0717,42.9864],
[17.1453,42.9767],
[17.2037,42.9819],
[17.365,42.9153],
[17.4392,42.8739],
[17.5525,42.8408],
[17.8772,42.7678],
[18.5169,42.4],
[18.5228,42.4301],
[18.4729,42.4715],
[18.4578,42.4936],
[18.4595,42.5686],
[18.4047,42.6104],
[18.341,42.629],
[18.2747,42.6171],
[18.1606,42.695],
[17.9906,42.7647],
[17.8797,42.8214],
[17.7975,42.9039],
[17.7065,42.9271],
[17.6861,42.9203],
[17.652,42.8867],
[17.6574,42.8808],
[17.5228,42.9203],
[17.2989,43.0069],
[17.0106,43.048]
]
],
[
[
[17.3276,42.7819],
[17.3656,42.7594],
[17.7343,42.7005],
[17.6649,42.736],
[17.3706,42.8021],
[17.3276,42.7819]
]
],
[
[
[18.5788,49.9096],
[18.5793,49.815],
[18.6342,49.7378],
[18.8108,49.6733],
[18.8394,49.595],
[18.8517,49.5223],
[18.9686,49.4817],
[18.9749,49.4019],
[19.0317,49.3919],
[19.1596,49.4003],
[19.1917,49.414],
[19.2424,49.5068],
[19.269,49.5267],
[19.4478,49.6008],
[19.4756,49.6],
[19.521,49.5742],
[19.5771,49.459],
[19.6586,49.4067],
[19.7106,49.3975],
[19.778,49.4075],
[19.805,49.3647],
[19.8257,49.2776],
[19.7736,49.2331],
[19.766,49.2144],
[19.7835,49.2002],
[19.8429,49.1918],
[19.8679,49.1971],
[19.9112,49.2262],
[19.9364,49.2311],
[19.9796,49.2264],
[20.0392,49.1889],
[20.0734,49.1779],
[20.0926,49.2049],
[20.1033,49.2486],
[20.1436,49.315],
[20.3606,49.3931],
[20.6028,49.3956],
[20.7408,49.3889],
[20.8125,49.3308],
[20.9136,49.2961],
[20.9824,49.3094],
[21.0356,49.3597],
[21.0506,49.4105],
[21.0715,49.4221],
[21.2819,49.4564],
[21.4593,49.4119],
[21.5336,49.4297],
[21.6126,49.4365],
[21.8381,49.3844],
[21.9586,49.3403],
[22.0201,49.2739],
[22.0299,49.2202],
[22.225,49.1547],
[22.3489,49.1385],
[22.5628,49.0833],
[22.5941,49.0915],
[22.842,49.0105],
[22.8652,48.9368],
[22.8867,48.9105],
[22.9226,48.9082],
[22.9608,48.8711],
[23.0301,48.8651],
[23.0707,48.8771],
[23.1137,48.8604],
[23.1471,48.8293],
[23.1663,48.7887],
[23.1925,48.7791],
[23.2547,48.7887],
[23.2833,48.7791],
[23.3347,48.7791],
[23.355,48.7552],
[23.5485,48.7385],
[23.6644,48.6692],
[23.748,48.6716],
[23.7636,48.6537],
[23.76,48.6238],
[23.7743,48.6059],
[23.8281,48.5749],
[23.8675,48.5808],
[23.8914,48.5605],
[23.8723,48.5175],
[23.901,48.4829],
[23.9452,48.5151],
[24.079,48.5545],
[24.079,48.5175],
[24.1327,48.4064],
[24.2307,48.3849],
[24.2438,48.4076],
[24.2749,48.4219],
[24.3931,48.3491],
[24.4672,48.2523],
[24.4827,48.2021],
[24.472,48.1747],
[24.5783,48.0755],
[24.5353,48.0492],
[24.5162,48.0253],
[24.5128,47.9554],
[24.5883,47.9458],
[24.6701,47.8955],
[24.9187,48.0605],
[25.0206,48.142],
[25.0818,48.2643],
[25.3263,48.3254],
[25.3671,48.3662],
[25.3671,48.4273],
[25.4078,48.5292],
[25.4893,48.6311],
[25.5709,48.6718],
[25.6524,48.6514],
[25.8154,48.6311],
[25.9173,48.6311],
[26.0803,48.5496],
[26.2841,48.5088],
[26.3656,48.5088],
[26.3249,48.5903],
[26.3122,48.6472],
[26.239,48.6821],
[26.2094,48.719],
[26.1996,48.7472],
[26.2357,48.8079],
[26.2127,48.8447],
[26.2094,48.8728],
[26.1733,48.9507],
[26.17,48.9744],
[26.2026,49.0183],
[26.2026,49.5073],
[26.2433,49.7314],
[26.077,49.7414],
[25.96,49.7018],
[25.882,49.6946],
[25.7595,49.6982],
[25.6146,49.7648],
[25.5088,49.8314],
[25.4921,49.8816],
[25.4308,49.9713],
[25.2637,50.05],
[25.2136,50.1001],
[25.1746,50.2784],
[25.1189,50.3211],
[24.9964,50.3566],
[24.8125,50.3318],
[24.6789,50.3637],
[24.5702,50.4631],
[24.5563,50.495],
[24.4783,50.5411],
[24.3781,50.5729],
[24.3168,50.58],
[24.2778,50.5941],
[24.2252,50.5954],
[24.146,50.617],
[24.1097,50.5999],
[24.0918,50.5917],
[24.0469,50.5275],
[23.9945,50.499],
[23.9046,50.4799],
[23.7848,50.4799],
[23.6838,50.4513],
[23.6351,50.3797],
[23.5565,50.3654],
[23.4404,50.3702],
[23.1334,50.3463],
[22.9575,50.2842],
[22.7329,50.2937],
[22.6842,50.32],
[22.6093,50.3272],
[22.5307,50.3009],
[22.4746,50.2961],
[22.4409,50.3344],
[22.3922,50.3654],
[22.3585,50.3988],
[22.3622,50.4656],
[22.3885,50.518],
[22.3622,50.5632],
[22.2649,50.5846],
[22.1863,50.625],
[22.0964,50.644],
[22.0522,50.6638],
[21.9804,50.7673],
[21.9355,50.7839],
[21.8606,50.7815],
[21.8269,50.7649],
[21.797,50.7318],
[21.7614,50.6606],
[21.7296,50.6321],
[21.6622,50.5442],
[21.6322,50.5275],
[21.4862,50.4871],
[21.3178,50.4108],
[21.2504,50.3606],
[21.2017,50.3391],
[21.022,50.3272],
[20.7899,50.2746],
[20.6813,50.2075],
[20.6327,50.1668],
[20.5391,50.1452],
[20.4792,50.1428],
[20.3781,50.1236],
[20.2433,50.0732],
[20.1947,50.114],
[20.0449,50.1188],
[19.8465,50.1404],
[19.663,50.1809],
[19.5133,50.2243],
[19.4609,50.2315],
[19.1894,50.2362],
[19.2305,50.1134],
[19.2009,50.0708],
[19.1639,50.047],
[19.1639,50.0138],
[19.1196,49.9615],
[18.9791,49.933],
[18.75,49.933],
[18.6761,49.9044],
[18.5788,49.9096]
]
]
]}
}
