{
"type": "Feature",
"properties": {"id":"cshapes-731-1948-09-09","edge_precision":"unknown","cshapes_gwcode":731,"cshapes_name":"Korea, People's Republic of","cshapes_first_day":"1948-09-09","cshapes_last_day":"2019-12-31","cshapes_status":"independent","cshapes_owner":731,"cshapes_borders_defined":true},
"geometry": {"type": "MultiPolygon", "coordinates": [
[
[
[124.324,39.9159],
[124.3636,39.865],
[124.4064,39.8317],
[124.4989,39.8211],
[124.5617,39.8],
[124.6501,39.6769],
[124.6311,39.6499],
[124.6359,39.598],
[124.7408,39.6293],
[124.7557,39.6778],
[124.7464,39.7142],
[124.7453,39.7732],
[124.8461,39.7214],
[125.1203,39.5587],
[125.2904,39.5193],
[125.442,39.5767],
[125.4504,39.5724],
[125.3468,39.4593],
[125.3381,39.4345],
[125.36,39.3935],
[125.4017,39.3589],
[125.4219,39.308],
[125.4117,39.2797],
[125.3883,39.2375],
[125.3397,39.2033],
[125.2903,39.1553],
[125.2841,39.1155],
[125.1997,38.9219],
[125.1494,38.8696],
[125.1405,38.7981],
[125.2447,38.7164],
[125.2832,38.6971],
[125.4322,38.7222],
[125.5172,38.7178],
[125.633,38.6549],
[125.6526,38.6245],
[125.6255,38.6242],
[125.5925,38.6368],
[125.554,38.6742],
[125.4472,38.7005],
[125.3771,38.6918],
[125.309,38.6517],
[125.1566,38.6447],
[125.0553,38.5807],
[124.9933,38.5864],
[124.9583,38.4633],
[124.8655,38.3325],
[124.8625,38.2292],
[124.8214,38.1889],
[124.7441,38.1439],
[124.6763,38.1396],
[124.6701,38.1195],
[124.7669,38.0967],
[124.865,38.1029],
[125.0218,38.0629],
[125.133,38.0911],
[125.2569,38.0773],
[125.2738,38.0637],
[125.2416,38.014],
[125.2061,38.043],
[125.1175,38.0425],
[124.9829,37.9333],
[125.0215,37.8955],
[125.1325,37.868],
[125.176,37.8642],
[125.219,37.8888],
[125.24,37.9271],
[125.3528,37.8617],
[125.3875,37.8961],
[125.4561,37.9125],
[125.5097,37.8855],
[125.4875,37.8375],
[125.3839,37.7924],
[125.3335,37.7161],
[125.34,37.6758],
[125.3807,37.7087],
[125.5211,37.7844],
[125.5654,37.7823],
[125.6431,37.8189],
[125.7244,37.9108],
[125.6462,37.9665],
[125.5925,37.9918],
[125.5771,38.0171],
[125.6053,38.0261],
[125.7485,38.0026],
[125.8037,37.9853],
[125.8244,37.9411],
[125.9201,37.8359],
[125.9851,37.8292],
[125.9722,37.8691],
[125.9433,37.8901],
[125.97,37.9057],
[126.0428,37.8636],
[126.0664,37.7947],
[126.1048,37.7412],
[126.1494,37.7344],
[126.1611,37.7576],
[126.1435,37.8183],
[126.2082,37.8454],
[126.3886,37.8872],
[126.3998,37.886],
[126.4215,37.8569],
[126.4792,37.8203],
[126.5824,37.772],
[126.6247,37.7886],
[126.6885,37.8339],
[126.7366,37.9551],
[126.8072,38.0005],
[126.9353,38.1286],
[126.9866,38.2137],
[127.1308,38.2982],
[127.2514,38.3189],
[127.3664,38.3233],
[127.5375,38.3075],
[127.669,38.3197],
[128.0547,38.3067],
[128.1371,38.3293],
[128.225,38.3817],
[128.2797,38.4303],
[128.2973,38.4594],
[128.3134,38.5246],
[128.3085,38.5876],
[128.3636,38.6252],
[128.3627,38.6769],
[128.3372,38.7022],
[128.2933,38.7275],
[128.2636,38.7379],
[128.2014,38.7353],
[128.1222,38.8192],
[128.065,38.8464],
[128.0108,38.8585],
[127.8558,38.9874],
[127.7828,39.0883],
[127.6455,39.125],
[127.5408,39.1403],
[127.4478,39.1645],
[127.3997,39.1953],
[127.3764,39.2351],
[127.3747,39.3722],
[127.4575,39.4201],
[127.4978,39.4278],
[127.5317,39.3887],
[127.5362,39.359],
[127.5243,39.3422],
[127.5283,39.303],
[127.5584,39.3192],
[127.5044,39.6447],
[127.5031,39.7128],
[127.5176,39.7396],
[127.5605,39.7822],
[127.6123,39.8112],
[127.869,39.8859],
[127.9336,39.9717],
[128.0014,40.0372],
[128.1841,40.0236],
[128.3325,40.0536],
[128.598,40.1742],
[128.6367,40.2728],
[128.8733,40.3643],
[128.9778,40.4504],
[129.0779,40.4622],
[129.1079,40.4779],
[129.1707,40.5629],
[129.1705,40.5855],
[129.2152,40.6793],
[129.5646,40.8212],
[129.6642,40.8336],
[129.702,40.8307],
[129.7273,40.8599],
[129.7522,40.9419],
[129.723,40.9801],
[129.7186,41.0039],
[129.7139,41.1122],
[129.7197,41.1805],
[129.7697,41.3003],
[129.788,41.3258],
[129.8036,41.3774],
[129.6962,41.4358],
[129.6666,41.4796],
[129.6642,41.5497],
[129.6979,41.6457],
[129.7822,41.756],
[129.8472,41.7567],
[129.9497,41.8839],
[129.9841,41.9799],
[130.2083,42.1678],
[130.4208,42.3119],
[130.5003,42.3239],
[130.5797,42.3051],
[130.5963,42.2789],
[130.5997,42.2546],
[130.6823,42.2799],
[130.6974,42.2922],
[130.655,42.3181],
[130.659,42.3753],
[130.6328,42.4114],
[130.6044,42.4219],
[130.5675,42.443],
[130.5142,42.5681],
[130.3284,42.6418],
[130.2468,42.7142],
[130.2362,42.7862],
[130.2503,42.8317],
[130.2514,42.8879],
[130.0341,42.958],
[129.9292,43.0061],
[129.9046,43.0046],
[129.8777,42.9918],
[129.847,42.9425],
[129.7533,42.7139],
[129.7255,42.5475],
[129.7329,42.5222],
[129.7283,42.4754],
[129.7166,42.4525],
[129.6955,42.4358],
[129.5147,42.3869],
[129.4451,42.4328],
[129.3493,42.4462],
[129.2461,42.3758],
[129.2094,42.2658],
[129.2112,42.2213],
[129.1144,42.1394],
[129.0154,42.0946],
[128.9581,42.0784],
[128.9493,42.0521],
[128.9269,42.0274],
[128.6831,42.021],
[128.5703,42.0003],
[128.4971,41.9955],
[128.4729,41.9976],
[128.4225,42.0286],
[128.3361,42.0397],
[128.2755,42.0383],
[128.0566,42.0012],
[128.0501,41.9816],
[128.0608,41.9105],
[128.0984,41.803],
[128.1557,41.7146],
[128.2694,41.6369],
[128.3002,41.5828],
[128.2822,41.5303],
[128.2225,41.4411],
[128.1927,41.4075],
[128.1529,41.3812],
[128.1143,41.3718],
[128.0441,41.3894],
[128.0117,41.4158],
[127.928,41.4473],
[127.8353,41.41],
[127.6942,41.4131],
[127.6208,41.4181],
[127.2708,41.4725],
[127.1594,41.53],
[127.135,41.5936],
[127.057,41.6435],
[127.0608,41.6911],
[127.048,41.7083],
[126.9276,41.7961],
[126.9047,41.7922],
[126.8479,41.7358],
[126.7955,41.708],
[126.7128,41.6911],
[126.6455,41.6605],
[126.5661,41.6118],
[126.568,41.5897],
[126.5832,41.5708],
[126.5103,41.39],
[126.484,41.3667],
[126.4561,41.3572],
[126.3669,41.2757],
[126.31,41.2144],
[126.2792,41.1528],
[126.1247,41.0347],
[126.0118,40.8969],
[125.9325,40.8776],
[125.6958,40.8561],
[125.6039,40.7558],
[125.4575,40.7033],
[125.4127,40.6538],
[125.3691,40.64],
[125.315,40.65],
[125.2861,40.6475],
[125.0428,40.5375],
[125.0247,40.4942],
[125.04,40.4607],
[124.9622,40.4592],
[124.8851,40.4704],
[124.711,40.307],
[124.6269,40.2836],
[124.5547,40.2422],
[124.375,40.097],
[124.3886,40.0225],
[124.324,39.9159]
]
]
]}
}
