{
"type": "Feature",
"properties": {"id":"cshapes-460-1888-12-01","edge_precision":"unknown","cshapes_gwcode":460,"cshapes_name":"German Togoland","cshapes_first_day":"1888-12-01","cshapes_last_day":"1896-12-31","cshapes_status":"colony","cshapes_owner":255,"cshapes_borders_defined":false},
"geometry": {"type": "MultiPolygon", "coordinates": [
[
[
[-0.1736,8.6293],
[-0.1562,8.5668],
[-0.0382,8.2925],
[0.0503,8.1884],
[0.0503,8.1172],
[-0.0243,8.1189],
[-0.0469,8.1397],
[-0.0694,8.1484],
[-0.1128,8.1467],
[-0.1371,7.9662],
[-0.0608,7.9089],
[-0.0677,7.8238],
[-0.0538,7.6797],
[0.0139,7.6329],
[0.0156,7.5773],
[0.0989,7.527],
[0.1337,7.494],
[0.1545,7.3968],
[0.1771,7.3586],
[0.217,7.3308],
[0.2638,7.178],
[0.2638,7.1433],
[0.2413,7.1155],
[0.2465,7.0531],
[0.2014,6.9888],
[0.2014,6.8829],
[0.1701,6.8604],
[0.0677,6.8135],
[0.0451,6.7788],
[0.0434,6.6955],
[0.0746,6.6486],
[0.092,6.5705],
[0.3385,6.567],
[0.4808,6.5739],
[0.4079,6.5149],
[0.2864,6.3969],
[0.2135,6.2892],
[0.3576,6.3031],
[0.8818,6.3066],
[1.0086,6.2268],
[1.0668,6.2122],
[1.1075,6.1606],
[1.2011,6.16],
[1.2008,6.1092],
[1.6331,6.2272],
[1.6525,6.2503],
[1.6831,6.2596],
[1.7978,6.2803],
[1.7715,6.4149],
[1.7492,6.4567],
[1.6931,6.5492],
[1.6168,6.5962],
[1.5753,6.6797],
[1.6075,6.7967],
[1.6042,6.8943],
[1.577,6.9093],
[1.5539,6.9966],
[1.6425,6.9956],
[1.6437,7.4097],
[1.6528,7.5218],
[1.6419,7.6282],
[1.6381,7.9986],
[1.624,8.3637],
[1.621,8.9994],
[-0.0396,9.0005],
[-0.0747,8.9331],
[-0.0712,8.822],
[-0.1024,8.7334],
[-0.1736,8.6293]
]
]
]}
}
