{
"type": "Feature",
"properties": {"id":"cshapes-824-1946-07-01","edge_precision":"unknown","cshapes_gwcode":824,"cshapes_name":"Sarawak","cshapes_first_day":"1946-07-01","cshapes_last_day":"1963-09-15","cshapes_status":"colony","cshapes_owner":200,"cshapes_borders_defined":true},
"geometry": {"type": "MultiPolygon", "coordinates": [
[
[
[109.5473,1.9069],
[109.5639,1.8336],
[109.5913,1.7978],
[109.6158,1.7892],
[109.6672,1.7064],
[109.6687,1.617],
[109.7168,1.5607],
[109.8247,1.4686],
[109.9317,1.4069],
[109.996,1.2886],
[110.0778,1.2158],
[110.1083,1.1983],
[110.1917,1.1809],
[110.3325,1.0019],
[110.46,0.9028],
[110.5221,0.8653],
[110.5744,0.8528],
[110.7019,0.8781],
[110.8103,0.913],
[110.8163,0.9421],
[110.8855,1.0056],
[110.9069,1.0151],
[111.0241,1.0247],
[111.2119,1.0697],
[111.2583,1.0672],
[111.4194,1.0081],
[111.5651,1.0003],
[111.6553,1.0369],
[111.6758,1.036],
[111.7286,1.0089],
[111.8039,0.9946],
[111.8272,0.9986],
[111.8601,1.0204],
[111.8912,1.0757],
[111.9579,1.1324],
[112.0744,1.1356],
[112.1322,1.1498],
[112.2129,1.3761],
[112.2123,1.3987],
[112.1866,1.4071],
[112.1847,1.4253],
[112.2014,1.4501],
[112.4728,1.5681],
[112.6803,1.5631],
[112.8841,1.5881],
[112.9997,1.5728],
[113.0386,1.5569],
[113.0575,1.5398],
[113.1264,1.4317],
[113.3408,1.3653],
[113.4561,1.2883],
[113.5869,1.2836],
[113.6362,1.2336],
[113.6591,1.2258],
[113.7904,1.3047],
[113.8425,1.3486],
[113.9263,1.4431],
[114.0844,1.47],
[114.2314,1.4436],
[114.3955,1.509],
[114.448,1.4943],
[114.5114,1.4481],
[114.5385,1.4339],
[114.56,1.4329],
[114.5827,1.4463],
[114.6744,1.6425],
[114.7108,1.7706],
[114.7833,1.8639],
[114.8506,1.8962],
[114.8619,1.9153],
[114.8725,2.014],
[114.8626,2.0465],
[114.844,2.0456],
[114.8005,2.0647],
[114.7775,2.1578],
[114.7915,2.2168],
[114.8092,2.2548],
[114.873,2.2794],
[114.9043,2.2767],
[114.9419,2.2885],
[115.0017,2.3606],
[115.2308,2.5081],
[115.2361,2.5297],
[115.1853,2.5969],
[115.1284,2.6085],
[115.0998,2.5989],
[115.0824,2.6136],
[115.1183,2.8511],
[115.1397,2.9061],
[115.2497,3.0108],
[115.3046,3.0093],
[115.3183,2.9878],
[115.378,2.9918],
[115.4872,3.0275],
[115.4972,3.0451],
[115.5208,3.1801],
[115.511,3.2042],
[115.5365,3.326],
[115.5708,3.4178],
[115.59,3.4264],
[115.6139,3.4204],
[115.6277,3.4343],
[115.6019,3.5392],
[115.5765,3.5901],
[115.5714,3.6661],
[115.6625,4.0783],
[115.6604,4.1032],
[115.6871,4.1738],
[115.766,4.2423],
[115.7787,4.3356],
[115.7586,4.4228],
[115.7586,4.4764],
[115.7249,4.7379],
[115.6644,4.9256],
[115.624,4.9792],
[115.5289,5.0419],
[115.4797,5.0228],
[115.3925,4.9253],
[115.3569,4.8994],
[115.3278,4.8937],
[115.2864,4.9258],
[115.2142,4.9565],
[115.1458,4.9032],
[115.223,4.805],
[115.2825,4.6117],
[115.2644,4.5411],
[115.2756,4.4451],
[115.3478,4.3642],
[115.3585,4.341],
[115.346,4.3146],
[115.3205,4.3156],
[115.108,4.3774],
[115.0964,4.3914],
[115.0267,4.6567],
[115.0208,4.7533],
[115.0289,4.8181],
[115.0184,4.8958],
[114.9843,4.8373],
[114.954,4.8196],
[114.8526,4.8036],
[114.7835,4.7427],
[114.7789,4.715],
[114.8155,4.5808],
[114.8292,4.4739],
[114.8392,4.441],
[114.859,4.4326],
[114.8669,4.3553],
[114.8064,4.1446],
[114.7054,4.05],
[114.644,4.0202],
[114.6145,4.0263],
[114.6085,4.0557],
[114.4755,4.2],
[114.4,4.2564],
[114.3296,4.3335],
[114.309,4.4332],
[114.241,4.5268],
[114.1598,4.5865],
[114.1398,4.591],
[113.9922,4.5985],
[113.971,4.5872],
[113.9644,4.5624],
[113.9919,4.4847],
[113.9947,4.4397],
[113.9644,4.3214],
[113.9261,4.2442],
[113.7355,3.9969],
[113.6697,3.9325],
[113.5178,3.8081],
[113.415,3.6919],
[113.3883,3.6433],
[113.275,3.4861],
[113.0422,3.1906],
[113.0105,3.1606],
[112.953,3.1289],
[112.8647,3.1008],
[112.093,2.9053],
[111.9503,2.8801],
[111.7936,2.8689],
[111.6626,2.8452],
[111.4439,2.689],
[111.4031,2.4808],
[111.4503,2.3686],
[111.3941,2.3561],
[111.3681,2.3391],
[111.3157,2.3874],
[111.2447,2.4293],
[111.221,2.4181],
[111.2028,2.3658],
[111.183,2.2622],
[111.1728,2.146],
[111.1919,2.1411],
[111.355,2.1631],
[111.3719,2.1581],
[111.37,2.1467],
[111.3362,2.1079],
[111.2473,2.1191],
[111.2056,2.0664],
[111.1733,1.9481],
[111.0644,1.6822],
[111.0353,1.6703],
[111.0219,1.6494],
[111.0007,1.5799],
[111.0036,1.5514],
[111.0579,1.4619],
[111.1659,1.397],
[111.1882,1.3959],
[111.2419,1.4158],
[111.2872,1.4131],
[111.3783,1.346],
[111.3667,1.3406],
[111.3194,1.3331],
[111.1555,1.3639],
[111.063,1.405],
[110.9765,1.4964],
[110.8294,1.5653],
[110.7898,1.5694],
[110.7717,1.5585],
[110.7691,1.4933],
[110.7622,1.4794],
[110.7342,1.4528],
[110.6875,1.4447],
[110.6758,1.4505],
[110.735,1.5021],
[110.7405,1.5215],
[110.7281,1.5448],
[110.48,1.6242],
[110.4772,1.6433],
[110.3364,1.7994],
[110.3175,1.794],
[110.2531,1.7056],
[109.9818,1.6823],
[109.928,1.6905],
[109.8994,1.7219],
[109.6991,1.8607],
[109.6515,1.9364],
[109.6555,2.0028],
[109.6467,2.0677],
[109.6308,2.0317],
[109.5473,1.9069]
]
],
[
[
[111.2944,2.7409],
[111.3118,2.4972],
[111.3047,2.4582],
[111.3508,2.3719],
[111.368,2.3596],
[111.4115,2.3764],
[111.3769,2.4953],
[111.3797,2.7032],
[111.3499,2.7659],
[111.3289,2.7803],
[111.308,2.7717],
[111.2944,2.7409]
]
]
]}
}
