{
"type": "Feature",
"properties": {"id":"cshapes-702-1991-09-06","edge_precision":"unknown","cshapes_gwcode":702,"cshapes_name":"Tajikistan","cshapes_first_day":"1991-09-06","cshapes_last_day":"2019-12-31","cshapes_status":"independent","cshapes_owner":702,"cshapes_borders_defined":true},
"geometry": {"type": "MultiPolygon", "coordinates": [
[
[
[67.3654,39.2802],
[67.3799,39.2196],
[67.5219,39.1677],
[67.5966,39.1796],
[67.6248,39.1751],
[67.6969,39.1285],
[67.6976,39.0111],
[67.7173,38.9951],
[67.8608,38.9776],
[67.9844,39.008],
[68.1105,38.9989],
[68.1264,38.981],
[68.1401,38.9503],
[68.1827,38.9016],
[68.1936,38.8517],
[68.1743,38.8207],
[68.12,38.798],
[68.0742,38.6647],
[68.0712,38.5439],
[68.1249,38.4276],
[68.2198,38.3301],
[68.3371,38.2676],
[68.3643,38.2375],
[68.383,38.1949],
[68.38,38.1605],
[68.3378,38.0462],
[68.2685,37.9523],
[68.1711,37.934],
[68.1426,37.9163],
[68.123,37.8589],
[68.073,37.7653],
[68.0018,37.6875],
[67.9172,37.6172],
[67.8383,37.5058],
[67.8175,37.4461],
[67.8175,37.4164],
[67.8408,37.3525],
[67.8414,37.2817],
[67.8371,37.259],
[67.814,37.2187],
[67.7802,37.1872],
[67.7742,37.1155],
[67.7869,37.0922],
[68.0014,36.9361],
[68.058,36.9325],
[68.1825,37.0176],
[68.2841,37.0305],
[68.3344,37.1089],
[68.415,37.12],
[68.6273,37.2061],
[68.6394,37.2439],
[68.6622,37.2729],
[68.8094,37.3225],
[68.8911,37.3385],
[68.9692,37.3229],
[69.0058,37.3007],
[69.0315,37.2536],
[69.1244,37.1642],
[69.205,37.1164],
[69.2544,37.0957],
[69.3224,37.1194],
[69.41,37.1753],
[69.4237,37.2018],
[69.3814,37.3442],
[69.3744,37.388],
[69.3815,37.4535],
[69.5222,37.5824],
[69.6719,37.5744],
[69.793,37.5828],
[69.8675,37.6083],
[69.9119,37.6132],
[69.933,37.6026],
[69.9512,37.5728],
[70.0139,37.5455],
[70.1279,37.5289],
[70.1558,37.5362],
[70.2536,37.6157],
[70.2861,37.6997],
[70.2692,37.7713],
[70.2357,37.8222],
[70.1778,37.852],
[70.1655,37.8717],
[70.1625,37.929],
[70.2094,37.9289],
[70.2446,37.9433],
[70.3042,37.9995],
[70.3419,38.0187],
[70.4903,38.1619],
[70.5426,38.2528],
[70.7114,38.4099],
[70.7794,38.4415],
[70.9601,38.472],
[70.9882,38.4667],
[71.1513,38.381],
[71.2125,38.3197],
[71.2482,38.3042],
[71.306,38.2971],
[71.3619,38.2479],
[71.3658,38.1953],
[71.3558,38.1551],
[71.2661,37.9823],
[71.2521,37.9279],
[71.329,37.8901],
[71.5072,37.9475],
[71.5403,37.9441],
[71.5849,37.9117],
[71.5936,37.8743],
[71.5886,37.8157],
[71.5419,37.7267],
[71.5044,37.6094],
[71.4872,37.4181],
[71.4933,37.3703],
[71.4893,37.2785],
[71.4478,37.2096],
[71.4375,37.1661],
[71.4308,37.0669],
[71.4569,36.9447],
[71.5529,36.7636],
[71.5766,36.731],
[71.6153,36.6978],
[71.6772,36.676],
[71.7592,36.6749],
[71.8428,36.6921],
[72.2239,36.9427],
[72.3064,36.9781],
[72.4102,37.0026],
[72.518,37.0017],
[72.6625,37.0253],
[72.778,37.2104],
[72.7998,37.2292],
[72.8925,37.25],
[73.1078,37.3627],
[73.1578,37.403],
[73.2993,37.4604],
[73.4564,37.4761],
[73.5051,37.4727],
[73.613,37.4371],
[73.7472,37.4386],
[73.7763,37.4329],
[73.7699,37.3435],
[73.7187,37.3088],
[73.6467,37.3001],
[73.6206,37.2635],
[73.6313,37.2429],
[73.7386,37.2216],
[73.8171,37.2282],
[73.8719,37.2672],
[74.1461,37.3362],
[74.2542,37.4094],
[74.395,37.4012],
[74.5468,37.3817],
[74.6696,37.3921],
[74.823,37.3318],
[74.9157,37.2373],
[75.0966,37.3219],
[75.1875,37.4066],
[75.0694,37.5058],
[74.9543,37.5596],
[74.9211,37.6041],
[74.9036,37.6524],
[74.9144,37.6703],
[74.9394,37.6863],
[74.9865,37.7866],
[74.9271,37.8205],
[74.9062,37.8418],
[74.916,38.0079],
[74.9049,38.0259],
[74.8444,38.0516],
[74.8177,38.074],
[74.7925,38.1952],
[74.7943,38.3006],
[74.8029,38.3249],
[74.8622,38.3853],
[74.8682,38.4209],
[74.8544,38.4726],
[74.7932,38.5237],
[74.3547,38.6744],
[74.1452,38.6768],
[74.1228,38.6669],
[74.0621,38.5942],
[74.0787,38.5451],
[73.9673,38.5341],
[73.9394,38.5399],
[73.814,38.6127],
[73.763,38.7616],
[73.7086,38.8584],
[73.7082,38.8865],
[73.7233,38.9124],
[73.7498,38.9294],
[73.8192,38.9373],
[73.8457,38.9474],
[73.8523,38.9726],
[73.8419,38.9961],
[73.7761,39.0497],
[73.7284,39.0763],
[73.62,39.2357],
[73.669,39.3416],
[73.6555,39.4554],
[73.5247,39.4733],
[73.4914,39.4699],
[73.3678,39.4378],
[73.3576,39.404],
[73.1636,39.3545],
[72.8624,39.362],
[72.6573,39.4013],
[72.5986,39.3659],
[72.4844,39.3497],
[72.4245,39.3587],
[72.3478,39.3384],
[72.325,39.3169],
[72.3064,39.2571],
[72.2589,39.1955],
[72.1397,39.2746],
[72.0776,39.3714],
[71.9714,39.348],
[71.866,39.2919],
[71.7785,39.2776],
[71.7428,39.3088],
[71.7328,39.3338],
[71.7439,39.3609],
[71.7669,39.3878],
[71.7753,39.4171],
[71.7578,39.4558],
[71.7146,39.4614],
[71.5971,39.4492],
[71.5379,39.4644],
[71.5175,39.4887],
[71.5239,39.5159],
[71.5488,39.5476],
[71.5487,39.5722],
[71.5147,39.6044],
[71.4846,39.618],
[71.4064,39.6063],
[71.3264,39.5696],
[71.1026,39.5127],
[71.0739,39.4896],
[71.0454,39.422],
[70.997,39.396],
[70.7211,39.4254],
[70.6947,39.4893],
[70.6722,39.5126],
[70.6614,39.5494],
[70.6328,39.5798],
[70.5075,39.6071],
[70.3561,39.582],
[70.3019,39.5515],
[70.2375,39.5774],
[70.1814,39.5844],
[69.8466,39.5372],
[69.7819,39.5725],
[69.708,39.5878],
[69.6091,39.5822],
[69.5164,39.5386],
[69.3333,39.5188],
[69.3086,39.5349],
[69.3015,39.5604],
[69.3141,39.6303],
[69.31,39.6868],
[69.2625,39.7335],
[69.2495,39.7576],
[69.285,39.8872],
[69.3348,39.9926],
[69.4075,39.938],
[69.4248,39.9051],
[69.4983,39.9208],
[69.524,39.9345],
[69.5055,39.9626],
[69.4855,40.0378],
[69.4993,40.0729],
[69.5407,40.1289],
[69.5697,40.1093],
[69.6058,40.1119],
[70.0119,40.218],
[70.2857,40.1326],
[70.3296,40.0907],
[70.3515,40.0821],
[70.5422,40.046],
[70.5582,40.0281],
[70.5465,40.003],
[70.4886,39.9692],
[70.468,39.9279],
[70.4943,39.9081],
[70.603,39.9582],
[70.6397,39.985],
[70.6543,40.0075],
[70.6634,40.1007],
[70.8861,40.1713],
[70.9574,40.1748],
[70.9857,40.1899],
[70.995,40.2286],
[70.982,40.2448],
[70.8607,40.2412],
[70.7489,40.2091],
[70.645,40.2059],
[70.6236,40.2119],
[70.5894,40.2552],
[70.461,40.3504],
[70.3755,40.3764],
[70.3431,40.4458],
[70.37,40.4713],
[70.734,40.6751],
[70.7968,40.7256],
[70.7842,40.7492],
[70.7125,40.7704],
[70.6672,40.8274],
[70.658,40.8702],
[70.5486,40.9774],
[70.4691,41.0377],
[70.439,41.0493],
[70.4176,41.0477],
[70.3912,41.0366],
[70.3757,41.0092],
[70.3744,40.9618],
[70.3608,40.9349],
[70.3235,40.8992],
[70.2529,40.8582],
[70.0503,40.77],
[69.8181,40.7125],
[69.7596,40.6519],
[69.7268,40.6388],
[69.6897,40.6426],
[69.669,40.6553],
[69.5883,40.725],
[69.5715,40.7512],
[69.5372,40.7808],
[69.4515,40.8111],
[69.4006,40.7999],
[69.3653,40.7794],
[69.3489,40.764],
[69.27,40.5955],
[69.2597,40.5028],
[69.3283,40.3747],
[69.3387,40.3335],
[69.3194,40.2097],
[69.3025,40.199],
[69.2269,40.1905],
[69.1341,40.2087],
[69.0358,40.2387],
[68.7279,40.2025],
[68.642,40.1841],
[68.6057,40.1658],
[68.6367,40.14],
[68.7081,40.1171],
[68.8762,40.1476],
[68.9911,40.1408],
[69.0087,40.1037],
[68.995,40.0706],
[68.823,40.0787],
[68.7846,40.0679],
[68.8116,40.0008],
[68.9047,39.8923],
[68.7576,39.8296],
[68.723,39.8686],
[68.6494,39.8604],
[68.6372,39.8394],
[68.6286,39.7711],
[68.6276,39.6505],
[68.5403,39.5547],
[68.4733,39.5375],
[68.3533,39.5367],
[68.1489,39.5567],
[67.838,39.6195],
[67.7297,39.6292],
[67.6819,39.6153],
[67.5044,39.5289],
[67.442,39.4836],
[67.4315,39.3679],
[67.4091,39.2969],
[67.3654,39.2802]
]
]
]}
}
