{
"type": "Feature",
"properties": {"id":"cshapes-325-1886-01-01","edge_precision":"unknown","cshapes_gwcode":325,"cshapes_name":"Italy/Sardinia","cshapes_first_day":"1886-01-01","cshapes_last_day":"1919-09-09","cshapes_status":"independent","cshapes_owner":325,"cshapes_borders_defined":true},
"geometry": {"type": "MultiPolygon", "coordinates": [
[
[
[6.63,45.1204],
[6.6617,45.04],
[6.749,44.9183],
[6.8493,44.8704],
[6.9017,44.8604],
[6.9424,44.8707],
[7.0064,44.8507],
[7.0317,44.8314],
[7.0283,44.7447],
[6.9508,44.6647],
[6.8528,44.5408],
[6.8779,44.3751],
[6.9764,44.2842],
[7.0314,44.2469],
[7.3508,44.1315],
[7.421,44.1261],
[7.6147,44.1803],
[7.6622,44.1708],
[7.6617,44.134],
[7.7076,44.0836],
[7.6586,44.0068],
[7.5983,43.9647],
[7.4962,43.8745],
[7.5319,43.782],
[7.5802,43.7912],
[7.6655,43.7796],
[7.7389,43.7962],
[7.7728,43.8153],
[7.9489,43.8464],
[8.0678,43.8931],
[8.1647,43.9587],
[8.1563,43.9828],
[8.2343,44.1004],
[8.274,44.1408],
[8.3992,44.1798],
[8.4439,44.2679],
[8.4953,44.3226],
[8.7472,44.4281],
[8.8156,44.4256],
[9.2311,44.3469],
[9.3365,44.3097],
[9.3728,44.2853],
[9.715,44.1147],
[10.0273,44.0442],
[10.0908,44.0186],
[10.1794,43.9447],
[10.2362,43.879],
[10.2675,43.7961],
[10.2951,43.5426],
[10.3245,43.4751],
[10.3776,43.4458],
[10.4228,43.398],
[10.5183,43.2575],
[10.5426,43.1501],
[10.5333,43.0528],
[10.5889,42.9575],
[10.6807,42.9465],
[10.7326,42.9287],
[10.7751,42.899],
[10.769,42.8392],
[10.8625,42.7669],
[10.9657,42.7244],
[11.0803,42.6322],
[11.1581,42.555],
[11.1872,42.5125],
[11.1839,42.4849],
[11.1647,42.4456],
[11.1099,42.4424],
[11.0846,42.4303],
[11.0974,42.3965],
[11.1797,42.3651],
[11.2018,42.3908],
[11.206,42.4118],
[11.2317,42.4175],
[11.3728,42.4046],
[11.5342,42.3428],
[11.6277,42.2983],
[11.7039,42.2244],
[11.7394,42.1495],
[11.8308,42.0303],
[11.9125,42.036],
[12.0211,41.9858],
[12.1233,41.9231],
[12.1778,41.8681],
[12.2158,41.7881],
[12.4471,41.6276],
[12.5761,41.5072],
[12.6561,41.4578],
[12.8922,41.3956],
[12.98,41.3264],
[13.0296,41.2601],
[13.1168,41.2433],
[13.2111,41.2825],
[13.2761,41.2951],
[13.5668,41.2381],
[13.6442,41.2597],
[13.7122,41.2511],
[13.7981,41.1933],
[13.9,41.078],
[13.9892,40.9633],
[14.0739,40.8219],
[14.1669,40.8069],
[14.2689,40.8402],
[14.3119,40.8262],
[14.4528,40.7479],
[14.4745,40.7102],
[14.391,40.638],
[14.363,40.6274],
[14.4019,40.6],
[14.7535,40.676],
[14.7749,40.673],
[14.8308,40.6315],
[14.8983,40.5587],
[14.9917,40.3957],
[14.9906,40.364],
[14.9642,40.3414],
[14.9272,40.2711],
[14.9419,40.2342],
[15.0125,40.1955],
[15.1374,40.1607],
[15.3549,40.0009],
[15.4164,39.9915],
[15.5098,40.0701],
[15.5607,40.0761],
[15.6187,40.0646],
[15.6637,40.0331],
[15.7289,39.9569],
[15.7819,39.8628],
[15.8079,39.6793],
[15.9039,39.5339],
[15.9267,39.5165],
[15.9809,39.4496],
[16.0338,39.3444],
[16.0533,39.2564],
[16.0642,39.1292],
[16.0997,39.0228],
[16.1571,38.9482],
[16.2198,38.9214],
[16.2211,38.8686],
[16.2081,38.7978],
[16.1782,38.7452],
[16.1292,38.7156],
[15.9844,38.7217],
[15.8498,38.6573],
[15.829,38.628],
[15.8769,38.5933],
[15.9226,38.546],
[15.9061,38.4728],
[15.8153,38.3025],
[15.7947,38.2815],
[15.7374,38.2575],
[15.6296,38.2293],
[15.6453,38.063],
[15.6351,38.0046],
[15.6678,37.9578],
[15.7561,37.9208],
[15.9228,37.9278],
[15.9961,37.9189],
[16.0573,37.9242],
[16.1135,37.9753],
[16.1356,38.0208],
[16.16,38.1283],
[16.3304,38.2979],
[16.4706,38.3464],
[16.5156,38.3769],
[16.5692,38.4283],
[16.5764,38.4486],
[16.575,38.5203],
[16.5345,38.7094],
[16.5736,38.7797],
[16.595,38.8008],
[16.615,38.8176],
[16.7308,38.8755],
[16.8349,38.9171],
[16.9758,38.939],
[17.0978,38.9078],
[17.1269,38.9194],
[17.1692,38.9633],
[17.1582,39.039],
[17.1418,39.0537],
[17.1167,39.0987],
[17.1089,39.2631],
[17.116,39.3146],
[17.1456,39.3964],
[17.0342,39.4661],
[16.9631,39.4928],
[16.7414,39.6172],
[16.6264,39.6228],
[16.5557,39.6446],
[16.53,39.6629],
[16.4906,39.7492],
[16.4867,39.7737],
[16.4992,39.8224],
[16.5633,39.898],
[16.6097,39.9962],
[16.5994,40.0436],
[16.6086,40.0862],
[16.63,40.1099],
[16.6881,40.1471],
[16.7413,40.2165],
[16.7497,40.2449],
[16.7915,40.3114],
[16.9193,40.4505],
[16.9983,40.4989],
[17.0766,40.5205],
[17.317,40.4883],
[17.29,40.4697],
[17.2681,40.4733],
[17.2038,40.4125],
[17.3928,40.3306],
[17.5068,40.2975],
[17.6735,40.304],
[17.8572,40.2844],
[17.9064,40.255],
[18.0122,40.1013],
[18.0194,40.0112],
[17.9966,39.9988],
[18.0408,39.9377],
[18.1558,39.8567],
[18.1994,39.8375],
[18.305,39.82],
[18.3494,39.7919],
[18.3753,39.7982],
[18.3911,39.8162],
[18.3994,39.9361],
[18.4187,39.994],
[18.4439,40.028],
[18.4724,40.0392],
[18.5144,40.1029],
[18.5125,40.1347],
[18.4249,40.2885],
[18.2747,40.4108],
[18.1275,40.4944],
[18.0392,40.5553],
[18.0126,40.6431],
[17.9372,40.6786],
[17.4736,40.8289],
[17.2949,40.9648],
[17.1837,41.0296],
[17.0497,41.0819],
[16.6578,41.1914],
[15.985,41.4397],
[15.9262,41.4858],
[15.8983,41.5303],
[15.8904,41.5653],
[15.8976,41.6133],
[15.9378,41.6406],
[16.0306,41.6769],
[16.1389,41.7406],
[16.1928,41.79],
[16.1937,41.8294],
[16.1456,41.9112],
[16.0825,41.9361],
[16.0229,41.9467],
[15.7653,41.9169],
[15.6,41.9236],
[15.4047,41.9039],
[15.1624,41.9244],
[15.0992,41.9372],
[15.0628,41.9528],
[14.9964,42.0044],
[14.894,42.0205],
[14.7365,42.0879],
[14.7217,42.104],
[14.7162,42.1681],
[14.5658,42.2189],
[14.5042,42.2614],
[14.2,42.4825],
[14.1306,42.5411],
[14.0167,42.67],
[13.9397,42.8036],
[13.8736,42.9644],
[13.8481,43.0783],
[13.7117,43.3506],
[13.6296,43.489],
[13.6215,43.537],
[13.5994,43.57],
[13.5064,43.6307],
[13.4804,43.611],
[13.4261,43.6228],
[13.2953,43.6754],
[13.1933,43.7358],
[13.056,43.8358],
[12.9031,43.9247],
[12.8186,43.9632],
[12.7406,43.9722],
[12.6897,43.9875],
[12.4464,44.1678],
[12.3683,44.2467],
[12.28,44.4761],
[12.2454,44.6939],
[12.2476,44.7239],
[12.2615,44.7762],
[12.2901,44.8383],
[12.3969,44.7914],
[12.3899,44.8684],
[12.4226,44.9001],
[12.4394,44.8817],
[12.4268,44.8536],
[12.4488,44.8177],
[12.48,44.8528],
[12.5381,44.9606],
[12.5201,44.9826],
[12.4437,45.0082],
[12.3619,45.0561],
[12.2333,45.1975],
[12.1611,45.2639],
[12.1542,45.302],
[12.2871,45.4733],
[12.3944,45.5331],
[12.4897,45.5675],
[12.5807,45.5438],
[12.504,45.4913],
[12.4485,45.4833],
[12.4183,45.4412],
[12.5875,45.4839],
[12.9225,45.6183],
[13.0636,45.6339],
[13.0919,45.6441],
[13.0712,45.7096],
[13.1209,45.7678],
[13.1933,45.7781],
[13.2563,45.7666],
[13.2956,45.8016],
[13.2941,45.8592],
[13.3471,45.9005],
[13.3768,45.8929],
[13.4158,45.9276],
[13.4314,45.9743],
[13.4832,46.0164],
[13.5219,46.0633],
[13.6482,46.1455],
[13.666,46.1753],
[13.5506,46.218],
[13.4885,46.2319],
[13.4189,46.2131],
[13.3835,46.2951],
[13.4408,46.3464],
[13.5114,46.3847],
[13.461,46.4365],
[13.4594,46.473],
[13.4002,46.4666],
[13.3627,46.4709],
[13.3377,46.4923],
[13.2316,46.5117],
[13.1848,46.546],
[13.1762,46.575],
[12.8256,46.6312],
[12.7783,46.6479],
[12.7356,46.6413],
[12.6925,46.6597],
[12.5544,46.6617],
[12.4406,46.6908],
[12.3995,46.6605],
[12.2972,46.6227],
[12.2736,46.5687],
[12.2854,46.5146],
[12.2579,46.4983],
[12.1753,46.4794],
[12.0966,46.4929],
[12.0376,46.455],
[11.9314,46.4875],
[11.8527,46.4577],
[11.8331,46.4387],
[11.8134,46.4008],
[11.7977,46.3492],
[11.8449,46.2677],
[11.8803,46.2514],
[11.9078,46.1806],
[11.8999,46.1425],
[11.8409,46.0988],
[11.8095,46.0988],
[11.7151,46.0743],
[11.6639,46.0238],
[11.6561,45.9869],
[11.6364,45.9787],
[11.5695,45.9896],
[11.5341,46.0142],
[11.4869,46.0115],
[11.3493,45.9541],
[11.3493,45.9322],
[11.3375,45.9076],
[11.2745,45.9076],
[11.2352,45.8775],
[11.2194,45.8364],
[11.1919,45.8117],
[11.1762,45.7404],
[11.1368,45.6758],
[11.011,45.6937],
[10.9362,45.6662],
[10.9126,45.6854],
[10.834,45.7129],
[10.8694,45.7376],
[10.8694,45.7925],
[10.8261,45.8199],
[10.7514,45.8391],
[10.7002,45.8391],
[10.657,45.8227],
[10.653,45.7788],
[10.6334,45.7349],
[10.6019,45.7294],
[10.5626,45.7486],
[10.476,45.8419],
[10.4682,45.8802],
[10.4682,45.9705],
[10.476,46.0115],
[10.5114,46.0333],
[10.5547,46.0852],
[10.5626,46.1125],
[10.5527,46.137],
[10.5075,46.1534],
[10.4957,46.1779],
[10.535,46.2024],
[10.5547,46.235],
[10.5547,46.3193],
[10.5311,46.3668],
[10.594,46.417],
[10.5862,46.4767],
[10.476,46.5037],
[10.4533,46.5407],
[10.3036,46.5549],
[10.2463,46.5904],
[10.2536,46.616],
[10.2418,46.6344],
[10.1811,46.6322],
[10.1192,46.6114],
[10.0514,46.5415],
[10.0444,46.5026],
[10.0497,46.4456],
[10.1539,46.3903],
[10.174,46.2631],
[10.1364,46.2307],
[10.0718,46.2218],
[9.995,46.2917],
[9.9822,46.333],
[9.9904,46.3552],
[9.9469,46.3796],
[9.9081,46.3832],
[9.8131,46.3583],
[9.7706,46.3422],
[9.7088,46.3003],
[9.6247,46.2919],
[9.5449,46.3062],
[9.5214,46.3197],
[9.4576,46.3862],
[9.4503,46.4267],
[9.455,46.4725],
[9.3668,46.5081],
[9.2938,46.5008],
[9.2506,46.4424],
[9.2731,46.4258],
[9.2972,46.351],
[9.2926,46.3249],
[9.241,46.2336],
[9.1765,46.1786],
[9.1383,46.1642],
[9.0833,46.1211],
[9.0358,46.0572],
[8.9974,45.9751],
[9.023,45.939],
[9.0731,45.92],
[9.0841,45.9023],
[9.0367,45.8378],
[8.9983,45.8294],
[8.9511,45.8453],
[8.8978,45.9528],
[8.8199,45.9864],
[8.8203,46.0339],
[8.8515,46.0567],
[8.8442,46.0808],
[8.8222,46.0986],
[8.7472,46.1211],
[8.7241,46.1063],
[8.6965,46.1011],
[8.6158,46.1212],
[8.445,46.2472],
[8.4346,46.2932],
[8.466,46.3726],
[8.4608,46.4483],
[8.4415,46.4621],
[8.3612,46.4518],
[8.3037,46.4229],
[8.1419,46.2229],
[8.1587,46.1838],
[8.1496,46.1512],
[8.009,46.0093],
[7.9731,45.9969],
[7.9068,45.9926],
[7.8793,45.9751],
[7.8557,45.9191],
[7.7433,45.9322],
[7.7092,45.9433],
[7.6503,45.9806],
[7.5367,45.9817],
[7.4581,45.9411],
[7.3861,45.9154],
[7.2968,45.9232],
[7.1914,45.8807],
[7.1033,45.8835],
[7.0381,45.9319],
[6.9845,45.8759],
[6.9222,45.8522],
[6.8724,45.856],
[6.8133,45.8342],
[6.7993,45.7887],
[6.8099,45.7296],
[6.9694,45.5969],
[6.9954,45.5253],
[7.0892,45.4769],
[7.1469,45.4305],
[7.1586,45.3775],
[7.1278,45.2593],
[7.0647,45.2231],
[6.9394,45.1794],
[6.8217,45.1531],
[6.7664,45.1682],
[6.6899,45.1481],
[6.63,45.1204]
],
[
[12.4101,43.9128],
[12.4114,43.9548],
[12.4597,43.9833],
[12.5047,43.9869],
[12.5111,43.9412],
[12.4715,43.8987],
[12.4101,43.9128]
]
],
[
[
[8.1482,40.6208],
[8.164,40.5874],
[8.196,40.616],
[8.3018,40.5875],
[8.3672,40.4928],
[8.4572,40.3214],
[8.4644,40.1433],
[8.4089,40.0068],
[8.396,39.9013],
[8.43,39.8946],
[8.4566,39.9101],
[8.5204,39.9023],
[8.554,39.8677],
[8.5572,39.845],
[8.5419,39.7794],
[8.4972,39.7237],
[8.452,39.759],
[8.4433,39.6819],
[8.4482,39.6327],
[8.4131,39.4936],
[8.3715,39.3729],
[8.3981,39.3435],
[8.4186,39.3394],
[8.4324,39.2906],
[8.4242,39.2689],
[8.3661,39.2261],
[8.4321,39.1631],
[8.4592,39.1175],
[8.4538,39.0897],
[8.4258,39.1071],
[8.3568,39.1058],
[8.3458,39.0737],
[8.36,39.0303],
[8.4083,38.9585],
[8.4365,38.9647],
[8.4745,39.0365],
[8.5054,39.061],
[8.5514,39.05],
[8.6158,38.9186],
[8.6464,38.8903],
[8.7117,38.9218],
[8.8512,38.8779],
[8.9021,38.9026],
[9.0069,38.9881],
[9.0433,39.045],
[9.0161,39.1017],
[9.0135,39.2632],
[9.1543,39.1847],
[9.2953,39.2139],
[9.3425,39.1942],
[9.4426,39.1244],
[9.5217,39.1183],
[9.5651,39.1456],
[9.5676,39.2285],
[9.6422,39.4864],
[9.6753,39.7308],
[9.6706,39.7794],
[9.7136,40.0406],
[9.6983,40.1022],
[9.6568,40.1392],
[9.6267,40.1932],
[9.6233,40.2519],
[9.6572,40.3083],
[9.7056,40.354],
[9.7613,40.3856],
[9.8003,40.4425],
[9.8242,40.5272],
[9.7503,40.5975],
[9.7425,40.6386],
[9.7503,40.6662],
[9.6592,40.8525],
[9.6128,40.9211],
[9.5664,40.9131],
[9.5105,40.9204],
[9.6339,40.9892],
[9.5625,41.1178],
[9.5133,41.1467],
[9.2331,41.2547],
[9.1645,41.2392],
[9.1608,41.1917],
[9.0469,41.1303],
[9.0126,41.1219],
[8.8103,40.9344],
[8.7826,40.9185],
[8.7014,40.9124],
[8.6387,40.8905],
[8.6043,40.8486],
[8.5797,40.84],
[8.48,40.8203],
[8.3564,40.8361],
[8.2844,40.86],
[8.2322,40.9097],
[8.2281,40.9384],
[8.1925,40.9136],
[8.1489,40.7442],
[8.1497,40.7214],
[8.1722,40.6922],
[8.1783,40.6364],
[8.1482,40.6208]
]
],
[
[
[10.102,42.7769],
[10.1208,42.7435],
[10.1522,42.7301],
[10.2092,42.7353],
[10.2347,42.7464],
[10.3408,42.7653],
[10.4231,42.7111],
[10.4392,42.8519],
[10.4131,42.8701],
[10.3931,42.8561],
[10.3557,42.8053],
[10.2335,42.7928],
[10.2086,42.8092],
[10.145,42.8108],
[10.119,42.8029],
[10.102,42.7769]
]
],
[
[
[12.4362,37.8047],
[12.4683,37.6992],
[12.5142,37.6589],
[12.6561,37.5598],
[12.6814,37.5551],
[12.7928,37.579],
[12.9229,37.5731],
[13.0858,37.493],
[13.156,37.4912],
[13.2183,37.4553],
[13.2724,37.3985],
[13.33,37.3611],
[13.5053,37.2872],
[13.5668,37.2758],
[13.6651,37.1968],
[13.7383,37.1578],
[13.8876,37.0994],
[13.9324,37.0947],
[13.9981,37.1103],
[14.1018,37.1099],
[14.2458,37.0622],
[14.3736,36.9664],
[14.4411,36.8733],
[14.4592,36.8342],
[14.5536,36.7803],
[14.7792,36.7044],
[14.8632,36.7281],
[15.0236,36.6986],
[15.0865,36.6505],
[15.134,36.6741],
[15.0958,36.7857],
[15.1103,36.84],
[15.1507,36.9133],
[15.3167,37.0089],
[15.3161,37.0431],
[15.2999,37.1031],
[15.26,37.1098],
[15.2307,37.1249],
[15.1869,37.1839],
[15.0927,37.3483],
[15.0858,37.4631],
[15.0925,37.4903],
[15.1681,37.5619],
[15.2178,37.7092],
[15.2197,37.7644],
[15.369,37.9439],
[15.5036,38.0786],
[15.5289,38.1369],
[15.5762,38.2367],
[15.6479,38.2646],
[15.5458,38.2969],
[15.5154,38.2929],
[15.0887,38.1225],
[14.9694,38.1572],
[14.8744,38.1706],
[14.7847,38.1544],
[14.6435,38.0773],
[14.5194,38.0428],
[14.3119,38.0122],
[14.2428,38.0122],
[14.0139,38.0358],
[13.9443,38.0296],
[13.8867,37.9981],
[13.7911,37.9722],
[13.7607,37.971],
[13.7114,37.9767],
[13.3825,38.1075],
[13.3672,38.1208],
[13.372,38.1528],
[13.3579,38.1869],
[13.3186,38.2175],
[13.1003,38.1845],
[13.0561,38.1338],
[13.0695,38.0902],
[13.0192,38.0589],
[12.9236,38.0249],
[12.8928,38.0253],
[12.8217,38.0689],
[12.7336,38.1397],
[12.5582,38.0606],
[12.5101,38.0151],
[12.4664,37.9161],
[12.4778,37.8728],
[12.4585,37.818],
[12.4362,37.8047]
]
]
]}
}
