{
"type": "Feature",
"properties": {"id":"cshapes-305-1919-09-10","edge_precision":"unknown","cshapes_gwcode":305,"cshapes_name":"Austria","cshapes_first_day":"1919-09-10","cshapes_last_day":"2019-12-31","cshapes_status":"independent","cshapes_owner":305,"cshapes_borders_defined":true},
"geometry": {"type": "MultiPolygon", "coordinates": [
[
[
[9.5368,47.2794],
[9.5664,47.2439],
[9.6339,47.1306],
[9.6336,47.0971],
[9.6035,47.0645],
[9.8729,47.023],
[9.8916,47.0003],
[9.8758,46.9682],
[9.8778,46.9404],
[9.935,46.9128],
[10.1094,46.8503],
[10.1608,46.855],
[10.2275,46.8769],
[10.3133,46.9336],
[10.3506,46.9912],
[10.3908,47.0026],
[10.43,46.9842],
[10.4882,46.936],
[10.4723,46.8698],
[10.4978,46.8553],
[10.5636,46.8489],
[10.6801,46.8738],
[10.7633,46.8306],
[10.7917,46.8014],
[10.8342,46.7869],
[10.8878,46.7711],
[11.0168,46.7733],
[11.0714,46.8235],
[11.1006,46.9154],
[11.1772,46.9674],
[11.4839,47.0142],
[11.6219,47.0128],
[11.7101,46.9964],
[11.7311,46.9789],
[11.7612,46.9782],
[12.1861,47.0946],
[12.2274,47.0759],
[12.1946,47.033],
[12.133,47.0126],
[12.1361,46.9669],
[12.1603,46.9281],
[12.3017,46.8411],
[12.3837,46.7211],
[12.4406,46.6908],
[12.5544,46.6617],
[12.6925,46.6597],
[12.7356,46.6413],
[12.7783,46.6479],
[12.8256,46.6312],
[13.2575,46.5619],
[13.555,46.5562],
[13.7187,46.522],
[13.9369,46.5158],
[14.1158,46.4789],
[14.1537,46.4426],
[14.4781,46.4194],
[14.545,46.4075],
[14.8159,46.5182],
[14.832,46.565],
[14.8675,46.6133],
[15.1018,46.6563],
[15.4061,46.6525],
[15.859,46.7232],
[15.9879,46.7551],
[15.9883,46.8316],
[16.1379,46.8789],
[16.2536,46.9583],
[16.3028,47.0114],
[16.5049,47.0068],
[16.5056,47.115],
[16.4593,47.1473],
[16.4209,47.2104],
[16.4447,47.2444],
[16.4743,47.26],
[16.4914,47.2819],
[16.4564,47.3689],
[16.452,47.4128],
[16.5925,47.4253],
[16.6552,47.4582],
[16.7053,47.5211],
[16.7139,47.5439],
[16.6664,47.6144],
[16.6326,47.6344],
[16.5967,47.6289],
[16.4931,47.6467],
[16.4326,47.6664],
[16.4506,47.6981],
[16.5586,47.7564],
[16.6356,47.7603],
[16.7235,47.7265],
[16.7358,47.7021],
[16.7642,47.6854],
[16.9108,47.6908],
[17.0539,47.7094],
[17.0717,47.7286],
[17.0686,47.7683],
[17.0568,47.7946],
[17.0606,47.8769],
[17.1081,47.9714],
[17.1739,48.0167],
[17.1167,48.0386],
[17.0811,48.0883],
[17.0691,48.1353],
[17.0335,48.1453],
[16.9753,48.1883],
[16.9524,48.2503],
[16.9497,48.278],
[16.9239,48.2821],
[16.8447,48.362],
[16.8558,48.4494],
[16.8657,48.4687],
[16.9333,48.5328],
[16.9462,48.6191],
[16.9179,48.7032],
[16.8925,48.7258],
[16.8329,48.7162],
[16.7856,48.7199],
[16.7117,48.7464],
[16.6588,48.7853],
[16.5406,48.8124],
[16.4583,48.8112],
[16.413,48.7519],
[16.3822,48.736],
[16.3331,48.7331],
[16.1033,48.75],
[16.0606,48.7603],
[15.8494,48.8597],
[15.686,48.864],
[15.5644,48.9092],
[15.5144,48.92],
[15.359,48.9847],
[15.1567,48.9997],
[15.0286,49.0187],
[15.0042,49.0114],
[14.9796,48.9799],
[14.985,48.9392],
[14.9589,48.7947],
[14.8856,48.7828],
[14.8237,48.7851],
[14.7272,48.6935],
[14.7167,48.6543],
[14.7194,48.604],
[14.7029,48.5833],
[14.6119,48.6285],
[14.5056,48.6283],
[14.4464,48.6189],
[14.3903,48.5925],
[14.2783,48.5825],
[14.1842,48.5961],
[14.0514,48.6698],
[13.9986,48.714],
[13.8836,48.7636],
[13.8336,48.7736],
[13.8147,48.7381],
[13.8225,48.6247],
[13.8037,48.5826],
[13.726,48.5156],
[13.6769,48.5323],
[13.6346,48.558],
[13.5186,48.5846],
[13.4432,48.5602],
[13.4575,48.5156],
[13.4379,48.4294],
[13.4223,48.3921],
[13.395,48.3661],
[13.2917,48.3077],
[13.1544,48.2922],
[13.0178,48.2594],
[12.8712,48.2029],
[12.7597,48.1217],
[12.7662,48.0822],
[12.9189,47.9578],
[13.0089,47.8542],
[12.9442,47.7887],
[12.914,47.725],
[12.9937,47.7142],
[13.0231,47.7242],
[13.072,47.6927],
[13.097,47.649],
[13.0533,47.4976],
[13.0198,47.4748],
[12.9579,47.477],
[12.8067,47.5547],
[12.7882,47.5835],
[12.8016,47.6071],
[12.8278,47.6212],
[12.7369,47.6827],
[12.6658,47.685],
[12.6034,47.6723],
[12.5771,47.647],
[12.5144,47.6333],
[12.455,47.6678],
[12.2011,47.6575],
[12.2016,47.613],
[12.1414,47.6111],
[12.0064,47.6244],
[11.6831,47.5847],
[11.5799,47.5241],
[11.5083,47.5096],
[11.4575,47.5122],
[11.2964,47.4289],
[11.104,47.3965],
[10.9822,47.3995],
[10.9094,47.5181],
[10.6908,47.5539],
[10.5694,47.5403],
[10.4818,47.5865],
[10.4337,47.5805],
[10.4364,47.5292],
[10.4662,47.4829],
[10.4737,47.4376],
[10.3427,47.3181],
[10.2289,47.276],
[10.1733,47.2747],
[10.2109,47.3216],
[10.2317,47.3737],
[10.0431,47.4953],
[9.9579,47.5382],
[9.8034,47.5935],
[9.7754,47.5912],
[9.7472,47.5667],
[9.7328,47.5411],
[9.6925,47.5295],
[9.6088,47.5295],
[9.5721,47.539],
[9.5598,47.5021],
[9.5966,47.4694],
[9.6497,47.4586],
[9.6703,47.3907],
[9.611,47.3622],
[9.5368,47.2794]
]
]
]}
}
