{
"type": "Feature",
"properties": {"id":"cshapes-300-1908-10-07","edge_precision":"unknown","cshapes_gwcode":300,"cshapes_name":"Austria-Hungary","cshapes_first_day":"1908-10-07","cshapes_last_day":"1918-11-02","cshapes_status":"independent","cshapes_owner":300,"cshapes_borders_defined":true},
"geometry": {"type": "MultiPolygon", "coordinates": [
[
[
[9.5368,47.2794],
[9.5664,47.2439],
[9.6339,47.1306],
[9.6336,47.0971],
[9.6035,47.0645],
[9.8729,47.023],
[9.8916,47.0003],
[9.8758,46.9682],
[9.8778,46.9404],
[9.935,46.9128],
[10.1094,46.8503],
[10.1608,46.855],
[10.2275,46.8769],
[10.3133,46.9336],
[10.3506,46.9912],
[10.3908,47.0026],
[10.43,46.9842],
[10.4882,46.936],
[10.4475,46.7631],
[10.4708,46.6358],
[10.4865,46.6174],
[10.4857,46.5926],
[10.4719,46.5558],
[10.4533,46.5407],
[10.476,46.5037],
[10.5862,46.4767],
[10.594,46.417],
[10.5311,46.3668],
[10.5547,46.3193],
[10.5547,46.235],
[10.535,46.2024],
[10.4957,46.1779],
[10.5075,46.1534],
[10.5527,46.137],
[10.5626,46.1125],
[10.5547,46.0852],
[10.5114,46.0333],
[10.476,46.0115],
[10.4682,45.9705],
[10.4682,45.8802],
[10.476,45.8419],
[10.5626,45.7486],
[10.6019,45.7294],
[10.6334,45.7349],
[10.653,45.7788],
[10.657,45.8227],
[10.7002,45.8391],
[10.7514,45.8391],
[10.8261,45.8199],
[10.8694,45.7925],
[10.8694,45.7376],
[10.834,45.7129],
[10.9126,45.6854],
[10.9362,45.6662],
[11.011,45.6937],
[11.1368,45.6758],
[11.1762,45.7404],
[11.1919,45.8117],
[11.2194,45.8364],
[11.2352,45.8775],
[11.2745,45.9076],
[11.3375,45.9076],
[11.3493,45.9322],
[11.3493,45.9541],
[11.4869,46.0115],
[11.5341,46.0142],
[11.5695,45.9896],
[11.6364,45.9787],
[11.6561,45.9869],
[11.6639,46.0238],
[11.7151,46.0743],
[11.8095,46.0988],
[11.8409,46.0988],
[11.8999,46.1425],
[11.9078,46.1806],
[11.8803,46.2514],
[11.8449,46.2677],
[11.7977,46.3492],
[11.8134,46.4008],
[11.8331,46.4387],
[11.8527,46.4577],
[11.9314,46.4875],
[12.0376,46.455],
[12.0966,46.4929],
[12.1753,46.4794],
[12.2579,46.4983],
[12.2854,46.5146],
[12.2736,46.5687],
[12.2972,46.6227],
[12.3995,46.6605],
[12.4406,46.6908],
[12.5544,46.6617],
[12.6925,46.6597],
[12.7356,46.6413],
[12.7783,46.6479],
[12.8256,46.6312],
[13.1762,46.575],
[13.1848,46.546],
[13.2316,46.5117],
[13.3377,46.4923],
[13.3627,46.4709],
[13.4002,46.4666],
[13.4594,46.473],
[13.461,46.4365],
[13.5114,46.3847],
[13.4408,46.3464],
[13.3835,46.2951],
[13.4189,46.2131],
[13.4885,46.2319],
[13.5506,46.218],
[13.666,46.1753],
[13.6482,46.1455],
[13.5219,46.0633],
[13.4832,46.0164],
[13.4314,45.9743],
[13.4158,45.9276],
[13.3768,45.8929],
[13.3471,45.9005],
[13.2941,45.8592],
[13.2956,45.8016],
[13.2563,45.7666],
[13.4151,45.7206],
[13.4222,45.6956],
[13.3874,45.6783],
[13.4289,45.6772],
[13.4994,45.7094],
[13.5265,45.7351],
[13.5251,45.761],
[13.5426,45.7833],
[13.63,45.77],
[13.7357,45.6943],
[13.7981,45.6075],
[13.7169,45.5961],
[13.7499,45.549],
[13.6658,45.5431],
[13.5971,45.5196],
[13.5966,45.4774],
[13.555,45.4944],
[13.5048,45.502],
[13.5336,45.4017],
[13.595,45.2507],
[13.6031,45.1578],
[13.6811,45.0514],
[13.7569,44.9814],
[13.8392,44.8764],
[13.8169,44.8601],
[13.9044,44.7726],
[13.9952,44.8144],
[13.9758,44.824],
[13.9758,44.8469],
[13.9949,44.8906],
[14.0875,44.9614],
[14.1443,44.9622],
[14.1674,44.9891],
[14.1558,45.0394],
[14.1601,45.0769],
[14.2167,45.1233],
[14.2308,45.1442],
[14.2539,45.2319],
[14.2866,45.315],
[14.3231,45.351],
[14.4828,45.3111],
[14.585,45.2522],
[14.7249,45.1486],
[14.8315,45.1154],
[14.9193,44.966],
[14.9096,44.9115],
[14.8803,44.8521],
[14.8878,44.7162],
[14.8947,44.6953],
[14.9906,44.5794],
[15.0958,44.5181],
[15.1408,44.4731],
[15.2706,44.3692],
[15.4486,44.2832],
[15.5033,44.2761],
[15.5223,44.2633],
[15.4144,44.26],
[15.3214,44.3005],
[15.28,44.3058],
[15.2913,44.2534],
[15.2039,44.255],
[15.1451,44.2801],
[15.118,44.2708],
[15.1517,44.1964],
[15.2817,44.0731],
[15.4575,43.9226],
[15.526,43.895],
[15.5387,43.8793],
[15.5994,43.8453],
[15.6889,43.7789],
[15.7822,43.7562],
[15.9408,43.6836],
[15.9659,43.6318],
[15.9307,43.6282],
[15.9188,43.5669],
[15.9883,43.5044],
[16.0369,43.4818],
[16.1027,43.4758],
[16.1706,43.4923],
[16.1906,43.5117],
[16.3103,43.5431],
[16.354,43.5508],
[16.4306,43.5457],
[16.4692,43.5335],
[16.4992,43.5031],
[16.6378,43.4411],
[16.7642,43.4114],
[16.8817,43.4036],
[16.94,43.3647],
[17.045,43.2725],
[17.0682,43.241],
[17.1778,43.1739],
[17.2517,43.1542],
[17.3265,43.1164],
[17.455,43.0333],
[17.4706,43.0178],
[17.4762,42.9859],
[17.5189,42.9528],
[17.5785,42.9438],
[17.6574,42.8808],
[17.5228,42.9203],
[17.2989,43.0069],
[17.0106,43.048],
[17.0124,43.0062],
[17.0717,42.9864],
[17.1453,42.9767],
[17.2037,42.9819],
[17.365,42.9153],
[17.4392,42.8739],
[17.5525,42.8408],
[17.8772,42.7678],
[18.5169,42.4],
[18.5228,42.4301],
[18.4729,42.4715],
[18.4578,42.4934],
[18.4595,42.5686],
[18.5433,42.6151],
[18.5721,42.6412],
[18.5735,42.671],
[18.5578,42.714],
[18.5238,42.7276],
[18.4908,42.7664],
[18.4559,42.8313],
[18.4817,42.9662],
[18.5253,43.0114],
[18.647,43.0434],
[18.6581,43.0839],
[18.6461,43.1454],
[18.7028,43.2571],
[18.848,43.3496],
[18.9072,43.3572],
[18.9577,43.3195],
[18.9551,43.2939],
[19.0167,43.2394],
[19.0614,43.2382],
[19.0756,43.2553],
[19.0929,43.3053],
[19.0253,43.4324],
[19.005,43.4474],
[18.9571,43.4559],
[18.9499,43.506],
[19.0092,43.556],
[19.2253,43.5152],
[19.2875,43.5442],
[19.4086,43.5844],
[19.4797,43.5716],
[19.4939,43.5881],
[19.5106,43.6858],
[19.4901,43.7585],
[19.2512,43.9625],
[19.2395,44.0106],
[19.3089,43.9977],
[19.3666,43.9708],
[19.4285,43.9607],
[19.5258,43.9604],
[19.6198,44.0198],
[19.6186,44.0526],
[19.4858,44.1203],
[19.358,44.2094],
[19.2374,44.2652],
[19.1609,44.2868],
[19.1249,44.322],
[19.1044,44.3558],
[19.1308,44.5214],
[19.194,44.5602],
[19.3136,44.7047],
[19.3448,44.7669],
[19.3822,44.8648],
[19.3714,44.8892],
[19.337,44.8996],
[19.4069,44.9095],
[19.4949,44.9407],
[19.5902,44.9225],
[19.6709,44.8732],
[19.7039,44.8342],
[19.9459,44.7118],
[20.0779,44.7327],
[20.2135,44.7431],
[20.3089,44.8264],
[20.4555,44.9355],
[20.5942,44.9365],
[20.8888,44.8391],
[20.987,44.8502],
[21.1126,44.8836],
[21.3686,44.8611],
[21.3626,44.8281],
[21.3987,44.7831],
[21.5352,44.7771],
[21.5969,44.7558],
[21.6156,44.7108],
[21.6177,44.6828],
[21.6434,44.6608],
[21.7342,44.6558],
[21.7836,44.6619],
[21.997,44.633],
[22.0302,44.5917],
[22.0354,44.5595],
[22.0915,44.4989],
[22.1375,44.4803],
[22.1755,44.4833],
[22.3116,44.659],
[22.4288,44.7121],
[22.4661,44.7137],
[22.52,44.756],
[22.4934,44.8032],
[22.4757,44.8628],
[22.4802,44.938],
[22.5554,45.0226],
[22.5731,45.0664],
[22.52,45.1788],
[22.52,45.1975],
[22.5997,45.2411],
[22.6882,45.2723],
[22.7767,45.3159],
[23.1131,45.3283],
[23.1662,45.3532],
[23.4318,45.3283],
[23.5114,45.3408],
[23.5291,45.3905],
[23.5114,45.4465],
[23.5734,45.5085],
[23.6177,45.5023],
[23.6796,45.4589],
[23.777,45.434],
[23.9541,45.4899],
[24.0249,45.5209],
[24.2019,45.5643],
[24.4675,45.5271],
[24.6534,45.5271],
[24.9455,45.5767],
[25.0739,45.5612],
[25.1934,45.4775],
[25.2642,45.3843],
[25.3085,45.3657],
[25.4147,45.3968],
[25.5563,45.4899],
[25.636,45.5085],
[25.7068,45.5023],
[25.7599,45.4713],
[25.813,45.4589],
[25.9193,45.5271],
[26.0078,45.4589],
[26.0786,45.434],
[26.1848,45.5519],
[26.3353,45.6015],
[26.4327,45.6634],
[26.4415,45.7252],
[26.415,45.7808],
[26.4592,45.8919],
[26.4681,46.0825],
[26.4238,46.1378],
[26.3265,46.1991],
[26.2911,46.2481],
[26.3176,46.3337],
[26.3088,46.3704],
[26.1848,46.4253],
[26.1229,46.4741],
[26.1583,46.5594],
[26.1671,46.602],
[26.1229,46.6992],
[26.1229,46.8508],
[26.0343,46.9113],
[25.937,46.9415],
[25.7953,47.0683],
[25.7245,47.0984],
[25.6006,47.1285],
[25.4678,47.1466],
[25.3616,47.1827],
[25.3527,47.2308],
[25.4235,47.2548],
[25.4766,47.3029],
[25.5961,47.3299],
[25.6891,47.3989],
[25.7599,47.4048],
[25.8219,47.3149],
[25.9193,47.3149],
[25.9724,47.3209],
[26.0875,47.3689],
[26.1671,47.3689],
[26.2202,47.4108],
[26.2202,47.4468],
[26.2645,47.4707],
[26.2999,47.4468],
[26.3442,47.4408],
[26.3619,47.4767],
[26.3973,47.4946],
[26.4327,47.4946],
[26.4858,47.4647],
[26.5124,47.4887],
[26.4947,47.5365],
[26.4592,47.5604],
[26.3884,47.5843],
[26.3442,47.6141],
[26.2822,47.7155],
[26.2468,47.7393],
[26.2025,47.7452],
[26.1494,47.7869],
[26.1406,47.8166],
[26.1583,47.8701],
[26.2645,47.9294],
[26.2468,47.9828],
[26.1976,48.0033],
[26.0963,48.1012],
[26.0963,48.1662],
[26.1229,48.2134],
[26.2556,48.1898],
[26.3176,48.1957],
[26.2999,48.2664],
[26.2468,48.3371],
[26.1848,48.39],
[26.1494,48.4488],
[26.171,48.5314],
[26.2841,48.5088],
[26.3656,48.5088],
[26.3249,48.5903],
[26.3122,48.6472],
[26.239,48.6821],
[26.2094,48.719],
[26.1996,48.7472],
[26.2357,48.8079],
[26.2127,48.8447],
[26.2094,48.8728],
[26.1733,48.9507],
[26.17,48.9744],
[26.2026,49.0183],
[26.2026,49.5073],
[26.2433,49.7314],
[26.077,49.7414],
[25.96,49.7018],
[25.882,49.6946],
[25.7595,49.6982],
[25.6146,49.7648],
[25.5088,49.8314],
[25.4921,49.8816],
[25.4308,49.9713],
[25.2637,50.05],
[25.2136,50.1001],
[25.1746,50.2784],
[25.1189,50.3211],
[24.9964,50.3566],
[24.8125,50.3318],
[24.6789,50.3637],
[24.5702,50.4631],
[24.5563,50.495],
[24.4783,50.5411],
[24.3781,50.5729],
[24.3168,50.58],
[24.2778,50.5941],
[24.2252,50.5954],
[24.146,50.617],
[24.0918,50.5917],
[24.0469,50.5275],
[23.9945,50.499],
[23.9046,50.4799],
[23.7848,50.4799],
[23.6838,50.4513],
[23.6351,50.3797],
[23.5565,50.3654],
[23.4404,50.3702],
[23.1334,50.3463],
[22.9575,50.2842],
[22.7329,50.2937],
[22.6842,50.32],
[22.6093,50.3272],
[22.5307,50.3009],
[22.4746,50.2961],
[22.4409,50.3344],
[22.3922,50.3654],
[22.3585,50.3988],
[22.3622,50.4656],
[22.3885,50.518],
[22.3622,50.5632],
[22.2649,50.5846],
[22.1863,50.625],
[22.0964,50.644],
[22.0522,50.6638],
[21.9804,50.7673],
[21.9355,50.7839],
[21.8606,50.7815],
[21.8269,50.7649],
[21.797,50.7318],
[21.7614,50.6606],
[21.7296,50.6321],
[21.6622,50.5442],
[21.5873,50.5109],
[21.4862,50.4871],
[21.3178,50.4108],
[21.2504,50.3606],
[21.2017,50.3391],
[21.022,50.3272],
[20.7899,50.2746],
[20.6813,50.2075],
[20.6327,50.1668],
[20.5391,50.1452],
[20.4792,50.1428],
[20.3781,50.1236],
[20.2433,50.0732],
[20.1947,50.114],
[20.0449,50.1188],
[19.8465,50.1404],
[19.663,50.1809],
[19.5133,50.2243],
[19.4609,50.2315],
[19.1894,50.2362],
[19.2305,50.1134],
[19.2009,50.0708],
[19.1639,50.047],
[19.1639,50.0138],
[19.1196,49.9615],
[18.9791,49.933],
[18.75,49.933],
[18.6982,49.9092],
[18.6465,49.9044],
[18.5788,49.9096],
[18.5527,49.9224],
[18.3503,49.9389],
[18.2703,49.9578],
[18.0532,50.0559],
[18.0094,50.0111],
[17.9207,49.9774],
[17.8762,49.979],
[17.8401,49.9896],
[17.6578,50.1081],
[17.6063,50.1627],
[17.6953,50.179],
[17.7637,50.2094],
[17.7531,50.2978],
[17.7244,50.319],
[17.697,50.3203],
[17.6935,50.3],
[17.6611,50.2724],
[17.6268,50.2655],
[17.4331,50.2703],
[17.3783,50.2794],
[17.1181,50.3967],
[16.9108,50.4401],
[16.891,50.4387],
[16.8687,50.4112],
[16.9728,50.31],
[17.0022,50.2169],
[16.9114,50.2224],
[16.8469,50.2018],
[16.8071,50.1745],
[16.7867,50.1405],
[16.7153,50.0983],
[16.64,50.1089],
[16.5878,50.14],
[16.566,50.1703],
[16.5622,50.2082],
[16.5487,50.2262],
[16.4586,50.3036],
[16.3719,50.3611],
[16.2661,50.3897],
[16.219,50.4103],
[16.2077,50.439],
[16.3099,50.5006],
[16.3589,50.4979],
[16.4067,50.523],
[16.4474,50.5788],
[16.4303,50.6015],
[16.332,50.664],
[16.2375,50.6706],
[16.1181,50.6578],
[16.0714,50.6356],
[16.0244,50.63],
[15.9469,50.6894],
[15.7875,50.7442],
[15.4883,50.7867],
[15.3797,50.7794],
[15.3628,50.8406],
[15.3117,50.8603],
[15.2828,50.8921],
[15.2725,50.9245],
[15.2904,50.949],
[15.2753,50.975],
[15.1769,51.0147],
[15.0164,50.9741],
[15.0192,50.9506],
[15.0039,50.8675],
[14.9667,50.8592],
[14.8267,50.8611],
[14.8024,50.8197],
[14.7392,50.824],
[14.6192,50.8583],
[14.6314,50.8811],
[14.6283,50.9236],
[14.5972,50.9825],
[14.5692,51.0056],
[14.4917,51.0367],
[14.306,51.0523],
[14.2856,51.0375],
[14.2581,50.9951],
[14.3212,50.9461],
[14.3683,50.935],
[14.3114,50.8822],
[14.1556,50.843],
[13.9907,50.8144],
[13.9036,50.7882],
[13.8911,50.7689],
[13.7342,50.7308],
[13.6347,50.7222],
[13.5822,50.7094],
[13.5416,50.69],
[13.5117,50.6417],
[13.4634,50.6017],
[13.4231,50.6091],
[13.3783,50.6294],
[13.2496,50.5892],
[13.1872,50.5028],
[13.0794,50.4981],
[12.9888,50.4197],
[12.9447,50.41],
[12.8331,50.4503],
[12.8032,50.4497],
[12.6714,50.4119],
[12.621,50.4119],
[12.5154,50.3925],
[12.3986,50.3092],
[12.3255,50.2359],
[12.3231,50.2067],
[12.2811,50.2185],
[12.1826,50.3146],
[12.0993,50.3214],
[12.1221,50.3085],
[12.2092,50.1636],
[12.1938,50.1363],
[12.2061,50.1062],
[12.2708,50.0638],
[12.4294,49.9939],
[12.49,49.9765],
[12.546,49.9096],
[12.4685,49.7835],
[12.4568,49.7037],
[12.5155,49.6772],
[12.6011,49.5231],
[12.6744,49.425],
[12.7972,49.3399],
[12.959,49.3349],
[13.0311,49.2878],
[13.1731,49.1672],
[13.3185,49.1008],
[13.3972,49.0418],
[13.4025,49.0062],
[13.5097,48.9725],
[13.5719,48.9699],
[13.6261,48.9476],
[13.6722,48.8894],
[13.6994,48.8793],
[13.7281,48.8813],
[13.7456,48.8701],
[13.8117,48.8005],
[13.8173,48.7829],
[13.8336,48.7736],
[13.8147,48.7381],
[13.8225,48.6247],
[13.8037,48.5826],
[13.726,48.5156],
[13.6769,48.5323],
[13.6346,48.558],
[13.5186,48.5846],
[13.4432,48.5602],
[13.4575,48.5156],
[13.4379,48.4294],
[13.4223,48.3921],
[13.395,48.3661],
[13.2917,48.3077],
[13.1544,48.2922],
[13.0178,48.2594],
[12.8712,48.2029],
[12.7597,48.1217],
[12.7662,48.0822],
[12.9189,47.9578],
[13.0089,47.8542],
[12.9442,47.7887],
[12.914,47.725],
[12.9937,47.7142],
[13.0231,47.7242],
[13.072,47.6927],
[13.097,47.649],
[13.0533,47.4976],
[13.0198,47.4748],
[12.9579,47.477],
[12.8067,47.5547],
[12.7882,47.5835],
[12.8016,47.6071],
[12.8278,47.6212],
[12.7369,47.6827],
[12.6658,47.685],
[12.6034,47.6723],
[12.5771,47.647],
[12.5144,47.6333],
[12.455,47.6678],
[12.2011,47.6575],
[12.2016,47.613],
[12.1414,47.6111],
[12.0064,47.6244],
[11.6831,47.5847],
[11.5799,47.5241],
[11.5083,47.5096],
[11.4575,47.5122],
[11.2964,47.4289],
[11.104,47.3965],
[10.9822,47.3995],
[10.9094,47.5181],
[10.6908,47.5539],
[10.5694,47.5403],
[10.4818,47.5865],
[10.4337,47.5805],
[10.4364,47.5292],
[10.4662,47.4829],
[10.4737,47.4376],
[10.3427,47.3181],
[10.2289,47.276],
[10.1733,47.2747],
[10.2109,47.3216],
[10.2317,47.3737],
[10.0431,47.4953],
[9.9579,47.5382],
[9.8034,47.5935],
[9.7754,47.5912],
[9.7472,47.5667],
[9.7328,47.5411],
[9.6925,47.5295],
[9.6088,47.5295],
[9.5721,47.539],
[9.5598,47.5021],
[9.5966,47.4694],
[9.6497,47.4586],
[9.6703,47.3907],
[9.611,47.3622],
[9.5368,47.2794]
]
],
[
[
[14.2748,45.1219],
[14.2753,45.1033],
[14.3536,45.0451],
[14.3925,44.9561],
[14.3972,44.9116],
[14.3621,44.9074],
[14.3414,44.9161],
[14.3314,44.8497],
[14.3904,44.6939],
[14.4511,44.6264],
[14.4884,44.6067],
[14.5168,44.614],
[14.5301,44.6337],
[14.4706,44.7406],
[14.4594,44.8275],
[14.4226,44.9889],
[14.3769,45.0525],
[14.3589,45.1011],
[14.3583,45.1637],
[14.3132,45.1728],
[14.2748,45.1219]
]
],
[
[
[14.3381,44.7067],
[14.3675,44.5903],
[14.5179,44.4744],
[14.5335,44.4911],
[14.4072,44.6039],
[14.3954,44.6265],
[14.3932,44.6854],
[14.3381,44.7067]
]
],
[
[
[14.4288,45.0862],
[14.4364,45.07],
[14.4833,45.0354],
[14.6983,44.9478],
[14.7582,44.9419],
[14.8097,44.9749],
[14.8067,44.9964],
[14.7042,45.0683],
[14.6578,45.1228],
[14.5896,45.2383],
[14.5467,45.2435],
[14.4288,45.0862]
]
],
[
[
[14.7391,44.6933],
[14.7447,44.6756],
[14.9178,44.5049],
[15.0127,44.4419],
[15.1001,44.3347],
[15.1346,44.3069],
[15.1715,44.2958],
[15.2192,44.3058],
[15.2453,44.3429],
[15.1169,44.4394],
[15.0459,44.478],
[15.0424,44.4645],
[14.9763,44.5192],
[15.0108,44.5142],
[15.0585,44.4817],
[15.0733,44.48],
[15.0426,44.5228],
[14.9286,44.5983],
[14.9092,44.6078],
[14.8739,44.6081],
[14.7391,44.6933]
]
],
[
[
[14.8571,44.1648],
[14.8767,44.1365],
[14.9894,44.0555],
[15.0717,43.9575],
[15.1429,43.8932],
[15.1892,43.8724],
[15.2198,43.8977],
[15.084,43.9857],
[15.0367,44.0269],
[14.9925,44.0836],
[14.8571,44.1648]
]
],
[
[
[16.0583,43.0667],
[16.0644,43.0106],
[16.2099,43.0235],
[16.2521,43.0646],
[16.2306,43.0783],
[16.1397,43.0825],
[16.085,43.0775],
[16.0583,43.0667]
]
],
[
[
[16.3778,43.1953],
[16.4306,43.1694],
[16.6601,43.1194],
[17.0578,43.1125],
[17.11,43.1164],
[17.1164,43.1361],
[16.8111,43.1614],
[16.6133,43.2139],
[16.5653,43.218],
[16.4572,43.2103],
[16.3778,43.1953]
]
],
[
[
[16.4101,43.3204],
[16.5197,43.2764],
[16.6289,43.2619],
[16.8474,43.2679],
[16.8872,43.2978],
[16.8847,43.3172],
[16.7761,43.3594],
[16.4321,43.3905],
[16.4101,43.3204]
]
],
[
[
[16.6386,42.9845],
[16.6722,42.9261],
[16.8661,42.8978],
[16.9411,42.9114],
[17.1292,42.9115],
[17.1836,42.9186],
[17.1358,42.9619],
[17.0447,42.9753],
[16.9656,42.9764],
[16.8633,42.9561],
[16.6861,42.9908],
[16.6386,42.9845]
]
],
[
[
[17.3276,42.7819],
[17.3656,42.7594],
[17.7343,42.7005],
[17.6649,42.736],
[17.3706,42.8021],
[17.3276,42.7819]
]
]
]}
}
