{
"type": "Feature",
"properties": {"id":"cshapes-940-1899-11-14","edge_precision":"unknown","cshapes_gwcode":940,"cshapes_name":"Solomon Islands","cshapes_first_day":"1899-11-14","cshapes_last_day":"1951-12-31","cshapes_status":"protectorate","cshapes_owner":200,"cshapes_borders_defined":true},
"geometry": {"type": "MultiPolygon", "coordinates": [
[
[
[155.6713,-7.0915],
[155.7266,-7.1233],
[155.7691,-7.1294],
[155.8301,-7.1017],
[155.8534,-7.1049],
[155.869,-7.0627],
[155.8545,-7.0386],
[155.7363,-6.9681],
[155.7094,-6.9961],
[155.6911,-7.0294],
[155.6713,-7.0915]
]
],
[
[
[156.439,-6.6611],
[156.4652,-6.7369],
[156.5586,-6.8281],
[156.6837,-6.9017],
[156.8905,-7.1757],
[156.9321,-7.2164],
[157.1464,-7.3306],
[157.4418,-7.4184],
[157.4428,-7.4261],
[157.4644,-7.4],
[157.5025,-7.3801],
[157.5265,-7.3779],
[157.5351,-7.3592],
[157.5323,-7.3167],
[157.4993,-7.3016],
[157.4334,-7.3247],
[157.3193,-7.2838],
[157.1883,-7.1783],
[157.1462,-7.125],
[157.1254,-7.0597],
[157.1263,-6.9965],
[157.1163,-6.9743],
[157.0425,-6.9017],
[156.9841,-6.8668],
[156.7567,-6.7642],
[156.71,-6.7315],
[156.6515,-6.6589],
[156.5348,-6.6093],
[156.4865,-6.6055],
[156.4416,-6.6399],
[156.439,-6.6611]
]
],
[
[
[156.4982,-7.6343],
[156.4989,-7.6928],
[156.5072,-7.7118],
[156.5455,-7.7519],
[156.5652,-7.7581],
[156.703,-7.9508],
[156.7155,-7.8653],
[156.7268,-7.8424],
[156.7723,-7.8129],
[156.7908,-7.7906],
[156.8059,-7.7644],
[156.8083,-7.7287],
[156.6237,-7.5889],
[156.5838,-7.5706],
[156.5544,-7.5786],
[156.5182,-7.6031],
[156.4982,-7.6343]
]
],
[
[
[156.5267,-7.9544],
[156.532,-8.0866],
[156.5931,-8.2023],
[156.618,-8.1626],
[156.6086,-8.0708],
[156.5884,-7.9999],
[156.5514,-7.9455],
[156.5267,-7.9544]
]
],
[
[
[156.9461,-7.9721],
[156.9677,-8.0464],
[156.9916,-8.0769],
[157.0363,-8.1225],
[157.1516,-8.1499],
[157.1836,-8.1196],
[157.2041,-8.0594],
[157.1969,-7.9817],
[157.1803,-7.9256],
[157.1555,-7.8931],
[157.1219,-7.8592],
[157.087,-7.8525],
[157.0277,-7.8653],
[156.9814,-7.8964],
[156.9461,-7.9721]
]
],
[
[
[157.2004,-8.5619],
[157.2027,-8.5835],
[157.3075,-8.6944],
[157.343,-8.7197],
[157.3844,-8.7344],
[157.3397,-8.6858],
[157.327,-8.6442],
[157.3376,-8.5753],
[157.3656,-8.5819],
[157.409,-8.4967],
[157.4028,-8.4561],
[157.3864,-8.4282],
[157.3515,-8.4124],
[157.3009,-8.4469],
[157.2126,-8.5385],
[157.2004,-8.5619]
]
],
[
[
[157.215,-8.2561],
[157.2364,-8.3122],
[157.2611,-8.3339],
[157.2936,-8.34],
[157.3327,-8.3129],
[157.3625,-8.2744],
[157.5323,-8.2553],
[157.5555,-8.2689],
[157.6283,-8.3875],
[157.6199,-8.4142],
[157.5801,-8.3888],
[157.5741,-8.349],
[157.5605,-8.3335],
[157.5618,-8.3999],
[157.5775,-8.4368],
[157.6173,-8.4839],
[157.6569,-8.5056],
[157.6818,-8.515],
[157.7298,-8.5138],
[157.7531,-8.53],
[157.8008,-8.5894],
[157.8119,-8.6208],
[157.8222,-8.5956],
[157.8763,-8.5664],
[157.9062,-8.4831],
[157.8708,-8.4058],
[157.7777,-8.2483],
[157.7297,-8.2228],
[157.633,-8.2385],
[157.6119,-8.1583],
[157.6115,-8.0603],
[157.5975,-8.0261],
[157.5836,-8.0111],
[157.4932,-7.9669],
[157.4306,-7.9894],
[157.383,-8.0328],
[157.3275,-8.1272],
[157.2357,-8.1976],
[157.2166,-8.231],
[157.215,-8.2561]
]
],
[
[
[157.4467,-8.7167],
[157.4597,-8.7386],
[157.4933,-8.7583],
[157.5515,-8.7663],
[157.623,-8.8006],
[157.644,-8.7942],
[157.6512,-8.7742],
[157.6339,-8.7481],
[157.5968,-8.7136],
[157.559,-8.6932],
[157.4467,-8.7167]
]
],
[
[
[157.8748,-8.6817],
[157.9516,-8.7567],
[157.9972,-8.7721],
[158.0368,-8.7617],
[158.1047,-8.6985],
[158.1405,-8.5701],
[158.1239,-8.54],
[158.095,-8.5246],
[158.0017,-8.5081],
[157.9511,-8.53],
[157.8961,-8.5692],
[157.8755,-8.61],
[157.8748,-8.6817]
]
],
[
[
[158.3172,-7.5865],
[158.3594,-7.6406],
[158.5261,-7.6547],
[158.4862,-7.6133],
[158.3691,-7.5679],
[158.3172,-7.5865]
]
],
[
[
[158.4875,-7.5542],
[158.5225,-7.6246],
[158.5746,-7.6624],
[158.5888,-7.6901],
[158.5799,-7.7214],
[158.606,-7.7698],
[158.6759,-7.8061],
[158.8233,-7.9231],
[158.8441,-7.9465],
[158.8422,-7.9715],
[159.0139,-8.0872],
[159.2022,-8.1847],
[159.525,-8.3394],
[159.5614,-8.3537],
[159.6225,-8.3606],
[159.6991,-8.4114],
[159.8066,-8.5244],
[159.8444,-8.5475],
[159.89,-8.5576],
[159.8641,-8.5197],
[159.8512,-8.3319],
[159.5333,-8.1069],
[159.388,-7.9942],
[159.0786,-7.9043],
[158.9219,-7.7558],
[158.7617,-7.625],
[158.6458,-7.5679],
[158.4875,-7.5542]
]
],
[
[
[159.0324,-9.0699],
[159.0658,-9.1014],
[159.0994,-9.1197],
[159.1475,-9.1089],
[159.19,-9.0287],
[159.1351,-8.9937],
[159.095,-8.9975],
[159.0324,-9.0699]
]
],
[
[
[159.5343,-8.4608],
[159.549,-8.4806],
[159.6415,-8.5398],
[159.6814,-8.5468],
[159.7012,-8.515],
[159.6374,-8.3912],
[159.6052,-8.3775],
[159.5688,-8.3789],
[159.5363,-8.4083],
[159.5343,-8.4608]
]
],
[
[
[159.6018,-9.3206],
[159.6024,-9.4289],
[159.6169,-9.5375],
[159.7327,-9.7119],
[159.8343,-9.7992],
[160.0718,-9.8289],
[160.2355,-9.8125],
[160.3175,-9.8196],
[160.49,-9.8914],
[160.5988,-9.9233],
[160.6503,-9.93],
[160.7869,-9.8892],
[160.8252,-9.8666],
[160.8203,-9.8294],
[160.6572,-9.6294],
[160.6425,-9.6015],
[160.583,-9.5497],
[160.3864,-9.4267],
[160.3569,-9.4153],
[160.158,-9.4165],
[160.131,-9.4314],
[159.9986,-9.4375],
[159.9334,-9.4315],
[159.9065,-9.4158],
[159.8739,-9.3686],
[159.8089,-9.3078],
[159.723,-9.255],
[159.698,-9.2574],
[159.6478,-9.2814],
[159.6018,-9.3206]
]
],
[
[
[159.9622,-11.5264],
[159.9869,-11.5672],
[160.0242,-11.6049],
[160.1536,-11.6516],
[160.2083,-11.6572],
[160.2375,-11.6294],
[160.2782,-11.6411],
[160.3605,-11.7183],
[160.3765,-11.7468],
[160.3819,-11.7817],
[160.4724,-11.8417],
[160.4975,-11.8458],
[160.5275,-11.8081],
[160.518,-11.7506],
[160.4371,-11.68],
[160.0808,-11.4981],
[160,-11.4699],
[159.9673,-11.5044],
[159.9622,-11.5264]
]
],
[
[
[160.0771,-9.0443],
[160.1149,-9.0932],
[160.1939,-9.0885],
[160.227,-9.1014],
[160.2644,-9.1319],
[160.2892,-9.1089],
[160.2994,-9.0581],
[160.2933,-9.0439],
[160.2431,-9.0046],
[160.1901,-8.9969],
[160.0771,-9.0443]
]
],
[
[
[160.2177,-9.1684],
[160.2363,-9.1951],
[160.2849,-9.1852],
[160.2858,-9.1658],
[160.3043,-9.1604],
[160.3511,-9.1901],
[160.3874,-9.1728],
[160.408,-9.1329],
[160.3588,-9.1178],
[160.3221,-9.0603],
[160.3093,-9.0667],
[160.2986,-9.1188],
[160.2714,-9.1542],
[160.2177,-9.1684]
]
],
[
[
[160.5802,-8.335],
[160.5891,-8.385],
[160.6161,-8.4176],
[160.6421,-8.4344],
[160.71,-8.5231],
[160.7175,-8.5649],
[160.6573,-8.6069],
[160.6586,-8.6269],
[160.69,-8.7556],
[160.7222,-8.8056],
[160.8082,-9.0626],
[160.8855,-9.1843],
[160.9226,-9.1901],
[161.1937,-9.3964],
[161.2197,-9.4281],
[161.244,-9.4921],
[161.2936,-9.5681],
[161.379,-9.6319],
[161.3907,-9.5984],
[161.3773,-9.5079],
[161.2889,-9.3572],
[161.2422,-9.2111],
[161.2082,-9.1351],
[161.2266,-9.1178],
[161.2216,-9.0967],
[161.1632,-8.9697],
[161.021,-8.8415],
[160.9883,-8.8495],
[160.9443,-8.8165],
[160.9305,-8.7636],
[160.9497,-8.7103],
[161.0061,-8.6561],
[161.01,-8.6356],
[160.9836,-8.5906],
[160.8589,-8.4688],
[160.8237,-8.4118],
[160.8129,-8.3701],
[160.7551,-8.315],
[160.7152,-8.3061],
[160.5802,-8.335]
]
],
[
[
[161.2797,-10.3033],
[161.2851,-10.3337],
[161.3468,-10.3461],
[161.3701,-10.33],
[161.4005,-10.3333],
[161.4664,-10.3508],
[161.4986,-10.3678],
[161.5414,-10.5089],
[161.538,-10.5326],
[161.6364,-10.6253],
[161.7783,-10.7208],
[161.8822,-10.7686],
[162.1175,-10.8278],
[162.3058,-10.8419],
[162.3829,-10.8295],
[162.34,-10.8203],
[162.2633,-10.7856],
[162.2928,-10.7294],
[162.2867,-10.6844],
[162.2647,-10.6736],
[162.1324,-10.4736],
[162.1065,-10.4493],
[162.076,-10.4474],
[162.0549,-10.4791],
[162.0056,-10.48],
[161.8391,-10.4481],
[161.7235,-10.4027],
[161.6926,-10.3624],
[161.5453,-10.2767],
[161.4437,-10.2215],
[161.3458,-10.2033],
[161.297,-10.2119],
[161.2797,-10.3033]
]
],
[
[
[161.3509,-9.3497],
[161.3719,-9.4194],
[161.3911,-9.4396],
[161.4052,-9.4723],
[161.3933,-9.4901],
[161.3874,-9.521],
[161.3988,-9.5551],
[161.3951,-9.6647],
[161.4463,-9.7313],
[161.5005,-9.7322],
[161.5603,-9.7964],
[161.5719,-9.7742],
[161.5691,-9.7242],
[161.5555,-9.6376],
[161.5378,-9.5958],
[161.415,-9.3929],
[161.3509,-9.3497]
]
],
[
[
[165.7791,-10.81],
[165.8041,-10.851],
[165.8308,-10.8481],
[165.883,-10.8736],
[165.9555,-10.78],
[165.9713,-10.7717],
[166.0069,-10.7882],
[166.0611,-10.7954],
[166.1419,-10.758],
[166.1658,-10.6992],
[166.1573,-10.6781],
[166.0475,-10.665],
[165.9058,-10.6737],
[165.8089,-10.735],
[165.7797,-10.7636],
[165.7791,-10.81]
]
],
[
[
[166.7422,-11.6065],
[166.7936,-11.6776],
[166.8404,-11.696],
[166.8794,-11.6928],
[166.9135,-11.6854],
[166.9318,-11.6711],
[166.9211,-11.6478],
[166.8643,-11.5867],
[166.8323,-11.5743],
[166.766,-11.5784],
[166.7422,-11.6065]
]
]
]}
}
