{
"type": "Feature",
"properties": {"id":"cshapes-2-1886-01-01","edge_precision":"unknown","cshapes_gwcode":2,"cshapes_name":"United States of America","cshapes_first_day":"1886-01-01","cshapes_last_day":"1959-01-02","cshapes_status":"independent","cshapes_owner":2,"cshapes_borders_defined":true},
"geometry": {"type": "MultiPolygon", "coordinates": [
[
[
[-124.7143,48.3971],
[-124.682,48.2522],
[-124.6872,48.1844],
[-124.6814,48.1264],
[-124.6557,47.9969],
[-124.6182,47.925],
[-124.579,47.8851],
[-124.5487,47.883],
[-124.5256,47.8712],
[-124.4632,47.8243],
[-124.3593,47.6672],
[-124.3272,47.5358],
[-124.3007,47.3731],
[-124.2279,47.3139],
[-124.1833,47.2214],
[-124.1486,47.0608],
[-124.1642,46.9464],
[-124.1526,46.9417],
[-124.1106,46.9756],
[-124.1339,47.0421],
[-124.1116,47.0595],
[-124.075,47.0662],
[-124.0219,47.0472],
[-123.9892,47.0009],
[-123.9619,46.9886],
[-123.9092,46.9908],
[-123.8012,46.9768],
[-123.8719,46.9533],
[-123.9719,46.9328],
[-124.0822,46.8861],
[-124.0975,46.8614],
[-124.0781,46.7492],
[-124.0536,46.7355],
[-123.9593,46.723],
[-123.8765,46.7549],
[-123.8467,46.7467],
[-123.7595,46.6856],
[-123.7897,46.6778],
[-123.8308,46.7142],
[-123.8952,46.6874],
[-123.9408,46.6367],
[-123.9065,46.6058],
[-123.882,46.5642],
[-123.8792,46.5325],
[-123.8994,46.443],
[-123.9412,46.393],
[-123.9835,46.3938],
[-124.0135,46.4988],
[-124.0052,46.5744],
[-124.0183,46.6562],
[-124.0387,46.6567],
[-124.05,46.6251],
[-124.0383,46.4097],
[-124,46.3236],
[-123.8925,46.2657],
[-123.858,46.2605],
[-123.6936,46.3005],
[-123.5896,46.2726],
[-123.4875,46.2872],
[-123.4304,46.2869],
[-123.4092,46.2727],
[-123.3931,46.2417],
[-123.3714,46.2228],
[-123.2953,46.1774],
[-123.2583,46.1715],
[-123.1636,46.1952],
[-123.2039,46.1608],
[-123.2635,46.1449],
[-123.3986,46.175],
[-123.4744,46.2465],
[-123.5063,46.2501],
[-123.596,46.2025],
[-123.7022,46.188],
[-123.8289,46.1903],
[-123.9269,46.2144],
[-123.9519,46.1811],
[-123.9274,46.1333],
[-123.9092,46.0304],
[-123.95,45.8061],
[-123.9517,45.7658],
[-123.9047,45.7092],
[-123.9003,45.6747],
[-123.9311,45.5919],
[-123.8924,45.5726],
[-123.8716,45.529],
[-123.9441,45.5206],
[-123.956,45.2155],
[-123.9448,45.1799],
[-124.0225,44.8869],
[-124.0549,44.8369],
[-124.0594,44.79],
[-124.041,44.7392],
[-124.0478,44.6254],
[-124.0681,44.5226],
[-124.1314,43.9208],
[-124.1539,43.7939],
[-124.1158,43.7253],
[-124.1872,43.6744],
[-124.2222,43.5628],
[-124.2968,43.4027],
[-124.197,43.4561],
[-124.1428,43.3717],
[-124.1885,43.3782],
[-124.2067,43.3924],
[-124.2481,43.3958],
[-124.3342,43.3551],
[-124.3785,43.319],
[-124.37,43.2644],
[-124.4267,43.0407],
[-124.5149,42.9057],
[-124.5244,42.8661],
[-124.5219,42.8286],
[-124.4814,42.748],
[-124.4331,42.6949],
[-124.3926,42.6661],
[-124.3822,42.6289],
[-124.3847,42.5542],
[-124.4199,42.4839],
[-124.4086,42.3747],
[-124.3811,42.243],
[-124.3275,42.106],
[-124.1859,41.9995],
[-124.1753,41.9497],
[-124.1903,41.8694],
[-124.2156,41.82],
[-124.1814,41.7542],
[-124.1186,41.6831],
[-124.04,41.4278],
[-124.1222,41.1575],
[-124.1125,41.0575],
[-124.0993,41.0385],
[-124.0989,40.9919],
[-124.1431,40.8119],
[-124.1994,40.7455],
[-124.2294,40.7464],
[-124.275,40.6947],
[-124.3524,40.5322],
[-124.3758,40.4477],
[-124.3543,40.4153],
[-124.3233,40.3362],
[-124.3312,40.2725],
[-124.2972,40.238],
[-124.0624,40.0917],
[-123.9311,39.9497],
[-123.8675,39.8692],
[-123.7724,39.7097],
[-123.7369,39.555],
[-123.7742,39.4965],
[-123.7957,39.3533],
[-123.6861,39.1219],
[-123.6669,39.0255],
[-123.6746,39.0046],
[-123.7073,38.9711],
[-123.7015,38.9304],
[-123.62,38.8608],
[-123.4475,38.734],
[-123.3131,38.5739],
[-123.2372,38.5228],
[-123.1072,38.4628],
[-122.8306,38.1275],
[-122.803,38.0819],
[-122.9269,38.1625],
[-122.9564,38.058],
[-122.8967,38.0544],
[-122.817,38.0203],
[-122.6567,37.9105],
[-122.5055,37.831],
[-122.4567,37.8335],
[-122.4201,37.8832],
[-122.4799,37.9367],
[-122.4783,38.1196],
[-122.3653,38.1555],
[-122.2642,38.11],
[-122.1097,38.0614],
[-122.05,38.1088],
[-122.0186,38.1481],
[-121.9778,38.0972],
[-121.9053,38.0661],
[-121.8187,38.0812],
[-121.7229,38.0475],
[-121.6852,38.0665],
[-121.6622,38.0966],
[-121.585,38.1157],
[-121.5532,38.1104],
[-121.4706,38.055],
[-121.4272,38.0129],
[-121.5911,38.1046],
[-121.6435,38.079],
[-121.6542,38.0486],
[-121.6849,38.0181],
[-121.9894,38.0655],
[-122.0158,38.0661],
[-122.1277,38.0353],
[-122.2253,38.0642],
[-122.3528,37.9908],
[-122.3934,37.9592],
[-122.3,37.8264],
[-122.2428,37.7667],
[-122.1572,37.6947],
[-122.1385,37.6622],
[-122.126,37.6028],
[-122.0808,37.5103],
[-122.0058,37.4714],
[-122.0232,37.4579],
[-122.0643,37.4593],
[-122.3578,37.6158],
[-122.3674,37.6544],
[-122.3514,37.7317],
[-122.36,37.7869],
[-122.3796,37.8138],
[-122.4481,37.8101],
[-122.4843,37.7899],
[-122.4994,37.59],
[-122.4903,37.53],
[-122.4806,37.5122],
[-122.4433,37.5044],
[-122.426,37.4843],
[-122.378,37.3744],
[-122.3732,37.3292],
[-122.3937,37.2519],
[-122.379,37.2],
[-122.1796,37.0176],
[-122.1472,36.9958],
[-122.0415,36.9542],
[-121.9136,36.9803],
[-121.8792,36.9725],
[-121.8511,36.9507],
[-121.7992,36.884],
[-121.7639,36.8125],
[-121.7993,36.6679],
[-121.8256,36.6271],
[-121.845,36.6151],
[-121.8998,36.6412],
[-121.9433,36.5946],
[-121.8735,36.3939],
[-121.8642,36.3429],
[-121.8676,36.3153],
[-121.7961,36.2411],
[-121.6654,36.183],
[-121.4721,35.9978],
[-121.435,35.8943],
[-121.2964,35.7661],
[-121.2688,35.7001],
[-121.1667,35.6492],
[-120.9995,35.4792],
[-120.92,35.4489],
[-120.8411,35.3553],
[-120.8682,35.28],
[-120.8697,35.2572],
[-120.8568,35.2288],
[-120.7385,35.1646],
[-120.7187,35.1805],
[-120.6806,35.1711],
[-120.6182,35.1394],
[-120.6001,35.1001],
[-120.6247,34.895],
[-120.5981,34.8608],
[-120.5914,34.7108],
[-120.5942,34.6903],
[-120.6283,34.6236],
[-120.626,34.5844],
[-120.6058,34.5586],
[-120.5583,34.5619],
[-120.4953,34.5305],
[-120.449,34.4557],
[-120.1308,34.4787],
[-120.0037,34.4679],
[-119.7986,34.4264],
[-119.5997,34.4236],
[-119.5417,34.4142],
[-119.4161,34.3575],
[-119.3125,34.2835],
[-119.2558,34.2235],
[-119.2197,34.1649],
[-119.1292,34.1139],
[-118.8364,34.0305],
[-118.5544,34.0557],
[-118.53,34.0479],
[-118.4711,33.9878],
[-118.4211,33.9212],
[-118.3862,33.841],
[-118.4175,33.7818],
[-118.4,33.7499],
[-118.2978,33.7161],
[-118.2721,33.7233],
[-118.2671,33.7578],
[-118.2222,33.7842],
[-118.1082,33.7569],
[-117.955,33.6328],
[-117.9108,33.6067],
[-117.8639,33.5957],
[-117.7744,33.5394],
[-117.6319,33.4428],
[-117.4808,33.3275],
[-117.4094,33.2442],
[-117.3295,33.1244],
[-117.2699,32.9771],
[-117.2491,32.8713],
[-117.2803,32.8292],
[-117.2588,32.7704],
[-117.2685,32.6884],
[-117.255,32.6571],
[-117.242,32.6625],
[-117.2288,32.7156],
[-117.2022,32.7277],
[-117.1414,32.6806],
[-117.1167,32.6425],
[-117.1156,32.6213],
[-117.1472,32.6186],
[-117.1741,32.6749],
[-117.2005,32.6976],
[-117.2124,32.6971],
[-117.2129,32.683],
[-117.1827,32.6593],
[-117.1224,32.5353],
[-115.6056,32.6547],
[-114.7234,32.7158],
[-114.7917,32.5578],
[-114.8025,32.5037],
[-112.8673,31.9134],
[-111.0458,31.3331],
[-108.2083,31.3331],
[-108.2086,31.7833],
[-106.6083,31.7836],
[-106.5312,31.7814],
[-106.4964,31.7571],
[-106.3958,31.7475],
[-106.3343,31.6874],
[-106.3033,31.6375],
[-106.2722,31.5593],
[-106.2099,31.4722],
[-106.1436,31.4319],
[-106.0629,31.4025],
[-106.0117,31.3953],
[-105.9728,31.3697],
[-105.8419,31.2692],
[-105.787,31.2082],
[-105.7717,31.1783],
[-105.6,31.0815],
[-105.5414,30.9964],
[-105.3931,30.8658],
[-105.2531,30.7972],
[-105.2226,30.8047],
[-105.1694,30.7786],
[-105.125,30.7497],
[-104.9908,30.6322],
[-104.9347,30.6076],
[-104.8965,30.5662],
[-104.865,30.4664],
[-104.8222,30.3861],
[-104.7769,30.3181],
[-104.7056,30.2333],
[-104.6822,30.1875],
[-104.675,30.1678],
[-104.6793,30.1054],
[-104.7013,30.0589],
[-104.6781,29.941],
[-104.5418,29.6729],
[-104.4192,29.5694],
[-104.3381,29.525],
[-104.3167,29.5309],
[-104.2851,29.526],
[-104.2283,29.4944],
[-104.1697,29.4228],
[-104.0453,29.3308],
[-103.8892,29.2858],
[-103.7358,29.1992],
[-103.5314,29.1261],
[-103.4619,29.0731],
[-103.375,29.0236],
[-103.2936,28.9969],
[-103.1637,28.984],
[-102.955,29.1831],
[-102.8958,29.2542],
[-102.8048,29.4741],
[-102.6703,29.7428],
[-102.4963,29.7817],
[-102.3556,29.8506],
[-102.3018,29.888],
[-102.2278,29.8472],
[-102.0728,29.7982],
[-101.9908,29.8058],
[-101.8258,29.8047],
[-101.6288,29.7664],
[-101.405,29.7728],
[-101.3558,29.6606],
[-101.3108,29.6153],
[-101.2186,29.5403],
[-101.139,29.4907],
[-101.043,29.4615],
[-100.937,29.35],
[-100.7957,29.2587],
[-100.6658,29.109],
[-100.6282,28.9958],
[-100.6345,28.9586],
[-100.6219,28.9333],
[-100.5274,28.8228],
[-100.4799,28.6758],
[-100.3592,28.5183],
[-100.3296,28.4254],
[-100.3313,28.4004],
[-100.2815,28.2806],
[-100.1864,28.1975],
[-100.0783,28.1556],
[-99.9622,27.9847],
[-99.8808,27.9039],
[-99.8609,27.8051],
[-99.8329,27.7743],
[-99.8024,27.7692],
[-99.7823,27.7376],
[-99.7414,27.7147],
[-99.7139,27.6689],
[-99.6964,27.6569],
[-99.6536,27.6414],
[-99.6062,27.6412],
[-99.5308,27.6001],
[-99.5039,27.5681],
[-99.4732,27.4767],
[-99.4433,27.2581],
[-99.4586,27.0469],
[-99.3192,26.8699],
[-99.2711,26.8599],
[-99.2533,26.8308],
[-99.2006,26.7144],
[-99.1047,26.435],
[-98.9756,26.4058],
[-98.7842,26.3489],
[-98.6956,26.2897],
[-98.6047,26.2567],
[-98.4399,26.2233],
[-98.3881,26.1917],
[-98.3614,26.1536],
[-98.3053,26.1092],
[-98.2,26.0625],
[-98.0601,26.0389],
[-97.9797,26.0586],
[-97.8475,26.0636],
[-97.6481,26.0294],
[-97.5594,25.9511],
[-97.5144,25.8983],
[-97.4172,25.8433],
[-97.3647,25.8399],
[-97.3447,25.8597],
[-97.3467,25.8931],
[-97.3153,25.92],
[-97.2653,25.9411],
[-97.1409,25.9723],
[-97.1506,26.0403],
[-97.1679,26.0701],
[-97.1807,26.0277],
[-97.2093,25.9925],
[-97.2408,25.9819],
[-97.3072,26.1228],
[-97.3175,26.1614],
[-97.3186,26.2461],
[-97.3694,26.3651],
[-97.4019,26.3694],
[-97.4128,26.4119],
[-97.423,26.5456],
[-97.4919,26.7903],
[-97.504,26.807],
[-97.5399,26.8169],
[-97.5604,26.8421],
[-97.5656,26.9818],
[-97.5574,27.0055],
[-97.475,27.0308],
[-97.4444,27.1281],
[-97.4294,27.2623],
[-97.4769,27.2578],
[-97.5339,27.2353],
[-97.6339,27.2525],
[-97.6608,27.2767],
[-97.7233,27.3955],
[-97.7693,27.4497],
[-97.7233,27.4322],
[-97.6769,27.3856],
[-97.6383,27.3709],
[-97.6247,27.3448],
[-97.5253,27.3772],
[-97.49,27.3062],
[-97.413,27.3273],
[-97.2797,27.6561],
[-97.3156,27.7155],
[-97.3928,27.7833],
[-97.4847,27.8258],
[-97.5171,27.8638],
[-97.4925,27.8781],
[-97.3453,27.8525],
[-97.2265,27.8209],
[-97.1945,27.8218],
[-97.0225,28.0317],
[-97.0258,28.0786],
[-97.0461,28.0917],
[-97.0981,28.0697],
[-97.1442,28.0281],
[-97.1829,28.0603],
[-97.2135,28.0685],
[-97.1694,28.1618],
[-97.0281,28.1864],
[-97.0161,28.1358],
[-96.9833,28.1211],
[-96.8828,28.1403],
[-96.7808,28.2414],
[-96.7838,28.349],
[-96.8318,28.388],
[-96.8452,28.4099],
[-96.8003,28.4715],
[-96.7469,28.4378],
[-96.7071,28.3977],
[-96.697,28.3341],
[-96.6593,28.3152],
[-96.6247,28.3242],
[-96.4,28.4417],
[-96.49,28.5094],
[-96.5839,28.5669],
[-96.6513,28.6856],
[-96.6447,28.7119],
[-96.5947,28.7192],
[-96.5626,28.6976],
[-96.5552,28.6478],
[-96.4955,28.6194],
[-96.4319,28.5993],
[-96.4115,28.6014],
[-96.3755,28.622],
[-96.4087,28.6355],
[-96.4429,28.7603],
[-96.2674,28.6851],
[-96.1921,28.6955],
[-96.1408,28.6273],
[-96.1832,28.6028],
[-96.2072,28.6033],
[-96.2174,28.5819],
[-96.1336,28.6021],
[-96.0297,28.645],
[-95.9907,28.651],
[-95.9817,28.6324],
[-95.9985,28.5971],
[-95.9517,28.6036],
[-95.8272,28.6483],
[-95.7655,28.6925],
[-95.817,28.6808],
[-95.8961,28.64],
[-95.9415,28.6263],
[-95.9411,28.6864],
[-95.7972,28.7369],
[-95.6899,28.7381],
[-95.6183,28.7556],
[-95.332,28.9128],
[-95.1486,29.0512],
[-95.0869,29.1819],
[-94.9028,29.3144],
[-94.8875,29.3853],
[-94.898,29.4209],
[-95.0158,29.5656],
[-95.0601,29.7151],
[-95.0071,29.7165],
[-94.9556,29.6958],
[-94.8243,29.7619],
[-94.757,29.785],
[-94.711,29.7568],
[-94.7067,29.7111],
[-94.7304,29.6129],
[-94.7658,29.5681],
[-94.6756,29.5528],
[-94.574,29.5732],
[-94.4766,29.5589],
[-94.5154,29.5165],
[-94.6921,29.4675],
[-94.7811,29.3972],
[-94.7869,29.3735],
[-94.7542,29.3679],
[-94.6536,29.4471],
[-94.1343,29.6536],
[-94.0364,29.6792],
[-93.9203,29.6815],
[-93.8909,29.6721],
[-93.8584,29.6816],
[-93.8907,29.7404],
[-93.9475,29.7863],
[-93.9585,29.8167],
[-93.852,29.9851],
[-93.7967,29.9942],
[-93.768,29.9763],
[-93.7731,29.9004],
[-93.8119,29.8339],
[-93.8621,29.8307],
[-93.892,29.8176],
[-93.901,29.7911],
[-93.8856,29.7453],
[-93.8505,29.7088],
[-93.8235,29.7082],
[-93.75,29.75],
[-93.7193,29.7592],
[-93.2408,29.785],
[-93.1183,29.7636],
[-93.0375,29.7392],
[-92.9056,29.6933],
[-92.8136,29.6439],
[-92.6878,29.6003],
[-92.57,29.5758],
[-92.3083,29.5397],
[-92.2732,29.541],
[-92.1372,29.59],
[-92.0997,29.6156],
[-92.1758,29.6903],
[-92.1486,29.7689],
[-91.8992,29.8361],
[-91.8388,29.8283],
[-91.8239,29.7956],
[-91.631,29.739],
[-91.5571,29.6305],
[-91.5433,29.5428],
[-91.5231,29.5322],
[-91.415,29.5403],
[-91.2672,29.4669],
[-91.1265,29.3474],
[-91.1144,29.3254],
[-91.1177,29.2625],
[-91.1492,29.2494],
[-91.1735,29.2736],
[-91.1631,29.2932],
[-91.1621,29.3298],
[-91.2233,29.3606],
[-91.3393,29.3247],
[-91.2994,29.2714],
[-91.2549,29.2443],
[-91.0776,29.1949],
[-91.0483,29.1942],
[-91.0353,29.2131],
[-90.9989,29.2192],
[-90.8783,29.1287],
[-90.765,29.1094],
[-90.702,29.1158],
[-90.6786,29.1297],
[-90.6472,29.1581],
[-90.5897,29.2333],
[-90.5244,29.2897],
[-90.4444,29.3261],
[-90.345,29.3092],
[-90.2728,29.2597],
[-90.2357,29.1185],
[-90.2404,29.0861],
[-90.2094,29.0911],
[-90.116,29.139],
[-90.0658,29.1833],
[-90.0516,29.2215],
[-90.0569,29.3119],
[-90.0265,29.4251],
[-90.0587,29.4596],
[-90.1249,29.4658],
[-90.1721,29.4881],
[-90.1911,29.5108],
[-90.2033,29.5447],
[-90.1825,29.5699],
[-90.1192,29.5514],
[-89.9853,29.4864],
[-89.8317,29.4439],
[-89.7733,29.4149],
[-89.7508,29.3606],
[-89.7706,29.3392],
[-89.6084,29.2511],
[-89.4786,29.2336],
[-89.3896,29.0921],
[-89.3554,29.0867],
[-89.3314,29.1017],
[-89.3238,29.1218],
[-89.3297,29.1531],
[-89.3243,29.178],
[-89.272,29.1496],
[-89.3019,29.0825],
[-89.3975,28.9746],
[-89.409,28.9289],
[-89.3906,28.9321],
[-89.3631,28.9536],
[-89.3069,29.0422],
[-89.2494,29.0961],
[-89.1539,29.04],
[-89.0424,29.1104],
[-89.0088,29.1742],
[-89.0093,29.1964],
[-89.0292,29.2158],
[-89.1872,29.3397],
[-89.2558,29.3347],
[-89.4642,29.403],
[-89.5192,29.4625],
[-89.6778,29.5257],
[-89.7527,29.633],
[-89.6625,29.6664],
[-89.5906,29.7389],
[-89.4764,29.8323],
[-89.4297,29.8083],
[-89.4122,29.7903],
[-89.4042,29.7625],
[-89.3338,29.8782],
[-89.3994,30.0508],
[-89.4763,30.0746],
[-89.5658,29.9611],
[-89.5893,29.8996],
[-89.6257,29.8734],
[-89.6836,29.879],
[-89.8178,29.9455],
[-89.8437,30.0071],
[-89.8278,30.0329],
[-89.8057,30.0443],
[-89.7695,30.0443],
[-89.7192,30.0581],
[-89.6426,30.1332],
[-89.6735,30.1671],
[-89.8119,30.0992],
[-90.034,30.0367],
[-90.1701,30.0235],
[-90.3497,30.0617],
[-90.4126,30.0979],
[-90.4305,30.1518],
[-90.4279,30.1786],
[-90.415,30.2035],
[-90.2363,30.3765],
[-90.2138,30.3869],
[-90.1876,30.3878],
[-90.0639,30.3589],
[-90.0008,30.3192],
[-89.9879,30.3011],
[-89.9796,30.2664],
[-89.5931,30.1533],
[-89.5221,30.1869],
[-89.4483,30.1843],
[-89.3118,30.3106],
[-89.2024,30.3271],
[-88.985,30.3864],
[-88.9808,30.4183],
[-88.8325,30.4131],
[-88.7882,30.3776],
[-88.7225,30.3464],
[-88.6144,30.3636],
[-88.4579,30.3175],
[-88.406,30.3564],
[-88.4022,30.3877],
[-88.3534,30.4042],
[-88.1923,30.3599],
[-88.194,30.3315],
[-88.1315,30.319],
[-88.1111,30.3671],
[-88.101,30.5126],
[-88.0825,30.5747],
[-88.0203,30.7011],
[-87.949,30.6703],
[-87.9305,30.6411],
[-87.9094,30.5694],
[-87.9342,30.4953],
[-87.9084,30.4097],
[-87.8317,30.3608],
[-87.7634,30.3031],
[-87.7577,30.2824],
[-87.7782,30.2629],
[-87.8736,30.2334],
[-87.7336,30.235],
[-87.5686,30.2794],
[-87.4633,30.3597],
[-87.4089,30.4528],
[-87.4204,30.4809],
[-87.3551,30.4563],
[-87.3408,30.4346],
[-87.4559,30.2987],
[-87.3067,30.3214],
[-87.3021,30.3454],
[-87.2661,30.3511],
[-87.1797,30.4317],
[-87.1567,30.4721],
[-87.1532,30.4986],
[-87.1608,30.5178],
[-87.1019,30.5267],
[-87.0125,30.52],
[-86.9364,30.45],
[-87.0095,30.4075],
[-87.1158,30.3944],
[-87.1755,30.3698],
[-87.1261,30.3639],
[-87.0722,30.3786],
[-86.7803,30.4167],
[-86.5981,30.415],
[-86.438,30.4961],
[-86.26,30.4958],
[-86.1975,30.473],
[-86.1228,30.4261],
[-86.1042,30.3791],
[-86.1625,30.3908],
[-86.3374,30.3844],
[-86.0858,30.3036],
[-85.93,30.2447],
[-85.8303,30.1955],
[-85.7256,30.1258],
[-85.7226,30.1622],
[-85.764,30.2403],
[-85.8035,30.2415],
[-85.8297,30.2276],
[-85.8456,30.2471],
[-85.8387,30.2874],
[-85.7469,30.2972],
[-85.6636,30.2461],
[-85.6882,30.1907],
[-85.6474,30.146],
[-85.4425,30.0542],
[-85.4132,30.0554],
[-85.3939,30.0415],
[-85.4394,30.0177],
[-85.477,30.0258],
[-85.5215,30.0606],
[-85.5987,30.1024],
[-85.6294,30.1046],
[-85.6136,30.07],
[-85.5464,30.0339],
[-85.3629,29.8979],
[-85.3072,29.816],
[-85.3066,29.7],
[-85.3471,29.687],
[-85.3857,29.7411],
[-85.3967,29.7917],
[-85.3992,29.8647],
[-85.4122,29.7937],
[-85.3867,29.711],
[-85.3571,29.6778],
[-84.9778,29.7336],
[-84.915,29.7797],
[-84.8642,29.7956],
[-84.8853,29.7472],
[-84.8656,29.7375],
[-84.7522,29.7812],
[-84.6519,29.8458],
[-84.5158,29.9147],
[-84.4097,29.9169],
[-84.3473,29.8944],
[-84.335,29.92],
[-84.3367,29.9415],
[-84.3861,29.958],
[-84.4375,29.958],
[-84.459,29.9971],
[-84.3292,30.0708],
[-84.2643,30.0964],
[-84.2056,30.1057],
[-84.011,30.0976],
[-83.8893,30.0176],
[-83.7378,29.9525],
[-83.6694,29.9061],
[-83.6319,29.8757],
[-83.5833,29.8054],
[-83.5783,29.7665],
[-83.5367,29.7226],
[-83.4669,29.6805],
[-83.4281,29.6683],
[-83.3981,29.5254],
[-83.3522,29.5053],
[-83.2225,29.4228],
[-83.1003,29.2744],
[-83.0717,29.2244],
[-82.9837,29.1797],
[-82.9626,29.1862],
[-82.9331,29.1828],
[-82.8028,29.155],
[-82.7508,29.0075],
[-82.6297,28.8801],
[-82.6289,28.8496],
[-82.6411,28.8258],
[-82.6756,28.8041],
[-82.6368,28.7524],
[-82.6286,28.6964],
[-82.6417,28.5394],
[-82.664,28.4369],
[-82.7497,28.2305],
[-82.7739,28.0703],
[-82.7975,27.9697],
[-82.8094,27.9367],
[-82.8357,27.8972],
[-82.8338,27.908],
[-82.844,27.896],
[-82.8542,27.8586],
[-82.835,27.8144],
[-82.7247,27.6581],
[-82.6365,27.6961],
[-82.5951,27.8219],
[-82.6036,27.8731],
[-82.7149,27.9256],
[-82.6912,28.0299],
[-82.4242,27.9194],
[-82.3885,27.8211],
[-82.405,27.7807],
[-82.4422,27.745],
[-82.4658,27.7329],
[-82.6161,27.5536],
[-82.5838,27.5503],
[-82.5908,27.4969],
[-82.6509,27.4618],
[-82.5715,27.3912],
[-82.5384,27.2885],
[-82.3964,26.9624],
[-82.3094,26.8444],
[-82.2911,26.8296],
[-82.1589,26.7829],
[-82.1508,26.8189],
[-82.1642,26.8742],
[-82.1919,26.938],
[-82.0172,26.9647],
[-82.0797,26.7078],
[-82.0669,26.5544],
[-82.0234,26.5292],
[-81.9487,26.5408],
[-81.9201,26.5993],
[-81.9156,26.6281],
[-81.8911,26.6603],
[-81.7859,26.7069],
[-81.9228,26.5336],
[-81.9187,26.5123],
[-81.9552,26.5012],
[-81.9693,26.4818],
[-81.8816,26.4457],
[-81.8411,26.35],
[-81.817,26.1656],
[-81.8004,26.1],
[-81.7806,26.0869],
[-81.7366,25.9594],
[-81.6747,25.9144],
[-81.6183,25.9305],
[-81.5586,25.9197],
[-81.4022,25.8489],
[-81.3409,25.8097],
[-81.1264,25.3795],
[-81.0425,25.3296],
[-80.9908,25.3224],
[-80.9545,25.2992],
[-80.9178,25.2469],
[-80.9289,25.2199],
[-80.9772,25.2009],
[-81.0033,25.2111],
[-81.1356,25.3205],
[-81.1775,25.2405],
[-81.1467,25.1604],
[-81.0881,25.1156],
[-80.8278,25.1622],
[-80.6822,25.1636],
[-80.574,25.2405],
[-80.54,25.2455],
[-80.5109,25.234],
[-80.5032,25.1987],
[-80.4535,25.2419],
[-80.4153,25.1912],
[-80.3975,25.1867],
[-80.4194,25.2079],
[-80.4211,25.2499],
[-80.3761,25.3197],
[-80.3394,25.5024],
[-80.3126,25.5403],
[-80.3129,25.5994],
[-80.2558,25.6842],
[-80.1912,25.7432],
[-80.1361,25.9056],
[-80.0508,26.4925],
[-80.0352,26.553],
[-80.0287,26.6324],
[-80.0353,26.7957],
[-80.1053,27.0517],
[-80.151,27.1382],
[-80.215,27.1936],
[-80.3121,27.43],
[-80.3972,27.6955],
[-80.4419,27.7872],
[-80.4869,27.8542],
[-80.5767,28.0344],
[-80.7572,28.4207],
[-80.8231,28.6517],
[-80.8436,28.781],
[-80.813,28.7717],
[-80.7515,28.7317],
[-80.7451,28.7081],
[-80.7703,28.6872],
[-80.7825,28.6357],
[-80.7553,28.6044],
[-80.6746,28.589],
[-80.6593,28.6083],
[-80.6032,28.6086],
[-80.5847,28.5489],
[-80.5843,28.5017],
[-80.6169,28.4028],
[-80.6203,28.2179],
[-80.6008,28.1375],
[-80.5614,28.0446],
[-80.4467,27.8644],
[-80.4642,27.9183],
[-80.5614,28.0794],
[-80.5908,28.1947],
[-80.5978,28.2467],
[-80.597,28.4022],
[-80.5352,28.4493],
[-80.5525,28.525],
[-80.6385,28.6692],
[-80.7025,28.7472],
[-80.9661,29.153],
[-81.0139,29.243],
[-81.1853,29.6197],
[-81.2553,29.7967],
[-81.3861,30.2611],
[-81.3907,30.385],
[-81.4125,30.4671],
[-81.4531,30.5083],
[-81.4353,30.6394],
[-81.4728,30.6919],
[-81.5073,30.7135],
[-81.4873,30.752],
[-81.4929,30.7779],
[-81.5338,30.8494],
[-81.5014,30.9007],
[-81.4596,30.9422],
[-81.4194,31.029],
[-81.4099,31.0897],
[-81.4356,31.0847],
[-81.4884,31.1135],
[-81.4441,31.2072],
[-81.4085,31.2051],
[-81.4041,31.1776],
[-81.386,31.1624],
[-81.2842,31.2212],
[-81.269,31.2672],
[-81.2939,31.3231],
[-81.2047,31.4747],
[-81.2521,31.5018],
[-81.2841,31.4911],
[-81.329,31.5548],
[-81.3025,31.5678],
[-81.2418,31.5601],
[-81.1659,31.5649],
[-81.1369,31.6133],
[-81.1219,31.7286],
[-80.8547,31.9719],
[-80.8354,32.0063],
[-80.893,32.0279],
[-80.8962,32.0418],
[-80.8792,32.0794],
[-80.8256,32.1567],
[-80.8011,32.1525],
[-80.8197,32.1096],
[-80.7207,32.1567],
[-80.6723,32.2171],
[-80.7103,32.2589],
[-80.7403,32.2601],
[-80.7833,32.3105],
[-80.8275,32.4625],
[-80.8324,32.52],
[-80.8069,32.5003],
[-80.7645,32.3727],
[-80.7111,32.3197],
[-80.6826,32.3282],
[-80.6744,32.4503],
[-80.6536,32.4228],
[-80.6417,32.343],
[-80.6431,32.2938],
[-80.6314,32.2564],
[-80.5744,32.2681],
[-80.465,32.3175],
[-80.4425,32.3519],
[-80.4295,32.398],
[-80.4821,32.4751],
[-80.5306,32.4912],
[-80.555,32.4858],
[-80.68,32.5002],
[-80.6693,32.5229],
[-80.5369,32.515],
[-80.4319,32.4984],
[-80.4092,32.4717],
[-80.3277,32.4804],
[-80.2228,32.5408],
[-80.047,32.6061],
[-79.9878,32.6183],
[-79.878,32.6949],
[-79.8824,32.7277],
[-79.9501,32.7633],
[-79.9692,32.7879],
[-79.9426,32.8535],
[-79.8954,32.852],
[-79.8784,32.8388],
[-79.8937,32.8182],
[-79.884,32.7909],
[-79.8573,32.7707],
[-79.8158,32.7672],
[-79.7326,32.8042],
[-79.6122,32.9175],
[-79.6279,32.9393],
[-79.6025,32.9865],
[-79.5714,33.0155],
[-79.5232,33.0334],
[-79.4944,33.0092],
[-79.3883,33.0082],
[-79.3717,33.0589],
[-79.3444,33.0798],
[-79.2971,33.0992],
[-79.2058,33.1655],
[-79.2047,33.1855],
[-79.2248,33.2326],
[-79.2556,33.244],
[-79.2946,33.2842],
[-79.2896,33.3294],
[-79.2714,33.3733],
[-79.1997,33.4303],
[-79.2635,33.3369],
[-79.2691,33.3142],
[-79.1964,33.2789],
[-79.1642,33.3144],
[-79.1376,33.4157],
[-78.9375,33.638],
[-78.8814,33.6919],
[-78.8275,33.7303],
[-78.6006,33.8708],
[-78.5722,33.8817],
[-78.5181,33.88],
[-78.4372,33.898],
[-78.2374,33.9199],
[-78.1539,33.9147],
[-78.026,33.8894],
[-77.9761,33.9428],
[-77.953,33.9924],
[-77.945,34.065],
[-77.9556,34.149],
[-77.9273,34.1176],
[-77.9207,34.0193],
[-77.9285,33.932],
[-77.8842,34.0328],
[-77.8622,34.1508],
[-77.835,34.1919],
[-77.7053,34.3419],
[-77.6367,34.398],
[-77.4553,34.504],
[-77.3817,34.5165],
[-77.3857,34.6126],
[-77.4289,34.7419],
[-77.3885,34.733],
[-77.331,34.6399],
[-77.3502,34.601],
[-77.3339,34.576],
[-77.3096,34.5597],
[-77.1233,34.6933],
[-77.0942,34.6774],
[-76.7599,34.7666],
[-76.6833,34.7975],
[-76.661,34.7578],
[-76.6536,34.7173],
[-76.6261,34.7101],
[-76.5006,34.7362],
[-76.4814,34.7764],
[-76.4114,34.8478],
[-76.3433,34.8819],
[-76.2718,34.9626],
[-76.3126,35.0126],
[-76.3512,35.0222],
[-76.3235,34.9743],
[-76.4153,34.9412],
[-76.4532,34.9352],
[-76.4623,34.963],
[-76.434,34.9878],
[-76.4324,35.0428],
[-76.4536,35.0668],
[-76.4894,35.0092],
[-76.6338,34.9824],
[-76.6972,34.9489],
[-76.7531,34.9053],
[-76.7789,34.9267],
[-76.9318,34.9696],
[-76.965,34.9978],
[-77.0682,35.1498],
[-76.9764,35.0681],
[-76.8672,35],
[-76.8053,34.9856],
[-76.7614,34.9878],
[-76.604,35.0742],
[-76.5529,35.1379],
[-76.5731,35.1601],
[-76.6649,35.1669],
[-76.5636,35.2336],
[-76.4875,35.2258],
[-76.4689,35.2717],
[-76.503,35.3079],
[-76.8325,35.3922],
[-77.0231,35.4869],
[-77.0496,35.5269],
[-76.9129,35.4617],
[-76.6525,35.415],
[-76.6014,35.4314],
[-76.6161,35.4589],
[-76.6319,35.5225],
[-76.5882,35.551],
[-76.5156,35.5319],
[-76.5638,35.5088],
[-76.5671,35.4849],
[-76.5225,35.4042],
[-76.4961,35.3847],
[-76.4619,35.3722],
[-76.1492,35.3369],
[-76.1332,35.3599],
[-76.0411,35.4242],
[-76.0022,35.4661],
[-75.9796,35.5167],
[-75.8936,35.5756],
[-75.86,35.5847],
[-75.8383,35.5669],
[-75.7894,35.5714],
[-75.7408,35.6185],
[-75.7208,35.6926],
[-75.7208,35.8145],
[-75.7492,35.8779],
[-75.8247,35.965],
[-75.8508,35.9753],
[-75.9894,35.8805],
[-75.9939,35.7103],
[-76.0287,35.6541],
[-76.1032,35.6604],
[-76.1356,35.6924],
[-76.0448,35.6844],
[-76.0417,35.7492],
[-76.0603,35.8469],
[-76.053,35.8737],
[-76.0218,35.9228],
[-76.0265,35.9622],
[-76.0775,35.9932],
[-76.1747,35.996],
[-76.3017,35.9541],
[-76.2675,35.9189],
[-76.3799,35.9576],
[-76.3928,35.9753],
[-76.4201,35.9787],
[-76.5537,35.9397],
[-76.6622,35.933],
[-76.7295,35.9398],
[-76.7339,36.0476],
[-76.7538,36.0948],
[-76.7603,36.1451],
[-76.7575,36.2042],
[-76.7461,36.2282],
[-76.7046,36.2467],
[-76.7276,36.1674],
[-76.6912,36.0716],
[-76.6598,36.0331],
[-76.5186,36.0069],
[-76.4953,36.0096],
[-76.3714,36.0769],
[-76.3708,36.15],
[-76.2358,36.095],
[-76.2142,36.0947],
[-76.071,36.1493],
[-76.0759,36.1791],
[-76.1508,36.2587],
[-76.2226,36.2925],
[-76.1997,36.3174],
[-76.1399,36.2881],
[-76.0427,36.2197],
[-76.0047,36.1811],
[-75.9494,36.1686],
[-75.9265,36.1709],
[-75.9529,36.1924],
[-75.9974,36.3108],
[-75.976,36.3114],
[-75.9389,36.2838],
[-75.8527,36.1107],
[-75.7932,36.0738],
[-75.7964,36.118],
[-75.8833,36.2955],
[-75.9164,36.3514],
[-75.9869,36.4117],
[-76.0347,36.4967],
[-76.0389,36.5182],
[-76.029,36.55],
[-76.0424,36.5746],
[-76.0196,36.5667],
[-75.9699,36.4919],
[-75.9269,36.485],
[-75.8996,36.4928],
[-75.9126,36.5732],
[-75.9383,36.5637],
[-75.949,36.5425],
[-75.9688,36.5497],
[-75.9758,36.5658],
[-75.9667,36.6808],
[-75.9453,36.7124],
[-75.9114,36.6653],
[-75.8819,36.5819],
[-75.8809,36.5414],
[-75.8639,36.4764],
[-75.8117,36.3194],
[-75.7513,36.1828],
[-75.7286,36.0611],
[-75.7008,36.008],
[-75.6369,35.9529],
[-75.5898,35.8975],
[-75.589,35.8565],
[-75.5569,35.808],
[-75.5326,35.8015],
[-75.5756,35.9089],
[-75.7121,36.1165],
[-75.7853,36.2836],
[-75.8506,36.5404],
[-75.9873,36.9092],
[-76.0139,36.9201],
[-76.0572,36.9066],
[-76.1608,36.9189],
[-76.2551,36.9579],
[-76.3144,36.9449],
[-76.3181,36.8811],
[-76.2936,36.8433],
[-76.3317,36.8636],
[-76.4775,36.9053],
[-76.4797,36.9578],
[-76.5756,37.0158],
[-76.6449,37.0468],
[-76.7167,37.1475],
[-77.0272,37.2836],
[-77.2322,37.2964],
[-77.2386,37.3361],
[-76.9903,37.3129],
[-76.9037,37.2661],
[-76.8875,37.2479],
[-76.6539,37.2269],
[-76.6314,37.2162],
[-76.6136,37.1836],
[-76.6131,37.1339],
[-76.5575,37.0844],
[-76.4364,36.9972],
[-76.3897,36.9733],
[-76.2915,37.0053],
[-76.2677,37.0863],
[-76.29,37.1355],
[-76.3772,37.2142],
[-76.4656,37.2297],
[-76.6061,37.3058],
[-76.6705,37.3867],
[-76.6828,37.4297],
[-76.5789,37.3236],
[-76.4795,37.2688],
[-76.4515,37.2624],
[-76.3765,37.2805],
[-76.4035,37.3458],
[-76.3653,37.3839],
[-76.2894,37.3355],
[-76.2611,37.3342],
[-76.2394,37.3735],
[-76.2367,37.4287],
[-76.2453,37.4953],
[-76.2907,37.5686],
[-76.5389,37.6303],
[-76.5642,37.6604],
[-76.5897,37.7275],
[-76.615,37.7528],
[-76.6637,37.7636],
[-76.7203,37.795],
[-76.8485,37.9278],
[-76.9029,38.0062],
[-76.9233,38.0536],
[-76.9479,38.0769],
[-76.986,38.0933],
[-77.0208,38.0964],
[-77.1107,38.1419],
[-77.1299,38.1691],
[-77.0545,38.1607],
[-76.9319,38.0897],
[-76.8344,37.953],
[-76.7025,37.8331],
[-76.4789,37.6783],
[-76.3697,37.6336],
[-76.3536,37.6186],
[-76.3375,37.6267],
[-76.2856,37.6969],
[-76.2282,37.8817],
[-76.2436,37.9061],
[-76.2815,37.9308],
[-76.405,37.9746],
[-76.5011,38.0236],
[-76.591,38.1228],
[-76.6894,38.1514],
[-76.8456,38.1689],
[-76.9325,38.203],
[-77.0233,38.3094],
[-77.0687,38.379],
[-77.1663,38.3432],
[-77.2242,38.3336],
[-77.32,38.3453],
[-77.3264,38.4025],
[-77.3044,38.4955],
[-77.2489,38.5986],
[-77.1344,38.6986],
[-77.0958,38.7047],
[-77.0422,38.7266],
[-77.0372,38.8433],
[-77.0617,38.9046],
[-77.0168,38.8643],
[-77.0213,38.8027],
[-77.0061,38.755],
[-77.0294,38.6989],
[-77.0875,38.6855],
[-77.2346,38.5507],
[-77.2632,38.4878],
[-77.2437,38.3983],
[-77.1968,38.3679],
[-77.0753,38.4165],
[-77.0444,38.4383],
[-76.9701,38.3585],
[-76.8707,38.2746],
[-76.7393,38.2336],
[-76.6744,38.2425],
[-76.6062,38.233],
[-76.582,38.2212],
[-76.5486,38.1864],
[-76.3123,38.0473],
[-76.3175,38.1483],
[-76.3336,38.178],
[-76.3804,38.2198],
[-76.3911,38.2481],
[-76.3711,38.2883],
[-76.4488,38.3],
[-76.4819,38.3155],
[-76.5945,38.405],
[-76.6494,38.4533],
[-76.6635,38.4747],
[-76.6792,38.6625],
[-76.6661,38.6368],
[-76.6657,38.5851],
[-76.6369,38.491],
[-76.5792,38.4319],
[-76.4458,38.3395],
[-76.4062,38.3372],
[-76.3786,38.3652],
[-76.4014,38.4199],
[-76.4783,38.4903],
[-76.505,38.5311],
[-76.5375,38.7317],
[-76.5236,38.8547],
[-76.454,38.9133],
[-76.3939,39.011],
[-76.4215,39.1083],
[-76.441,39.1454],
[-76.5194,39.2048],
[-76.6105,39.2504],
[-76.5767,39.2672],
[-76.5114,39.2478],
[-76.4733,39.2231],
[-76.4164,39.2097],
[-76.3902,39.227],
[-76.4274,39.2392],
[-76.4517,39.2586],
[-76.48,39.3021],
[-76.4278,39.3169],
[-76.3519,39.3753],
[-76.3597,39.4],
[-76.257,39.4447],
[-76.2253,39.4189],
[-76.229,39.387],
[-76.2128,39.3656],
[-76.1879,39.3719],
[-76.0903,39.4311],
[-76.0633,39.458],
[-76.112,39.4835],
[-76.0848,39.549],
[-75.9408,39.6042],
[-75.8353,39.5719],
[-75.8514,39.5358],
[-75.9778,39.39],
[-76.0958,39.3599],
[-76.1683,39.3165],
[-76.2601,39.1537],
[-76.2208,39.0608],
[-76.1414,39.1125],
[-76.0725,39.1417],
[-76.1561,39.0026],
[-76.1919,38.9846],
[-76.2421,38.9839],
[-76.2968,39.0258],
[-76.3389,38.9671],
[-76.3578,38.8953],
[-76.3581,38.8535],
[-76.317,38.888],
[-76.2964,38.9225],
[-76.2247,38.9641],
[-76.142,38.8861],
[-76.1044,38.7991],
[-76.1322,38.7725],
[-76.156,38.7632],
[-76.1861,38.7761],
[-76.2075,38.7936],
[-76.2151,38.8132],
[-76.2552,38.841],
[-76.3001,38.8187],
[-76.332,38.7606],
[-76.3422,38.6883],
[-76.3209,38.682],
[-76.2047,38.7397],
[-76.1911,38.6839],
[-76.0679,38.6137],
[-76.0328,38.6033],
[-76.0022,38.607],
[-75.961,38.6516],
[-75.9628,38.6133],
[-75.9755,38.5937],
[-76.0285,38.5737],
[-76.1037,38.5862],
[-76.1778,38.6117],
[-76.2653,38.6197],
[-76.285,38.5703],
[-76.2649,38.5516],
[-76.2247,38.5563],
[-76.2142,38.5736],
[-76.1872,38.5794],
[-76.1665,38.5682],
[-76.185,38.5344],
[-76.3219,38.4886],
[-76.2425,38.3669],
[-76.2222,38.3433],
[-76.2208,38.3846],
[-76.1611,38.3494],
[-76.0878,38.2864],
[-76.0375,38.2267],
[-75.8464,38.3988],
[-75.8961,38.2503],
[-75.9122,38.1453],
[-75.8531,38.0892],
[-75.8822,37.986],
[-75.8785,37.9476],
[-75.8518,37.929],
[-75.8003,37.9633],
[-75.755,37.9794],
[-75.6932,37.9792],
[-75.644,37.9612],
[-75.6625,37.8405],
[-75.6972,37.7992],
[-75.7814,37.725],
[-75.8747,37.6567],
[-75.9169,37.6083],
[-75.9306,37.5761],
[-76.0165,37.2709],
[-76.0028,37.2239],
[-75.9608,37.1522],
[-75.8681,37.2169],
[-75.8511,37.2761],
[-75.8417,37.3725],
[-75.8039,37.4528],
[-75.7206,37.5478],
[-75.7011,37.5524],
[-75.6876,37.5239],
[-75.6601,37.4973],
[-75.5965,37.559],
[-75.609,37.5774],
[-75.57,37.6811],
[-75.5033,37.7983],
[-75.4122,37.9194],
[-75.3997,37.9886],
[-75.3693,38.0293],
[-75.3558,38.0826],
[-75.1544,38.2415],
[-75.095,38.3288],
[-75.0794,38.4576],
[-75.0605,38.4467],
[-75.0733,38.341],
[-75.0567,38.3628],
[-75.0446,38.4172],
[-75.0385,38.4797],
[-75.0639,38.5869],
[-75.1404,38.5894],
[-75.1703,38.5786],
[-75.2008,38.5978],
[-75.14,38.695],
[-75.1883,38.8167],
[-75.3022,38.9189],
[-75.389,39.0778],
[-75.4055,39.1575],
[-75.3924,39.2008],
[-75.3954,39.2462],
[-75.4326,39.3107],
[-75.5272,39.4167],
[-75.5722,39.4529],
[-75.6044,39.614],
[-75.5886,39.6489],
[-75.4594,39.7883],
[-75.4097,39.8219],
[-75.3611,39.8495],
[-75.3094,39.8639],
[-75.2217,39.8728],
[-75.1772,39.8955],
[-75.1117,39.9733],
[-75.0285,40.0123],
[-75.1011,39.9005],
[-75.1376,39.8739],
[-75.3447,39.8294],
[-75.4243,39.7828],
[-75.4528,39.7568],
[-75.5572,39.6204],
[-75.5428,39.5005],
[-75.5269,39.4653],
[-75.4157,39.378],
[-75.1644,39.2328],
[-75.0864,39.2075],
[-75.0408,39.2139],
[-74.9239,39.1897],
[-74.8949,39.169],
[-74.8826,39.1409],
[-74.8924,39.104],
[-74.9574,38.9854],
[-74.9644,38.9333],
[-74.9453,38.923],
[-74.9083,38.9274],
[-74.8468,38.9508],
[-74.7111,39.09],
[-74.6514,39.193],
[-74.6,39.2575],
[-74.6115,39.2796],
[-74.6501,39.2902],
[-74.5542,39.335],
[-74.5156,39.3367],
[-74.5224,39.316],
[-74.4204,39.354],
[-74.4287,39.3911],
[-74.4473,39.4],
[-74.4626,39.4211],
[-74.4225,39.4589],
[-74.3933,39.4413],
[-74.3766,39.4747],
[-74.4056,39.5161],
[-74.3195,39.5614],
[-74.2111,39.6436],
[-74.1513,39.7037],
[-74.1563,39.725],
[-74.1785,39.7465],
[-74.1711,39.7805],
[-74.1008,39.9508],
[-74.0716,40.0478],
[-74.0455,40.053],
[-74.0444,39.9997],
[-74.0829,39.8771],
[-74.0883,39.7749],
[-73.9522,40.3],
[-73.9564,40.3982],
[-73.9957,40.4588],
[-74.0839,40.438],
[-74.2,40.4376],
[-74.263,40.4664],
[-74.2525,40.5522],
[-74.1993,40.641],
[-74.1339,40.7008],
[-74.1086,40.7134],
[-74.1073,40.693],
[-74.1198,40.6634],
[-74.0864,40.6692],
[-74.021,40.7173],
[-73.9042,40.9594],
[-73.9181,41.1701],
[-73.9601,41.2042],
[-73.9861,41.2684],
[-73.9513,41.3044],
[-73.8779,41.1787],
[-73.8661,41.0892],
[-73.8836,40.9739],
[-73.9233,40.8705],
[-73.9342,40.798],
[-73.8228,40.8261],
[-73.7486,40.9253],
[-73.7085,40.9543],
[-73.6772,40.9539],
[-73.646,40.9839],
[-73.6455,41.0075],
[-73.5594,41.0158],
[-73.3228,41.1183],
[-73.1778,41.1708],
[-73.1506,41.1578],
[-72.9064,41.2861],
[-72.8904,41.2544],
[-72.6069,41.2792],
[-72.5314,41.2636],
[-72.3883,41.2711],
[-72.2549,41.2871],
[-72.2354,41.306],
[-72.1833,41.3261],
[-71.9594,41.3475],
[-71.8786,41.341],
[-71.8458,41.3188],
[-71.7822,41.3258],
[-71.5897,41.3733],
[-71.5353,41.3768],
[-71.5117,41.37],
[-71.4747,41.3931],
[-71.428,41.4611],
[-71.3894,41.8067],
[-71.3078,41.6646],
[-71.2714,41.653],
[-71.2347,41.6775],
[-71.2365,41.7092],
[-71.1149,41.7895],
[-71.1356,41.7489],
[-71.1986,41.6675],
[-71.2063,41.6405],
[-71.2078,41.549],
[-71.2022,41.4983],
[-71.1883,41.4683],
[-71.1424,41.4943],
[-71.1281,41.5108],
[-71.0656,41.5106],
[-70.9264,41.5539],
[-70.8139,41.63],
[-70.7261,41.7278],
[-70.6342,41.7014],
[-70.6589,41.6025],
[-70.6486,41.5394],
[-70.4856,41.5601],
[-70.4185,41.6335],
[-70.2322,41.6442],
[-70.0892,41.6683],
[-69.9354,41.6725],
[-69.9272,41.8322],
[-69.9347,41.8567],
[-69.9931,41.9808],
[-70.0742,42.0589],
[-70.1442,42.0875],
[-70.2261,42.0905],
[-70.244,42.0739],
[-70.1872,42.029],
[-70.1726,42.0558],
[-70.1344,42.0589],
[-70.1069,42.0394],
[-69.9886,41.9126],
[-69.991,41.8304],
[-70.0193,41.7926],
[-70.0853,41.7686],
[-70.2047,41.7436],
[-70.2936,41.7089],
[-70.3329,41.7139],
[-70.4519,41.7555],
[-70.5268,41.806],
[-70.5214,41.8654],
[-70.534,41.9344],
[-70.5736,41.9517],
[-70.5947,41.948],
[-70.6451,41.9639],
[-70.6822,41.9972],
[-70.6517,42.0573],
[-70.7176,42.2139],
[-70.7571,42.2454],
[-70.8489,42.2744],
[-70.8678,42.2572],
[-70.9574,42.2407],
[-71.0395,42.3049],
[-71.0449,42.3672],
[-70.8881,42.5078],
[-70.8683,42.5408],
[-70.6289,42.5954],
[-70.5818,42.6528],
[-70.6178,42.6908],
[-70.6646,42.6639],
[-70.6624,42.6417],
[-70.7467,42.6546],
[-70.806,42.7159],
[-70.8108,42.8936],
[-70.7903,42.9389],
[-70.7194,43.023],
[-70.7045,43.0577],
[-70.7376,43.078],
[-70.7234,43.1199],
[-70.6712,43.0845],
[-70.5717,43.2265],
[-70.5837,43.2571],
[-70.5696,43.2976],
[-70.5492,43.3236],
[-70.514,43.3542],
[-70.4515,43.3578],
[-70.3936,43.403],
[-70.3539,43.4428],
[-70.2907,43.5567],
[-70.1919,43.5755],
[-70.1966,43.6429],
[-70.2162,43.658],
[-70.2528,43.6522],
[-70.2311,43.674],
[-70.1725,43.7805],
[-69.9916,43.8753],
[-69.9222,43.8647],
[-69.8569,43.8008],
[-69.8517,43.7594],
[-69.8314,43.7162],
[-69.8006,43.7888],
[-69.8186,43.9028],
[-69.8304,43.9277],
[-69.868,43.9687],
[-69.8735,43.9924],
[-69.7716,44.0743],
[-69.7794,44.0476],
[-69.7819,43.963],
[-69.752,43.8302],
[-69.7193,43.7921],
[-69.6927,43.8824],
[-69.7173,43.9055],
[-69.6791,43.9671],
[-69.6644,44.0086],
[-69.6431,44.0289],
[-69.6173,44.0388],
[-69.6424,44.0035],
[-69.6512,43.9008],
[-69.587,43.8845],
[-69.5889,43.9583],
[-69.5286,44.0243],
[-69.5564,43.9756],
[-69.5536,43.8978],
[-69.5407,43.8746],
[-69.5004,43.8504],
[-69.4589,43.9253],
[-69.37,44.0469],
[-69.298,43.9972],
[-69.2483,43.938],
[-69.1992,43.9803],
[-69.0656,44.0661],
[-69.0502,44.101],
[-69.0817,44.0995],
[-69.0836,44.1289],
[-69.0225,44.2569],
[-68.9808,44.4417],
[-68.8497,44.473],
[-68.8109,44.5223],
[-68.7969,44.5746],
[-68.7316,44.5559],
[-68.7939,44.458],
[-68.8132,44.3303],
[-68.6158,44.3064],
[-68.5492,44.3212],
[-68.5592,44.4189],
[-68.5042,44.4225],
[-68.4632,44.3994],
[-68.3779,44.4238],
[-68.3643,44.4471],
[-68.3212,44.4659],
[-68.1079,44.455],
[-68.0948,44.4047],
[-68.0595,44.3518],
[-68.0092,44.3933],
[-67.9364,44.4269],
[-67.865,44.4939],
[-67.7753,44.5469],
[-67.7111,44.5125],
[-67.5629,44.5525],
[-67.565,44.6343],
[-67.546,44.6669],
[-67.4158,44.6283],
[-67.2638,44.6431],
[-67.19,44.6603],
[-66.9708,44.8279],
[-66.9831,44.8664],
[-67.0579,44.9009],
[-67.0916,44.8693],
[-67.1786,44.8992],
[-67.192,44.9257],
[-67.1268,44.9314],
[-67.0751,44.9521],
[-67.0344,44.985],
[-67.105,45.0983],
[-67.1628,45.1683],
[-67.2642,45.2],
[-67.2901,45.1801],
[-67.3058,45.1549],
[-67.3387,45.1503],
[-67.406,45.1964],
[-67.4553,45.2631],
[-67.4643,45.2839],
[-67.4506,45.3331],
[-67.4818,45.4958],
[-67.4212,45.525],
[-67.4131,45.5855],
[-67.4581,45.6136],
[-67.5075,45.6014],
[-67.6606,45.6321],
[-67.7945,45.6958],
[-67.8044,45.7314],
[-67.8064,45.7847],
[-67.7725,45.9575],
[-67.795,47.07],
[-67.8922,47.1144],
[-67.95,47.1686],
[-67.961,47.1905],
[-68.1858,47.3328],
[-68.3149,47.3651],
[-68.3431,47.3618],
[-68.8915,47.189],
[-69.0322,47.2556],
[-69.0527,47.2899],
[-69.0558,47.3421],
[-69.0456,47.431],
[-69.1283,47.4592],
[-69.2361,47.4679],
[-70.0092,46.698],
[-70.0478,46.4539],
[-70.0571,46.4314],
[-70.2003,46.3364],
[-70.2878,46.203],
[-70.3056,46.0789],
[-70.3049,45.98],
[-70.2449,45.9604],
[-70.2581,45.9091],
[-70.4667,45.7119],
[-70.5553,45.6728],
[-70.6319,45.6278],
[-70.6931,45.5719],
[-70.7203,45.5283],
[-70.725,45.4972],
[-70.6971,45.4636],
[-70.8766,45.241],
[-71.0211,45.3267],
[-71.0851,45.3077],
[-71.1432,45.2528],
[-71.2117,45.2661],
[-71.2957,45.3037],
[-71.3211,45.2969],
[-71.4244,45.25],
[-71.4014,45.2144],
[-71.4343,45.1278],
[-71.4887,45.078],
[-71.4981,45.0494],
[-71.4942,45.0205],
[-72.7789,45.0208],
[-74.2492,44.9922],
[-74.682,45.0067],
[-74.7511,45.0022],
[-74.8205,45.0185],
[-74.9961,44.9836],
[-75.1705,44.8986],
[-75.3097,44.8419],
[-75.5625,44.6739],
[-75.7361,44.5464],
[-75.8226,44.4725],
[-75.8453,44.4189],
[-75.8721,44.398],
[-75.99,44.3571],
[-76.0611,44.3432],
[-76.4374,44.1021],
[-76.8094,43.6333],
[-77.8872,43.6394],
[-78.6631,43.6375],
[-78.7247,43.6294],
[-79.1847,43.4655],
[-79.0537,43.2596],
[-79.0449,43.163],
[-79.0811,43.0855],
[-79.0421,43.0097],
[-79.0138,42.9822],
[-78.9203,42.9362],
[-78.9178,42.9019],
[-78.9342,42.866],
[-78.9869,42.82],
[-80.0915,42.3982],
[-80.5103,42.3292],
[-81.2492,42.225],
[-82.4253,41.6756],
[-82.4628,41.6761],
[-82.6967,41.6839],
[-83.0764,41.8674],
[-83.1686,42.0461],
[-83.1325,42.2208],
[-83.1129,42.2653],
[-83.0845,42.2994],
[-83.0272,42.3319],
[-82.9406,42.3575],
[-82.8012,42.418],
[-82.6627,42.5453],
[-82.579,42.5637],
[-82.5358,42.5994],
[-82.5174,42.6276],
[-82.4729,42.7608],
[-82.4815,42.8264],
[-82.4635,42.9014],
[-82.4188,43.0186],
[-82.1303,43.5853],
[-82.5431,45.3558],
[-83.5978,45.8272],
[-83.4478,46.0119],
[-83.479,46.0401],
[-83.5961,46.1142],
[-83.6631,46.1261],
[-83.8383,46.1255],
[-83.9238,46.0706],
[-83.9543,46.0705],
[-84.0767,46.203],
[-84.1025,46.2403],
[-84.1576,46.3942],
[-84.1603,46.425],
[-84.1201,46.5071],
[-84.1253,46.5294],
[-84.1928,46.5467],
[-84.4086,46.5086],
[-84.4314,46.5017],
[-84.484,46.4602],
[-84.565,46.4664],
[-84.775,46.653],
[-84.8646,46.9058],
[-86.5689,47.6083],
[-88.3681,48.3122],
[-88.6917,48.2556],
[-89.3567,47.9797],
[-89.4478,48.0033],
[-89.5729,48.0023],
[-89.7556,48.0296],
[-89.8998,47.9906],
[-89.9942,48.0253],
[-90.0656,48.1065],
[-90.1465,48.1214],
[-90.7499,48.0928],
[-90.7739,48.1037],
[-90.8358,48.2045],
[-90.8352,48.2271],
[-90.8686,48.2375],
[-90.9283,48.2286],
[-91.1261,48.155],
[-91.2406,48.0836],
[-91.3868,48.0589],
[-91.4183,48.0411],
[-91.5736,48.093],
[-91.6451,48.0983],
[-91.7401,48.1914],
[-91.8506,48.2039],
[-91.9637,48.2405],
[-92.0081,48.281],
[-92.0394,48.3453],
[-92.1417,48.3572],
[-92.2572,48.3469],
[-92.2768,48.335],
[-92.2998,48.2994],
[-92.2861,48.27],
[-92.2914,48.2489],
[-92.3599,48.2317],
[-92.4264,48.3117],
[-92.4553,48.3942],
[-92.6978,48.4853],
[-92.7153,48.5414],
[-92.9513,48.6226],
[-93.245,48.6405],
[-93.4083,48.6086],
[-93.4541,48.5843],
[-93.4642,48.5517],
[-93.4963,48.5386],
[-93.6607,48.5151],
[-93.7858,48.5171],
[-93.8048,48.5319],
[-93.834,48.6164],
[-93.8587,48.6286],
[-94.1342,48.6428],
[-94.2479,48.661],
[-94.2674,48.6959],
[-94.2985,48.7072],
[-94.4004,48.7108],
[-94.461,48.695],
[-94.5008,48.6969],
[-94.6058,48.7244],
[-94.695,48.7787],
[-94.7081,48.7968],
[-94.701,48.9025],
[-94.7058,48.9332],
[-94.7983,49.1575],
[-94.8178,49.3055],
[-94.932,49.3585],
[-95.0819,49.3596],
[-95.1498,49.3716],
[-95.1542,48.9994],
[-117.0366,49.0031],
[-122.7578,48.9974],
[-122.7341,48.9624],
[-122.7703,48.964],
[-122.8097,48.9429],
[-122.6494,48.7644],
[-122.609,48.7528],
[-122.5876,48.7721],
[-122.5658,48.7751],
[-122.5219,48.7615],
[-122.5,48.7449],
[-122.4367,48.5904],
[-122.4862,48.4527],
[-122.5171,48.453],
[-122.5504,48.4849],
[-122.6197,48.5112],
[-122.6987,48.4948],
[-122.6796,48.4183],
[-122.6583,48.4047],
[-122.6258,48.4032],
[-122.5909,48.4258],
[-122.3928,48.3094],
[-122.3782,48.2847],
[-122.3975,48.2382],
[-122.434,48.2551],
[-122.4983,48.2504],
[-122.5207,48.236],
[-122.5311,48.2051],
[-122.5285,48.1829],
[-122.5004,48.1291],
[-122.4514,48.115],
[-122.43,48.1197],
[-122.47,48.1699],
[-122.4426,48.2255],
[-122.3744,48.2134],
[-122.3206,48.0742],
[-122.2911,47.9582],
[-122.3736,47.8324],
[-122.4183,47.6722],
[-122.3851,47.5467],
[-122.3096,47.4046],
[-122.3135,47.3718],
[-122.4164,47.3147],
[-122.5271,47.2758],
[-122.61,47.1728],
[-122.6397,47.1519],
[-122.7169,47.1203],
[-122.7928,47.1825],
[-122.8451,47.175],
[-122.8854,47.1564],
[-122.8786,47.0642],
[-122.901,47.0664],
[-122.9514,47.135],
[-123.0649,47.1139],
[-123.0626,47.156],
[-122.9801,47.1805],
[-122.9396,47.2057],
[-122.917,47.2845],
[-122.9029,47.3],
[-122.8465,47.3132],
[-122.7975,47.3953],
[-122.7702,47.3721],
[-122.7676,47.3205],
[-122.8112,47.2705],
[-122.7904,47.2226],
[-122.749,47.1893],
[-122.7286,47.2119],
[-122.7141,47.2526],
[-122.743,47.2908],
[-122.7096,47.3555],
[-122.6192,47.4205],
[-122.6137,47.3944],
[-122.6729,47.3218],
[-122.5711,47.2787],
[-122.5478,47.288],
[-122.5086,47.5005],
[-122.5365,47.5932],
[-122.6028,47.5617],
[-122.6633,47.5457],
[-122.6808,47.6392],
[-122.6711,47.6586],
[-122.6385,47.6196],
[-122.5981,47.6084],
[-122.5985,47.7067],
[-122.5417,47.7422],
[-122.46,47.7637],
[-122.5141,47.9221],
[-122.5656,47.938],
[-122.7288,47.7478],
[-122.7361,47.7217],
[-122.8361,47.6567],
[-122.9033,47.6343],
[-122.9425,47.6079],
[-123.0842,47.443],
[-123.0975,47.4008],
[-123.025,47.38],
[-122.8661,47.4453],
[-122.8406,47.4473],
[-122.8761,47.415],
[-123.0067,47.3685],
[-123.1039,47.3564],
[-123.1297,47.3594],
[-123.1479,47.3717],
[-123.1044,47.4694],
[-123.0172,47.5697],
[-122.8939,47.6775],
[-122.8754,47.7037],
[-122.8419,47.7831],
[-122.8493,47.8314],
[-122.795,47.8603],
[-122.7799,47.8122],
[-122.7881,47.7655],
[-122.7478,47.7631],
[-122.6303,47.9158],
[-122.6787,47.9873],
[-122.7139,48.0103],
[-122.7781,48.0903],
[-122.7775,48.1105],
[-122.747,48.1278],
[-122.7494,48.1539],
[-122.7817,48.158],
[-122.8253,48.146],
[-122.8465,48.136],
[-122.868,48.1123],
[-122.97,48.1133],
[-123.1133,48.191],
[-123.2427,48.1294],
[-123.4014,48.1319],
[-123.6739,48.1708],
[-123.807,48.1658],
[-123.9347,48.1758],
[-124.0403,48.193],
[-124.0852,48.2117],
[-124.0993,48.2321],
[-124.145,48.2514],
[-124.2322,48.2758],
[-124.3094,48.2839],
[-124.6372,48.4],
[-124.7143,48.3971]
]
],
[
[
[-123.1773,48.5917],
[-123.1768,48.5517],
[-123.1458,48.5003],
[-123.1219,48.4847],
[-123.0042,48.4457],
[-122.9626,48.4526],
[-122.995,48.5297],
[-123.1028,48.6077],
[-123.1469,48.6177],
[-123.1773,48.5917]
]
],
[
[
[-123.0937,48.9994],
[-123.0865,48.9721],
[-123.0459,48.9775],
[-123.0357,49.0011],
[-123.0937,48.9994]
]
],
[
[
[-123.0218,48.6299],
[-123.0065,48.6027],
[-122.92,48.5875],
[-122.8783,48.5879],
[-122.8076,48.6054],
[-122.7497,48.6545],
[-122.7808,48.6769],
[-122.8517,48.7036],
[-122.8893,48.7111],
[-122.9333,48.7076],
[-123.0218,48.6299]
]
],
[
[
[-122.9364,48.4833],
[-122.9349,48.4553],
[-122.8605,48.4214],
[-122.8331,48.4171],
[-122.8111,48.4227],
[-122.8147,48.4672],
[-122.8556,48.5242],
[-122.8693,48.5566],
[-122.9161,48.5367],
[-122.9364,48.4833]
]
],
[
[
[-122.7553,48.2398],
[-122.7458,48.2149],
[-122.6067,48.0875],
[-122.5317,47.9811],
[-122.4233,47.9258],
[-122.37,47.9214],
[-122.3422,47.9547],
[-122.3366,47.9746],
[-122.3653,48.0375],
[-122.4864,48.1011],
[-122.5878,48.1967],
[-122.6493,48.2272],
[-122.6639,48.2447],
[-122.6147,48.3008],
[-122.585,48.3015],
[-122.5569,48.2843],
[-122.5207,48.2935],
[-122.5058,48.3075],
[-122.6001,48.4046],
[-122.6611,48.3775],
[-122.7553,48.2398]
]
],
[
[
[-122.5185,47.3715],
[-122.4967,47.3498],
[-122.4106,47.3872],
[-122.3811,47.3947],
[-122.4219,47.4322],
[-122.4494,47.5163],
[-122.4961,47.4611],
[-122.5185,47.3715]
]
],
[
[
[-120.2261,34.0061],
[-120.1683,33.9312],
[-120.1146,33.9068],
[-120.0365,33.9192],
[-119.9664,33.9625],
[-119.9694,33.9924],
[-120,33.9896],
[-120.0353,34.0239],
[-120.0519,34.0361],
[-120.2261,34.0061]
]
],
[
[
[-119.916,34.074],
[-119.871,33.9915],
[-119.8369,33.9742],
[-119.7806,33.9672],
[-119.7133,33.9708],
[-119.59,33.9972],
[-119.533,34.0151],
[-119.5156,34.0446],
[-119.558,34.0658],
[-119.5936,34.0539],
[-119.6983,34.0453],
[-119.8681,34.0842],
[-119.916,34.074]
]
],
[
[
[-118.5944,33.0388],
[-118.5706,32.9842],
[-118.4841,32.8578],
[-118.4086,32.8171],
[-118.3695,32.8328],
[-118.3692,32.8547],
[-118.4822,32.938],
[-118.5203,32.975],
[-118.5544,33.0431],
[-118.5944,33.0388]
]
],
[
[
[-118.5855,33.4873],
[-118.4496,33.3286],
[-118.3037,33.3099],
[-118.2931,33.3287],
[-118.2972,33.3461],
[-118.3497,33.3983],
[-118.4033,33.428],
[-118.5353,33.4878],
[-118.5855,33.4873]
]
],
[
[
[-97.4006,27.0208],
[-97.3858,26.8382],
[-97.3663,26.8016],
[-97.3582,26.707],
[-97.2778,26.5042],
[-97.2247,26.3433],
[-97.1955,26.1206],
[-97.1769,26.0971],
[-97.1722,26.1178],
[-97.2064,26.3283],
[-97.2278,26.4108],
[-97.3253,26.6961],
[-97.3558,26.823],
[-97.3939,27.0519],
[-97.4006,27.0208]
]
],
[
[
[-97.3863,27.2775],
[-97.3814,27.224],
[-97.3681,27.2392],
[-97.3378,27.3506],
[-97.2944,27.4572],
[-97.1667,27.6805],
[-97.0471,27.8271],
[-97.0685,27.8387],
[-97.1581,27.7317],
[-97.3172,27.4958],
[-97.3747,27.3431],
[-97.3863,27.2775]
]
],
[
[
[-97.0306,27.8724],
[-96.8878,28.0306],
[-96.8486,28.0839],
[-96.8394,28.1112],
[-96.8714,28.1338],
[-96.9219,28.0897],
[-97.0239,27.9117],
[-97.0306,27.8724]
]
],
[
[
[-96.8135,28.1031],
[-96.7536,28.1411],
[-96.5283,28.2797],
[-96.4194,28.325],
[-96.4034,28.3433],
[-96.4006,28.3672],
[-96.4099,28.3952],
[-96.4307,28.3768],
[-96.6446,28.2607],
[-96.6636,28.2375],
[-96.711,28.2044],
[-96.7992,28.184],
[-96.8108,28.1653],
[-96.8135,28.1031]
]
],
[
[
[-96.212,28.4881],
[-96.1564,28.5106],
[-96.0618,28.5592],
[-96.041,28.579],
[-96.0724,28.5739],
[-96.1467,28.5383],
[-96.1956,28.5098],
[-96.212,28.4881]
]
],
[
[
[-95.1123,29.1016],
[-94.8746,29.2432],
[-94.7831,29.3132],
[-94.8214,29.3386],
[-95.0958,29.1249],
[-95.1123,29.1016]
]
],
[
[
[-92.0316,29.5788],
[-91.9878,29.5508],
[-91.8421,29.4825],
[-91.7829,29.4876],
[-91.7242,29.5586],
[-91.7383,29.5769],
[-91.8622,29.6364],
[-91.9167,29.6449],
[-92.006,29.618],
[-92.0231,29.6039],
[-92.0316,29.5788]
]
],
[
[
[-88.0214,30.2255],
[-87.8736,30.2334],
[-87.9525,30.2483],
[-88.0214,30.2255]
]
],
[
[
[-87.5226,30.2793],
[-87.4559,30.2987],
[-87.4985,30.3033],
[-87.5226,30.2793]
]
],
[
[
[-87.287,30.3303],
[-87.2511,30.3174],
[-87.2097,30.3225],
[-86.7178,30.4079],
[-87.287,30.3303]
]
],
[
[
[-80.7403,28.4783],
[-80.7236,28.3792],
[-80.6597,28.2432],
[-80.6696,28.2807],
[-80.6606,28.3189],
[-80.669,28.3736],
[-80.6461,28.4733],
[-80.6105,28.5483],
[-80.6139,28.575],
[-80.6431,28.5976],
[-80.6955,28.575],
[-80.7317,28.5392],
[-80.7403,28.4783]
]
],
[
[
[-80.6009,24.9508],
[-80.5754,24.9472],
[-80.3703,25.1461],
[-80.2678,25.3283],
[-80.2568,25.3353],
[-80.261,25.3481],
[-80.2868,25.3418],
[-80.3314,25.2911],
[-80.3589,25.2189],
[-80.4556,25.0914],
[-80.5717,24.9667],
[-80.6009,24.9508]
]
],
[
[
[-80.4449,27.8504],
[-80.2889,27.4133],
[-80.1872,27.2071],
[-80.1651,27.1862],
[-80.2378,27.3639],
[-80.2925,27.4689],
[-80.3717,27.7147],
[-80.4029,27.7722],
[-80.4322,27.8433],
[-80.4449,27.8504]
]
],
[
[
[-75.6536,35.2255],
[-75.61,35.2222],
[-75.5272,35.2355],
[-75.5158,35.2464],
[-75.4831,35.3458],
[-75.4478,35.6031],
[-75.4828,35.7308],
[-75.5148,35.776],
[-75.5267,35.7684],
[-75.4828,35.6697],
[-75.4647,35.5911],
[-75.5125,35.3078],
[-75.5219,35.278],
[-75.534,35.2696],
[-75.6536,35.2255]
]
],
[
[
[-74.2325,40.5389],
[-74.2276,40.5132],
[-74.145,40.5389],
[-74.116,40.5547],
[-74.0555,40.611],
[-74.0721,40.6465],
[-74.1786,40.6385],
[-74.2325,40.5389]
]
],
[
[
[-74.0325,40.6258],
[-74.0044,40.5804],
[-73.9433,40.5853],
[-73.8812,40.6094],
[-73.8997,40.6358],
[-73.8597,40.6568],
[-73.8364,40.6594],
[-73.8128,40.6567],
[-73.7711,40.6354],
[-73.7773,40.6149],
[-73.7972,40.5922],
[-73.6181,40.5944],
[-73.5873,40.6036],
[-73.6528,40.62],
[-73.5611,40.6453],
[-73.1403,40.7189],
[-73.0109,40.7529],
[-72.8906,40.7737],
[-72.8678,40.7561],
[-72.5428,40.8256],
[-72.0842,40.9817],
[-71.8668,41.0748],
[-71.92,41.0821],
[-72.0007,41.051],
[-72.0533,41.0161],
[-72.1099,41.0055],
[-72.135,41.0353],
[-72.2636,41.0194],
[-72.3458,40.9997],
[-72.4019,40.9647],
[-72.4362,40.9224],
[-72.4912,40.9046],
[-72.5847,40.9061],
[-72.6171,40.9176],
[-72.3883,41.085],
[-72.2576,41.1292],
[-72.2417,41.1571],
[-72.2853,41.1619],
[-72.3508,41.1408],
[-72.6376,40.9817],
[-72.7583,40.9637],
[-73.0372,40.9686],
[-73.1504,40.943],
[-73.2267,40.9105],
[-73.4906,40.9342],
[-73.5894,40.9205],
[-73.8356,40.805],
[-73.9169,40.7924],
[-73.94,40.773],
[-74.031,40.6489],
[-74.0325,40.6258]
]
],
[
[
[-71.3556,41.4576],
[-71.2975,41.4586],
[-71.2328,41.4947],
[-71.2275,41.5394],
[-71.2208,41.6433],
[-71.2632,41.6305],
[-71.3097,41.5611],
[-71.3556,41.4576]
]
],
[
[
[-70.835,41.3612],
[-70.7811,41.3161],
[-70.7599,41.3109],
[-70.7425,41.3357],
[-70.6967,41.3489],
[-70.6011,41.3569],
[-70.5142,41.3541],
[-70.5103,41.408],
[-70.56,41.4671],
[-70.6172,41.4739],
[-70.835,41.3612]
]
],
[
[
[-70.2322,41.2817],
[-70.1007,41.2482],
[-70.0136,41.2478],
[-69.9867,41.2528],
[-69.9612,41.2741],
[-70.0195,41.3839],
[-70.0353,41.3592],
[-70.1096,41.2962],
[-70.1978,41.2942],
[-70.2322,41.2817]
]
],
[
[
[-68.721,44.2317],
[-68.7106,44.1778],
[-68.6562,44.1687],
[-68.6151,44.1882],
[-68.6043,44.2512],
[-68.6226,44.2705],
[-68.6654,44.2841],
[-68.721,44.2317]
]
],
[
[
[-68.4275,44.3217],
[-68.4105,44.2767],
[-68.3297,44.2374],
[-68.1876,44.329],
[-68.1717,44.357],
[-68.189,44.3868],
[-68.2435,44.4427],
[-68.2592,44.4521],
[-68.2986,44.4492],
[-68.3503,44.4403],
[-68.3653,44.4286],
[-68.4061,44.3694],
[-68.4275,44.3217]
]
]
]}
}
