{
"type": "Feature",
"properties": {"id":"cshapes-590-1886-01-01","edge_precision":"unknown","cshapes_gwcode":590,"cshapes_name":"Mauritius","cshapes_first_day":"1886-01-01","cshapes_last_day":"1968-03-11","cshapes_status":"colony","cshapes_owner":200,"cshapes_borders_defined":true},
"geometry": {"type": "MultiPolygon", "coordinates": [
[
[
[57.3063,-20.4561],
[57.3861,-20.5031],
[57.5294,-20.5206],
[57.5725,-20.5142],
[57.6747,-20.4815],
[57.7228,-20.4389],
[57.7908,-20.2784],
[57.7954,-20.2275],
[57.6775,-20.0071],
[57.6244,-19.9864],
[57.5924,-19.9866],
[57.5339,-20.0206],
[57.4092,-20.1897],
[57.3767,-20.245],
[57.3071,-20.434],
[57.3063,-20.4561]
]
],
[
[
[63.332,-19.743],
[63.3597,-19.7639],
[63.4689,-19.7347],
[63.4956,-19.7069],
[63.4958,-19.6837],
[63.4344,-19.6742],
[63.3409,-19.7116],
[63.332,-19.743]
]
]
]}
}
