{
"type": "Feature",
"properties": {"id":"cshapes-101-1886-01-01","edge_precision":"unknown","cshapes_gwcode":101,"cshapes_name":"Venezuela","cshapes_first_day":"1886-01-01","cshapes_last_day":"2019-12-31","cshapes_status":"independent","cshapes_owner":101,"cshapes_borders_defined":true},
"geometry": {"type": "MultiPolygon", "coordinates": [
[
[
[-73.3781,9.1714],
[-73.222,9.1711],
[-73.1656,9.1958],
[-73.1435,9.2239],
[-73.01,9.302],
[-72.9811,9.2608],
[-72.9583,9.2011],
[-72.9625,9.1781],
[-72.8856,9.1192],
[-72.7797,9.0803],
[-72.6645,8.6411],
[-72.4231,8.3897],
[-72.4035,8.385],
[-72.3882,8.3694],
[-72.3367,8.1519],
[-72.325,8.089],
[-72.3286,8.0618],
[-72.3458,8.0477],
[-72.3894,8.0476],
[-72.4597,7.9206],
[-72.4735,7.6562],
[-72.4724,7.498],
[-72.4193,7.4206],
[-72.3997,7.4068],
[-72.2625,7.3894],
[-72.1547,7.3253],
[-72.1646,7.2625],
[-72.1329,7.1733],
[-72.0599,7.0623],
[-71.9924,7.0162],
[-71.9268,7.0097],
[-71.8769,6.9865],
[-71.8328,6.9872],
[-71.702,7.0464],
[-71.6453,7.0606],
[-71.6014,7.0579],
[-71.4639,7.0233],
[-71.3325,7.0224],
[-71.2624,6.9874],
[-71.1813,6.9635],
[-71.025,6.9844],
[-70.9082,7.0482],
[-70.8865,7.0751],
[-70.7197,7.0981],
[-70.5525,7.0583],
[-70.3861,6.9831],
[-70.3439,6.9525],
[-70.2947,6.9385],
[-70.2623,6.9457],
[-70.2218,6.974],
[-70.1585,6.9825],
[-70.1192,6.9758],
[-69.4295,6.1186],
[-69.3713,6.1458],
[-69.3161,6.1486],
[-69.2707,6.091],
[-69.2417,6.0841],
[-69.1952,6.1004],
[-69.0879,6.2031],
[-69.0564,6.2161],
[-68.8278,6.1864],
[-68.712,6.157],
[-68.6861,6.1415],
[-68.6384,6.1355],
[-68.4539,6.1906],
[-68.4193,6.1918],
[-68.3195,6.1681],
[-68.1552,6.2228],
[-68.1036,6.2215],
[-68.0353,6.2056],
[-67.9979,6.2072],
[-67.9181,6.2382],
[-67.8312,6.3076],
[-67.6353,6.2851],
[-67.5636,6.2625],
[-67.4963,6.2054],
[-67.4545,6.1931],
[-67.4892,6.1537],
[-67.4925,6.1214],
[-67.4696,6.0697],
[-67.435,6.0386],
[-67.414,5.9955],
[-67.4263,5.9767],
[-67.4617,5.9555],
[-67.5319,5.8913],
[-67.62,5.7922],
[-67.6429,5.7314],
[-67.6517,5.6832],
[-67.6338,5.5783],
[-67.6159,5.5482],
[-67.6494,5.4783],
[-67.8039,5.3833],
[-67.8486,5.3065],
[-67.8297,5.1314],
[-67.8028,5.0394],
[-67.8016,4.9732],
[-67.8247,4.7367],
[-67.8588,4.5612],
[-67.7848,4.3348],
[-67.8013,4.3001],
[-67.8063,4.2318],
[-67.7867,4.1665],
[-67.7085,4.047],
[-67.6806,3.9214],
[-67.6351,3.7976],
[-67.5999,3.7407],
[-67.577,3.7324],
[-67.5117,3.738],
[-67.491,3.7243],
[-67.4371,3.6483],
[-67.3956,3.5125],
[-67.3811,3.486],
[-67.3066,3.4528],
[-67.2929,3.396],
[-67.3464,3.3137],
[-67.3697,3.3047],
[-67.4356,3.2539],
[-67.8331,2.8767],
[-67.8236,2.8271],
[-67.7658,2.8325],
[-67.6344,2.8094],
[-67.6058,2.7933],
[-67.5353,2.68],
[-67.4856,2.6533],
[-67.3252,2.474],
[-67.2814,2.4389],
[-67.2195,2.4131],
[-67.1925,2.3925],
[-67.1742,2.3365],
[-67.2169,2.2753],
[-67.2115,2.2436],
[-67.1132,2.0267],
[-66.9917,1.6958],
[-66.9264,1.4597],
[-66.899,1.2841],
[-66.8767,1.2221],
[-66.3147,0.7514],
[-66.1271,0.7342],
[-65.9796,0.7987],
[-65.8708,0.9083],
[-65.7353,0.9828],
[-65.5954,0.9904],
[-65.5594,0.9711],
[-65.5101,0.9019],
[-65.5111,0.8389],
[-65.5274,0.8067],
[-65.5675,0.7647],
[-65.5826,0.7298],
[-65.5756,0.6964],
[-65.5586,0.6661],
[-65.5424,0.6517],
[-65.5217,0.6492],
[-65.4858,0.6619],
[-65.4361,0.6953],
[-65.4003,0.754],
[-65.395,0.8186],
[-65.3858,0.8371],
[-65.3217,0.9119],
[-65.2915,0.9266],
[-65.2276,0.915],
[-65.1925,0.9267],
[-65.1658,0.9694],
[-65.1465,1.0976],
[-65.1363,1.1185],
[-65.1039,1.1421],
[-65.007,1.1658],
[-64.9431,1.2106],
[-64.8191,1.2795],
[-64.7572,1.2443],
[-64.7317,1.2469],
[-64.6975,1.2628],
[-64.5953,1.33],
[-64.549,1.4151],
[-64.5297,1.4336],
[-64.3943,1.5118],
[-64.2645,1.4761],
[-64.1132,1.5829],
[-64.078,1.6354],
[-64.0628,1.6811],
[-64.0499,1.8068],
[-64.0519,1.8905],
[-64.0301,1.9247],
[-64.0024,1.9499],
[-63.9365,1.9768],
[-63.825,1.9778],
[-63.7392,2.0031],
[-63.6071,2.106],
[-63.5454,2.13],
[-63.4883,2.1306],
[-63.3994,2.1495],
[-63.38,2.2292],
[-63.3608,2.2591],
[-63.3464,2.4061],
[-63.3654,2.42],
[-63.5817,2.4347],
[-63.8218,2.4258],
[-64.034,2.4713],
[-64.0465,2.5094],
[-63.9954,2.6231],
[-63.9879,2.7186],
[-64.0347,2.8328],
[-64.1589,3.0608],
[-64.2053,3.1933],
[-64.2357,3.4328],
[-64.2244,3.4669],
[-64.1935,3.5014],
[-64.1847,3.5278],
[-64.1902,3.5897],
[-64.3081,3.7183],
[-64.4463,3.787],
[-64.6267,3.9656],
[-64.6945,4.0819],
[-64.7131,4.144],
[-64.7859,4.1858],
[-64.802,4.2108],
[-64.8,4.2651],
[-64.7817,4.2864],
[-64.7242,4.2814],
[-64.652,4.2392],
[-64.6078,4.1453],
[-64.592,4.1278],
[-64.5529,4.1224],
[-64.3799,4.1536],
[-64.3356,4.1542],
[-64.2489,4.1481],
[-64.1264,4.1096],
[-64.0878,4.0328],
[-64.0527,3.9084],
[-64.0178,3.8861],
[-63.9942,3.8829],
[-63.9563,3.8912],
[-63.909,3.9331],
[-63.8481,3.9589],
[-63.6445,3.9486],
[-63.6142,3.9449],
[-63.5301,3.8672],
[-63.4915,3.8578],
[-63.4582,3.8665],
[-63.4191,3.9671],
[-63.3825,3.9708],
[-63.3356,3.9581],
[-63.294,3.9394],
[-63.2423,3.8981],
[-63.1642,3.7953],
[-62.9906,3.6043],
[-62.9236,3.5672],
[-62.8781,3.5601],
[-62.7813,3.6043],
[-62.7514,3.6383],
[-62.734,3.6765],
[-62.7275,3.7311],
[-62.7804,3.9087],
[-62.7578,4.0203],
[-62.7283,4.0386],
[-62.6699,4.0468],
[-62.6042,4.0419],
[-62.5399,4.1123],
[-62.4401,4.1827],
[-62.3922,4.1794],
[-62.2208,4.1125],
[-62.1426,4.0932],
[-62.1048,4.1039],
[-62.0532,4.1501],
[-61.9875,4.1696],
[-61.9149,4.1469],
[-61.8489,4.1606],
[-61.8115,4.1849],
[-61.7629,4.2431],
[-61.6992,4.259],
[-61.6253,4.2442],
[-61.5544,4.2488],
[-61.524,4.2749],
[-61.5107,4.3035],
[-61.5128,4.3619],
[-61.5074,4.3906],
[-61.4922,4.4064],
[-61.3136,4.5067],
[-61.1639,4.4943],
[-60.9871,4.5193],
[-60.9299,4.5919],
[-60.9246,4.6377],
[-60.8865,4.7097],
[-60.8386,4.7185],
[-60.7203,4.7761],
[-60.6493,4.8429],
[-60.5785,4.9526],
[-60.5824,4.9885],
[-60.6552,5.1813],
[-60.712,5.2065],
[-60.7304,5.2048],
[-60.7489,5.2225],
[-61.3897,5.94],
[-61.3735,5.961],
[-61.3379,5.9728],
[-61.2828,6.0563],
[-61.2628,6.1078],
[-61.1601,6.1825],
[-61.1386,6.2992],
[-61.14,6.4086],
[-61.1965,6.5337],
[-61.2047,6.5779],
[-61.1744,6.6587],
[-61.1251,6.7148],
[-61.0547,6.7289],
[-61.036,6.7197],
[-60.9397,6.7246],
[-60.8937,6.765],
[-60.8161,6.7883],
[-60.7192,6.759],
[-60.6978,6.7667],
[-60.6378,6.8349],
[-60.5269,6.8747],
[-60.4636,6.9067],
[-60.4083,6.9475],
[-60.2913,7.0566],
[-60.2781,7.1187],
[-60.3605,7.1762],
[-60.4561,7.1958],
[-60.5058,7.1727],
[-60.515,7.143],
[-60.5381,7.1244],
[-60.6175,7.1944],
[-60.6308,7.2219],
[-60.6342,7.2543],
[-60.6186,7.284],
[-60.5954,7.3061],
[-60.5914,7.3364],
[-60.61,7.3819],
[-60.6608,7.4472],
[-60.6883,7.4535],
[-60.714,7.501],
[-60.7167,7.54],
[-60.6911,7.5671],
[-60.6621,7.5665],
[-60.5888,7.6393],
[-60.5746,7.7152],
[-60.5333,7.8039],
[-60.5132,7.8182],
[-60.3197,7.8775],
[-60.1249,8.0283],
[-60.0936,8.0412],
[-60.0378,8.037],
[-60.0112,8.0592],
[-59.9797,8.1749],
[-59.9222,8.2111],
[-59.8329,8.2315],
[-59.8031,8.2833],
[-59.8121,8.3061],
[-59.9811,8.5183],
[-59.9903,8.5353],
[-60.0064,8.545],
[-60.1393,8.6028],
[-60.2361,8.6275],
[-60.3822,8.6324],
[-60.4088,8.6216],
[-60.4281,8.5739],
[-60.4658,8.5283],
[-60.6272,8.5512],
[-60.6822,8.5954],
[-60.7158,8.6046],
[-60.9022,8.5822],
[-60.9813,8.5644],
[-60.9871,8.526],
[-61.0178,8.4692],
[-61.0735,8.4029],
[-61.0861,8.4214],
[-61.0846,8.4471],
[-61.0735,8.4637],
[-61.0775,8.4931],
[-61.1685,8.4958],
[-61.2203,8.4628],
[-61.3292,8.4308],
[-61.3939,8.4744],
[-61.5989,8.555],
[-61.5954,8.6169],
[-61.5197,8.5904],
[-61.4367,8.6017],
[-61.3278,8.5961],
[-61.2509,8.5815],
[-61.2102,8.5951],
[-61.1926,8.6247],
[-61.1833,8.7278],
[-61.0978,8.9633],
[-61.0774,8.995],
[-61.0315,9.0321],
[-60.9558,9.1542],
[-60.9505,9.1751],
[-60.9727,9.1752],
[-61.0588,9.0953],
[-61.0981,9.044],
[-61.0846,9.0975],
[-61.0711,9.1189],
[-60.9878,9.1886],
[-60.9122,9.2367],
[-60.8189,9.2689],
[-60.7836,9.305],
[-60.783,9.3322],
[-60.7982,9.3793],
[-60.8536,9.4444],
[-60.9876,9.5518],
[-61.0449,9.5761],
[-61.0842,9.5822],
[-61.1975,9.5784],
[-61.256,9.5889],
[-61.4072,9.7047],
[-61.4472,9.7876],
[-61.4806,9.8236],
[-61.5542,9.8756],
[-61.6199,9.9053],
[-61.6481,9.8974],
[-61.6188,9.8443],
[-61.5847,9.8192],
[-61.5746,9.8007],
[-61.5977,9.7828],
[-61.6542,9.7906],
[-61.7719,9.8303],
[-61.7928,9.8311],
[-61.8009,9.8123],
[-61.7333,9.6987],
[-61.7286,9.6467],
[-61.7358,9.6009],
[-61.8117,9.7579],
[-61.9622,9.9119],
[-62.0539,9.9775],
[-62.1789,10.0147],
[-62.2092,10.011],
[-62.2317,9.9647],
[-62.2015,9.9383],
[-62.1651,9.9442],
[-62.1122,9.9294],
[-62.0473,9.8887],
[-62.0274,9.8664],
[-62.1335,9.8264],
[-62.13,9.7521],
[-62.1557,9.7096],
[-62.1708,9.6574],
[-62.1961,9.6417],
[-62.1653,9.7153],
[-62.1807,9.8428],
[-62.2057,9.914],
[-62.2505,9.967],
[-62.2368,9.855],
[-62.2772,9.7475],
[-62.3004,9.7185],
[-62.3226,9.7121],
[-62.3287,9.7229],
[-62.3152,9.7528],
[-62.3728,9.8813],
[-62.4269,9.9792],
[-62.4889,10.1531],
[-62.5013,10.1742],
[-62.5353,10.2022],
[-62.5775,10.2251],
[-62.6094,10.224],
[-62.6233,10.1886],
[-62.6054,10.1272],
[-62.6158,10.0932],
[-62.6628,10.0592],
[-62.8053,10.0086],
[-62.9106,10.0769],
[-62.9839,10.0689],
[-63.016,10.0957],
[-62.9569,10.1043],
[-62.9175,10.095],
[-62.8292,10.0536],
[-62.6693,10.075],
[-62.6306,10.1072],
[-62.6664,10.2806],
[-62.7364,10.3738],
[-62.7901,10.4013],
[-62.8224,10.3856],
[-62.8847,10.3744],
[-62.9072,10.3917],
[-62.9467,10.4009],
[-62.9547,10.375],
[-62.9429,10.3267],
[-62.9276,10.3029],
[-62.9342,10.2793],
[-62.9984,10.2716],
[-63.0037,10.3942],
[-62.9343,10.4185],
[-62.9117,10.4165],
[-62.8702,10.3902],
[-62.8377,10.3973],
[-62.831,10.4282],
[-62.8386,10.5117],
[-62.8725,10.5244],
[-62.9112,10.5156],
[-62.9347,10.4906],
[-63.0042,10.453],
[-62.9123,10.5287],
[-62.6497,10.5682],
[-62.5272,10.5404],
[-62.3311,10.5317],
[-62.3014,10.5553],
[-62.2761,10.6004],
[-62.2492,10.627],
[-62.1625,10.6367],
[-62.0856,10.6272],
[-61.9531,10.6489],
[-61.9211,10.6619],
[-61.8833,10.6947],
[-61.8796,10.7283],
[-61.9839,10.7281],
[-62.1925,10.6942],
[-62.3011,10.7003],
[-62.5386,10.7356],
[-62.6975,10.7478],
[-62.7483,10.7422],
[-62.9067,10.6958],
[-62.9535,10.6999],
[-62.9938,10.7164],
[-63.1722,10.7197],
[-63.2531,10.6783],
[-63.2861,10.6708],
[-63.3444,10.6726],
[-63.5056,10.64],
[-63.5344,10.6271],
[-63.6919,10.6456],
[-63.8428,10.6458],
[-64.1468,10.6179],
[-64.2367,10.6389],
[-64.2646,10.6578],
[-64.2996,10.6265],
[-64.2589,10.5347],
[-64.2357,10.5144],
[-64.201,10.5503],
[-64.1487,10.57],
[-63.9664,10.5785],
[-63.8389,10.5517],
[-63.6975,10.4856],
[-63.7156,10.4719],
[-63.8094,10.4422],
[-64.05,10.4422],
[-64.0925,10.4565],
[-64.1821,10.4565],
[-64.3681,10.3842],
[-64.3847,10.3689],
[-64.3958,10.3372],
[-64.3785,10.3011],
[-64.4825,10.2381],
[-64.5797,10.2586],
[-64.626,10.2467],
[-64.7147,10.1797],
[-64.7328,10.1135],
[-64.7645,10.0972],
[-64.825,10.0822],
[-65.0814,10.0606],
[-65.2761,10.1156],
[-65.4267,10.14],
[-65.5481,10.1781],
[-65.7253,10.2192],
[-65.7653,10.2169],
[-65.8145,10.2283],
[-65.9357,10.2983],
[-65.9586,10.3567],
[-66.0685,10.4432],
[-66.1197,10.5],
[-66.1183,10.5269],
[-66.0817,10.5767],
[-66.2299,10.6406],
[-66.2831,10.6447],
[-66.343,10.6047],
[-66.4183,10.6256],
[-66.4706,10.6292],
[-67.0022,10.6103],
[-67.1081,10.5792],
[-67.2803,10.5467],
[-67.5433,10.5328],
[-67.7961,10.4919],
[-67.868,10.4649],
[-68.0022,10.4911],
[-68.0774,10.4931],
[-68.1142,10.4849],
[-68.1651,10.4989],
[-68.186,10.515],
[-68.2536,10.5889],
[-68.2806,10.6439],
[-68.3281,10.7675],
[-68.3326,10.816],
[-68.3253,10.8436],
[-68.3051,10.855],
[-68.252,10.8567],
[-68.2425,10.8744],
[-68.3333,11.045],
[-68.4183,11.18],
[-68.532,11.2614],
[-68.602,11.2906],
[-68.6604,11.3499],
[-68.8437,11.4471],
[-68.9539,11.4517],
[-69.2749,11.534],
[-69.3602,11.4933],
[-69.4127,11.4876],
[-69.507,11.5069],
[-69.5289,11.5035],
[-69.5795,11.4641],
[-69.6085,11.4592],
[-69.6318,11.4676],
[-69.7061,11.5489],
[-69.7578,11.6614],
[-69.8169,11.851],
[-69.8238,11.9881],
[-69.8595,12.0719],
[-69.9347,12.1697],
[-70.0143,12.1975],
[-70.1875,12.1078],
[-70.2581,11.9892],
[-70.2867,11.9203],
[-70.294,11.8617],
[-70.2439,11.7753],
[-70.2265,11.6551],
[-70.236,11.6289],
[-70.214,11.6092],
[-70.18,11.6036],
[-69.8574,11.6896],
[-69.8165,11.691],
[-69.7761,11.6094],
[-69.7424,11.4992],
[-69.8014,11.4272],
[-69.874,11.4265],
[-69.8977,11.4362],
[-69.9876,11.5147],
[-70.0478,11.5178],
[-70.0239,11.4914],
[-70.0349,11.4413],
[-70.1425,11.4183],
[-70.2392,11.3531],
[-70.3233,11.3317],
[-70.4214,11.2922],
[-70.4467,11.29],
[-70.5085,11.2482],
[-70.737,11.23],
[-70.8256,11.2114],
[-70.9339,11.1647],
[-71.0739,11.08],
[-71.2811,10.9892],
[-71.3539,10.9783],
[-71.412,10.9842],
[-71.4929,10.961],
[-71.4517,10.9164],
[-71.4467,10.7956],
[-71.5264,10.7269],
[-71.5457,10.5683],
[-71.4586,10.46],
[-71.4367,10.3694],
[-71.3856,10.2828],
[-71.317,10.1928],
[-71.2695,10.1501],
[-71.1478,9.9508],
[-71.0983,9.8948],
[-71.0734,9.8511],
[-71.0533,9.7036],
[-71.0611,9.6172],
[-71.0892,9.5366],
[-71.0711,9.3903],
[-71.056,9.3387],
[-71.0749,9.3125],
[-71.1654,9.2737],
[-71.2113,9.2143],
[-71.2251,9.1742],
[-71.2414,9.1554],
[-71.3136,9.1106],
[-71.4972,9.0504],
[-71.5528,9.0408],
[-71.6239,9.0431],
[-71.7149,9.0779],
[-71.7595,9.1183],
[-71.752,9.2225],
[-71.7236,9.345],
[-71.7332,9.3757],
[-71.9108,9.4936],
[-71.9445,9.5431],
[-71.9792,9.6233],
[-72.0465,9.7078],
[-72.0779,9.7356],
[-72.1254,9.8182],
[-71.8411,10.2189],
[-71.7944,10.3218],
[-71.7557,10.3697],
[-71.6489,10.4425],
[-71.63,10.4764],
[-71.5817,10.6747],
[-71.5779,10.7161],
[-71.6618,10.7775],
[-71.6911,10.8342],
[-71.7636,11.0137],
[-71.7408,11.0342],
[-71.7953,11.1286],
[-71.867,11.2294],
[-71.9328,11.3631],
[-71.9526,11.4218],
[-71.9664,11.5064],
[-71.9692,11.5462],
[-71.9542,11.5947],
[-71.7658,11.6624],
[-71.6383,11.6908],
[-71.4806,11.7103],
[-71.4458,11.7239],
[-71.3786,11.7533],
[-71.3411,11.7992],
[-71.3226,11.8579],
[-71.4033,11.8128],
[-71.6264,11.7556],
[-71.7697,11.7008],
[-71.9685,11.6662],
[-72.2094,11.25],
[-72.3176,11.1645],
[-72.3499,11.1635],
[-72.4721,11.1347],
[-72.4913,11.1228],
[-72.54,11.0319],
[-72.6336,10.8964],
[-72.81,10.5906],
[-72.9035,10.4444],
[-72.9389,10.1165],
[-72.9565,10.0821],
[-72.9775,10.0019],
[-73.0047,9.7683],
[-73.0817,9.6094],
[-73.2451,9.4085],
[-73.3639,9.2258],
[-73.3781,9.1714]
]
],
[
[
[-65.4159,10.9217],
[-65.3933,10.9069],
[-65.2749,10.8807],
[-65.2028,10.9033],
[-65.2122,10.9542],
[-65.3045,10.9761],
[-65.3692,10.9668],
[-65.4159,10.9217]
]
],
[
[
[-64.4057,10.9701],
[-64.2279,10.9312],
[-64.1956,10.9419],
[-64.174,10.9604],
[-64.1364,10.945],
[-64.0571,10.8611],
[-63.9724,10.8929],
[-63.89,10.9044],
[-63.815,10.9781],
[-63.8047,11.0214],
[-63.8449,11.1271],
[-63.8849,11.1756],
[-63.9875,11.0761],
[-64.0225,11],
[-64.0428,10.9876],
[-64.1058,10.9953],
[-64.1758,11.0317],
[-64.1974,11.0559],
[-64.1941,11.079],
[-64.2183,11.0881],
[-64.3783,11.0569],
[-64.4057,10.9701]
]
],
[
[
[-61.5435,8.5487],
[-61.4053,8.4858],
[-61.2943,8.4933],
[-61.2408,8.4751],
[-61.1942,8.4857],
[-61.1851,8.4967],
[-61.2636,8.4999],
[-61.2783,8.5167],
[-61.2649,8.5469],
[-61.2743,8.5678],
[-61.3042,8.574],
[-61.4139,8.5842],
[-61.5435,8.5487]
]
],
[
[
[-61.2637,8.5102],
[-61.1828,8.5111],
[-61.1292,8.5017],
[-61.0406,8.5142],
[-61.0011,8.5533],
[-60.9944,8.591],
[-61.0206,8.6112],
[-61.0836,8.6097],
[-61.137,8.5629],
[-61.1491,8.5409],
[-61.1775,8.5661],
[-61.2225,8.5706],
[-61.2403,8.5611],
[-61.2583,8.5364],
[-61.2637,8.5102]
]
],
[
[
[-61.1772,8.6767],
[-61.17,8.6635],
[-61.1411,8.6532],
[-61.0535,8.6401],
[-61.0194,8.6447],
[-60.9968,8.6526],
[-60.9599,8.6811],
[-60.9378,8.7212],
[-61.0258,8.715],
[-61.1772,8.6767]
]
],
[
[
[-61.1691,8.6927],
[-61.1636,8.6883],
[-61.0692,8.7144],
[-60.9761,8.7258],
[-60.9445,8.7492],
[-60.8612,8.8468],
[-61.0133,8.8328],
[-61.0425,8.8211],
[-61.1599,8.7206],
[-61.1691,8.6927]
]
],
[
[
[-61.0967,8.8909],
[-61.066,8.8947],
[-61.032,8.9231],
[-60.9433,9.0222],
[-60.8564,9.0687],
[-60.8504,9.093],
[-60.9472,9.0547],
[-61.0706,8.9713],
[-61.0967,8.8909]
]
],
[
[
[-61.0464,8.8439],
[-61.0197,8.8469],
[-60.9167,8.8903],
[-60.8563,8.9474],
[-60.8442,9.0033],
[-60.8803,9.0265],
[-60.9033,9.0281],
[-60.9417,9.0117],
[-61.0464,8.8439]
]
],
[
[
[-60.9886,8.6356],
[-60.9268,8.6185],
[-60.8233,8.6524],
[-60.8083,8.6725],
[-60.8069,8.7113],
[-60.8416,8.7269],
[-60.9886,8.6356]
]
]
]}
}
