{
"type": "Feature",
"properties": {"id":"cshapes-640-1920-04-26","edge_precision":"unknown","cshapes_gwcode":640,"cshapes_name":"Turkey (Ottoman Empire)","cshapes_first_day":"1920-04-26","cshapes_last_day":"1923-10-13","cshapes_status":"independent","cshapes_owner":640,"cshapes_borders_defined":true},
"geometry": {"type": "MultiPolygon", "coordinates": [
[
[
[25.6658,40.1233],
[25.7317,40.093],
[25.8244,40.1003],
[25.99,40.1289],
[26.0124,40.154],
[25.9405,40.24],
[25.7767,40.2122],
[25.6722,40.1525],
[25.6658,40.1233]
]
],
[
[
[26.0509,40.7352],
[26.0574,40.6536],
[26.0761,40.6137],
[26.1186,40.5951],
[26.3149,40.5942],
[26.3528,40.6075],
[26.6919,40.6392],
[26.7737,40.66],
[26.7929,40.6507],
[26.8258,40.5916],
[26.7772,40.5558],
[26.6829,40.5099],
[26.6047,40.5076],
[26.4181,40.4264],
[26.2116,40.3221],
[26.267,40.259],
[26.2676,40.2185],
[26.2599,40.1969],
[26.1644,40.052],
[26.2179,40.0529],
[26.3219,40.1086],
[26.4403,40.2375],
[26.5817,40.3264],
[26.615,40.3561],
[26.6849,40.4273],
[26.6799,40.4483],
[26.7254,40.4781],
[26.8783,40.5328],
[26.9706,40.5547],
[27.0203,40.5922],
[27.1767,40.6317],
[27.2915,40.7003],
[27.4456,40.8524],
[27.4605,40.9136],
[27.4851,40.9642],
[27.5053,40.9813],
[27.7319,41.0125],
[27.7765,41.01],
[27.8881,40.968],
[27.9421,40.9687],
[27.9795,41.0012],
[27.9969,41.0278],
[28.0765,41.0597],
[28.1579,41.0775],
[28.2131,41.0803],
[28.4235,41.0436],
[28.5193,40.9903],
[28.5419,40.9909],
[28.5678,41.0212],
[28.5533,41.0589],
[28.5271,41.0797],
[28.5622,41.0717],
[28.5983,41.0069],
[28.5992,40.9783],
[28.6278,40.9605],
[28.8272,40.956],
[28.9025,40.9778],
[29.0362,41.0546],
[29.0555,41.0825],
[29.0684,41.1231],
[29.0392,41.1545],
[29.071,41.1744],
[29.1074,41.2216],
[29.0889,41.2462],
[29.0485,41.2556],
[29.0289,41.2439],
[28.938,41.2561],
[28.835,41.2822],
[28.4581,41.4194],
[28.2169,41.5236],
[28.0767,41.6478],
[27.9676,41.8285],
[27.9655,41.8636],
[27.9877,41.8905],
[28.0325,41.9092],
[28.0131,41.9822],
[28.0174,41.9882],
[27.9711,41.9842],
[27.8671,42.0055],
[27.8325,42.0017],
[27.6333,41.9558],
[27.5956,41.9356],
[27.5696,41.9093],
[27.4115,41.9947],
[27.3935,42.0093],
[27.3633,42.0628],
[27.2862,42.101],
[27.2331,42.11],
[27.0694,42.0926],
[27.0372,42.0836],
[26.9622,42.0033],
[26.9331,42.0069],
[26.6214,41.9731],
[26.567,41.9348],
[26.5753,41.8986],
[26.5583,41.8517],
[26.5357,41.828],
[26.3813,41.822],
[26.344,41.7823],
[26.3326,41.7454],
[26.3549,41.7135],
[26.5703,41.6114],
[26.6044,41.5461],
[26.6364,41.4135],
[26.6358,41.3647],
[26.6075,41.331],
[26.4153,41.2594],
[26.3728,41.2544],
[26.325,41.2347],
[26.3239,41.093],
[26.373,41.0274],
[26.3604,40.9539],
[26.2875,40.9019],
[26.2136,40.8772],
[26.1202,40.7477],
[26.0905,40.7361],
[26.0509,40.7352]
]
],
[
[
[26.0705,39.4827],
[26.11,39.4576],
[26.131,39.453],
[26.2051,39.4627],
[26.6697,39.555],
[26.8175,39.5617],
[26.8819,39.5764],
[26.9351,39.5755],
[26.9518,39.5508],
[26.9371,39.4833],
[26.895,39.4742],
[26.8114,39.3989],
[26.665,39.3011],
[26.6447,39.2631],
[26.7289,39.2214],
[26.7593,39.1733],
[26.8131,39.1567],
[26.8464,39.1299],
[26.8697,39.0979],
[26.881,39.0685],
[26.7976,39.0239],
[26.7947,38.9831],
[26.8017,38.9558],
[26.8612,38.9101],
[26.9204,38.9328],
[26.9565,38.9372],
[27.0528,38.9267],
[27.063,38.8732],
[26.9004,38.8153],
[26.8254,38.7543],
[26.7278,38.7245],
[26.7337,38.6419],
[26.9472,38.4417],
[27.0432,38.4611],
[27.1565,38.4528],
[27.1193,38.4105],
[27.095,38.4],
[26.835,38.3656],
[26.6918,38.3109],
[26.6479,38.3333],
[26.5956,38.453],
[26.6294,38.4581],
[26.6122,38.5297],
[26.5633,38.5983],
[26.4812,38.6674],
[26.3983,38.6669],
[26.358,38.6548],
[26.3479,38.6239],
[26.3881,38.447],
[26.4207,38.4651],
[26.4785,38.449],
[26.5099,38.4255],
[26.47,38.3618],
[26.3747,38.3055],
[26.3514,38.315],
[26.3221,38.3412],
[26.3162,38.3739],
[26.289,38.3675],
[26.2758,38.2644],
[26.3353,38.2249],
[26.4296,38.2147],
[26.4889,38.1722],
[26.5456,38.1164],
[26.5885,38.1019],
[26.6087,38.1026],
[26.6258,38.1489],
[26.6811,38.2017],
[26.7633,38.213],
[26.9231,38.0622],
[26.9793,38.0664],
[27.2437,37.9776],
[27.2683,37.9536],
[27.274,37.9256],
[27.2638,37.8874],
[27.2631,37.8032],
[27.2479,37.7405],
[27.2253,37.7125],
[27.1939,37.6044],
[27.2115,37.5872],
[27.2242,37.4733],
[27.2183,37.4114],
[27.1949,37.3523],
[27.2414,37.3364],
[27.3136,37.3422],
[27.3587,37.3732],
[27.3737,37.4007],
[27.4211,37.4079],
[27.3873,37.3361],
[27.4087,37.3055],
[27.4858,37.2675],
[27.5214,37.2617],
[27.5639,37.2736],
[27.5953,37.2325],
[27.55,37.1317],
[27.4397,37.1047],
[27.3683,37.1506],
[27.3243,37.153],
[27.2329,37.0703],
[27.2271,37.0436],
[27.255,36.965],
[27.2722,36.9558],
[27.2962,36.9637],
[27.3169,36.9764],
[27.3361,37.0043],
[27.4239,37.0278],
[27.515,36.9928],
[28.273,37.0436],
[28.3248,37.0382],
[28.2,36.9758],
[28.0664,36.935],
[28.0258,36.8228],
[27.9189,36.7942],
[27.4961,36.7458],
[27.4726,36.7497],
[27.359,36.7043],
[27.3747,36.684],
[27.4782,36.6524],
[27.5037,36.6701],
[27.6761,36.6917],
[27.7084,36.7439],
[27.7324,36.7567],
[27.8087,36.7574],
[27.9156,36.7451],
[27.9842,36.7522],
[28.0369,36.7692],
[28.0924,36.8007],
[28.1201,36.7971],
[28.1229,36.721],
[28.0878,36.7037],
[28.0386,36.7072],
[27.9699,36.6847],
[27.9892,36.6711],
[28.0136,36.6681],
[28.0335,36.6797],
[28.0611,36.6736],
[28.0856,36.6393],
[28.0586,36.5937],
[28.2308,36.6986],
[28.2726,36.7369],
[28.2475,36.7661],
[28.2355,36.8028],
[28.2461,36.8303],
[28.2619,36.8451],
[28.2843,36.846],
[28.3874,36.7828],
[28.4201,36.824],
[28.3857,36.8397],
[28.3943,36.8628],
[28.4564,36.8808],
[28.6086,36.8033],
[28.6197,36.77],
[28.6569,36.7103],
[28.8511,36.6575],
[28.8657,36.6876],
[28.9315,36.7442],
[29.0525,36.6811],
[29.0872,36.6267],
[29.0343,36.6126],
[29.0184,36.5422],
[29.048,36.5448],
[29.0783,36.5587],
[29.1069,36.5536],
[29.1247,36.5378],
[29.0978,36.4743],
[29.1172,36.3833],
[29.1481,36.3483],
[29.2589,36.2958],
[29.3153,36.2472],
[29.3497,36.2311],
[29.5703,36.1994],
[29.6286,36.1705],
[29.6772,36.1183],
[29.6875,36.1381],
[29.725,36.1609],
[29.7731,36.1522],
[29.9758,36.2117],
[30.0922,36.2353],
[30.1409,36.2567],
[30.1446,36.2855],
[30.2086,36.3039],
[30.2811,36.2985],
[30.3658,36.2614],
[30.3908,36.2353],
[30.4049,36.2049],
[30.5039,36.3205],
[30.5044,36.3432],
[30.4744,36.3892],
[30.4814,36.4269],
[30.5283,36.4944],
[30.5536,36.6158],
[30.5608,36.7261],
[30.5738,36.7875],
[30.6165,36.8436],
[30.6506,36.8701],
[30.6944,36.8816],
[30.7633,36.8442],
[30.993,36.8542],
[31.2899,36.8161],
[31.3514,36.8017],
[31.5828,36.6964],
[31.7403,36.6355],
[31.8231,36.5897],
[32.0028,36.5451],
[32.0647,36.5164],
[32.1492,36.4294],
[32.2024,36.3465],
[32.368,36.1751],
[32.5011,36.0994],
[32.5666,36.0927],
[32.6697,36.0392],
[32.7717,36.0289],
[32.8157,36.0315],
[32.8644,36.0683],
[32.9395,36.0968],
[33.0453,36.0911],
[33.3628,36.1378],
[33.5408,36.1397],
[33.6083,36.1817],
[33.6497,36.1886],
[33.7053,36.1794],
[33.8161,36.2608],
[33.8668,36.3097],
[33.9296,36.2877],
[33.9886,36.2778],
[34.0317,36.3031],
[34.0741,36.3677],
[34.0767,36.3996],
[34.1286,36.4486],
[34.2209,36.5167],
[34.24,36.5464],
[34.2897,36.5917],
[34.4767,36.7055],
[34.5657,36.7719],
[34.6338,36.7841],
[34.6594,36.8053],
[34.7351,36.8129],
[34.8358,36.7904],
[34.8772,36.763],
[34.909,36.7196],
[34.9372,36.7248],
[34.9809,36.7197],
[35.3471,36.545],
[35.4125,36.5803],
[35.4983,36.6099],
[35.5585,36.5798],
[35.6111,36.5943],
[35.6337,36.6119],
[35.6361,36.6822],
[35.5756,36.6928],
[35.6094,36.7339],
[35.6449,36.7529],
[35.7937,36.7661],
[35.8239,36.7775],
[35.9049,36.8411],
[35.9575,36.8949],
[36.0112,36.9232],
[36.0694,36.9089],
[36.1664,36.8286],
[36.2062,36.7673],
[36.2173,36.6548],
[36.1901,36.5973],
[36.0414,36.5325],
[35.9247,36.4508],
[35.8189,36.355],
[35.7855,36.3148],
[35.7868,36.2903],
[35.8503,36.2189],
[35.9419,36.0953],
[35.955,36.0664],
[35.9784,36.0026],
[35.9224,35.927],
[36.0158,35.8997],
[36.11,35.8614],
[36.1622,35.8191],
[36.1825,35.855],
[36.1868,35.9103],
[36.2236,35.9622],
[36.3,35.9697],
[36.375,35.9979],
[36.3836,36.0305],
[36.3749,36.1766],
[36.3922,36.2133],
[36.5356,36.2355],
[36.6165,36.2195],
[36.6831,36.2327],
[36.6901,36.2862],
[36.5828,36.3975],
[36.5676,36.421],
[36.5496,36.4878],
[36.5864,36.6197],
[36.6626,36.8151],
[36.6633,36.834],
[36.9336,36.778],
[36.9883,36.7574],
[37.1275,36.6592],
[37.2694,36.6644],
[37.3738,36.6553],
[37.5333,36.6778],
[37.6697,36.7372],
[37.7103,36.7483],
[37.7769,36.748],
[37.8914,36.7811],
[37.9561,36.8129],
[38.0234,36.8304],
[38.0973,36.8737],
[38.1811,36.9058],
[38.2434,36.9139],
[38.3864,36.8983],
[38.5136,36.858],
[38.5411,36.8443],
[38.6842,36.7255],
[38.7253,36.7036],
[38.9176,36.6951],
[39.0435,36.7082],
[39.1717,36.6697],
[39.2578,36.6681],
[39.8181,36.7536],
[40.0078,36.8147],
[40.2144,36.8958],
[40.4478,37.0153],
[40.513,37.0232],
[40.6885,37.0955],
[40.7708,37.118],
[40.93,37.1297],
[41.1183,37.0975],
[41.2164,37.0725],
[41.5482,37.0853],
[41.8403,37.13],
[41.9953,37.1728],
[42.0833,37.2083],
[42.1808,37.2905],
[42.2158,37.2894],
[42.2944,37.2697],
[42.3515,37.2312],
[42.3556,37.1069],
[42.3769,37.1175],
[42.5795,37.1537],
[42.588,37.1757],
[42.7247,37.3519],
[42.7868,37.3837],
[42.8944,37.3355],
[42.9606,37.3235],
[43.1569,37.3739],
[43.49,37.2512],
[43.623,37.23],
[43.8164,37.2219],
[43.913,37.2266],
[43.9558,37.2796],
[44.009,37.3178],
[44.048,37.3222],
[44.1189,37.3157],
[44.2306,37.2762],
[44.2621,37.2365],
[44.2683,37.195],
[44.2626,37.1635],
[44.2303,37.154],
[44.196,37.0964],
[44.2571,36.9857],
[44.3192,36.9712],
[44.3411,37.0067],
[44.3497,37.0383],
[44.4364,37.063],
[44.5505,37.1326],
[44.5828,37.1632],
[44.6422,37.1885],
[44.7458,37.1744],
[44.7741,37.166],
[44.7873,37.1497],
[44.8205,37.2687],
[44.8182,37.2974],
[44.8017,37.3217],
[44.6486,37.4278],
[44.5889,37.4431],
[44.5844,37.6139],
[44.5989,37.6908],
[44.6178,37.718],
[44.5768,37.7668],
[44.224,37.8992],
[44.2389,37.9603],
[44.4732,38.3167],
[44.4825,38.3413],
[44.4367,38.3948],
[44.3181,38.3821],
[44.3053,38.4005],
[44.3042,38.4494],
[44.3215,38.5094],
[44.3172,38.613],
[44.3065,38.6473],
[44.2618,38.7243],
[44.3032,38.81],
[44.3003,38.8426],
[44.2837,38.8625],
[44.2505,38.8655],
[44.2094,38.8935],
[44.1624,39.0052],
[44.198,39.0567],
[44.2164,39.1365],
[44.0357,39.3815],
[44.0769,39.4117],
[44.201,39.4169],
[44.3045,39.3873],
[44.4011,39.4165],
[44.4258,39.4364],
[44.4779,39.6407],
[44.4711,39.6989],
[44.6085,39.7792],
[44.7367,39.7018],
[44.8147,39.6383],
[44.7866,39.7088],
[44.5925,39.8318],
[44.5518,39.8987],
[44.4878,39.9628],
[44.3517,40.0222],
[44.2826,40.0461],
[44.0443,40.0103],
[43.9339,40.0136],
[43.6684,40.1032],
[43.6488,40.1249],
[43.6685,40.1462],
[43.7154,40.1572],
[43.6617,40.2744],
[43.6069,40.3689],
[43.5831,40.4511],
[43.5928,40.5011],
[43.653,40.5314],
[43.7179,40.6209],
[43.7414,40.6667],
[43.7504,40.745],
[43.6725,40.9265],
[43.5952,40.9933],
[43.4839,41.0228],
[43.4542,41.0949],
[43.4744,41.138],
[43.4555,41.168],
[43.43,41.1835],
[43.3785,41.2017],
[43.2336,41.1903],
[43.1264,41.32],
[43.0161,41.3933],
[42.8928,41.5069],
[42.831,41.5824],
[42.6814,41.5947],
[42.5976,41.5817],
[42.5579,41.5018],
[42.4778,41.4358],
[42.4553,41.4347],
[42.2801,41.4896],
[42.1747,41.5075],
[41.9794,41.518],
[41.9585,41.5168],
[41.9101,41.4883],
[41.883,41.4583],
[41.8301,41.4301],
[41.7247,41.4925],
[41.5692,41.518],
[41.5316,41.5239],
[41.4987,41.4815],
[41.385,41.3737],
[41.3379,41.3707],
[41.2347,41.3247],
[41.1717,41.2853],
[41.0439,41.2303],
[40.9212,41.1867],
[40.849,41.1956],
[40.7728,41.1664],
[40.6378,41.0786],
[40.5805,41.0547],
[40.4617,41.0432],
[40.3933,41.0186],
[40.3453,40.9836],
[40.1286,40.9164],
[39.9125,40.9567],
[39.7214,41.01],
[39.6906,41.0031],
[39.5511,41.0522],
[39.4874,41.0976],
[39.4142,41.1067],
[39.2847,41.0515],
[39.2331,41.0564],
[39.2108,41.0742],
[39.1658,41.0825],
[39.1479,41.0656],
[39.0547,41.0411],
[39.0058,41.0337],
[38.929,41.041],
[38.8161,41.01],
[38.71,40.95],
[38.5186,40.9203],
[38.4205,40.9122],
[38.3896,40.92],
[38.3558,40.9103],
[38.1161,40.9555],
[37.9882,40.9876],
[37.8951,40.9824],
[37.7936,41.0455],
[37.7828,41.0656],
[37.7854,41.0987],
[37.7536,41.1192],
[37.6828,41.1352],
[37.6562,41.1175],
[37.6104,41.0505],
[37.5396,41.0289],
[37.2967,41.1369],
[37.1293,41.1468],
[37.0523,41.1704],
[37.0322,41.1936],
[37.0288,41.2575],
[37.0043,41.279],
[36.864,41.3451],
[36.81,41.3556],
[36.7117,41.365],
[36.6578,41.3608],
[36.6125,41.3475],
[36.5711,41.2957],
[36.5351,41.2699],
[36.4925,41.2479],
[36.4315,41.2421],
[36.345,41.2833],
[36.2403,41.3561],
[36.1238,41.4757],
[36.1171,41.5093],
[36.1332,41.5443],
[36.1311,41.5951],
[36.1136,41.6321],
[36.0561,41.6887],
[35.9731,41.7322],
[35.953,41.7346],
[35.9111,41.7131],
[35.7768,41.6715],
[35.6439,41.6367],
[35.5767,41.6272],
[35.5064,41.6381],
[35.2867,41.7131],
[35.2125,41.7706],
[35.1369,41.858],
[35.0964,41.9187],
[35.0993,41.9672],
[35.115,42.001],
[35.1574,42.0253],
[34.9789,42.0919],
[34.949,42.0859],
[34.9172,42.0367],
[34.8325,41.9683],
[34.7155,41.9425],
[34.6147,41.9403],
[34.5547,41.948],
[34.3153,41.9408],
[34.1019,41.9761],
[33.738,41.9797],
[33.3386,42.0199],
[33.2197,41.9764],
[33.0683,41.938],
[32.9508,41.885],
[32.9122,41.875],
[32.7214,41.8492],
[32.6844,41.8338],
[32.6027,41.8318],
[32.2775,41.7194],
[32.1607,41.6089],
[31.7478,41.433],
[31.6147,41.3794],
[31.5525,41.3628],
[31.4215,41.279],
[31.41,41.2101],
[31.3372,41.1372],
[31.2989,41.1139],
[31.2335,41.0893],
[30.9547,41.0746],
[30.7572,41.0865],
[30.6061,41.1339],
[30.4935,41.1472],
[30.3769,41.175],
[30.3268,41.203],
[30.2847,41.2081],
[30.195,41.1514],
[30.1586,41.1407],
[29.9844,41.1396],
[29.8747,41.1454],
[29.6216,41.1758],
[29.5796,41.173],
[29.2198,41.2369],
[29.16,41.2246],
[29.1335,41.2128],
[29.0806,41.1669],
[29.0882,41.1186],
[29.0256,41.0344],
[29.0433,40.9731],
[29.1294,40.9144],
[29.255,40.8683],
[29.3367,40.8071],
[29.4125,40.7697],
[29.5917,40.7756],
[29.9169,40.7617],
[29.9375,40.7522],
[29.934,40.7222],
[29.9015,40.7129],
[29.7015,40.705],
[29.554,40.6862],
[29.5107,40.7315],
[29.424,40.6858],
[29.3923,40.7022],
[29.2517,40.6625],
[28.9804,40.6396],
[28.9098,40.5931],
[28.8058,40.5581],
[28.7767,40.5271],
[28.8919,40.4769],
[28.9753,40.463],
[29.0265,40.4801],
[29.08,40.4776],
[29.1417,40.4379],
[29.0558,40.3668],
[28.9822,40.3571],
[28.9167,40.3625],
[28.884,40.3794],
[28.7914,40.3949],
[28.7551,40.3915],
[28.6744,40.3636],
[28.5092,40.3953],
[28.2467,40.4035],
[28.2039,40.3941],
[28.1096,40.3896],
[27.9532,40.3569],
[27.9237,40.3647],
[27.9008,40.3887],
[27.9278,40.4119],
[28.0011,40.4422],
[28.0276,40.4631],
[28.0201,40.4877],
[27.8569,40.5225],
[27.7549,40.5297],
[27.7233,40.5221],
[27.6871,40.4927],
[27.7946,40.3921],
[27.8315,40.3972],
[27.8778,40.3759],
[27.7801,40.3151],
[27.575,40.3133],
[27.5586,40.3047],
[27.5117,40.3056],
[27.4292,40.3242],
[27.3064,40.385],
[27.2642,40.4586],
[27.0868,40.4476],
[27.0267,40.3911],
[26.9625,40.3829],
[26.8869,40.3956],
[26.81,40.3958],
[26.7043,40.3789],
[26.684,40.3478],
[26.514,40.2162],
[26.4383,40.1924],
[26.3986,40.14],
[26.3847,40.1025],
[26.3331,40.0246],
[26.2489,39.9911],
[26.1974,40.0028],
[26.1575,39.9467],
[26.1502,39.9087],
[26.1631,39.6864],
[26.1549,39.6326],
[26.1044,39.5864],
[26.0705,39.4827]
]
],
[
[
[27.5292,40.6018],
[27.5536,40.5869],
[27.6055,40.5724],
[27.6278,40.5792],
[27.7199,40.614],
[27.7333,40.6288],
[27.7069,40.65],
[27.6572,40.6567],
[27.546,40.655],
[27.5296,40.6448],
[27.5292,40.6018]
]
],
[
[
[27.9596,36.5974],
[27.9839,36.5528],
[28.0586,36.5937],
[27.9825,36.6025],
[27.9596,36.5974]
]
]
]}
}
