{
"type": "Feature",
"properties": {"id":"cshapes-345-1919-09-10","edge_precision":"unknown","cshapes_gwcode":345,"cshapes_name":"Yugoslavia","cshapes_first_day":"1919-09-10","cshapes_last_day":"1920-06-03","cshapes_status":"independent","cshapes_owner":345,"cshapes_borders_defined":true},
"geometry": {"type": "MultiPolygon", "coordinates": [
[
[
[13.3835,46.2951],
[13.4189,46.2131],
[13.4885,46.2319],
[13.5506,46.218],
[13.666,46.1753],
[13.6482,46.1455],
[13.595,46.1063],
[13.5389,46.0794],
[13.4832,46.0164],
[13.5099,45.9862],
[13.5403,45.9683],
[13.5931,45.9929],
[13.6351,45.982],
[13.6347,45.9479],
[13.6141,45.9051],
[13.5907,45.8881],
[13.5783,45.8503],
[13.6037,45.8089],
[13.7915,45.7528],
[13.9183,45.6364],
[13.8564,45.5871],
[13.7169,45.5961],
[13.7499,45.549],
[13.6658,45.5431],
[13.5971,45.5196],
[13.5966,45.4774],
[13.555,45.4944],
[13.5048,45.502],
[13.5336,45.4017],
[13.595,45.2507],
[13.6031,45.1578],
[13.6811,45.0514],
[13.7569,44.9814],
[13.8392,44.8764],
[13.8169,44.8601],
[13.9044,44.7726],
[13.9952,44.8144],
[13.9758,44.824],
[13.9758,44.8469],
[13.9949,44.8906],
[14.0875,44.9614],
[14.1443,44.9622],
[14.1674,44.9891],
[14.1558,45.0394],
[14.1601,45.0769],
[14.2167,45.1233],
[14.2308,45.1442],
[14.2539,45.2319],
[14.2866,45.315],
[14.3231,45.351],
[14.4453,45.322],
[14.4591,45.4237],
[14.5141,45.4788],
[14.5613,45.5008],
[14.5534,45.5999],
[14.5696,45.6625],
[14.6098,45.662],
[14.6096,45.633],
[14.6208,45.6121],
[14.7236,45.5314],
[14.8261,45.4654],
[14.8637,45.4687],
[14.9791,45.5005],
[15.092,45.4715],
[15.1567,45.4293],
[15.1745,45.4258],
[15.2772,45.4628],
[15.304,45.5386],
[15.294,45.5945],
[15.3097,45.6311],
[15.3526,45.6518],
[15.3566,45.712],
[15.2905,45.7031],
[15.294,45.7343],
[15.3167,45.757],
[15.4994,45.8358],
[15.6118,45.8467],
[15.6526,45.8234],
[15.6961,45.8431],
[15.7244,45.9386],
[15.7115,46.0532],
[15.6329,46.0846],
[15.6064,46.1158],
[15.6004,46.1443],
[15.6592,46.2209],
[15.7978,46.2333],
[16.0182,46.2986],
[16.0804,46.336],
[16.0753,46.3784],
[16.1379,46.406],
[16.2664,46.4191],
[16.2647,46.4397],
[16.1088,46.5912],
[16.0224,46.6937],
[15.9879,46.7551],
[15.859,46.7232],
[15.4061,46.6525],
[15.1018,46.6563],
[14.8675,46.6133],
[14.832,46.565],
[14.8159,46.5182],
[14.545,46.4075],
[14.4781,46.4194],
[14.1537,46.4426],
[14.1158,46.4789],
[13.9369,46.5158],
[13.7187,46.522],
[13.692,46.4517],
[13.6578,46.4497],
[13.5114,46.3847],
[13.4408,46.3464],
[13.3835,46.2951]
]
],
[
[
[14.8571,44.1648],
[14.8767,44.1365],
[14.9894,44.0555],
[15.0717,43.9575],
[15.1429,43.8932],
[15.1892,43.8724],
[15.2198,43.8977],
[15.084,43.9857],
[15.0367,44.0269],
[14.9925,44.0836],
[14.8571,44.1648]
]
],
[
[
[15.118,44.2708],
[15.1517,44.1964],
[15.2817,44.0731],
[15.4575,43.9226],
[15.526,43.895],
[15.5387,43.8793],
[15.5994,43.8453],
[15.6889,43.7789],
[15.7822,43.7562],
[15.9408,43.6836],
[15.9659,43.6318],
[15.9307,43.6282],
[15.9188,43.5669],
[15.9883,43.5044],
[16.0369,43.4818],
[16.1027,43.4758],
[16.1706,43.4923],
[16.1906,43.5117],
[16.3103,43.5431],
[16.354,43.5508],
[16.4306,43.5457],
[16.4692,43.5335],
[16.4992,43.5031],
[16.6378,43.4411],
[16.7642,43.4114],
[16.8817,43.4036],
[16.94,43.3647],
[17.045,43.2725],
[17.0682,43.241],
[17.1778,43.1739],
[17.2517,43.1542],
[17.3265,43.1164],
[17.455,43.0333],
[17.4706,43.0178],
[17.4762,42.9859],
[17.5189,42.9528],
[17.5785,42.9438],
[17.6574,42.8808],
[17.5228,42.9203],
[17.2989,43.0069],
[17.0106,43.048],
[17.0124,43.0062],
[17.0717,42.9864],
[17.1453,42.9767],
[17.2037,42.9819],
[17.365,42.9153],
[17.4392,42.8739],
[17.5525,42.8408],
[17.8772,42.7678],
[18.5169,42.4],
[18.5228,42.4301],
[18.5027,42.4502],
[18.5081,42.4539],
[18.6786,42.4606],
[18.7076,42.4199],
[18.7035,42.399],
[18.5858,42.4297],
[18.5535,42.4272],
[18.5772,42.3872],
[18.6201,42.3651],
[18.6471,42.3743],
[18.8108,42.2847],
[18.8474,42.2869],
[18.8794,42.2794],
[18.9644,42.19],
[19.0786,42.1117],
[19.1386,42.0433],
[19.146,42.0196],
[19.138,41.9828],
[19.1528,41.9489],
[19.1761,41.9315],
[19.2994,41.8947],
[19.3678,41.849],
[19.3433,41.9125],
[19.3469,41.9556],
[19.3764,42.0728],
[19.3991,42.1041],
[19.2885,42.1829],
[19.6085,42.5428],
[19.6112,42.571],
[19.6515,42.6232],
[19.7178,42.6603],
[19.7543,42.6411],
[19.7648,42.5879],
[19.7468,42.545],
[19.7694,42.501],
[19.8225,42.4719],
[20.0638,42.5619],
[20.1021,42.5335],
[20.1556,42.5132],
[20.2225,42.4283],
[20.2495,42.3271],
[20.3557,42.3118],
[20.431,42.2853],
[20.4575,42.2739],
[20.5251,42.2131],
[20.5953,42.0436],
[20.6217,41.9565],
[20.5849,41.9102],
[20.5896,41.8822],
[20.569,41.8745],
[20.5178,41.744],
[20.5339,41.6347],
[20.4661,41.5555],
[20.4588,41.5208],
[20.4707,41.4993],
[20.5619,41.4087],
[20.55,41.3731],
[20.5242,41.3503],
[20.4989,41.3418],
[20.5192,41.2464],
[20.5783,41.1628],
[20.6006,41.0932],
[20.6625,41.0892],
[20.7408,40.9095],
[20.8142,40.9047],
[20.8374,40.9274],
[20.9442,40.9192],
[20.9805,40.8972],
[20.9835,40.8559],
[21.1508,40.8575],
[21.3499,40.8732],
[21.3746,40.8832],
[21.4101,40.9139],
[21.5284,40.9078],
[21.5758,40.8731],
[21.6,40.8728],
[21.7862,40.9308],
[21.9108,41.0656],
[21.9161,41.0953],
[21.9771,41.1318],
[22.2596,41.171],
[22.3433,41.1344],
[22.4425,41.1214],
[22.5867,41.1199],
[22.7377,41.1561],
[22.7581,41.2278],
[22.762,41.3066],
[22.7768,41.3281],
[22.8085,41.3478],
[22.9318,41.3425],
[22.9559,41.3556],
[22.9667,41.3742],
[22.9542,41.636],
[23.015,41.6954],
[23.031,41.7251],
[23.0092,41.7663],
[22.9659,41.7757],
[22.9425,41.8078],
[22.8231,42.0274],
[22.6858,42.0653],
[22.5194,42.1497],
[22.3653,42.3239],
[22.4108,42.3353],
[22.5218,42.4021],
[22.5566,42.4798],
[22.5469,42.5129],
[22.4677,42.5677],
[22.4472,42.5994],
[22.4429,42.8204],
[22.5284,42.8786],
[22.5949,42.8944],
[22.6586,42.8829],
[22.7416,42.8921],
[22.9664,43.1017],
[22.9877,43.1312],
[22.9965,43.1951],
[22.9406,43.2105],
[22.906,43.2297],
[22.8469,43.2867],
[22.8295,43.3319],
[22.7643,43.3867],
[22.6281,43.4308],
[22.5417,43.4756],
[22.4104,43.7175],
[22.3672,43.8269],
[22.417,44.0024],
[22.5375,44.0577],
[22.6149,44.1196],
[22.6192,44.17],
[22.6518,44.2132],
[22.6851,44.2206],
[22.6878,44.274],
[22.6653,44.2885],
[22.5756,44.3055],
[22.53,44.3453],
[22.4599,44.4611],
[22.4615,44.4833],
[22.5862,44.5476],
[22.6154,44.5517],
[22.7012,44.5236],
[22.7389,44.5331],
[22.7625,44.5526],
[22.7128,44.6051],
[22.6658,44.6194],
[22.6073,44.6224],
[22.4661,44.7137],
[22.4288,44.7121],
[22.3116,44.659],
[22.1755,44.4833],
[22.1375,44.4803],
[22.0915,44.4989],
[22.0354,44.5595],
[22.0302,44.5917],
[21.997,44.633],
[21.7836,44.6619],
[21.7342,44.6558],
[21.6434,44.6608],
[21.6177,44.6828],
[21.6156,44.7108],
[21.5969,44.7558],
[21.5352,44.7771],
[21.3987,44.7831],
[21.3626,44.8281],
[21.3686,44.8611],
[21.2894,44.8725],
[21.1126,44.8836],
[20.987,44.8502],
[20.8888,44.8391],
[20.5942,44.9365],
[20.4555,44.9355],
[20.3089,44.8264],
[20.2135,44.7431],
[20.0779,44.7327],
[19.9459,44.7118],
[19.7039,44.8342],
[19.6709,44.8732],
[19.5902,44.9225],
[19.4949,44.9407],
[19.4069,44.9095],
[19.337,44.8996],
[19.3049,44.9094],
[19.1753,44.9224],
[19.0355,44.8609],
[18.9628,44.8533],
[18.8467,44.8628],
[18.7681,44.9158],
[18.7698,44.9421],
[18.7974,44.9451],
[18.795,44.9936],
[18.6342,45.0833],
[18.4192,45.1089],
[18.2608,45.1378],
[18.2178,45.1259],
[18.2153,45.0985],
[18.2015,45.0833],
[18.1731,45.0782],
[18.118,45.0844],
[18.0703,45.1044],
[17.9331,45.0803],
[17.8603,45.0494],
[17.7581,45.0867],
[17.69,45.1228],
[17.5964,45.1089],
[17.526,45.1095],
[17.2825,45.1764],
[17.2443,45.1531],
[17.1828,45.1483],
[17.0711,45.1883],
[17.0433,45.2112],
[16.9139,45.2659],
[16.8444,45.1963],
[16.8185,45.1875],
[16.6828,45.205],
[16.5959,45.2302],
[16.5311,45.2255],
[16.5054,45.2121],
[16.4178,45.1243],
[16.3527,45.0074],
[16.2918,44.9991],
[16.198,45.0439],
[16.0224,45.2144],
[15.9308,45.2283],
[15.8287,45.2086],
[15.8068,45.1918],
[15.7858,45.169],
[15.7651,45.0779],
[15.7692,44.9228],
[15.7406,44.8122],
[15.7637,44.78],
[15.8632,44.7121],
[15.9422,44.7078],
[15.9617,44.6939],
[16.0333,44.5742],
[16.0742,44.5305],
[16.1154,44.5092],
[16.1291,44.4932],
[16.1981,44.3536],
[16.1889,44.3063],
[16.1455,44.1987],
[16.1661,44.1925],
[16.2437,44.1975],
[16.2726,44.1832],
[16.3068,44.1511],
[16.2316,44.1436],
[16.2169,44.1173],
[16.1436,44.1015],
[16.0923,44.1542],
[16.0336,44.191],
[15.6156,44.3118],
[15.4543,44.38],
[15.2905,44.3595],
[15.4486,44.2832],
[15.5033,44.2761],
[15.5223,44.2633],
[15.4144,44.26],
[15.3214,44.3005],
[15.28,44.3058],
[15.2913,44.2534],
[15.2039,44.255],
[15.1451,44.2801],
[15.118,44.2708]
]
],
[
[
[16.0583,43.0667],
[16.0644,43.0106],
[16.2099,43.0235],
[16.2521,43.0646],
[16.2306,43.0783],
[16.1397,43.0825],
[16.085,43.0775],
[16.0583,43.0667]
]
],
[
[
[16.3778,43.1953],
[16.4306,43.1694],
[16.6601,43.1194],
[17.0578,43.1125],
[17.11,43.1164],
[17.1164,43.1361],
[16.8111,43.1614],
[16.6133,43.2139],
[16.5653,43.218],
[16.4572,43.2103],
[16.3778,43.1953]
]
],
[
[
[16.4101,43.3204],
[16.5197,43.2764],
[16.6289,43.2619],
[16.8474,43.2679],
[16.8872,43.2978],
[16.8847,43.3172],
[16.7761,43.3594],
[16.4321,43.3905],
[16.4101,43.3204]
]
],
[
[
[16.6386,42.9845],
[16.6722,42.9261],
[16.8661,42.8978],
[16.9411,42.9114],
[17.1292,42.9115],
[17.1836,42.9186],
[17.1358,42.9619],
[17.0447,42.9753],
[16.9656,42.9764],
[16.8633,42.9561],
[16.6861,42.9908],
[16.6386,42.9845]
]
],
[
[
[17.3276,42.7819],
[17.3656,42.7594],
[17.7343,42.7005],
[17.6649,42.736],
[17.3706,42.8021],
[17.3276,42.7819]
]
]
]}
}
