{
"type": "Feature",
"properties": {"id":"cshapes-291-1919-06-28","edge_precision":"unknown","cshapes_gwcode":291,"cshapes_name":"Danzig","cshapes_first_day":"1919-06-28","cshapes_last_day":"1938-08-31","cshapes_status":"mandate","cshapes_owner":0,"cshapes_borders_defined":true},
"geometry": {"type": "MultiPolygon", "coordinates": [
[
[
[18.2101,54.193],
[18.2181,54.1648],
[18.2372,54.1457],
[18.4494,54.1045],
[18.5781,54.1186],
[18.5982,54.1306],
[18.7813,54.1507],
[18.7933,54.0391],
[18.8386,53.9898],
[18.8356,53.9335],
[18.8643,53.9228],
[18.8812,53.9678],
[18.9599,53.9931],
[19.0077,54.0493],
[19.0681,54.0591],
[19.1075,54.0788],
[19.1187,54.1055],
[19.1595,54.0999],
[19.1975,54.1196],
[19.2298,54.1421],
[19.227,54.1688],
[19.2888,54.2068],
[19.3029,54.2293],
[19.3338,54.2377],
[19.3507,54.2703],
[19.2533,54.2782],
[19.2308,54.3337],
[19.2776,54.3461],
[19.4081,54.3589],
[19.5244,54.3967],
[19.6511,54.4558],
[19.6273,54.4633],
[19.5168,54.4071],
[19.4175,54.3806],
[19.1389,54.3467],
[18.9706,54.3451],
[18.9539,54.3517],
[18.8932,54.3456],
[18.8437,54.3518],
[18.7083,54.3828],
[18.5288,54.4555],
[18.5228,54.4816],
[18.4937,54.4725],
[18.4725,54.4534],
[18.4695,54.4042],
[18.4776,54.3659],
[18.4534,54.3076],
[18.4011,54.2976],
[18.3609,54.2734],
[18.2201,54.2312],
[18.2101,54.193]
]
]
]}
}
