{
"type": "Feature",
"properties": {"id":"cshapes-120-1930-07-06","edge_precision":"unknown","cshapes_gwcode":120,"cshapes_name":"French Guyana","cshapes_first_day":"1930-07-06","cshapes_last_day":"1946-03-18","cshapes_status":"colony","cshapes_owner":220,"cshapes_borders_defined":true},
"geometry": {"type": "MultiPolygon", "coordinates": [
[
[
[-54.3478,5.1483],
[-54.2943,5.0933],
[-54.2572,5.0785],
[-54.1831,4.9747],
[-54.1461,4.9451],
[-54.1016,4.9377],
[-53.857,4.9377],
[-53.8422,5.0266],
[-53.8422,5.16],
[-53.8274,5.1971],
[-53.8274,5.2564],
[-53.7903,5.2638],
[-53.7458,5.2638],
[-53.7088,5.2341],
[-53.4864,5.2045],
[-53.3678,5.16],
[-53.1306,5.1156],
[-52.9083,4.9821],
[-52.7971,4.8932],
[-52.7378,4.8636],
[-52.5303,4.7153],
[-52.3672,4.619],
[-52.1671,4.4781],
[-52.0856,4.404],
[-51.967,4.3521],
[-51.9151,4.3003],
[-51.752,4.1891],
[-51.6533,4.1316],
[-51.638,4.2022],
[-51.7067,4.2971],
[-51.7204,4.338],
[-51.697,4.3873],
[-51.7192,4.3884],
[-51.7506,4.4153],
[-51.8012,4.607],
[-51.8317,4.6488],
[-51.8696,4.6704],
[-51.9017,4.6744],
[-51.9232,4.6518],
[-51.9294,4.4842],
[-51.9475,4.4872],
[-52.0129,4.6968],
[-52.0332,4.7215],
[-52.068,4.7457],
[-52.1253,4.77],
[-52.1665,4.8035],
[-52.2014,4.8509],
[-52.254,4.8578],
[-52.2416,4.8891],
[-52.3028,4.9522],
[-52.3363,4.9483],
[-52.3383,4.9206],
[-52.3536,4.9079],
[-52.4228,4.9846],
[-52.7776,5.2892],
[-52.9529,5.4577],
[-53.0486,5.4556],
[-53.0932,5.4734],
[-53.1466,5.5151],
[-53.2825,5.5585],
[-53.2912,5.5328],
[-53.4044,5.5659],
[-53.4405,5.556],
[-53.5908,5.6055],
[-53.7803,5.7153],
[-53.8891,5.751],
[-53.9818,5.7458],
[-54.0065,5.7212],
[-54.0465,5.6535],
[-54.0518,5.5271],
[-54.0678,5.4915],
[-54.1205,5.4316],
[-54.1687,5.3448],
[-54.1933,5.3153],
[-54.2835,5.2549],
[-54.3173,5.2086],
[-54.3478,5.1483]
]
]
]}
}
