{
"type": "Feature",
"properties": {"id":"cshapes-4784-1899-01-01","edge_precision":"unknown","cshapes_gwcode":4784,"cshapes_name":"Northern Nigeria","cshapes_first_day":"1899-01-01","cshapes_last_day":"1902-12-31","cshapes_status":"protectorate","cshapes_owner":200,"cshapes_borders_defined":true},
"geometry": {"type": "MultiPolygon", "coordinates": [
[
[
[2.7548,8.8509],
[2.8439,8.859],
[3.396,8.863],
[3.5385,8.9399],
[3.8122,9.0436],
[3.8543,9.1197],
[3.9126,9.1521],
[3.9757,9.1601],
[4.0308,9.1407],
[4.0542,9.0751],
[4.0745,9.0598],
[4.136,9.0355],
[4.1522,9.0144],
[4.1846,8.995],
[4.2526,8.9707],
[4.3481,8.9885],
[4.3724,8.9642],
[4.3805,8.9011],
[4.366,8.8833],
[4.2866,8.8574],
[4.2235,8.7343],
[4.1959,8.697],
[4.1992,8.6679],
[4.2413,8.6161],
[4.2785,8.5205],
[4.3692,8.3424],
[4.4728,8.2453],
[4.6477,8.1222],
[4.8874,8.1222],
[4.9456,8.1546],
[5.0039,8.1287],
[5.0428,8.0704],
[5.127,8.051],
[5.1788,7.9991],
[5.2112,7.9797],
[5.2436,7.9797],
[5.3019,8.0186],
[5.3796,8.0251],
[5.4638,7.9279],
[5.4832,7.766],
[5.4832,7.5069],
[5.4962,7.2672],
[5.5091,7.2543],
[5.6711,7.2349],
[5.7164,7.2802],
[5.7877,7.332],
[5.8524,7.3385],
[5.9237,7.3191],
[5.9301,7.2478],
[5.9561,7.1895],
[6.0143,7.1053],
[6.0985,7.0859],
[6.1698,7.1118],
[6.2087,7.1377],
[6.3576,7.183],
[6.4677,7.1539],
[6.6135,7.1928],
[7.015,7.183],
[7.5105,7.1895],
[10.354,7.1847],
[12.0828,8.7785],
[12.336,8.7036],
[12.4913,8.7152],
[12.6122,8.8072],
[12.6755,8.882],
[12.8348,8.9131],
[12.8512,9.0179],
[12.8381,9.0686],
[12.8978,9.3481],
[12.9737,9.4565],
[13.0239,9.4961],
[13.0865,9.5115],
[12.9896,9.7453],
[13.016,9.8245],
[13.0147,9.9715],
[13.169,10.4266],
[13.2165,10.5018],
[13.2086,10.6007],
[13.2877,10.7353],
[13.2877,10.7947],
[13.2679,10.8382],
[13.2679,10.9055],
[13.2838,10.9569],
[13.2838,11.2735],
[13.3669,11.4179],
[13.3985,11.5287],
[13.4698,11.596],
[13.5608,11.6197],
[13.5845,11.5802],
[13.6914,11.596],
[13.6518,11.6831],
[13.7349,11.7503],
[13.7349,11.8018],
[13.8259,11.9126],
[13.8338,11.9917],
[13.9248,12.1144],
[14.0475,12.1421],
[14.0831,12.2133],
[14.0752,12.2767],
[14.1029,12.3321],
[14.1029,12.3835],
[14.0752,12.4231],
[14.0198,12.5418],
[14.0744,13.0748],
[13.6299,13.7111],
[13.5619,13.9945],
[10.9978,13.9999],
[10.9954,13.4799],
[10.488,13.4735],
[10.0006,13.4991],
[8.9981,13.4931],
[8.5193,13.4927],
[7.9998,13.5055],
[7.3874,13.4893],
[7.381,13.9993],
[6.791,14.0057],
[6.2619,14.0008],
[6.1529,14.118],
[5.9541,14.2655],
[5.7297,14.413],
[5.4283,14.5348],
[5.0323,14.5685],
[4.9489,14.5588],
[4.7677,14.5027],
[4.6587,14.4578],
[4.5305,14.4001],
[4.4022,14.3232],
[4.2098,14.1244],
[4.0303,13.8743],
[3.9084,13.6242],
[3.8475,13.3003],
[3.7994,13.156],
[3.7417,12.9284],
[3.6578,12.5289],
[3.6661,12.2494],
[3.6369,12.1078],
[3.6711,12.005],
[3.6717,11.9756],
[3.6169,11.9197],
[3.6317,11.8253],
[3.6706,11.8072],
[3.6883,11.7497],
[3.6045,11.6933],
[3.5712,11.651],
[3.5253,11.5636],
[3.475,11.4297],
[3.6947,11.1347],
[3.7358,11.1206],
[3.7306,11.0406],
[3.7753,10.8986],
[3.7491,10.8294],
[3.7512,10.7987],
[3.8475,10.6965],
[3.855,10.585],
[3.8128,10.4494],
[3.7915,10.4042],
[3.6994,10.4483],
[3.6386,10.4136],
[3.5819,10.2753],
[3.6442,10.1994],
[3.6703,10.1865],
[3.6842,10.1608],
[3.6779,10.1118],
[3.612,9.9541],
[3.5589,9.8803],
[3.521,9.8456],
[3.4835,9.8557],
[3.3496,9.8115],
[3.331,9.7624],
[3.3633,9.6819],
[3.1714,9.4964],
[3.1418,9.4351],
[3.1632,9.3774],
[3.1664,9.3028],
[3.095,9.0906],
[2.9962,9.0632],
[2.9675,9.0817],
[2.9053,9.0789],
[2.8136,9.0653],
[2.7921,9.0504],
[2.7548,8.8509]
]
]
]}
}
