{
"type": "Feature",
"properties": {"id":"cshapes-462-1922-07-20","edge_precision":"unknown","cshapes_gwcode":462,"cshapes_name":"British Togoland","cshapes_first_day":"1922-07-20","cshapes_last_day":"1955-12-31","cshapes_status":"mandate","cshapes_owner":200,"cshapes_borders_defined":true},
"geometry": {"type": "MultiPolygon", "coordinates": [
[
[
[-0.1736,8.6293],
[-0.1562,8.5668],
[-0.0382,8.2925],
[0.0503,8.1884],
[0.0503,8.1172],
[-0.0243,8.1189],
[-0.0469,8.1397],
[-0.0694,8.1484],
[-0.1128,8.1467],
[-0.1371,7.9662],
[-0.0608,7.9089],
[-0.0677,7.8238],
[-0.0538,7.6797],
[0.0139,7.6329],
[0.0156,7.5773],
[0.0989,7.527],
[0.1337,7.494],
[0.1545,7.3968],
[0.1771,7.3586],
[0.217,7.3308],
[0.2638,7.178],
[0.2638,7.1433],
[0.2413,7.1155],
[0.2465,7.0531],
[0.2014,6.9888],
[0.2014,6.8829],
[0.1701,6.8604],
[0.0677,6.8135],
[0.0451,6.7788],
[0.0434,6.6955],
[0.0746,6.6486],
[0.092,6.5705],
[0.3385,6.567],
[0.4808,6.5739],
[0.4079,6.5149],
[0.2864,6.3969],
[0.2135,6.2892],
[0.3576,6.3031],
[0.8818,6.3066],
[1.0086,6.2268],
[1.0668,6.2122],
[1.0015,6.3253],
[0.9047,6.3294],
[0.7883,6.4156],
[0.7554,6.4538],
[0.7274,6.5015],
[0.7237,6.53],
[0.7439,6.5572],
[0.7284,6.5842],
[0.6908,6.5892],
[0.6597,6.6104],
[0.6433,6.6468],
[0.6507,6.7082],
[0.6438,6.7335],
[0.569,6.8147],
[0.525,6.9478],
[0.5893,6.9936],
[0.6087,7.0172],
[0.6522,7.2828],
[0.653,7.3696],
[0.6426,7.3978],
[0.5683,7.3867],
[0.5365,7.416],
[0.5106,7.4606],
[0.5212,7.5854],
[0.5932,7.7019],
[0.6229,7.8967],
[0.5975,8.0947],
[0.6117,8.2161],
[0.7286,8.2952],
[0.7262,8.3237],
[0.6989,8.3886],
[0.6499,8.4731],
[0.6322,8.4935],
[0.4701,8.5956],
[0.3885,8.7385],
[0.3827,8.7608],
[0.4887,8.7958],
[0.512,8.8435],
[0.5206,8.8887],
[0.5135,8.9199],
[0.4678,8.999],
[0.4487,9.0322],
[0.4553,9.0603],
[0.5275,9.2064],
[0.5528,9.3674],
[0.5506,9.4089],
[0.5012,9.4725],
[0.423,9.4962],
[0.3553,9.4851],
[0.3363,9.4449],
[0.2821,9.42],
[0.2293,9.431],
[0.2172,9.4603],
[0.2232,9.5501],
[0.2593,9.6649],
[0.3244,9.7622],
[0.3562,10.0303],
[0.4002,10.0305],
[0.3957,10.0676],
[0.3551,10.0935],
[0.3497,10.1153],
[0.3665,10.2542],
[0.2851,10.4144],
[0.2289,10.4094],
[0.1206,10.5217],
[0.0378,10.5904],
[-0.0638,10.6312],
[-0.0788,10.6508],
[-0.0828,10.7006],
[-0.0594,10.7822],
[0.0322,10.99],
[0.0347,11.0214],
[0.0313,11.0772],
[-0.0051,11.0988],
[-0.0444,11.1018],
[-0.0833,10.9233],
[-0.1024,10.7254],
[-0.1233,10.6785],
[-0.1146,10.5848],
[-0.1233,10.4555],
[-0.0608,10.3097],
[-0.0608,10.1743],
[-0.099,10.0562],
[-0.1094,9.9764],
[-0.0504,9.7472],
[-0.0504,9.6118],
[-0.0139,9.4868],
[0,9.275],
[-0.007,9.0633],
[-0.0747,8.9331],
[-0.0712,8.822],
[-0.1024,8.7334],
[-0.1736,8.6293]
]
]
]}
}
