{
"type": "Feature",
"properties": {"id":"cshapes-352-1960-08-16","edge_precision":"unknown","cshapes_gwcode":352,"cshapes_name":"Cyprus","cshapes_first_day":"1960-08-16","cshapes_last_day":"2019-12-31","cshapes_status":"independent","cshapes_owner":352,"cshapes_borders_defined":true},
"geometry": {"type": "MultiPolygon", "coordinates": [
[
[
[32.2701,35.0707],
[32.3414,34.8633],
[32.4058,34.7499],
[32.4919,34.7022],
[32.7061,34.6412],
[32.8311,34.6675],
[33.03,34.6578],
[33.0632,34.6807],
[33.1531,34.7025],
[33.2172,34.6994],
[33.369,34.7265],
[33.6033,34.8185],
[33.6351,34.868],
[33.6479,34.9389],
[33.6814,34.9668],
[33.7076,34.9739],
[33.7903,34.9703],
[33.8144,34.9658],
[33.8566,34.9399],
[33.8837,34.9451],
[33.9133,34.9694],
[33.9769,34.9814],
[34.0239,34.9793],
[34.065,34.961],
[34.0853,34.9617],
[34.0782,34.9885],
[34.0544,35.0206],
[33.9739,35.0881],
[33.9021,35.1631],
[33.9058,35.2422],
[33.9214,35.2728],
[33.9483,35.3072],
[34.2253,35.4556],
[34.2808,35.4769],
[34.5697,35.6436],
[34.586,35.6886],
[34.3894,35.6239],
[34.3533,35.6075],
[34.3142,35.5756],
[33.9697,35.4361],
[33.8536,35.4031],
[33.7531,35.3985],
[33.6526,35.3541],
[33.4726,35.3286],
[33.3853,35.3283],
[33.0028,35.3656],
[32.9392,35.3275],
[32.9128,35.1886],
[32.8958,35.1697],
[32.8583,35.1506],
[32.8205,35.1439],
[32.7219,35.1808],
[32.656,35.1897],
[32.5585,35.1712],
[32.519,35.1401],
[32.4939,35.0969],
[32.4603,35.0644],
[32.424,35.0442],
[32.3726,35.039],
[32.2869,35.095],
[32.2701,35.0707]
]
]
]}
}
