{
"type": "Feature",
"properties": {"id":"cshapes-602-1912-11-27","edge_precision":"unknown","cshapes_gwcode":602,"cshapes_name":"Spanish Morocco","cshapes_first_day":"1912-11-27","cshapes_last_day":"1956-04-06","cshapes_status":"protectorate","cshapes_owner":230,"cshapes_borders_defined":true},
"geometry": {"type": "MultiPolygon", "coordinates": [
[
[
[-13.1709,27.6745],
[-13.0675,27.6661],
[-8.6667,27.6667],
[-8.6672,28.5624],
[-8.7727,28.5068],
[-8.9879,28.486],
[-9.1164,28.3888],
[-9.2344,28.3714],
[-9.349,28.3263],
[-9.4323,28.2707],
[-9.5816,28.2672],
[-10.0121,28.2256],
[-10.2656,28.2568],
[-10.46,28.3193],
[-10.7134,28.4165],
[-10.828,28.4408],
[-10.9287,28.4721],
[-11.1613,28.5797],
[-11.2004,28.6098],
[-11.3033,28.5247],
[-11.4511,28.3404],
[-11.5119,28.3037],
[-11.9419,28.1481],
[-12.0631,28.0839],
[-12.6147,27.9903],
[-12.7644,27.9789],
[-12.9025,27.9542],
[-12.9627,27.9205],
[-13.0224,27.7774],
[-13.0399,27.7582],
[-13.1158,27.7131],
[-13.1514,27.7007],
[-13.1709,27.6745]
]
],
[
[
[-6.2332,35.0338],
[-6.1357,35.0163],
[-6.0263,35.0354],
[-5.8371,34.9486],
[-5.6253,34.9486],
[-5.5732,35.0249],
[-5.535,35.0319],
[-5.3458,34.9191],
[-5.3423,34.8166],
[-5.1687,34.676],
[-5.0663,34.6309],
[-4.9344,34.6708],
[-4.7504,34.6274],
[-4.6705,34.6031],
[-4.5646,34.5146],
[-4.4483,34.5128],
[-4.3303,34.6118],
[-4.1827,34.5892],
[-3.9866,34.6535],
[-3.7869,34.6552],
[-3.6342,34.676],
[-3.5908,34.5736],
[-3.5682,34.4885],
[-3.3425,34.499],
[-3.2679,34.6135],
[-3.1481,34.6708],
[-2.9711,34.6743],
[-2.8426,34.643],
[-2.7298,34.6934],
[-2.7263,34.7628],
[-2.6273,34.867],
[-2.5405,34.9069],
[-2.4468,34.9225],
[-2.3652,35.0024],
[-2.3453,35.0701],
[-2.3102,35.1069],
[-2.3431,35.1236],
[-2.5497,35.0939],
[-2.6272,35.0985],
[-2.7489,35.1397],
[-2.8837,35.2346],
[-2.8233,35.1658],
[-2.7942,35.1472],
[-2.7838,35.1224],
[-2.8349,35.1251],
[-2.8769,35.1418],
[-2.9056,35.1697],
[-2.9121,35.1983],
[-2.9028,35.2206],
[-2.9014,35.2592],
[-2.9147,35.2736],
[-2.9392,35.2644],
[-2.9651,35.2813],
[-2.9662,35.3166],
[-2.9469,35.3292],
[-2.9861,35.4181],
[-3.0236,35.3461],
[-3.0708,35.2877],
[-3.3064,35.1953],
[-3.3363,35.1914],
[-3.4106,35.195],
[-3.5848,35.2295],
[-3.6547,35.2696],
[-3.7556,35.2417],
[-3.8017,35.203],
[-3.8644,35.203],
[-3.9021,35.2237],
[-3.9149,35.2561],
[-4.0208,35.2453],
[-4.07,35.2301],
[-4.1193,35.2026],
[-4.265,35.1867],
[-4.3175,35.1569],
[-4.3579,35.1461],
[-4.4204,35.1512],
[-4.519,35.18],
[-4.6958,35.2089],
[-4.9168,35.3185],
[-4.9664,35.3669],
[-5.249,35.5744],
[-5.3203,35.7003],
[-5.3476,35.8372],
[-5.3772,35.8715],
[-5.4017,35.9178],
[-5.4556,35.9144],
[-5.4883,35.8972],
[-5.5438,35.8425],
[-5.5958,35.8219],
[-5.9187,35.7906],
[-5.9375,35.7594],
[-5.9967,35.5794],
[-6.2332,35.0338]
]
]
]}
}
