{
"type": "Feature",
"properties": {"id":"cshapes-433-1960-06-21","edge_precision":"unknown","cshapes_gwcode":433,"cshapes_name":"Senegal","cshapes_first_day":"1960-06-21","cshapes_last_day":"2019-12-31","cshapes_status":"independent","cshapes_owner":433,"cshapes_borders_defined":true},
"geometry": {"type": "MultiPolygon", "coordinates": [
[
[
[-17.5328,14.7501],
[-17.4463,14.6567],
[-17.4278,14.6747],
[-17.4315,14.7089],
[-17.4209,14.7311],
[-17.3909,14.74],
[-17.3378,14.7333],
[-17.2258,14.6886],
[-17.1756,14.6544],
[-17.1483,14.6139],
[-17.0894,14.4867],
[-17.0625,14.454],
[-17.0006,14.4282],
[-16.9478,14.3756],
[-16.9006,14.2633],
[-16.8767,14.1784],
[-16.8133,14.1228],
[-16.7758,14.0125],
[-16.6607,14],
[-16.6364,14.0035],
[-16.5614,14.0672],
[-16.5133,14.1433],
[-16.4531,14.1744],
[-16.3847,14.1625],
[-16.3674,14.1664],
[-16.5058,14.105],
[-16.5594,14.0536],
[-16.5783,14.0017],
[-16.6389,13.9617],
[-16.6874,13.9929],
[-16.7189,13.9828],
[-16.7453,13.9535],
[-16.7356,13.8164],
[-16.6984,13.7704],
[-16.5603,13.8625],
[-16.4908,13.9581],
[-16.4972,13.8675],
[-16.5211,13.8319],
[-16.5408,13.8428],
[-16.5731,13.8331],
[-16.6253,13.7771],
[-16.6386,13.7528],
[-16.6422,13.6969],
[-16.5657,13.59],
[-15.4882,13.5908],
[-15.4841,13.6408],
[-15.4556,13.7083],
[-15.4203,13.7433],
[-15.3644,13.7814],
[-15.3367,13.7929],
[-15.3005,13.7904],
[-15.2715,13.7706],
[-15.2514,13.7447],
[-15.1644,13.795],
[-15.0703,13.8264],
[-14.9117,13.8024],
[-14.8583,13.7797],
[-14.8161,13.7411],
[-14.7936,13.6786],
[-14.7919,13.6533],
[-14.7165,13.6133],
[-14.6683,13.6533],
[-14.6257,13.6679],
[-14.5989,13.6703],
[-14.5357,13.6507],
[-14.5046,13.6281],
[-14.4833,13.5937],
[-14.4728,13.5344],
[-14.4464,13.5264],
[-14.3983,13.4833],
[-14.3349,13.454],
[-14.2371,13.4815],
[-14.1983,13.5162],
[-14.0824,13.5606],
[-13.9804,13.5828],
[-13.9192,13.5682],
[-13.887,13.5444],
[-13.8685,13.508],
[-13.8275,13.4806],
[-13.8038,13.4432],
[-13.7986,13.4131],
[-13.8035,13.3844],
[-13.824,13.3561],
[-13.8731,13.3208],
[-14.0956,13.285],
[-14.1517,13.2464],
[-14.1883,13.2331],
[-14.3511,13.2378],
[-14.3888,13.2487],
[-14.5211,13.3139],
[-14.5478,13.3359],
[-14.6478,13.3439],
[-14.7147,13.3606],
[-14.7354,13.3756],
[-14.7704,13.4244],
[-14.8333,13.4353],
[-14.9547,13.4719],
[-15.0453,13.5281],
[-15.1117,13.5958],
[-15.1479,13.5862],
[-15.2015,13.5251],
[-15.2047,13.4619],
[-15.2243,13.4132],
[-15.2904,13.3728],
[-15.3342,13.3658],
[-15.4181,13.3753],
[-15.8065,13.3394],
[-15.8097,13.1597],
[-16.6183,13.165],
[-16.7003,13.1572],
[-16.7502,13.055],
[-16.7575,12.8981],
[-16.7968,12.8275],
[-16.8001,12.8074],
[-16.775,12.579],
[-16.7529,12.5647],
[-16.6467,12.6324],
[-16.649,12.7212],
[-16.594,12.7833],
[-16.5972,12.7354],
[-16.5711,12.6714],
[-16.4217,12.5768],
[-16.3674,12.5642],
[-16.3497,12.5822],
[-16.2942,12.6014],
[-16.2056,12.6122],
[-16.1583,12.6078],
[-16.0715,12.6346],
[-16.0461,12.6579],
[-16.0214,12.7249],
[-16.0153,12.7014],
[-15.9824,12.6534],
[-15.9454,12.6164],
[-15.9059,12.594],
[-15.7676,12.6193],
[-15.6983,12.6143],
[-15.6671,12.6022],
[-15.6666,12.5735],
[-15.6456,12.5571],
[-15.6186,12.5714],
[-15.5511,12.6332],
[-15.5398,12.6544],
[-15.5646,12.7344],
[-15.5539,12.7739],
[-15.5269,12.8058],
[-15.4458,12.8319],
[-15.3918,12.8329],
[-15.3994,12.7972],
[-15.4311,12.8042],
[-15.5299,12.7821],
[-15.5421,12.7158],
[-15.5289,12.6972],
[-15.5093,12.6371],
[-15.5753,12.561],
[-15.6344,12.531],
[-15.677,12.543],
[-15.691,12.5731],
[-15.7297,12.5867],
[-15.7743,12.5874],
[-15.8247,12.5508],
[-15.9364,12.5778],
[-15.9978,12.6242],
[-16.0283,12.6305],
[-16.1964,12.5803],
[-16.2336,12.5908],
[-16.2922,12.5889],
[-16.3744,12.5454],
[-16.4217,12.5589],
[-16.5838,12.6326],
[-16.7624,12.5357],
[-16.8001,12.4864],
[-16.8018,12.4461],
[-16.7932,12.4229],
[-16.7224,12.332],
[-16.6928,12.3558],
[-16.6633,12.3608],
[-16.5486,12.3572],
[-16.5186,12.3476],
[-16.3817,12.3747],
[-16.2092,12.4608],
[-16.1022,12.4714],
[-16.04,12.4672],
[-15.9622,12.4361],
[-15.8885,12.4481],
[-15.6853,12.43],
[-15.4194,12.5514],
[-15.3614,12.5981],
[-15.2181,12.6847],
[-13.6278,12.6775],
[-13.3567,12.6653],
[-13.3102,12.6497],
[-13.2064,12.6522],
[-13.0563,12.6341],
[-13.0424,12.59],
[-13.0688,12.5321],
[-13.0639,12.5029],
[-13.0457,12.479],
[-12.9616,12.4737],
[-12.9464,12.5232],
[-12.927,12.5422],
[-12.8963,12.545],
[-12.7869,12.465],
[-12.634,12.4364],
[-12.5853,12.3678],
[-12.5025,12.3951],
[-12.4792,12.3951],
[-12.3947,12.3674],
[-12.3454,12.3017],
[-12.1703,12.3539],
[-12.1281,12.3828],
[-12.0339,12.4006],
[-11.8953,12.4092],
[-11.8417,12.3864],
[-11.7364,12.3806],
[-11.6936,12.3906],
[-11.6456,12.4215],
[-11.4765,12.4358],
[-11.3731,12.4078],
[-11.3736,12.4478],
[-11.4169,12.5694],
[-11.4242,12.6561],
[-11.395,12.8319],
[-11.3699,12.9322],
[-11.3761,12.9829],
[-11.4633,13.0858],
[-11.5151,13.1121],
[-11.5562,13.2124],
[-11.5394,13.2547],
[-11.5522,13.2828],
[-11.6346,13.3915],
[-11.7163,13.4125],
[-11.741,13.409],
[-11.7586,13.3647],
[-11.8095,13.3093],
[-11.8873,13.3816],
[-11.8782,13.4204],
[-12.0344,13.6108],
[-12.0572,13.6647],
[-12.0644,13.6956],
[-12.0414,13.7286],
[-11.9678,13.7817],
[-11.9557,13.801],
[-11.9425,13.8589],
[-11.9433,13.9068],
[-12.0079,13.9662],
[-12.014,14.0185],
[-11.98,14.1514],
[-11.9822,14.1728],
[-12.0303,14.2775],
[-12.1508,14.3742],
[-12.2064,14.3953],
[-12.2257,14.5053],
[-12.2169,14.5397],
[-12.1786,14.6075],
[-12.2446,14.7594],
[-12.3958,14.8531],
[-12.4481,14.9056],
[-12.4519,14.9412],
[-12.4788,15.0074],
[-12.6293,15.0999],
[-12.6628,15.1047],
[-12.686,15.0879],
[-12.7081,15.0978],
[-12.7834,15.1497],
[-12.8497,15.2081],
[-12.8858,15.2617],
[-12.8501,15.2658],
[-12.8417,15.2965],
[-12.8608,15.3244],
[-12.9299,15.3655],
[-12.9636,15.5004],
[-13.0566,15.4799],
[-13.0917,15.4967],
[-13.1027,15.5214],
[-13.1847,15.6294],
[-13.2458,15.6806],
[-13.3247,15.9294],
[-13.3954,16.0554],
[-13.5206,16.1322],
[-13.5799,16.1356],
[-13.6682,16.099],
[-13.7103,16.1362],
[-13.7012,16.1728],
[-13.8161,16.1353],
[-13.9697,16.2339],
[-13.9842,16.2999],
[-14.0297,16.3578],
[-14.2192,16.5432],
[-14.3436,16.6361],
[-14.4161,16.6503],
[-14.505,16.6264],
[-14.7564,16.6444],
[-14.9069,16.6353],
[-14.9517,16.6484],
[-14.9598,16.6786],
[-14.9845,16.6906],
[-15.0217,16.6387],
[-15.0883,16.6081],
[-15.236,16.5593],
[-15.355,16.5617],
[-15.4414,16.5794],
[-15.51,16.5567],
[-15.5764,16.5133],
[-15.6703,16.4811],
[-15.8883,16.5124],
[-15.9856,16.49],
[-16.0566,16.4837],
[-16.1154,16.5494],
[-16.1458,16.5519],
[-16.2853,16.5171],
[-16.3024,16.499],
[-16.3218,16.4562],
[-16.3675,16.2737],
[-16.39,16.2206],
[-16.5069,16.0942],
[-16.5277,16.0602],
[-16.5435,15.811],
[-16.5367,15.7862],
[-16.5464,15.7567],
[-16.6703,15.5553],
[-16.7769,15.4106],
[-16.8794,15.2243],
[-17.1461,14.9181],
[-17.3833,14.7967],
[-17.5328,14.7501]
]
]
]}
}
