{
"type": "Feature",
"properties": {"id":"cshapes-483-1919-06-28","edge_precision":"unknown","cshapes_gwcode":483,"cshapes_name":"Chad","cshapes_first_day":"1919-06-28","cshapes_last_day":"1920-03-16","cshapes_status":"occupied","cshapes_owner":220,"cshapes_borders_defined":true},
"geometry": {"type": "MultiPolygon", "coordinates": [
[
[
[13.4619,14.4306],
[13.6299,13.7111],
[14.0744,13.0748],
[14.1597,13.0831],
[14.436,13.085],
[14.5256,12.975],
[14.5462,12.7717],
[14.5815,12.7381],
[14.7087,12.7147],
[14.8224,12.6338],
[14.9023,12.376],
[14.9075,12.3284],
[14.8943,12.1558],
[14.9518,12.0976],
[15.0426,12.0789],
[15.0819,11.7547],
[15.0625,11.69],
[15.1093,11.4965],
[15.0676,11.4367],
[15.051,11.3949],
[15.0183,11.2022],
[15.0261,11.0794],
[15.076,10.9031],
[15.0772,10.8801],
[15.0581,10.8253],
[15.0582,10.8019],
[15.1367,10.6606],
[15.1903,10.5028],
[15.3731,10.2486],
[15.499,10.1014],
[15.6303,10.0272],
[15.6535,10.0118],
[15.6692,9.9894],
[15.4222,9.9269],
[15.2387,9.9875],
[15.1516,9.988],
[15.1012,9.9758],
[15.0869,9.9594],
[15.0587,9.9497],
[15.0175,9.9497],
[14.9267,9.9701],
[14.7835,9.9232],
[14.6528,9.9592],
[14.4585,9.9971],
[14.1948,9.9818],
[14.1806,9.9361],
[14.1233,9.8317],
[14.0775,9.7836],
[14.0288,9.7519],
[13.9576,9.6465],
[13.9691,9.6303],
[14.0078,9.6175],
[14.3286,9.2583],
[14.3524,9.2294],
[14.3481,9.1969],
[14.6211,8.9606],
[14.8328,8.8136],
[14.8635,8.8142],
[14.9228,8.7753],
[15.0742,8.6436],
[15.2072,8.4774],
[15.2647,8.3392],
[15.3765,8.1121],
[15.3892,8.0396],
[15.4779,7.8103],
[15.5023,7.7749],
[15.58,7.7604],
[15.5843,7.6901],
[15.5728,7.63],
[15.547,7.582],
[15.5002,7.5278],
[15.5186,7.5183],
[15.5657,7.5126],
[15.6901,7.5229],
[15.7136,7.5068],
[15.7279,7.4769],
[15.7827,7.4585],
[15.9749,7.5013],
[16.0187,7.5401],
[16.0344,7.5714],
[16.0794,7.5944],
[16.2176,7.6144],
[16.4075,7.6911],
[16.41,7.7672],
[16.4308,7.7981],
[16.5336,7.8678],
[16.5677,7.8649],
[16.5681,7.7832],
[16.7817,7.5658],
[16.8245,7.5478],
[16.86,7.5692],
[16.8698,7.6212],
[16.9133,7.6425],
[17.0589,7.6628],
[17.1383,7.7006],
[17.2186,7.7586],
[17.2372,7.8031],
[17.4507,7.9016],
[17.5872,7.9337],
[17.6489,7.9885],
[17.8836,7.9583],
[18.0328,8.0135],
[18.5889,8.0403],
[18.6183,8.0603],
[18.6356,8.0872],
[18.6347,8.1353],
[18.6656,8.1939],
[18.7047,8.2236],
[18.8022,8.2561],
[18.8403,8.2922],
[18.9225,8.3924],
[18.9318,8.4239],
[19.0588,8.5784],
[19.0886,8.6411],
[19.1258,8.6728],
[19.115,8.6914],
[19.0307,8.7549],
[18.9872,8.7653],
[18.9256,8.7942],
[18.8764,8.8414],
[18.8697,8.8612],
[18.8925,8.8914],
[18.9889,8.9642],
[19.0235,8.9844],
[19.1094,9.0136],
[19.1933,9.021],
[19.4114,9.0161],
[19.6108,9.0267],
[19.8306,9.0531],
[19.9338,9.0575],
[20.0647,9.1349],
[20.2703,9.1183],
[20.3254,9.1047],
[20.3717,9.1083],
[20.4222,9.1397],
[20.4878,9.2097],
[20.4999,9.2417],
[20.4985,9.2759],
[20.8088,9.4181],
[20.8378,9.4764],
[20.894,9.5201],
[20.9744,9.6033],
[21.0481,9.7664],
[21.2656,9.9781],
[21.3392,9.9585],
[21.3633,9.969],
[21.4083,10.0069],
[21.4353,10.0418],
[21.4542,10.0928],
[21.4544,10.1137],
[21.4736,10.1478],
[21.5203,10.1994],
[21.5372,10.2117],
[21.6087,10.2124],
[21.6669,10.2358],
[21.7184,10.2966],
[21.7472,10.4094],
[21.7378,10.4485],
[21.7194,10.4683],
[21.7011,10.5207],
[21.7025,10.5633],
[21.719,10.6381],
[21.9572,10.7322],
[22.0061,10.7689],
[22.2447,10.9108],
[22.3641,10.955],
[22.4138,10.9642],
[22.4328,10.9869],
[22.4633,11.0008],
[22.6764,10.9694],
[22.8665,10.9224],
[22.8936,10.9769],
[22.9741,11.2098],
[22.9714,11.2803],
[22.9332,11.4087],
[22.7903,11.4294],
[22.6483,11.5118],
[22.559,11.629],
[22.5532,11.666],
[22.6114,11.9928],
[22.5033,12.1658],
[22.439,12.3472],
[22.4076,12.4851],
[22.4643,12.6149],
[22.3317,12.6733],
[22.2233,12.7472],
[22.1619,12.6687],
[22.1453,12.6574],
[22.05,12.6375],
[21.9528,12.6439],
[21.9069,12.6694],
[21.8291,12.7972],
[21.8919,12.9544],
[21.9421,13.0512],
[22.025,13.1403],
[22.0675,13.1486],
[22.1531,13.1865],
[22.285,13.3406],
[22.2947,13.3727],
[22.1361,13.665],
[22.0844,13.7792],
[22.2343,13.9656],
[22.3171,14.0107],
[22.4344,14.0517],
[22.5562,14.1298],
[22.5668,14.1672],
[22.5537,14.229],
[22.5117,14.2403],
[22.4494,14.33],
[22.4461,14.4737],
[22.4382,14.4928],
[22.3847,14.5251],
[22.3865,14.5626],
[22.3986,14.5862],
[22.4161,14.6003],
[22.47,14.6294],
[22.6999,14.7041],
[22.6799,14.7581],
[22.6692,14.8537],
[22.7533,14.9769],
[22.8457,15.0749],
[22.8728,15.0969],
[22.9294,15.114],
[22.9787,15.2079],
[22.9972,15.3358],
[22.9972,15.3713],
[22.9827,15.4142],
[22.9231,15.4872],
[22.9233,15.5401],
[22.9372,15.5619],
[23.1134,15.7083],
[23.1703,15.7106],
[23.3569,15.6817],
[23.409,15.6908],
[23.4792,15.7258],
[23.5642,15.7497],
[23.6633,15.7575],
[23.8004,15.7479],
[23.9732,15.6979],
[23.9976,15.7028],
[24.0019,19.5066],
[21.7817,20.6561],
[19.8739,21.6117],
[17.6563,22.6809],
[16.0008,23.4506],
[14.9979,23.0006],
[15.1947,21.9989],
[15.2014,21.5178],
[15.2096,21.4918],
[15.2844,21.4453],
[15.5831,21.0186],
[15.6157,20.9512],
[15.5844,20.93],
[15.5661,20.9056],
[15.5567,20.8753],
[15.5572,20.8158],
[15.5775,20.766],
[15.6331,20.7167],
[15.6683,20.7007],
[15.9967,20.3531],
[15.7539,19.9325],
[15.6025,18.7822],
[15.5236,17.36],
[15.4897,16.921],
[15.4838,16.8963],
[15.4569,16.8678],
[14.3689,15.7339],
[13.9972,15.2058],
[13.8592,15.0378],
[13.7672,14.8481],
[13.7942,14.7328],
[13.7592,14.7056],
[13.6829,14.6085],
[13.6844,14.5794],
[13.6744,14.5523],
[13.6225,14.519],
[13.5475,14.5118],
[13.4947,14.4844],
[13.465,14.4508],
[13.4619,14.4306]
]
]
]}
}
