{
"type": "Feature",
"properties": {"id":"cshapes-920-1886-01-01","edge_precision":"unknown","cshapes_gwcode":920,"cshapes_name":"New Zealand","cshapes_first_day":"1886-01-01","cshapes_last_day":"1907-08-31","cshapes_status":"colony","cshapes_owner":200,"cshapes_borders_defined":true},
"geometry": {"type": "MultiPolygon", "coordinates": [
[
[
[-176.8456,-43.8095],
[-176.8338,-43.8421],
[-176.7923,-43.8408],
[-176.6832,-43.831],
[-176.6542,-43.8001],
[-176.6314,-43.8017],
[-176.5799,-43.8226],
[-176.5536,-43.8458],
[-176.5178,-43.9078],
[-176.5234,-43.9361],
[-176.5633,-43.9747],
[-176.6505,-44.0132],
[-176.6089,-44.0822],
[-176.6021,-44.1203],
[-176.5392,-44.125],
[-176.5173,-44.1218],
[-176.3772,-44.0561],
[-176.3547,-44.0125],
[-176.4519,-43.955],
[-176.4981,-43.87],
[-176.5356,-43.7717],
[-176.5272,-43.7556],
[-176.5114,-43.7494],
[-176.4245,-43.7561],
[-176.3719,-43.7708],
[-176.3519,-43.7906],
[-176.3137,-43.7964],
[-176.2692,-43.7639],
[-176.3306,-43.7489],
[-176.3801,-43.7489],
[-176.4522,-43.7361],
[-176.4792,-43.724],
[-176.5578,-43.7175],
[-176.7492,-43.7725],
[-176.8456,-43.8095]
]
],
[
[
[165.8871,-50.8086],
[165.893,-50.8476],
[166.0008,-50.8475],
[166.0215,-50.8381],
[166.1544,-50.8389],
[166.2069,-50.8568],
[166.2317,-50.8548],
[166.2492,-50.8312],
[166.2294,-50.7542],
[166.1714,-50.7233],
[166.1414,-50.6981],
[166.1989,-50.6283],
[166.2869,-50.5617],
[166.2236,-50.5294],
[166.1937,-50.5271],
[166.1287,-50.5271],
[166.1075,-50.5425],
[166.1177,-50.5761],
[166.0895,-50.6657],
[166.0398,-50.7078],
[165.9836,-50.7203],
[165.9036,-50.7669],
[165.8871,-50.8086]
]
],
[
[
[165.9283,-50.8543],
[165.933,-50.8724],
[165.9736,-50.9053],
[166.0915,-50.9233],
[166.2154,-50.8881],
[166.1944,-50.8761],
[166.1077,-50.8556],
[165.9283,-50.8543]
]
],
[
[
[166.4647,-45.8394],
[166.4662,-45.9868],
[166.4817,-46.0083],
[166.6258,-45.9672],
[166.6617,-45.9919],
[166.6193,-46.0561],
[166.6147,-46.0886],
[166.6705,-46.0872],
[166.7394,-46.0663],
[166.7886,-46.0076],
[166.8322,-45.9829],
[166.9297,-45.9472],
[166.9446,-45.9492],
[166.8869,-45.9903],
[166.83,-46.0039],
[166.7389,-46.1192],
[166.6705,-46.1576],
[166.7052,-46.2011],
[166.7219,-46.2125],
[166.8297,-46.2321],
[166.9661,-46.2247],
[167.2803,-46.2731],
[167.3566,-46.2544],
[167.4155,-46.2047],
[167.4561,-46.1531],
[167.5464,-46.1542],
[167.5969,-46.1664],
[167.7019,-46.2094],
[167.7825,-46.2946],
[167.7791,-46.3096],
[167.7539,-46.3339],
[167.8283,-46.3965],
[167.8508,-46.3994],
[168.0639,-46.3517],
[168.175,-46.3403],
[168.2086,-46.3533],
[168.2503,-46.4008],
[168.3713,-46.419],
[168.3941,-46.4703],
[168.3896,-46.495],
[168.3394,-46.5392],
[168.325,-46.5386],
[168.3077,-46.5206],
[168.2687,-46.5324],
[168.2753,-46.5578],
[168.3514,-46.6032],
[168.3644,-46.602],
[168.3622,-46.5892],
[168.3506,-46.5833],
[168.3627,-46.5839],
[168.3519,-46.5603],
[168.3577,-46.5461],
[168.3914,-46.54],
[168.5462,-46.569],
[168.5639,-46.5847],
[168.5516,-46.5944],
[168.4905,-46.5731],
[168.4422,-46.575],
[168.4466,-46.584],
[168.4394,-46.6006],
[168.4927,-46.6133],
[168.6147,-46.6111],
[168.7333,-46.5775],
[168.8404,-46.5621],
[168.8647,-46.6075],
[168.8808,-46.6649],
[169.008,-46.6808],
[169.0579,-46.6768],
[169.0672,-46.635],
[169.1025,-46.6681],
[169.2664,-46.6564],
[169.458,-46.6233],
[169.7019,-46.5581],
[169.8488,-46.4655],
[169.8494,-46.3894],
[169.8608,-46.374],
[170.0677,-46.2467],
[170.2205,-46.1699],
[170.2393,-46.1506],
[170.2536,-46.1118],
[170.2636,-46.0519],
[170.3125,-45.9942],
[170.3425,-45.9736],
[170.4525,-45.9319],
[170.6644,-45.9083],
[170.7,-45.9117],
[170.7797,-45.8806],
[170.7898,-45.8551],
[170.7908,-45.8069],
[170.7772,-45.7846],
[170.6086,-45.8881],
[170.5555,-45.8961],
[170.5566,-45.8849],
[170.6169,-45.8394],
[170.7503,-45.6197],
[170.8579,-45.4907],
[170.8713,-45.4242],
[170.8734,-45.3626],
[170.9216,-45.2431],
[170.964,-45.1661],
[171.0266,-45.1033],
[171.08,-45.0672],
[171.1497,-44.9967],
[171.1972,-44.9237],
[171.2147,-44.7433],
[171.193,-44.6633],
[171.1961,-44.5603],
[171.2005,-44.5411],
[171.2667,-44.4587],
[171.2767,-44.431],
[171.2705,-44.3875],
[171.2936,-44.3436],
[171.3556,-44.2855],
[171.5836,-44.1539],
[172.1897,-43.9092],
[172.3905,-43.8589],
[172.385,-43.7786],
[172.3903,-43.7639],
[172.425,-43.7336],
[172.4952,-43.7239],
[172.6428,-43.7722],
[172.7152,-43.8083],
[172.8082,-43.8803],
[172.8662,-43.9029],
[172.9364,-43.8895],
[172.9206,-43.8726],
[172.9205,-43.8288],
[172.9245,-43.7689],
[172.94,-43.7561],
[172.9601,-43.7607],
[172.9652,-43.8022],
[173.0017,-43.8675],
[173.0586,-43.8711],
[173.0916,-43.8564],
[173.1115,-43.8292],
[173.1144,-43.7414],
[173.103,-43.7004],
[173.0597,-43.6531],
[172.8998,-43.6203],
[172.7758,-43.6122],
[172.7268,-43.4194],
[172.7594,-43.2429],
[172.7722,-43.2197],
[172.818,-43.1608],
[172.9203,-43.1058],
[173.0968,-43.062],
[173.2855,-42.9581],
[173.3269,-42.9081],
[173.3516,-42.8408],
[173.4489,-42.6903],
[173.5586,-42.4878],
[173.7982,-42.2953],
[173.8739,-42.2498],
[173.9308,-42.1997],
[173.9564,-42.1664],
[173.9539,-42.1197],
[173.9797,-42.0611],
[174.0886,-41.9578],
[174.2068,-41.8704],
[174.2833,-41.7622],
[174.2894,-41.743],
[174.193,-41.6856],
[174.1602,-41.621],
[174.1768,-41.6035],
[174.1775,-41.5824],
[174.1202,-41.5189],
[174.1007,-41.5113],
[174.0841,-41.5261],
[174.0451,-41.4467],
[174.0509,-41.4244],
[174.1116,-41.3367],
[174.1516,-41.3068],
[174.2011,-41.3249],
[174.2386,-41.3262],
[174.2886,-41.2769],
[174.3239,-41.2215],
[174.2107,-41.2681],
[174.0539,-41.2542],
[174.0266,-41.2361],
[174.1571,-41.2261],
[174.21,-41.1975],
[174.3211,-41.0082],
[174.2994,-41.0036],
[174.2463,-41.0447],
[174.0893,-41.0224],
[174.0327,-40.9997],
[173.9001,-41.131],
[173.8873,-41.1599],
[173.8988,-41.1958],
[173.9894,-41.1969],
[174.0049,-41.1771],
[174.1305,-41.1798],
[174.0997,-41.1983],
[174.0372,-41.2183],
[173.8064,-41.2894],
[173.7758,-41.2897],
[173.7621,-41.2703],
[173.8205,-41.2458],
[173.8488,-41.1442],
[173.8875,-41.1033],
[173.9498,-41.0582],
[173.9308,-41.0494],
[173.8415,-41.054],
[173.8219,-41.0622],
[173.8222,-41.0808],
[173.7944,-41.1094],
[173.7786,-41.1144],
[173.7697,-41.0986],
[173.7804,-41.0124],
[173.8211,-40.9942],
[173.93,-40.9922],
[174.0281,-40.938],
[174.0253,-40.9158],
[173.9895,-40.8968],
[173.9133,-40.9317],
[173.8003,-40.9692],
[173.7514,-40.9769],
[173.6966,-41.0003],
[173.6762,-41.0197],
[173.6865,-41.0374],
[173.7383,-41.0186],
[173.744,-41.0283],
[173.74,-41.0472],
[173.7241,-41.0583],
[173.6397,-41.0736],
[173.6023,-41.0531],
[173.3772,-41.1781],
[173.2753,-41.2721],
[173.203,-41.31],
[173.1055,-41.3133],
[173.0777,-41.2943],
[173.0316,-41.0275],
[173.0579,-40.973],
[173.0511,-40.8694],
[173.0093,-40.7928],
[172.9809,-40.7815],
[172.9328,-40.7994],
[172.9072,-40.8289],
[172.8607,-40.8531],
[172.7014,-40.7483],
[172.6569,-40.6533],
[172.7358,-40.5183],
[172.7972,-40.5161],
[172.9882,-40.531],
[172.8614,-40.5078],
[172.7122,-40.4956],
[172.6302,-40.5106],
[172.5821,-40.555],
[172.6316,-40.56],
[172.6298,-40.5706],
[172.5963,-40.6014],
[172.5298,-40.6321],
[172.5201,-40.6282],
[172.5202,-40.6031],
[172.4783,-40.6139],
[172.3483,-40.7275],
[172.2714,-40.7706],
[172.2216,-40.7835],
[172.1107,-40.8847],
[172.1052,-41.1531],
[172.1222,-41.2778],
[172.065,-41.4036],
[172.0228,-41.4431],
[171.8867,-41.63],
[171.7905,-41.6964],
[171.6508,-41.7614],
[171.5108,-41.7645],
[171.3438,-42.1108],
[171.3044,-42.2967],
[171.2705,-42.355],
[171.2475,-42.375],
[171.2258,-42.4336],
[171.1517,-42.5604],
[170.7941,-42.9014],
[170.6743,-42.9587],
[170.5275,-43.0093],
[170.2883,-43.1078],
[170.0494,-43.3069],
[170.0253,-43.3501],
[169.8776,-43.4022],
[169.725,-43.5711],
[169.6605,-43.6019],
[169.4913,-43.6435],
[169.2244,-43.7433],
[169.1422,-43.7942],
[169.0808,-43.8485],
[168.9619,-43.9036],
[168.8625,-43.975],
[168.8244,-43.9883],
[168.7539,-44.01],
[168.7191,-44.0124],
[168.6806,-43.9955],
[168.3777,-44.0375],
[168.3362,-44.1002],
[168.3383,-44.1203],
[168.2911,-44.1701],
[168.1697,-44.2447],
[168.1241,-44.2514],
[168.1441,-44.2925],
[168.1432,-44.3044],
[168.128,-44.3169],
[168.035,-44.3536],
[167.9568,-44.3993],
[167.8446,-44.4933],
[167.743,-44.6117],
[167.5997,-44.6839],
[167.4547,-44.7879],
[167.4626,-44.8654],
[167.5111,-44.9869],
[167.5062,-45.0001],
[167.4597,-44.9947],
[167.4412,-44.939],
[167.4193,-44.9103],
[167.4003,-44.8629],
[167.3168,-44.8732],
[167.2015,-44.9536],
[166.9969,-45.1458],
[167.0022,-45.2011],
[167.0932,-45.2702],
[167.1946,-45.2714],
[167.304,-45.3165],
[167.3057,-45.3278],
[167.2603,-45.3358],
[167.2158,-45.3158],
[167.1142,-45.3103],
[167.0564,-45.3392],
[167.1155,-45.3722],
[167.158,-45.4067],
[167.2094,-45.4614],
[167.213,-45.4712],
[167.2052,-45.4778],
[167.1689,-45.4725],
[167.1469,-45.4272],
[167.0383,-45.3578],
[166.8748,-45.2794],
[166.8216,-45.3206],
[166.7575,-45.4253],
[166.6982,-45.5507],
[166.7075,-45.5769],
[166.7875,-45.5707],
[167.0414,-45.5014],
[167.0325,-45.5278],
[166.996,-45.5785],
[166.9129,-45.5909],
[166.8697,-45.5888],
[166.813,-45.6112],
[166.7758,-45.6628],
[166.7875,-45.69],
[166.8176,-45.718],
[166.8875,-45.705],
[166.9872,-45.7097],
[166.9741,-45.735],
[166.8861,-45.7789],
[166.7,-45.7989],
[166.5375,-45.7989],
[166.4738,-45.8146],
[166.4647,-45.8394]
]
],
[
[
[166.5065,-45.7174],
[166.6525,-45.7458],
[166.7164,-45.7417],
[166.7451,-45.7278],
[166.7533,-45.7019],
[166.75,-45.6697],
[166.7217,-45.6202],
[166.6166,-45.6275],
[166.5711,-45.641],
[166.5065,-45.7174]
]
],
[
[
[166.8911,-45.2461],
[166.9178,-45.2751],
[166.9978,-45.3108],
[167.03,-45.3006],
[167.0085,-45.2449],
[166.988,-45.2314],
[166.9651,-45.1606],
[166.9064,-45.2118],
[166.8911,-45.2461]
]
],
[
[
[167.5205,-47.2712],
[167.5364,-47.2794],
[167.6786,-47.2614],
[167.7062,-47.246],
[167.7193,-47.2126],
[167.6369,-47.2267],
[167.6198,-47.2233],
[167.693,-47.1722],
[167.7693,-47.141],
[167.7803,-47.1624],
[167.8851,-47.1904],
[167.9044,-47.1867],
[168.0014,-47.1243],
[168.0422,-47.1117],
[168.1019,-47.1067],
[168.1504,-47.1143],
[168.2177,-47.0725],
[168.2427,-47.0439],
[168.2594,-47.0033],
[168.2255,-46.9717],
[168.0483,-46.9358],
[168.1919,-46.9053],
[168.1829,-46.8665],
[168.0547,-46.7919],
[167.9986,-46.7178],
[167.9219,-46.6822],
[167.7983,-46.6883],
[167.7729,-46.7029],
[167.7575,-46.7564],
[167.7564,-46.8083],
[167.8022,-46.8628],
[167.8133,-46.9038],
[167.8091,-46.92],
[167.7402,-47.0025],
[167.53,-47.2012],
[167.5205,-47.2712]
]
],
[
[
[169.0017,-52.5115],
[169.0125,-52.5421],
[169.0283,-52.5592],
[169.1188,-52.5751],
[169.1855,-52.577],
[169.2262,-52.5653],
[169.2372,-52.5467],
[169.2169,-52.5283],
[169.208,-52.4442],
[169.1689,-52.4446],
[169.0017,-52.5115]
]
],
[
[
[172.7225,-34.4953],
[172.828,-34.5844],
[173.1591,-34.9583],
[173.1894,-35.0128],
[173.1986,-35.0511],
[173.1919,-35.1283],
[173.1662,-35.1764],
[173.1489,-35.1906],
[173.0954,-35.1856],
[173.0897,-35.2142],
[173.3818,-35.5247],
[173.3955,-35.4539],
[173.3914,-35.4231],
[173.4132,-35.3867],
[173.4397,-35.3761],
[173.5655,-35.3665],
[173.5669,-35.3442],
[173.5508,-35.3249],
[173.5497,-35.3028],
[173.5539,-35.2836],
[173.5641,-35.2781],
[173.6555,-35.3179],
[173.6299,-35.3567],
[173.5403,-35.4308],
[173.5042,-35.4225],
[173.4466,-35.4403],
[173.398,-35.5622],
[173.8261,-36.0325],
[174.0205,-36.2739],
[174.0676,-36.3971],
[174.0854,-36.4104],
[174.195,-36.3731],
[174.1994,-36.3481],
[174.1783,-36.2797],
[174.1244,-36.2636],
[173.9901,-36.1369],
[173.9214,-36.0031],
[173.9044,-35.8842],
[173.9111,-35.8721],
[173.9473,-35.9118],
[173.9311,-35.9819],
[173.9927,-36.1126],
[174.0658,-36.1683],
[174.2613,-36.2715],
[174.3136,-36.2403],
[174.2878,-36.2103],
[174.2312,-36.1822],
[174.1858,-36.1719],
[174.1953,-36.1311],
[174.2394,-36.1114],
[174.2789,-36.1197],
[174.3402,-36.2303],
[174.3716,-36.2097],
[174.3961,-36.1444],
[174.4422,-36.1697],
[174.3652,-36.26],
[174.3052,-36.2875],
[174.3415,-36.2985],
[174.3715,-36.2904],
[174.4133,-36.2631],
[174.5052,-36.2314],
[174.5193,-36.2533],
[174.5069,-36.2672],
[174.3729,-36.3313],
[174.3301,-36.3313],
[174.2981,-36.3162],
[174.2693,-36.3518],
[174.2811,-36.3765],
[174.3004,-36.3935],
[174.3865,-36.3976],
[174.4205,-36.3685],
[174.4425,-36.4147],
[174.4655,-36.5322],
[174.4547,-36.6479],
[174.4265,-36.6676],
[174.3693,-36.6308],
[174.2493,-36.4433],
[174.2009,-36.4282],
[174.1836,-36.44],
[174.1779,-36.4629],
[174.1877,-36.4969],
[174.2089,-36.5353],
[174.3011,-36.6272],
[174.4079,-36.7682],
[174.4278,-36.8128],
[174.4494,-36.9165],
[174.5002,-37.0347],
[174.5184,-37.0447],
[174.6005,-37.0222],
[174.6417,-36.9608],
[174.6861,-36.9408],
[174.7703,-36.9367],
[174.8234,-36.9422],
[174.8311,-36.9518],
[174.8044,-36.9722],
[174.7955,-37.0231],
[174.8875,-37.0592],
[174.8791,-37.0889],
[174.7201,-37.1522],
[174.7339,-37.1961],
[174.7039,-37.1978],
[174.6489,-37.0999],
[174.6637,-37.0759],
[174.6441,-37.0611],
[174.5623,-37.0631],
[174.5532,-37.0824],
[174.5783,-37.1156],
[174.7143,-37.3629],
[174.7358,-37.3653],
[174.753,-37.3338],
[174.8012,-37.2983],
[174.8407,-37.2942],
[174.7703,-37.374],
[174.7186,-37.3979],
[174.7175,-37.425],
[174.7642,-37.5278],
[174.8483,-37.7697],
[174.8662,-37.784],
[174.9069,-37.7742],
[174.9308,-37.7525],
[174.9707,-37.7404],
[174.9715,-37.8078],
[174.878,-37.8056],
[174.8232,-37.8272],
[174.7909,-37.857],
[174.7837,-37.9762],
[174.7947,-37.9956],
[174.8237,-37.9981],
[174.8347,-37.9636],
[174.8582,-37.9424],
[174.8683,-37.9436],
[174.893,-37.9732],
[174.8772,-38.0642],
[174.9402,-38.1011],
[174.9296,-38.1138],
[174.8522,-38.1556],
[174.7244,-38.1858],
[174.6086,-38.7631],
[174.5877,-38.8289],
[174.5461,-38.8719],
[174.4564,-38.9403],
[174.3887,-38.9758],
[174.3513,-38.9794],
[174.2872,-38.97],
[174.2091,-38.9772],
[174.0111,-39.0733],
[173.8372,-39.1421],
[173.7836,-39.1882],
[173.7516,-39.27],
[173.7622,-39.3547],
[173.791,-39.416],
[173.8108,-39.4375],
[173.9666,-39.5435],
[174.213,-39.5785],
[174.3125,-39.6121],
[174.3512,-39.6372],
[174.3761,-39.6786],
[174.4159,-39.7219],
[174.5519,-39.8226],
[174.7432,-39.8659],
[174.7908,-39.8547],
[174.9389,-39.9022],
[174.9741,-39.9208],
[175.0555,-39.9878],
[175.1555,-40.0958],
[175.2016,-40.1817],
[175.2314,-40.2808],
[175.238,-40.3297],
[175.1719,-40.6097],
[175.1277,-40.7136],
[175.015,-40.8486],
[174.9322,-40.9875],
[174.8444,-41.0417],
[174.7157,-41.1971],
[174.6669,-41.2297],
[174.6122,-41.2347],
[174.5924,-41.2731],
[174.6515,-41.3308],
[174.7447,-41.3475],
[174.8115,-41.335],
[174.8275,-41.3196],
[174.8262,-41.2924],
[174.7748,-41.2797],
[174.7762,-41.259],
[174.7875,-41.2444],
[174.823,-41.2204],
[174.8912,-41.2262],
[174.9019,-41.2547],
[174.8989,-41.2788],
[174.8627,-41.3439],
[174.868,-41.4259],
[174.9136,-41.4482],
[174.9434,-41.4344],
[174.9895,-41.3953],
[175.0493,-41.3786],
[175.1886,-41.4278],
[175.1934,-41.4419],
[175.1811,-41.5008],
[175.1833,-41.5276],
[175.2252,-41.6182],
[175.3182,-41.6154],
[175.4275,-41.5644],
[175.5577,-41.485],
[175.74,-41.3942],
[175.9847,-41.2314],
[176.0841,-41.1226],
[176.1208,-41.0136],
[176.1422,-40.9753],
[176.1728,-40.9522],
[176.2208,-40.9317],
[176.2391,-40.9089],
[176.2886,-40.7939],
[176.3523,-40.6911],
[176.3861,-40.675],
[176.5008,-40.535],
[176.6283,-40.4219],
[176.6441,-40.38],
[176.6872,-40.3214],
[176.8026,-40.2215],
[176.8341,-40.1817],
[176.894,-40.0865],
[176.8947,-40.0347],
[177.0219,-39.7714],
[177.0827,-39.73],
[177.1152,-39.6712],
[177.0108,-39.655],
[176.9466,-39.6644],
[176.8986,-39.4422],
[176.9039,-39.3981],
[176.9336,-39.3528],
[177.055,-39.2044],
[177.4261,-39.0642],
[177.6288,-39.0711],
[177.8211,-39.1039],
[177.8416,-39.1528],
[177.8246,-39.1868],
[177.8422,-39.2442],
[177.87,-39.2871],
[177.9044,-39.2622],
[177.9947,-39.1194],
[177.9677,-39.0983],
[177.923,-39.0892],
[177.9049,-39.0644],
[177.8939,-39.0648],
[177.9411,-38.7936],
[177.9289,-38.7222],
[178.0696,-38.7167],
[178.3005,-38.534],
[178.3208,-38.3986],
[178.3177,-38.2597],
[178.3539,-38.1856],
[178.378,-38.0943],
[178.3758,-38.0728],
[178.3473,-38.0154],
[178.3505,-38.0047],
[178.42,-37.8878],
[178.4833,-37.8264],
[178.564,-37.7167],
[178.5541,-37.6916],
[178.4948,-37.6462],
[178.4527,-37.646],
[178.3497,-37.6269],
[178.3211,-37.6025],
[178.3096,-37.576],
[178.2819,-37.5608],
[178.1877,-37.547],
[178.0604,-37.5425],
[178.018,-37.5508],
[178.0094,-37.5858],
[177.8719,-37.6529],
[177.7375,-37.6797],
[177.6013,-37.8753],
[177.5716,-37.9022],
[177.4736,-37.9625],
[177.4153,-37.9825],
[177.1594,-38.0133],
[177.0827,-37.9672],
[176.7841,-37.9003],
[176.6711,-37.8625],
[176.5497,-37.7933],
[176.5247,-37.7717],
[176.2675,-37.6764],
[176.2422,-37.7094],
[176.145,-37.6753],
[175.9944,-37.6389],
[175.9436,-37.5254],
[176.0209,-37.5271],
[176.0625,-37.5467],
[176.0905,-37.5767],
[176.0649,-37.5859],
[176.0825,-37.6025],
[176.1656,-37.621],
[176.0908,-37.5283],
[175.9761,-37.4531],
[175.9744,-37.4181],
[175.9364,-37.2789],
[175.925,-37.2555],
[175.8897,-37.2469],
[175.8837,-37.1729],
[175.9173,-37.0735],
[175.8798,-36.9181],
[175.8473,-36.8429],
[175.8126,-36.825],
[175.756,-36.8342],
[175.7511,-36.8546],
[175.7589,-36.8712],
[175.7398,-36.8926],
[175.7087,-36.8726],
[175.7016,-36.8442],
[175.7336,-36.8058],
[175.8408,-36.7542],
[175.7636,-36.7136],
[175.6311,-36.7106],
[175.6049,-36.6228],
[175.5404,-36.5174],
[175.3547,-36.485],
[175.3552,-36.5333],
[175.364,-36.559],
[175.4636,-36.6214],
[175.4864,-36.6797],
[175.5094,-36.7761],
[175.4669,-36.81],
[175.4352,-36.8669],
[175.4644,-36.9089],
[175.4986,-36.9272],
[175.5425,-36.9944],
[175.5891,-37.1694],
[175.5791,-37.2444],
[175.3853,-37.2258],
[175.3733,-37.2167],
[175.3184,-37.1483],
[175.3296,-37.0334],
[175.3219,-37.009],
[175.2783,-36.9653],
[175.2257,-36.9386],
[175.1617,-36.9556],
[175.0916,-36.9256],
[175.0808,-36.8944],
[175.0555,-36.8803],
[175.0162,-36.8728],
[174.8966,-36.8783],
[174.8083,-36.8053],
[174.7159,-36.5994],
[174.7082,-36.5375],
[174.7683,-36.3464],
[174.8127,-36.3392],
[174.7811,-36.2669],
[174.7089,-36.2056],
[174.6164,-36.1009],
[174.6293,-36.0704],
[174.6222,-36.0531],
[174.601,-36.0388],
[174.574,-36.0381],
[174.5142,-36.0086],
[174.4968,-35.9914],
[174.4872,-35.915],
[174.5228,-35.8529],
[174.4812,-35.8244],
[174.3903,-35.8258],
[174.383,-35.8479],
[174.358,-35.8472],
[174.3487,-35.8363],
[174.3486,-35.7347],
[174.3597,-35.7235],
[174.4911,-35.7694],
[174.5215,-35.7935],
[174.5579,-35.8456],
[174.5778,-35.8522],
[174.5977,-35.8475],
[174.5839,-35.7647],
[174.5207,-35.7268],
[174.4767,-35.6462],
[174.5666,-35.6499],
[174.5765,-35.608],
[174.3839,-35.3378],
[174.32,-35.2328],
[174.2477,-35.2786],
[174.218,-35.3222],
[174.1436,-35.3286],
[174.0972,-35.2271],
[174.0183,-35.225],
[174.0097,-35.2182],
[174.0219,-35.1642],
[174.0566,-35.1556],
[174.0976,-35.1636],
[174.1011,-35.1211],
[173.8391,-35.0042],
[173.5894,-34.9286],
[173.5714,-34.9328],
[173.5417,-34.9886],
[173.4933,-34.9953],
[173.4715,-34.9903],
[173.4293,-34.9606],
[173.401,-34.9101],
[173.4025,-34.8949],
[173.413,-34.8889],
[173.4406,-34.8897],
[173.498,-34.8688],
[173.4508,-34.8078],
[173.4261,-34.82],
[173.4008,-34.8633],
[173.3589,-34.9811],
[173.3175,-35.0189],
[173.2669,-35.0171],
[173.2594,-34.9789],
[173.2711,-34.9436],
[173.2427,-34.8847],
[173.1358,-34.8303],
[173.0555,-34.6729],
[172.973,-34.5811],
[172.9361,-34.5672],
[172.9105,-34.5469],
[172.9586,-34.4671],
[172.9841,-34.4728],
[173.0121,-34.5278],
[173.0353,-34.5234],
[173.0389,-34.4369],
[173.0208,-34.4222],
[172.9064,-34.4147],
[172.7391,-34.4356],
[172.7225,-34.4953]
]
],
[
[
[173.7824,-40.9199],
[173.8058,-40.9278],
[173.9234,-40.866],
[173.9594,-40.7951],
[173.9672,-40.7397],
[173.9632,-40.7139],
[173.8256,-40.7619],
[173.7991,-40.8797],
[173.7824,-40.9199]
]
],
[
[
[175.0049,-36.7978],
[175.0889,-36.8336],
[175.1671,-36.8315],
[175.1858,-36.8211],
[175.2121,-36.7565],
[175.1893,-36.7285],
[175.0139,-36.769],
[175.0049,-36.7978]
]
],
[
[
[175.3589,-36.2294],
[175.4643,-36.3206],
[175.5181,-36.3477],
[175.5425,-36.3506],
[175.5596,-36.3188],
[175.5294,-36.1786],
[175.4135,-36.0683],
[175.3823,-36.0675],
[175.3621,-36.0856],
[175.3589,-36.2294]
]
],
[
[
[178.7164,-49.6815],
[178.7202,-49.7087],
[178.7369,-49.7181],
[178.8177,-49.7204],
[178.8327,-49.6727],
[178.8384,-49.6283],
[178.8087,-49.6143],
[178.7786,-49.6272],
[178.7333,-49.6614],
[178.7164,-49.6815]
]
]
]}
}
