{
"type": "Feature",
"properties": {"id":"cshapes-771-1971-12-16","edge_precision":"unknown","cshapes_gwcode":771,"cshapes_name":"Bangladesh","cshapes_first_day":"1971-12-16","cshapes_last_day":"2019-12-31","cshapes_status":"independent","cshapes_owner":771,"cshapes_borders_defined":true},
"geometry": {"type": "MultiPolygon", "coordinates": [
[
[
[88.0439,24.6852],
[88.1126,24.5217],
[88.1304,24.5065],
[88.2844,24.4508],
[88.3655,24.4119],
[88.4627,24.3409],
[88.5072,24.3182],
[88.6522,24.2942],
[88.6687,24.31],
[88.7019,24.3062],
[88.7328,24.2611],
[88.7517,24.2164],
[88.74,24.187],
[88.7157,24.1801],
[88.7004,24.1485],
[88.7073,24.1217],
[88.701,24.0824],
[88.7546,24.0407],
[88.7347,23.9181],
[88.6018,23.8585],
[88.5769,23.7665],
[88.566,23.6467],
[88.5851,23.604],
[88.7569,23.4694],
[88.7863,23.4928],
[88.7864,23.4508],
[88.7392,23.3503],
[88.7125,23.311],
[88.7128,23.2723],
[88.7271,23.2471],
[88.8048,23.227],
[88.8278,23.2427],
[88.9828,23.2061],
[88.9158,23.1233],
[88.8748,23.0922],
[88.8631,22.9683],
[88.9293,22.8694],
[88.9933,22.3244],
[89.0072,22.2764],
[89.0732,22.1922],
[89.0941,22.1433],
[89.0592,22.1224],
[89.0575,22.0858],
[89.0591,22.0621],
[89.0896,22.0146],
[89.0789,21.8967],
[89.102,21.8094],
[89.1538,21.7856],
[89.19,21.7875],
[89.2167,21.7236],
[89.2075,21.6522],
[89.245,21.6428],
[89.293,21.6694],
[89.2958,21.7614],
[89.355,21.966],
[89.3847,21.8926],
[89.3816,21.8635],
[89.3675,21.8415],
[89.363,21.7694],
[89.3728,21.731],
[89.3926,21.7111],
[89.4182,21.7138],
[89.4628,21.7689],
[89.5167,21.9103],
[89.5194,21.9533],
[89.4877,22.0323],
[89.5189,22.0644],
[89.4621,22.2199],
[89.4747,22.2892],
[89.4958,22.2609],
[89.4872,22.1969],
[89.534,22.0639],
[89.5283,21.9907],
[89.5491,21.9967],
[89.5806,22.1196],
[89.5773,22.1415],
[89.5478,22.189],
[89.55,22.2103],
[89.6151,22.3196],
[89.6039,22.2572],
[89.598,22.0817],
[89.5682,21.8861],
[89.5262,21.8287],
[89.5217,21.8003],
[89.544,21.7321],
[89.5614,21.7093],
[89.5811,21.7017],
[89.6989,21.7839],
[89.8182,21.835],
[89.8837,21.8946],
[89.854,21.9487],
[89.8469,21.9818],
[89.8708,22.1019],
[89.8633,22.1807],
[89.8414,22.261],
[89.8478,22.2867],
[89.9094,22.3903],
[89.943,22.4336],
[90,22.4838],
[89.9725,22.4299],
[89.9128,22.3606],
[89.8741,22.2767],
[89.8759,22.2431],
[89.9147,22.1362],
[89.9158,22.0372],
[89.9339,21.9947],
[89.9587,21.9724],
[89.9819,21.9831],
[89.978,22.0268],
[90.0401,22.1412],
[90.0741,22.1589],
[90.0407,22.1276],
[89.9919,22.0253],
[90.0026,21.9942],
[90.0481,21.983],
[90.0647,21.9994],
[90.0953,22.0617],
[90.1487,22.1181],
[90.2384,22.1828],
[90.2194,22.1201],
[90.1625,22.1076],
[90.0928,22.0353],
[90.0299,21.9438],
[90.0233,21.8635],
[90.1155,21.8122],
[90.1628,21.8],
[90.2025,21.803],
[90.27,21.8469],
[90.2818,21.8687],
[90.3172,22.0022],
[90.3407,22.0474],
[90.3671,22.076],
[90.3964,22.1642],
[90.3885,22.2121],
[90.4014,22.2606],
[90.4058,22.1517],
[90.3903,22.1003],
[90.436,22.0731],
[90.4909,22.1439],
[90.4959,22.1722],
[90.5621,22.2068],
[90.6033,22.2744],
[90.6125,22.3028],
[90.6169,22.3711],
[90.5904,22.4324],
[90.6015,22.4718],
[90.5839,22.5275],
[90.4953,22.6944],
[90.4561,22.7494],
[90.4244,22.7702],
[90.4689,22.8797],
[90.4817,22.9647],
[90.4492,23.0436],
[90.453,23.0658],
[90.5589,23.0739],
[90.5786,23.09],
[90.5983,23.1179],
[90.6147,23.1894],
[90.6132,23.2183],
[90.6055,23.243],
[90.5667,23.2901],
[90.4986,23.2987],
[90.4265,23.325],
[90.3089,23.4144],
[90.3108,23.4358],
[90.548,23.3843],
[90.5747,23.4425],
[90.5778,23.5367],
[90.5076,23.551],
[90.4736,23.5758],
[90.5608,23.5867],
[90.5938,23.598],
[90.6085,23.5817],
[90.5873,23.5421],
[90.6002,23.4917],
[90.6664,23.5177],
[90.695,23.5152],
[90.6917,23.5514],
[90.7096,23.5497],
[90.716,23.5068],
[90.6948,23.4783],
[90.6404,23.4862],
[90.6023,23.4667],
[90.5937,23.3737],
[90.622,23.323],
[90.6412,23.1987],
[90.6246,23.0584],
[90.6797,22.9917],
[90.7226,22.924],
[90.7469,22.8661],
[90.7508,22.823],
[90.779,22.7612],
[90.8315,22.6883],
[90.946,22.5803],
[90.9653,22.5707],
[91.0419,22.5911],
[91.1187,22.5775],
[91.2307,22.5864],
[91.2594,22.6264],
[91.2546,22.6546],
[91.4558,22.79],
[91.5675,22.6742],
[91.7044,22.4805],
[91.7532,22.3771],
[91.7719,22.2587],
[91.8114,22.1936],
[91.8193,22.1453],
[91.833,22.1213],
[91.85,22.1094],
[91.9022,21.9228],
[91.9153,21.8628],
[91.9014,21.7744],
[91.9502,21.7916],
[91.9546,21.7558],
[91.9464,21.7335],
[91.9619,21.6801],
[91.9826,21.6508],
[92.0151,21.6724],
[92.0245,21.7036],
[92.0394,21.6603],
[92.0047,21.4961],
[91.9553,21.4505],
[92.048,21.285],
[92.048,21.165],
[92.123,21.0669],
[92.2075,20.9331],
[92.3005,20.7603],
[92.3271,20.7448],
[92.3303,20.7742],
[92.2608,20.9347],
[92.2561,21.0296],
[92.2619,21.0543],
[92.2329,21.1153],
[92.2149,21.1367],
[92.205,21.3006],
[92.2222,21.3581],
[92.2608,21.4144],
[92.3601,21.4724],
[92.3817,21.4721],
[92.5375,21.3781],
[92.5864,21.2626],
[92.6067,21.2523],
[92.6677,21.2952],
[92.618,21.47],
[92.6003,21.6342],
[92.5992,21.795],
[92.6205,21.8798],
[92.585,22.0661],
[92.5969,22.1756],
[92.5783,22.3222],
[92.5247,22.5522],
[92.5309,22.5817],
[92.5103,22.7265],
[92.477,22.7482],
[92.3755,22.9389],
[92.3498,23.2289],
[92.3872,23.2857],
[92.3233,23.4561],
[92.2998,23.5729],
[92.2894,23.6928],
[92.2733,23.7151],
[92.203,23.7067],
[92.1749,23.7368],
[92.0672,23.6504],
[92.0328,23.646],
[91.9586,23.7278],
[91.9384,23.6804],
[91.963,23.5628],
[91.9663,23.5056],
[91.9222,23.4421],
[91.8837,23.4347],
[91.845,23.4103],
[91.7701,23.2792],
[91.7682,23.2548],
[91.7953,23.195],
[91.8182,23.0903],
[91.7786,23.0369],
[91.725,22.9947],
[91.6115,22.9446],
[91.548,23.0007],
[91.4746,23.2203],
[91.4261,23.2619],
[91.4027,23.2659],
[91.3795,23.2193],
[91.3905,23.1328],
[91.405,23.0944],
[91.3994,23.0698],
[91.3747,23.0669],
[91.3443,23.0982],
[91.333,23.1246],
[91.2822,23.3733],
[91.2547,23.4517],
[91.2092,23.5107],
[91.1619,23.6315],
[91.1567,23.7257],
[91.1661,23.7452],
[91.2145,23.7559],
[91.2514,23.84],
[91.2371,23.9021],
[91.2685,23.9689],
[91.382,24.1051],
[91.4205,24.1094],
[91.479,24.0908],
[91.5463,24.0869],
[91.5936,24.0967],
[91.7519,24.1544],
[91.8826,24.1516],
[91.9064,24.1769],
[91.9313,24.2822],
[91.9212,24.3275],
[91.9466,24.3494],
[91.9807,24.3201],
[92.1172,24.39],
[92.1328,24.4097],
[92.1375,24.4372],
[92.1303,24.4907],
[92.1379,24.5225],
[92.1883,24.5624],
[92.2567,24.7739],
[92.2626,24.8037],
[92.2482,24.8517],
[92.2484,24.8946],
[92.2846,24.9064],
[92.3425,24.8825],
[92.3899,24.8489],
[92.4365,24.8493],
[92.4916,24.8775],
[92.4882,24.9178],
[92.4455,24.9594],
[92.4217,24.9668],
[92.4107,25.0196],
[92.3325,25.0794],
[92.1153,25.1708],
[92.0389,25.1875],
[91.7494,25.1672],
[91.7028,25.1516],
[91.4823,25.1389],
[91.3114,25.1828],
[91.2618,25.206],
[91.0726,25.1929],
[90.9672,25.1614],
[90.8411,25.1485],
[90.5296,25.1742],
[90.4475,25.1501],
[90.4125,25.1489],
[90.1691,25.2136],
[89.9661,25.2953],
[89.912,25.3089],
[89.8845,25.2935],
[89.8505,25.289],
[89.8331,25.3067],
[89.8163,25.366],
[89.8514,25.5155],
[89.863,25.6471],
[89.808,25.8224],
[89.849,25.9062],
[89.83,25.9992],
[89.7339,26.1563],
[89.6855,26.16],
[89.6493,26.1895],
[89.6342,26.2302],
[89.6017,26.2275],
[89.5621,26.1527],
[89.5953,26.0993],
[89.6024,26.069],
[89.5482,26.0156],
[89.5044,26.0056],
[89.3428,26.017],
[89.3199,26.0248],
[89.135,26.1537],
[89.1208,26.1784],
[89.0707,26.3853],
[88.9467,26.4427],
[88.9248,26.4249],
[88.9105,26.3923],
[88.9234,26.3576],
[88.9691,26.3388],
[89.044,26.2746],
[89.0205,26.2352],
[88.8571,26.2401],
[88.7358,26.2935],
[88.704,26.3333],
[88.6941,26.3919],
[88.6808,26.4203],
[88.6069,26.4708],
[88.5728,26.4653],
[88.4303,26.5543],
[88.4131,26.6261],
[88.375,26.5806],
[88.3356,26.483],
[88.3566,26.4545],
[88.3716,26.4855],
[88.4817,26.4603],
[88.5144,26.4064],
[88.5231,26.3673],
[88.4736,26.3572],
[88.3964,26.3253],
[88.3567,26.2825],
[88.3485,26.2201],
[88.1829,26.1506],
[88.1578,26.0975],
[88.0955,25.9153],
[88.1105,25.8356],
[88.144,25.7857],
[88.1634,25.7801],
[88.254,25.8149],
[88.2737,25.8062],
[88.4495,25.6593],
[88.4539,25.5897],
[88.5566,25.5047],
[88.6517,25.4894],
[88.7155,25.4886],
[88.7667,25.5178],
[88.7997,25.5106],
[88.8326,25.481],
[88.84,25.461],
[88.837,25.4266],
[88.8211,25.4044],
[88.8429,25.3647],
[88.874,25.3326],
[88.9338,25.3072],
[88.9917,25.3085],
[89.0087,25.2903],
[88.9395,25.167],
[88.705,25.1953],
[88.483,25.1997],
[88.4542,25.1884],
[88.4614,25.0746],
[88.3972,24.9397],
[88.3389,24.8687],
[88.2769,24.888],
[88.264,24.9129],
[88.2201,24.951],
[88.1411,24.9164],
[88.1623,24.8897],
[88.1668,24.8483],
[88.1367,24.82],
[88.0439,24.6852]
]
],
[
[
[90.4575,22.7649],
[90.4846,22.7557],
[90.5194,22.6858],
[90.5472,22.7194],
[90.5416,22.7832],
[90.6458,22.7925],
[90.6781,22.8079],
[90.6922,22.8378],
[90.6836,22.8539],
[90.6608,22.865],
[90.5878,22.8822],
[90.4699,22.8673],
[90.4575,22.7649]
]
],
[
[
[90.4794,22.0382],
[90.4974,22.0036],
[90.5182,21.9894],
[90.5437,22.0028],
[90.567,22.0434],
[90.6092,22.1575],
[90.5867,22.1535],
[90.49,22.0817],
[90.4794,22.0382]
]
],
[
[
[90.5512,22.6336],
[90.5569,22.6053],
[90.6071,22.5669],
[90.6428,22.5531],
[90.6655,22.5022],
[90.6847,22.3925],
[90.6833,22.3414],
[90.6764,22.2697],
[90.6571,22.2297],
[90.6239,22.1561],
[90.602,22.0317],
[90.6374,21.9926],
[90.6714,21.9872],
[90.7697,22.0701],
[90.8203,22.1358],
[90.8658,22.3185],
[90.8789,22.4367],
[90.8643,22.4938],
[90.7941,22.5539],
[90.7128,22.6519],
[90.6946,22.7339],
[90.6742,22.778],
[90.6507,22.7822],
[90.5869,22.7703],
[90.5747,22.7511],
[90.5512,22.6336]
]
],
[
[
[91.0312,22.0848],
[91.1379,22.1581],
[91.1607,22.1826],
[91.1729,22.2108],
[91.18,22.2906],
[91.1739,22.3211],
[91.1441,22.4092],
[91.0953,22.5178],
[91.0749,22.5139],
[91.0536,22.1842],
[91.0312,22.0848]
]
],
[
[
[91.404,22.5174],
[91.4068,22.4775],
[91.4807,22.3578],
[91.5064,22.3465],
[91.5297,22.3478],
[91.556,22.3646],
[91.5683,22.3941],
[91.5639,22.4206],
[91.5288,22.5028],
[91.46,22.6056],
[91.44,22.6216],
[91.404,22.5174]
]
],
[
[
[91.8449,21.6974],
[91.8544,21.5131],
[91.8735,21.4808],
[91.8921,21.4751],
[91.9594,21.5098],
[91.9794,21.5892],
[91.9805,21.6329],
[91.9472,21.683],
[91.9364,21.7342],
[91.884,21.755],
[91.8661,21.7478],
[91.8449,21.6974]
]
]
]}
}
