{
"type": "Feature",
"properties": {"id":"cshapes-490-1894-08-14","edge_precision":"unknown","cshapes_gwcode":490,"cshapes_name":"Congo, Democratic Republic of (Zaire)","cshapes_first_day":"1894-08-14","cshapes_last_day":"1908-10-17","cshapes_status":"colony","cshapes_owner":211,"cshapes_borders_defined":true},
"geometry": {"type": "MultiPolygon", "coordinates": [
[
[
[12.2146,-5.7686],
[12.235,-5.8129],
[12.265,-5.8647],
[12.4358,-6.0167],
[12.5247,-6.0069],
[12.6597,-5.9793],
[12.7142,-5.9508],
[12.7226,-5.9119],
[12.7582,-5.861],
[12.8979,-5.8119],
[12.9748,-5.8277],
[12.9981,-5.8433],
[13.1079,-5.8692],
[13.1789,-5.8563],
[13.245,-5.8614],
[13.4586,-5.8485],
[13.5133,-5.8542],
[13.541,-5.8648],
[13.7597,-5.8625],
[13.9733,-5.8364],
[13.9975,-5.8486],
[14.0803,-5.8664],
[14.2428,-5.8856],
[14.5964,-5.9081],
[14.7124,-5.8804],
[15.0764,-5.8628],
[15.6861,-5.8571],
[15.8126,-5.8697],
[16.2158,-5.8525],
[16.3683,-5.8531],
[16.5142,-5.8758],
[16.5797,-5.9008],
[16.5961,-5.9217],
[16.6061,-6.0272],
[16.7157,-6.1685],
[16.7252,-6.1974],
[16.6885,-6.405],
[16.7828,-6.6817],
[16.871,-6.8576],
[16.9031,-6.8639],
[16.93,-6.8922],
[16.9698,-7.0179],
[16.9579,-7.0676],
[16.935,-7.1125],
[16.9431,-7.199],
[16.9946,-7.2974],
[17.0647,-7.3392],
[17.0953,-7.379],
[17.1056,-7.4222],
[17.1511,-7.4528],
[17.2836,-7.6794],
[17.3094,-7.7561],
[17.3907,-7.8458],
[17.4197,-7.855],
[17.4383,-7.8767],
[17.5256,-8.0536],
[17.5527,-8.0819],
[17.6311,-8.0981],
[17.8897,-8.0424],
[17.9222,-8.0467],
[17.9528,-8.0615],
[18.0049,-8.1071],
[18.1154,-8.1071],
[18.1094,-8.0814],
[18.1126,-8.0286],
[18.1961,-7.9967],
[18.3297,-7.9975],
[18.4033,-8.0092],
[18.5256,-7.989],
[18.5192,-7.9576],
[18.5269,-7.9371],
[18.7661,-7.938],
[18.7731,-7.9724],
[18.7918,-7.999],
[19.3728,-7.9933],
[19.3493,-7.8932],
[19.3612,-7.8129],
[19.3875,-7.7632],
[19.4014,-7.6925],
[19.3725,-7.6011],
[19.375,-7.5793],
[19.4682,-7.569],
[19.5306,-7.4775],
[19.5283,-7.435],
[19.5022,-7.3697],
[19.4901,-7.2869],
[19.5029,-7.1524],
[19.5389,-6.9966],
[20.3114,-6.9947],
[20.3315,-6.9147],
[20.6297,-6.9139],
[20.616,-6.9728],
[20.5462,-7.1154],
[20.5335,-7.1806],
[20.5309,-7.2497],
[20.5487,-7.2836],
[21.7779,-7.2813],
[21.8128,-7.3119],
[21.84,-7.3678],
[21.8597,-7.4769],
[21.8511,-7.5917],
[21.8169,-7.6544],
[21.7737,-7.7735],
[21.749,-7.9357],
[21.7551,-8.0038],
[21.8039,-8.0535],
[21.8361,-8.1317],
[21.879,-8.2836],
[21.9064,-8.3378],
[21.9139,-8.3899],
[21.9365,-8.421],
[21.94,-8.4961],
[21.8528,-8.9339],
[21.8353,-9.0711],
[21.8414,-9.1542],
[21.8253,-9.3022],
[21.7915,-9.4114],
[21.8503,-9.6203],
[21.8747,-9.665],
[22.0232,-9.8497],
[22.0612,-9.8828],
[22.1321,-9.9019],
[22.1583,-9.9243],
[22.1754,-9.9625],
[22.2008,-10.0833],
[22.2072,-10.1542],
[22.3138,-10.375],
[22.2725,-10.5131],
[22.3033,-10.5831],
[22.3151,-10.7275],
[22.2522,-10.79],
[22.1901,-10.8257],
[22.1665,-10.8599],
[22.1944,-10.9672],
[22.244,-11.0683],
[22.2589,-11.1838],
[22.2539,-11.2097],
[22.2989,-11.2372],
[22.4808,-11.1306],
[22.5186,-11.0442],
[22.5675,-11.0336],
[22.5982,-11.0413],
[22.6661,-11.0811],
[22.7167,-11.0933],
[22.7751,-11.0915],
[22.8569,-11.0494],
[22.9068,-11.0649],
[22.9412,-11.0931],
[23.0881,-11.0964],
[23.217,-11.0766],
[23.3681,-10.9828],
[23.4219,-10.9632],
[23.4764,-10.9583],
[23.5431,-10.9669],
[23.6651,-11.0108],
[23.8586,-11.0272],
[23.8861,-11.0147],
[23.954,-10.9338],
[23.9901,-10.8699],
[24.0585,-10.8786],
[24.1319,-10.9167],
[24.1422,-10.9794],
[24.1856,-11.0296],
[24.3185,-11.0513],
[24.3768,-11.0886],
[24.3986,-11.1118],
[24.4165,-11.2166],
[24.41,-11.2801],
[24.366,-11.3499],
[24.3753,-11.4047],
[24.4492,-11.4626],
[24.5264,-11.4614],
[24.5842,-11.4378],
[24.6029,-11.4048],
[24.6928,-11.34],
[24.7397,-11.3171],
[24.9803,-11.265],
[25.1269,-11.2624],
[25.1893,-11.2524],
[25.3202,-11.1944],
[25.3444,-11.2053],
[25.345,-11.2781],
[25.3225,-11.3272],
[25.2916,-11.3656],
[25.3161,-11.5161],
[25.3636,-11.643],
[25.4983,-11.71],
[25.6922,-11.7675],
[25.8425,-11.8022],
[25.9835,-11.8957],
[26.0047,-11.9025],
[26.4367,-11.9104],
[26.5986,-11.9714],
[26.6781,-11.9892],
[26.874,-11.9717],
[26.9022,-11.9611],
[26.9599,-11.9146],
[26.9847,-11.8772],
[26.9944,-11.8357],
[26.9968,-11.7597],
[27.0331,-11.5969],
[27.209,-11.5765],
[27.2283,-11.6822],
[27.2311,-11.7758],
[27.2639,-11.8133],
[27.4539,-11.9369],
[27.4808,-11.9715],
[27.494,-12.0589],
[27.5386,-12.1775],
[27.5685,-12.2135],
[27.6233,-12.2453],
[27.6554,-12.2903],
[27.677,-12.3022],
[27.7974,-12.2978],
[27.8219,-12.2833],
[27.8382,-12.2598],
[27.8603,-12.2547],
[27.9144,-12.2775],
[28.0492,-12.3678],
[28.1636,-12.4294],
[28.2294,-12.4244],
[28.3465,-12.4404],
[28.4462,-12.5258],
[28.5306,-12.6568],
[28.5306,-12.6892],
[28.4951,-12.7282],
[28.4979,-12.755],
[28.5727,-12.8918],
[28.5974,-12.892],
[28.6371,-12.84],
[28.6735,-12.8406],
[28.743,-12.9087],
[28.9202,-13.1542],
[28.9506,-13.2508],
[28.958,-13.3311],
[28.9704,-13.3601],
[29.0187,-13.3985],
[29.0658,-13.3874],
[29.0981,-13.3892],
[29.1974,-13.4338],
[29.3083,-13.3731],
[29.4643,-13.3033],
[29.5451,-13.2347],
[29.5704,-13.2228],
[29.5947,-13.2235],
[29.6835,-13.2669],
[29.6819,-13.3002],
[29.651,-13.3164],
[29.6211,-13.3822],
[29.634,-13.4156],
[29.6546,-13.4347],
[29.7267,-13.4581],
[29.8017,-13.4497],
[29.8057,-12.1596],
[29.7703,-12.1542],
[29.5689,-12.1908],
[29.4735,-12.2491],
[29.4469,-12.3388],
[29.4896,-12.3935],
[29.5237,-12.3957],
[29.5276,-12.4253],
[29.5171,-12.4425],
[29.4761,-12.4585],
[29.4,-12.4339],
[29.261,-12.3654],
[29.1768,-12.369],
[29.1039,-12.3911],
[29.0271,-12.3769],
[29.025,-12.3558],
[29.0008,-12.3053],
[28.9354,-12.2006],
[28.8356,-12.0969],
[28.6976,-11.9882],
[28.6322,-11.9564],
[28.5003,-11.8706],
[28.4486,-11.7764],
[28.4449,-11.7242],
[28.4258,-11.6625],
[28.3953,-11.595],
[28.3654,-11.5556],
[28.3574,-11.5244],
[28.3667,-11.4344],
[28.4106,-11.3694],
[28.465,-11.2446],
[28.5536,-10.8328],
[28.6254,-10.715],
[28.6614,-10.7108],
[28.6987,-10.6519],
[28.6633,-10.5569],
[28.6335,-10.5192],
[28.595,-10.2461],
[28.6231,-10.1475],
[28.6258,-9.9478],
[28.6608,-9.8525],
[28.6956,-9.7958],
[28.5378,-9.4708],
[28.519,-9.359],
[28.4874,-9.3369],
[28.4289,-9.3229],
[28.3903,-9.3028],
[28.3722,-9.2792],
[28.3771,-9.2504],
[28.3976,-9.2275],
[28.5169,-9.1683],
[28.6225,-9.0939],
[28.7286,-8.9919],
[28.8683,-8.8269],
[28.9258,-8.7419],
[28.9619,-8.6647],
[28.9536,-8.5969],
[28.9307,-8.5294],
[28.9007,-8.4795],
[30.7682,-8.1937],
[30.7594,-8.145],
[30.7072,-7.995],
[30.6689,-7.915],
[30.5097,-7.6794],
[30.4558,-7.5803],
[30.4397,-7.53],
[30.4094,-7.3643],
[30.3544,-7.2203],
[30.315,-7.1438],
[30.1883,-6.9625],
[30.0677,-6.8486],
[30.0025,-6.8022],
[29.8854,-6.7508],
[29.7392,-6.6346],
[29.7039,-6.5864],
[29.6131,-6.3997],
[29.5503,-6.2953],
[29.4983,-6.0564],
[29.4978,-5.9797],
[29.5164,-5.9231],
[29.6087,-5.8072],
[29.63,-5.7549],
[29.6317,-5.7219],
[29.5975,-5.5792],
[29.5344,-5.4481],
[29.4761,-5.2367],
[29.4543,-5.1767],
[29.4033,-5.1014],
[29.3642,-4.9976],
[29.3479,-4.9304],
[29.3408,-4.8503],
[29.3478,-4.7633],
[29.4203,-4.5783],
[29.4297,-4.5451],
[29.4303,-4.5011],
[29.3975,-4.2958],
[29.3931,-4.1953],
[29.3783,-4.1336],
[29.3364,-4.0371],
[29.2386,-3.9208],
[29.2325,-3.885],
[29.2237,-3.7897],
[29.2469,-3.5944],
[29.2375,-3.4592],
[29.2083,-3.3117],
[29.2144,-3.2903],
[29.237,-3.2719],
[29.2178,-3.2501],
[29.2129,-3.1537],
[29.2406,-3.1178],
[29.2372,-3.0603],
[29.2156,-3.0217],
[29.1851,-3.0213],
[29.1486,-2.9961],
[28.9907,-2.8143],
[28.985,-2.7843],
[29.0001,-2.7567],
[29.0244,-2.7447],
[29.0171,-2.724],
[28.9759,-2.6942],
[28.931,-2.6843],
[28.9022,-2.66],
[28.8544,-2.5261],
[28.8674,-2.3987],
[28.8935,-2.3664],
[28.985,-2.3344],
[29.0978,-2.2685],
[29.1183,-2.2411],
[29.1664,-2.1332],
[29.1706,-2.0933],
[29.1281,-1.9489],
[29.1299,-1.851],
[29.1435,-1.8151],
[29.2708,-1.6264],
[29.362,-1.5109],
[29.4496,-1.5042],
[29.4953,-1.4496],
[29.5383,-1.4136],
[29.5969,-1.3858],
[29.6061,-1.3207],
[29.599,-1.2144],
[29.5743,-1.1875],
[29.5751,-0.9164],
[29.5844,-0.8957],
[29.6189,-0.8916],
[29.6331,-0.7878],
[29.6193,-0.7435],
[29.6347,-0.6414],
[29.6667,-0.5806],
[29.6486,-0.4397],
[29.709,-0.0744],
[29.7333,-0.0032],
[29.7182,0.0428],
[29.7186,0.0771],
[29.7805,0.1735],
[29.8069,0.1628],
[29.8583,0.3667],
[29.9599,0.4837],
[29.9558,0.5517],
[29.9387,0.6246],
[29.9475,0.7878],
[29.9671,0.8359],
[30.0361,0.8747],
[30.0864,0.8933],
[30.1312,0.8952],
[30.1556,0.9091],
[30.2174,0.9944],
[30.2137,1.065],
[30.2344,1.1308],
[30.2746,1.1671],
[30.3708,1.1983],
[30.4376,1.2022],
[30.4561,1.2128],
[30.6955,1.5],
[31.0367,1.7656],
[31.2137,1.9933],
[31.3028,2.1214],
[31.2992,2.1629],
[31.3609,2.255],
[31.3887,2.3485],
[31.4201,2.4085],
[31.4516,2.44],
[31.5201,2.55],
[31.5259,2.57],
[31.5287,2.6643],
[31.4973,2.71],
[31.4916,2.7557],
[31.4801,2.7786],
[31.4887,2.8157],
[31.5059,2.8471],
[31.5073,2.8714],
[31.4816,2.9228],
[31.4773,2.95],
[31.4859,3.0157],
[31.5601,3.1314],
[31.6444,3.2229],
[31.6859,3.2843],
[31.7202,3.3157],
[31.7087,3.3629],
[31.7344,3.3957],
[31.7544,3.4757],
[31.7887,3.5314],
[31.823,3.5557],
[31.8702,3.5586],
[31.8973,3.5714],
[32.0258,3.5914],
[32.0685,3.5822],
[32.0904,3.5361],
[32.1945,3.5128],
[32.1998,3.6097],
[32.232,3.6308],
[32.2127,3.6843],
[32.2127,3.7191],
[32.1396,3.7451],
[32.1137,3.8057],
[32.0809,3.8329],
[32.0394,3.89],
[31.9909,3.9214],
[31.9509,3.9872],
[31.8937,3.9786],
[31.8709,4.0157],
[31.8223,4.0586],
[31.7623,4.0843],
[31.7002,4.1872],
[31.6859,4.2772],
[31.6594,4.3443],
[31.6266,4.3929],
[31.6309,4.4386],
[31.6152,4.4572],
[31.6094,4.4815],
[31.6194,4.5379],
[31.6094,4.5886],
[31.6294,4.62],
[31.6244,4.6457],
[31.638,4.7172],
[31.6909,4.74],
[31.6994,4.7872],
[31.6952,4.8658],
[31.7394,4.9943],
[31.7637,5.0115],
[31.8023,5.11],
[31.8109,5.2858],
[31.7994,5.3315],
[31.8223,5.3315],
[31.8394,5.3415],
[31.8452,5.3872],
[31.8652,5.4329],
[31.8573,5.4972],
[31.8352,5.5301],
[31.8237,5.5772],
[31.3251,5.5929],
[31.2923,5.6015],
[31.1509,5.6072],
[30.8923,5.6115],
[30.7708,5.6272],
[30.4908,5.6172],
[30.4423,5.6243],
[30.2423,5.6186],
[29.978,5.6315],
[29.9837,5.4686],
[29.9751,5.3229],
[29.978,5.18],
[29.968,5.0872],
[29.9808,4.7829],
[29.9651,4.5157],
[29.9737,4.3543],
[29.9594,4.2914],
[29.8387,4.3469],
[29.7992,4.3753],
[29.7925,4.4331],
[29.8135,4.559],
[29.6147,4.6561],
[29.4942,4.6835],
[29.4678,4.6639],
[29.4642,4.5919],
[29.4328,4.5256],
[29.325,4.39],
[29.2436,4.3461],
[29.2103,4.3421],
[29.1314,4.4122],
[29.0115,4.497],
[28.9772,4.4838],
[28.8903,4.4778],
[28.8274,4.4827],
[28.8029,4.4971],
[28.8036,4.5191],
[28.7825,4.5574],
[28.7125,4.5375],
[28.6525,4.4254],
[28.5058,4.3731],
[28.4772,4.3308],
[28.3631,4.29],
[28.2011,4.3478],
[28.0844,4.4328],
[28.0281,4.5022],
[27.9297,4.5511],
[27.8653,4.5571],
[27.7894,4.6001],
[27.7717,4.6661],
[27.7829,4.7575],
[27.7689,4.7878],
[27.6602,4.8962],
[27.5244,4.9436],
[27.4552,5.0211],
[27.4246,5.0697],
[27.4024,5.0846],
[27.1421,5.195],
[27.0667,5.2011],
[26.9415,5.1436],
[26.9083,5.1031],
[26.8694,5.031],
[26.7931,5.0581],
[26.7584,5.0876],
[26.7156,5.0925],
[26.5208,5.0419],
[26.4627,5.0592],
[26.4461,5.0882],
[26.3939,5.1328],
[26.1975,5.2328],
[26.1275,5.2492],
[26.0896,5.2067],
[26.0656,5.1975],
[25.9114,5.1786],
[25.8156,5.2364],
[25.7156,5.2831],
[25.6356,5.3053],
[25.5846,5.3649],
[25.5401,5.3807],
[25.3619,5.3147],
[25.3122,5.1961],
[25.3104,5.1753],
[25.3286,5.1532],
[25.3487,5.1428],
[25.3436,5.1117],
[25.3162,5.0415],
[25.29,5.025],
[25.0897,4.9736],
[24.9508,4.9858],
[24.8183,4.9389],
[24.7778,4.9153],
[24.7344,4.9108],
[24.6428,4.9731],
[24.605,5.022],
[24.5256,5.0772],
[24.4594,5.1054],
[24.3873,5.1122],
[24.3574,5.057],
[24.3979,5.0353],
[24.3675,5.0089],
[24.0631,4.9017],
[23.8886,4.8239],
[23.8267,4.8194],
[23.5797,4.7324],
[23.4397,4.6505],
[23.4245,4.5937],
[23.3825,4.5881],
[23.3259,4.6001],
[23.2119,4.6819],
[23.0988,4.7075],
[23.0168,4.7496],
[22.9707,4.8312],
[22.8933,4.8201],
[22.8476,4.7231],
[22.7803,4.7124],
[22.6837,4.4799],
[22.6287,4.4872],
[22.5993,4.4743],
[22.5881,4.4533],
[22.5872,4.4117],
[22.5703,4.3319],
[22.5383,4.2192],
[22.4536,4.1446],
[22.3865,4.1283],
[22.2856,4.1294],
[22.1931,4.1556],
[22.0975,4.2158],
[22.0374,4.2253],
[21.9869,4.2464],
[21.8308,4.2653],
[21.7367,4.2957],
[21.6551,4.2992],
[21.5483,4.2462],
[21.2086,4.2889],
[21.1637,4.3056],
[21.1033,4.3503],
[21.0779,4.3892],
[20.9699,4.4325],
[20.8356,4.4489],
[20.5998,4.408],
[20.5719,4.4175],
[20.453,4.5231],
[20.458,4.6193],
[20.3393,4.7675],
[20.0021,4.9772],
[19.9014,4.9951],
[19.8804,5.0117],
[19.8414,5.0845],
[19.7005,5.1367],
[19.6493,5.1428],
[19.5572,5.1506],
[19.4159,5.131],
[19.2279,4.9999],
[19.1854,4.9442],
[19.1064,4.9325],
[19.0854,4.9147],
[19.0642,4.8897],
[18.9879,4.7406],
[18.8394,4.5778],
[18.7939,4.4603],
[18.7517,4.3906],
[18.7075,4.3672],
[18.6287,4.3542],
[18.591,4.3701],
[18.5672,4.3618],
[18.5444,4.34],
[18.5358,4.3117],
[18.5437,4.2883],
[18.5925,4.2287],
[18.6303,4.1347],
[18.6471,4.0275],
[18.6482,3.9931],
[18.6106,3.8669],
[18.5907,3.7258],
[18.6324,3.4536],
[18.6436,3.3185],
[18.6418,3.2075],
[18.6158,3.1381],
[18.5408,3.0763],
[18.3428,2.6128],
[18.3172,2.5775],
[18.2371,2.5217],
[18.2274,2.4906],
[18.2237,2.416],
[18.1625,2.3274],
[18.1106,2.2806],
[18.0919,2.2224],
[18.0725,2.0364],
[18.0653,1.875],
[18.0778,1.7289],
[18.0703,1.5289],
[17.9789,1.2456],
[17.9387,1.1396],
[17.885,1.0531],
[17.8736,0.9924],
[17.9076,0.7964],
[17.9037,0.7424],
[17.8896,0.6875],
[17.895,0.6],
[17.9665,0.475],
[17.9611,0.3997],
[17.9458,0.3428],
[17.8397,0.2189],
[17.8019,0.1436],
[17.7703,0.0183],
[17.7157,-0.1421],
[17.71,-0.2269],
[17.7424,-0.3392],
[17.7458,-0.3764],
[17.7122,-0.5447],
[17.6818,-0.6038],
[17.6186,-0.6951],
[17.5489,-0.7797],
[17.3978,-0.9411],
[17.3231,-1.0042],
[17.2712,-1.0344],
[17.1592,-1.0542],
[17.1219,-1.0683],
[16.9681,-1.1539],
[16.8619,-1.2544],
[16.8015,-1.3244],
[16.7506,-1.4111],
[16.7111,-1.4889],
[16.6568,-1.64],
[16.5136,-1.8825],
[16.3675,-2.0239],
[16.2439,-2.1132],
[16.194,-2.181],
[16.1839,-2.3069],
[16.1881,-2.3946],
[16.2157,-2.5272],
[16.214,-2.7021],
[16.1822,-2.9117],
[16.1958,-3.0006],
[16.1886,-3.1333],
[16.1969,-3.2639],
[16.2186,-3.2835],
[16.2269,-3.3283],
[16.1058,-3.5608],
[16.0583,-3.6068],
[15.9244,-3.885],
[15.8854,-3.9471],
[15.8358,-3.9718],
[15.6919,-3.9956],
[15.5644,-4.0392],
[15.5353,-4.0582],
[15.4845,-4.1467],
[15.4858,-4.2176],
[15.4514,-4.2729],
[15.4158,-4.2957],
[15.3303,-4.2778],
[15.2181,-4.334],
[15.1964,-4.3539],
[15.0925,-4.5021],
[15.0154,-4.5593],
[14.9108,-4.6694],
[14.832,-4.819],
[14.6693,-4.9072],
[14.6387,-4.9072],
[14.5862,-4.8849],
[14.5628,-4.8618],
[14.4883,-4.8409],
[14.4167,-4.8806],
[14.4117,-4.8272],
[14.4189,-4.7564],
[14.3673,-4.5551],
[14.3935,-4.5246],
[14.4464,-4.4883],
[14.4767,-4.4564],
[14.4871,-4.4293],
[14.4058,-4.2828],
[14.3722,-4.2833],
[14.3014,-4.3083],
[14.0083,-4.4533],
[13.9603,-4.4949],
[13.9055,-4.4894],
[13.8501,-4.4392],
[13.8153,-4.4219],
[13.7831,-4.4239],
[13.7303,-4.4483],
[13.7394,-4.5622],
[13.6996,-4.7258],
[13.6003,-4.7817],
[13.579,-4.7791],
[13.5435,-4.7531],
[13.5035,-4.7752],
[13.5148,-4.7932],
[13.4121,-4.8828],
[13.1931,-4.6819],
[13.1757,-4.631],
[13.1419,-4.5857],
[13.1194,-4.5736],
[13.0952,-4.579],
[13.0776,-4.6699],
[13.0422,-4.6685],
[12.8567,-4.7151],
[12.8206,-4.7375],
[12.7122,-4.8781],
[12.7095,-4.9074],
[12.5722,-5.0218],
[12.5322,-5.1158],
[12.5267,-5.7242],
[12.2746,-5.7367],
[12.2146,-5.7686]
]
]
]}
}
