{
"type": "Feature",
"properties": {"id":"cshapes-552-1891-06-11","edge_precision":"unknown","cshapes_gwcode":552,"cshapes_name":"Zimbabwe (Rhodesia)","cshapes_first_day":"1891-06-11","cshapes_last_day":"1900-01-28","cshapes_status":"colony","cshapes_owner":200,"cshapes_borders_defined":true},
"geometry": {"type": "MultiPolygon", "coordinates": [
[
[
[22.8257,-15.2486],
[22.8818,-15.395],
[22.9233,-15.4072],
[22.9599,-15.4682],
[22.9575,-15.5536],
[22.9941,-15.5658],
[23.0282,-15.5219],
[23.0648,-15.5292],
[23.0429,-15.5658],
[23.038,-15.6244],
[23.0648,-15.6],
[23.1429,-15.639],
[23.1356,-15.6878],
[23.0965,-15.6927],
[23.0453,-15.761],
[23.0819,-15.7903],
[23.1136,-15.8391],
[23.1063,-15.9172],
[23.1185,-15.9538],
[23.1039,-16.088],
[23.1112,-16.1856],
[23.1283,-16.2222],
[23.1697,-16.2832],
[23.2161,-16.3149],
[23.2429,-16.3783],
[23.382,-16.4942],
[23.4003,-16.5369],
[23.4247,-16.5638],
[23.515,-16.615],
[23.5613,-16.6772],
[23.5882,-16.6882],
[23.6663,-16.7773],
[23.7626,-16.8541],
[23.7931,-16.8919],
[23.8249,-17.2091],
[23.8639,-17.2994],
[23.9737,-17.3555],
[24.0298,-17.3653],
[24.0567,-17.4019],
[24.064,-17.4531],
[24.1055,-17.4702],
[24.1376,-17.4983],
[24.2391,-17.4784],
[24.3812,-17.4735],
[24.4401,-17.4824],
[24.5654,-17.5335],
[24.5903,-17.5339],
[24.6192,-17.5058],
[24.6639,-17.4936],
[24.8178,-17.5156],
[24.97,-17.5597],
[24.9843,-17.5839],
[25.0653,-17.6247],
[25.2595,-17.7961],
[25.2418,-17.8551],
[25.2414,-17.9244],
[25.2756,-18.0054],
[25.3174,-18.0749],
[25.3965,-18.1279],
[25.4794,-18.2744],
[25.5264,-18.3975],
[25.7189,-18.5914],
[25.8703,-18.844],
[25.9406,-18.8932],
[25.9561,-18.9136],
[25.9767,-18.9528],
[25.9868,-18.9932],
[25.9642,-19.0617],
[25.9644,-19.1048],
[26.0222,-19.1878],
[26.1518,-19.5065],
[26.1694,-19.5299],
[26.2435,-19.5721],
[26.3567,-19.6169],
[26.4044,-19.6758],
[26.5901,-19.8013],
[26.6109,-19.8528],
[26.6353,-19.8657],
[26.6958,-19.8779],
[26.7285,-19.9288],
[26.979,-20.0113],
[27.0792,-20.0267],
[27.2136,-20.0874],
[27.2328,-20.1091],
[27.2906,-20.2417],
[27.2989,-20.3115],
[27.2907,-20.4921],
[27.3574,-20.4658],
[27.5164,-20.4764],
[27.6107,-20.4713],
[27.6919,-20.4892],
[27.7156,-20.5102],
[27.7264,-20.5489],
[27.7308,-20.7483],
[27.7269,-20.7919],
[27.71,-20.8439],
[27.694,-20.8649],
[27.6867,-21.0712],
[27.7475,-21.1518],
[27.78,-21.1692],
[27.843,-21.2247],
[27.8997,-21.3086],
[27.9704,-21.4404],
[28.0143,-21.5637],
[28.0487,-21.5763],
[28.1619,-21.5936],
[28.2383,-21.5956],
[28.2805,-21.5878],
[28.3506,-21.6025],
[28.4625,-21.6546],
[28.5065,-21.6606],
[28.568,-21.6323],
[28.6462,-21.6496],
[28.8635,-21.7518],
[28.9251,-21.7697],
[28.9871,-21.7706],
[29.0725,-21.8094],
[29.075,-21.8335],
[29.0449,-21.8776],
[29.0326,-21.943],
[29.0464,-21.9945],
[29.0758,-22.0394],
[29.1483,-22.0744],
[29.1814,-22.0808],
[29.2487,-22.0701],
[29.2678,-22.0778],
[29.3736,-22.1924],
[29.4446,-22.1646],
[29.67,-22.1364],
[29.7261,-22.1392],
[29.9027,-22.1946],
[29.939,-22.1913],
[30.0311,-22.2378],
[30.301,-22.3444],
[30.4167,-22.3357],
[30.4862,-22.3118],
[30.6368,-22.3297],
[30.7811,-22.2933],
[30.9043,-22.2893],
[31.0647,-22.3336],
[31.0932,-22.3361],
[31.1224,-22.3253],
[31.1575,-22.3235],
[31.2656,-22.3704],
[31.3021,-22.4186],
[31.4004,-22.3472],
[32.4101,-21.3128],
[32.4708,-21.3234],
[32.3606,-21.1356],
[32.3761,-21.1061],
[32.4808,-20.9922],
[32.5214,-20.9142],
[32.5008,-20.8194],
[32.4842,-20.6703],
[32.5022,-20.5986],
[32.5508,-20.555],
[32.6658,-20.5572],
[32.8739,-20.274],
[32.9042,-20.1242],
[32.9828,-20.0222],
[33.0189,-19.9433],
[33.0594,-19.7803],
[32.9847,-19.6872],
[32.8506,-19.6178],
[32.8518,-19.5],
[32.8402,-19.4756],
[32.7854,-19.4671],
[32.7928,-19.3624],
[32.855,-19.2742],
[32.8849,-19.1053],
[32.834,-19.0231],
[32.7397,-19.0258],
[32.7145,-19.018],
[32.6994,-18.9479],
[32.7042,-18.8331],
[32.7903,-18.7889],
[32.8322,-18.7783],
[32.8931,-18.7911],
[32.9203,-18.7767],
[32.9497,-18.6903],
[32.8894,-18.5714],
[32.8883,-18.5306],
[32.9962,-18.4815],
[33.0206,-18.4597],
[33.0716,-18.3497],
[32.9741,-18.2501],
[32.9993,-18.1877],
[32.9881,-18.1222],
[32.9547,-18.0417],
[32.9461,-17.975],
[32.9524,-17.8808],
[32.975,-17.8176],
[33.015,-17.7453],
[33.0424,-17.6293],
[33.0408,-17.6],
[33.0285,-17.5781],
[32.9783,-17.5574],
[32.9565,-17.5055],
[33.0398,-17.3487],
[32.9938,-17.3081],
[32.9872,-17.2278],
[32.9683,-17.1475],
[32.9175,-17.0547],
[32.865,-16.9186],
[32.9386,-16.8422],
[32.9669,-16.7753],
[32.9811,-16.7091],
[32.9305,-16.7027],
[32.7675,-16.718],
[32.7281,-16.6936],
[32.7074,-16.6117],
[32.58,-16.5458],
[32.3778,-16.47],
[32.2547,-16.4403],
[32.0556,-16.4485],
[31.9112,-16.4127],
[31.903,-16.3655],
[31.7151,-16.2106],
[31.6622,-16.1986],
[31.5562,-16.195],
[31.4262,-16.1624],
[31.3437,-16.0933],
[31.3421,-16.0728],
[31.3119,-16.0325],
[31.2767,-16.0186],
[31.1489,-15.9947],
[31.0711,-16.0153],
[30.8208,-16.0044],
[30.4224,-16.0056],
[30.4163,-15.6358],
[30.3967,-15.5936],
[30.3881,-15.4789],
[30.3611,-15.3374],
[30.2715,-15.2578],
[30.2525,-15.2161],
[30.2192,-15.0961],
[30.213,-14.9817],
[30.3436,-14.9678],
[30.5047,-14.8847],
[30.8081,-14.7781],
[31.0458,-14.7164],
[31.1164,-14.7083],
[31.4847,-14.6197],
[31.7008,-14.5021],
[31.8356,-14.4728],
[31.9508,-14.4236],
[32.0947,-14.3772],
[32.3728,-14.3083],
[33.2222,-14.0126],
[33.2045,-13.9972],
[33.1667,-13.9269],
[33.0789,-13.9811],
[32.99,-13.9347],
[32.8992,-13.82],
[32.8308,-13.7042],
[32.781,-13.6388],
[32.7542,-13.6419],
[32.71,-13.6314],
[32.6819,-13.6128],
[32.6955,-13.566],
[32.7533,-13.5639],
[32.8317,-13.5286],
[32.9187,-13.3893],
[32.9775,-13.2292],
[32.9928,-13.0369],
[33.0349,-12.9138],
[33.0267,-12.8858],
[32.9724,-12.8531],
[32.962,-12.758],
[33.0464,-12.6039],
[33.069,-12.5853],
[33.2381,-12.5858],
[33.364,-12.5404],
[33.4796,-12.4396],
[33.4764,-12.4128],
[33.5418,-12.3642],
[33.5458,-12.3358],
[33.4797,-12.3144],
[33.4103,-12.3419],
[33.3896,-12.3401],
[33.3689,-12.3263],
[33.2714,-12.1299],
[33.28,-12.0572],
[33.3124,-12.0001],
[33.3322,-11.8972],
[33.3308,-11.7447],
[33.3246,-11.6131],
[33.3087,-11.5825],
[33.2704,-11.5708],
[33.2542,-11.5203],
[33.2495,-11.411],
[33.2931,-11.3681],
[33.3394,-11.3003],
[33.3911,-11.2156],
[33.4104,-11.1632],
[33.3844,-11.1131],
[33.3498,-11.08],
[33.2504,-10.8921],
[33.2626,-10.8637],
[33.3442,-10.8139],
[33.3969,-10.7986],
[33.4609,-10.8036],
[33.5108,-10.7756],
[33.5418,-10.7436],
[33.547,-10.7129],
[33.6047,-10.6478],
[33.6804,-10.5963],
[33.6991,-10.5693],
[33.5675,-10.3925],
[33.5449,-10.3319],
[33.5458,-10.2964],
[33.5603,-10.2449],
[33.5571,-10.2238],
[33.4617,-10.1653],
[33.326,-10.064],
[33.3308,-9.9936],
[33.3594,-9.9331],
[33.3225,-9.8111],
[33.2386,-9.7314],
[33.2246,-9.7053],
[33.2342,-9.6556],
[33.2292,-9.6342],
[33.2069,-9.6025],
[33.135,-9.5981],
[33.1092,-9.625],
[33.0722,-9.6317],
[33.0188,-9.6313],
[33.0001,-9.6218],
[32.9471,-9.4774],
[32.9406,-9.4093],
[32.9153,-9.3903],
[32.8442,-9.3739],
[32.7678,-9.3325],
[32.7028,-9.2822],
[32.5401,-9.2612],
[32.5055,-9.2173],
[32.4907,-9.1767],
[32.4212,-9.129],
[32.2586,-9.1333],
[32.2214,-9.1203],
[32.1603,-9.0644],
[32.0907,-9.0553],
[32.0587,-9.0415],
[32.0299,-9.0463],
[32.0026,-9.0683],
[31.9817,-9.0706],
[31.9393,-9.0313],
[31.9328,-9.0097],
[31.9318,-8.9739],
[31.9521,-8.9363],
[31.8978,-8.9142],
[31.7874,-8.8877],
[31.7412,-8.9128],
[31.7064,-8.9171],
[31.6836,-8.9089],
[31.574,-8.8178],
[31.5639,-8.7514],
[31.4856,-8.6664],
[31.4147,-8.6336],
[31.2956,-8.62],
[31.2268,-8.5797],
[31.2028,-8.5789],
[31.1423,-8.6128],
[31.1104,-8.6139],
[31.0326,-8.585],
[30.9769,-8.5475],
[30.9075,-8.4678],
[30.8358,-8.3529],
[30.7682,-8.1937],
[28.9007,-8.4795],
[28.9307,-8.5294],
[28.9536,-8.5969],
[28.9619,-8.6647],
[28.9258,-8.7419],
[28.8683,-8.8269],
[28.7286,-8.9919],
[28.6225,-9.0939],
[28.5169,-9.1683],
[28.3976,-9.2275],
[28.3771,-9.2504],
[28.3722,-9.2792],
[28.3903,-9.3028],
[28.4289,-9.3229],
[28.4874,-9.3369],
[28.519,-9.359],
[28.5378,-9.4708],
[28.6956,-9.7958],
[28.6608,-9.8525],
[28.6258,-9.9478],
[28.6231,-10.1475],
[28.595,-10.2461],
[28.6335,-10.5192],
[28.6633,-10.5569],
[28.6987,-10.6519],
[28.6614,-10.7108],
[28.6254,-10.715],
[28.5536,-10.8328],
[28.4711,-11.2231],
[28.4106,-11.3694],
[28.3667,-11.4344],
[28.3574,-11.5244],
[28.3654,-11.5556],
[28.3953,-11.595],
[28.4258,-11.6625],
[28.4449,-11.7242],
[28.4486,-11.7764],
[28.5003,-11.8706],
[28.6322,-11.9564],
[28.6976,-11.9882],
[28.8356,-12.0969],
[28.9354,-12.2006],
[29.0008,-12.3053],
[29.025,-12.3558],
[29.0271,-12.3769],
[29.1039,-12.3911],
[29.1768,-12.369],
[29.261,-12.3654],
[29.4,-12.4339],
[29.4761,-12.4585],
[29.5171,-12.4425],
[29.5276,-12.4253],
[29.5237,-12.3957],
[29.4896,-12.3935],
[29.4469,-12.3388],
[29.4735,-12.2491],
[29.5689,-12.1908],
[29.7703,-12.1542],
[29.8057,-12.1596],
[29.8017,-13.4497],
[29.7267,-13.4581],
[29.6546,-13.4347],
[29.634,-13.4156],
[29.6211,-13.3822],
[29.651,-13.3164],
[29.6819,-13.3002],
[29.6835,-13.2669],
[29.5947,-13.2235],
[29.5704,-13.2228],
[29.5451,-13.2347],
[29.4643,-13.3033],
[29.3083,-13.3731],
[29.1974,-13.4338],
[29.0981,-13.3892],
[29.0658,-13.3874],
[29.0187,-13.3985],
[28.9704,-13.3601],
[28.958,-13.3311],
[28.9506,-13.2508],
[28.9202,-13.1542],
[28.743,-12.9087],
[28.6735,-12.8406],
[28.6371,-12.84],
[28.5974,-12.892],
[28.5727,-12.8918],
[28.4979,-12.755],
[28.4951,-12.7282],
[28.5306,-12.6892],
[28.5306,-12.6568],
[28.4462,-12.5258],
[28.3465,-12.4404],
[28.2294,-12.4244],
[28.1636,-12.4294],
[28.0492,-12.3678],
[27.9144,-12.2775],
[27.8603,-12.2547],
[27.8382,-12.2598],
[27.8219,-12.2833],
[27.7974,-12.2978],
[27.677,-12.3022],
[27.6554,-12.2903],
[27.6233,-12.2453],
[27.5685,-12.2135],
[27.5386,-12.1775],
[27.494,-12.0589],
[27.4808,-11.9715],
[27.4539,-11.9369],
[27.2639,-11.8133],
[27.2311,-11.7758],
[27.2283,-11.6822],
[27.209,-11.5765],
[27.0331,-11.5969],
[26.9968,-11.7597],
[26.9944,-11.8357],
[26.9847,-11.8772],
[26.9599,-11.9146],
[26.9022,-11.9611],
[26.874,-11.9717],
[26.6781,-11.9892],
[26.5986,-11.9714],
[26.4367,-11.9104],
[26.0047,-11.9025],
[25.9835,-11.8957],
[25.8425,-11.8022],
[25.6922,-11.7675],
[25.4983,-11.71],
[25.3636,-11.643],
[25.3161,-11.5161],
[25.2916,-11.3656],
[25.3225,-11.3272],
[25.345,-11.2781],
[25.3444,-11.2053],
[25.3202,-11.1944],
[25.1893,-11.2524],
[25.1269,-11.2624],
[25.0381,-11.2617],
[25.0314,-11.4436],
[25.1436,-11.6876],
[25.2266,-12.0145],
[25.1876,-12.1024],
[25.1632,-12.1853],
[25.2217,-12.5171],
[25.3584,-12.6855],
[25.3169,-12.6928],
[25.2778,-12.6879],
[25.2412,-12.666],
[25.1754,-12.5513],
[25.1266,-12.5074],
[25.068,-12.4805],
[25.0216,-12.4805],
[25.0119,-12.5025],
[24.9728,-12.5123],
[24.9631,-12.5611],
[24.9045,-12.6611],
[24.9387,-12.727],
[24.9362,-12.7977],
[24.9631,-12.8343],
[24.9606,-12.8831],
[24.924,-12.9246],
[24.8557,-12.9685],
[24.8021,-12.9881],
[24.7362,-13.0417],
[24.6825,-13.1027],
[24.6264,-13.1784],
[24.5727,-13.3174],
[24.5166,-13.4224],
[24.4629,-13.459],
[24.3873,-13.4638],
[24.3433,-13.498],
[24.2945,-13.5126],
[24.275,-13.5712],
[24.2384,-13.6395],
[24.1896,-13.6908],
[24.1335,-13.7249],
[24.114,-13.7835],
[24.0066,-13.925],
[23.8578,-13.9543],
[23.6431,-13.964],
[23.587,-13.9787],
[23.4528,-14.0933],
[23.3918,-14.0982],
[23.3674,-14.1519],
[23.3381,-14.1568],
[23.2795,-14.1885],
[23.1283,-14.291],
[23.1258,-14.5228],
[23.1405,-14.5618],
[23.0246,-14.8021],
[22.9892,-14.8265],
[22.9745,-14.9278],
[22.9404,-14.9559],
[22.9392,-15.0352],
[22.8428,-15.1291],
[22.8257,-15.2486]
]
]
]}
}
