{
"type": "Feature",
"properties": {"id":"cshapes-817-1954-05-01","edge_precision":"unknown","cshapes_gwcode":817,"cshapes_name":"Vietnam, Republic of","cshapes_first_day":"1954-05-01","cshapes_last_day":"1975-04-30","cshapes_status":"independent","cshapes_owner":817,"cshapes_borders_defined":true},
"geometry": {"type": "MultiPolygon", "coordinates": [
[
[
[103.8459,10.3707],
[103.865,10.3054],
[103.9179,10.285],
[103.9494,10.2439],
[104.0264,10.0803],
[104.0783,10.2217],
[104.0866,10.2474],
[104.0791,10.3712],
[104.0124,10.4394],
[103.9769,10.4336],
[103.8459,10.3707]
]
],
[
[
[104.4453,10.4227],
[104.498,10.3886],
[104.5819,10.2707],
[104.6102,10.1689],
[104.6872,10.2039],
[104.7235,10.2324],
[104.8015,10.2074],
[104.8533,10.135],
[104.8974,10.0947],
[104.9818,10.1044],
[105.0733,10.0117],
[105.1075,9.9453],
[105.1127,9.8548],
[105.0727,9.9375],
[105.0389,9.9272],
[104.8992,9.8107],
[104.8605,9.6925],
[104.8347,9.5337],
[104.7989,8.7922],
[104.8203,8.769],
[104.9164,8.8022],
[104.9225,8.7452],
[104.8908,8.6939],
[104.7428,8.605],
[104.7669,8.5856],
[104.8646,8.5592],
[105.0211,8.5928],
[105.1213,8.6251],
[105.3054,8.7754],
[105.3544,8.8467],
[105.4073,8.9978],
[105.5339,9.1294],
[105.8434,9.241],
[105.9955,9.3042],
[106.1361,9.3506],
[106.1729,9.3559],
[106.1945,9.3685],
[106.2107,9.5015],
[106.1858,9.5583],
[106.0572,9.7597],
[105.9176,9.9086],
[105.8427,9.9747],
[105.8237,10.0042],
[105.9108,9.9664],
[105.9772,9.9111],
[106.0716,9.7871],
[106.235,9.6392],
[106.3985,9.5324],
[106.5041,9.5507],
[106.543,9.5836],
[106.5798,9.6635],
[106.5707,9.7414],
[106.453,9.8764],
[106.3086,10.0105],
[106.2908,10.0396],
[106.1644,10.1642],
[106.1148,10.2341],
[106.1209,10.238],
[106.1655,10.2072],
[106.3852,9.9756],
[106.4869,9.9176],
[106.6071,9.8109],
[106.6744,9.8422],
[106.6934,9.8722],
[106.6884,9.8939],
[106.5669,9.9747],
[106.4966,10.0035],
[106.3866,10.1219],
[106.2966,10.255],
[106.3319,10.2425],
[106.3646,10.2087],
[106.3966,10.1497],
[106.4846,10.0371],
[106.6039,9.9741],
[106.6505,9.9698],
[106.778,10.0824],
[106.8025,10.1242],
[106.7932,10.157],
[106.6961,10.2087],
[106.4864,10.2739],
[106.4243,10.3114],
[106.4954,10.3012],
[106.5359,10.3053],
[106.5739,10.2889],
[106.6512,10.2801],
[106.6876,10.2909],
[106.7842,10.2798],
[106.7947,10.3103],
[106.7914,10.3896],
[106.7325,10.4705],
[106.5916,10.4297],
[106.6623,10.4908],
[106.7352,10.5121],
[106.7365,10.551],
[106.7496,10.5773],
[106.7705,10.5893],
[106.7575,10.6358],
[106.7417,10.6609],
[106.763,10.6806],
[106.879,10.646],
[106.9041,10.6314],
[106.9427,10.5924],
[106.9402,10.53],
[106.9605,10.5075],
[106.9671,10.4746],
[106.994,10.5206],
[106.9816,10.5654],
[106.9936,10.6148],
[106.9943,10.5765],
[107.0154,10.5379],
[107.0212,10.59],
[106.9986,10.6551],
[107.0233,10.6303],
[107.035,10.5311],
[107.0536,10.4953],
[107.1328,10.4675],
[107.1722,10.4757],
[107.2122,10.4375],
[107.229,10.3973],
[107.2662,10.3761],
[107.3289,10.4458],
[107.4409,10.4668],
[107.5175,10.5031],
[107.5866,10.5724],
[107.7561,10.6392],
[107.8254,10.6948],
[107.8839,10.7165],
[107.91,10.7185],
[107.9559,10.7057],
[107.9997,10.7042],
[108.0328,10.7697],
[108.055,10.8447],
[108.0919,10.9008],
[108.1355,10.9258],
[108.245,10.949],
[108.4903,11.0957],
[108.5325,11.1494],
[108.5836,11.1817],
[108.6646,11.1886],
[108.8098,11.3172],
[108.868,11.3347],
[108.934,11.3083],
[108.9621,11.3115],
[109.0217,11.3623],
[109.0165,11.3933],
[109.0219,11.5147],
[109.0375,11.5781],
[109.0526,11.5935],
[109.0727,11.5801],
[109.1343,11.5674],
[109.1807,11.6297],
[109.2092,11.7019],
[109.2211,11.7561],
[109.1933,11.7928],
[109.1234,11.8482],
[109.1396,11.8941],
[109.1614,11.9004],
[109.1879,11.9246],
[109.2092,11.9786],
[109.2032,12.0165],
[109.18,12.045],
[109.1831,12.1169],
[109.2255,11.9822],
[109.2258,11.935],
[109.27,11.8925],
[109.2053,12.0993],
[109.2161,12.3236],
[109.147,12.4321],
[109.1766,12.4569],
[109.2208,12.4308],
[109.2726,12.362],
[109.3017,12.3457],
[109.3364,12.3726],
[109.3469,12.3949],
[109.2991,12.4606],
[109.2064,12.5453],
[109.1961,12.5775],
[109.1973,12.6315],
[109.2286,12.6817],
[109.4155,12.8622],
[109.4323,12.8432],
[109.4619,12.861],
[109.4648,12.9006],
[109.4321,12.955],
[109.399,12.985],
[109.3136,13.1085],
[109.2289,13.4086],
[109.23,13.4419],
[109.2567,13.5553],
[109.2366,13.6383],
[109.218,13.8161],
[109.2502,13.885],
[109.2657,13.8173],
[109.2682,13.7535],
[109.3026,13.7516],
[109.3044,13.8644],
[109.2575,14.0229],
[109.2142,14.1203],
[109.2044,14.2378],
[109.1872,14.2908],
[109.1572,14.3303],
[109.1239,14.4058],
[109.0786,14.5483],
[109.0803,14.6414],
[109.0918,14.6725],
[109.0787,14.7232],
[109.0017,14.8364],
[108.9286,15.0008],
[108.8941,15.1328],
[108.8828,15.2814],
[108.8292,15.4219],
[108.8003,15.4272],
[108.7589,15.396],
[108.625,15.4822],
[108.4228,15.8061],
[108.2879,15.9751],
[108.268,16.0347],
[108.2635,16.0976],
[108.306,16.1075],
[108.341,16.1321],
[108.3308,16.1504],
[108.2466,16.1544],
[108.2322,16.1339],
[108.2368,16.0321],
[108.2012,15.9994],
[108.1379,16.1278],
[108.1431,16.1556],
[108.1649,16.1843],
[108.1886,16.1992],
[108.0872,16.2489],
[108.048,16.3117],
[108.0267,16.3242],
[107.9697,16.3339],
[107.9066,16.2816],
[107.8828,16.2781],
[107.8369,16.2939],
[107.8115,16.312],
[107.7907,16.3747],
[107.8175,16.3821],
[107.6996,16.5142],
[107.5941,16.5806],
[107.5051,16.6041],
[107.4484,16.6383],
[107.4491,16.6553],
[107.5401,16.629],
[107.3428,16.7892],
[107.1917,16.8747],
[107.1301,17.0116],
[106.5559,16.9441],
[106.5607,16.6774],
[106.5753,16.6422],
[106.7022,16.4397],
[106.7566,16.4203],
[106.7825,16.4325],
[106.8139,16.473],
[106.8434,16.5324],
[106.8751,16.5369],
[106.8953,16.5178],
[106.9839,16.3372],
[106.9872,16.2997],
[107.0106,16.3074],
[107.0939,16.3008],
[107.1472,16.2633],
[107.1521,16.2058],
[107.1651,16.1837],
[107.3376,16.0561],
[107.4608,16.0805],
[107.4756,16.0249],
[107.4019,15.9185],
[107.2555,15.8585],
[107.2293,15.8664],
[107.2039,15.859],
[107.1763,15.7903],
[107.183,15.7654],
[107.263,15.6478],
[107.4203,15.5033],
[107.5175,15.4683],
[107.6953,15.2708],
[107.6158,15.0636],
[107.5868,15.0456],
[107.4707,15.0295],
[107.48,14.9715],
[107.5401,14.9189],
[107.5517,14.8475],
[107.5495,14.7057],
[107.5585,14.6571],
[107.5332,14.5501],
[107.5044,14.4822],
[107.475,14.4323],
[107.4567,14.4222],
[107.4387,14.4317],
[107.41,14.4208],
[107.3755,14.3374],
[107.3889,14.2897],
[107.3847,14.2406],
[107.3441,14.1284],
[107.3705,14.0204],
[107.4735,13.9317],
[107.4642,13.7944],
[107.6292,13.538],
[107.6331,13.374],
[107.4833,13.0206],
[107.5132,12.8768],
[107.5632,12.8108],
[107.593,12.6039],
[107.5953,12.5544],
[107.5499,12.3594],
[107.5341,12.3386],
[107.4312,12.254],
[107.3537,12.3318],
[107.2964,12.3228],
[107.19,12.2872],
[107.1628,12.2737],
[107.0528,12.1394],
[106.9724,12.0816],
[106.9073,12.0647],
[106.7892,12.0735],
[106.7471,12],
[106.7236,11.9728],
[106.6986,11.9628],
[106.4454,11.9821],
[106.4206,11.9678],
[106.4614,11.885],
[106.4377,11.7936],
[106.4582,11.6659],
[106.2978,11.6872],
[106.2686,11.7178],
[106.0824,11.7731],
[106.0434,11.7762],
[106.0223,11.7599],
[106.0144,11.7213],
[105.9646,11.6496],
[105.9264,11.6519],
[105.8751,11.6704],
[105.8531,11.6619],
[105.8197,11.6214],
[105.8191,11.594],
[105.8786,11.549],
[105.9001,11.4353],
[105.8711,11.2967],
[105.9486,11.2025],
[106.1265,11.0868],
[106.1555,11.0939],
[106.1894,11.0537],
[106.2107,10.9713],
[106.1523,10.9687],
[106.1457,10.9194],
[106.1766,10.8706],
[106.2033,10.7706],
[106.0822,10.8028],
[105.96,10.8825],
[105.8583,10.9167],
[105.7738,11.0206],
[105.7221,11.0131],
[105.6355,10.97],
[105.526,10.9465],
[105.4309,10.9658],
[105.3619,10.8807],
[105.2944,10.8768],
[105.2339,10.8897],
[105.1008,10.9543],
[105.0559,10.9141],
[105.039,10.882],
[105.0937,10.7465],
[105.094,10.7131],
[104.9544,10.6312],
[104.8837,10.5352],
[104.8505,10.5214],
[104.8011,10.52],
[104.6776,10.5355],
[104.5948,10.5327],
[104.5642,10.4975],
[104.5486,10.4652],
[104.4922,10.4259],
[104.4453,10.4227]
]
],
[
[
[106.7498,10.5586],
[106.7526,10.4944],
[106.7814,10.4468],
[106.8259,10.4047],
[106.8496,10.4045],
[106.8723,10.5029],
[106.8376,10.5732],
[106.8583,10.5839],
[106.8508,10.6082],
[106.8272,10.6206],
[106.7817,10.6632],
[106.7523,10.659],
[106.778,10.6242],
[106.7847,10.5746],
[106.7566,10.5679],
[106.7498,10.5586]
]
]
]}
}
