{
"type": "Feature",
"properties": {"id":"cshapes-53-1886-01-01","edge_precision":"unknown","cshapes_gwcode":53,"cshapes_name":"Barbados","cshapes_first_day":"1886-01-01","cshapes_last_day":"1966-11-29","cshapes_status":"colony","cshapes_owner":200,"cshapes_borders_defined":true},
"geometry": {"type": "MultiPolygon", "coordinates": [
[
[
[-59.6589,13.2935],
[-59.6428,13.1464],
[-59.6271,13.1015],
[-59.6085,13.0835],
[-59.5454,13.069],
[-59.538,13.0579],
[-59.5331,13.0506],
[-59.5051,13.0572],
[-59.459,13.0907],
[-59.4287,13.1428],
[-59.4345,13.1685],
[-59.4794,13.1858],
[-59.5483,13.2433],
[-59.5935,13.3308],
[-59.6161,13.3371],
[-59.637,13.3324],
[-59.652,13.3179],
[-59.6589,13.2935]
]
]
]}
}
