{
"type": "Feature",
"properties": {"id":"cshapes-340-1915-10-02","edge_precision":"unknown","cshapes_gwcode":340,"cshapes_name":"Serbia","cshapes_first_day":"1915-10-02","cshapes_last_day":"1918-11-30","cshapes_status":"occupied","cshapes_owner":300,"cshapes_borders_defined":true},
"geometry": {"type": "MultiPolygon", "coordinates": [
[
[
[19.1044,44.3558],
[19.1249,44.322],
[19.1609,44.2868],
[19.2374,44.2652],
[19.358,44.2094],
[19.4858,44.1203],
[19.6186,44.0526],
[19.6198,44.0198],
[19.5258,43.9604],
[19.4285,43.9607],
[19.3666,43.9708],
[19.3089,43.9977],
[19.2395,44.0106],
[19.2512,43.9625],
[19.4901,43.7585],
[19.5106,43.6858],
[19.4939,43.5881],
[19.4797,43.5716],
[19.4086,43.5844],
[19.2875,43.5442],
[19.2253,43.5152],
[19.2821,43.4673],
[19.4704,43.3913],
[19.5133,43.3319],
[19.5629,43.3187],
[19.5497,43.2724],
[19.586,43.2526],
[19.629,43.246],
[19.7116,43.1799],
[19.7941,43.1766],
[19.8239,43.1568],
[19.7908,43.1469],
[19.8338,43.127],
[19.8503,43.137],
[19.8602,43.1039],
[19.8933,43.1237],
[19.9329,43.0907],
[19.9924,43.1138],
[20.0089,43.0709],
[20.1311,42.9718],
[20.1708,42.9916],
[20.3447,42.9196],
[20.4938,42.8805],
[20.5519,42.8338],
[20.5391,42.7953],
[20.5455,42.7761],
[20.6161,42.7504],
[20.6802,42.6927],
[20.5455,42.6158],
[20.5135,42.5645],
[20.5199,42.5196],
[20.475,42.449],
[20.4686,42.3464],
[20.431,42.2853],
[20.4575,42.2739],
[20.5251,42.2131],
[20.5953,42.0436],
[20.6217,41.9565],
[20.5849,41.9102],
[20.5896,41.8822],
[20.569,41.8745],
[20.5178,41.744],
[20.5339,41.6347],
[20.4661,41.5555],
[20.4588,41.5208],
[20.4707,41.4993],
[20.5619,41.4087],
[20.55,41.3731],
[20.5242,41.3503],
[20.4989,41.3418],
[20.5192,41.2464],
[20.5783,41.1628],
[20.6006,41.0932],
[20.6625,41.0892],
[20.7408,40.9095],
[20.8142,40.9047],
[20.8374,40.9274],
[20.9442,40.9192],
[20.9805,40.8972],
[20.9835,40.8559],
[21.1508,40.8575],
[21.3499,40.8732],
[21.3746,40.8832],
[21.4101,40.9139],
[21.5284,40.9078],
[21.5758,40.8731],
[21.6,40.8728],
[21.7862,40.9308],
[21.9108,41.0656],
[21.9161,41.0953],
[21.9771,41.1318],
[22.2596,41.171],
[22.3433,41.1344],
[22.4425,41.1214],
[22.5867,41.1199],
[22.7377,41.1561],
[22.7581,41.2278],
[22.762,41.3066],
[22.7768,41.3281],
[22.8085,41.3478],
[22.9318,41.3425],
[22.9559,41.3556],
[22.9667,41.3742],
[22.9542,41.636],
[23.015,41.6954],
[23.031,41.7251],
[23.0092,41.7663],
[22.9659,41.7757],
[22.9425,41.8078],
[22.8231,42.0274],
[22.6858,42.0653],
[22.5194,42.1497],
[22.3653,42.3239],
[22.4108,42.3353],
[22.5218,42.4021],
[22.5566,42.4798],
[22.5469,42.5129],
[22.4677,42.5677],
[22.4472,42.5994],
[22.4429,42.8204],
[22.5284,42.8786],
[22.5949,42.8944],
[22.6586,42.8829],
[22.7416,42.8921],
[22.9664,43.1017],
[22.9877,43.1312],
[22.9965,43.1951],
[22.9406,43.2105],
[22.906,43.2297],
[22.8469,43.2867],
[22.8295,43.3319],
[22.7643,43.3867],
[22.6281,43.4308],
[22.5417,43.4756],
[22.4104,43.7175],
[22.3672,43.8269],
[22.417,44.0024],
[22.5375,44.0577],
[22.6149,44.1196],
[22.6192,44.17],
[22.6518,44.2132],
[22.6851,44.2206],
[22.6878,44.274],
[22.6653,44.2885],
[22.5756,44.3055],
[22.53,44.3453],
[22.4599,44.4611],
[22.4615,44.4833],
[22.5862,44.5476],
[22.6154,44.5517],
[22.7012,44.5236],
[22.7389,44.5331],
[22.7625,44.5526],
[22.7128,44.6051],
[22.6658,44.6194],
[22.6073,44.6224],
[22.4661,44.7137],
[22.4288,44.7121],
[22.3116,44.659],
[22.1755,44.4833],
[22.1375,44.4803],
[22.0915,44.4989],
[22.0354,44.5595],
[22.0302,44.5917],
[21.997,44.633],
[21.7836,44.6619],
[21.7342,44.6558],
[21.6434,44.6608],
[21.6177,44.6828],
[21.6156,44.7108],
[21.5969,44.7558],
[21.5352,44.7771],
[21.3987,44.7831],
[21.3626,44.8281],
[21.3686,44.8611],
[21.1126,44.8836],
[20.987,44.8502],
[20.8888,44.8391],
[20.5942,44.9365],
[20.4555,44.9355],
[20.3089,44.8264],
[20.2135,44.7431],
[20.0779,44.7327],
[19.9459,44.7118],
[19.7039,44.8342],
[19.6709,44.8732],
[19.5902,44.9225],
[19.4949,44.9407],
[19.4069,44.9095],
[19.337,44.8996],
[19.3714,44.8892],
[19.3822,44.8648],
[19.3448,44.7669],
[19.3136,44.7047],
[19.194,44.5602],
[19.1308,44.5214],
[19.1055,44.3754],
[19.1044,44.3558]
]
]
]}
}
