{
"type": "Feature",
"properties": {"id":"cshapes-420-1965-02-18","edge_precision":"unknown","cshapes_gwcode":420,"cshapes_name":"Gambia","cshapes_first_day":"1965-02-18","cshapes_last_day":"2019-12-31","cshapes_status":"independent","cshapes_owner":420,"cshapes_borders_defined":true},
"geometry": {"type": "MultiPolygon", "coordinates": [
[
[
[-16.82,13.2783],
[-16.7844,13.1408],
[-16.7502,13.055],
[-16.7003,13.1572],
[-16.6183,13.165],
[-15.8097,13.1597],
[-15.8065,13.3394],
[-15.4181,13.3753],
[-15.3342,13.3658],
[-15.2904,13.3728],
[-15.2243,13.4132],
[-15.2047,13.4619],
[-15.2015,13.5251],
[-15.1479,13.5862],
[-15.1117,13.5958],
[-15.0453,13.5281],
[-14.9547,13.4719],
[-14.8333,13.4353],
[-14.7704,13.4244],
[-14.7354,13.3756],
[-14.7147,13.3606],
[-14.6478,13.3439],
[-14.5478,13.3359],
[-14.5211,13.3139],
[-14.3888,13.2487],
[-14.3511,13.2378],
[-14.1883,13.2331],
[-14.1517,13.2464],
[-14.0956,13.285],
[-13.8731,13.3208],
[-13.824,13.3561],
[-13.8035,13.3844],
[-13.7986,13.4131],
[-13.8038,13.4432],
[-13.8275,13.4806],
[-13.8685,13.508],
[-13.887,13.5444],
[-13.9192,13.5682],
[-13.9804,13.5828],
[-14.0824,13.5606],
[-14.1983,13.5162],
[-14.2371,13.4815],
[-14.3349,13.454],
[-14.3983,13.4833],
[-14.4464,13.5264],
[-14.4728,13.5344],
[-14.4833,13.5937],
[-14.5046,13.6281],
[-14.5357,13.6507],
[-14.5989,13.6703],
[-14.6257,13.6679],
[-14.6683,13.6533],
[-14.7165,13.6133],
[-14.7919,13.6533],
[-14.7936,13.6786],
[-14.8161,13.7411],
[-14.8583,13.7797],
[-14.9117,13.8024],
[-15.0703,13.8264],
[-15.1644,13.795],
[-15.2514,13.7447],
[-15.2715,13.7706],
[-15.3005,13.7904],
[-15.3367,13.7929],
[-15.3644,13.7814],
[-15.4203,13.7433],
[-15.4556,13.7083],
[-15.4841,13.6408],
[-15.4882,13.5908],
[-16.5657,13.59],
[-16.501,13.4096],
[-16.5133,13.3686],
[-16.4035,13.3321],
[-16.3319,13.3383],
[-16.2686,13.3604],
[-16.1925,13.4314],
[-16.1405,13.4535],
[-16.0972,13.4318],
[-15.8119,13.4564],
[-15.7228,13.4761],
[-15.6583,13.5042],
[-15.5472,13.5287],
[-15.359,13.4503],
[-15.3288,13.4542],
[-15.3025,13.4765],
[-15.2972,13.4911],
[-15.2946,13.486],
[-15.3058,13.4515],
[-15.3283,13.4386],
[-15.4018,13.4474],
[-15.5486,13.506],
[-15.6367,13.4528],
[-15.7733,13.4331],
[-16.0488,13.4054],
[-16.1559,13.4249],
[-16.2096,13.3779],
[-16.2236,13.3481],
[-16.2242,13.3261],
[-16.1939,13.2637],
[-16.1549,13.2793],
[-16.1714,13.2617],
[-16.1947,13.2526],
[-16.2244,13.2576],
[-16.2238,13.2976],
[-16.2496,13.3185],
[-16.4217,13.2569],
[-16.5547,13.2951],
[-16.5767,13.3244],
[-16.6131,13.428],
[-16.621,13.4315],
[-16.6114,13.4408],
[-16.5872,13.4362],
[-16.5872,13.4579],
[-16.6153,13.4738],
[-16.6843,13.4894],
[-16.7317,13.4497],
[-16.7447,13.4185],
[-16.8171,13.3706],
[-16.82,13.2783]
]
]
]}
}
