{
"type": "Feature",
"properties": {"id":"cshapes-317-1993-01-01","edge_precision":"unknown","cshapes_gwcode":317,"cshapes_name":"Slovakia","cshapes_first_day":"1993-01-01","cshapes_last_day":"2019-12-31","cshapes_status":"independent","cshapes_owner":317,"cshapes_borders_defined":true},
"geometry": {"type": "MultiPolygon", "coordinates": [
[
[
[16.8447,48.362],
[16.9239,48.2821],
[16.9497,48.278],
[16.9524,48.2503],
[16.9753,48.1883],
[17.0335,48.1453],
[17.0691,48.1353],
[17.0811,48.0883],
[17.1167,48.0386],
[17.1739,48.0167],
[17.2454,48.0253],
[17.2632,48.0075],
[17.3419,47.9958],
[17.4119,47.9447],
[17.4621,47.8921],
[17.7122,47.7706],
[17.7873,47.7464],
[17.9029,47.7491],
[17.9761,47.7636],
[18.3047,47.7375],
[18.4133,47.7539],
[18.4493,47.7674],
[18.6631,47.7597],
[18.7578,47.8144],
[18.8522,47.8247],
[18.82,47.8556],
[18.7835,47.8721],
[18.7597,47.9147],
[18.7717,47.9656],
[18.8453,48.0491],
[19.0417,48.0706],
[19.2083,48.0594],
[19.4724,48.0894],
[19.5302,48.2089],
[19.6306,48.2339],
[19.755,48.2094],
[19.9106,48.1305],
[19.9399,48.1362],
[20.0101,48.1739],
[20.0593,48.1763],
[20.2356,48.275],
[20.283,48.2557],
[20.3172,48.2697],
[20.3631,48.3046],
[20.4025,48.3612],
[20.4142,48.3997],
[20.4358,48.4336],
[20.4994,48.4831],
[20.5008,48.5044],
[20.5397,48.5369],
[20.6529,48.5617],
[20.8181,48.5762],
[20.9464,48.5247],
[21.1533,48.5111],
[21.2539,48.5222],
[21.3087,48.548],
[21.4382,48.5753],
[21.6173,48.4925],
[21.6254,48.4589],
[21.7224,48.3553],
[21.781,48.3407],
[21.8281,48.3435],
[21.8525,48.3621],
[21.9358,48.3792],
[22.0294,48.3875],
[22.0986,48.378],
[22.1511,48.4106],
[22.1598,48.5783],
[22.3287,48.687],
[22.3887,48.8002],
[22.425,48.8894],
[22.4614,48.9494],
[22.5349,48.9949],
[22.5628,49.0833],
[22.3489,49.1385],
[22.225,49.1547],
[22.0299,49.2202],
[22.0201,49.2739],
[21.9586,49.3403],
[21.8381,49.3844],
[21.6126,49.4365],
[21.5336,49.4297],
[21.4593,49.4119],
[21.2819,49.4564],
[21.0715,49.4221],
[21.0506,49.4105],
[21.0356,49.3597],
[20.9824,49.3094],
[20.9136,49.2961],
[20.8125,49.3308],
[20.7408,49.3889],
[20.6028,49.3956],
[20.3606,49.3931],
[20.1436,49.315],
[20.1033,49.2486],
[20.0926,49.2049],
[20.0734,49.1779],
[20.0392,49.1889],
[19.9796,49.2264],
[19.9364,49.2311],
[19.9112,49.2262],
[19.8679,49.1971],
[19.8429,49.1918],
[19.7835,49.2002],
[19.766,49.2144],
[19.7736,49.2331],
[19.8257,49.2776],
[19.805,49.3647],
[19.778,49.4075],
[19.7106,49.3975],
[19.6586,49.4067],
[19.5771,49.459],
[19.521,49.5742],
[19.4756,49.6],
[19.4478,49.6008],
[19.269,49.5267],
[19.2424,49.5068],
[19.1917,49.414],
[19.1596,49.4003],
[19.0317,49.3919],
[18.9749,49.4019],
[18.9686,49.4817],
[18.8517,49.5223],
[18.5659,49.4937],
[18.5444,49.4618],
[18.3832,49.3331],
[18.3125,49.3057],
[18.2113,49.2864],
[18.1762,49.2443],
[18.1742,49.2103],
[18.1453,49.145],
[18.1494,49.1214],
[18.1219,49.0828],
[18.0753,49.0419],
[17.9111,48.985],
[17.8419,48.9283],
[17.7122,48.8561],
[17.3822,48.8253],
[17.3308,48.8503],
[17.2383,48.8724],
[17.1879,48.8694],
[17.1122,48.8318],
[17.0415,48.7683],
[16.9462,48.6191],
[16.9333,48.5328],
[16.8657,48.4687],
[16.8558,48.4494],
[16.8447,48.362]
]
]
]}
}
