{
"type": "Feature",
"properties": {"id":"cshapes-482-1906-02-11","edge_precision":"unknown","cshapes_gwcode":482,"cshapes_name":"Central African Republic","cshapes_first_day":"1906-02-11","cshapes_last_day":"1912-03-29","cshapes_status":"colony","cshapes_owner":220,"cshapes_borders_defined":true},
"geometry": {"type": "MultiPolygon", "coordinates": [
[
[
[14.4189,6.041],
[14.4242,6.0069],
[14.4928,5.916],
[14.5564,5.9066],
[14.5803,5.9272],
[14.6047,5.9222],
[14.6172,5.9012],
[14.6268,5.7247],
[14.6224,5.5207],
[14.5914,5.4047],
[14.5514,5.3425],
[14.5326,5.2912],
[14.5854,5.2453],
[14.6515,5.2195],
[14.6725,5.18],
[14.6878,5.1191],
[14.686,5.0375],
[14.6744,5.0138],
[14.6911,4.9814],
[14.7108,4.8781],
[14.7204,4.8053],
[14.7235,4.6437],
[14.7374,4.6153],
[14.8043,4.5381],
[14.8922,4.4767],
[15.0137,4.4147],
[15.0869,4.2947],
[15.1035,4.1404],
[15.145,4.0718],
[15.0439,4.0292],
[15.0769,3.9206],
[15.2637,3.6704],
[15.5903,3.3447],
[15.8176,3.1004],
[15.9069,3.1125],
[15.94,3.1006],
[16.0736,2.9433],
[16.1031,2.8983],
[16.1124,2.8256],
[16.0706,2.7908],
[16.0947,2.4978],
[16.1114,2.4106],
[16.2055,2.2179],
[16.5017,2.8494],
[16.4956,2.8843],
[16.4695,2.911],
[16.4661,2.9497],
[16.4827,3.155],
[16.5278,3.2342],
[16.5587,3.331],
[16.5737,3.4497],
[16.5862,3.4779],
[16.6644,3.5354],
[16.8767,3.5658],
[16.9574,3.5549],
[17.1097,3.5675],
[17.3489,3.6132],
[17.416,3.6806],
[17.4636,3.7111],
[17.4911,3.7101],
[17.5639,3.6533],
[17.6153,3.6297],
[17.7633,3.6272],
[17.8294,3.616],
[17.8581,3.5367],
[17.9094,3.5528],
[18.0658,3.5669],
[18.111,3.5622],
[18.1476,3.5477],
[18.1624,3.5253],
[18.1694,3.4901],
[18.1936,3.4825],
[18.2351,3.5012],
[18.2623,3.5643],
[18.4519,3.6162],
[18.4797,3.6408],
[18.5307,3.6012],
[18.5683,3.5389],
[18.5814,3.5011],
[18.6008,3.4815],
[18.625,3.4794],
[18.5907,3.7258],
[18.6106,3.8669],
[18.6482,3.9931],
[18.6471,4.0275],
[18.6303,4.1347],
[18.5925,4.2287],
[18.5437,4.2883],
[18.5358,4.3117],
[18.5444,4.34],
[18.5672,4.3618],
[18.591,4.3701],
[18.6287,4.3542],
[18.7075,4.3672],
[18.7517,4.3906],
[18.7939,4.4603],
[18.8394,4.5778],
[18.9879,4.7406],
[19.0642,4.8897],
[19.0854,4.9147],
[19.1064,4.9325],
[19.1854,4.9442],
[19.2279,4.9999],
[19.4159,5.131],
[19.5572,5.1506],
[19.6493,5.1428],
[19.7005,5.1367],
[19.8414,5.0845],
[19.8804,5.0117],
[19.9014,4.9951],
[20.0021,4.9772],
[20.3393,4.7675],
[20.458,4.6193],
[20.453,4.5231],
[20.5719,4.4175],
[20.5998,4.408],
[20.8356,4.4489],
[20.9699,4.4325],
[21.0779,4.3892],
[21.1033,4.3503],
[21.1637,4.3056],
[21.2086,4.2889],
[21.5483,4.2462],
[21.6551,4.2992],
[21.7367,4.2957],
[21.8308,4.2653],
[21.9869,4.2464],
[22.0374,4.2253],
[22.0975,4.2158],
[22.151,4.1763],
[22.2132,4.1486],
[22.2856,4.1294],
[22.3467,4.1275],
[22.3865,4.1283],
[22.4536,4.1446],
[22.5383,4.2192],
[22.5703,4.3319],
[22.5872,4.4117],
[22.5881,4.4533],
[22.5993,4.4743],
[22.6287,4.4872],
[22.6837,4.4799],
[22.7803,4.7124],
[22.8476,4.7231],
[22.8933,4.8201],
[22.9707,4.8312],
[23.0168,4.7496],
[23.0988,4.7075],
[23.2119,4.6819],
[23.3259,4.6001],
[23.3825,4.5881],
[23.4245,4.5937],
[23.4397,4.6505],
[23.5797,4.7324],
[23.8267,4.8194],
[23.8886,4.8239],
[24.0631,4.9017],
[24.3675,5.0089],
[24.3979,5.0353],
[24.3574,5.057],
[24.3873,5.1122],
[24.4594,5.1054],
[24.5256,5.0772],
[24.605,5.022],
[24.6428,4.9731],
[24.7344,4.9108],
[24.7778,4.9153],
[24.8183,4.9389],
[24.9508,4.9858],
[25.0897,4.9736],
[25.29,5.025],
[25.3162,5.0415],
[25.3436,5.1117],
[25.3487,5.1428],
[25.3286,5.1532],
[25.3104,5.1753],
[25.3122,5.1961],
[25.3619,5.3147],
[25.5401,5.3807],
[25.5846,5.3649],
[25.6356,5.3053],
[25.7156,5.2831],
[25.8156,5.2364],
[25.9114,5.1786],
[26.0656,5.1975],
[26.0896,5.2067],
[26.1275,5.2492],
[26.1975,5.2328],
[26.3939,5.1328],
[26.4461,5.0882],
[26.4627,5.0592],
[26.4947,5.0456],
[26.5208,5.0419],
[26.7156,5.0925],
[26.7584,5.0876],
[26.7931,5.0581],
[26.8694,5.031],
[26.9083,5.1031],
[26.9415,5.1436],
[27.0275,5.1858],
[27.0903,5.2035],
[27.1421,5.195],
[27.4024,5.0846],
[27.4246,5.0697],
[27.4552,5.0211],
[27.4597,5.0716],
[27.4008,5.1503],
[27.3654,5.1706],
[27.2978,5.231],
[27.275,5.2825],
[27.2547,5.3314],
[27.2363,5.4265],
[27.2574,5.5095],
[27.2799,5.5446],
[27.2789,5.5839],
[27.2019,5.7086],
[27.1428,5.7719],
[26.9817,5.8594],
[26.9239,5.8656],
[26.853,5.8914],
[26.8283,5.9144],
[26.824,5.9604],
[26.8129,5.9776],
[26.6975,6.0175],
[26.6689,6.0072],
[26.6122,6.0144],
[26.4423,6.0774],
[26.4428,6.1022],
[26.4635,6.131],
[26.5187,6.1694],
[26.5285,6.1924],
[26.5254,6.2162],
[26.4549,6.2978],
[26.3044,6.39],
[26.2981,6.4656],
[26.4052,6.6396],
[26.3608,6.6833],
[26.3159,6.7001],
[26.2704,6.706],
[26.1192,6.8261],
[26.0976,6.8457],
[26.0642,6.9031],
[26.0478,6.9639],
[25.9844,7.0183],
[25.8503,7.1094],
[25.6239,7.2111],
[25.3699,7.3439],
[25.335,7.4206],
[25.2678,7.4753],
[25.2215,7.4943],
[25.2003,7.5164],
[25.1826,7.5779],
[25.1947,7.596],
[25.2439,7.6233],
[25.2677,7.6267],
[25.2937,7.6454],
[25.2993,7.6829],
[25.2872,7.7789],
[25.2558,7.8457],
[25.1861,7.9019],
[25.1117,7.8912],
[25.0847,7.8949],
[24.9703,8.0033],
[24.9439,8.0414],
[24.9475,8.0671],
[24.9386,8.0886],
[24.8701,8.161],
[24.8044,8.1928],
[24.66,8.2186],
[24.4797,8.2381],
[24.2531,8.2783],
[24.1849,8.3099],
[24.1628,8.3306],
[24.1403,8.3758],
[24.1636,8.4731],
[24.2019,8.5261],
[24.2683,8.5875],
[24.2403,8.629],
[24.2011,8.6869],
[24.1745,8.6959],
[24.1412,8.6867],
[24.0869,8.6883],
[23.9258,8.7181],
[23.8239,8.7278],
[23.7819,8.7233],
[23.7392,8.7053],
[23.5297,8.7083],
[23.4976,8.7718],
[23.5081,8.8081],
[23.5365,8.8316],
[23.5826,8.9122],
[23.5817,8.9937],
[23.5612,9.0006],
[23.5322,8.9611],
[23.5099,8.9583],
[23.4579,8.9908],
[23.4483,9.0196],
[23.4758,9.1375],
[23.4996,9.1772],
[23.5644,9.1872],
[23.6493,9.276],
[23.6647,9.4347],
[23.642,9.4431],
[23.626,9.5428],
[23.6939,9.6681],
[23.6692,9.8669],
[23.3094,10.4517],
[23.0603,10.6644],
[23.0094,10.6986],
[22.8665,10.9224],
[22.6764,10.9694],
[22.4633,11.0008],
[22.4328,10.9869],
[22.4138,10.9642],
[22.3641,10.955],
[22.2447,10.9108],
[22.0061,10.7689],
[21.9572,10.7322],
[21.719,10.6381],
[21.7025,10.5633],
[21.7011,10.5207],
[21.7194,10.4683],
[21.7378,10.4485],
[21.7472,10.4094],
[21.7184,10.2966],
[21.6669,10.2358],
[21.6087,10.2124],
[21.5372,10.2117],
[21.5203,10.1994],
[21.4736,10.1478],
[21.4544,10.1137],
[21.4542,10.0928],
[21.4353,10.0418],
[21.4083,10.0069],
[21.3633,9.969],
[21.3392,9.9585],
[21.2656,9.9781],
[21.0481,9.7664],
[20.9744,9.6033],
[20.894,9.5201],
[20.8378,9.4764],
[20.8088,9.4181],
[20.4985,9.2759],
[20.4999,9.2417],
[20.4878,9.2097],
[20.4222,9.1397],
[20.3717,9.1083],
[20.3254,9.1047],
[20.2703,9.1183],
[20.0647,9.1349],
[19.9338,9.0575],
[19.8306,9.0531],
[19.6108,9.0267],
[19.4114,9.0161],
[19.1933,9.021],
[19.1094,9.0136],
[19.0235,8.9844],
[18.9294,8.9206],
[18.8925,8.8914],
[18.8697,8.8612],
[18.8764,8.8414],
[18.9256,8.7942],
[18.9872,8.7653],
[19.0307,8.7549],
[19.115,8.6914],
[19.1258,8.6728],
[19.0886,8.6411],
[19.0588,8.5784],
[18.9318,8.4239],
[18.9225,8.3924],
[18.8403,8.2922],
[18.8022,8.2561],
[18.7047,8.2236],
[18.6656,8.1939],
[18.6347,8.1353],
[18.6356,8.0872],
[18.6183,8.0603],
[18.5889,8.0403],
[18.0328,8.0135],
[17.8836,7.9583],
[17.6489,7.9885],
[17.5872,7.9337],
[17.4507,7.9016],
[17.2372,7.8031],
[17.2186,7.7586],
[17.1383,7.7006],
[17.0589,7.6628],
[16.9133,7.6425],
[16.8698,7.6212],
[16.86,7.5692],
[16.8245,7.5478],
[16.7817,7.5658],
[16.5681,7.7832],
[16.5677,7.8649],
[16.5336,7.8678],
[16.4308,7.7981],
[16.41,7.7672],
[16.4075,7.6911],
[16.2176,7.6144],
[16.0794,7.5944],
[16.0344,7.5714],
[16.0187,7.5401],
[15.9749,7.5013],
[15.7827,7.4585],
[15.7279,7.4769],
[15.7136,7.5068],
[15.6901,7.5229],
[15.5657,7.5126],
[15.5186,7.5183],
[15.5002,7.5278],
[15.4456,7.3947],
[15.2992,7.2975],
[15.2314,7.2361],
[15.1421,7.0165],
[15.1297,6.9511],
[15.0529,6.7713],
[14.9961,6.7408],
[14.9619,6.736],
[14.8267,6.4336],
[14.7969,6.39],
[14.805,6.3467],
[14.7424,6.2647],
[14.5803,6.1889],
[14.4298,6.0797],
[14.4189,6.041]
]
]
]}
}
