{
"type": "Feature",
"properties": {"id":"cshapes-620-1912-10-18","edge_precision":"unknown","cshapes_gwcode":620,"cshapes_name":"Libya","cshapes_first_day":"1912-10-18","cshapes_last_day":"1919-09-11","cshapes_status":"colony","cshapes_owner":325,"cshapes_borders_defined":true},
"geometry": {"type": "MultiPolygon", "coordinates": [
[
[
[9.3114,30.1272],
[9.3189,30.101],
[9.3858,30.0425],
[9.5671,29.8063],
[9.6721,29.6283],
[9.9076,29.5341],
[9.9913,29.4624],
[10.1109,29.3906],
[10.2185,29.3906],
[10.4696,29.2949],
[11.4025,28.8883],
[11.6417,28.7568],
[12.3114,28.3143],
[12.5147,28.1708],
[12.4549,27.9794],
[12.1918,27.6685],
[11.9885,27.4532],
[11.8928,27.3336],
[11.845,27.2499],
[11.7373,27.1422],
[11.5579,26.9868],
[11.4383,26.8433],
[11.1274,26.5921],
[10.9121,26.4606],
[10.7806,26.3529],
[10.6132,26.1975],
[10.4577,26.03],
[10.3022,25.8148],
[10.2424,25.7191],
[10.1228,25.444],
[10.1109,25.3483],
[10.0407,25.2314],
[10.0544,24.8381],
[10.2183,24.7511],
[10.2355,24.6805],
[10.4577,24.7863],
[10.5773,24.8341],
[10.661,24.8341],
[11.0198,24.9178],
[11.3188,25.0135],
[11.546,25.1092],
[11.8689,25.157],
[12.7658,25.2168],
[13.0529,25.2288],
[13.6628,25.0374],
[13.8541,24.9417],
[13.9737,24.7623],
[14.0335,24.6308],
[14.1292,24.1046],
[14.1172,23.7936],
[13.9857,23.5305],
[13.9139,23.3153],
[13.9379,22.9445],
[13.907,22.8851],
[14.235,22.6142],
[14.9979,23.0006],
[16.0008,23.4506],
[16.6085,23.7546],
[17.011,23.9858],
[17.4647,24.2246],
[17.67,24.3454],
[18.3987,24.7265],
[18.4884,24.8461],
[18.7814,25.2646],
[18.9249,25.6712],
[18.9608,25.7968],
[19.0385,26.2274],
[19.1163,26.5682],
[19.1581,26.8104],
[19.3315,27.3366],
[19.3375,27.4323],
[19.3315,27.8867],
[19.2598,27.9884],
[19.194,28.2754],
[19.1641,28.3292],
[19.0445,28.6222],
[19.0325,28.8734],
[19.1402,29.1604],
[19.3076,29.3996],
[19.475,29.4953],
[19.8577,29.5909],
[20.1687,29.6388],
[20.5633,29.5311],
[20.9939,29.1006],
[21.1015,28.981],
[21.245,28.8494],
[21.5201,28.682],
[21.6875,28.5624],
[21.9626,28.4428],
[22.142,28.395],
[22.4051,28.3711],
[22.7041,28.407],
[23.0628,28.5983],
[23.7924,29.0647],
[24.0913,29.268],
[24.3545,29.4355],
[24.835,29.8568],
[24.8103,29.9458],
[24.7115,30.1381],
[24.71,30.1889],
[24.7232,30.226],
[24.7719,30.3039],
[24.8764,30.4275],
[24.9262,30.5075],
[24.9769,30.6347],
[25.0175,30.7892],
[24.9117,31.015],
[24.8692,31.1592],
[24.8681,31.3708],
[24.8936,31.4028],
[25.0092,31.4811],
[25.0476,31.5226],
[25.0732,31.5857],
[25.1297,31.6344],
[25.151,31.6408],
[25.1507,31.6697],
[25.1204,31.7289],
[25.0233,31.8551],
[25.033,31.9269],
[24.9826,31.9665],
[24.7825,32.0046],
[24.7346,32.0254],
[24.6534,32.0238],
[24.6124,31.9997],
[24.5431,31.9853],
[24.0876,32.0026],
[23.9904,32.0486],
[23.9697,32.0693],
[23.9897,32.0922],
[23.9521,32.1126],
[23.8,32.1553],
[23.7201,32.1751],
[23.6385,32.1833],
[23.4906,32.1822],
[23.2472,32.2162],
[23.2126,32.2703],
[23.1687,32.3012],
[23.0851,32.3321],
[23.1033,32.584],
[23.1192,32.6198],
[22.9951,32.6735],
[22.9339,32.6718],
[22.8689,32.6933],
[22.805,32.7256],
[22.5725,32.7839],
[22.5133,32.7856],
[22.3483,32.8781],
[22.1969,32.8844],
[22.0681,32.9108],
[22.004,32.9143],
[21.8547,32.9025],
[21.7833,32.9167],
[21.7139,32.9444],
[21.6278,32.9347],
[21.5347,32.87],
[21.4972,32.8319],
[21.4278,32.7967],
[21.3725,32.7783],
[21.2853,32.7703],
[21.07,32.7745],
[20.9694,32.7375],
[20.8711,32.6847],
[20.7042,32.6114],
[20.5605,32.5571],
[20.3372,32.4092],
[20.0844,32.1847],
[20.0092,32.0792],
[19.949,31.9771],
[19.9242,31.8233],
[19.9196,31.7482],
[19.9656,31.5236],
[20.0306,31.3778],
[20.0922,31.3194],
[20.1433,31.2103],
[20.1556,31.15],
[20.1535,31.0768],
[20.1089,30.9433],
[20.0274,30.8097],
[19.8714,30.6317],
[19.765,30.5189],
[19.6178,30.4172],
[19.3161,30.2864],
[19.2183,30.2669],
[19.0253,30.265],
[18.9264,30.2889],
[18.5975,30.4639],
[18.3589,30.6275],
[18.2989,30.6742],
[18.2206,30.7589],
[18.1792,30.7819],
[17.9232,30.8515],
[17.8083,30.9231],
[17.6042,30.9969],
[17.4699,31.0233],
[17.3672,31.0822],
[17.1331,31.1219],
[16.9296,31.1835],
[16.7058,31.2281],
[16.5236,31.2178],
[16.2549,31.2307],
[16.1828,31.2414],
[15.9768,31.2912],
[15.7543,31.3897],
[15.6887,31.4306],
[15.62,31.4901],
[15.4881,31.6599],
[15.3783,31.9029],
[15.3519,31.9958],
[15.3574,32.0298],
[15.3694,32.1545],
[15.2747,32.319],
[15.1893,32.3872],
[15.1286,32.4097],
[14.935,32.4372],
[14.725,32.4493],
[14.6246,32.4911],
[14.4867,32.5106],
[14.4486,32.5256],
[14.3172,32.6325],
[14.2003,32.7039],
[14.1708,32.7142],
[14.0181,32.7294],
[13.9128,32.7733],
[13.7758,32.7997],
[13.6428,32.7881],
[13.579,32.7956],
[13.3625,32.8962],
[13.2511,32.9189],
[13.1601,32.9096],
[13.1224,32.8836],
[13.0008,32.8428],
[12.909,32.8157],
[12.8139,32.7994],
[12.7411,32.7947],
[12.5594,32.8008],
[12.3439,32.8284],
[12.2761,32.8481],
[11.8776,33.065],
[11.7925,33.0831],
[11.6381,33.1017],
[11.5261,33.1711],
[11.517,33.1025],
[11.494,33.0435],
[11.4667,32.651],
[11.4728,32.6225],
[11.5583,32.5459],
[11.58,32.5031],
[11.5817,32.4708],
[11.5675,32.4422],
[11.4147,32.3531],
[11.0292,32.1997],
[10.8785,32.1323],
[10.8306,32.0414],
[10.7103,31.9644],
[10.5308,31.7614],
[10.4985,31.7371],
[10.4694,31.7212],
[10.3494,31.7303],
[10.3149,31.7193],
[10.2872,31.6942],
[10.1365,31.5024],
[10.1233,31.4225],
[10.2206,31.1979],
[10.2646,31.0768],
[10.2907,30.9104],
[10.2119,30.7285],
[10.0836,30.5881],
[9.8923,30.3563],
[9.864,30.3394],
[9.7351,30.316],
[9.5356,30.2414],
[9.5114,30.2228],
[9.3114,30.1272]
]
]
]}
}
