{
"type": "Feature",
"properties": {"id":"cshapes-700-1888-12-31","edge_precision":"unknown","cshapes_gwcode":700,"cshapes_name":"Afghanistan","cshapes_first_day":"1888-12-31","cshapes_last_day":"1893-11-11","cshapes_status":"protectorate","cshapes_owner":200,"cshapes_borders_defined":false},
"geometry": {"type": "MultiPolygon", "coordinates": [
[
[
[60.5044,34.1222],
[60.5092,34.0601],
[60.5536,33.8219],
[60.5517,33.7972],
[60.5406,33.7769],
[60.5087,33.74],
[60.5133,33.6897],
[60.5308,33.64],
[60.5705,33.6111],
[60.6661,33.5675],
[60.894,33.5558],
[60.9155,33.5479],
[60.9344,33.511],
[60.8776,33.5008],
[60.8527,33.4842],
[60.8033,33.3908],
[60.5833,33.1496],
[60.5825,33.0661],
[60.6597,32.8186],
[60.8328,32.3219],
[60.8583,32.226],
[60.8367,32.0903],
[60.8069,31.9967],
[60.8235,31.9485],
[60.8242,31.7744],
[60.8114,31.6597],
[60.8488,31.4961],
[61.7136,31.3833],
[61.7711,31.3183],
[61.7668,31.2562],
[61.8111,31.1772],
[61.8501,31.0239],
[61.7583,30.7903],
[60.8684,29.865],
[62.4844,29.4061],
[63.5872,29.5039],
[64.0171,29.4304],
[64.0591,29.4144],
[64.1628,29.4572],
[64.2114,29.4986],
[64.3797,29.5536],
[64.4882,29.5743],
[64.6605,29.5878],
[64.8733,29.5692],
[65.0341,29.5411],
[66.2567,29.8519],
[66.3621,29.9598],
[66.3196,29.9988],
[66.6981,30.1665],
[66.867,30.2212],
[66.9613,30.1814],
[67.0259,30.1665],
[67.0855,30.1169],
[67.1501,30.0871],
[67.2096,30.0473],
[67.4182,29.948],
[67.448,29.9033],
[67.5523,29.809],
[67.6914,29.6649],
[67.7559,29.5756],
[67.8702,29.4812],
[67.9149,29.4663],
[67.9695,29.4315],
[68.2526,29.4315],
[68.3171,29.4514],
[68.3767,29.4862],
[68.3817,29.5805],
[68.3618,29.6153],
[68.3122,29.6401],
[68.2426,29.66],
[68.1582,29.7047],
[68.1582,29.7345],
[68.188,29.7742],
[68.2526,29.7841],
[68.4115,29.8388],
[69.1366,29.8537],
[69.3154,29.8735],
[69.4941,29.9133],
[69.6878,30.0176],
[69.7226,30.0275],
[69.7772,30.0722],
[69.8517,30.1119],
[69.8716,30.1566],
[69.9113,30.1963],
[70.0007,30.3404],
[70.0404,30.39],
[70.105,30.4198],
[70.244,30.5142],
[70.3632,30.5191],
[70.547,30.5974],
[70.542,30.8643],
[70.5172,31.1722],
[70.4725,31.3609],
[70.4477,31.4205],
[70.403,31.5894],
[70.3732,31.6639],
[70.3434,31.6986],
[70.3185,31.788],
[70.2291,31.9519],
[70.1894,32.0612],
[70.1745,32.1257],
[70.1795,32.2648],
[70.244,32.3989],
[70.3583,32.523],
[70.4129,32.5628],
[70.4626,32.5628],
[70.6165,32.6323],
[70.6016,32.6919],
[70.5569,32.7217],
[70.4576,32.7316],
[70.4477,32.8012],
[70.4477,32.9303],
[70.4179,33.0147],
[70.393,33.0594],
[70.3334,33.114],
[70.2838,33.1389],
[70.254,33.1836],
[70.2279,33.2511],
[70.3781,33.3772],
[70.4526,33.3971],
[70.6463,33.407],
[70.7158,33.3921],
[70.8549,33.3872],
[70.9393,33.3673],
[71.0238,33.3623],
[71.2373,33.3226],
[71.5949,33.3226],
[71.6694,33.3971],
[71.6892,33.4269],
[71.7091,33.4964],
[71.7091,33.5709],
[71.6743,33.6405],
[71.5998,33.6504],
[71.5402,33.6454],
[71.436,33.6156],
[71.3764,33.6752],
[71.3714,33.8242],
[71.3813,33.9037],
[71.431,33.9931],
[71.4459,34.0427],
[71.4906,34.1073],
[71.57,34.1569],
[71.6942,34.2513],
[71.7886,34.2612],
[71.8631,34.3109],
[72.0468,34.3457],
[72.1362,34.3457],
[72.2604,34.3357],
[72.3647,34.3109],
[72.4938,34.2414],
[72.5683,34.2116],
[72.6527,34.2066],
[72.7421,34.2215],
[73.0699,34.4847],
[73.1444,34.5195],
[73.2238,34.5791],
[73.2983,34.6536],
[73.4026,34.6834],
[73.487,34.733],
[73.8297,34.8671],
[74.1525,34.892],
[74.1972,34.9218],
[74.4902,35.0409],
[74.5647,35.1154],
[74.6144,35.1403],
[74.6243,35.1949],
[74.5399,35.2495],
[74.4654,35.2744],
[74.4108,35.334],
[74.1922,35.4333],
[74.0085,35.4929],
[73.9638,35.5276],
[73.8893,35.5674],
[73.8198,35.5872],
[73.7552,35.7263],
[73.7453,35.8703],
[73.7552,35.9448],
[73.7999,36.0292],
[73.8446,36.0888],
[73.8992,36.1435],
[74.0234,36.218],
[74.1177,36.2329],
[74.2518,36.1484],
[74.3114,36.1236],
[74.6442,36.0193],
[74.7236,36.0143],
[74.8428,35.9895],
[74.9273,35.9498],
[74.9819,35.9498],
[75.0216,35.9895],
[75.0415,36.0491],
[75.0862,36.0988],
[75.1507,36.2627],
[75.2054,36.3669],
[75.2401,36.4563],
[75.3842,36.5805],
[75.2997,36.66],
[75.0415,36.799],
[74.9521,36.8884],
[74.9024,37.0374],
[74.9157,37.2373],
[74.823,37.3318],
[74.6696,37.3921],
[74.5468,37.3817],
[74.395,37.4012],
[74.2542,37.4094],
[74.1461,37.3362],
[73.8719,37.2672],
[73.8171,37.2282],
[73.7386,37.2216],
[73.6313,37.2429],
[73.6206,37.2635],
[73.6467,37.3001],
[73.7187,37.3088],
[73.7699,37.3435],
[73.7763,37.4329],
[73.7472,37.4386],
[73.613,37.4371],
[73.5051,37.4727],
[73.4564,37.4761],
[73.2769,37.453],
[73.1578,37.403],
[73.1078,37.3627],
[72.8925,37.25],
[72.7998,37.2292],
[72.778,37.2104],
[72.6625,37.0253],
[72.518,37.0017],
[72.4102,37.0026],
[72.3064,36.9781],
[72.2239,36.9427],
[71.8428,36.6921],
[71.8203,36.6846],
[71.6953,36.6718],
[71.6153,36.6978],
[71.5766,36.731],
[71.5529,36.7636],
[71.4569,36.9447],
[71.4308,37.0669],
[71.4375,37.1661],
[71.4478,37.2096],
[71.4893,37.2785],
[71.4933,37.3703],
[71.4872,37.4181],
[71.5044,37.6094],
[71.5419,37.7267],
[71.5886,37.8157],
[71.5936,37.8743],
[71.5849,37.9117],
[71.5403,37.9441],
[71.5072,37.9475],
[71.329,37.8901],
[71.2521,37.9279],
[71.2661,37.9823],
[71.3558,38.1551],
[71.3658,38.1953],
[71.3619,38.2479],
[71.306,38.2971],
[71.2482,38.3042],
[71.2125,38.3197],
[71.1513,38.381],
[70.9882,38.4667],
[70.9601,38.472],
[70.7794,38.4415],
[70.7114,38.4099],
[70.5426,38.2528],
[70.4903,38.1619],
[70.3419,38.0187],
[70.3042,37.9995],
[70.2446,37.9433],
[70.2094,37.9289],
[70.1625,37.929],
[70.1655,37.8717],
[70.1778,37.852],
[70.2357,37.8222],
[70.2692,37.7713],
[70.2861,37.6997],
[70.2536,37.6157],
[70.1558,37.5362],
[70.1279,37.5289],
[70.0139,37.5455],
[69.9512,37.5728],
[69.933,37.6026],
[69.9119,37.6132],
[69.8675,37.6083],
[69.793,37.5828],
[69.6719,37.5744],
[69.5222,37.5824],
[69.3815,37.4535],
[69.3744,37.388],
[69.3814,37.3442],
[69.4237,37.2018],
[69.41,37.1753],
[69.3886,37.1586],
[69.2867,37.1042],
[69.2544,37.0957],
[69.205,37.1164],
[69.1244,37.1642],
[69.0315,37.2536],
[69.0058,37.3007],
[68.9692,37.3229],
[68.8911,37.3385],
[68.8094,37.3225],
[68.6622,37.2729],
[68.6394,37.2439],
[68.6273,37.2061],
[68.415,37.12],
[68.3344,37.1089],
[68.2841,37.0305],
[68.1825,37.0176],
[68.058,36.9325],
[68.0014,36.9361],
[67.7869,37.0922],
[67.7742,37.1155],
[67.7802,37.1872],
[67.7732,37.2052],
[67.7496,37.2226],
[67.7258,37.2289],
[67.5264,37.2686],
[67.4564,37.2505],
[67.3808,37.2125],
[67.2461,37.185],
[67.2258,37.1975],
[67.2003,37.2467],
[67.0921,37.3433],
[67.0129,37.3797],
[66.9703,37.3825],
[66.7211,37.3556],
[66.5377,37.3664],
[66.5124,37.3617],
[66.4477,37.3202],
[66.4139,37.3437],
[66.2875,37.3265],
[66.1864,37.3719],
[66.1053,37.4214],
[65.7719,37.5375],
[65.6975,37.5326],
[65.6811,37.5169],
[65.6457,37.4539],
[65.6485,37.3523],
[65.563,37.2613],
[65.5242,37.2479],
[65.4678,37.245],
[65.0668,37.2429],
[64.7937,37.1215],
[64.7807,37.1025],
[64.7776,37.0626],
[64.8,36.9554],
[64.7929,36.9194],
[64.6374,36.689],
[64.6169,36.6364],
[64.6098,36.6],
[64.6304,36.5321],
[64.633,36.4864],
[64.6153,36.4236],
[64.5239,36.2994],
[64.4664,36.2514],
[64.3533,36.2308],
[64.1646,36.1647],
[63.9778,36.0392],
[63.889,36.0316],
[63.7689,35.9787],
[63.6131,35.9675],
[63.59,35.9583],
[63.5501,35.9179],
[63.5228,35.9029],
[63.3172,35.8522],
[63.1231,35.8628],
[63.1049,35.8319],
[63.1583,35.7642],
[63.1847,35.6736],
[63.1053,35.6337],
[63.0993,35.5564],
[63.1244,35.5397],
[63.1074,35.4569],
[63.0868,35.4322],
[63.023,35.4278],
[62.9033,35.3742],
[62.8369,35.3242],
[62.7271,35.2576],
[62.63,35.2258],
[62.5496,35.2367],
[62.5131,35.2737],
[62.4695,35.2876],
[62.4105,35.2505],
[62.3121,35.146],
[62.2738,35.2014],
[62.27,35.2562],
[62.1636,35.3358],
[62.0427,35.4412],
[61.9917,35.4589],
[61.9657,35.4592],
[61.7983,35.4117],
[61.5958,35.4442],
[61.5285,35.4837],
[61.5033,35.5094],
[61.4381,35.5532],
[61.3751,35.6361],
[61.2964,35.6285],
[61.2766,35.6072],
[61.2879,35.5556],
[61.2765,35.5176],
[61.1836,35.3486],
[61.1058,35.2818],
[61.0962,35.2362],
[61.0998,35.1766],
[61.136,35.1321],
[61.1317,35.0858],
[61.0511,34.7894],
[60.9767,34.6508],
[60.8532,34.5676],
[60.74,34.5447],
[60.7239,34.5279],
[60.7678,34.478],
[60.7983,34.4633],
[60.8836,34.3553],
[60.8789,34.3197],
[60.7667,34.3222],
[60.6751,34.314],
[60.5461,34.1964],
[60.511,34.1455],
[60.5044,34.1222]
]
]
]}
}
