{
"type": "Feature",
"properties": {"id":"cshapes-211-1886-01-01","edge_precision":"unknown","cshapes_gwcode":211,"cshapes_name":"Belgium","cshapes_first_day":"1886-01-01","cshapes_last_day":"2019-12-31","cshapes_status":"independent","cshapes_owner":211,"cshapes_borders_defined":true},
"geometry": {"type": "MultiPolygon", "coordinates": [
[
[
[2.5486,51.0926],
[2.5975,50.9958],
[2.5978,50.9258],
[2.6506,50.8161],
[2.8981,50.703],
[2.9606,50.7575],
[3.1164,50.7917],
[3.1586,50.7844],
[3.2426,50.6642],
[3.2793,50.54],
[3.2971,50.5243],
[3.37,50.4953],
[3.5181,50.5189],
[3.614,50.4929],
[3.6604,50.4553],
[3.6711,50.4371],
[3.6769,50.3953],
[3.7747,50.3539],
[3.8897,50.34],
[3.9839,50.3453],
[4.0358,50.356],
[4.165,50.2831],
[4.1944,50.2375],
[4.1472,50.01],
[4.1492,49.9784],
[4.1786,49.9781],
[4.2153,49.9596],
[4.3172,49.9697],
[4.4581,49.9392],
[4.5106,49.9475],
[4.6767,49.9992],
[4.6934,50.0567],
[4.6937,50.084],
[4.7631,50.1356],
[4.8247,50.1676],
[4.8859,50.1342],
[4.8389,50.0692],
[4.8208,49.9928],
[4.8685,49.8022],
[4.9097,49.7893],
[4.9906,49.8036],
[5.3311,49.6567],
[5.4325,49.6035],
[5.4749,49.5359],
[5.4728,49.5089],
[5.5225,49.51],
[5.6319,49.5358],
[5.8007,49.5438],
[5.836,49.5497],
[5.8631,49.5717],
[5.9003,49.6405],
[5.8992,49.6628],
[5.8728,49.7148],
[5.7903,49.7808],
[5.7526,49.7923],
[5.7344,49.835],
[5.7478,49.9075],
[5.7786,49.957],
[5.8344,49.9869],
[5.8877,50.0974],
[5.9731,50.17],
[6.0221,50.1815],
[6.0306,50.1631],
[6.126,50.1278],
[6.1667,50.2247],
[6.2808,50.2836],
[6.3896,50.3213],
[6.3716,50.4455],
[6.3392,50.4869],
[6.3135,50.4972],
[6.2647,50.4978],
[6.2478,50.5892],
[6.2656,50.6133],
[6.1672,50.6564],
[6.0118,50.7573],
[5.8989,50.7539],
[5.7975,50.7694],
[5.6953,50.7592],
[5.7042,50.782],
[5.6908,50.8094],
[5.6536,50.8236],
[5.6388,50.8489],
[5.6514,50.8751],
[5.7581,50.96],
[5.7769,51.0258],
[5.8181,51.115],
[5.8471,51.1532],
[5.7542,51.19],
[5.5683,51.2207],
[5.5529,51.2696],
[5.5083,51.2942],
[5.4044,51.266],
[5.239,51.2623],
[5.2333,51.3094],
[5.1935,51.3195],
[5.1419,51.3197],
[5.0811,51.4012],
[5.1012,51.4347],
[5.0768,51.4693],
[5.0385,51.4869],
[5.0172,51.4706],
[4.9971,51.4363],
[4.9405,51.4024],
[4.8531,51.4144],
[4.8328,51.43],
[4.8455,51.4753],
[4.8258,51.4922],
[4.7976,51.5012],
[4.7662,51.4999],
[4.7021,51.4669],
[4.6711,51.4326],
[4.6476,51.4232],
[4.5403,51.4312],
[4.5443,51.483],
[4.4843,51.4801],
[4.3957,51.4515],
[4.399,51.4139],
[4.4178,51.3983],
[4.4335,51.3701],
[4.4129,51.3585],
[4.2524,51.3751],
[4.261,51.3554],
[4.2802,51.3442],
[4.2868,51.3124],
[4.3277,51.2901],
[4.3097,51.262],
[4.3001,51.2677],
[4.312,51.2864],
[4.2806,51.3011],
[4.2389,51.3504],
[4.1672,51.2974],
[4.1278,51.2789],
[3.9525,51.2144],
[3.8954,51.2057],
[3.7938,51.2303],
[3.7887,51.2628],
[3.6,51.3042],
[3.5217,51.2833],
[3.523,51.259],
[3.4747,51.2426],
[3.4399,51.2448],
[3.3842,51.272],
[3.3736,51.31],
[3.3709,51.3739],
[3.104,51.3149],
[2.9553,51.2497],
[2.5486,51.0926]
]
]
]}
}
