{
"type": "Feature",
"properties": {"id":"cshapes-290-1919-09-10","edge_precision":"unknown","cshapes_gwcode":290,"cshapes_name":"Poland","cshapes_first_day":"1919-09-10","cshapes_last_day":"1920-10-06","cshapes_status":"independent","cshapes_owner":290,"cshapes_borders_defined":true},
"geometry": {"type": "MultiPolygon", "coordinates": [
[
[
[15.7795,52.6549],
[15.8296,52.5547],
[15.8296,52.4984],
[15.792,52.4608],
[15.7983,52.442],
[15.8609,52.3669],
[15.8546,52.2667],
[15.8734,52.2229],
[15.8922,52.0726],
[15.9986,52.0601],
[16.0362,52.0476],
[16.1426,51.8911],
[16.2303,51.9349],
[16.3242,51.8973],
[16.3555,51.8723],
[16.3805,51.8034],
[16.5496,51.7846],
[16.6497,51.722],
[16.7499,51.6845],
[16.7875,51.6344],
[16.8564,51.5905],
[16.9127,51.5905],
[16.9503,51.578],
[17.0442,51.5655],
[17.1819,51.578],
[17.257,51.6532],
[17.4198,51.6469],
[17.52,51.6156],
[17.5826,51.5467],
[17.5388,51.5029],
[17.5576,51.4716],
[17.6327,51.434],
[17.664,51.409],
[17.7016,51.3401],
[17.7141,51.2775],
[17.6953,51.2274],
[17.7391,51.2086],
[17.8017,51.1961],
[17.8456,51.1335],
[17.9082,51.1147],
[18.0083,51.121],
[18.0772,51.1773],
[18.1461,51.1773],
[18.24,51.1398],
[18.2963,51.1272],
[18.3589,51.146],
[18.4278,51.1085],
[18.4466,51.0584],
[18.4779,51.0208],
[18.6031,50.9895],
[18.6344,50.9269],
[18.6282,50.8956],
[18.6031,50.8518],
[18.7346,50.7829],
[18.672,50.7266],
[18.5906,50.714],
[18.5468,50.6639],
[18.5781,50.6201],
[18.7096,50.6076],
[18.7596,50.5826],
[18.7784,50.5199],
[18.8035,50.4699],
[18.9287,50.4073],
[18.9349,50.3446],
[18.6782,50.2194],
[18.6094,50.2069],
[18.4153,50.138],
[18.2588,50.1318],
[18.2463,50.113],
[18.24,50.0441],
[18.2946,49.952],
[18.3503,49.9389],
[18.5527,49.9224],
[18.5788,49.9096],
[18.5793,49.815],
[18.6342,49.7378],
[18.8108,49.6733],
[18.8394,49.595],
[18.8517,49.5223],
[18.9686,49.4817],
[18.9749,49.4019],
[19.0317,49.3919],
[19.1596,49.4003],
[19.1917,49.414],
[19.2424,49.5068],
[19.269,49.5267],
[19.4478,49.6008],
[19.4756,49.6],
[19.521,49.5742],
[19.5771,49.459],
[19.6586,49.4067],
[19.7106,49.3975],
[19.778,49.4075],
[19.805,49.3647],
[19.8257,49.2776],
[19.7736,49.2331],
[19.766,49.2144],
[19.7835,49.2002],
[19.8429,49.1918],
[19.8679,49.1971],
[19.9112,49.2262],
[19.9364,49.2311],
[19.9796,49.2264],
[20.0392,49.1889],
[20.0734,49.1779],
[20.0926,49.2049],
[20.1033,49.2486],
[20.1436,49.315],
[20.3606,49.3931],
[20.6028,49.3956],
[20.7408,49.3889],
[20.8125,49.3308],
[20.9136,49.2961],
[20.9824,49.3094],
[21.0356,49.3597],
[21.0506,49.4105],
[21.0715,49.4221],
[21.2819,49.4564],
[21.4593,49.4119],
[21.5336,49.4297],
[21.6126,49.4365],
[21.8381,49.3844],
[21.9586,49.3403],
[22.0201,49.2739],
[22.0299,49.2202],
[22.225,49.1547],
[22.3489,49.1385],
[22.5628,49.0833],
[22.5941,49.0915],
[22.842,49.0105],
[22.8652,48.9368],
[22.8867,48.9105],
[22.9226,48.9082],
[22.9608,48.8711],
[23.0301,48.8651],
[23.0707,48.8771],
[23.1137,48.8604],
[23.1471,48.8293],
[23.1663,48.7887],
[23.1925,48.7791],
[23.2547,48.7887],
[23.2833,48.7791],
[23.3347,48.7791],
[23.355,48.7552],
[23.5485,48.7385],
[23.6644,48.6692],
[23.748,48.6716],
[23.7636,48.6537],
[23.76,48.6238],
[23.7743,48.6059],
[23.8281,48.5749],
[23.8675,48.5808],
[23.8914,48.5605],
[23.8723,48.5175],
[23.901,48.4829],
[23.9452,48.5151],
[24.079,48.5545],
[24.079,48.5175],
[24.1327,48.4064],
[24.2307,48.3849],
[24.2438,48.4076],
[24.2749,48.4219],
[24.3931,48.3491],
[24.4672,48.2523],
[24.4827,48.2021],
[24.472,48.1747],
[24.5783,48.0755],
[24.5353,48.0492],
[24.5162,48.0253],
[24.5128,47.9554],
[24.5883,47.9458],
[24.6701,47.8955],
[24.9187,48.0605],
[25.0206,48.142],
[25.0818,48.2643],
[25.3263,48.3254],
[25.3671,48.3662],
[25.3671,48.4273],
[25.4078,48.5292],
[25.4893,48.6311],
[25.5709,48.6718],
[25.6524,48.6514],
[25.8154,48.6311],
[25.9173,48.6311],
[26.0803,48.5496],
[26.2841,48.5088],
[26.3656,48.5088],
[26.3249,48.5903],
[26.3122,48.6472],
[26.239,48.6821],
[26.2094,48.719],
[26.1996,48.7472],
[26.2357,48.8079],
[26.2127,48.8447],
[26.2094,48.8728],
[26.1733,48.9507],
[26.17,48.9744],
[26.2026,49.0183],
[26.2026,49.5073],
[26.2433,49.7314],
[26.077,49.7414],
[25.96,49.7018],
[25.882,49.6946],
[25.7595,49.6982],
[25.6146,49.7648],
[25.5088,49.8314],
[25.4921,49.8816],
[25.4308,49.9713],
[25.2637,50.05],
[25.2136,50.1001],
[25.1746,50.2784],
[25.1189,50.3211],
[24.9964,50.3566],
[24.8125,50.3318],
[24.6789,50.3637],
[24.5702,50.4631],
[24.5563,50.495],
[24.4783,50.5411],
[24.3781,50.5729],
[24.3168,50.58],
[24.2778,50.5941],
[24.1848,50.6039],
[24.1083,50.6305],
[24.0722,50.6958],
[23.9544,50.7917],
[23.9584,50.8152],
[23.981,50.8296],
[24.0769,50.8294],
[24.131,50.8382],
[24.1435,50.8596],
[24.0343,50.8983],
[23.9651,50.9504],
[23.9317,50.9941],
[23.905,51.0681],
[23.8111,51.1689],
[23.7319,51.2147],
[23.6839,51.2886],
[23.6812,51.3693],
[23.6928,51.4024],
[23.6436,51.485],
[23.6141,51.4986],
[23.6046,51.5277],
[23.5672,51.5396],
[23.5392,51.5928],
[23.535,51.6536],
[23.5555,51.6652],
[23.5478,51.6864],
[23.5581,51.7525],
[23.6268,51.9521],
[23.6608,52.0061],
[23.6386,52.0794],
[23.595,52.1119],
[23.3483,52.2068],
[23.2147,52.2235],
[23.1928,52.2332],
[23.1654,52.2823],
[23.2484,52.3745],
[23.3972,52.5144],
[23.5036,52.5675],
[23.5972,52.5964],
[23.6883,52.6172],
[23.7468,52.6146],
[23.9118,52.6932],
[23.9353,52.7175],
[23.9411,52.7497],
[23.9291,52.9113],
[23.9332,53.0121],
[23.8966,53.1023],
[23.9603,53.2653],
[23.9436,53.3152],
[23.9436,53.3618],
[23.9937,53.4116],
[24.0606,53.4514],
[24.0893,53.5506],
[24.0661,53.5673],
[24.0462,53.6195],
[24.0147,53.6421],
[23.9699,53.651],
[23.9268,53.6471],
[23.8538,53.6156],
[23.7908,53.6588],
[23.8174,53.7923],
[23.8406,53.8158],
[23.7842,53.898],
[23.7796,53.9355],
[23.7094,53.9239],
[23.5943,53.9308],
[23.5091,53.9534],
[23.5175,54.0387],
[23.4942,54.1172],
[23.4578,54.1742],
[23.3331,54.2472],
[23.2044,54.2872],
[23.1158,54.3044],
[22.9951,54.3858],
[22.8632,54.4083],
[22.8394,54.4056],
[22.8122,54.396],
[22.7811,54.3704],
[22.7688,54.2912],
[22.5599,54.2708],
[22.5294,54.2453],
[22.5498,54.2046],
[22.5803,54.1791],
[22.6007,54.0721],
[22.723,53.9804],
[22.7637,53.9396],
[22.7637,53.8989],
[22.7332,53.8479],
[22.7077,53.7817],
[22.6262,53.7664],
[22.6007,53.7359],
[22.4428,53.7053],
[22.3052,53.6391],
[22.2288,53.6136],
[22.132,53.5677],
[22.0811,53.5321],
[22.0301,53.5117],
[22.0148,53.5321],
[21.9282,53.527],
[21.9027,53.4964],
[21.862,53.4658],
[21.755,53.4862],
[21.5308,53.4913],
[21.3016,53.4557],
[21.164,53.4149],
[21.1131,53.3741],
[20.9246,53.2977],
[20.8736,53.2977],
[20.6902,53.3283],
[20.5221,53.3385],
[20.4813,53.3181],
[20.4355,53.2468],
[20.2928,53.2366],
[20.2521,53.2519],
[20.2317,53.2926],
[20.2062,53.3181],
[20.14,53.3334],
[20.0534,53.3792],
[20.033,53.3741],
[19.977,53.4404],
[19.9413,53.4557],
[19.9108,53.4964],
[19.8751,53.5015],
[19.8598,53.5372],
[19.8853,53.5626],
[19.8445,53.5932],
[19.7987,53.6136],
[19.7172,53.6187],
[19.6917,53.5983],
[19.5898,53.5677],
[19.4828,53.5983],
[19.4115,53.5983],
[19.3453,53.4964],
[19.2892,53.5066],
[19.2298,53.5685],
[19.227,53.5994],
[19.1117,53.6023],
[18.9402,53.5854],
[18.8812,53.6079],
[18.8418,53.6107],
[18.7617,53.6008],
[18.7406,53.6191],
[18.7378,53.6725],
[18.7659,53.7035],
[18.8249,53.7372],
[18.8305,53.7991],
[18.8193,53.83],
[18.8277,53.8497],
[18.8559,53.8694],
[18.8643,53.9228],
[18.8356,53.9335],
[18.8386,53.9898],
[18.7933,54.0391],
[18.7813,54.1507],
[18.5982,54.1306],
[18.5781,54.1186],
[18.4494,54.1045],
[18.2372,54.1457],
[18.2181,54.1648],
[18.2101,54.193],
[18.2201,54.2312],
[18.3609,54.2734],
[18.4011,54.2976],
[18.4534,54.3076],
[18.4776,54.3659],
[18.4695,54.4042],
[18.4725,54.4534],
[18.4937,54.4725],
[18.5228,54.4816],
[18.5288,54.4555],
[18.5952,54.4278],
[18.5743,54.4465],
[18.5667,54.5507],
[18.5478,54.5877],
[18.4061,54.7382],
[18.4669,54.7368],
[18.4834,54.7591],
[18.7062,54.6936],
[18.821,54.5937],
[18.8327,54.621],
[18.74,54.6853],
[18.3728,54.8161],
[18.3361,54.836],
[18.037,54.8337],
[18.0209,54.7397],
[18.0647,54.6771],
[18.0083,54.5895],
[18.0083,54.5456],
[17.9708,54.4893],
[17.9332,54.4768],
[17.8706,54.483],
[17.7892,54.4768],
[17.7892,54.4392],
[17.8456,54.4204],
[17.7517,54.3703],
[17.689,54.3015],
[17.6452,54.2764],
[17.5889,54.2702],
[17.5513,54.2514],
[17.5701,54.2138],
[17.6264,54.1763],
[17.6452,54.1074],
[17.6452,54.0573],
[17.6077,54.0385],
[17.4511,54.0448],
[17.351,54.0698],
[17.2383,54.0761],
[17.1882,54.0448],
[17.1882,54.0197],
[17.232,53.9321],
[17.2821,53.882],
[17.3697,53.8444],
[17.4073,53.8194],
[17.4887,53.738],
[17.4887,53.7004],
[17.4762,53.6691],
[17.4261,53.5877],
[17.3697,53.5627],
[17.3197,53.4625],
[17.2633,53.4312],
[17.2445,53.3937],
[17.2508,53.331],
[17.113,53.2559],
[17.0379,53.2559],
[16.9252,53.2371],
[16.656,53.0368],
[16.5997,53.0556],
[16.5684,53.0305],
[16.5621,52.9804],
[16.5308,52.8928],
[16.4619,52.8803],
[16.3054,52.8803],
[16.0988,52.8991],
[15.9861,52.8552],
[15.9423,52.849],
[15.9172,52.8051],
[15.911,52.7488],
[15.9172,52.7238],
[15.9047,52.6924],
[15.7795,52.6924],
[15.7795,52.6549]
]
]
]}
}
