{
"type": "Feature",
"properties": {"id":"cshapes-371-1991-12-26","edge_precision":"unknown","cshapes_gwcode":371,"cshapes_name":"Armenia","cshapes_first_day":"1991-12-26","cshapes_last_day":"2019-12-31","cshapes_status":"independent","cshapes_owner":371,"cshapes_borders_defined":true},
"geometry": {"type": "MultiPolygon", "coordinates": [
[
[
[43.4542,41.0949],
[43.4839,41.0228],
[43.5952,40.9933],
[43.6725,40.9265],
[43.7504,40.745],
[43.7414,40.6667],
[43.7179,40.6209],
[43.653,40.5314],
[43.5928,40.5011],
[43.5831,40.4511],
[43.6069,40.3689],
[43.6617,40.2744],
[43.7154,40.1572],
[43.6685,40.1462],
[43.6488,40.1249],
[43.6684,40.1032],
[43.9339,40.0136],
[44.0443,40.0103],
[44.2826,40.0461],
[44.4878,39.9628],
[44.5518,39.8987],
[44.5925,39.8318],
[44.7866,39.7088],
[44.8583,39.725],
[44.9268,39.7198],
[44.9605,39.7294],
[45.0471,39.7792],
[45.0755,39.7723],
[45.2664,39.6111],
[45.3269,39.539],
[45.465,39.494],
[45.6267,39.56],
[45.7384,39.5792],
[45.7919,39.5655],
[45.8194,39.5492],
[45.8289,39.4463],
[45.8556,39.348],
[45.9851,39.2754],
[46.0056,39.249],
[45.9694,39.1978],
[45.9687,39.1746],
[46.1236,38.91],
[46.1869,38.8426],
[46.2947,38.8958],
[46.3511,38.91],
[46.5404,38.8756],
[46.4955,38.9573],
[46.5022,38.9998],
[46.5236,39.0442],
[46.5178,39.0737],
[46.4951,39.1264],
[46.4244,39.1656],
[46.4231,39.2087],
[46.4558,39.2176],
[46.5417,39.1894],
[46.6205,39.2255],
[46.3982,39.3842],
[46.3842,39.406],
[46.386,39.4387],
[46.4043,39.4512],
[46.513,39.4756],
[46.5457,39.5494],
[46.5262,39.5781],
[46.3572,39.6265],
[46.3294,39.6251],
[46.2442,39.595],
[46.2076,39.5971],
[46.0575,39.6998],
[46.0087,39.7702],
[45.9176,39.7917],
[45.8507,39.829],
[45.8203,39.8604],
[45.7969,39.9179],
[45.7793,39.9405],
[45.7297,39.9583],
[45.6078,39.9718],
[45.5976,39.9974],
[45.6136,40.0144],
[45.638,40.0217],
[45.7136,40.0261],
[45.8805,40.014],
[45.908,40.0239],
[45.9774,40.1185],
[45.9977,40.2308],
[45.956,40.2721],
[45.8822,40.2675],
[45.638,40.3911],
[45.5364,40.4569],
[45.4136,40.608],
[45.3892,40.6637],
[45.4204,40.72],
[45.4555,40.7422],
[45.5769,40.7775],
[45.6027,40.8005],
[45.618,40.836],
[45.6194,40.8666],
[45.351,41.001],
[45.0964,41.0597],
[45.08,41.0804],
[45.0821,41.1136],
[45.176,41.115],
[45.2047,41.1208],
[45.2211,41.14],
[45.2114,41.1597],
[45.1436,41.2015],
[45.0469,41.2233],
[45.0229,41.2971],
[44.8697,41.2166],
[44.8489,41.2131],
[44.7286,41.2122],
[44.5662,41.1853],
[44.43,41.1922],
[44.2489,41.2236],
[44.1447,41.185],
[43.9928,41.1641],
[43.8565,41.1601],
[43.7914,41.1187],
[43.7562,41.1126],
[43.5701,41.1355],
[43.4608,41.113],
[43.4542,41.0949]
],
[
[44.9842,41.0576],
[44.9926,41.0854],
[45.0239,41.0871],
[45.0553,41.0597],
[45.0497,41.0387],
[45.0179,41.0318],
[44.9842,41.0576]
],
[
[45.202,40.9994],
[45.2411,40.9851],
[45.2292,40.9692],
[45.2064,40.9794],
[45.202,40.9994]
]
],
[
[
[45.4919,40.6369],
[45.5061,40.6121],
[45.5289,40.6061],
[45.5731,40.6325],
[45.5879,40.6511],
[45.5639,40.6642],
[45.5094,40.6618],
[45.4919,40.6369]
]
]
]}
}
