{
"type": "Feature",
"properties": {"id":"cshapes-820-1965-08-09","edge_precision":"unknown","cshapes_gwcode":820,"cshapes_name":"Malaysia","cshapes_first_day":"1965-08-09","cshapes_last_day":"2019-12-31","cshapes_status":"independent","cshapes_owner":820,"cshapes_borders_defined":true},
"geometry": {"type": "MultiPolygon", "coordinates": [
[
[
[99.6421,6.4147],
[99.6546,6.3653],
[99.7396,6.2489],
[99.8716,6.2882],
[99.923,6.3336],
[99.9155,6.3871],
[99.8695,6.4193],
[99.853,6.4642],
[99.7941,6.4117],
[99.7494,6.4078],
[99.71,6.4256],
[99.6421,6.4147]
]
],
[
[
[100.1275,6.4196],
[100.1719,6.2867],
[100.1912,6.2588],
[100.2383,6.226],
[100.2508,6.2083],
[100.3375,6.0278],
[100.3555,5.9639],
[100.3758,5.8211],
[100.3741,5.6833],
[100.3503,5.6092],
[100.3494,5.5778],
[100.3815,5.5189],
[100.4308,5.2825],
[100.4336,5.1942],
[100.4047,5.12],
[100.3623,5.0844],
[100.4022,4.9839],
[100.4462,4.9137],
[100.5108,4.8861],
[100.6055,4.7983],
[100.5936,4.751],
[100.583,4.3992],
[100.5722,4.34],
[100.6019,4.2217],
[100.624,4.1626],
[100.6908,4.1554],
[100.8685,4.0224],
[100.7786,3.9837],
[100.7509,3.9837],
[100.7244,3.995],
[100.7048,3.9827],
[100.697,3.9104],
[100.7037,3.89],
[100.7572,3.8425],
[100.8441,3.8443],
[100.8084,3.7967],
[100.8143,3.776],
[100.8686,3.7656],
[101.028,3.6281],
[101.0472,3.6051],
[101.0719,3.5347],
[101.109,3.469],
[101.1934,3.361],
[101.2352,3.3387],
[101.3002,3.2544],
[101.3194,3.1265],
[101.3663,3.0636],
[101.3711,3.0331],
[101.3661,2.9913],
[101.3161,2.9539],
[101.2814,2.8942],
[101.2857,2.8435],
[101.3133,2.8278],
[101.3688,2.8236],
[101.4136,2.8022],
[101.4816,2.7025],
[101.5494,2.655],
[101.698,2.5947],
[101.7676,2.5864],
[101.7855,2.5733],
[101.8497,2.4725],
[101.9314,2.4153],
[101.9921,2.3962],
[102.013,2.3561],
[102.1041,2.2686],
[102.1689,2.22],
[102.4675,2.1006],
[102.5533,2.0481],
[102.6993,1.8574],
[102.7204,1.8471],
[102.8112,1.8528],
[102.8316,1.8453],
[103.1914,1.6147],
[103.2878,1.5789],
[103.3745,1.5335],
[103.4058,1.4896],
[103.4546,1.3275],
[103.4644,1.31],
[103.5121,1.2695],
[103.6835,1.4456],
[103.8249,1.476],
[103.8461,1.4719],
[103.9048,1.4322],
[103.9711,1.4189],
[103.9985,1.4357],
[104.0105,1.4619],
[104.0111,1.535],
[103.971,1.5905],
[103.9585,1.6443],
[103.9802,1.6331],
[104.0776,1.5034],
[104.0477,1.4689],
[104.1049,1.3692],
[104.1809,1.3392],
[104.2116,1.3406],
[104.2775,1.3691],
[104.2933,1.4378],
[104.2536,1.6333],
[104.2233,1.7179],
[104.1158,1.9661],
[104.0583,2.0592],
[103.9775,2.2431],
[103.8983,2.3858],
[103.8364,2.4551],
[103.8271,2.4764],
[103.8339,2.5174],
[103.8202,2.5759],
[103.7653,2.6258],
[103.637,2.6641],
[103.6189,2.6806],
[103.5016,2.8081],
[103.4514,2.8882],
[103.438,2.9258],
[103.4347,3.0528],
[103.4544,3.181],
[103.4272,3.3297],
[103.4264,3.3925],
[103.4416,3.4401],
[103.4764,3.4987],
[103.463,3.5318],
[103.3711,3.6428],
[103.3364,3.7441],
[103.4139,3.9589],
[103.396,4.1114],
[103.4141,4.1508],
[103.4466,4.1664],
[103.4937,4.3087],
[103.465,4.4117],
[103.4538,4.4848],
[103.455,4.6269],
[103.4411,4.7653],
[103.41,4.8581],
[103.2791,5.0861],
[103.228,5.2056],
[103.1219,5.3774],
[103.0378,5.4769],
[102.9609,5.537],
[102.9214,5.5474],
[102.8422,5.5893],
[102.6657,5.7299],
[102.6052,5.8122],
[102.5017,5.8821],
[102.4119,6.0708],
[102.3586,6.1517],
[102.313,6.1894],
[102.2216,6.2175],
[102.1667,6.1936],
[102.0952,6.2361],
[102.0905,6.1542],
[102.0111,6.0383],
[101.9839,6.0137],
[101.9437,5.9565],
[101.9441,5.8671],
[101.8261,5.741],
[101.8007,5.746],
[101.7719,5.7775],
[101.7464,5.7892],
[101.6972,5.7629],
[101.6586,5.8217],
[101.6594,5.8506],
[101.6065,5.9053],
[101.571,5.9152],
[101.506,5.8806],
[101.3119,5.8072],
[101.2594,5.7146],
[101.2232,5.671],
[101.165,5.6383],
[101.1423,5.6335],
[101.0575,5.7292],
[100.9994,5.7758],
[100.9911,5.7943],
[101.0423,5.9018],
[101.0957,5.924],
[101.1192,5.9903],
[101.0991,6.1189],
[101.1143,6.1825],
[101.112,6.2507],
[101.0097,6.2694],
[100.9521,6.2408],
[100.8532,6.2439],
[100.8474,6.291],
[100.8544,6.3225],
[100.8282,6.4278],
[100.7514,6.5028],
[100.6814,6.4533],
[100.6566,6.4487],
[100.4369,6.5156],
[100.3803,6.5403],
[100.3352,6.5861],
[100.3307,6.6204],
[100.3002,6.6998],
[100.2094,6.7102],
[100.1941,6.6974],
[100.1745,6.6224],
[100.1927,6.5753],
[100.1684,6.4708],
[100.1275,6.4196]
]
],
[
[
[100.1797,5.4275],
[100.2039,5.2711],
[100.287,5.2544],
[100.3176,5.3354],
[100.3247,5.3808],
[100.3203,5.4278],
[100.3004,5.4535],
[100.2669,5.4658],
[100.1858,5.4623],
[100.1797,5.4275]
]
],
[
[
[104.1241,2.7758],
[104.1416,2.7308],
[104.1616,2.7079],
[104.2163,2.7166],
[104.2184,2.78],
[104.1887,2.8671],
[104.1695,2.8925],
[104.1241,2.7758]
]
],
[
[
[109.5473,1.9069],
[109.5639,1.8336],
[109.5913,1.7978],
[109.6158,1.7892],
[109.6672,1.7064],
[109.6687,1.617],
[109.7168,1.5607],
[109.8247,1.4686],
[109.9317,1.4069],
[109.996,1.2886],
[110.0778,1.2158],
[110.1083,1.1983],
[110.1917,1.1809],
[110.3325,1.0019],
[110.46,0.9028],
[110.5221,0.8653],
[110.5744,0.8528],
[110.7019,0.8781],
[110.8103,0.913],
[110.8163,0.9421],
[110.8855,1.0056],
[110.9069,1.0151],
[111.0241,1.0247],
[111.2119,1.0697],
[111.2583,1.0672],
[111.4194,1.0081],
[111.5651,1.0003],
[111.6553,1.0369],
[111.6758,1.036],
[111.7286,1.0089],
[111.8039,0.9946],
[111.8272,0.9986],
[111.8601,1.0204],
[111.8912,1.0757],
[111.9579,1.1324],
[112.0744,1.1356],
[112.1322,1.1498],
[112.2129,1.3761],
[112.2123,1.3987],
[112.1866,1.4071],
[112.1847,1.4253],
[112.2014,1.4501],
[112.4728,1.5681],
[112.6803,1.5631],
[112.8841,1.5881],
[112.9997,1.5728],
[113.0386,1.5569],
[113.0575,1.5398],
[113.1264,1.4317],
[113.3408,1.3653],
[113.4561,1.2883],
[113.5869,1.2836],
[113.6362,1.2336],
[113.6591,1.2258],
[113.7904,1.3047],
[113.8425,1.3486],
[113.9263,1.4431],
[114.0844,1.47],
[114.2314,1.4436],
[114.3955,1.509],
[114.448,1.4943],
[114.5114,1.4481],
[114.5385,1.4339],
[114.56,1.4329],
[114.5827,1.4463],
[114.6744,1.6425],
[114.7108,1.7706],
[114.7833,1.8639],
[114.8506,1.8962],
[114.8619,1.9153],
[114.8725,2.014],
[114.8626,2.0465],
[114.844,2.0456],
[114.8005,2.0647],
[114.7775,2.1578],
[114.7915,2.2168],
[114.8092,2.2548],
[114.873,2.2794],
[114.9043,2.2767],
[114.9419,2.2885],
[115.0017,2.3606],
[115.2308,2.5081],
[115.2361,2.5297],
[115.1853,2.5969],
[115.1284,2.6085],
[115.0998,2.5989],
[115.0824,2.6136],
[115.1183,2.8511],
[115.1397,2.9061],
[115.2497,3.0108],
[115.3046,3.0093],
[115.3183,2.9878],
[115.378,2.9918],
[115.4872,3.0275],
[115.4972,3.0451],
[115.5208,3.1801],
[115.511,3.2042],
[115.5365,3.326],
[115.5708,3.4178],
[115.59,3.4264],
[115.6139,3.4204],
[115.6277,3.4343],
[115.6019,3.5392],
[115.5765,3.5901],
[115.5714,3.6661],
[115.6625,4.0783],
[115.6604,4.1032],
[115.6871,4.1738],
[115.8505,4.3217],
[115.8575,4.3441],
[115.8803,4.3646],
[115.9814,4.3414],
[116.0042,4.33],
[116.0544,4.2795],
[116.0742,4.2836],
[116.1533,4.355],
[116.3147,4.3578],
[116.46,4.2943],
[116.5306,4.3251],
[116.6419,4.3347],
[116.8398,4.3304],
[116.9105,4.3522],
[117.0439,4.3369],
[117.1842,4.3359],
[117.2236,4.3587],
[117.2456,4.3561],
[117.4063,4.2485],
[117.4461,4.1922],
[117.4978,4.1789],
[117.5921,4.1698],
[117.6011,4.1997],
[117.6495,4.2624],
[117.6526,4.2818],
[117.6292,4.3536],
[117.693,4.3747],
[117.863,4.2872],
[117.9057,4.246],
[117.9959,4.2242],
[118.125,4.2905],
[118.1836,4.3078],
[118.4044,4.3489],
[118.5412,4.3521],
[118.6299,4.4151],
[118.6431,4.4408],
[118.5948,4.5212],
[118.544,4.5255],
[118.5093,4.5006],
[118.4673,4.5384],
[118.487,4.5649],
[118.4853,4.5928],
[118.4353,4.6123],
[118.4172,4.5933],
[118.2823,4.6808],
[118.1323,4.8536],
[118.1405,4.8883],
[118.2074,4.9618],
[118.3543,5.0358],
[118.4133,5.0306],
[118.4468,4.999],
[118.5497,4.9586],
[118.7061,4.9454],
[118.9133,5.0278],
[119.0697,5.07],
[119.1936,5.1239],
[119.2192,5.1431],
[119.2444,5.1764],
[119.2725,5.2236],
[119.2758,5.345],
[119.2389,5.4036],
[119.1861,5.4431],
[119.1242,5.4309],
[119.1026,5.4133],
[119.0703,5.4044],
[118.9347,5.4297],
[118.6922,5.5914],
[118.6489,5.6378],
[118.579,5.6889],
[118.4705,5.7607],
[118.368,5.8089],
[118.2587,5.8275],
[118.1767,5.8039],
[118.159,5.7924],
[118.1255,5.6894],
[117.9555,5.6851],
[117.9178,5.755],
[117.9082,5.7976],
[117.9314,5.8136],
[118.0405,5.8033],
[118.0858,5.8131],
[118.1219,5.8585],
[118.0486,6.0194],
[118.0069,6.0612],
[117.9866,6.0562],
[117.8869,5.9526],
[117.7822,5.915],
[117.5031,5.8961],
[117.6365,5.9444],
[117.6713,5.977],
[117.6753,5.9975],
[117.6628,6.0889],
[117.6019,6.1781],
[117.6004,6.1925],
[117.6125,6.2202],
[117.6422,6.2436],
[117.6717,6.2553],
[117.7097,6.2493],
[117.7253,6.263],
[117.7393,6.3869],
[117.7244,6.4233],
[117.6767,6.4914],
[117.6485,6.5147],
[117.5586,6.5378],
[117.4665,6.5394],
[117.3017,6.6262],
[117.2771,6.6664],
[117.2531,6.7678],
[117.245,6.8617],
[117.2521,6.8818],
[117.2512,6.9367],
[117.1736,6.9924],
[117.1451,7.0015],
[117.0894,6.9931],
[117.0311,6.9349],
[117.0297,6.9108],
[117.0544,6.8433],
[117.048,6.8256],
[116.8625,6.5964],
[116.8242,6.58],
[116.8,6.5767],
[116.7838,6.5842],
[116.7769,6.6011],
[116.7808,6.6433],
[116.8097,6.7031],
[116.849,6.7525],
[116.8597,6.8033],
[116.8511,6.8981],
[116.8324,6.9651],
[116.7603,7.0206],
[116.7158,6.9678],
[116.659,6.8515],
[116.6429,6.7668],
[116.6439,6.7011],
[116.505,6.5383],
[116.5075,6.5106],
[116.5007,6.4935],
[116.3286,6.3633],
[116.11,6.1278],
[116.0903,5.9778],
[116.0533,5.9003],
[116.0511,5.8408],
[116.0142,5.8094],
[115.9441,5.77],
[115.917,5.7428],
[115.8953,5.6449],
[115.8489,5.5639],
[115.8175,5.5339],
[115.7625,5.5203],
[115.5283,5.5175],
[115.3803,5.401],
[115.3597,5.3167],
[115.4851,5.2208],
[115.5358,5.1996],
[115.5591,5.2025],
[115.5742,5.1792],
[115.5577,5.0686],
[115.5289,5.0419],
[115.4797,5.0228],
[115.3667,4.9033],
[115.3278,4.8937],
[115.2864,4.9258],
[115.2142,4.9565],
[115.1458,4.9032],
[115.223,4.805],
[115.2825,4.6117],
[115.2644,4.5411],
[115.2756,4.4451],
[115.3478,4.3642],
[115.3585,4.341],
[115.346,4.3146],
[115.3205,4.3156],
[115.108,4.3774],
[115.0964,4.3914],
[115.0267,4.6567],
[115.0208,4.7533],
[115.0289,4.8181],
[115.0184,4.8958],
[114.9843,4.8373],
[114.954,4.8196],
[114.8526,4.8036],
[114.7835,4.7427],
[114.7789,4.715],
[114.8155,4.5808],
[114.8292,4.4739],
[114.8392,4.441],
[114.859,4.4326],
[114.8669,4.3553],
[114.8064,4.1446],
[114.7054,4.05],
[114.644,4.0202],
[114.6145,4.0263],
[114.6085,4.0557],
[114.4755,4.2],
[114.4,4.2564],
[114.3296,4.3335],
[114.309,4.4332],
[114.241,4.5268],
[114.1598,4.5865],
[113.9922,4.5985],
[113.971,4.5872],
[113.9644,4.5624],
[113.9919,4.4847],
[113.9947,4.4397],
[113.9644,4.3214],
[113.9261,4.2442],
[113.7355,3.9969],
[113.6697,3.9325],
[113.5178,3.8081],
[113.415,3.6919],
[113.3883,3.6433],
[113.275,3.4861],
[113.0422,3.1906],
[113.0105,3.1606],
[112.953,3.1289],
[112.8647,3.1008],
[112.093,2.9053],
[111.9503,2.8801],
[111.7936,2.8689],
[111.6626,2.8452],
[111.4439,2.689],
[111.4031,2.4808],
[111.4503,2.3686],
[111.3941,2.3561],
[111.3681,2.3391],
[111.3157,2.3874],
[111.2447,2.4293],
[111.221,2.4181],
[111.2111,2.3986],
[111.183,2.2622],
[111.1728,2.146],
[111.1919,2.1411],
[111.355,2.1631],
[111.3719,2.1581],
[111.37,2.1467],
[111.3362,2.1079],
[111.2473,2.1191],
[111.2056,2.0664],
[111.1733,1.9481],
[111.0644,1.6822],
[111.0353,1.6703],
[111.0219,1.6494],
[111.0007,1.5799],
[111.0036,1.5514],
[111.0579,1.4619],
[111.1659,1.397],
[111.1882,1.3959],
[111.2419,1.4158],
[111.2872,1.4131],
[111.3783,1.346],
[111.3194,1.3331],
[111.1555,1.3639],
[111.063,1.405],
[110.9765,1.4964],
[110.8294,1.5653],
[110.7898,1.5694],
[110.7717,1.5585],
[110.7691,1.4933],
[110.7622,1.4794],
[110.7342,1.4528],
[110.6875,1.4447],
[110.6758,1.4505],
[110.735,1.5021],
[110.7405,1.5215],
[110.7281,1.5448],
[110.48,1.6242],
[110.4772,1.6433],
[110.3364,1.7994],
[110.3175,1.794],
[110.2531,1.7056],
[109.9818,1.6823],
[109.928,1.6905],
[109.8994,1.7219],
[109.6991,1.8607],
[109.6515,1.9364],
[109.6555,2.0028],
[109.6467,2.0677],
[109.6308,2.0317],
[109.5473,1.9069]
]
],
[
[
[111.2944,2.7409],
[111.3118,2.4972],
[111.3047,2.4582],
[111.3508,2.3719],
[111.368,2.3596],
[111.4115,2.3764],
[111.3769,2.4953],
[111.3797,2.7032],
[111.3499,2.7659],
[111.3289,2.7803],
[111.308,2.7717],
[111.2944,2.7409]
]
],
[
[
[116.8692,7.2235],
[116.9082,7.2335],
[116.958,7.2417],
[117.018,7.2667],
[117.0175,7.3083],
[117.0052,7.3476],
[116.8827,7.2772],
[116.8692,7.2235]
]
],
[
[
[117.0519,7.1708],
[117.0729,7.105],
[117.0894,7.1189],
[117.0982,7.1372],
[117.1494,7.1686],
[117.2505,7.1792],
[117.2765,7.2417],
[117.283,7.3194],
[117.2733,7.3388],
[117.2222,7.3528],
[117.1451,7.334],
[117.0666,7.2778],
[117.0519,7.1708]
]
],
[
[
[117.3369,6.6542],
[117.3507,6.641],
[117.4123,6.6258],
[117.4412,6.6307],
[117.5007,6.6633],
[117.5142,6.684],
[117.5149,6.7058],
[117.4919,6.7443],
[117.4679,6.7614],
[117.4104,6.7471],
[117.4017,6.73],
[117.4386,6.7183],
[117.4446,6.7061],
[117.4378,6.6926],
[117.3986,6.6769],
[117.3427,6.6725],
[117.3369,6.6542]
]
],
[
[
[117.6437,4.213],
[117.6869,4.1683],
[117.7266,4.1697],
[117.904,4.1737],
[117.7461,4.2583],
[117.6858,4.2599],
[117.6443,4.2333],
[117.6437,4.213]
]
],
[
[
[118.3499,4.672],
[118.5297,4.6003],
[118.5682,4.5994],
[118.596,4.6383],
[118.4789,4.6892],
[118.3499,4.672]
]
]
]}
}
