{
"type": "Feature",
"properties": {"id":"cshapes-730-1886-01-01","edge_precision":"unknown","cshapes_gwcode":730,"cshapes_name":"Korea","cshapes_first_day":"1886-01-01","cshapes_last_day":"1910-08-22","cshapes_status":"independent","cshapes_owner":730,"cshapes_borders_defined":true},
"geometry": {"type": "MultiPolygon", "coordinates": [
[
[
[124.324,39.9159],
[124.3636,39.865],
[124.4064,39.8317],
[124.4989,39.8211],
[124.5617,39.8],
[124.6501,39.6769],
[124.6311,39.6499],
[124.6359,39.598],
[124.7408,39.6293],
[124.7557,39.6778],
[124.7464,39.7142],
[124.7453,39.7732],
[124.8461,39.7214],
[125.1203,39.5587],
[125.2904,39.5193],
[125.442,39.5767],
[125.4504,39.5724],
[125.3468,39.4593],
[125.3381,39.4345],
[125.36,39.3935],
[125.4017,39.3589],
[125.4219,39.308],
[125.4117,39.2797],
[125.3883,39.2375],
[125.3397,39.2033],
[125.2903,39.1553],
[125.2841,39.1155],
[125.1997,38.9219],
[125.1494,38.8696],
[125.1405,38.7981],
[125.2447,38.7164],
[125.2832,38.6971],
[125.4322,38.7222],
[125.5172,38.7178],
[125.633,38.6549],
[125.6521,38.6294],
[125.6492,38.6221],
[125.6255,38.6242],
[125.5925,38.6368],
[125.554,38.6742],
[125.4472,38.7005],
[125.3771,38.6918],
[125.309,38.6517],
[125.1566,38.6447],
[125.0553,38.5807],
[124.9933,38.5864],
[124.9583,38.4633],
[124.8655,38.3325],
[124.8625,38.2292],
[124.8214,38.1889],
[124.7441,38.1439],
[124.6763,38.1396],
[124.6701,38.1195],
[124.7669,38.0967],
[124.865,38.1029],
[125.0218,38.0629],
[125.133,38.0911],
[125.2569,38.0773],
[125.2738,38.0637],
[125.2416,38.014],
[125.2061,38.043],
[125.1175,38.0425],
[124.9829,37.9333],
[125.0215,37.8955],
[125.1325,37.868],
[125.176,37.8642],
[125.219,37.8888],
[125.24,37.9271],
[125.3528,37.8617],
[125.3875,37.8961],
[125.4561,37.9125],
[125.5097,37.8855],
[125.4875,37.8375],
[125.3839,37.7924],
[125.3335,37.7161],
[125.34,37.6758],
[125.3807,37.7087],
[125.5211,37.7844],
[125.5654,37.7823],
[125.6431,37.8189],
[125.7244,37.9108],
[125.6462,37.9665],
[125.5925,37.9918],
[125.5771,38.0171],
[125.6053,38.0261],
[125.7485,38.0026],
[125.8037,37.9853],
[125.8244,37.9411],
[125.9201,37.8359],
[125.9851,37.8292],
[125.9722,37.8691],
[125.9433,37.8901],
[125.97,37.9057],
[126.0428,37.8636],
[126.0664,37.7947],
[126.1048,37.7412],
[126.1494,37.7344],
[126.1611,37.7576],
[126.1435,37.8183],
[126.2082,37.8454],
[126.3886,37.8872],
[126.3998,37.886],
[126.4215,37.8569],
[126.4792,37.8203],
[126.5824,37.772],
[126.6247,37.7886],
[126.6885,37.8339],
[126.6805,37.6844],
[126.6414,37.7606],
[126.5397,37.7631],
[126.5321,37.7183],
[126.5493,37.6451],
[126.5725,37.62],
[126.6292,37.5914],
[126.6521,37.5667],
[126.6684,37.4852],
[126.6291,37.4845],
[126.664,37.4062],
[126.7419,37.3868],
[126.7222,37.328],
[126.7705,37.3047],
[126.8103,37.2965],
[126.8436,37.3063],
[126.8618,37.2655],
[126.7594,37.2385],
[126.6994,37.2622],
[126.6619,37.2517],
[126.661,37.159],
[126.6911,37.123],
[126.718,37.1287],
[126.7658,37.1724],
[126.8694,37.1743],
[126.8616,37.1409],
[126.7762,37.1216],
[126.7548,37.0479],
[126.868,36.9487],
[126.9164,36.9176],
[127.0002,36.9297],
[126.9922,36.9108],
[126.9061,36.8169],
[126.833,36.7609],
[126.8324,36.8862],
[126.8244,36.9115],
[126.7721,36.9675],
[126.62,36.9728],
[126.5696,37.0232],
[126.5215,37.0512],
[126.5008,37.0512],
[126.4905,36.9955],
[126.5142,36.9414],
[126.4965,36.8675],
[126.4748,36.8432],
[126.4633,36.8639],
[126.4621,36.8965],
[126.4756,36.9226],
[126.431,37.0022],
[126.3928,37.0047],
[126.3451,36.9914],
[126.3497,36.9517],
[126.3864,36.93],
[126.4104,36.9346],
[126.4148,36.9051],
[126.4011,36.8519],
[126.3247,36.8039],
[126.287,36.793],
[126.2799,36.8125],
[126.3196,36.8787],
[126.3089,36.9422],
[126.2948,36.9621],
[126.1864,36.8804],
[126.1917,36.8199],
[126.1643,36.8097],
[126.1289,36.7517],
[126.1258,36.7072],
[126.1694,36.674],
[126.1894,36.6708],
[126.237,36.6846],
[126.2661,36.7112],
[126.299,36.6336],
[126.2931,36.5819],
[126.3155,36.5994],
[126.3293,36.6548],
[126.3063,36.6889],
[126.35,36.7393],
[126.4724,36.7428],
[126.4972,36.7239],
[126.5161,36.6597],
[126.5147,36.5907],
[126.4672,36.5794],
[126.4958,36.3942],
[126.5366,36.2192],
[126.5444,36.1364],
[126.6888,36.0014],
[126.7395,36.0058],
[126.8692,36.0606],
[126.872,36.0562],
[126.8612,36.0392],
[126.7619,35.9953],
[126.6327,35.9657],
[126.6147,35.9226],
[126.6173,35.891],
[126.7294,35.8825],
[126.7854,35.8939],
[126.8011,35.8617],
[126.7451,35.7774],
[126.7012,35.7686],
[126.6373,35.7396],
[126.4771,35.6379],
[126.4697,35.6068],
[126.4826,35.5901],
[126.5105,35.5767],
[126.5414,35.5878],
[126.6546,35.5939],
[126.6721,35.5808],
[126.6844,35.5334],
[126.6194,35.5469],
[126.526,35.526],
[126.4892,35.5061],
[126.4244,35.4103],
[126.3875,35.3369],
[126.3636,35.2278],
[126.3605,35.1803],
[126.4161,35.1154],
[126.4572,35.0926],
[126.4572,35.0689],
[126.4213,35.0205],
[126.3597,35.0692],
[126.3442,35.1047],
[126.3525,35.1321],
[126.345,35.1517],
[126.2596,35.1308],
[126.2487,35.1135],
[126.3042,34.9619],
[126.3359,34.9216],
[126.4336,34.9636],
[126.3756,34.7914],
[126.5108,34.7785],
[126.5323,34.8104],
[126.54,34.873],
[126.5908,34.8775],
[126.6603,34.8101],
[126.6321,34.7814],
[126.4941,34.7505],
[126.4847,34.7233],
[126.5031,34.7153],
[126.6143,34.6195],
[126.5272,34.6151],
[126.4594,34.644],
[126.4325,34.6194],
[126.4517,34.578],
[126.4175,34.5958],
[126.3151,34.7453],
[126.2921,34.7458],
[126.2661,34.6771],
[126.2883,34.5903],
[126.3155,34.5665],
[126.3914,34.5439],
[126.4623,34.4776],
[126.4783,34.3453],
[126.5564,34.3005],
[126.5972,34.2999],
[126.7608,34.5655],
[126.7807,34.5854],
[126.8003,34.5726],
[126.8008,34.4631],
[126.8143,34.444],
[126.8894,34.4125],
[126.8924,34.4421],
[126.9383,34.4872],
[126.9664,34.5042],
[126.9882,34.5334],
[127.0097,34.6022],
[127.0917,34.6505],
[127.2167,34.7075],
[127.3351,34.7401],
[127.3522,34.6954],
[127.3305,34.6543],
[127.2422,34.5694],
[127.1958,34.5719],
[127.2077,34.6242],
[127.1262,34.5514],
[127.136,34.5197],
[127.1683,34.5119],
[127.2436,34.5114],
[127.3153,34.4436],
[127.3894,34.4711],
[127.5128,34.5908],
[127.4873,34.6399],
[127.3939,34.6979],
[127.3639,34.7514],
[127.4183,34.8186],
[127.5225,34.8569],
[127.5678,34.7667],
[127.5553,34.6537],
[127.5764,34.6383],
[127.6379,34.616],
[127.7458,34.7254],
[127.7694,34.795],
[127.7737,34.8351],
[127.7058,34.8378],
[127.6611,34.8129],
[127.6386,34.8142],
[127.5764,34.8869],
[127.5689,34.9149],
[127.5971,34.9401],
[127.6317,34.9026],
[127.6519,34.903],
[127.7674,34.9603],
[127.8735,34.9417],
[128.0205,34.9864],
[128.0503,34.9395],
[128.0697,34.923],
[128.1764,34.8894],
[128.2068,34.8986],
[128.2157,34.9289],
[128.335,34.9465],
[128.3511,34.9314],
[128.3513,34.9037],
[128.3355,34.8714],
[128.406,34.8328],
[128.4461,34.8412],
[128.4665,34.8772],
[128.5014,35.0083],
[128.4784,35.0507],
[128.3779,35.0083],
[128.3821,35.0392],
[128.5728,35.17],
[128.6114,35.1733],
[128.62,35.1486],
[128.7105,35.1011],
[128.8105,35.0842],
[128.9257,35.0921],
[128.9739,35.1348],
[128.9786,35.085],
[129.1369,35.1122],
[129.2375,35.1899],
[129.2794,35.2983],
[129.3448,35.3437],
[129.4394,35.4758],
[129.4679,35.5437],
[129.4741,35.5945],
[129.4648,35.6446],
[129.4866,35.6833],
[129.5869,36.0039],
[129.5853,36.0349],
[129.5617,36.0741],
[129.4605,35.9952],
[129.4223,35.9988],
[129.392,36.0228],
[129.3819,36.3115],
[129.3879,36.3334],
[129.4379,36.4018],
[129.4505,36.5035],
[129.4223,36.5717],
[129.4198,36.6269],
[129.4405,36.6625],
[129.4627,36.6783],
[129.4723,36.7014],
[129.4718,36.7803],
[129.4293,36.8739],
[129.4161,36.9422],
[129.415,37.0251],
[129.4294,37.0599],
[129.3625,37.15],
[129.3536,37.231],
[129.3425,37.2572],
[129.0632,37.6315],
[129.063,37.6632],
[129.05,37.6858],
[128.8805,37.85],
[128.8606,37.8578],
[128.6369,38.1224],
[128.5325,38.3306],
[128.3636,38.6252],
[128.3627,38.6769],
[128.3372,38.7022],
[128.2933,38.7275],
[128.2636,38.7379],
[128.2014,38.7353],
[128.1222,38.8192],
[128.065,38.8464],
[128.0108,38.8585],
[127.8558,38.9874],
[127.7828,39.0883],
[127.6455,39.125],
[127.5408,39.1403],
[127.4478,39.1645],
[127.3997,39.1953],
[127.3764,39.2351],
[127.3747,39.3722],
[127.4575,39.4201],
[127.4978,39.4278],
[127.5317,39.3887],
[127.5362,39.359],
[127.5243,39.3422],
[127.5283,39.303],
[127.5584,39.3192],
[127.5307,39.4567],
[127.5044,39.6447],
[127.5031,39.7128],
[127.5176,39.7396],
[127.5605,39.7822],
[127.6123,39.8112],
[127.869,39.8859],
[127.9336,39.9717],
[128.0014,40.0372],
[128.1841,40.0236],
[128.3325,40.0536],
[128.598,40.1742],
[128.6367,40.2728],
[128.8733,40.3643],
[128.9778,40.4504],
[129.0779,40.4622],
[129.1079,40.4779],
[129.1707,40.5629],
[129.1705,40.5855],
[129.2152,40.6793],
[129.5646,40.8212],
[129.6642,40.8336],
[129.702,40.8307],
[129.7273,40.8599],
[129.7522,40.9419],
[129.723,40.9801],
[129.7186,41.0039],
[129.7139,41.1122],
[129.7197,41.1805],
[129.7697,41.3003],
[129.788,41.3258],
[129.8036,41.3774],
[129.6962,41.4358],
[129.6666,41.4796],
[129.6642,41.5497],
[129.6979,41.6457],
[129.7822,41.756],
[129.8472,41.7567],
[129.9497,41.8839],
[129.9841,41.9799],
[130.2083,42.1678],
[130.4208,42.3119],
[130.5003,42.3239],
[130.5797,42.3051],
[130.5963,42.2789],
[130.5997,42.2546],
[130.6823,42.2799],
[130.6974,42.2922],
[130.655,42.3181],
[130.659,42.3753],
[130.6328,42.4114],
[130.5865,42.4271],
[130.5675,42.443],
[130.5142,42.5681],
[130.3284,42.6418],
[130.2468,42.7142],
[130.2362,42.7862],
[130.2503,42.8317],
[130.2514,42.8879],
[130.0341,42.958],
[129.9292,43.0061],
[129.9046,43.0046],
[129.8777,42.9918],
[129.847,42.9425],
[129.7533,42.7139],
[129.7255,42.5475],
[129.7329,42.5222],
[129.7283,42.4754],
[129.7166,42.4525],
[129.6955,42.4358],
[129.5147,42.3869],
[129.4451,42.4328],
[129.3493,42.4462],
[129.2461,42.3758],
[129.2094,42.2658],
[129.2112,42.2213],
[129.1144,42.1394],
[129.0154,42.0946],
[128.9581,42.0784],
[128.9493,42.0521],
[128.9269,42.0274],
[128.6831,42.021],
[128.5703,42.0003],
[128.4971,41.9955],
[128.4729,41.9976],
[128.4225,42.0286],
[128.3361,42.0397],
[128.2755,42.0383],
[128.0566,42.0012],
[128.0501,41.9816],
[128.0608,41.9105],
[128.0984,41.803],
[128.1557,41.7146],
[128.2694,41.6369],
[128.3002,41.5828],
[128.2822,41.5303],
[128.2225,41.4411],
[128.1927,41.4075],
[128.1529,41.3812],
[128.1143,41.3718],
[128.0441,41.3894],
[128.0117,41.4158],
[127.928,41.4473],
[127.8353,41.41],
[127.6942,41.4131],
[127.6208,41.4181],
[127.2708,41.4725],
[127.1594,41.53],
[127.135,41.5936],
[127.057,41.6435],
[127.0608,41.6911],
[127.048,41.7083],
[126.9276,41.7961],
[126.9047,41.7922],
[126.8479,41.7358],
[126.7955,41.708],
[126.7128,41.6911],
[126.6455,41.6605],
[126.5661,41.6118],
[126.568,41.5897],
[126.5832,41.5708],
[126.5103,41.39],
[126.484,41.3667],
[126.4561,41.3572],
[126.3669,41.2757],
[126.31,41.2144],
[126.2792,41.1528],
[126.1247,41.0347],
[126.0118,40.8969],
[125.9325,40.8776],
[125.6958,40.8561],
[125.6039,40.7558],
[125.4575,40.7033],
[125.4127,40.6538],
[125.3691,40.64],
[125.315,40.65],
[125.2861,40.6475],
[125.0428,40.5375],
[125.0247,40.4942],
[125.04,40.4607],
[124.9622,40.4592],
[124.8851,40.4704],
[124.711,40.307],
[124.6269,40.2836],
[124.5547,40.2422],
[124.375,40.097],
[124.3886,40.0225],
[124.324,39.9159]
]
],
[
[
[126.0999,34.416],
[126.1082,34.3854],
[126.1469,34.355],
[126.1991,34.3533],
[126.3447,34.403],
[126.3831,34.4765],
[126.3799,34.4942],
[126.335,34.54],
[126.2472,34.5724],
[126.0999,34.416]
]
],
[
[
[126.1565,33.2842],
[126.1705,33.2625],
[126.2656,33.1922],
[126.2882,33.1943],
[126.3122,33.2178],
[126.3357,33.2264],
[126.4208,33.2351],
[126.4793,33.2219],
[126.6222,33.24],
[126.8453,33.31],
[126.9128,33.3847],
[126.9367,33.4244],
[126.9411,33.4539],
[126.8944,33.5243],
[126.8397,33.5364],
[126.8223,33.5495],
[126.7931,33.5508],
[126.6336,33.5317],
[126.3751,33.4739],
[126.315,33.4515],
[126.2703,33.4228],
[126.18,33.3485],
[126.1583,33.3147],
[126.1565,33.2842]
]
],
[
[
[126.3304,36.5741],
[126.3371,36.4364],
[126.3721,36.4069],
[126.4259,36.4015],
[126.3775,36.5885],
[126.3504,36.5913],
[126.3304,36.5741]
]
],
[
[
[126.3642,37.7203],
[126.373,37.6232],
[126.3908,37.603],
[126.4146,37.5932],
[126.4486,37.5922],
[126.5076,37.5958],
[126.5394,37.6278],
[126.5144,37.7632],
[126.4241,37.8215],
[126.3987,37.8178],
[126.3673,37.7875],
[126.3642,37.7203]
]
],
[
[
[127.8246,34.8494],
[127.8589,34.7218],
[127.8844,34.7114],
[127.9811,34.6974],
[128.0518,34.6978],
[128.0734,34.8033],
[128.0555,34.8133],
[127.9961,34.819],
[127.9636,34.7998],
[127.9164,34.8328],
[127.9082,34.8717],
[127.9348,34.91],
[127.9183,34.9286],
[127.8986,34.9331],
[127.8678,34.9175],
[127.8369,34.8797],
[127.8246,34.8494]
]
],
[
[
[128.4895,34.8511],
[128.4965,34.8343],
[128.5307,34.8108],
[128.5956,34.8347],
[128.6041,34.8092],
[128.5882,34.7012],
[128.6125,34.7011],
[128.6827,34.7232],
[128.7425,34.7849],
[128.7544,34.8799],
[128.7111,34.9767],
[128.6411,34.9525],
[128.5046,34.8887],
[128.4925,34.8746],
[128.4895,34.8511]
]
]
]}
}
