{
"type": "Feature",
"properties": {"id":"cliopatria-county-of-anjou-1326","edge_precision":"unknown","cliopatria_name":"County of Anjou","cliopatria_from_year":1326,"cliopatria_to_year":1332,"cliopatria_area_km2":25131,"cliopatria_wikidata":"Q2991084","cliopatria_wikipedia":"County of Anjou","cliopatria_seshat_id":"fr_capetian_k_2","cliopatria_member_of":"(Kingdom of France)"},
"geometry": {"type": "MultiPolygon", "coordinates": [
[
[
[-1.3885,47.0058],
[-1.0499,46.8743],
[0.3421,46.9401],
[0.5844,47.0058],
[0.4893,47.2032],
[0.7193,47.4665],
[1.2964,47.4665],
[1.1854,47.9278],
[0.9247,48.1257],
[0.4368,47.9938],
[0.3361,48.2578],
[-0.0001,48.3238],
[-0.0924,48.4559],
[-0.5804,48.3238],
[-1,48.3899],
[-1.0421,47.8619],
[-1.2023,47.7959],
[-1.1618,47.269],
[-1.3214,47.2032],
[-1.3885,47.0058]
]
],
[
[
[2.9432,49.1175],
[3.0334,48.9851],
[3.4562,48.8527],
[3.5394,48.8527],
[3.6194,48.9189],
[3.6003,49.3163],
[3.35,49.3163],
[3.1099,49.1175],
[2.9432,49.1175]
]
]
]}
}
