{
"type": "Feature",
"properties": {"id":"cliopatria-roman-kingdom-701bce","edge_precision":"unknown","cliopatria_name":"Roman Kingdom","cliopatria_from_year":-700,"cliopatria_to_year":-501,"cliopatria_area_km2":859,"cliopatria_wikidata":"Q201038","cliopatria_wikipedia":"Roman Kingdom","cliopatria_seshat_id":"it_roman_k"},
"geometry": {"type": "MultiPolygon", "coordinates": [
[
[
[11.9725,42.1063],
[12.1311,41.9764],
[12.1305,41.9114],
[12.4482,41.7816],
[12.4517,42.1063],
[11.9725,42.1063]
]
]
]}
}
