{
"type": "Feature",
"properties": {"id":"cliopatria-chola-empire-1177","edge_precision":"unknown","cliopatria_name":"Chola Empire","cliopatria_from_year":1177,"cliopatria_to_year":1215,"cliopatria_area_km2":175903,"cliopatria_wikidata":"Q6806806","cliopatria_wikipedia":"Chola Empire","cliopatria_seshat_id":"in_chola_emp"},
"geometry": {"type": "MultiPolygon", "coordinates": [
[
[
[75.8596,11.0217],
[75.9021,10.5717],
[76.2338,10.0574],
[76.2214,9.8645],
[76.3635,9.8002],
[76.3553,9.6717],
[76.2092,9.6717],
[76.1971,9.4788],
[76.3353,9.3502],
[76.3235,9.1574],
[76.531,8.9645],
[76.5888,8.7073],
[76.7311,8.6431],
[76.7236,8.5145],
[77.2819,8.0645],
[77.8733,8.193],
[78.1803,8.4502],
[78.2842,8.9645],
[78.5883,9.1574],
[78.9577,9.2216],
[78.9865,9.6717],
[79.2959,9.9288],
[79.3176,10.2502],
[79.9026,10.2502],
[79.8844,11.986],
[80.303,12.6289],
[80.4316,13.2718],
[80.3078,13.5289],
[80.161,13.5289],
[80.2816,14.0432],
[80.2082,14.0432],
[80.2158,14.8789],
[80.1641,14.8789],
[80.1641,14.2807],
[79.823,14.3091],
[79.4251,14.7924],
[78.9419,14.7355],
[78.7779,15.2002],
[78.6049,14.1718],
[78.6783,14.1718],
[78.6316,13.6575],
[78.705,13.6575],
[78.6493,13.0146],
[77.7216,11.4717],
[77.2777,11.4074],
[76.4451,11.0217],
[75.8596,11.0217]
]
]
]}
}
