{
"type": "Feature",
"properties": {"id":"cliopatria-khalji-dynasty-1294","edge_precision":"unknown","cliopatria_name":"Khalji Dynasty","cliopatria_from_year":1294,"cliopatria_to_year":1304,"cliopatria_area_km2":839846,"cliopatria_wikidata":"Q919071","cliopatria_wikipedia":"Khalji dynasty","cliopatria_seshat_id":"in_delhi_sultanate","cliopatria_member_of":"(Delhi Sultanate)"},
"geometry": {"type": "MultiPolygon", "coordinates": [
[
[
[68.5119,27.6081],
[69.4803,27.5438],
[70.2777,27.3509],
[72.3734,27.2866],
[73.9962,27.0938],
[74.0504,26.9652],
[74.2654,26.9009],
[74.229,26.1937],
[74.4149,25.9365],
[75.2852,25.7436],
[75.266,25.615],
[76.8095,24.9078],
[77.0338,24.9078],
[77.0902,24.7792],
[77.2397,24.7792],
[77.2216,24.6506],
[78.3153,24.4578],
[78.4466,24.3292],
[78.7544,24.3935],
[78.8214,24.3935],
[78.821,25.0978],
[79.5324,25.6313],
[79.5546,25.9425],
[80.0436,26.1425],
[80.7549,25.7646],
[81.0439,25.7202],
[81.3996,25.3645],
[82.4666,24.831],
[83.0223,24.7866],
[83.578,24.3864],
[82.9334,24.2975],
[82.5605,23.8792],
[83.1697,23.9435],
[84.3449,23.8149],
[85.7624,23.8149],
[86.3956,23.5577],
[86.5165,23.3649],
[87.5039,22.9791],
[87.4854,22.8506],
[88.2044,22.1434],
[88.1991,21.5648],
[88.5139,21.6934],
[88.6416,22.0791],
[88.716,22.0791],
[88.728,21.6291],
[89.8695,21.822],
[89.9517,22.4005],
[89.7289,22.9148],
[89.4139,23.3006],
[89.4181,23.8149],
[89.2347,24.072],
[89.1696,25.0364],
[88.9674,25.165],
[88.9898,25.2936],
[88.7993,25.4864],
[88.0619,25.5507],
[87.8601,25.6793],
[87.059,25.8079],
[84.7811,26.0651],
[83.9268,26.3222],
[82.2466,26.5794],
[80.3221,27.158],
[79.993,27.4152],
[79.8425,27.4152],
[79.791,27.5438],
[79.5018,27.6081],
[79.4504,27.7367],
[79.2998,27.7367],
[79.0712,28.1224],
[79.0453,28.3795],
[78.7938,28.6367],
[78.6428,28.6367],
[78.4045,28.9581],
[77.8515,29.2152],
[77.2266,29.858],
[77.6151,30.9506],
[77.9016,31.2076],
[78.2208,31.2719],
[78.4329,31.529],
[78.448,31.5933],
[78.0361,31.7861],
[77.3037,31.9146],
[77.0439,32.1074],
[76.5246,32.1717],
[76.4022,32.3002],
[75.3326,32.3002],
[74.7811,32.5574],
[74.3988,32.5574],
[74.2142,32.7502],
[73.6319,32.8788],
[73.5088,33.0073],
[73.5694,33.2645],
[73.4465,33.3931],
[73.1549,33.4574],
[73.201,33.6502],
[73.0782,33.7789],
[72.4175,33.9075],
[72.4639,34.1004],
[72.1408,34.0361],
[71.5288,33.3931],
[71.4845,33.2002],
[71.5938,33.0073],
[71.2297,32.7502],
[71.1728,32.4931],
[70.7151,31.7861],
[70.8406,31.6575],
[70.2744,28.701],
[69.6487,28.1224],
[68.5119,27.6081]
]
]
]}
}
