{
"type": "Feature",
"properties": {"id":"cliopatria-kingdom-of-hejaz-1918","edge_precision":"unknown","cliopatria_name":"Kingdom of Hejaz","cliopatria_from_year":1918,"cliopatria_to_year":1918,"cliopatria_area_km2":432999,"cliopatria_wikidata":"Q956357","cliopatria_wikipedia":"Kingdom of Hejaz"},
"geometry": {"type": "MultiPolygon", "coordinates": [
[
[
[34.5927,28.0581],
[35.0492,28.1224],
[35.4087,27.8652],
[35.4669,27.6081],
[35.6132,27.5438],
[35.6717,27.2866],
[36.1649,26.7723],
[36.4291,26.1937],
[36.7173,26.0008],
[36.773,25.6793],
[37.2707,25.2293],
[37.3308,24.9721],
[37.1776,24.9078],
[37.1705,24.7792],
[37.3876,24.6506],
[37.4448,24.3292],
[38.0318,24.1363],
[38.6011,23.622],
[38.8688,23.0434],
[38.8589,22.8506],
[39.1402,22.5291],
[39.0271,21.7577],
[39.1693,21.6291],
[39.147,21.1791],
[39.3506,20.7934],
[39.8439,20.2791],
[40.1404,20.2791],
[40.5616,19.8291],
[40.7097,19.8291],
[40.9785,19.3148],
[41.0525,19.3148],
[41.1334,19.4434],
[41.433,19.5077],
[41.521,19.7648],
[41.8243,19.8934],
[42.1027,20.922],
[41.9682,21.1791],
[41.8266,22.6577],
[41.4053,23.1077],
[41.4126,23.2363],
[41.2636,23.2363],
[41.2746,23.4291],
[40.9875,23.622],
[40.9356,24.0077],
[41.1004,24.2649],
[40.7669,24.9078],
[40.4719,24.9721],
[40.4094,25.165],
[40.2639,25.2293],
[40.2765,25.4221],
[40.1268,25.4221],
[40.0996,26.1294],
[39.8836,26.258],
[39.9156,26.708],
[40.1695,27.0938],
[39.8082,27.2866],
[39.7575,27.6081],
[39.5466,27.8009],
[38.2201,28.1867],
[38.2299,28.3153],
[38.0136,28.4438],
[37.9581,28.701],
[37.8122,28.7652],
[37.8223,28.8938],
[37.6763,28.9581],
[37.2195,29.858],
[37.306,29.9865],
[37.2302,29.9865],
[37.198,30.5007],
[37.3076,30.8863],
[37.3951,31.0148],
[37.5472,31.0148],
[37.4828,31.1434],
[37.8349,31.6575],
[38.0697,31.7218],
[38.0119,31.9146],
[38.7197,32.8788],
[38.7264,32.943],
[38.3567,33.0716],
[38.2801,33.0716],
[38.2167,33.2002],
[38.0568,33.1359],
[37.7633,33.2645],
[37.6997,33.3931],
[37.2524,33.5217],
[36.824,33.8432],
[36.2925,33.9075],
[36.0493,33.7789],
[36.0244,33.5217],
[35.782,33.3931],
[35.8929,32.943],
[35.5456,32.4931],
[35.5283,32.3002],
[35.6639,32.1074],
[35.6356,31.7861],
[35.4664,31.5933],
[35.4937,31.0148],
[35.229,30.565],
[35.0785,29.6009],
[34.9224,29.5366],
[34.8535,28.5724],
[34.6054,28.251],
[34.5927,28.0581]
],
[
[39.2484,24.5221],
[39.3231,24.5221],
[39.5511,24.5864],
[39.6853,24.3292],
[39.3829,24.2649],
[39.2484,24.5221]
]
]
]}
}
