{
"type": "Feature",
"properties": {"id":"cliopatria-kadamba-empire-0353","edge_precision":"unknown","cliopatria_name":"Kadamba Empire","cliopatria_from_year":353,"cliopatria_to_year":450,"cliopatria_area_km2":201492,"cliopatria_wikidata":"Q1479952","cliopatria_wikipedia":"Kadamba Empire","cliopatria_seshat_id":"in_kadamba_emp"},
"geometry": {"type": "MultiPolygon", "coordinates": [
[
[
[73.6748,17.8985],
[73.777,17.1254],
[74.6826,14.8564],
[74.7408,14.32],
[75.5139,13.1676],
[76.0087,12.8752],
[76.9433,12.7596],
[77.5065,13.0323],
[77.7585,13.3469],
[77.4055,14.7661],
[77.5019,17.0251],
[77.0616,17.8516],
[75.8238,18.7198],
[74.505,18.8009],
[74.0377,18.4101],
[73.6748,17.8985]
]
]
]}
}
