{
"type": "Feature",
"properties": {"id":"cliopatria-upper-burgundy-0911","edge_precision":"unknown","cliopatria_name":"Upper Burgundy","cliopatria_from_year":911,"cliopatria_to_year":921,"cliopatria_area_km2":41672,"cliopatria_wikidata":"Q33235","cliopatria_wikipedia":"Upper Burgundy","cliopatria_seshat_id":"fr_carolingian_emp_2","cliopatria_member_of":"(Carolingian Empire)"},
"geometry": {"type": "MultiPolygon", "coordinates": [
[
[
[5.3568,46.8743],
[5.6139,46.5459],
[5.7962,45.9554],
[6.6962,45.8898],
[7.1147,45.4313],
[7.3562,45.5623],
[7.9265,45.5623],
[8.0025,45.8898],
[7.9185,46.0209],
[8.4028,46.4145],
[8.3126,46.9401],
[7.7362,47.0058],
[7.6486,47.269],
[7.731,47.269],
[7.7284,47.4006],
[7.4783,47.5323],
[7.15,47.4665],
[6.9753,47.8619],
[6.1447,47.9938],
[5.5769,47.6641],
[5.5945,47.1374],
[5.4322,47.0716],
[5.3568,46.8743]
]
]
]}
}
