{
"type": "Feature",
"properties": {"id":"cliopatria-ostrogoths-0490","edge_precision":"unknown","cliopatria_name":"Ostrogoths","cliopatria_from_year":490,"cliopatria_to_year":499,"cliopatria_area_km2":417638,"cliopatria_wikidata":"Q103122","cliopatria_wikipedia":"Ostrogoths"},
"geometry": {"type": "MultiPolygon", "coordinates": [
[
[
[6.6343,45.1042],
[6.6375,44.9734],
[6.8826,44.908],
[6.887,44.7119],
[6.9681,44.7119],
[6.8104,44.516],
[7.4715,43.7982],
[7.5521,43.7982],
[8.0339,43.9286],
[8.4315,44.3854],
[9.1591,44.4507],
[9.7274,44.1243],
[9.9697,44.1243],
[9.8895,43.9938],
[10.1314,44.0591],
[10.2933,43.8634],
[10.2936,43.6678],
[10.7772,43.8634],
[12.5502,43.733],
[12.7945,43.9286],
[12.5532,43.9938],
[12.4739,44.1243],
[11.9898,44.1896],
[12.0722,44.3854],
[12.234,44.3854],
[12.1572,44.8426],
[12.3999,44.7773],
[12.4026,45.0388],
[12.16,45.1696],
[12.1628,45.4968],
[12.6522,45.5623],
[12.8168,45.6933],
[13.0605,45.6278],
[13.1448,45.8243],
[13.3896,45.8243],
[13.7149,45.7588],
[13.7102,45.4968],
[13.5473,45.4968],
[13.5441,45.3004],
[13.7056,45.235],
[13.7809,44.908],
[13.9432,44.908],
[13.9457,45.0388],
[14.1894,45.0388],
[14.1962,45.3659],
[14.6031,45.3659],
[14.5158,45.1042],
[14.9187,44.9734],
[14.9089,44.5813],
[15.1466,44.3854],
[15.2187,44.0591],
[15.4591,43.9938],
[15.3747,43.8634],
[15.6186,43.9286],
[15.6954,43.7982],
[15.8566,43.7982],
[16.0117,43.6027],
[15.9271,43.4723],
[16.5754,43.6027],
[16.7342,43.5375],
[16.7272,43.3421],
[17.0513,43.4072],
[17.1219,43.1467],
[17.3654,43.2118],
[17.3552,42.9515],
[17.5157,42.9515],
[17.5079,42.7563],
[17.5933,42.8864],
[17.8339,42.8864],
[18.1435,42.6262],
[18.852,42.3662],
[18.9259,42.2362],
[19.0058,42.2362],
[19.1688,42.3012],
[19.114,42.8213],
[19.4579,43.2769],
[19.3037,43.4072],
[19.3136,43.6027],
[19.4747,43.6027],
[19.4109,43.9286],
[19.6599,44.0591],
[19.6704,44.2548],
[19.9236,44.4507],
[19.938,44.7119],
[20.2922,45.235],
[20.2959,45.3004],
[19.2384,45.3004],
[18.9976,45.3659],
[19.0041,45.4968],
[18.9227,45.4968],
[19.0106,45.6278],
[18.854,45.7588],
[18.9486,46.0209],
[18.8701,46.0865],
[18.9518,46.0865],
[19.0501,46.4145],
[18.8961,46.6115],
[18.906,46.8086],
[18.8239,46.8086],
[18.8337,47.0058],
[19.166,47.0716],
[19.0906,47.2032],
[19.2692,47.4665],
[18.9496,47.6641],
[18.9565,47.7959],
[18.798,47.9278],
[18.626,47.7959],
[17.6346,47.7959],
[17.0669,48.0597],
[17.0723,48.1917],
[16.9895,48.1917],
[16.9921,48.2578],
[16.9093,48.2578],
[16.9066,48.1917],
[16.8238,48.1917],
[16.8264,48.2578],
[14.2576,48.2578],
[13.7642,48.4559],
[13.6838,48.5881],
[13.6007,48.5881],
[12.9383,48.7204],
[12.1113,49.1838],
[11.694,49.1175],
[11.6099,48.9851],
[11.1098,48.7865],
[11.0266,48.7865],
[10.1134,48.4559],
[9.9508,47.8619],
[9.8681,47.8619],
[9.9519,47.6641],
[9.3766,47.4006],
[9.2955,47.269],
[9.1308,47.269],
[8.8862,47.0716],
[8.8878,46.9401],
[8.7235,46.9401],
[8.645,46.6772],
[8.0786,46.2177],
[8.0808,46.0865],
[7.5153,45.7588],
[7.4377,45.5623],
[7.1147,45.4313],
[7.0377,45.235],
[6.6343,45.1042]
]
],
[
[
[14.2609,44.5813],
[14.5024,44.516],
[14.5113,44.908],
[14.3504,44.9734],
[14.2692,44.9734],
[14.2609,44.5813]
]
],
[
[
[19.0041,45.4968],
[19.0856,45.4968],
[19.0889,45.5623],
[19.0074,45.5623],
[19.0041,45.4968]
]
]
]}
}
