{
"type": "Feature",
"properties": {"id":"cliopatria-kingdom-of-aragon-1139","edge_precision":"unknown","cliopatria_name":"Kingdom of Aragon","cliopatria_from_year":1139,"cliopatria_to_year":1151,"cliopatria_area_km2":37822,"cliopatria_wikidata":"Q199442","cliopatria_wikipedia":"Kingdom of Aragon","cliopatria_seshat_id":"es_aragon_k"},
"geometry": {"type": "MultiPolygon", "coordinates": [
[
[
[-2.1165,41.4571],
[-2.0989,41.1977],
[-1.6012,40.8736],
[-1.5136,40.744],
[-1.5805,40.5496],
[-1.2518,40.3554],
[-1.0184,40.4201],
[-0.8717,40.6144],
[-0.7133,40.6144],
[-0.7286,40.8736],
[-0.4151,40.9384],
[-0.2789,41.3274],
[-0.1273,41.4571],
[0.3466,41.522],
[0.4951,41.7167],
[0.4916,41.7816],
[0.5713,41.7816],
[0.5642,41.9114],
[0.644,41.9114],
[0.6404,41.9764],
[0.699,42.3662],
[0.6847,42.6262],
[0.6046,42.6262],
[0.601,42.6912],
[0.0401,42.6912],
[-0.8579,42.9515],
[-1.1616,42.6912],
[-1.1573,42.6262],
[-1.4602,42.3662],
[-1.43,41.9114],
[-1.8288,41.9114],
[-1.82,41.7816],
[-1.9795,41.7816],
[-1.8822,41.522],
[-2.1165,41.4571]
]
]
]}
}
