{
"type": "Feature",
"properties": {"id":"cliopatria-republic-of-cabo-verde-2024","edge_precision":"unknown","cliopatria_name":"Republic of Cabo Verde","cliopatria_from_year":2024,"cliopatria_to_year":2024,"cliopatria_area_km2":9427,"cliopatria_wikidata":"Q1011","cliopatria_wikipedia":"Cape Verde"},
"geometry": {"type": "MultiPolygon", "coordinates": [
[
[
[-25.3537,17.0647],
[-25.2701,16.8719],
[-25.0522,16.9362],
[-24.9688,16.7433],
[-24.8214,16.7433],
[-24.831,16.9362],
[-24.9817,17.0005],
[-24.908,17.0005],
[-24.9949,17.2576],
[-25.2866,17.1933],
[-25.3537,17.0647]
]
],
[
[
[-24.4503,15.0718],
[-24.3636,14.7504],
[-24.2901,14.7504],
[-24.2298,15.0718],
[-24.4503,15.0718]
]
],
[
[
[-24.3761,16.679],
[-24.3668,16.4861],
[-24.0752,16.5504],
[-24.0813,16.679],
[-24.3761,16.679]
]
],
[
[
[-23.786,15.0075],
[-23.7834,14.9432],
[-23.4134,14.8789],
[-23.4237,15.1361],
[-23.5787,15.329],
[-23.7258,15.329],
[-23.786,15.0075]
]
],
[
[
[-23.2819,15.2647],
[-23.2005,15.0718],
[-23.127,15.0718],
[-22.9852,15.2004],
[-23.064,15.329],
[-23.2819,15.2647]
]
],
[
[
[-22.982,16.8076],
[-22.976,16.679],
[-22.8286,16.679],
[-22.8376,16.8719],
[-22.982,16.8076]
]
],
[
[
[-22.9441,15.9718],
[-22.6497,15.9718],
[-22.5816,16.1004],
[-22.5845,16.1647],
[-22.8818,16.229],
[-22.9441,15.9718]
]
],
[
[
[43.0573,-11.6075],
[43.139,-11.8647],
[43.2122,-11.8647],
[43.3608,-11.929],
[43.3419,-11.3504],
[43.1223,-11.3504],
[43.1305,-11.6075],
[43.0573,-11.6075]
]
],
[
[
[43.5183,-12.2504],
[43.5228,-12.379],
[43.745,-12.4433],
[43.7381,-12.2504],
[43.5183,-12.2504]
]
],
[
[
[44.1754,-12.1861],
[44.3312,-12.4433],
[44.4778,-12.4433],
[44.4685,-12.1861],
[44.1754,-12.1861]
]
],
[
[
[44.9271,-12.7004],
[44.9394,-13.0219],
[45.0861,-13.0219],
[45.1494,-12.7647],
[44.9271,-12.7004]
]
]
]}
}
