{
"type": "Feature",
"properties": {"id":"cliopatria-kingdom-of-alamannia-0469","edge_precision":"unknown","cliopatria_name":"Kingdom of Alamannia","cliopatria_from_year":469,"cliopatria_to_year":475,"cliopatria_area_km2":111516,"cliopatria_wikidata":"Q2208978","cliopatria_wikipedia":"Alamannia"},
"geometry": {"type": "MultiPolygon", "coordinates": [
[
[
[3.5957,47.6641],
[4.6662,47.73],
[4.7591,47.4665],
[5.1761,47.3348],
[5.1808,47.2032],
[5.5144,47.0716],
[5.5945,47.1374],
[5.5769,47.6641],
[5.8224,47.73],
[5.8181,47.8619],
[6.1447,47.9938],
[6.8082,47.9278],
[6.9753,47.8619],
[7.0659,47.5323],
[7.3148,47.4665],
[7.484,47.269],
[8.0615,47.2032],
[8.3948,46.9401],
[8.8878,46.9401],
[8.8862,47.0716],
[9.1308,47.269],
[9.2955,47.269],
[9.3766,47.4006],
[9.9519,47.6641],
[9.8681,47.8619],
[9.9508,47.8619],
[10.1134,48.4559],
[11.0266,48.7865],
[11.0268,48.8527],
[11.1108,49.1838],
[10.9442,49.25],
[10.5271,49.25],
[9.7751,49.4489],
[9.6907,49.5816],
[9.4399,49.5816],
[9.5204,49.98],
[9.2665,50.246],
[8.7592,50.5122],
[8.4256,50.3125],
[8.265,49.8471],
[7.0908,49.9136],
[6.4262,49.7143],
[6.3425,49.7143],
[6.3484,49.5152],
[6.1833,49.4489],
[5.7612,49.5816],
[5.4411,49.1838],
[5.4505,48.9189],
[4.8653,48.9851],
[4.7952,48.6542],
[3.7305,48.3238],
[3.5957,47.6641]
]
]
]}
}
