{
"type": "Feature",
"properties": {"id":"cliopatria-principality-of-nitra-0814","edge_precision":"unknown","cliopatria_name":"Principality of Nitra","cliopatria_from_year":814,"cliopatria_to_year":829,"cliopatria_area_km2":26600,"cliopatria_wikidata":"Q837326","cliopatria_wikipedia":"Principality of Nitra"},
"geometry": {"type": "MultiPolygon", "coordinates": [
[
[
[16.9868,48.1257],
[17.0643,47.9938],
[17.7143,47.73],
[19.1182,47.73],
[19.1288,47.9278],
[19.2942,47.9278],
[19.4707,48.1257],
[19.4744,48.1917],
[19.64,48.1917],
[19.4856,48.3899],
[19.497,48.5881],
[19.77,48.9851],
[19.4526,49.25],
[18.4586,49.3826],
[18.4516,49.25],
[18.198,49.1838],
[18.1146,49.1838],
[17.9381,48.9851],
[17.2605,48.7204],
[17.2519,48.522],
[16.9948,48.3238],
[16.9868,48.1257]
]
],
[
[
[18.3751,49.3826],
[18.4586,49.3826],
[18.4621,49.4489],
[18.3786,49.4489],
[18.3751,49.3826]
]
]
]}
}
