{
"type": "Feature",
"properties": {"id":"cliopatria-grand-duchy-of-wurzburg-1814","edge_precision":"unknown","cliopatria_name":"Grand Duchy of Würzburg","cliopatria_from_year":1814,"cliopatria_to_year":1814,"cliopatria_area_km2":9627,"cliopatria_wikidata":"Q698089","cliopatria_wikipedia":"Grand Duchy of Würzburg"},
"geometry": {"type": "MultiPolygon", "coordinates": [
[
[
[8.1735,50.3125],
[8.2596,50.1795],
[8.1757,50.1795],
[8.1768,50.113],
[8.2607,50.113],
[8.2629,49.98],
[8.6001,49.8471],
[8.5982,49.98],
[8.4296,50.0465],
[8.7651,50.0465],
[8.7659,49.98],
[8.6874,49.5816],
[8.771,49.5816],
[8.7727,49.4489],
[9.0233,49.4489],
[9.2714,49.7143],
[9.3522,50.0465],
[10.0215,50.5122],
[10.0207,50.7788],
[9.3461,50.7788],
[9.263,50.6455],
[8.926,50.6455],
[8.76,50.4457],
[8.2564,50.3791],
[8.1735,50.3125]
]
]
]}
}
