{
"type": "Feature",
"properties": {"id":"cliopatria-kingdom-of-the-franks-0755","edge_precision":"unknown","cliopatria_name":"Kingdom of the Franks","cliopatria_from_year":755,"cliopatria_to_year":762,"cliopatria_area_km2":566556,"cliopatria_wikidata":"Q146246","cliopatria_wikipedia":"Francia","cliopatria_seshat_id":"fr_carolingian_emp_1","cliopatria_member_of":"(Carolingian Empire);(Kingdom of the Franks)"},
"geometry": {"type": "MultiPolygon", "coordinates": [
[
[
[-2.8373,47.5982],
[-2.8315,47.5323],
[-2.5784,47.4665],
[-2.5616,47.269],
[-0.2561,47.269],
[0.009,47.0058],
[0.8434,46.8086],
[1.1478,47.2032],
[2.0347,47.5323],
[2.7048,47.3348],
[2.8039,47.0058],
[3.2275,46.7429],
[3.0761,46.4802],
[3.328,46.3489],
[3.4218,46.0865],
[3.5882,46.0209],
[3.8582,45.4313],
[4.2678,45.3659],
[4.3592,45.1042],
[3.9662,44.7773],
[4.0575,44.516],
[3.8146,44.516],
[3.4292,44.0591],
[3.0255,44.0591],
[2.4818,43.6027],
[3.14,43.2769],
[3.2204,43.2769],
[3.8509,43.6027],
[4.173,43.6027],
[4.1778,43.4723],
[5.0631,43.4723],
[5.3869,43.4072],
[5.3908,43.2769],
[5.6319,43.2769],
[5.7962,43.1467],
[6.2782,43.1467],
[6.5965,43.2769],
[6.6726,43.4723],
[7.4715,43.7982],
[7.5521,43.7982],
[7.6259,44.1896],
[7.3039,44.1243],
[6.978,44.2548],
[6.8885,44.6466],
[6.9695,44.6466],
[6.9652,44.8426],
[6.6375,44.9734],
[6.714,45.1696],
[7.1176,45.3004],
[7.1132,45.4968],
[6.7827,45.6933],
[6.7795,45.8243],
[6.9396,45.9554],
[7.838,45.9554],
[8.2432,46.1521],
[9.1427,46.1521],
[9.3851,46.4802],
[9.3833,46.6772],
[9.6274,46.9401],
[9.5414,47.4006],
[9.9519,47.6641],
[9.8681,47.8619],
[9.9508,47.8619],
[10.1134,48.4559],
[11.0266,48.7865],
[11.0268,48.8527],
[11.1108,49.1838],
[10.8607,49.25],
[10.8609,49.3826],
[11.0282,49.5152],
[11.0285,49.6479],
[11.2801,49.7807],
[11.2807,49.9136],
[11.8691,50.113],
[11.8704,50.246],
[12.0391,50.3125],
[12.042,50.5789],
[12.2955,50.6455],
[12.0482,51.1124],
[11.4576,51.246],
[11.2893,51.3797],
[11.5464,51.7142],
[11.547,51.7811],
[10.868,51.9151],
[10.5275,51.6472],
[10.2729,51.6472],
[10.1035,51.4465],
[8.8371,51.0457],
[8.3354,50.7121],
[7.6517,51.1792],
[7.649,51.3128],
[7.3921,51.4465],
[7.3013,51.7142],
[6.6996,51.9822],
[6.6146,51.9822],
[6.6127,52.0492],
[6.6978,52.0492],
[6.948,52.2505],
[7.0165,52.9227],
[6.8451,52.9227],
[6.6681,53.1248],
[6.1553,53.0574],
[6.2283,53.4621],
[6.1423,53.4621],
[5.5423,53.3946],
[5.2089,53.1248],
[5.3857,52.99],
[5.3908,52.8554],
[5.1366,52.7881],
[5.0564,52.6535],
[4.8797,52.7881],
[4.8713,52.99],
[4.5343,52.8554],
[4.4638,52.5191],
[4.2169,52.3176],
[4.2232,52.1833],
[3.974,52.0492],
[3.9805,51.9151],
[3.8104,51.9151],
[3.817,51.7811],
[3.6471,51.7811],
[3.7387,51.6472],
[3.3993,51.6472],
[3.4062,51.5134],
[3.7486,51.4465],
[3.1555,51.4465],
[2.5778,51.1792],
[1.6562,51.0457],
[1.4247,50.7121],
[1.455,50.246],
[1.0528,49.98],
[0.2241,49.8471],
[-0.0124,49.6479],
[0.007,49.3826],
[-1.2508,49.4489],
[-1.3618,49.7807],
[-2.0316,49.7807],
[-1.9133,49.3826],
[-1.6517,49.25],
[-1.635,49.0513],
[-1.7183,49.0513],
[-1.6076,48.7204],
[-1.6022,48.6542],
[-1.5083,48.522],
[-1.6689,48.4559],
[-1.6473,48.1917],
[-1.7967,47.9938],
[-2.4472,47.8619],
[-2.8373,47.5982]
]
],
[
[
[12.0383,50.246],
[12.1223,50.246],
[12.1231,50.3125],
[12.0391,50.3125],
[12.0383,50.246]
]
]
]}
}
