{
"type": "Feature",
"properties": {"id":"cliopatria-republic-of-liberia-1885","edge_precision":"unknown","cliopatria_name":"Republic of Liberia","cliopatria_from_year":1885,"cliopatria_to_year":1894,"cliopatria_area_km2":100596,"cliopatria_wikidata":"Q1014","cliopatria_wikipedia":"Liberia"},
"geometry": {"type": "MultiPolygon", "coordinates": [
[
[
[-11.5574,6.9716],
[-11.5573,6.9073],
[-11.1923,6.5216],
[-10.8277,6.393],
[-10.682,6.1358],
[-10.2447,6.0073],
[-9.2274,4.9787],
[-8.7908,4.8501],
[-8.3554,4.5286],
[-7.5552,4.3358],
[-7.6249,4.8501],
[-7.404,5.3001],
[-7.4023,5.6858],
[-7.9837,6.3287],
[-8.5669,6.4573],
[-8.2747,6.9073],
[-8.2746,7.2287],
[-8.4207,7.4859],
[-8.4207,7.5502],
[-8.7128,7.6787],
[-8.8583,7.293],
[-9.2231,7.2287],
[-9.4422,7.4216],
[-9.3702,7.9359],
[-9.5177,8.3859],
[-9.6642,8.5145],
[-10.2481,8.4502],
[-10.3928,8.1288],
[-10.6114,8.0002],
[-10.7561,7.6145],
[-10.9021,7.6145],
[-11.339,7.2287],
[-11.4115,6.9716],
[-11.5574,6.9716]
]
]
]}
}
