{
"type": "Feature",
"properties": {"id":"cliopatria-oirat-confederation-1673","edge_precision":"unknown","cliopatria_name":"Oirat Confederation","cliopatria_from_year":1673,"cliopatria_to_year":1676,"cliopatria_area_km2":838755,"cliopatria_wikidata":"Q4332415","cliopatria_wikipedia":"Oirat Confederation"},
"geometry": {"type": "MultiPolygon", "coordinates": [
[
[
[73.3799,42.1063],
[73.6088,41.8465],
[73.634,41.4571],
[73.7136,41.4571],
[73.6693,41.3274],
[73.8199,41.068],
[73.733,40.8088],
[73.8485,40.6792],
[73.3953,39.5143],
[73.6903,39.4496],
[73.6104,39.1911],
[73.787,38.9972],
[73.7874,38.7389],
[73.6703,38.6097],
[73.7487,38.6097],
[73.9647,38.5451],
[74.3956,38.6743],
[75.775,39.3203],
[76.7175,40.0317],
[76.9854,40.3554],
[77.2674,40.4849],
[77.3124,40.6144],
[78.7746,41.5869],
[80.1424,42.0413],
[80.2431,42.3012],
[80.1631,42.3012],
[80.2938,42.4312],
[82.0557,42.2362],
[84.1085,42.7563],
[85.7915,42.7563],
[85.7638,42.6912],
[86.7493,42.5612],
[87.5488,44.1896],
[88.2734,44.7119],
[90.3494,45.4968],
[90.6888,45.6933],
[90.9944,46.1521],
[90.9126,46.1521],
[91.0086,46.6772],
[90.1732,47.7959],
[89.711,47.8619],
[89.6129,47.9938],
[89.0338,47.9938],
[88.9353,48.1257],
[88.7697,48.1257],
[88.8033,48.1917],
[88.6376,48.1917],
[88.622,48.3238],
[88.324,48.3899],
[88.3085,48.522],
[88.0595,48.522],
[87.8969,48.8527],
[87.7305,48.8527],
[87.7844,49.1175],
[87.4511,49.1175],
[87.4168,49.0513],
[87.201,49.1175],
[87.1864,49.25],
[87.0196,49.25],
[87.054,49.3163],
[86.8871,49.3163],
[86.9216,49.3826],
[86.7546,49.3826],
[86.6078,49.5816],
[86.5732,49.5152],
[85.939,49.5816],
[85.9735,49.6479],
[85.2207,49.6479],
[84.5838,49.3826],
[84.5004,49.3826],
[84.1858,48.9189],
[83.8391,48.7204],
[82.3945,48.6542],
[81.9378,48.3899],
[80.5503,48.2578],
[80.0996,47.9938],
[79.9235,47.5982],
[79.3926,47.1374],
[79.2515,46.8086],
[79.3336,46.8086],
[79.2496,46.6115],
[79.0856,46.6115],
[78.9748,46.3489],
[78.4563,46.2833],
[77.8016,46.2833],
[77.8287,46.3489],
[77.3644,46.4145],
[77.3914,46.4802],
[75.5069,46.4802],
[75.5332,46.5459],
[74.8814,46.3489],
[74.7526,46.0209],
[74.3186,45.9554],
[74.117,45.4313],
[74.2547,45.3659],
[73.9993,44.908],
[74.1122,44.7773],
[74.0311,44.7773],
[74.0064,44.7119],
[74.0875,44.7119],
[74.1021,44.3201],
[74.183,44.3201],
[74.1661,44.0591],
[74.2469,44.0591],
[74.1982,43.9286],
[74.2789,43.9286],
[74.2304,43.7982],
[74.3432,43.6678],
[74.247,43.4072],
[74.3274,43.4072],
[74.0336,42.8213],
[73.3799,42.1063]
]
]
]}
}
