{
"type": "Feature",
"properties": {"id":"cliopatria-sultanate-of-aceh-1609","edge_precision":"unknown","cliopatria_name":"Sultanate of Aceh","cliopatria_from_year":1609,"cliopatria_to_year":1611,"cliopatria_area_km2":83910,"cliopatria_wikidata":"Q1061057","cliopatria_wikipedia":"Aceh Sultanate"},
"geometry": {"type": "MultiPolygon", "coordinates": [
[
[
[95.0655,5.1715],
[95.3404,4.8501],
[95.3339,4.7215],
[96.2436,3.9501],
[96.2377,3.8215],
[96.5989,3.7572],
[96.8815,3.5643],
[97.1476,2.9857],
[97.5036,2.7929],
[97.5558,2.2786],
[97.9173,2.2143],
[98.6259,1.7],
[98.6122,1.3143],
[98.8112,0.7357],
[98.9527,0.6071],
[98.9409,0.2214],
[99.1592,0.2214],
[99.2281,0.0928],
[99.4596,0.0285],
[99.6063,-0.1001],
[99.6841,-0.4215],
[100.2014,-0.8715],
[100.2832,-1.3215],
[100.7331,-1.9001],
[100.7446,-2.3501],
[101.4223,-3.1216],
[101.562,-2.9287],
[101.407,-2.6073],
[101.1104,-2.4144],
[101.1797,-2.2858],
[101.0212,-1.7715],
[100.573,-1.2572],
[100.563,-0.7429],
[99.9731,-0.2929],
[99.7414,0.2214],
[99.169,0.5428],
[98.9034,1.3143],
[98.8491,1.8286],
[97.9249,2.4072],
[98.016,2.8572],
[97.9432,2.8572],
[97.8983,3.5],
[97.7673,3.8215],
[97.916,3.8858],
[98.0042,4.2072],
[98.2228,4.2072],
[98.2387,4.5286],
[98.0234,4.5929],
[97.8281,5.0429],
[97.474,5.2358],
[97.4775,5.3001],
[96.235,5.2358],
[95.6035,5.6858],
[95.239,5.6858],
[95.0861,5.5572],
[95.0655,5.1715]
]
]
]}
}
