{
"type": "Feature",
"properties": {"id":"cliopatria-yin-207bce","edge_precision":"unknown","cliopatria_name":"Yin","cliopatria_from_year":-206,"cliopatria_to_year":-204,"cliopatria_area_km2":14121,"cliopatria_wikidata":"Q5349053","cliopatria_wikipedia":"Eighteen Kingdoms","cliopatria_member_of":"(Eighteen Kingdoms)"},
"geometry": {"type": "MultiPolygon", "coordinates": [
[
[
[113.7355,36.224],
[114.0251,36.3528],
[114.7525,36.4172],
[114.7238,36.3528],
[115.4713,36.2884],
[115.5972,36.7393],
[115.5194,36.7393],
[115.5117,37.0615],
[115.23,37.126],
[115.116,37.3838],
[114.0131,37.1904],
[113.9249,36.9971],
[114.0028,36.9971],
[113.9353,36.6749],
[114.013,36.6749],
[113.7355,36.224]
]
]
]}
}
