{
"type": "Feature",
"properties": {"id":"cliopatria-north-sea-empire-1034","edge_precision":"unknown","cliopatria_name":"North Sea Empire","cliopatria_from_year":1034,"cliopatria_to_year":1039,"cliopatria_area_km2":484651,"cliopatria_wikidata":"Q3281269","cliopatria_wikipedia":"North Sea Empire"},
"geometry": {"type": "MultiPolygon", "coordinates": [
[
[
[-5.7686,50.246],
[-5.7456,50.0465],
[-5.1511,49.98],
[-4.9287,50.246],
[-4.3548,50.3791],
[-4.1866,50.3791],
[-4.0887,50.246],
[-3.5847,50.246],
[-3.4566,50.6455],
[-3.1262,50.7121],
[-2.7891,50.7121],
[-2.608,50.5789],
[-1.525,50.7121],
[-1.5134,50.5789],
[-1.1766,50.5789],
[-1.1092,50.7788],
[-1.3678,50.8455],
[0.4929,50.7788],
[1.3939,51.1792],
[1.3806,51.3797],
[1.2066,51.4465],
[0.5239,51.5134],
[0.863,51.5134],
[0.8439,51.7811],
[1.1837,51.7811],
[1.1698,51.9822],
[1.425,51.9822],
[1.5863,52.1163],
[1.6537,52.3847],
[1.739,52.3847],
[1.7168,52.7208],
[1.532,52.9227],
[1.0938,53.0574],
[0.4933,53.0574],
[0.3375,52.8554],
[0.0751,52.9227],
[0.3165,53.1248],
[0.2953,53.3946],
[0.0208,53.5971],
[0.0043,53.7999],
[-0.1796,53.9352],
[-0.2024,54.2061],
[-0.3814,54.2739],
[-0.3873,54.3417],
[-0.6714,54.6132],
[-1.286,54.6811],
[-1.3989,54.9531],
[-1.486,54.9531],
[-1.6336,55.5665],
[-2.019,55.9082],
[-2.1069,55.9082],
[-2.2681,55.7715],
[-2.2394,55.4983],
[-2.5603,55.2255],
[-2.7349,55.2255],
[-2.8873,55.0211],
[-2.5543,54.3417],
[-2.9658,54.1384],
[-2.9586,54.0706],
[-3.196,53.8676],
[-3.0952,53.7323],
[-3.1525,53.4621],
[-3.4034,53.3946],
[-3.4894,53.3946],
[-3.2741,52.99],
[-3.0746,52.7208],
[-3.1391,52.5191],
[-3.0399,52.3847],
[-2.8692,52.3847],
[-2.9273,52.1163],
[-2.9138,51.9822],
[-2.8287,51.9822],
[-2.822,51.9151],
[-2.6258,51.6472],
[-2.9519,51.5134],
[-2.9452,51.4465],
[-3.108,51.3797],
[-3.0946,51.246],
[-4.2017,51.3128],
[-4.4264,51.0457],
[-4.6799,51.0457],
[-4.6578,50.8455],
[-4.8191,50.7788],
[-4.8812,50.5789],
[-5.1338,50.5789],
[-5.2796,50.3791],
[-5.7686,50.246]
]
],
[
[
[4.8889,60.4168],
[4.8992,60.2058],
[5.2613,60.2761],
[5.4501,60.1355],
[5.1827,59.995],
[5.1923,59.7846],
[5.2833,59.7846],
[5.2143,59.2947],
[5.848,59.2947],
[5.8426,59.4345],
[6.0265,59.3646],
[5.9491,59.0155],
[5.4976,59.0155],
[5.515,58.5977],
[5.7004,58.4587],
[6.5155,58.2504],
[6.6116,58.0423],
[7.5975,57.9731],
[8.6665,58.3198],
[8.9329,58.5977],
[9.1127,58.5977],
[9.1116,58.7369],
[9.3818,58.7369],
[9.3809,58.8761],
[9.5613,58.8761],
[9.651,59.0155],
[10.0122,58.9458],
[10.193,59.1551],
[10.3738,59.1551],
[10.4654,59.4345],
[10.375,59.5045],
[10.5571,59.6445],
[10.5556,59.3646],
[10.8258,59.1551],
[11.097,59.1551],
[11.1793,58.3892],
[11.3588,58.3892],
[11.445,58.1116],
[11.7126,58.0423],
[11.7115,57.9731],
[11.8904,57.9731],
[12.1627,58.181],
[12.0862,58.8761],
[11.996,58.8761],
[12.0063,59.4345],
[11.9156,59.4345],
[11.9244,59.9249],
[12.3829,60.0653],
[12.5756,60.4873],
[12.4841,60.4873],
[12.4891,60.6987],
[12.3072,60.7693],
[12.312,60.9812],
[12.6836,61.1227],
[12.8738,61.3351],
[12.8758,61.406],
[12.5133,61.69],
[12.5151,61.7611],
[12.2434,62.0459],
[12.2581,62.6889],
[12.6439,63.1195],
[12.6478,63.2634],
[12.9366,63.4796],
[13.1252,63.4796],
[13.4184,63.7684],
[13.8971,63.9131],
[14.0009,64.1304],
[14.194,64.203],
[14.2036,64.4209],
[13.6407,64.6393],
[13.3649,64.9311],
[13.3702,65.0773],
[13.2744,65.0773],
[13.3756,65.2237],
[13.1861,65.2969],
[13.1963,65.5905],
[13.2927,65.5905],
[13.298,65.7376],
[13.5963,65.9587],
[13.7899,65.9587],
[15.7179,67.3698],
[16.3183,67.5195],
[16.2306,67.6695],
[16.4333,67.7445],
[16.4278,67.6695],
[16.5264,67.6695],
[16.532,67.7445],
[16.4334,67.7445],
[16.6365,67.8196],
[16.7411,67.8946],
[16.7352,67.8196],
[16.834,67.8196],
[16.8399,67.8948],
[16.9388,67.8948],
[16.9448,67.9701],
[17.0438,67.9701],
[17.0499,68.0453],
[17.1489,68.0453],
[17.1552,68.1207],
[17.0566,68.1207],
[17.2671,68.2716],
[17.2865,68.4984],
[17.5851,68.4984],
[17.5987,68.6499],
[17.9975,68.6499],
[18.0047,68.7257],
[17.9049,68.7257],
[18.0192,68.8776],
[18.4267,68.9536],
[18.6504,69.1821],
[19.1604,69.2583],
[19.3785,69.4111],
[18.7914,69.5641],
[18.9174,69.7941],
[18.3112,69.7941],
[18.1869,69.5641],
[18.5899,69.5641],
[18.5819,69.4875],
[17.9779,69.4875],
[17.8921,69.6407],
[16.8706,69.4875],
[16.8577,69.3347],
[16.9582,69.3347],
[17.039,69.1058],
[17.6474,69.1821],
[17.5194,68.8776],
[17.3195,68.8776],
[17.3329,69.0297],
[17.2328,69.0297],
[17.213,68.8016],
[16.6078,68.7257],
[16.6198,68.8776],
[15.9202,68.8776],
[15.9367,69.1058],
[16.1428,69.1821],
[16.1544,69.3347],
[15.7524,69.3347],
[15.4407,69.1821],
[15.5153,68.8016],
[15.3155,68.8016],
[15.3304,69.0297],
[15.1301,69.0297],
[15.1349,69.1058],
[14.5208,68.8776],
[14.4086,68.6499],
[14.9115,68.7257],
[14.9025,68.5741],
[14.4004,68.4984],
[14.1937,68.3471],
[14.1861,68.1961],
[14.984,68.2716],
[15.0925,68.4227],
[15.8827,68.3471],
[15.8774,68.2716],
[15.5796,68.2716],
[15.362,67.9701],
[15.0652,67.9701],
[14.9488,67.6695],
[14.5465,67.5195],
[14.4366,67.295],
[14.1314,67.0711],
[13.6416,67.0711],
[13.5407,66.9965],
[13.6293,66.7732],
[13.2388,66.7732],
[13.2333,66.6246],
[12.9409,66.6246],
[13.1228,66.2541],
[12.9286,66.2541],
[12.8245,66.0324],
[12.633,66.1063],
[12.6374,66.2541],
[12.3461,66.2541],
[12.3422,66.1063],
[12.4391,66.1063],
[12.3364,65.8849],
[12.5298,65.8849],
[12.5256,65.7376],
[12.136,65.5905],
[12.1325,65.4436],
[12.0363,65.4436],
[12.1256,65.1504],
[11.8393,65.2237],
[11.7405,65.0773],
[11.4517,65.0042],
[11.4493,64.8581],
[11.3537,64.8581],
[11.4447,64.5664],
[11.3483,64.4937],
[11.1596,64.6393],
[10.8733,64.6393],
[10.2998,64.4209],
[10.2993,64.2756],
[9.919,64.1304],
[9.919,63.9855],
[9.5402,63.9131],
[9.5414,63.6239],
[9.3525,63.6239],
[9.2596,63.4075],
[8.9762,63.4796],
[9.0686,63.6961],
[8.5015,63.6961],
[8.2218,63.4796],
[7.8431,63.5517],
[7.7536,63.3354],
[8.2244,63.3354],
[8.2269,63.1915],
[7.9448,63.1915],
[7.9478,63.0477],
[6.915,63.0477],
[6.9216,62.8323],
[7.3919,62.7606],
[7.3956,62.6173],
[6.643,62.7606],
[6.5591,62.4742],
[5.9086,62.4027],
[5.9173,62.1885],
[5.7311,62.1885],
[5.7221,62.4027],
[5.4422,62.4027],
[5.4519,62.1885],
[5.0761,62.2599],
[5.0865,62.0459],
[5.3653,62.0459],
[5.3621,62.1172],
[5.5481,62.1172],
[5.5543,61.9746],
[5.1862,61.9034],
[5.0933,61.9034],
[4.9148,61.7611],
[4.9219,61.619],
[5.1995,61.619],
[4.9289,61.477],
[5.035,61.1935],
[5.1272,61.1935],
[4.9497,61.0519],
[5.1602,60.4873],
[4.8889,60.4168]
],
[
[16.8399,67.8948],
[16.7414,67.8948],
[16.8459,67.9697],
[16.8399,67.8948]
],
[
[16.9448,67.9701],
[16.8463,67.9701],
[16.9509,68.045],
[16.9448,67.9701]
],
[
[17.0499,68.0453],
[16.9514,68.0453],
[17.0561,68.1204],
[17.0499,68.0453]
]
],
[
[
[7.9795,56.6623],
[7.9894,56.1136],
[8.0774,56.1136],
[7.998,55.6348],
[8.0856,55.6348],
[8.0879,55.4983],
[8.3504,55.4983],
[8.5273,55.3618],
[8.5291,55.2255],
[8.4418,55.2255],
[8.5345,54.8171],
[8.7977,54.6132],
[8.7992,54.4774],
[8.5398,54.4095],
[8.5415,54.2739],
[8.7156,54.2061],
[8.8022,54.2061],
[8.8874,54.3417],
[9.1485,54.2061],
[10.1009,54.3417],
[10.1875,54.3417],
[10.1877,54.5453],
[9.9272,54.5453],
[10.0136,55.0211],
[9.9264,55.0892],
[10.5367,55.0211],
[10.5357,54.7491],
[10.7096,54.7491],
[10.8849,54.9531],
[10.8006,55.43],
[10.626,55.4983],
[10.6266,55.6348],
[9.7506,55.5665],
[9.7502,55.7031],
[9.9255,55.7031],
[10.0131,55.9082],
[10.2767,55.9766],
[10.2771,56.2506],
[10.3652,56.2506],
[10.3649,56.1136],
[10.5408,56.1136],
[10.5411,56.1821],
[10.8052,56.1821],
[10.8957,56.525],
[10.2778,56.5937],
[10.2787,57.0751],
[10.5458,57.2819],
[10.4587,57.7654],
[9.9231,57.6962],
[9.8342,57.558],
[9.656,57.558],
[9.6565,57.4199],
[9.3907,57.2129],
[8.5024,57.2129],
[8.2392,57.0063],
[8.2414,56.8686],
[8.1529,56.8686],
[8.2436,56.7311],
[7.9795,56.6623]
]
],
[
[
[10.364,55.7715],
[10.6272,55.7715],
[10.6282,55.9766],
[10.4524,55.9766],
[10.364,55.7715]
]
],
[
[
[10.8836,54.7491],
[12.1012,54.7491],
[12.108,55.1573],
[12.3711,55.2255],
[12.375,55.43],
[12.2025,55.5665],
[12.5557,55.7031],
[12.5615,55.9766],
[12.908,55.7715],
[12.9031,55.5665],
[12.7264,55.4983],
[12.8108,55.3618],
[14.2969,55.3618],
[14.2287,55.9082],
[14.319,55.9766],
[14.7584,55.9766],
[14.7667,56.1821],
[15.8197,56.1136],
[16.0943,56.3191],
[16.0979,56.3877],
[15.9285,56.525],
[13.9884,56.5937],
[13.4583,56.5937],
[13.2913,56.9374],
[13.1159,57.0063],
[13.1196,57.144],
[12.3333,57.7654],
[11.9762,57.7654],
[11.7955,57.6271],
[11.7923,57.4199],
[12.058,57.3509],
[12.1418,57.0751],
[12.4052,56.9374],
[12.4023,56.7998],
[12.7531,56.6623],
[12.7499,56.525],
[12.5733,56.525],
[12.657,56.3191],
[12.4807,56.3191],
[12.4778,56.1821],
[11.8606,56.1136],
[11.7686,55.8398],
[11.5957,56.0451],
[11.3319,56.0451],
[11.242,55.8398],
[10.8904,55.7715],
[10.8894,55.6348],
[11.0641,55.5665],
[10.9745,55.2936],
[11.4979,55.2255],
[11.6707,55.0892],
[11.6681,54.8851],
[10.9725,55.0211],
[10.8836,54.7491]
]
],
[
[
[12.7873,67.8948],
[13.1856,67.9701],
[13.1914,68.1207],
[12.8941,68.1207],
[12.8914,68.0453],
[12.7924,68.0453],
[12.7873,67.8948]
]
],
[
[
[13.3865,68.0453],
[13.5845,68.0453],
[13.5878,68.1207],
[14.0869,68.1961],
[14.0981,68.4227],
[13.7004,68.4227],
[13.3927,68.1961],
[13.3865,68.0453]
]
],
[
[
[14.6362,55.0892],
[15.0694,55.0211],
[15.0779,55.2255],
[14.9906,55.2255],
[14.644,55.2936],
[14.6362,55.0892]
]
],
[
[
[16.3237,67.5945],
[16.4222,67.5945],
[16.4278,67.6695],
[16.3292,67.6695],
[16.3237,67.5945]
]
],
[
[
[16.6307,67.7445],
[16.7294,67.7445],
[16.7352,67.8196],
[16.6365,67.8196],
[16.6307,67.7445]
]
]
]}
}
