{
"type": "Feature",
"properties": {"id":"cliopatria-principality-of-guria-1828","edge_precision":"unknown","cliopatria_name":"Principality of Guria","cliopatria_from_year":1828,"cliopatria_to_year":1829,"cliopatria_area_km2":3776,"cliopatria_wikidata":"Q2195101","cliopatria_wikipedia":"Principality of Guria"},
"geometry": {"type": "MultiPolygon", "coordinates": [
[
[
[41.7485,41.5869],
[41.8061,41.4571],
[42.4426,41.4571],
[42.6244,41.5869],
[42.6585,41.7816],
[42.3853,42.0413],
[41.9176,42.1063],
[41.9063,42.0413],
[41.9861,42.0413],
[41.9748,41.9764],
[41.93,41.7167],
[41.7485,41.5869]
]
]
]}
}
