{
"type": "Feature",
"properties": {"id":"cliopatria-former-zhao-0306","edge_precision":"unknown","cliopatria_name":"Former Zhao","cliopatria_from_year":306,"cliopatria_to_year":310,"cliopatria_area_km2":456346,"cliopatria_wikidata":"Q1574107","cliopatria_wikipedia":"Han-Zhao"},
"geometry": {"type": "MultiPolygon", "coordinates": [
[
[
[103.6079,38.7389],
[104.1075,38.8034],
[103.8361,38.5451],
[103.7514,38.3515],
[103.8799,38.2869],
[103.6626,37.9643],
[103.764,37.8352],
[104.6971,37.6417],
[104.8258,37.5773],
[104.7712,37.4483],
[105.1612,37.4483],
[105.4694,37.2549],
[105.7032,37.2549],
[105.8555,37.0615],
[105.748,36.8037],
[105.9279,36.6749],
[105.8749,36.546],
[106.1317,36.224],
[105.9244,35.902],
[106.3895,35.7089],
[106.4157,35.5802],
[106.777,35.5158],
[106.7261,35.3871],
[106.8553,35.3227],
[106.7814,34.9366],
[107.0651,34.8723],
[106.9163,34.4863],
[107.102,34.1647],
[107.6126,34.2933],
[108.4804,34.7436],
[111.0012,35.0653],
[112.0916,35.6445],
[112.8155,35.7089],
[113.6017,36.0952],
[114.013,36.6749],
[113.9353,36.6749],
[114.0028,36.9971],
[113.9249,36.9971],
[114.0131,37.1904],
[113.9352,37.1904],
[114.4985,38.2224],
[114.3731,38.2869],
[114.4358,38.416],
[114.2953,38.6097],
[114.1385,38.6097],
[114.0451,38.7389],
[114.1733,38.9972],
[114.0947,38.9972],
[114.192,39.1911],
[114.5852,39.1911],
[114.8291,39.5143],
[114.9079,39.5143],
[114.9636,39.7729],
[114.6948,40.1612],
[114.4131,40.2259],
[114.9744,40.6792],
[114.7721,40.744],
[114.764,40.8736],
[114.6847,40.8736],
[114.5343,40.744],
[114.3319,40.8088],
[114.182,40.6792],
[113.8651,40.6792],
[113.716,40.5496],
[113.0379,40.6144],
[107.7705,39.9023],
[104.6135,39.9023],
[104.5523,39.7729],
[104.6312,39.7729],
[104.5704,39.6436],
[104.6676,39.5143],
[103.6653,38.868],
[103.6079,38.7389]
]
]
]}
}
