{
"type": "Feature",
"properties": {"id":"cliopatria-new-granada-1815","edge_precision":"unknown","cliopatria_name":"New Granada","cliopatria_from_year":1815,"cliopatria_to_year":1819,"cliopatria_area_km2":602458,"cliopatria_wikidata":"Q1863715","cliopatria_wikipedia":"New Granada"},
"geometry": {"type": "MultiPolygon", "coordinates": [
[
[
[-77.9529,7.2287],
[-77.9501,7.1644],
[-77.7258,7.0359],
[-77.4137,6.5216],
[-77.5434,6.0715],
[-77.3183,5.8787],
[-77.5308,5.6858],
[-77.421,4.2715],
[-77.5667,4.2715],
[-77.5628,4.0786],
[-77.4123,3.8215],
[-77.2667,3.8215],
[-77.2634,3.6286],
[-77.4798,3.5],
[-77.6217,3.2429],
[-77.6208,3.1786],
[-77.2528,2.8572],
[-76.8887,2.8572],
[-76.7453,3.05],
[-76.5269,3.05],
[-76.2321,2.7286],
[-76.2298,2.4714],
[-76.0827,2.2786],
[-76.5915,2.15],
[-76.5908,2.0214],
[-76.8089,1.9571],
[-76.6618,1.5071],
[-76.0793,1.3786],
[-75.3566,2.5357],
[-75.1393,2.6643],
[-75.0683,2.8572],
[-74.9227,2.8572],
[-74.7024,2.6643],
[-74.8451,2.2786],
[-74.6987,2.15],
[-74.6242,1.7643],
[-74.1141,1.4428],
[-73.8229,1.4428],
[-73.6798,2.2143],
[-73.1702,2.2143],
[-72.9534,2.4714],
[-71.7188,2.8572],
[-70.1168,2.8572],
[-69.9718,2.9215],
[-69.9751,3.2429],
[-69.7589,3.4358],
[-69.4692,3.5643],
[-68.8865,3.5643],
[-68.7435,3.7572],
[-68.3802,3.8215],
[-68.3103,4.0143],
[-67.8003,4.0143],
[-67.894,5.1072],
[-67.8211,5.1072],
[-67.8287,5.4287],
[-67.6149,5.6215],
[-67.4852,6.2001],
[-67.9976,6.2644],
[-68.2854,6.1358],
[-69.3772,6.0715],
[-69.6768,6.3287],
[-69.9106,6.7787],
[-70.5035,7.0359],
[-72.1814,7.0359],
[-72.2471,6.843],
[-72.6896,6.9716],
[-73.0048,7.5502],
[-73.4454,7.6145],
[-73.6729,7.8073],
[-73.7861,8.6431],
[-74.158,8.7716],
[-74.2413,8.9645],
[-74.537,9.0288],
[-74.6245,9.2859],
[-74.8511,9.4145],
[-74.7893,9.6074],
[-74.9433,9.7359],
[-74.9551,9.9288],
[-74.813,9.9931],
[-74.9067,10.3145],
[-74.7131,10.7003],
[-74.8912,11.1503],
[-74.9643,11.1503],
[-75.2386,10.8931],
[-75.2296,10.7645],
[-75.4446,10.7003],
[-75.5777,10.5074],
[-75.496,10.3788],
[-75.638,10.3145],
[-75.6587,9.4788],
[-76.0933,9.4145],
[-76.2903,9.0288],
[-76.9264,8.6431],
[-76.8301,8.193],
[-77.132,8.3859],
[-77.2951,8.7073],
[-77.3681,8.7073],
[-77.424,8.3859],
[-77.1919,8.1288],
[-77.1825,7.9359],
[-77.4564,7.5502],
[-77.7512,7.6145],
[-77.9529,7.2287]
]
]
]}
}
