{
"type": "Feature",
"properties": {"id":"cliopatria-kingdom-of-bhutan-1822","edge_precision":"unknown","cliopatria_name":"Kingdom of Bhutan","cliopatria_from_year":1822,"cliopatria_to_year":1841,"cliopatria_area_km2":40426,"cliopatria_wikidata":"Q917","cliopatria_wikipedia":"Bhutan"},
"geometry": {"type": "MultiPolygon", "coordinates": [
[
[
[88.8048,27.0938],
[88.9914,26.9009],
[89.8543,26.708],
[89.9294,26.708],
[90.3438,26.9009],
[90.5692,26.9009],
[90.6933,26.7723],
[91.8199,26.7723],
[92.147,26.9009],
[92.1604,26.9652],
[92.0371,27.0938],
[92.0919,27.3509],
[91.6682,27.4795],
[91.7527,27.8652],
[91.5698,28.0581],
[90.4393,28.0581],
[90.2706,28.3153],
[89.7283,28.251],
[88.9459,27.4152],
[88.9326,27.3509],
[88.8048,27.0938]
]
]
]}
}
