{
"type": "Feature",
"properties": {"id":"cliopatria-aetolian-league-209bce","edge_precision":"unknown","cliopatria_name":"Aetolian League","cliopatria_from_year":-208,"cliopatria_to_year":-207,"cliopatria_area_km2":11781,"cliopatria_wikidata":"Q245273","cliopatria_wikipedia":"Aetolian League"},
"geometry": {"type": "MultiPolygon", "coordinates": [
[
[
[20.5303,39.3203],
[20.6783,39.1265],
[21.1435,38.9972],
[21.1403,38.9326],
[21.2908,38.8034],
[21.35,38.416],
[22.6784,38.3515],
[22.7676,38.5451],
[22.7713,38.6097],
[22.5432,38.7389],
[22.4903,39.1911],
[21.7004,39.1265],
[21.5364,38.9972],
[21.4713,39.2557],
[21.3173,39.3203],
[21.3139,39.2557],
[21.0746,39.1911],
[20.8451,39.3203],
[20.5303,39.3203]
]
],
[
[
[23.0254,38.9326],
[23.2572,38.868],
[23.3357,38.868],
[23.4182,38.9326],
[23.3435,38.9972],
[23.0331,39.0618],
[23.0254,38.9326]
]
]
]}
}
