{
"type": "Feature",
"properties": {"id":"cliopatria-maynila-1521","edge_precision":"unknown","cliopatria_name":"Maynila","cliopatria_from_year":1521,"cliopatria_to_year":1525,"cliopatria_area_km2":2954,"cliopatria_wikidata":"Q4401247","cliopatria_wikipedia":"Maynila (historical polity)"},
"geometry": {"type": "MultiPolygon", "coordinates": [
[
[
[120.947,14.4932],
[121.0939,14.4932],
[121.1036,14.5575],
[121.1771,14.5575],
[121.1232,14.6861],
[120.9664,14.6218],
[120.947,14.4932]
]
],
[
[
[125.2174,24.7149],
[125.4416,24.7149],
[125.4574,24.7792],
[125.4146,24.9078],
[125.265,24.9078],
[125.2174,24.7149]
]
],
[
[
[127.6497,26.0008],
[127.8176,26.0651],
[127.9091,26.3865],
[128.3784,26.708],
[128.4168,26.8366],
[128.1915,26.8366],
[128.1723,26.7723],
[127.9279,26.708],
[127.8713,26.5151],
[127.684,26.3865],
[127.6497,26.0008]
]
]
]}
}
