{
"type": "Feature",
"properties": {"id":"cliopatria-haudenosaunee-1757","edge_precision":"unknown","cliopatria_name":"Haudenosaunee","cliopatria_from_year":1757,"cliopatria_to_year":1761,"cliopatria_area_km2":67750,"cliopatria_wikidata":"Q68518","cliopatria_wikipedia":"Iroquois","cliopatria_seshat_id":"us_haudenosaunee_2"},
"geometry": {"type": "MultiPolygon", "coordinates": [
[
[
[-78.678,42.3012],
[-78.6135,42.1712],
[-77.575,42.1712],
[-76.9528,42.0413],
[-76.9699,41.9114],
[-76.1722,41.9114],
[-76.394,42.0413],
[-76.5196,42.3012],
[-75.3074,42.1063],
[-75.223,42.4312],
[-75.063,42.4312],
[-74.9967,42.6262],
[-74.8366,42.6262],
[-74.8192,42.7563],
[-74.4812,42.8864],
[-74.401,42.8864],
[-74.2548,43.0816],
[-74.3498,43.2769],
[-74.2527,43.4072],
[-74.3166,43.5375],
[-74.2361,43.5375],
[-74.3003,43.6678],
[-74.1067,43.9286],
[-73.8969,43.9938],
[-73.9783,44.3201],
[-73.8491,44.3854],
[-73.899,44.6466],
[-73.7698,44.7119],
[-73.8204,44.9734],
[-73.7392,44.9734],
[-73.8386,45.1696],
[-73.7424,45.3004],
[-74.4746,45.3004],
[-74.441,45.235],
[-74.8953,45.1696],
[-75.0859,44.908],
[-75.3294,44.908],
[-75.4245,44.7773],
[-75.3576,44.6466],
[-75.5197,44.6466],
[-75.7719,44.1896],
[-76.1427,44.1243],
[-76.0102,43.8634],
[-76.1862,43.733],
[-76.1205,43.6027],
[-76.2487,43.5375],
[-76.1833,43.4072],
[-76.279,43.2769],
[-78.0807,43.3421],
[-78.0904,42.8864],
[-78.218,42.8213],
[-78.1527,42.6912],
[-78.2953,42.4962],
[-78.5829,42.4312],
[-78.678,42.3012]
]
]
]}
}
