{
"type": "Feature",
"properties": {"id":"cliopatria-dutch-east-indies-1947","edge_precision":"unknown","cliopatria_name":"Dutch East Indies","cliopatria_from_year":1947,"cliopatria_to_year":1948,"cliopatria_area_km2":1573088,"cliopatria_wikidata":"Q188161","cliopatria_wikipedia":"Dutch East Indies","cliopatria_member_of":"(Netherlands)"},
"geometry": {"type": "MultiPolygon", "coordinates": [
[
[
[97.8401,3.8215],
[98.1954,3.6286],
[98.5451,3.3072],
[98.6067,3.05],
[99.3134,2.5357],
[99.3082,2.4072],
[99.5215,2.2786],
[99.5165,2.15],
[99.6596,2.0857],
[99.6547,1.9571],
[99.7978,1.8929],
[99.793,1.7643],
[100.0067,1.6357],
[100.0725,1.4428],
[100.2909,1.4428],
[100.3683,1.5714],
[100.3026,1.7643],
[100.1594,1.8286],
[100.247,2.2143],
[100.1742,2.2143],
[100.1845,2.4714],
[100.2573,2.4714],
[100.2599,2.5357],
[99.9038,2.7286],
[99.9147,2.9857],
[99.7746,3.1143],
[99.7018,3.1143],
[99.1423,3.6286],
[98.7112,3.7572],
[98.7172,3.8858],
[98.2894,4.0786],
[98.2228,4.2072],
[98.2259,4.2715],
[98.0042,4.2072],
[97.8401,3.8215]
]
],
[
[
[102.0154,-5.3074],
[102.0183,-5.3716],
[102.097,-5.5002],
[102.3157,-5.5002],
[102.234,-5.3074],
[102.0154,-5.3074]
]
],
[
[
[103.149,-2.4144],
[103.1582,-2.7359],
[103.3077,-2.8644],
[103.3927,-3.2502],
[103.7722,-3.7002],
[103.9179,-3.7002],
[104.4445,-4.1502],
[104.9495,-4.0216],
[104.9447,-3.893],
[105.229,-3.7002],
[105.7558,-4.1502],
[105.8286,-4.1502],
[105.8868,-3.7645],
[105.7388,-3.7002],
[105.7342,-3.5716],
[106.0144,-3.2502],
[106.008,-3.0573],
[105.8583,-2.9287],
[105.7855,-2.9287],
[105.6358,-2.8001],
[105.5516,-2.4144],
[104.8199,-2.2858],
[104.8131,-2.0287],
[104.5202,-1.9644],
[104.441,-1.7073],
[104.4395,-1.643],
[103.8602,-1.7715],
[103.4315,-2.093],
[103.2946,-2.4144],
[103.149,-2.4144]
]
],
[
[
[103.7668,0.9285],
[104.0601,0.9928],
[104.0623,1.0571],
[104.0668,1.1857],
[103.9235,1.25],
[103.7734,1.1214],
[103.7668,0.9285]
]
],
[
[
[104.1224,-0.3572],
[104.1268,-0.6144],
[104.4191,-0.6786],
[104.4863,-0.3572],
[104.4124,-0.2929],
[104.9229,-0.3572],
[104.9208,-0.2286],
[104.5539,-0.0358],
[104.5426,0.1571],
[104.3242,0.1571],
[104.3396,-0.2929],
[104.1952,-0.3572],
[104.1224,-0.3572]
]
],
[
[
[104.1307,0.9285],
[104.2762,0.9285],
[104.3447,0.8],
[104.4903,0.8],
[104.574,1.1214],
[104.2123,1.1857],
[104.1307,0.9285]
]
],
[
[
[104.957,-1.9644],
[105.1077,-2.1573],
[105.6173,-2.1573],
[105.77,-2.4144],
[105.7815,-2.8001],
[106.4492,-3.1859],
[106.8091,-3.0573],
[106.8029,-2.8644],
[106.5844,-2.8644],
[106.5804,-2.7359],
[106.7241,-2.6716],
[106.7222,-2.6073],
[106.2069,-2.4144],
[105.9651,-1.5144],
[105.6011,-1.5144],
[105.6042,-1.643],
[105.2372,-1.5144],
[105.2449,-1.8358],
[104.957,-1.9644]
]
],
[
[
[106.1847,-6.9788],
[106.1885,-7.0431],
[106.3344,-7.0431],
[106.2847,-7.4288],
[106.4346,-7.4931],
[107.1643,-7.4931],
[108.1379,-7.8789],
[108.7822,-7.686],
[109.8211,-7.9432],
[109.8941,-7.9432],
[110.0791,-7.4288],
[110.4967,-7.1074],
[110.7195,-7.1717],
[110.696,-6.786],
[110.4081,-6.8503],
[110.3351,-6.8503],
[110.1201,-6.9145],
[108.9454,-6.786],
[108.8724,-6.786],
[108.504,-6.7217],
[108.2599,-6.2717],
[107.5272,-6.2074],
[107.3712,-6.0145],
[107,-5.8859],
[106.8542,-5.8859],
[106.7913,-6.0788],
[106.42,-5.9502],
[106.3471,-5.9502],
[106.298,-6.4002],
[106.2251,-6.4002],
[106.3158,-6.7217],
[106.1847,-6.9788]
]
],
[
[
[107.4503,-2.6073],
[107.4687,-3.1859],
[108.1242,-3.1859],
[108.1804,-2.6716],
[108.0308,-2.543],
[107.5212,-2.543],
[107.5231,-2.6073],
[107.4503,-2.6073]
]
],
[
[
[107.8953,3.8858],
[108.0377,3.8215],
[108.1009,3.6286],
[108.2466,3.6286],
[108.2498,3.6929],
[108.3226,3.6929],
[108.3422,4.0786],
[107.9814,4.1429],
[107.8953,3.8858]
]
],
[
[
[108.6584,-1.5144],
[108.6615,-1.643],
[108.8799,-1.643],
[108.8767,-1.5144],
[108.6584,-1.5144]
]
],
[
[
[108.7009,0.4785],
[108.9798,0.0928],
[108.9291,-0.5501],
[109.2214,-0.6144],
[109.0809,-0.8715],
[109.3733,-0.9358],
[109.3089,-1.3215],
[109.5273,-1.3215],
[109.7413,-1.1287],
[109.8912,-1.3215],
[109.899,-1.643],
[109.755,-1.7073],
[109.76,-1.9001],
[109.9818,-2.0287],
[110.086,-3.0573],
[110.4458,-2.9287],
[110.4501,-3.0573],
[111.0349,-3.1216],
[111.1033,-2.993],
[111.6109,-2.9287],
[111.709,-3.6359],
[111.8546,-3.6359],
[112.0636,-3.3787],
[112.6485,-3.443],
[112.9988,-3.0573],
[113.0785,-3.2502],
[113.4426,-3.2502],
[113.5249,-3.5073],
[113.8162,-3.5073],
[113.8843,-3.3787],
[114.1756,-3.3787],
[114.1804,-3.5073],
[114.3965,-3.443],
[114.5004,-4.2145],
[114.8619,-4.1502],
[114.9293,-4.0216],
[115.72,-3.7645],
[115.7877,-3.6359],
[115.9334,-3.6359],
[115.9492,-4.0216],
[116.0976,-4.0859],
[116.2378,-3.9573],
[116.1279,-2.993],
[116.3396,-2.8001],
[116.2583,-2.543],
[116.4768,-2.543],
[116.4687,-2.2858],
[116.5415,-2.2858],
[116.5376,-2.1573],
[116.3192,-2.1573],
[116.3882,-2.0287],
[116.3065,-1.7073],
[116.4521,-1.7073],
[116.447,-1.5144],
[116.6621,-1.3858],
[116.659,-1.2572],
[117.0214,-1.193],
[117.1611,-0.9358],
[117.5222,-0.8072],
[117.4467,-0.6786],
[117.5156,-0.4858],
[117.3689,-0.4215],
[117.362,-0.0358],
[117.5091,0.5428],
[117.6614,0.7357],
[117.882,0.8],
[117.8866,0.9285],
[118.2436,0.7357],
[118.9033,0.8643],
[118.9103,1.0571],
[117.7788,1.8929],
[117.7842,2.0214],
[118.0082,2.15],
[118.0196,2.4072],
[117.6005,2.7929],
[117.5432,3.1143],
[117.3279,3.1786],
[117.6225,3.2429],
[117.6323,3.4358],
[117.2019,3.5643],
[117.788,3.6286],
[117.7289,3.8858],
[117.5867,3.9501],
[117.8816,4.0143],
[117.8924,4.2072],
[117.601,4.2072],
[117.5174,4.0143],
[117.4481,4.0786],
[117.4517,4.1429],
[117.1712,4.3358],
[115.7869,4.3358],
[115.634,4.2072],
[115.5137,3.3072],
[115.3555,3.05],
[115.058,2.9215],
[115.1101,2.4714],
[114.7348,2.2143],
[114.7967,1.9571],
[114.4122,1.4428],
[113.313,1.25],
[112.9539,1.3786],
[112.8157,1.5714],
[112.379,1.5714],
[112.0804,1.3786],
[111.9981,1.1214],
[111.7024,0.9928],
[110.829,0.9928],
[110.4605,0.8643],
[109.8897,1.1857],
[109.6179,1.7],
[109.4748,1.7643],
[109.4825,1.9571],
[109.4097,1.9571],
[109.3395,2.0214],
[109.1887,1.8929],
[109.1058,1.6357],
[108.8825,1.5071],
[108.7009,0.4785]
]
],
[
[
[112.1828,-7.236],
[112.1953,-7.4288],
[112.3497,-7.5574],
[112.3029,-7.9432],
[112.5401,-8.2003],
[112.8959,-8.0717],
[112.9874,-8.3289],
[113.0604,-8.3289],
[113.7416,-8.6503],
[114.1798,-8.6503],
[114.2677,-8.8432],
[114.4869,-8.8432],
[114.4719,-8.6503],
[114.3161,-8.5217],
[114.3747,-8.3289],
[114.9832,-8.6503],
[114.9302,-8.9075],
[115.0763,-8.9075],
[115.3434,-8.586],
[115.6305,-8.5217],
[115.6112,-8.2646],
[115.305,-8.0717],
[114.4336,-8.136],
[114.3514,-8.0074],
[114.4107,-7.8146],
[114.2559,-7.686],
[113.0925,-7.7503],
[112.7919,-7.6217],
[112.6935,-7.236],
[113.5691,-7.236],
[113.9945,-7.0431],
[113.9864,-6.9145],
[112.7423,-6.8503],
[112.6043,-6.9788],
[112.5314,-6.9788],
[112.5394,-7.1074],
[112.3206,-7.1074],
[112.1828,-7.236]
]
],
[
[
[115.0765,-6.8503],
[115.1617,-7.0431],
[115.2347,-7.0431],
[115.3765,-6.9788],
[115.2913,-6.786],
[115.0765,-6.8503]
]
],
[
[
[115.7185,-8.7146],
[115.7337,-8.9075],
[116.4693,-8.9718],
[116.4488,-8.7146],
[116.6529,-8.5217],
[116.6382,-8.3289],
[116.4825,-8.2003],
[116.1175,-8.2003],
[115.9129,-8.3932],
[115.9376,-8.7146],
[115.7185,-8.7146]
]
],
[
[
[116.6,-8.7789],
[116.6206,-9.036],
[116.8504,-9.1646],
[117.4295,-9.1003],
[117.5651,-8.9718],
[118.0711,-8.9075],
[118.1338,-8.7789],
[118.2799,-8.7789],
[118.2903,-8.9075],
[118.7233,-8.8432],
[118.7181,-8.7789],
[119.0833,-8.7789],
[118.8967,-8.2646],
[118.5365,-8.3289],
[118.3077,-8.2003],
[118.1715,-8.3289],
[118.006,-8.0717],
[117.3538,-8.136],
[117.3683,-8.3289],
[117.5825,-8.2646],
[118.0505,-8.6503],
[117.7635,-8.7146],
[117.5193,-8.3932],
[116.8621,-8.3932],
[116.6529,-8.5217],
[116.673,-8.7789],
[116.6,-8.7789]
]
],
[
[
[118.5947,-2.7359],
[118.7739,-3.6359],
[119.3514,-3.5073],
[119.4721,-4.6002],
[119.3993,-4.6002],
[119.3486,-5.0502],
[119.2062,-5.1145],
[119.3066,-5.6288],
[119.6783,-5.7574],
[119.8169,-5.6288],
[120.3236,-5.5645],
[120.2166,-4.9216],
[120.3496,-4.6645],
[120.2034,-2.9287],
[120.415,-2.7359],
[120.9247,-2.7359],
[120.9387,-3.1216],
[120.7353,-3.5073],
[120.9671,-3.8287],
[121.4154,-4.0859],
[121.3761,-4.7931],
[121.9655,-4.9216],
[122.0192,-4.5359],
[122.6718,-4.4716],
[122.8054,-4.2145],
[123.1696,-4.2145],
[123.0851,-3.9573],
[122.581,-4.0859],
[122.5696,-3.8287],
[122.1972,-3.6359],
[122.3273,-3.2502],
[122.2423,-2.9287],
[121.9419,-2.6716],
[121.7834,-2.2858],
[121.4095,-1.9644],
[121.6279,-1.9644],
[121.8388,-1.7073],
[122.272,-1.5787],
[122.7654,-0.9358],
[122.9822,-0.8715],
[123.0595,-1.0644],
[123.2779,-1.0644],
[123.4147,-0.6786],
[123.2664,-0.5501],
[122.7569,-0.5501],
[122.6882,-0.7429],
[122.2502,-0.6786],
[122.0332,-0.7429],
[121.892,-0.9358],
[121.3796,-0.8072],
[121.0943,-1.0644],
[120.9567,-1.3858],
[120.7383,-1.3858],
[120.5167,-1.2572],
[120.4363,-0.9358],
[120.218,-0.9358],
[120.0695,-0.8072],
[119.9173,-0.4858],
[119.9102,-0.1001],
[120.1226,0.35],
[120.3453,0.4785],
[120.7092,0.4785],
[120.9231,0.35],
[121.2914,0.4785],
[122.6742,0.4785],
[123.1749,0.2214],
[123.7571,0.2214],
[124.0525,0.35],
[124.1253,0.35],
[124.4958,0.5428],
[124.653,0.8643],
[124.8762,0.9928],
[125.0369,1.3786],
[125.1825,1.3786],
[125.123,1.7],
[124.759,1.7],
[124.6028,1.4428],
[124.4572,1.4428],
[124.3741,1.1857],
[123.7796,0.8643],
[123.1294,0.9928],
[122.6879,0.8643],
[122.1856,1.0571],
[121.4602,1.1214],
[121.3221,1.3143],
[121.0335,1.3786],
[120.667,1.3143],
[120.6596,1.1214],
[120.4317,0.8643],
[120.0725,0.9928],
[119.838,0.5428],
[119.6903,0.4785],
[119.6907,-0.0358],
[119.4722,0.0285],
[119.4746,-0.1643],
[119.6213,-0.2286],
[119.6288,-0.6144],
[119.4846,-0.6786],
[119.4174,-0.9358],
[119.2035,-1.1287],
[119.1546,-2.0287],
[119.0109,-2.093],
[119.0189,-2.3501],
[118.5947,-2.7359]
]
],
[
[
[118.7775,-9.4861],
[118.9463,-9.7432],
[119.4638,-9.8075],
[120.0173,-10.2575],
[120.4622,-10.3218],
[120.5353,-10.3218],
[120.7424,-10.1932],
[120.7183,-9.9361],
[120.4755,-9.6789],
[120.1773,-9.6146],
[120.0085,-9.3575],
[118.9855,-9.3575],
[118.7775,-9.4861]
]
],
[
[
[119.2088,-8.5217],
[119.292,-8.6503],
[119.365,-8.6503],
[119.506,-8.586],
[119.4177,-8.3932],
[119.2717,-8.3932],
[119.2088,-8.5217]
]
],
[
[
[119.4433,-8.7146],
[119.4537,-8.8432],
[119.6676,-8.7789],
[119.7512,-8.9075],
[120.6224,-8.8432],
[120.7792,-8.9718],
[121.2906,-8.9718],
[121.2798,-8.8432],
[121.7234,-8.9075],
[121.9318,-8.7789],
[122.6568,-8.7146],
[122.7087,-8.4575],
[122.7922,-8.586],
[122.9383,-8.586],
[123.0008,-8.4575],
[123.1521,-8.5217],
[123.1574,-8.586],
[123.5225,-8.586],
[123.512,-8.4575],
[123.7258,-8.3932],
[123.7833,-8.2003],
[123.2774,-8.2646],
[123.2147,-8.3932],
[123.2043,-8.2646],
[122.9123,-8.2646],
[122.8242,-8.0717],
[122.6051,-8.0717],
[122.6254,-8.3289],
[122.4793,-8.3289],
[122.281,-8.586],
[121.9785,-8.4575],
[121.3265,-8.5217],
[120.722,-8.2646],
[120.0649,-8.2646],
[120.0019,-8.3932],
[119.7148,-8.4575],
[119.6572,-8.6503],
[119.4433,-8.7146]
]
],
[
[
[121.5899,-0.4215],
[121.5925,-0.5501],
[121.738,-0.5501],
[121.7367,-0.4858],
[121.807,-0.3572],
[121.5899,-0.4215]
]
],
[
[
[121.6575,-10.5789],
[121.877,-10.5789],
[121.8579,-10.3861],
[121.7117,-10.3861],
[121.6575,-10.5789]
]
],
[
[
[121.6841,-5.1145],
[121.7743,-5.4359],
[121.9894,-5.3716],
[121.8993,-5.0502],
[121.8265,-5.0502],
[121.6841,-5.1145]
]
],
[
[
[122.1387,-5.4359],
[122.4303,-5.4359],
[122.4412,-5.6288],
[122.8093,-5.6931],
[122.7983,-5.5002],
[123.0863,-5.4359],
[122.9129,-4.9216],
[123.1217,-4.7288],
[123.033,-4.4073],
[122.8144,-4.4073],
[122.6781,-4.6002],
[122.4595,-4.6002],
[122.1776,-4.7931],
[122.1387,-5.4359]
]
],
[
[
[122.6946,-10.7075],
[122.7211,-10.9647],
[123.0071,-10.9004],
[123.0004,-10.8361],
[123.2864,-10.7718],
[123.2603,-10.5147],
[122.6946,-10.7075]
]
],
[
[
[122.7003,-1.2572],
[122.7106,-1.643],
[122.8561,-1.643],
[122.9254,-1.5144],
[123.0017,-1.643],
[123.1473,-1.643],
[123.4332,-1.4501],
[123.4282,-1.2572],
[123.1371,-1.2572],
[123.0611,-1.1287],
[122.9883,-1.1287],
[122.7003,-1.2572]
]
],
[
[
[123.1743,-10.3861],
[123.8325,-10.3861],
[124.1123,-10.2575],
[124.106,-10.1932],
[124.3985,-10.1932],
[124.459,-10.0646],
[124.6053,-10.0646],
[124.5928,-9.9361],
[124.9279,-9.6146],
[124.922,-9.5503],
[124.8254,-9.2932],
[125.0388,-9.2289],
[125.0217,-9.036],
[124.8025,-9.036],
[124.7183,-8.9075],
[124.6452,-8.9075],
[124.516,-9.1003],
[124.3699,-9.1003],
[124.3755,-9.1646],
[124.2583,-9.4861],
[123.9602,-9.4218],
[123.6679,-9.4218],
[123.6796,-9.5503],
[123.4171,-9.8718],
[123.5148,-10.1289],
[123.2223,-10.1289],
[123.1743,-10.3861]
]
],
[
[
[123.7988,-8.3932],
[123.804,-8.4575],
[123.9607,-8.586],
[124.1744,-8.5217],
[124.1587,-8.3289],
[124.2475,-8.5217],
[124.9724,-8.4575],
[125.0245,-8.2003],
[124.3623,-8.136],
[124.3725,-8.2646],
[124.0023,-8.2003],
[123.7988,-8.3932]
]
],
[
[
[124.2392,-1.643],
[124.2506,-2.0287],
[125.1931,-1.9001],
[125.1146,-1.7073],
[124.5304,-1.643],
[124.2392,-1.643]
]
],
[
[
[125.262,-1.7715],
[125.2659,-1.9001],
[125.4862,-1.9644],
[125.7046,-1.9644],
[125.792,-2.4144],
[126.0126,-2.4787],
[125.923,-1.9644],
[126.0686,-1.9644],
[126.1356,-1.7715],
[125.262,-1.7715]
]
],
[
[
[125.3592,3.5643],
[125.4216,3.3715],
[125.6366,3.3072],
[125.6506,3.5643],
[125.512,3.6929],
[125.4392,3.6929],
[125.3592,3.5643]
]
],
[
[
[125.6661,-8.0074],
[126.3961,-8.0074],
[126.537,-7.9432],
[126.5269,-7.8146],
[126.6729,-7.8146],
[126.5072,-7.5574],
[126.2931,-7.6217],
[126.2201,-7.6217],
[125.7142,-7.686],
[125.6661,-8.0074]
]
],
[
[
[125.8906,-3.1216],
[125.9063,-3.5073],
[126.3573,-3.8287],
[126.4301,-3.8287],
[126.6515,-3.893],
[127.1528,-3.7002],
[127.2145,-3.443],
[127.0583,-3.1859],
[126.8348,-3.0573],
[125.8906,-3.1216]
]
],
[
[
[126.623,4.0143],
[126.7687,4.0143],
[126.8687,4.4644],
[126.6541,4.5286],
[126.6422,4.3358],
[126.623,4.0143]
]
],
[
[
[126.9053,-0.5501],
[127.1236,-0.5501],
[127.1951,-0.4858],
[127.2706,-0.6144],
[127.2764,-0.8715],
[127.7859,-0.8715],
[127.7814,-0.6786],
[127.5617,-0.6144],
[127.4823,-0.2929],
[127.1924,-0.3572],
[127.1172,-0.2286],
[126.9716,-0.2286],
[126.9053,-0.5501]
]
],
[
[
[127.2183,-1.4501],
[127.3003,-1.7715],
[128.0283,-1.7715],
[128.0208,-1.5144],
[127.6533,-1.3858],
[127.6516,-1.3215],
[127.2183,-1.4501]
]
],
[
[
[127.296,1.4428],
[127.4002,0.35],
[127.5436,0.2857],
[127.481,-0.2286],
[127.8514,-0.5501],
[127.8557,-0.7429],
[128.1513,-0.9358],
[128.2969,-0.9358],
[128.2938,-0.8072],
[128.1468,-0.7429],
[127.9202,-0.3572],
[127.8391,0.4142],
[128.7058,0.2214],
[128.501,0.6071],
[128.2122,0.6714],
[128.2193,0.8643],
[128.5882,0.9928],
[128.6711,1.25],
[128.6737,1.3143],
[128.6009,1.3143],
[128.6143,1.6357],
[128.2477,1.5714],
[127.9458,1.3143],
[127.9648,1.7643],
[127.822,1.8286],
[127.985,2.2143],
[127.7666,2.2143],
[127.5394,2.0214],
[127.296,1.4428]
]
],
[
[
[127.6423,-8.0717],
[127.658,-8.2646],
[127.8771,-8.2646],
[127.8718,-8.2003],
[127.7883,-8.0717],
[127.6423,-8.0717]
]
],
[
[
[127.7138,-3.1859],
[127.7244,-3.443],
[127.87,-3.443],
[127.9348,-3.2502],
[128.0779,-3.1859],
[128.0831,-3.3144],
[128.3826,-3.5073],
[128.5282,-3.5073],
[128.6657,-3.3144],
[128.9625,-3.443],
[129.7608,-3.3787],
[129.9148,-3.5716],
[130.7306,-3.893],
[130.786,-3.5073],
[130.562,-3.3787],
[130.5513,-3.1216],
[130.4005,-2.993],
[129.9635,-2.993],
[129.6648,-2.8001],
[128.2813,-2.8001],
[127.779,-2.993],
[127.7138,-3.1859]
]
],
[
[
[127.8027,-3.5716],
[127.814,-3.8287],
[128.2453,-3.7002],
[128.2369,-3.5073],
[127.9483,-3.5716],
[127.8027,-3.5716]
]
],
[
[
[128.1189,1.9571],
[128.413,2.0214],
[128.5704,2.2786],
[128.5735,2.3429],
[128.5163,2.6643],
[128.1428,2.4714],
[128.1189,1.9571]
]
],
[
[
[128.3709,-7.1074],
[128.3804,-7.236],
[128.5263,-7.236],
[128.5215,-7.1717],
[128.5851,-7.0431],
[128.3709,-7.1074]
]
],
[
[
[129.4414,-7.7503],
[129.462,-8.0074],
[129.7593,-8.0717],
[129.7436,-7.8789],
[129.7384,-7.8146],
[129.4414,-7.7503]
]
],
[
[
[129.6357,-1.9644],
[129.8583,-2.093],
[130.2223,-2.093],
[130.2869,-1.8358],
[130.3597,-1.8358],
[130.2811,-1.643],
[130.0627,-1.643],
[129.7025,-1.7715],
[129.6357,-1.9644]
]
],
[
[
[130.1712,-0.1001],
[130.175,-0.2929],
[130.5428,-0.4858],
[130.8339,-0.4858],
[130.8313,-0.3572],
[131.1951,-0.3572],
[131.1161,-0.0358],
[130.3881,0.0285],
[130.244,-0.1001],
[130.1712,-0.1001]
]
],
[
[
[130.55,-0.8072],
[130.5614,-1.2572],
[130.9324,-1.5144],
[131.2946,-1.4501],
[131.3711,-1.5787],
[131.6622,-1.5787],
[131.8116,-1.7073],
[131.8988,-2.1573],
[132.1216,-2.2858],
[132.9248,-2.3501],
[133.7189,-2.1573],
[133.8007,-2.4144],
[133.6551,-2.4144],
[133.6598,-2.543],
[132.9999,-2.4144],
[132.7157,-2.6073],
[132.7206,-2.7359],
[131.99,-2.6716],
[131.8492,-2.8001],
[131.8543,-2.9287],
[132.2209,-2.993],
[132.4473,-3.1859],
[132.4527,-3.3144],
[132.674,-3.3787],
[132.7553,-3.5716],
[132.6126,-3.6359],
[132.6307,-4.0216],
[132.7827,-4.1502],
[133.2166,-4.0859],
[133.5508,-3.443],
[133.5624,-3.7002],
[134.0054,-3.8287],
[134.0148,-4.0216],
[134.5247,-4.0216],
[134.5343,-4.2145],
[134.7629,-4.4073],
[135.0612,-4.5359],
[135.7898,-4.5359],
[136.54,-4.9216],
[136.9044,-4.9216],
[136.9848,-5.0502],
[137.5794,-5.2431],
[137.7412,-5.5002],
[137.887,-5.5002],
[137.9036,-5.7574],
[138.0494,-5.7574],
[138.1309,-5.8859],
[138.2396,-6.4002],
[138.5502,-6.6574],
[138.4338,-7.0431],
[138.6577,-7.1074],
[138.668,-7.236],
[138.6054,-7.3646],
[138.0269,-7.4288],
[137.6888,-7.7503],
[137.5088,-8.2003],
[137.532,-8.4575],
[138.2623,-8.4575],
[138.3965,-8.3289],
[138.5544,-8.4575],
[138.8464,-8.4575],
[138.7558,-8.2646],
[138.9748,-8.2646],
[139.0362,-8.136],
[139.8393,-8.136],
[139.8568,-8.3289],
[140.319,-8.586],
[140.4961,-8.9075],
[140.814,-9.1646],
[140.887,-9.1646],
[140.885,-8.3932],
[140.958,-8.3932],
[140.8836,-7.5574],
[140.9566,-7.5574],
[140.9091,-6.9788],
[140.7531,-6.8503],
[140.7286,-6.5288],
[140.9285,-6.2717],
[140.8883,-5.6931],
[140.9612,-5.6931],
[140.89,-4.5359],
[140.9628,-4.5359],
[140.892,-3.1216],
[140.9648,-3.1216],
[140.8705,-2.6073],
[140.7977,-2.6073],
[140.5718,-2.4144],
[139.6957,-2.3501],
[137.9932,-1.5144],
[137.4109,-1.5144],
[136.9821,-1.7715],
[136.9928,-2.093],
[136.1964,-2.2216],
[136.1354,-2.543],
[135.8515,-2.7359],
[135.8567,-2.8644],
[135.3658,-3.3144],
[135.0773,-3.3787],
[134.7777,-3.1859],
[134.7696,-2.993],
[134.6214,-2.9287],
[134.6064,-2.543],
[134.3855,-2.4787],
[134.32,-2.6716],
[134.1695,-2.543],
[134.0016,-1.9001],
[134.2081,-1.5144],
[134.1245,-1.1287],
[134.0517,-1.1287],
[133.9692,-0.7429],
[133.1671,-0.6786],
[132.7234,-0.3572],
[132.0685,-0.3572],
[131.4947,-0.7429],
[131.2036,-0.7429],
[131.137,-1.0001],
[130.7699,-0.8715],
[130.7669,-0.7429],
[130.55,-0.8072]
]
],
[
[
[130.5895,-8.3932],
[130.949,-8.3289],
[131.0057,-8.136],
[130.8597,-8.136],
[130.5895,-8.3932]
]
],
[
[
[130.8128,-7.5574],
[131.0317,-7.5574],
[131.0168,-7.3646],
[130.8708,-7.3646],
[130.8128,-7.5574]
]
],
[
[
[130.9689,-7.686],
[131.0003,-8.0717],
[131.2193,-8.0717],
[131.2764,-7.8789],
[131.5528,-7.686],
[131.581,-7.1074],
[131.3621,-7.1074],
[131.1578,-7.3003],
[131.1627,-7.3646],
[130.9689,-7.686]
]
],
[
[
[132.5049,-5.6931],
[132.5213,-5.9502],
[132.6671,-5.9502],
[132.6713,-6.0145],
[132.8171,-6.0145],
[132.9464,-5.7574],
[132.5049,-5.6931]
]
],
[
[
[132.8574,-5.5002],
[133.0112,-5.6288],
[133.0072,-5.5645],
[133.0722,-5.4359],
[132.8574,-5.5002]
]
],
[
[
[133.8731,-6.5288],
[133.9693,-6.8503],
[133.974,-6.9145],
[134.334,-6.8503],
[134.3836,-6.5288],
[134.6799,-6.5931],
[134.53,-5.4359],
[134.3113,-5.4359],
[134.3193,-5.5645],
[134.1775,-5.6288],
[134.2067,-6.0788],
[133.9194,-6.1431],
[133.946,-6.5288],
[133.8731,-6.5288]
]
],
[
[
[134.634,-1.1287],
[134.8541,-1.193],
[134.8473,-0.9358],
[134.7018,-0.9358],
[134.7034,-1.0001],
[134.634,-1.1287]
]
],
[
[
[135.2065,-0.7429],
[135.3552,-0.8715],
[135.6463,-0.8715],
[135.6417,-0.6786],
[135.349,-0.6144],
[135.2763,-0.6144],
[135.2065,-0.7429]
]
],
[
[
[135.3746,-1.5787],
[135.3786,-1.7073],
[135.599,-1.7715],
[135.6718,-1.7715],
[136.1876,-1.9644],
[136.693,-1.8358],
[136.6889,-1.7073],
[136.3957,-1.643],
[135.3746,-1.5787]
]
]
]}
}
