{
"type": "Feature",
"properties": {"id":"cliopatria-takrur-1139","edge_precision":"unknown","cliopatria_name":"Takrur","cliopatria_from_year":1139,"cliopatria_to_year":1226,"cliopatria_area_km2":74105,"cliopatria_wikidata":"Q2272880","cliopatria_wikipedia":"Takrur"},
"geometry": {"type": "MultiPolygon", "coordinates": [
[
[
[-16.5513,16.2933],
[-16.5357,15.8433],
[-15.7997,15.8433],
[-15.0577,15.6504],
[-14.4615,15.3933],
[-14.3842,15.2647],
[-13.7171,15.0718],
[-13.2676,14.7504],
[-13.1893,14.5575],
[-12.6735,14.4932],
[-12.5236,14.3646],
[-11.7906,14.4289],
[-11.723,14.6861],
[-11.8026,14.9432],
[-12.1749,15.1361],
[-12.3337,15.5861],
[-12.4809,15.5861],
[-12.9332,15.9718],
[-12.9351,16.0361],
[-13.0861,16.1647],
[-13.0163,16.2933],
[-13.1655,16.3576],
[-13.1695,16.4861],
[-13.6156,16.6147],
[-13.7713,16.8719],
[-14.0704,17.0005],
[-15.7615,16.8719],
[-16.2798,16.9362],
[-16.5513,16.2933]
]
]
]}
}
