{
"type": "Feature",
"properties": {"id":"cliopatria-republic-of-sudan-2014","edge_precision":"unknown","cliopatria_name":"Republic of Sudan","cliopatria_from_year":2014,"cliopatria_to_year":2023,"cliopatria_area_km2":1861884,"cliopatria_wikidata":"Q1049","cliopatria_wikipedia":"Sudan"},
"geometry": {"type": "MultiPolygon", "coordinates": [
[
[
[21.8885,12.6932],
[22.4735,12.6289],
[22.4657,12.2432],
[22.5351,12.0503],
[22.6803,11.986],
[22.598,11.536],
[22.9589,11.2788],
[22.8793,10.9574],
[22.9486,10.7645],
[23.1655,10.636],
[23.163,10.5074],
[23.4516,10.3145],
[23.7324,9.7359],
[23.7259,9.4145],
[23.5016,9.1574],
[23.567,8.7716],
[24.1487,8.6431],
[24.2986,8.8359],
[24.5921,8.9002],
[24.822,9.4145],
[24.8288,9.7359],
[24.9046,9.8645],
[25.1984,9.9288],
[25.2784,10.2502],
[26.0097,10.2502],
[26.0771,9.9931],
[26.5787,9.5431],
[27.0902,9.5431],
[27.2394,9.6717],
[28.1895,9.6717],
[28.2565,9.4145],
[28.4011,9.3502],
[28.9126,9.3502],
[29.208,9.4788],
[29.3605,9.7359],
[29.726,9.7359],
[30.1014,10.1217],
[30.6115,10.0574],
[31.1131,9.6717],
[31.4785,9.6717],
[32.6111,10.9574],
[32.628,11.536],
[32.4854,11.6646],
[32.4912,11.8574],
[32.8574,11.8574],
[33.0098,12.0503],
[33.4473,11.986],
[33.2928,11.7289],
[33.3352,10.7003],
[34.0497,10.1217],
[33.9691,9.8645],
[33.9599,9.5431],
[34.033,9.5431],
[34.1847,9.7359],
[34.1921,9.9931],
[34.3421,10.1217],
[34.4345,10.7645],
[34.9466,10.7645],
[35.2051,11.986],
[35.3538,12.0503],
[35.5888,12.5003],
[35.8154,12.6932],
[36.1842,12.7575],
[36.2621,12.886],
[36.281,13.4003],
[36.5157,13.7861],
[36.6092,14.3004],
[36.4964,15.1361],
[36.6517,15.329],
[36.9091,16.1647],
[37.0622,16.2933],
[37.0121,16.8076],
[37.1685,17.0005],
[37.3896,17.0005],
[37.5432,17.129],
[37.7029,17.3862],
[38.5303,17.7076],
[38.6907,17.9648],
[38.6939,18.0291],
[38.5558,18.2219],
[38.1928,18.3505],
[37.8422,18.7362],
[37.5495,18.8005],
[37.5557,18.9291],
[37.4109,18.9934],
[37.3176,20.1505],
[37.2434,20.1505],
[37.3414,20.6648],
[37.2049,20.922],
[37.2138,21.1148],
[37.3622,21.1148],
[37.3682,21.2434],
[37.0116,21.5648],
[36.9521,21.8863],
[36.955,21.9505],
[31.6023,21.9505],
[31.3096,22.0791],
[31.1562,21.9505],
[25.0601,21.9505],
[25.0876,20.0862],
[24.9361,19.9577],
[24.1212,19.9577],
[24.0376,19.5719],
[24.0891,15.8433],
[23.9387,15.7147],
[23.35,15.7147],
[23.0526,15.5861],
[23.045,15.2647],
[22.7435,14.9432],
[22.6642,14.6861],
[22.5158,14.6218],
[22.578,14.1075],
[22.2054,13.8503],
[22.2668,13.2718],
[21.8949,13.0146],
[21.8885,12.6932]
]
]
]}
}
