{
"type": "Feature",
"properties": {"id":"cliopatria-don-cossacks-1552","edge_precision":"unknown","cliopatria_name":"Don Cossacks","cliopatria_from_year":1552,"cliopatria_to_year":1594,"cliopatria_area_km2":64446,"cliopatria_wikidata":"Q1057292","cliopatria_wikipedia":"Don Cossacks"},
"geometry": {"type": "MultiPolygon", "coordinates": [
[
[
[38.3601,47.73],
[38.4193,47.5982],
[39.2206,47.4665],
[39.3855,47.4665],
[40.5973,47.3348],
[40.7371,47.2032],
[41.288,47.0716],
[41.3006,47.1374],
[41.4594,47.5323],
[41.8154,47.6641],
[42.1161,47.9278],
[42.3642,47.9278],
[42.3912,48.0597],
[42.5703,48.1257],
[42.75,48.5881],
[43.0275,48.7204],
[43.0847,48.9851],
[43.2949,49.1838],
[43.3243,49.3163],
[43.0886,49.3826],
[43.0051,49.3826],
[42.8527,49.4489],
[42.4898,49.3163],
[42.3516,49.4489],
[41.7668,49.4489],
[41.7952,49.5816],
[41.3632,49.5152],
[40.9173,49.7807],
[40.1366,49.6479],
[39.9559,49.5816],
[40.0261,49.5152],
[39.9466,49.1175],
[39.2671,49.0513],
[38.3717,47.7959],
[38.3601,47.73]
]
]
]}
}
