{
"type": "Feature",
"properties": {"id":"cliopatria-panthay-rebellion-1856","edge_precision":"unknown","cliopatria_name":"Panthay Rebellion","cliopatria_from_year":1856,"cliopatria_to_year":1858,"cliopatria_area_km2":341824,"cliopatria_wikidata":"Q1230569","cliopatria_wikipedia":"Panthay Rebellion"},
"geometry": {"type": "MultiPolygon", "coordinates": [
[
[
[99.4576,25.615],
[99.5325,25.615],
[99.5553,25.3579],
[99.6921,25.2936],
[99.9677,24.3935],
[100.3451,24.0077],
[101.3724,23.4934],
[101.5179,23.0434],
[101.7085,22.8506],
[101.7182,22.4648],
[102.154,22.4005],
[102.5802,22.722],
[102.867,22.6577],
[102.9197,22.5291],
[103.2173,22.5291],
[103.3247,22.722],
[103.6224,22.722],
[103.9074,23.4934],
[104.3498,24.2649],
[104.5645,25.6793],
[104.829,26.1937],
[104.9031,26.5151],
[104.7832,26.6437],
[104.1074,26.6437],
[104.1114,27.2866],
[103.9768,27.3509],
[104.2404,27.8009],
[104.3654,27.9938],
[105.002,28.1224],
[105.0361,28.251],
[105.4825,28.5081],
[105.6466,28.8295],
[105.8912,28.8938],
[106.0952,29.3438],
[105.9625,29.4081],
[106.019,29.6009],
[105.6216,29.7937],
[105.6034,29.9865],
[104.9227,30.2436],
[104.2029,30.3722],
[103.0453,30.3079],
[102.3626,30.0508],
[101.2008,29.1509],
[100.381,27.0938],
[99.5273,26.6437],
[99.4576,25.615]
]
]
]}
}
