{
"type": "Feature",
"properties": {"id":"cliopatria-carthage-501bce","edge_precision":"unknown","cliopatria_name":"Carthage","cliopatria_from_year":-500,"cliopatria_to_year":-481,"cliopatria_area_km2":124878,"cliopatria_wikidata":"Q2429397","cliopatria_wikipedia":"Ancient Carthage","cliopatria_seshat_id":"tn_carthage_emp"},
"geometry": {"type": "MultiPolygon", "coordinates": [
[
[
[-7.8752,33.5217],
[-7.4735,33.2645],
[-7.3335,33.4574],
[-6.805,33.5859],
[-6.9674,33.7146],
[-6.9851,33.9718],
[-7.4327,33.7789],
[-7.4282,33.7146],
[-7.8752,33.5217]
]
],
[
[
[-6.2475,36.6105],
[-6.0638,36.224],
[-5.8311,36.224],
[-5.5848,36.0308],
[-5.5162,36.1596],
[-5.2879,36.224],
[-5.2282,36.4816],
[-4.6888,36.546],
[-4.4686,36.7393],
[-3.8507,36.8037],
[-4.5551,36.8682],
[-5.3104,36.546],
[-5.3059,36.4816],
[-5.4521,36.3528],
[-5.9179,36.3528],
[-6.2475,36.6105]
]
],
[
[
[1.1831,39.0618],
[1.2735,38.8034],
[1.4305,38.8034],
[1.6575,38.9972],
[1.6518,39.1265],
[1.2587,39.1265],
[1.1831,39.0618]
]
],
[
[
[7.2694,36.9971],
[7.3513,36.7393],
[7.7437,36.4816],
[7.9024,36.224],
[7.8282,35.9664],
[7.9057,35.9664],
[8.0728,34.9366],
[8.2286,34.8079],
[8.4594,34.8723],
[8.8462,34.7436],
[8.9263,34.3577],
[9.0033,34.3577],
[8.9288,34.0361],
[9.0826,34.0361],
[9.3159,33.5859],
[9.5465,33.5217],
[9.6242,33.3288],
[9.854,33.3931],
[10.4679,33.2645],
[10.468,33.1359],
[10.6979,33.1359],
[11.0809,32.8788],
[11.617,32.943],
[12.0756,32.7502],
[11.9985,32.6216],
[13.7577,32.6216],
[14.4427,32.3645],
[14.5166,32.1717],
[14.8994,32.236],
[15.0502,32.1074],
[15.193,31.4647],
[15.5687,31.1434],
[17.1611,30.8863],
[18.2161,30.5007],
[18.5861,30.1151],
[18.8136,30.1151],
[18.8961,30.3722],
[18.5925,30.3722],
[18.2223,30.7578],
[17.8468,30.9506],
[16.8635,31.2076],
[16.1786,31.2076],
[15.649,31.4005],
[15.576,31.5933],
[15.4246,31.6575],
[15.2823,32.3002],
[15.0551,32.4288],
[14.7493,32.4288],
[14.6747,32.5574],
[14.4444,32.4931],
[14.0652,32.7502],
[13.7591,32.7502],
[13.7605,32.8788],
[13.4537,32.8145],
[13.3017,32.943],
[12.8418,32.8788],
[12.8408,32.7502],
[12.5347,32.7502],
[12.6121,32.8788],
[12.229,32.8145],
[11.4644,33.2002],
[11.1578,33.2002],
[11.0815,33.5859],
[10.6977,33.5217],
[10.544,33.7146],
[10.2368,33.7146],
[10.0058,33.9075],
[10.0817,34.229],
[10.0045,34.2933],
[10.543,34.5506],
[10.8512,34.8079],
[10.8512,34.9366],
[11.0828,35.001],
[11.0057,35.3871],
[11.083,35.3871],
[11.0832,35.5802],
[10.851,35.6445],
[10.851,35.7089],
[10.4635,35.902],
[10.5403,36.3528],
[10.4625,36.4172],
[11.0062,36.8037],
[11.0063,36.9971],
[10.4618,36.7393],
[10.2284,36.8037],
[10.3054,37.0615],
[10.2276,37.0615],
[10.227,37.2549],
[9.9934,37.1904],
[9.759,37.3193],
[9.3696,37.2549],
[9.0595,37.0615],
[8.9032,37.126],
[8.5164,36.8682],
[7.7383,36.8682],
[7.502,37.0615],
[7.2694,36.9971]
]
],
[
[
[8.3248,39.967],
[8.4834,39.9023],
[8.4848,39.7729],
[8.3301,39.5143],
[8.3332,39.2557],
[8.4118,39.2557],
[8.3362,38.9972],
[8.9659,38.868],
[9.0423,39.1265],
[9.3563,39.1911],
[9.3554,39.3203],
[9.1183,39.4496],
[8.7259,39.3203],
[8.7182,40.0964],
[8.4791,40.2906],
[8.4,40.2906],
[8.3248,39.967]
]
],
[
[
[12.5706,37.9643],
[12.7264,37.8998],
[12.8063,38.0933],
[12.5711,38.0288],
[12.5706,37.9643]
]
],
[
[
[13.0397,37.9643],
[13.6652,37.9643],
[13.5096,38.0288],
[13.5104,38.0933],
[13.1199,38.1578],
[13.0397,37.9643]
]
],
[
[
[14.3368,35.8377],
[14.5682,35.7733],
[14.5712,35.9664],
[14.4171,36.0308],
[14.3396,36.0308],
[14.3368,35.8377]
]
]
]}
}
