{
"type": "Feature",
"properties": {"id":"cliopatria-norman-england-1147","edge_precision":"unknown","cliopatria_name":"Norman England","cliopatria_from_year":1147,"cliopatria_to_year":1151,"cliopatria_area_km2":148892,"cliopatria_wikidata":"Q200485","cliopatria_wikipedia":"Norman Conquest","cliopatria_seshat_id":"gb_england_plantagenet","cliopatria_member_of":"(Kingdom of England)"},
"geometry": {"type": "MultiPolygon", "coordinates": [
[
[
[-5.7686,50.246],
[-5.7456,50.0465],
[-5.1511,49.98],
[-4.9287,50.246],
[-4.3548,50.3791],
[-4.1866,50.3791],
[-4.0887,50.246],
[-3.5847,50.246],
[-3.4566,50.6455],
[-3.1262,50.7121],
[-2.1028,50.5789],
[-2.0306,50.7121],
[-1.525,50.7121],
[-1.5134,50.5789],
[-1.1766,50.5789],
[-1.1092,50.7788],
[-1.3678,50.8455],
[0.4929,50.7788],
[1.3138,51.1124],
[1.3806,51.3797],
[0.5239,51.5134],
[0.863,51.5134],
[0.8439,51.7811],
[1.1837,51.7811],
[1.1698,51.9822],
[1.425,51.9822],
[1.5863,52.1163],
[1.6537,52.3847],
[1.739,52.3847],
[1.7168,52.7208],
[1.532,52.9227],
[1.0938,53.0574],
[0.4933,53.0574],
[0.3375,52.8554],
[0.0751,52.9227],
[0.3165,53.1248],
[0.2953,53.3946],
[0.0208,53.5971],
[0.0043,53.7999],
[-0.1796,53.9352],
[-0.2024,54.2061],
[-0.3814,54.2739],
[-0.3873,54.3417],
[-0.6714,54.6132],
[-1.286,54.6811],
[-1.3989,54.9531],
[-1.486,54.9531],
[-1.6336,55.5665],
[-2.019,55.9082],
[-2.1069,55.9082],
[-2.2681,55.7715],
[-2.2394,55.4983],
[-2.5603,55.2255],
[-2.7349,55.2255],
[-2.8075,55.0892],
[-3.1413,54.9531],
[-3.4026,54.9531],
[-3.395,54.8851],
[-3.5691,54.8851],
[-3.7198,54.6811],
[-3.5868,54.2739],
[-3.3194,54.2061],
[-3.3045,54.0706],
[-2.9658,54.1384],
[-3.196,53.8676],
[-3.088,53.6647],
[-3.1742,53.6647],
[-3.1525,53.4621],
[-3.3247,53.4621],
[-3.2242,53.3271],
[-3.217,53.2596],
[-2.9522,53.1922],
[-2.8454,52.99],
[-3.1955,53.0574],
[-3.267,52.9227],
[-3.0886,52.8554],
[-3.0676,52.6535],
[-3.6229,52.2505],
[-3.8786,52.2505],
[-3.8496,51.9822],
[-3.998,51.7811],
[-4.2602,51.8481],
[-4.1899,51.9822],
[-4.6153,51.9822],
[-4.6382,52.1833],
[-4.7234,52.1833],
[-5.2187,52.0492],
[-5.2643,51.7142],
[-4.9093,51.5803],
[-4.4152,51.7142],
[-4.3083,51.5134],
[-3.8915,51.5803],
[-3.7008,51.3797],
[-3.2774,51.3797],
[-3.1214,51.5134],
[-2.9452,51.4465],
[-3.108,51.3797],
[-3.0946,51.246],
[-4.2017,51.3128],
[-4.4264,51.0457],
[-4.6799,51.0457],
[-4.6578,50.8455],
[-4.8191,50.7788],
[-4.8812,50.5789],
[-5.1338,50.5789],
[-5.2796,50.3791],
[-5.7686,50.246]
]
]
]}
}
