{
"type": "Feature",
"properties": {"id":"cliopatria-hanthawaddy-kingdom-1540","edge_precision":"unknown","cliopatria_name":"Hanthawaddy Kingdom","cliopatria_from_year":1540,"cliopatria_to_year":1546,"cliopatria_area_km2":29626,"cliopatria_wikidata":"Q1572529","cliopatria_wikipedia":"Hanthawaddy Kingdom"},
"geometry": {"type": "MultiPolygon", "coordinates": [
[
[
[96.9311,17.3219],
[97.0049,17.3219],
[97.0513,17.129],
[97.1988,17.129],
[97.1626,16.8719],
[97.2742,16.6147],
[97.4037,16.4861],
[97.6247,16.4861],
[97.5547,15.9718],
[97.6934,15.9076],
[97.716,15.5218],
[97.7896,15.5218],
[97.7812,15.4575],
[98.0838,15.5218],
[98.1914,15.779],
[98.4943,15.8433],
[98.9061,16.1647],
[98.9328,16.3576],
[98.6382,16.3576],
[98.6651,16.5504],
[98.6741,16.6147],
[98.6004,16.6147],
[98.6276,16.8076],
[97.9179,17.5148],
[97.9365,17.6433],
[97.7983,17.7076],
[97.8358,17.9648],
[97.762,17.9648],
[97.7714,18.0291],
[97.1619,17.9005],
[97.1985,17.6433],
[96.9679,17.579],
[96.9311,17.3219]
]
]
]}
}
