{
"type": "Feature",
"properties": {"id":"cliopatria-macedonian-empire-327bce","edge_precision":"unknown","cliopatria_name":"Macedonian Empire","cliopatria_from_year":-326,"cliopatria_to_year":-324,"cliopatria_area_km2":218195,"cliopatria_wikidata":"Q83958","cliopatria_wikipedia":"Macedonia (ancient kingdom)","cliopatria_seshat_id":"gr_macedonian_emp","cliopatria_member_of":"(Macedonian Empire)"},
"geometry": {"type": "MultiPolygon", "coordinates": [
[
[
[19.8063,40.6792],
[20.1895,40.4201],
[20.4269,40.4201],
[20.5686,40.0964],
[20.8056,40.0964],
[20.9434,39.7083],
[21.3926,39.2557],
[21.7107,39.3203],
[21.9292,38.9972],
[22.0864,38.9972],
[22.3403,39.3203],
[23.1312,39.385],
[22.6109,39.9023],
[22.7017,40.0964],
[22.5437,40.0964],
[22.5595,40.3554],
[22.6549,40.6144],
[22.8925,40.6144],
[22.8842,40.4849],
[23.2673,40.2906],
[23.7374,40.2259],
[23.8386,40.5496],
[23.6846,40.6144],
[23.698,40.8088],
[24.0106,40.744],
[24.3466,41.0032],
[25.8495,40.9384],
[26.0822,40.8736],
[26.1403,40.6144],
[26.6264,40.744],
[26.9214,40.4849],
[27.0172,40.6792],
[27.5275,41.068],
[29.0362,41.068],
[28.9759,41.2625],
[28.5053,41.3274],
[28.2792,41.4571],
[28.2183,41.6518],
[27.9794,41.6518],
[27.937,42.0413],
[27.4949,42.4312],
[27.5135,42.6262],
[27.8466,42.7563],
[27.853,42.8213],
[27.8049,43.1467],
[27.8982,43.2769],
[28.2264,43.3421],
[28.1592,43.4723],
[28.4811,43.4723],
[28.6163,43.9938],
[28.5356,43.9938],
[28.5769,44.3854],
[28.8407,44.5813],
[28.802,44.9734],
[27.7266,44.7773],
[27.7067,44.5813],
[27.8687,44.5813],
[27.8488,44.3854],
[27.9297,44.3854],
[27.7481,44.1896],
[26.3682,44.1243],
[25.5205,43.6678],
[24.8062,43.7982],
[23.9193,43.7982],
[23.9897,43.6678],
[23.4064,43.4072],
[23.3967,43.2769],
[23.0705,43.2118],
[23.1414,43.0816],
[22.9808,43.0816],
[22.5526,42.6912],
[22.3968,42.7563],
[22.3036,42.5612],
[21.815,42.4312],
[21.8068,42.3012],
[21.487,42.3012],
[21.559,42.1712],
[21.224,41.9114],
[21.0683,41.9764],
[21.0569,41.7816],
[20.8141,41.7167],
[20.6405,41.4571],
[19.9145,41.2625],
[19.8063,40.6792]
]
],
[
[
[22.6462,42.8864],
[22.7264,42.8864],
[22.7309,42.9515],
[22.6506,42.9515],
[22.6462,42.8864]
]
],
[
[
[22.7309,42.9515],
[22.8111,42.9515],
[22.8157,43.0165],
[22.7354,43.0165],
[22.7309,42.9515]
]
],
[
[
[22.8157,43.0165],
[22.8959,43.0165],
[22.9005,43.0816],
[22.8203,43.0816],
[22.8157,43.0165]
]
],
[
[
[70.3404,40.3554],
[70.4195,40.3554],
[70.4395,40.4201],
[70.3604,40.4201],
[70.3404,40.3554]
]
]
]}
}
