{
"type": "Feature",
"properties": {"id":"cliopatria-kingdom-of-pontus-0023","edge_precision":"unknown","cliopatria_name":"Kingdom of Pontus","cliopatria_from_year":23,"cliopatria_to_year":59,"cliopatria_area_km2":80647,"cliopatria_wikidata":"Q7380487","cliopatria_wikipedia":"Kingdom of Pontus"},
"geometry": {"type": "MultiPolygon", "coordinates": [
[
[
[34.5047,40.3554],
[34.5363,39.967],
[34.8284,39.7729],
[35.2937,39.7083],
[35.3566,39.5789],
[37.4756,39.5143],
[38.167,39.385],
[38.2282,39.2557],
[38.7525,39.0618],
[38.9274,39.1911],
[38.9542,39.385],
[38.7449,39.5789],
[38.9298,39.7729],
[38.7904,39.9023],
[40.1515,40.0317],
[40.2304,40.0317],
[40.4871,40.1612],
[40.5069,40.2906],
[40.7542,40.3554],
[40.7744,40.4849],
[40.5674,40.6792],
[41.2643,41.068],
[41.2276,41.3274],
[41.2383,41.3922],
[41.0473,41.1977],
[40.5393,41.0032],
[40.3909,41.068],
[40.3703,40.9384],
[39.7355,40.9384],
[39.0509,41.1328],
[38.7834,40.9384],
[38.2977,40.8736],
[38.1581,41.0032],
[37.8312,40.9384],
[37.7706,41.068],
[37.4437,41.0032],
[37.2147,41.068],
[37.2332,41.1977],
[36.9154,41.1977],
[36.8971,41.068],
[36.4733,40.8736],
[36.4118,41.0032],
[36.0855,40.9384],
[35.1845,41.3274],
[34.8495,41.1977],
[34.5779,40.9384],
[34.5614,40.8088],
[34.791,40.744],
[34.5047,40.3554]
]
]
]}
}
