{
"type": "Feature",
"properties": {"id":"cliopatria-tughlaq-dynasty-1385","edge_precision":"unknown","cliopatria_name":"Tughlaq Dynasty","cliopatria_from_year":1385,"cliopatria_to_year":1394,"cliopatria_area_km2":436266,"cliopatria_wikidata":"Q1124402","cliopatria_wikipedia":"Tughlaq dynasty","cliopatria_seshat_id":"in_delhi_sultanate","cliopatria_member_of":"(Delhi Sultanate)"},
"geometry": {"type": "MultiPolygon", "coordinates": [
[
[
[70.4177,29.0867],
[70.4932,29.0867],
[72.162,28.701],
[72.2901,28.5724],
[73.0105,28.3795],
[73.0633,28.251],
[73.5572,28.0581],
[73.6744,27.8652],
[73.8251,27.8652],
[73.9425,27.6724],
[74.0931,27.6724],
[74.2108,27.4795],
[74.3613,27.4795],
[74.4793,27.2866],
[74.6297,27.2866],
[74.7479,27.0938],
[74.8982,27.0938],
[75.0167,26.9009],
[75.167,26.9009],
[75.2211,26.7723],
[75.3713,26.7723],
[75.7698,26.4508],
[77.1206,26.4508],
[77.5171,26.5794],
[78.0426,26.5794],
[78.3005,26.7723],
[78.4397,26.708],
[78.5369,26.8366],
[79.2581,27.0938],
[79.4664,27.4152],
[79.8149,27.6724],
[79.9634,28.0581],
[79.7117,28.3153],
[79.4854,28.3153],
[78.9321,28.5724],
[78.882,28.701],
[78.5927,28.7652],
[78.5427,28.8938],
[78.1151,29.0224],
[77.6144,29.5366],
[77.463,29.5366],
[77.3381,29.6652],
[77.3647,29.7937],
[77.2266,29.858],
[77.6151,30.9506],
[77.9016,31.2076],
[78.2208,31.2719],
[78.4329,31.529],
[78.448,31.5933],
[78.0361,31.7861],
[77.3037,31.9146],
[77.0439,32.1074],
[76.5246,32.1717],
[76.4022,32.3002],
[75.3326,32.3002],
[75.2098,32.4288],
[74.3988,32.5574],
[74.2142,32.7502],
[73.6319,32.8788],
[73.5088,33.0073],
[73.5694,33.2645],
[73.4927,33.2645],
[73.4167,33.9075],
[73.3398,33.9075],
[73.3282,34.4863],
[73.02,34.4863],
[72.6646,34.2933],
[72.5408,34.1004],
[72.1408,34.0361],
[71.5288,33.3931],
[71.4845,33.2002],
[71.5938,33.0073],
[71.2297,32.7502],
[71.1728,32.4931],
[70.846,32.0431],
[70.4177,29.0867]
]
]
]}
}
