{
"type": "Feature",
"properties": {"id":"cliopatria-italian-africa-1895","edge_precision":"unknown","cliopatria_name":"Italian Africa","cliopatria_from_year":1895,"cliopatria_to_year":1899,"cliopatria_area_km2":592594,"cliopatria_wikidata":"Q926295","cliopatria_wikipedia":"Italian Empire"},
"geometry": {"type": "MultiPolygon", "coordinates": [
[
[
[36.4964,15.1361],
[36.6067,14.2361],
[36.9738,14.2361],
[37.202,14.4289],
[37.3489,14.4289],
[37.4171,14.3004],
[37.4144,14.2361],
[37.7082,14.2361],
[37.9529,14.8147],
[38.5241,14.4289],
[38.7445,14.4289],
[39.0467,14.6218],
[39.188,14.4932],
[40.287,14.4289],
[40.4252,14.2361],
[40.7161,14.1718],
[42.1219,12.7575],
[42.1192,12.6932],
[42.1925,12.6932],
[42.1898,12.6289],
[42.2631,12.6289],
[42.2604,12.5646],
[42.3337,12.5646],
[42.3283,12.436],
[42.7653,12.3717],
[42.996,12.6289],
[43.2187,12.6932],
[43.2215,12.7575],
[43.1538,12.886],
[42.8605,12.886],
[42.5841,13.2718],
[42.4374,13.2718],
[42.3784,13.5932],
[41.6648,14.0432],
[41.6706,14.1718],
[41.5267,14.2361],
[41.3243,14.6218],
[40.816,14.7504],
[40.6811,15.0075],
[40.3105,14.9432],
[39.9702,15.5218],
[39.8231,15.5218],
[39.8079,15.2004],
[39.7344,15.2004],
[39.7434,15.3933],
[39.5319,15.5861],
[39.4032,15.9718],
[39.4063,16.0361],
[38.7646,17.9648],
[38.6907,17.9648],
[38.5303,17.7076],
[37.7029,17.3862],
[37.5432,17.129],
[37.3896,17.0005],
[37.1685,17.0005],
[37.0121,16.8076],
[37.0622,16.2933],
[36.9091,16.1647],
[36.6517,15.329],
[36.4964,15.1361]
]
],
[
[
[39.9733,15.5861],
[40.338,15.5218],
[40.1361,15.9076],
[39.9889,15.9076],
[39.9733,15.5861]
]
],
[
[
[40.884,-0.8715],
[41.4734,-1.643],
[41.5462,-1.643],
[41.8336,-1.2572],
[41.8313,-1.0001],
[42.1213,-0.8715],
[42.1202,-0.7429],
[42.9149,0.0285],
[42.9028,0.1571],
[43.2724,0.4142],
[43.2754,0.5428],
[44.3897,1.5071],
[45.4958,2.0857],
[45.7207,2.3429],
[45.8663,2.3429],
[46.6856,3.05],
[46.6891,3.1786],
[47.0602,3.4358],
[47.0637,3.5643],
[47.8868,4.3358],
[48.1206,4.8501],
[48.6486,5.4287],
[48.7296,5.6858],
[48.8775,5.7501],
[49.2034,6.7787],
[49.8144,7.5502],
[49.8286,7.9359],
[50.2033,8.193],
[50.3719,8.7716],
[50.8311,9.2859],
[50.9481,10.3145],
[51.0212,10.3145],
[51.176,10.5074],
[51.1353,11.2146],
[51.3032,11.6646],
[51.2426,11.9217],
[50.5865,11.986],
[50.2751,11.6003],
[49.6863,11.536],
[49.3114,11.3431],
[49.2382,11.3431],
[49.4376,10.8931],
[49.4454,9.3502],
[49.0622,8.9002],
[48.6945,8.8359],
[48.2417,8.4502],
[48.2345,8.2573],
[47.8578,7.9359],
[47.8555,7.8716],
[46.2003,6.393],
[46.1962,6.2644],
[45.597,5.7501],
[45.5931,5.6215],
[45.3705,5.493],
[45.3667,5.3644],
[44.9909,4.9787],
[43.5316,4.9144],
[43.0873,4.6572],
[42.8634,4.4644],
[42.8599,4.3358],
[41.9822,4.2072],
[41.8314,4.0143],
[41.7586,4.0143],
[41.7535,3.8215],
[41.5317,3.6929],
[41.3001,3.1786],
[40.928,2.8572],
[40.884,-0.8715]
]
]
]}
}
