{
"type": "Feature",
"properties": {"id":"cliopatria-united-provinces-of-central-america-1824","edge_precision":"unknown","cliopatria_name":"United Provinces of Central America","cliopatria_from_year":1824,"cliopatria_to_year":1833,"cliopatria_area_km2":443683,"cliopatria_wikidata":"Q190025","cliopatria_wikipedia":"Federal Republic of Central America"},
"geometry": {"type": "MultiPolygon", "coordinates": [
[
[
[-93.3324,15.5861],
[-93.3232,15.5218],
[-92.7546,15.1361],
[-92.4741,14.6861],
[-91.3497,13.9146],
[-90.4689,13.9146],
[-89.9106,13.5289],
[-89.2431,13.4646],
[-88.8482,13.2075],
[-87.7412,13.1432],
[-87.7618,13.336],
[-87.4684,13.336],
[-87.2811,12.9503],
[-87.4411,13.0789],
[-87.6611,13.0789],
[-87.5482,12.6932],
[-86.924,12.3074],
[-86.5833,11.7931],
[-85.7171,11.086],
[-85.853,10.9574],
[-85.8376,10.7645],
[-85.6812,10.636],
[-85.8857,10.4431],
[-85.7793,9.9931],
[-85.4777,9.8645],
[-85.2406,9.6074],
[-84.9482,9.6074],
[-84.8288,9.9931],
[-84.5742,9.4788],
[-84.2819,9.4788],
[-84.1231,9.2859],
[-83.6725,9.0931],
[-83.5876,8.9002],
[-83.7259,8.7716],
[-83.7072,8.4502],
[-83.2618,8.3216],
[-83.2764,8.5788],
[-83.2034,8.5788],
[-83.1158,8.3216],
[-83.0428,8.3216],
[-82.8309,8.4502],
[-82.788,8.9645],
[-82.8892,9.4145],
[-82.6095,9.6074],
[-82.6137,9.6717],
[-83.2341,10.186],
[-83.5647,10.7003],
[-83.5847,10.9574],
[-83.8197,11.1503],
[-83.773,11.4717],
[-83.5697,11.6646],
[-83.5864,11.8574],
[-83.7386,11.9217],
[-83.6035,12.0503],
[-83.651,12.5646],
[-83.5105,12.6289],
[-83.3951,12.9503],
[-83.4677,13.6575],
[-83.0906,14.2361],
[-83.3048,14.8147],
[-83.092,14.8789],
[-83.1154,15.0718],
[-83.2703,15.1361],
[-83.2863,15.2647],
[-84.038,15.3933],
[-83.8255,15.4575],
[-83.9324,15.7147],
[-84.0965,15.8433],
[-84.5381,15.8433],
[-84.6289,15.9718],
[-85.3563,15.9076],
[-85.9627,16.0361],
[-86.0187,15.9076],
[-86.4428,15.779],
[-87.9324,15.9076],
[-87.9882,15.779],
[-88.209,15.779],
[-88.3004,15.9076],
[-89.11,15.9076],
[-89.1078,17.3862],
[-89.034,17.3862],
[-89.168,17.7719],
[-90.9396,17.7719],
[-90.9419,17.3219],
[-91.0693,17.1933],
[-91.2905,17.1933],
[-91.2705,17.0647],
[-90.6217,16.679],
[-90.3528,16.3576],
[-90.389,16.1004],
[-91.6312,16.0361],
[-91.8884,15.779],
[-92.0547,15.3933],
[-92.6612,15.5218],
[-92.6886,15.7147],
[-92.8544,15.8433],
[-93.3324,15.5861]
]
]
]}
}
