{
"type": "Feature",
"properties": {"id":"cliopatria-hamdanid-emirates-0936","edge_precision":"unknown","cliopatria_name":"Hamdanid Emirates","cliopatria_from_year":936,"cliopatria_to_year":946,"cliopatria_area_km2":211448,"cliopatria_wikidata":"Q837187","cliopatria_wikipedia":"Hamdanid dynasty"},
"geometry": {"type": "MultiPolygon", "coordinates": [
[
[
[39.45,38.416],
[39.5024,38.2224],
[39.5775,36.9971],
[39.7088,36.8037],
[39.6606,36.4172],
[39.7382,36.4172],
[39.6986,36.0952],
[39.7762,36.0952],
[39.7683,36.0308],
[40.1029,34.2933],
[40.8499,34.1004],
[40.9117,33.9718],
[41.2116,33.9075],
[41.2733,33.7789],
[41.7881,33.5859],
[42.2103,33.2645],
[42.448,33.3288],
[42.479,33.5859],
[42.7409,33.8432],
[42.8946,33.8432],
[43.6606,34.422],
[43.8146,34.422],
[43.9256,34.6793],
[44.1741,34.8079],
[44.4073,35.3871],
[44.8984,35.5802],
[44.9349,35.8377],
[45.1177,36.0308],
[45.3502,36.0308],
[45.369,36.1596],
[45.0964,36.4172],
[45.0567,36.6749],
[44.9108,36.7393],
[44.7738,37.3838],
[44.6276,37.4483],
[44.5207,37.7707],
[43.7886,37.5773],
[43.564,37.6417],
[42.8427,37.5128],
[42.6959,37.5773],
[42.7145,37.7062],
[43.0649,37.9643],
[43.0937,38.1578],
[42.6242,38.1578],
[42.6433,38.2869],
[42.4867,38.2869],
[42.2423,38.2224],
[42.1829,38.3515],
[42.0262,38.3515],
[41.9858,38.6097],
[41.8481,38.7389],
[40.6202,38.9326],
[39.6419,38.6743],
[39.45,38.416]
]
]
]}
}
