{
"type": "Feature",
"properties": {"id":"cliopatria-county-of-osona-1000","edge_precision":"unknown","cliopatria_name":"County of Osona","cliopatria_from_year":1000,"cliopatria_to_year":1002,"cliopatria_area_km2":2113,"cliopatria_wikidata":"Q1541779","cliopatria_wikipedia":"County of Osona"},
"geometry": {"type": "MultiPolygon", "coordinates": [
[
[
[1.4513,41.7167],
[1.6904,41.7167],
[1.6075,41.7816],
[1.5278,41.7816],
[1.4513,41.7167]
]
],
[
[
[1.6872,41.7816],
[1.767,41.7816],
[2.0828,41.8465],
[2.4786,41.9114],
[2.7067,42.1712],
[2.7866,42.1712],
[2.7838,42.2362],
[2.8637,42.2362],
[2.861,42.3012],
[2.5412,42.3012],
[2.1536,42.0413],
[2.0737,42.0413],
[1.6872,41.7816]
],
[
[2.1536,42.0413],
[2.1566,41.9764],
[2.13,41.9764],
[2.1536,42.0413]
]
],
[
[
[2.8582,42.3662],
[2.861,42.3012],
[2.9409,42.3012],
[2.9382,42.3662],
[2.8582,42.3662]
]
]
]}
}
