{
"type": "Feature",
"properties": {"id":"cliopatria-french-india-1820","edge_precision":"unknown","cliopatria_name":"French India","cliopatria_from_year":1820,"cliopatria_to_year":1839,"cliopatria_area_km2":7671,"cliopatria_wikidata":"Q646374","cliopatria_wikipedia":"French India"},
"geometry": {"type": "MultiPolygon", "coordinates": [
[
[
[43.0573,-11.6075],
[43.139,-11.8647],
[43.2122,-11.8647],
[43.3608,-11.929],
[43.3419,-11.3504],
[43.1223,-11.3504],
[43.1305,-11.6075],
[43.0573,-11.6075]
]
],
[
[
[43.5183,-12.2504],
[43.5228,-12.379],
[43.745,-12.4433],
[43.7381,-12.2504],
[43.5183,-12.2504]
]
],
[
[
[44.1754,-12.1861],
[44.3312,-12.4433],
[44.4778,-12.4433],
[44.4685,-12.1861],
[44.1754,-12.1861]
]
],
[
[
[44.9271,-12.7004],
[44.9394,-13.0219],
[45.0861,-13.0219],
[45.1494,-12.7647],
[44.9271,-12.7004]
]
],
[
[
[55.0771,-20.9935],
[55.0963,-21.2507],
[55.408,-21.4435],
[55.6308,-21.4435],
[55.7695,-21.3149],
[55.5918,-20.9292],
[55.5869,-20.8649],
[55.2159,-20.8649],
[55.0771,-20.9935]
]
],
[
[
[75.5254,11.4717],
[75.5986,11.4717],
[75.6032,11.536],
[75.6765,11.536],
[75.6811,11.6003],
[75.5347,11.6003],
[75.5254,11.4717]
]
],
[
[
[79.7228,11.7931],
[79.8693,11.7931],
[79.8794,11.9217],
[79.8061,11.9217],
[79.7228,11.7931]
]
],
[
[
[79.7286,10.8931],
[79.8749,10.8931],
[79.8843,11.0217],
[79.8111,11.0217],
[79.7286,10.8931]
]
],
[
[
[82.2581,16.7433],
[82.4055,16.7433],
[82.4205,16.8719],
[82.3468,16.8719],
[82.2581,16.7433]
]
],
[
[
[88.3421,22.5934],
[88.491,22.5934],
[88.5187,22.7863],
[88.4442,22.7863],
[88.3421,22.5934]
]
]
]}
}
