{
"type": "Feature",
"properties": {"id":"cliopatria-burgundian-kingdom-0459","edge_precision":"unknown","cliopatria_name":"Burgundian Kingdom","cliopatria_from_year":459,"cliopatria_to_year":461,"cliopatria_area_km2":79867,"cliopatria_wikidata":"Q13590051","cliopatria_wikipedia":"Kingdom of the Burgundians","cliopatria_seshat_id":"fr_burgundian_k"},
"geometry": {"type": "MultiPolygon", "coordinates": [
[
[
[2.9453,47.4665],
[3.0343,47.3348],
[2.9651,47.0716],
[3.2275,46.7429],
[3.0761,46.4802],
[3.6554,46.3489],
[4.0757,46.0865],
[4.1574,46.0865],
[4.1601,46.0209],
[4.2418,46.0209],
[4.2444,45.9554],
[4.4026,46.0865],
[4.6479,46.0865],
[4.8185,45.8898],
[5.973,45.4968],
[7.0303,45.5623],
[7.7588,45.8243],
[8.0808,46.0865],
[8.0786,46.2177],
[8.4028,46.4145],
[8.4009,46.5459],
[8.645,46.6772],
[8.7235,46.9401],
[8.3948,46.9401],
[8.3938,47.0058],
[8.3116,47.0058],
[8.0615,47.2032],
[7.484,47.269],
[7.3148,47.4665],
[7.0659,47.5323],
[7.0595,47.7959],
[6.8082,47.9278],
[6.1447,47.9938],
[5.4966,47.5982],
[5.249,47.5982],
[5.1617,47.73],
[3.923,47.73],
[2.9453,47.4665]
]
]
]}
}
