{
"type": "Feature",
"properties": {"id":"cliopatria-western-chu-207bce","edge_precision":"unknown","cliopatria_name":"Western Chu","cliopatria_from_year":-206,"cliopatria_to_year":-204,"cliopatria_area_km2":217084,"cliopatria_wikidata":"Q1151705","cliopatria_wikipedia":"Chu-Han Contention","cliopatria_member_of":"(Eighteen Kingdoms)"},
"geometry": {"type": "MultiPolygon", "coordinates": [
[
[
[114.0251,33.7789],
[114.1019,33.7789],
[114.1021,33.5859],
[114.6906,33.5217],
[114.7932,33.3931],
[115.1513,33.3288],
[115.3053,33.1359],
[115.2837,32.6859],
[115.4367,32.6859],
[115.4615,32.7502],
[115.691,32.7502],
[115.9697,33.0716],
[116.4294,33.0716],
[116.5318,32.943],
[116.4814,32.8145],
[118.8032,32.4931],
[118.5766,32.1074],
[118.9088,31.9789],
[119.064,31.7861],
[118.9187,31.4005],
[119.3236,31.4647],
[119.4278,31.3362],
[119.2331,31.0148],
[119.1696,30.6292],
[118.7836,30.1794],
[118.8908,30.0508],
[120.2424,29.7937],
[120.4039,29.6009],
[121.5713,29.4723],
[121.5932,29.5366],
[121.7446,29.5366],
[121.9625,29.7294],
[121.9766,29.9865],
[121.6202,30.0508],
[121.4841,30.3079],
[121.1047,30.3079],
[120.8088,30.1151],
[120.6798,30.1794],
[121.0453,30.565],
[121.1972,30.565],
[121.5192,30.822],
[121.8993,30.822],
[121.9953,31.0791],
[121.7366,31.4005],
[121.5843,31.4005],
[121.6335,31.529],
[121.4811,31.529],
[121.4544,31.6575],
[120.8942,31.7861],
[121.3005,31.8503],
[121.8356,31.6575],
[121.9368,31.7218],
[121.9613,31.9789],
[121.5033,32.1717],
[121.4026,32.4931],
[120.9192,32.6216],
[120.9263,33.2002],
[120.5505,33.5859],
[120.4894,34.1647],
[120.3418,34.3577],
[119.7323,34.5506],
[119.7113,34.6793],
[119.4309,34.7436],
[119.459,34.8079],
[119.2276,34.8079],
[119.4748,35.194],
[119.5034,35.2584],
[119.2716,35.2584],
[118.5826,34.7436],
[118.4284,34.7436],
[118.435,34.9366],
[118.2807,34.9366],
[118.1199,34.7436],
[117.1174,34.7436],
[116.9192,35.001],
[116.6324,34.8723],
[116.1969,34.9366],
[115.9764,35.3227],
[115.3362,35.4514],
[115.3084,35.3871],
[115.1538,35.3871],
[115.1262,35.3227],
[115.0489,35.3227],
[114.4218,34.9366],
[114.3145,34.6793],
[114.5429,34.4863],
[114.4112,34.1647],
[114.1024,33.9718],
[114.0251,33.7789]
]
],
[
[
[121.9766,29.9865],
[122.2798,29.9865],
[122.2726,30.1794],
[122.045,30.1794],
[121.9766,29.9865]
]
]
]}
}
