{
"type": "Feature",
"properties": {"id":"cliopatria-indus-valley-civilization-2301bce","edge_precision":"unknown","cliopatria_name":"Indus Valley Civilization","cliopatria_from_year":-2300,"cliopatria_to_year":-2001,"cliopatria_area_km2":755121,"cliopatria_wikidata":"Q42534","cliopatria_wikipedia":"Indus Valley Civilisation","cliopatria_seshat_id":"pk_kachi_urban_1"},
"geometry": {"type": "MultiPolygon", "coordinates": [
[
[
[62.0251,25.1007],
[62.4739,25.1007],
[62.5634,25.2293],
[63.5362,25.2293],
[63.6262,25.3579],
[64.225,25.3579],
[64.2845,25.2293],
[64.8006,25.165],
[64.8161,25.2936],
[66.0215,25.3579],
[66.3451,25.5507],
[66.6791,25.2293],
[66.632,24.8435],
[67.2147,24.7149],
[67.2514,24.3935],
[67.3261,24.3935],
[67.2891,24.072],
[67.4384,24.072],
[67.4911,23.8792],
[67.6331,23.8149],
[68.1554,23.8149],
[68.1265,23.5577],
[68.3502,23.5577],
[68.3359,23.4291],
[68.5525,23.3649],
[68.8083,22.9791],
[69.4506,22.722],
[70.3653,22.9148],
[70.2625,22.6577],
[69.8695,22.4648],
[69.4974,22.4648],
[69.4093,22.3363],
[68.9765,22.4648],
[68.9495,22.2077],
[69.3487,21.7577],
[69.4974,21.7577],
[69.9032,21.372],
[69.8899,21.2434],
[70.2955,20.8577],
[70.7206,20.6648],
[71.0915,20.6648],
[72.1037,21.1148],
[72.2797,21.372],
[72.3214,21.7577],
[72.1728,21.7577],
[72.1125,21.8863],
[72.3425,21.9505],
[72.378,22.272],
[72.7427,22.2077],
[72.6899,22.4005],
[72.8679,22.6577],
[72.8758,23.3649],
[72.1017,23.7506],
[71.9759,23.9435],
[71.4103,24.2006],
[71.3516,24.3292],
[71.2022,24.3292],
[71.0851,24.5864],
[70.7862,24.5864],
[70.7277,24.7149],
[70.5783,24.7149],
[70.5199,24.8435],
[69.5395,25.3579],
[69.3723,26.3222],
[69.2973,26.3222],
[69.4206,27.158],
[69.7368,27.7367],
[70.2411,28.0581],
[70.6072,27.9938],
[70.8548,28.1224],
[71.7813,28.251],
[72.0719,28.1867],
[72.6333,28.3795],
[74.1771,28.5724],
[75.7621,28.5724],
[75.7863,28.701],
[76.2393,28.701],
[76.8177,28.9581],
[76.9463,29.6009],
[76.772,29.858],
[76.7987,29.9865],
[76.3708,30.1151],
[76.4737,30.2436],
[76.1838,30.3079],
[76.211,30.4364],
[76.0107,30.565],
[76.0384,30.6935],
[75.8382,30.822],
[75.8662,30.9506],
[75.5089,31.4005],
[75.7163,31.9789],
[75.5021,32.0431],
[75.5319,32.1717],
[76.0965,32.6216],
[76.1429,32.8145],
[76.0663,32.8145],
[76.1741,32.943],
[76.0365,33.0073],
[75.8724,33.5859],
[75.7349,33.6502],
[75.6581,33.6502],
[75.5366,33.7789],
[74.6306,33.8432],
[74.3549,33.9718],
[73.3555,33.9718],
[73.3869,34.1004],
[73.31,34.1004],
[72.6791,34.0361],
[72.5712,33.9075],
[72.1716,33.8432],
[71.8956,33.6502],
[71.7571,33.7146],
[71.727,33.5859],
[71.3134,33.4574],
[70.9334,33.1359],
[70.7848,32.8145],
[70.3598,32.6216],
[70.4083,32.4931],
[69.7639,31.9789],
[69.6113,31.9789],
[69.5713,31.7861],
[69.3161,31.6575],
[69.251,31.3362],
[69.0731,31.2076],
[68.9339,30.8863],
[67.9728,30.6292],
[67.8727,30.5007],
[67.1135,30.5007],
[66.5542,29.9223],
[66.0565,28.7652],
[65.6985,27.4152],
[65.7737,27.4152],
[65.7972,26.5151],
[65.8723,26.5151],
[65.8462,26.3222],
[66.0202,25.9365],
[65.6956,25.7436],
[65.0881,25.6793],
[64.2801,25.8079],
[62.3013,25.5507],
[62.1366,25.4221],
[62.0251,25.1007]
]
],
[
[
[70.2199,27.9295],
[70.2953,27.9295],
[70.3058,27.9938],
[70.2305,27.9938],
[70.2199,27.9295]
]
],
[
[
[76.5224,30.1151],
[76.5982,30.1151],
[76.6118,30.1794],
[76.5359,30.1794],
[76.5224,30.1151]
]
]
]}
}
