{
"type": "Feature",
"properties": {"id":"cliopatria-republic-of-peru-1853","edge_precision":"unknown","cliopatria_name":"Republic of Peru","cliopatria_from_year":1853,"cliopatria_to_year":1879,"cliopatria_area_km2":1365337,"cliopatria_wikidata":"Q419","cliopatria_wikipedia":"Peru"},
"geometry": {"type": "MultiPolygon", "coordinates": [
[
[
[-81.4747,-4.4073],
[-81.4186,-4.8573],
[-81.2753,-4.9216],
[-81.2909,-5.3074],
[-81.0132,-5.6288],
[-81.0218,-5.8217],
[-81.3164,-5.8859],
[-81.3284,-6.1431],
[-80.7544,-6.336],
[-79.9815,-6.9145],
[-79.8529,-7.236],
[-79.7105,-7.3003],
[-79.5901,-7.7503],
[-78.9762,-8.4575],
[-78.8637,-8.9718],
[-78.3425,-9.8718],
[-78.3568,-10.0646],
[-77.7744,-11.029],
[-77.8014,-11.3504],
[-77.3166,-11.6718],
[-77.2836,-12.1218],
[-76.941,-12.379],
[-76.892,-12.6361],
[-76.7516,-12.7004],
[-76.6427,-13.0862],
[-76.3817,-13.4076],
[-76.3485,-13.7933],
[-76.4219,-13.7933],
[-76.4636,-14.179],
[-76.1912,-14.3719],
[-76.0806,-14.6933],
[-75.4716,-15.1434],
[-75.2239,-15.5291],
[-74.7982,-15.6577],
[-74.7405,-15.7862],
[-74.3148,-15.9148],
[-73.9871,-16.2363],
[-73.2095,-16.4934],
[-73.0132,-16.6863],
[-72.4402,-16.8148],
[-72.0479,-17.2006],
[-71.6221,-17.3292],
[-71.639,-17.4577],
[-71.4999,-17.522],
[-71.3297,-17.9077],
[-70.9777,-18.0363],
[-70.5863,-18.422],
[-70.4386,-18.422],
[-70.5085,-18.9363],
[-70.4345,-18.9363],
[-70.3752,-19.5792],
[-70.3011,-19.5792],
[-70.3369,-19.8364],
[-70.2628,-19.8364],
[-70.371,-20.6078],
[-70.2968,-20.6078],
[-70.2958,-21.1221],
[-70.2216,-21.1221],
[-70.2217,-21.6364],
[-70.2311,-21.7007],
[-70.0081,-21.7007],
[-69.3674,-21.3792],
[-69.1281,-20.7364],
[-69.0301,-20.0292],
[-68.5895,-19.5149],
[-68.7028,-19.2578],
[-68.9727,-19.0649],
[-69.2392,-18.2935],
[-69.2138,-18.1006],
[-69.4185,-17.972],
[-69.647,-17.4577],
[-69.6142,-17.2006],
[-69.092,-16.5577],
[-69.0842,-16.4934],
[-69.1193,-16.172],
[-69.4215,-16.2363],
[-69.5611,-16.172],
[-69.4722,-16.0434],
[-69.6854,-15.9791],
[-69.7439,-15.8505],
[-70.1119,-15.8505],
[-70.0894,-15.6577],
[-69.9422,-15.6577],
[-69.979,-15.3362],
[-69.6849,-15.3362],
[-69.4934,-15.5934],
[-69.4198,-15.5934],
[-69.2958,-15.1434],
[-69.4287,-15.0148],
[-69.401,-14.7576],
[-68.9803,-14.2433],
[-68.961,-14.0505],
[-69.0951,-13.9219],
[-68.9931,-12.829],
[-68.8408,-12.7647],
[-68.7452,-12.5076],
[-68.8863,-12.4433],
[-69.1942,-11.7361],
[-69.3355,-11.6718],
[-69.3203,-11.479],
[-69.4617,-11.4147],
[-69.5739,-10.9647],
[-70.1593,-10.9647],
[-70.3154,-11.0932],
[-70.6715,-10.9647],
[-70.6414,-9.4861],
[-70.7876,-9.4861],
[-71.256,-9.9361],
[-71.5573,-10.0646],
[-72.1422,-10.0646],
[-72.2663,-9.7432],
[-72.5415,-9.4861],
[-73.1949,-9.4218],
[-73.0928,-8.9718],
[-73.373,-8.7789],
[-73.4958,-8.3932],
[-73.8422,-8.0717],
[-73.8278,-7.8146],
[-74.0397,-7.686],
[-74.0293,-7.4931],
[-73.8037,-7.3646],
[-73.7809,-6.9145],
[-73.252,-6.5288],
[-73.2211,-5.8217],
[-72.9895,-5.5002],
[-72.9796,-5.2431],
[-72.0075,-4.5359],
[-71.3497,-4.4716],
[-70.9046,-4.2145],
[-70.3946,-4.2145],
[-70.1799,-4.343],
[-69.9519,-4.0216],
[-69.8556,-3.1216],
[-69.7828,-3.1216],
[-69.8512,-2.9287],
[-70.2125,-2.8001],
[-70.3528,-2.543],
[-70.7871,-2.4144],
[-70.8574,-2.2858],
[-71.2214,-2.2858],
[-71.4423,-2.4144],
[-71.6571,-2.2216],
[-71.8755,-2.2216],
[-72.3914,-2.543],
[-73.1169,-2.4144],
[-73.1824,-2.0287],
[-73.5419,-1.7715],
[-73.6097,-1.4501],
[-74.3316,-1.0001],
[-74.6166,-0.4215],
[-74.9056,-0.1643],
[-75.7056,-0.1001],
[-75.7066,-0.2286],
[-75.4172,-0.4215],
[-75.3498,-0.9358],
[-75.4961,-1.0001],
[-75.9476,-1.9644],
[-76.6144,-2.543],
[-77.6412,-2.8644],
[-78.1591,-3.1859],
[-78.1625,-3.3144],
[-78.3845,-3.443],
[-78.6144,-3.8287],
[-78.7061,-4.4073],
[-79.1645,-4.9859],
[-79.4535,-4.9216],
[-79.5873,-4.6002],
[-80.0881,-4.343],
[-80.5298,-4.4716],
[-80.5144,-4.0216],
[-80.2169,-3.8287],
[-80.28,-3.5073],
[-80.4219,-3.3787],
[-80.4948,-3.3787],
[-80.9413,-3.7002],
[-80.9453,-3.8287],
[-81.1679,-3.9573],
[-81.4747,-4.4073]
]
]
]}
}
