{
"type": "Feature",
"properties": {"id":"cliopatria-abbasid-caliphate-0866","edge_precision":"unknown","cliopatria_name":"Abbasid Caliphate","cliopatria_from_year":866,"cliopatria_to_year":869,"cliopatria_area_km2":7434725,"cliopatria_wikidata":"Q12536","cliopatria_wikipedia":"Abbasid Caliphate","cliopatria_seshat_id":"iq_abbasid_cal_1"},
"geometry": {"type": "MultiPolygon", "coordinates": [
[
[
[18.7145,29.1509],
[19.7747,29.2152],
[21.2318,29.858],
[22.4512,30.0508],
[23.7375,29.9865],
[24.7792,29.5366],
[24.8467,29.3438],
[25.0008,29.4081],
[25.1465,29.2795],
[25.3735,29.2795],
[25.5863,28.9581],
[27.1401,28.251],
[27.285,28.1224],
[27.2763,27.9295],
[27.4299,27.9938],
[27.792,27.6724],
[27.7109,27.5438],
[27.9367,27.5438],
[28.1537,27.3509],
[28.2702,26.5794],
[28.3453,26.5794],
[28.2437,25.9365],
[28.2886,25.165],
[28.5688,24.6506],
[29.6728,24.2006],
[29.9595,23.8792],
[30.1087,23.8792],
[30.104,23.7506],
[30.3952,23.5577],
[30.4627,23.3649],
[30.5372,23.3649],
[31.6705,23.7506],
[32.0409,23.6863],
[33.389,23.8149],
[33.6818,23.6863],
[33.7564,23.6863],
[35.108,23.8792],
[35.5526,23.8149],
[35.5588,23.9435],
[35.8541,23.8792],
[35.8604,24.0077],
[35.1455,24.6506],
[34.6076,25.8079],
[34.4613,25.8722],
[34.1972,26.5151],
[34.0507,26.5794],
[34.0731,26.9652],
[33.9266,27.0295],
[33.7992,27.4152],
[33.5851,27.6081],
[33.6089,27.9938],
[33.1053,28.3795],
[32.8361,28.8938],
[32.6892,28.9581],
[32.6387,29.3438],
[32.4287,29.6009],
[32.5261,29.9223],
[32.8571,29.2152],
[33.2139,28.8938],
[33.1889,28.5081],
[33.403,28.3153],
[33.5538,28.3153],
[33.617,28.1224],
[34.12,27.7367],
[34.3459,27.7367],
[34.3583,27.9295],
[34.5173,28.0581],
[34.7523,29.2795],
[34.9129,29.4081],
[34.8535,28.5724],
[34.6054,28.251],
[34.5927,28.0581],
[35.0492,28.1224],
[35.4087,27.8652],
[35.4669,27.6081],
[35.6132,27.5438],
[35.6717,27.2866],
[36.1649,26.7723],
[36.4291,26.1937],
[36.7173,26.0008],
[36.773,25.6793],
[37.2707,25.2293],
[37.3308,24.9721],
[37.1776,24.9078],
[37.1705,24.7792],
[37.3876,24.6506],
[37.4448,24.3292],
[38.0318,24.1363],
[38.6011,23.622],
[38.8688,23.0434],
[38.8589,22.8506],
[39.1402,22.5291],
[39.0271,21.7577],
[39.1693,21.6291],
[39.147,21.1791],
[39.3506,20.7934],
[39.8439,20.2791],
[40.1404,20.2791],
[40.5616,19.8291],
[40.851,19.7005],
[40.8408,19.5077],
[40.9854,19.4434],
[41.0421,19.1219],
[41.2501,18.8648],
[41.2361,18.6076],
[41.4508,18.4791],
[41.5775,18.0933],
[42.1362,17.5148],
[42.21,17.5148],
[42.6635,17.7076],
[42.977,18.0291],
[43.5051,18.2219],
[43.8934,18.5434],
[44.0923,18.1576],
[44.081,17.9648],
[44.3536,17.579],
[44.3385,17.3219],
[44.5485,17.129],
[44.6697,16.679],
[45.2257,16.1004],
[45.2147,15.9076],
[46.0206,15.8433],
[46.1753,15.9718],
[46.3961,15.9718],
[46.3811,15.7147],
[46.1494,15.5218],
[46.5062,15.329],
[47.5284,15.2004],
[47.5945,15.0718],
[48.0283,14.9432],
[49.1233,14.8147],
[49.4098,14.6861],
[49.4832,14.6861],
[50.45,14.8789],
[50.7557,15.0718],
[51.2743,15.1361],
[51.883,15.4575],
[52.1037,15.4575],
[52.2592,15.5861],
[52.3803,16.2933],
[53.1348,16.5504],
[53.2175,16.679],
[53.586,16.679],
[54.1989,17.0005],
[55.1574,17.0005],
[55.3145,17.129],
[55.3487,17.579],
[55.5899,17.8362],
[56.407,17.9005],
[56.6438,18.0933],
[56.7536,18.5434],
[56.9961,18.8005],
[57.82,18.9291],
[57.9204,19.2505],
[57.7936,19.5077],
[57.9308,20.2791],
[58.1002,20.5362],
[58.2485,20.5362],
[58.3068,20.3434],
[58.6086,20.4077],
[58.7997,20.922],
[59.437,21.4363],
[59.864,22.0791],
[59.9039,22.5291],
[59.5432,22.6577],
[59.2684,22.9148],
[59.2801,23.0434],
[59.0682,23.172],
[59.08,23.3006],
[58.8115,23.622],
[57.4927,23.8792],
[56.7881,24.3292],
[56.5449,24.9078],
[56.4016,24.9721],
[56.4957,25.165],
[56.4208,25.165],
[56.4603,25.5507],
[56.3854,25.5507],
[56.5433,26.3222],
[56.4754,26.3865],
[56.1682,26.3222],
[55.9696,25.8722],
[55.4119,25.5507],
[55.1427,25.1007],
[54.7442,24.8435],
[54.5591,24.4578],
[54.3178,24.2649],
[54.0995,24.3292],
[54.0825,24.1363],
[53.112,24.1363],
[52.6003,24.2649],
[52.2801,24.0077],
[51.907,24.0077],
[51.8535,24.2649],
[51.4108,24.3292],
[51.5236,24.7792],
[51.69,24.9721],
[51.7188,25.2936],
[51.575,25.3579],
[51.6979,25.8722],
[51.4228,26.1294],
[51.1229,26.1294],
[50.9545,25.9365],
[50.9246,25.615],
[50.769,25.5507],
[50.7289,25.1007],
[50.6541,25.1007],
[50.6076,25.4221],
[50.3255,25.615],
[50.211,26.0008],
[50.067,26.0651],
[50.223,26.1294],
[50.2537,26.4508],
[50.116,26.5794],
[50.135,26.7723],
[49.3596,27.2866],
[49.2419,27.6081],
[48.8722,27.6724],
[48.9741,27.9295],
[48.5627,28.3153],
[48.4604,28.7652],
[48.1937,29.0867],
[48.2154,29.2795],
[48.0786,29.4081],
[47.8517,29.4081],
[47.8662,29.5366],
[48.4035,29.6009],
[48.3654,29.9223],
[48.9873,30.0508],
[48.9428,30.3079],
[49.5859,29.9865],
[50.0648,30.1794],
[50.2363,29.7294],
[50.6513,29.4081],
[50.6203,29.1509],
[50.915,29.0867],
[50.809,28.8295],
[51.0281,28.7652],
[51.0662,28.4438],
[51.3313,28.1224],
[51.3168,27.9938],
[51.5967,27.8009],
[52.0486,27.8009],
[52.4787,27.6081],
[52.737,27.2223],
[53.4606,26.9652],
[53.6581,26.708],
[54.2589,26.708],
[54.4632,26.5151],
[54.8316,26.4508],
[55.2423,26.7723],
[55.5427,26.7723],
[55.3102,26.708],
[55.2889,26.5151],
[55.439,26.5151],
[55.6034,26.6437],
[56.0612,26.708],
[56.3086,26.9009],
[56.3236,27.0295],
[56.0981,27.0295],
[56.1884,27.158],
[56.7147,27.158],
[57.0524,26.8366],
[57.1757,25.9365],
[57.3795,25.7436],
[57.6792,25.7436],
[57.7402,25.615],
[57.958,25.5507],
[58.7817,25.5507],
[59.0602,25.3579],
[60.6321,25.3579],
[60.6178,25.2293],
[60.9171,25.2293],
[61.1274,25.1007],
[61.6582,25.165],
[61.7187,25.0364],
[62.0179,25.0364],
[62.182,25.165],
[62.4739,25.1007],
[62.5634,25.2293],
[63.5362,25.2293],
[63.6262,25.3579],
[64.225,25.3579],
[64.2845,25.2293],
[64.8006,25.165],
[64.8161,25.2936],
[66.0215,25.3579],
[66.3451,25.5507],
[66.6791,25.2293],
[66.6616,24.8435],
[66.6714,25.0274],
[67.0343,25.5535],
[67.1566,26.0993],
[67.168,27.448],
[67.502,28.366],
[67.522,29.123],
[67.643,29.277],
[68.1316,29.3902],
[68.693,29.191],
[69.638,29.361],
[70.003,29.812],
[70.217,29.9223],
[68.432,30.2436],
[67.154,30.3079],
[67.1658,30.3722],
[66.3425,30.4364],
[65.6297,30.6935],
[64.589,30.822],
[64.4072,31.0791],
[64.4306,31.2076],
[63.2968,30.822],
[61.7986,30.9506],
[61.7446,31.0791],
[61.5274,31.1434],
[61.6059,31.5933],
[61.846,31.6575],
[61.9038,31.9789],
[62.1154,32.3002],
[64.305,33.3288],
[64.3574,33.5859],
[64.7448,33.9718],
[65.9326,34.4863],
[66.37,35.0653],
[66.7173,35.902],
[66.9026,36.0308],
[67.0726,36.4172],
[67.8031,36.546],
[68.4863,36.4816],
[68.5961,36.6105],
[69.001,36.6749],
[70.2448,36.6749],
[71.4791,36.9326],
[71.4963,36.9971],
[71.5931,37.6417],
[71.515,37.6417],
[71.7922,38.3515],
[72.5106,38.9326],
[73.0009,39.2557],
[73.1583,39.2557],
[73.1979,39.385],
[73.3553,39.385],
[73.4155,39.5789],
[73.5731,39.5789],
[73.8,40.2906],
[73.5257,40.4201],
[73.4889,40.5496],
[73.3305,40.5496],
[73.2938,40.6792],
[72.9768,40.6792],
[72.998,40.744],
[71.761,41.3274],
[71.6448,41.4571],
[71.6879,41.5869],
[71.3761,41.8465],
[71.4196,41.9764],
[71.2458,42.1712],
[70.4178,42.5612],
[70.1132,43.0816],
[69.5369,43.2769],
[69.5812,43.4072],
[69.4204,43.4072],
[68.1096,42.1063],
[66.891,41.2625],
[66.6525,41.2625],
[66.693,41.1328],
[66.2793,40.8088],
[65.6867,40.6792],
[65.3884,40.744],
[65.3511,40.6144],
[64.8392,40.4849],
[62.5018,40.0317],
[62.4742,40.2259],
[62.3333,40.2906],
[62.4027,40.5496],
[62.2969,40.744],
[62.5266,41.0032],
[62.3857,41.068],
[62.4578,41.3274],
[62.3169,41.3922],
[62.3533,41.522],
[62.151,41.6518],
[62.1877,41.7816],
[61.9423,42.0413],
[61.7827,42.0413],
[61.5556,42.3662],
[61.3957,42.3662],
[61.1683,42.6912],
[61.0081,42.6912],
[60.3919,43.3421],
[60.3677,43.5375],
[59.1235,43.4072],
[58.6329,43.6678],
[58.4175,43.4723],
[58.3371,43.4723],
[58.0515,43.0165],
[57.957,42.3662],
[57.5644,41.7816],
[57.4649,41.3922],
[56.8274,40.744],
[54.3851,40.8088],
[54.3701,40.744],
[53.4044,40.6792],
[53.4482,40.8736],
[53.3397,40.744],
[52.9433,40.744],
[52.9723,40.8736],
[52.893,40.8736],
[52.6994,40.3554],
[52.7785,40.3554],
[52.7877,40.0317],
[53.4985,40.0317],
[53.5449,39.5143],
[53.1375,39.4496],
[53.5176,39.385],
[53.9868,38.9972],
[53.8298,37.8352],
[53.9079,37.8352],
[53.9105,37.4483],
[54.0947,37.1904],
[54.0333,36.8682],
[53.9555,36.8682],
[53.9192,36.6749],
[53.9969,36.6749],
[54.0805,36.2884],
[54.2238,36.224],
[54.0098,35.902],
[52.8136,35.7089],
[52.5264,35.8377],
[52.338,35.6445],
[52.0284,35.6445],
[51.973,35.7733],
[51.3753,35.902],
[50.8098,36.224],
[50.0125,36.0952],
[49.1699,36.1596],
[49.164,37.0615],
[49.4641,37.4483],
[49.386,37.4483],
[49.0851,37.5128],
[48.8843,37.7062],
[48.8411,38.3515],
[48.7627,38.3515],
[48.801,38.9972],
[48.9155,39.1911],
[49.1635,39.2557],
[49.1757,39.3203],
[49.0305,39.385],
[49.0008,39.6436],
[48.7766,39.7083],
[48.7225,39.8376],
[48.0913,39.8376],
[47.8973,39.6436],
[47.4125,39.5789],
[47.3143,39.9023],
[46.9986,39.9023],
[46.7974,40.0964],
[46.9368,40.4201],
[46.8698,40.4849],
[46.2798,40.2906],
[45.8171,40.3554],
[46.0591,40.8088],
[46.3215,40.9384],
[46.7976,40.9384],
[47.236,40.744],
[47.7243,40.8088],
[47.842,41.0032],
[47.7218,41.1977],
[47.2706,41.3274],
[46.7367,41.8465],
[46.3508,41.9114],
[46.2967,42.0413],
[45.7506,42.1063],
[45.6673,42.4962],
[45.2253,42.6912],
[44.7446,42.6912],
[44.3565,42.7563],
[43.8511,42.6262],
[43.6597,42.8864],
[43.4191,42.8864],
[42.9861,43.1467],
[42.5041,43.1467],
[42.6052,42.8213],
[42.7536,42.7563],
[42.7181,42.5612],
[42.9346,42.4312],
[42.6244,41.5869],
[42.8633,41.5869],
[43.1926,41.1977],
[43.567,41.068],
[43.1475,40.9384],
[43.1031,40.6792],
[42.6168,40.6144],
[41.8305,40.1612],
[40.586,40.2906],
[40.5269,40.4201],
[40.3686,40.4201],
[40.3887,40.5496],
[39.5891,39.967],
[38.8418,39.7083],
[38.2989,39.7729],
[38.159,39.9023],
[38.15,39.8376],
[37.6775,39.2557],
[37.4331,39.1911],
[37.3129,38.868],
[37.0692,38.8034],
[37.1315,38.6743],
[36.7938,38.4806],
[36.6058,38.2224],
[36.457,38.2869],
[36.1543,37.7062],
[35.82,37.5128],
[35.3518,37.5128],
[35.0327,37.4483],
[34.778,37.2549],
[34.6594,36.8682],
[34.8929,36.8682],
[34.9504,36.6749],
[35.1127,36.7393],
[35.3323,36.6105],
[35.4877,36.6105],
[35.8336,36.9326],
[36.1449,36.9326],
[36.2862,36.8037],
[36.2649,36.6105],
[35.8417,36.2884],
[35.9901,36.224],
[35.8449,35.5802],
[35.9929,35.5158],
[35.8825,35.194],
[35.9597,35.194],
[35.927,34.8723],
[36.0682,34.7436],
[36.0488,34.5506],
[35.7921,34.2933],
[35.6445,34.3577],
[35.6838,33.9718],
[35.53,33.9718],
[35.5239,33.9075],
[35.4409,33.8432],
[35.4993,33.6502],
[35.3458,33.6502],
[35.3277,33.4574],
[35.4044,33.4574],
[35.3038,33.2002],
[35.0563,33.0073],
[35.0218,32.6216],
[34.7698,32.3645],
[34.813,31.9789],
[34.5733,31.8503],
[34.6334,31.6575],
[34.3076,31.4005],
[34.2972,31.2719],
[33.7493,31.0791],
[32.8317,31.0148],
[32.7652,31.1434],
[32.5322,31.0791],
[32.2372,31.2076],
[32.3039,31.0791],
[31.9996,31.0791],
[31.9374,31.2719],
[31.7806,31.2076],
[31.8752,31.4647],
[31.2658,31.4647],
[31.118,31.529],
[31.2033,31.6575],
[30.9746,31.6575],
[30.9656,31.529],
[30.8088,31.4647],
[30.3517,31.4647],
[30.2712,31.4005],
[30.3388,31.2719],
[29.882,31.2719],
[29.8018,31.2076],
[29.8696,31.0791],
[29.6332,30.9506],
[29.4851,31.0148],
[29.3971,30.822],
[28.865,30.822],
[28.4964,31.0148],
[27.5149,31.1434],
[27.2975,31.3362],
[26.8477,31.4647],
[25.248,31.4647],
[25.102,31.5933],
[25.1117,31.7861],
[24.8925,31.9789],
[24.1294,31.9789],
[23.6803,32.1717],
[23.2985,32.1717],
[23.0779,32.3645],
[23.0894,32.6216],
[21.8787,32.943],
[21.4117,32.7502],
[21.108,32.8145],
[20.8712,32.6216],
[20.6441,32.6859],
[20.7159,32.5574],
[20.563,32.5574],
[20.482,32.4288],
[20.3313,32.4931],
[20.2461,32.236],
[20.017,32.236],
[20.0891,32.1074],
[19.9961,31.5933],
[20.2143,31.2719],
[20.1341,31.1434],
[20.2021,30.8863],
[19.9682,30.6935],
[19.9643,30.565],
[19.655,30.3722],
[19.272,30.2436],
[18.9703,30.3079],
[18.8944,30.3079],
[18.8056,29.7937],
[18.7298,29.7937],
[18.7236,29.5366],
[18.8703,29.3438],
[18.7145,29.1509]
],
[
[35.5239,33.9075],
[35.6007,33.9075],
[35.5946,33.8432],
[35.5177,33.8432],
[35.5239,33.9075]
],
[
[34.8407,32.3002],
[34.8463,32.3645],
[34.9227,32.3645],
[34.9171,32.3002],
[34.8407,32.3002]
],
[
[47.3418,38.2869],
[47.3528,38.3515],
[47.4311,38.3515],
[47.4201,38.2869],
[47.3418,38.2869]
],
[
[47.3981,38.1578],
[47.409,38.2224],
[47.4873,38.2224],
[47.4763,38.1578],
[47.3981,38.1578]
],
[
[53.5278,31.5933],
[53.5374,31.6575],
[53.6136,31.6575],
[53.604,31.5933],
[53.5278,31.5933]
],
[
[53.6516,31.4005],
[53.6611,31.4647],
[53.7373,31.4647],
[53.7278,31.4005],
[53.6516,31.4005]
]
],
[
[
[36.9746,38.6743],
[37.053,38.6743],
[37.0611,38.7389],
[36.9826,38.7389],
[36.9746,38.6743]
]
],
[
[
[48.0923,41.8465],
[48.172,41.8465],
[48.1186,41.5869],
[48.2778,41.5869],
[48.4774,41.7816],
[48.345,41.9114],
[48.2652,41.9114],
[48.2787,41.9764],
[48.1989,41.9764],
[48.0923,41.8465]
]
],
[
[
[50.4299,25.9365],
[50.6487,25.8722],
[50.6852,26.258],
[50.4602,26.258],
[50.4299,25.9365]
]
],
[
[
[58.6668,20.2148],
[58.815,20.2148],
[58.9794,20.4077],
[59.0008,20.6648],
[58.773,20.6005],
[58.7676,20.5362],
[58.6668,20.2148]
]
]
]}
}
