{
"type": "Feature",
"properties": {"id":"cliopatria-janapada-of-pancala-451bce","edge_precision":"unknown","cliopatria_name":"Janapada of Pañcāla","cliopatria_from_year":-450,"cliopatria_to_year":-405,"cliopatria_area_km2":4959,"cliopatria_wikidata":"Q558603","cliopatria_wikipedia":"Pañcāla","cliopatria_seshat_id":"in_mahajanapada","cliopatria_member_of":"(Mahajanapadas)"},
"geometry": {"type": "MultiPolygon", "coordinates": [
[
[
[78.5947,27.9938],
[78.7454,27.9938],
[78.7213,27.8652],
[78.8719,27.8652],
[78.848,27.7367],
[79.1492,27.7367],
[79.1732,27.8652],
[79.4989,27.9938],
[79.5483,28.251],
[79.2716,28.3795],
[79.2968,28.5081],
[78.995,28.5081],
[78.7942,28.251],
[78.7188,28.251],
[78.5947,27.9938]
]
]
]}
}
