{
"type": "Feature",
"properties": {"id":"cliopatria-chola-empire-1216","edge_precision":"unknown","cliopatria_name":"Chola Empire","cliopatria_from_year":1216,"cliopatria_to_year":1235,"cliopatria_area_km2":94935,"cliopatria_wikidata":"Q6806806","cliopatria_wikipedia":"Chola Empire","cliopatria_seshat_id":"in_chola_emp"},
"geometry": {"type": "MultiPolygon", "coordinates": [
[
[
[77.3232,11.0217],
[78.1235,10.9574],
[78.1785,10.7003],
[78.3935,10.636],
[78.522,10.3788],
[79.0208,10.186],
[79.3133,10.186],
[79.3952,10.3145],
[79.9026,10.2502],
[79.8844,11.986],
[80.303,12.6289],
[80.4316,13.2718],
[80.3078,13.5289],
[80.161,13.5289],
[80.2816,14.0432],
[80.2082,14.0432],
[80.2158,14.8789],
[80.1641,14.8789],
[80.1641,14.2807],
[79.823,14.3091],
[79.4251,14.7924],
[78.9419,14.7355],
[78.7779,15.2002],
[78.6049,14.1718],
[78.6783,14.1718],
[78.6316,13.6575],
[78.705,13.6575],
[78.6493,13.0146],
[77.7216,11.4717],
[77.4973,11.4074],
[77.3369,11.2146],
[77.3232,11.0217]
]
]
]}
}
