{
"type": "Feature",
"properties": {"id":"cliopatria-laomedon-324bce","edge_precision":"unknown","cliopatria_name":"Laomedon","cliopatria_from_year":-323,"cliopatria_to_year":-319,"cliopatria_area_km2":122343,"cliopatria_wikidata":"Q977461","cliopatria_wikipedia":"Laomedon of Mytilene","cliopatria_seshat_id":"gr_macedonian_emp","cliopatria_member_of":"(Macedonian Empire)"},
"geometry": {"type": "MultiPolygon", "coordinates": [
[
[
[34.2972,31.2719],
[34.434,31.0791],
[34.5405,30.5007],
[34.6164,30.5007],
[35.3522,31.1434],
[35.499,31.0791],
[35.662,31.2076],
[36.4231,31.2076],
[36.3866,31.6575],
[36.6623,32.1717],
[36.5155,32.236],
[36.7507,32.3002],
[36.7168,32.7502],
[36.901,33.0716],
[37.0542,33.0716],
[37.0732,33.2645],
[37.5726,33.6502],
[37.7261,33.6502],
[37.7395,33.7789],
[37.9902,33.9718],
[39.1238,34.4863],
[39.2008,34.4863],
[39.1675,34.8723],
[38.9507,35.001],
[38.8735,35.001],
[38.8183,35.194],
[38.5165,35.2584],
[38.4611,35.4514],
[38.3137,35.5158],
[37.897,36.6105],
[37.7969,36.4172],
[37.4789,36.3528],
[37.4643,36.224],
[35.9194,36.2884],
[35.9125,36.224],
[35.9901,36.224],
[35.8449,35.5802],
[35.9929,35.5158],
[35.8825,35.194],
[35.9597,35.194],
[35.927,34.8723],
[36.0682,34.7436],
[36.0488,34.5506],
[35.7921,34.2933],
[35.6445,34.3577],
[35.6838,33.9718],
[35.447,33.9075],
[35.4993,33.6502],
[35.3458,33.6502],
[35.3984,33.3931],
[35.2154,33.0716],
[35.0563,33.0073],
[35.0218,32.6216],
[34.7698,32.3645],
[34.813,31.9789],
[34.5733,31.8503],
[34.6334,31.6575],
[34.3024,31.3362],
[34.2972,31.2719]
]
],
[
[
[39.1936,34.422],
[39.2706,34.422],
[39.2779,34.4863],
[39.2008,34.4863],
[39.1936,34.422]
]
]
]}
}
