{
"type": "Feature",
"properties": {"id":"cliopatria-teutonic-order-1463","edge_precision":"unknown","cliopatria_name":"Teutonic Order","cliopatria_from_year":1463,"cliopatria_to_year":1467,"cliopatria_area_km2":42659,"cliopatria_wikidata":"Q48189","cliopatria_wikipedia":"Teutonic Order"},
"geometry": {"type": "MultiPolygon", "coordinates": [
[
[
[18.7029,53.3946],
[19.2141,53.3271],
[19.3099,53.4621],
[19.7402,53.4621],
[19.7299,53.3271],
[19.9721,53.1248],
[20.3958,53.0574],
[20.67,53.2596],
[20.9277,53.2596],
[21.2894,53.4621],
[21.8057,53.4621],
[22.521,53.7323],
[22.4822,54.2061],
[22.6623,54.2739],
[22.7045,54.6811],
[22.813,54.8851],
[22.573,55.0892],
[22.3986,55.0892],
[22.4127,55.2255],
[21.6401,55.3618],
[21.2352,55.7031],
[21.2482,55.8398],
[20.9913,55.9082],
[20.9659,55.6348],
[21.203,55.3618],
[20.9907,54.9531],
[20.7293,54.9531],
[20.6542,55.0892],
[19.9509,55.0211],
[19.8361,54.6811],
[20.0044,54.6132],
[19.8306,54.6132],
[19.8197,54.4774],
[19.5594,54.4774],
[19.4622,54.3417],
[19.3755,54.3417],
[19.2535,53.8676],
[18.98,53.6647],
[18.8076,53.6647],
[18.7029,53.3946]
]
]
]}
}
