{
"type": "Feature",
"properties": {"id":"cliopatria-ethiopian-empire-1898","edge_precision":"unknown","cliopatria_name":"Ethiopian Empire","cliopatria_from_year":1898,"cliopatria_to_year":1899,"cliopatria_area_km2":720270,"cliopatria_wikidata":"Q207521","cliopatria_wikipedia":"Ethiopian Empire"},
"geometry": {"type": "MultiPolygon", "coordinates": [
[
[
[34.6365,10.186],
[34.6926,9.6074],
[34.8406,9.6717],
[35.1255,9.4145],
[35.9966,9.2216],
[35.9123,8.8359],
[36.0565,8.7716],
[36.2025,8.7716],
[36.212,9.0931],
[36.3562,9.0288],
[36.385,7.4859],
[36.3102,7.4216],
[36.4473,7.1002],
[36.4334,6.5858],
[36.2061,6.2644],
[35.3212,5.8787],
[35.3163,5.6858],
[35.4588,5.5572],
[36.2623,5.6215],
[36.9084,5.2358],
[37.1271,5.2358],
[37.1967,5.1072],
[38.7221,4.9144],
[39.0831,4.7858],
[39.439,4.4644],
[39.9474,4.4001],
[40.82,4.3358],
[41.3351,4.5286],
[41.6335,4.7858],
[41.6387,4.9787],
[42.0211,5.6215],
[42.1688,5.6858],
[43.2424,7.4216],
[43.2507,7.6787],
[43.564,8.3216],
[43.5683,8.4502],
[43.3558,8.6431],
[43.2098,8.6431],
[42.8556,8.9645],
[42.6566,9.5431],
[42.5127,9.6074],
[42.5242,9.9288],
[41.6561,10.186],
[41.5214,10.5074],
[41.5308,10.7645],
[41.4576,10.7645],
[41.5379,10.9574],
[41.3916,10.9574],
[41.3256,11.1503],
[41.2769,11.7931],
[42.0486,12.7575],
[42.1219,12.7575],
[40.7161,14.1718],
[40.4252,14.2361],
[40.287,14.4289],
[39.188,14.4932],
[39.0467,14.6218],
[38.7445,14.4289],
[38.5241,14.4289],
[37.9529,14.8147],
[37.7082,14.2361],
[37.341,14.2361],
[37.2572,13.9789],
[36.5817,13.5932],
[36.1888,12.886],
[36.2484,12.5003],
[36.0973,12.3717],
[36.0863,12.0503],
[35.8687,12.1146],
[35.7136,11.8574],
[35.4938,11.8574],
[35.5628,11.7289],
[35.4122,11.6003],
[35.2513,11.1503],
[35.2372,10.7003],
[34.6365,10.186]
]
],
[
[
[40.6726,4.2715],
[40.7454,4.2715],
[40.7471,4.3358],
[40.6743,4.3358],
[40.6726,4.2715]
]
]
]}
}
