{
"type": "Feature",
"properties": {"id":"cliopatria-mexican-monarchists-1864","edge_precision":"unknown","cliopatria_name":"Mexican Monarchists","cliopatria_from_year":1864,"cliopatria_to_year":1864,"cliopatria_area_km2":232146,"cliopatria_wikidata":"Q15984928","cliopatria_wikipedia":"Conservative Party (Mexico)"},
"geometry": {"type": "MultiPolygon", "coordinates": [
[
[
[-105.0378,24.2649],
[-104.6896,22.4005],
[-104.4256,22.2077],
[-104.3986,22.0791],
[-104.5339,22.0148],
[-104.3276,21.372],
[-104.089,20.922],
[-103.9406,20.922],
[-103.691,20.4077],
[-103.0357,20.0862],
[-102.3442,19.9577],
[-101.0228,20.022],
[-100.4799,19.8934],
[-100.0615,19.6362],
[-99.8394,19.6362],
[-99.7296,19.4434],
[-98.9812,18.9934],
[-98.4451,18.4791],
[-98.212,18.4148],
[-97.7687,18.4148],
[-97.6722,18.2862],
[-96.4163,18.2862],
[-94.9888,17.7076],
[-94.3245,17.7076],
[-94.1982,17.8362],
[-93.8291,17.8362],
[-93.355,18.0933],
[-92.701,18.1576],
[-92.2159,18.3505],
[-91.8885,18.1576],
[-91.1604,18.2219],
[-91.055,18.4791],
[-90.9178,18.5434],
[-90.9606,18.8005],
[-90.6231,18.9934],
[-90.3834,19.7648],
[-90.1721,19.8291],
[-90.0568,20.022],
[-90.1639,20.2148],
[-90.4714,20.2791],
[-90.4273,20.022],
[-90.7427,19.7005],
[-90.8143,19.2505],
[-91.3519,18.9291],
[-91.298,18.6076],
[-91.4459,18.6076],
[-91.4984,18.4791],
[-91.794,18.4791],
[-91.8371,18.7362],
[-92.5024,18.7362],
[-92.6177,18.5434],
[-93.4937,18.4791],
[-94.0413,18.2219],
[-94.4845,18.2219],
[-94.7722,18.6076],
[-95.7668,18.8005],
[-96.2506,19.4434],
[-96.5147,20.0862],
[-97.0775,20.7291],
[-97.371,21.5005],
[-97.5442,21.6291],
[-97.6318,22.0791],
[-98.1523,22.0791],
[-98.0893,21.7577],
[-97.7548,21.5648],
[-97.5948,21.1148],
[-97.5466,20.8577],
[-97.6208,20.8577],
[-97.5729,20.6005],
[-97.6736,20.3434],
[-97.6027,19.9577],
[-97.739,19.8934],
[-97.7038,19.7005],
[-97.8401,19.6362],
[-97.9414,19.3791],
[-98.1634,19.3791],
[-98.5066,19.6362],
[-98.865,19.5719],
[-98.8886,19.7005],
[-99.6631,20.2791],
[-100.0448,20.7291],
[-100.5888,20.8577],
[-101.0347,21.2434],
[-101.654,21.372],
[-101.8181,21.822],
[-102.229,22.0148],
[-102.4844,22.5291],
[-103.5141,23.4934],
[-103.8565,24.0077],
[-104.621,24.3935],
[-105.0378,24.2649]
]
],
[
[
[-100.509,17.1933],
[-100.4871,17.0647],
[-100.4133,17.0647],
[-100.4024,17.0005],
[-100.255,17.0005],
[-99.3801,16.6147],
[-99.3064,16.6147],
[-99.4548,17.0647],
[-99.7087,17.2576],
[-100.3098,17.3219],
[-100.509,17.1933]
]
]
]}
}
