{
"type": "Feature",
"properties": {"id":"cliopatria-zululand-1820","edge_precision":"unknown","cliopatria_name":"Zululand","cliopatria_from_year":1820,"cliopatria_to_year":1839,"cliopatria_area_km2":25596,"cliopatria_wikidata":"Q13558877","cliopatria_wikipedia":"Zululand"},
"geometry": {"type": "MultiPolygon", "coordinates": [
[
[
[30.1235,-28.0011],
[30.1378,-28.2582],
[30.3033,-28.5154],
[30.6959,-28.7725],
[31.1529,-28.8368],
[31.3917,-29.0296],
[31.3999,-29.1582],
[31.6899,-28.9654],
[31.9166,-28.9654],
[31.9083,-28.8368],
[32.1349,-28.8368],
[32.2021,-28.7082],
[32.198,-28.6439],
[32.3449,-28.5797],
[32.4595,-28.0011],
[32.3127,-28.0654],
[31.6909,-27.7439],
[31.8122,-27.2296],
[31.3645,-27.2939],
[31.4468,-27.4225],
[31.2999,-27.4868],
[31.2355,-27.6796],
[30.1235,-28.0011]
]
]
]}
}
