{
"type": "Feature",
"properties": {"id":"cliopatria-sokoto-caliphate-1809","edge_precision":"unknown","cliopatria_name":"Sokoto Caliphate","cliopatria_from_year":1809,"cliopatria_to_year":1819,"cliopatria_area_km2":614789,"cliopatria_wikidata":"Q600524","cliopatria_wikipedia":"Sokoto Caliphate"},
"geometry": {"type": "MultiPolygon", "coordinates": [
[
[
[3.6365,11.7931],
[3.8563,11.8574],
[4.1488,11.6003],
[4.2953,11.6003],
[4.295,11.4717],
[4.5142,11.2788],
[4.5863,10.8931],
[4.7327,10.8931],
[4.7318,10.636],
[4.5848,10.4431],
[4.725,9.0931],
[5.0172,9.0931],
[5.5261,8.7073],
[6.1834,8.7073],
[6.4746,8.5788],
[6.5522,9.2216],
[6.6253,9.2216],
[6.5531,9.3502],
[6.7001,9.4788],
[6.7764,9.9931],
[7.2885,10.0574],
[7.5048,9.6074],
[7.5034,9.4145],
[7.3573,9.4145],
[7.2809,8.9645],
[7.2805,8.9002],
[7.2074,8.9002],
[7.0589,8.5788],
[7.0584,8.5145],
[6.9853,8.5145],
[6.7616,7.9359],
[7.564,7.8716],
[8.5098,7.5502],
[8.8017,7.5502],
[9.2422,7.8073],
[9.6065,7.743],
[9.7538,7.8716],
[10.6304,7.9359],
[11.1435,8.1288],
[11.6538,8.0645],
[12.1663,8.193],
[12.2378,8.0645],
[12.4591,8.2573],
[12.7512,8.2573],
[13.4115,8.5145],
[14.2869,8.4502],
[14.2844,8.2573],
[14.4287,8.1288],
[15.3831,8.5145],
[15.4597,8.7716],
[15.6058,8.7716],
[15.5363,9.0288],
[15.7573,9.1574],
[15.8348,9.4788],
[16.0567,9.6717],
[16.2751,9.6074],
[16.4231,9.7359],
[16.5007,10.0574],
[16.5017,10.1217],
[15.0368,9.9288],
[14.9654,10.0574],
[14.2374,10.3145],
[13.8068,11.0217],
[13.8895,11.8574],
[13.8163,11.8574],
[13.8241,12.5646],
[13.5364,13.0789],
[13.2456,13.336],
[12.8061,13.4003],
[12.5837,13.1432],
[12.1431,13.0789],
[11.8514,13.2718],
[10.7521,13.4003],
[10.6787,13.4003],
[10.091,13.2718],
[9.6482,12.8217],
[8.9154,12.886],
[8.6965,13.0789],
[8.1101,13.1432],
[8.1104,13.2075],
[7.8903,13.2075],
[7.8175,13.336],
[7.5972,13.2718],
[7.3042,13.4003],
[6.8641,13.4003],
[6.3512,13.7218],
[5.9109,13.7861],
[5.3968,13.336],
[4.7367,13.336],
[4.3699,13.2075],
[4.1498,13.336],
[4.0766,12.9503],
[3.6368,12.436],
[3.6365,11.7931]
]
],
[
[
[4.8642,8.0002],
[4.9372,8.0002],
[4.9377,8.0645],
[4.8647,8.0645],
[4.8642,8.0002]
]
],
[
[
[4.9368,7.9359],
[5.0098,7.9359],
[5.0102,8.0002],
[4.9372,8.0002],
[4.9368,7.9359]
]
]
]}
}
