{
"type": "Feature",
"properties": {"id":"cliopatria-former-qin-0378","edge_precision":"unknown","cliopatria_name":"Former Qin","cliopatria_from_year":378,"cliopatria_to_year":382,"cliopatria_area_km2":1798333,"cliopatria_wikidata":"Q1471995","cliopatria_wikipedia":"Former Qin"},
"geometry": {"type": "MultiPolygon", "coordinates": [
[
[
[93.0905,39.9023],
[93.2734,39.7729],
[93.2981,39.4496],
[93.5079,39.385],
[93.8759,39.5143],
[94.5849,39.5143],
[95.0556,39.3203],
[95.3185,39.385],
[95.3955,39.1911],
[95.5528,39.1911],
[95.6302,38.9972],
[95.8915,38.868],
[95.97,38.868],
[96.3618,38.6743],
[96.7021,38.7389],
[96.7325,39.1911],
[96.6538,39.1911],
[96.7629,39.4496],
[97.2078,39.385],
[97.9088,38.9972],
[98.2231,38.9972],
[98.3841,39.1911],
[98.9068,39.1265],
[99.1984,39.2557],
[99.8104,38.4806],
[100.2264,38.3515],
[100.4138,38.6097],
[100.8745,38.0288],
[101.2387,37.9643],
[101.2634,37.8352],
[101.5492,37.7707],
[101.7037,37.5773],
[102.0961,37.7707],
[102.094,37.5773],
[102.2485,37.3838],
[102.534,37.3193],
[102.6889,37.126],
[102.7151,37.1904],
[103.2078,37.0615],
[103.3627,36.8682],
[103.3107,36.7393],
[103.4402,36.6749],
[103.3886,36.546],
[103.5182,36.4816],
[103.467,36.3528],
[103.6488,36.224],
[103.63,35.5802],
[103.7353,35.4514],
[103.4496,34.4863],
[103.5267,34.4863],
[103.3554,34.229],
[103.4928,33.9718],
[103.21,33.3931],
[102.5516,33.2645],
[101.8832,32.8788],
[101.6869,32.7502],
[101.4404,32.236],
[100.9792,31.0148],
[101.0553,31.0148],
[100.9393,30.6292],
[101.0153,30.6292],
[100.9019,30.2436],
[100.9778,30.2436],
[100.8854,29.9223],
[100.9612,29.9223],
[100.8886,29.6652],
[100.9643,29.6652],
[100.8753,29.3438],
[100.9509,29.3438],
[100.8811,29.0867],
[100.9566,29.0867],
[100.905,28.8938],
[101.0051,28.701],
[100.9882,28.6367],
[101.9866,28.701],
[102.5225,28.4438],
[102.4889,28.3153],
[102.623,28.251],
[102.5997,27.8652],
[102.8094,27.8009],
[102.8525,27.6724],
[103.5463,27.7367],
[103.8713,28.1224],
[103.8978,28.5081],
[104.2924,28.5724],
[104.3047,28.8938],
[104.6824,28.8938],
[105.5287,29.2152],
[107.9071,30.565],
[108.823,31.7218],
[108.9569,32.1074],
[109.5755,32.5574],
[109.8814,32.5574],
[109.9115,32.4288],
[110.1709,32.3002],
[111.2405,32.3002],
[111.6166,32.4931],
[113.4441,32.8788],
[113.8244,33.0716],
[113.9528,33.0073],
[114.0791,33.1359],
[115.1018,33.0073],
[116.5827,33.2645],
[117.3494,33.2645],
[118.6078,33.7146],
[120.4341,34.0361],
[120.4617,34.1004],
[120.3418,34.3577],
[119.7323,34.5506],
[119.7113,34.6793],
[119.4309,34.7436],
[119.459,34.8079],
[119.2276,34.8079],
[119.6187,35.5158],
[119.9865,35.6445],
[120.3185,36.0308],
[120.6585,36.0952],
[120.7318,36.4172],
[120.9648,36.4172],
[120.9789,36.6105],
[121.2121,36.6105],
[121.9121,36.9326],
[122.1456,36.9326],
[122.1605,36.8037],
[122.5031,36.8682],
[122.5664,36.9971],
[122.4424,37.0615],
[122.7129,37.4483],
[122.1211,37.5128],
[122.1535,37.5773],
[121.4969,37.5128],
[121.4833,37.6417],
[121.171,37.6417],
[121.112,37.8352],
[120.7538,37.8998],
[120.1881,37.7062],
[120.2022,37.5773],
[119.8266,37.4483],
[119.7011,37.1904],
[119.1557,37.1904],
[119.14,37.3193],
[118.984,37.3193],
[119.2366,37.8352],
[119.3928,37.8352],
[119.4571,37.9643],
[118.7718,38.1578],
[118.8042,38.2224],
[118.6476,38.2224],
[118.583,38.0933],
[118.0674,38.1578],
[118.0536,38.2869],
[117.7727,38.3515],
[117.7592,38.4806],
[117.6025,38.4806],
[117.6549,38.7389],
[117.5764,38.7389],
[117.776,39.1265],
[118.0457,39.1911],
[118.0569,39.0618],
[118.4498,39.0618],
[118.9894,39.1911],
[119.2153,39.3203],
[119.3804,39.7729],
[120.5003,40.2259],
[120.6473,40.4849],
[120.9967,40.6792],
[121.1098,40.8736],
[121.8237,40.8736],
[121.827,40.744],
[122.1061,40.6792],
[122.2306,40.4849],
[121.7765,39.967],
[121.5033,39.9023],
[121.4383,39.6436],
[121.2807,39.6436],
[121.2096,39.5143],
[121.2965,39.385],
[121.6901,39.385],
[121.5151,39.0618],
[121.2007,39.0618],
[121.0293,38.7389],
[121.4217,38.7389],
[121.7162,38.9972],
[121.9519,38.9972],
[122.1704,39.2557],
[122.936,39.6436],
[123.5974,39.8376],
[124.2286,39.8376],
[124.2657,39.9023],
[124.57,40.2906],
[124.8836,40.4201],
[125.0769,40.744],
[124.9965,40.8736],
[125.0752,41.0032],
[124.4392,41.2625],
[124.4789,41.3274],
[124.2404,41.3274],
[124.2802,41.3922],
[124.0018,41.4571],
[124.0417,41.522],
[123.8029,41.522],
[123.8429,41.5869],
[123.5643,41.6518],
[123.6044,41.7167],
[123.3654,41.7167],
[123.4055,41.7816],
[123.1268,41.8465],
[123.167,41.9114],
[123.0872,41.9114],
[121.0213,41.2625],
[118.9509,41.3922],
[118.3903,41.522],
[118.4283,41.5869],
[117.8709,41.5869],
[117.746,41.7816],
[117.861,41.9764],
[117.7399,42.0413],
[117.7761,42.2362],
[117.4564,42.2362],
[117.2994,42.1063],
[114.576,41.3922],
[113.0033,40.5496],
[110.1773,40.2906],
[109.4462,40.0964],
[106.9498,39.8376],
[104.3767,39.9023],
[100.8949,39.7083],
[100.9241,39.7729],
[100.559,39.8376],
[100.5388,39.967],
[100.0945,40.0317],
[100.124,40.0964],
[99.3837,40.0317],
[99.2842,40.1612],
[99.0471,40.1612],
[98.9478,40.2906],
[98.2449,40.4849],
[98.2249,40.6144],
[98.0369,40.5496],
[97.6305,40.8736],
[96.8966,41.0032],
[96.9264,41.068],
[95.2297,41.0032],
[93.9247,40.744],
[93.8455,40.744],
[93.5745,40.4849],
[93.3649,40.5496],
[93.2781,40.1612],
[93.199,40.1612],
[93.0905,39.9023]
]
]
]}
}
