{
"type": "Feature",
"properties": {"id":"cliopatria-first-french-empire-1812","edge_precision":"unknown","cliopatria_name":"First French Empire","cliopatria_from_year":1812,"cliopatria_to_year":1813,"cliopatria_area_km2":1064628,"cliopatria_wikidata":"Q71084","cliopatria_wikipedia":"First French Empire","cliopatria_seshat_id":"fr_bourbon_k_2","cliopatria_member_of":"(First French Empire)"},
"geometry": {"type": "MultiPolygon", "coordinates": [
[
[
[-16.6028,15.6504],
[-16.3842,15.7147],
[-16.3863,15.779],
[-16.2392,15.779],
[-16.1699,15.9076],
[-16.25,16.1004],
[-16.4731,16.1647],
[-16.6028,15.6504]
]
],
[
[
[-5.7083,43.3421],
[-5.5115,42.9515],
[-4.4354,42.5612],
[-2.6501,42.2362],
[-2.1479,41.9114],
[-1.9884,41.9114],
[-1.4632,41.1977],
[-1.3551,40.744],
[-1.1093,40.6144],
[-0.8448,40.1612],
[-0.4387,39.967],
[-0.3454,39.7083],
[-0.2666,39.7083],
[-0.2019,39.967],
[0.1825,40.1612],
[0.2478,40.4201],
[0.7093,40.6792],
[0.6958,40.9384],
[1.2384,41.1977],
[2.1066,41.3274],
[2.3336,41.5869],
[2.5725,41.5869],
[3.1168,41.9114],
[3.1781,42.3662],
[3.0099,42.5612],
[2.9849,43.1467],
[3.6171,43.4072],
[3.6924,43.5375],
[4.173,43.6027],
[4.1778,43.4723],
[5.0631,43.4723],
[5.3869,43.4072],
[5.3908,43.2769],
[5.6319,43.2769],
[5.7962,43.1467],
[6.2782,43.1467],
[6.5176,43.2118],
[6.6726,43.4723],
[6.9931,43.5375],
[7.1502,43.733],
[8.0339,43.9286],
[8.1916,44.1896],
[8.5925,44.4507],
[9.1591,44.4507],
[9.5654,44.1896],
[9.8889,44.1243],
[9.9697,44.1243],
[9.6455,44.3201],
[9.6447,44.4507],
[10.0491,44.516],
[10.0487,44.6466],
[10.2915,44.7773],
[10.291,44.9734],
[9.9654,45.1696],
[8.6648,45.1696],
[8.5784,45.5623],
[8.4145,45.6278],
[8.4126,45.7588],
[8.1647,45.9554],
[8.0013,45.9554],
[8.0002,46.0209],
[8.0786,46.2177],
[8.4028,46.4145],
[8.3989,46.6772],
[8.3168,46.6772],
[8.155,46.5459],
[7.7451,46.5459],
[7.1773,46.2833],
[7.0136,46.2833],
[6.9286,46.4145],
[6.2734,46.4145],
[6.0335,46.2177],
[6.1038,46.6115],
[6.4246,46.8743],
[7.0801,46.9401],
[6.9125,47.0716],
[6.9834,47.5323],
[7.3973,47.4665],
[7.5594,47.5982],
[7.551,47.9938],
[7.6338,47.9938],
[7.7058,48.522],
[8.115,48.8527],
[8.353,49.5816],
[8.3519,49.6479],
[8.2683,49.6479],
[8.2661,49.7807],
[8.1824,49.7807],
[8.1813,49.8471],
[7.7625,49.8471],
[7.3361,50.1795],
[7.3286,50.5122],
[7.0777,50.4457],
[7.0712,50.7121],
[6.8992,50.8455],
[6.8923,51.1124],
[6.7197,51.246],
[6.7124,51.5134],
[7.7232,51.8481],
[7.8081,51.8481],
[7.8069,51.9151],
[7.9769,51.9151],
[8.7375,52.3176],
[8.7391,52.1833],
[8.5704,52.0492],
[8.825,52.1163],
[8.9123,51.9151],
[9.5922,51.9822],
[9.6766,52.1163],
[9.5911,52.1833],
[9.8467,52.1833],
[9.7607,52.3847],
[9.8459,52.4519],
[10.6994,52.3847],
[10.6145,52.5191],
[10.8708,52.5191],
[10.8721,52.7881],
[10.7865,52.7881],
[10.7874,52.99],
[11.2161,52.99],
[11.3882,53.0574],
[11.3895,53.1922],
[11.2178,53.1922],
[11.2183,53.2596],
[11.1324,53.2596],
[10.6173,53.3946],
[10.79,53.5296],
[10.7907,53.6647],
[10.7054,53.8676],
[10.7917,53.8676],
[10.7925,54.0029],
[10.5331,54.0029],
[10.3597,53.6647],
[10.0148,53.7323],
[9.9288,53.5971],
[9.5842,53.5971],
[9.2375,53.8676],
[8.8058,53.8676],
[8.4595,53.9352],
[8.377,53.6647],
[8.2046,53.6647],
[8.1206,53.5296],
[7.9484,53.5296],
[8.0322,53.6647],
[7.9448,53.7323],
[7.0823,53.7323],
[6.9133,53.5971],
[6.9168,53.4621],
[6.2262,53.5296],
[5.5423,53.3946],
[5.2089,53.1248],
[5.3857,52.99],
[5.3908,52.8554],
[5.1366,52.7881],
[5.0564,52.6535],
[4.8797,52.7881],
[4.8713,52.99],
[4.7855,52.99],
[4.7827,53.0574],
[4.8684,53.0574],
[4.8628,53.1922],
[4.6081,53.1248],
[4.6141,52.99],
[4.6998,52.99],
[4.4547,52.7208],
[4.4638,52.5191],
[4.2169,52.3176],
[4.2232,52.1833],
[3.974,52.0492],
[3.9805,51.9151],
[3.8104,51.9151],
[3.817,51.7811],
[3.6471,51.7811],
[3.7387,51.6472],
[3.3993,51.6472],
[3.4062,51.5134],
[3.5791,51.4465],
[3.1555,51.4465],
[2.5778,51.1792],
[1.6562,51.0457],
[1.4247,50.7121],
[1.455,50.246],
[1.0528,49.98],
[0.2241,49.8471],
[-0.0124,49.6479],
[0.007,49.3826],
[-1.2508,49.4489],
[-1.3618,49.7807],
[-2.0316,49.7807],
[-1.9133,49.3826],
[-1.6517,49.25],
[-1.635,49.0513],
[-1.7183,49.0513],
[-1.6022,48.6542],
[-2.5219,48.7204],
[-2.7594,48.5881],
[-3.1222,48.9189],
[-3.4551,48.9189],
[-3.8518,48.7204],
[-4.7593,48.6542],
[-4.9117,48.522],
[-4.8913,48.3238],
[-4.6426,48.3238],
[-4.5398,48.1257],
[-4.7054,48.1257],
[-4.6921,47.9938],
[-4.4244,47.7959],
[-3.9349,47.8619],
[-3.7572,47.73],
[-3.3443,47.73],
[-3.1555,47.4665],
[-2.8373,47.5982],
[-2.8258,47.4665],
[-2.5784,47.4665],
[-2.5616,47.269],
[-2.2322,47.269],
[-2.1391,47.1374],
[-2.1944,46.8086],
[-2.0249,46.7429],
[-2.0144,46.6115],
[-1.666,46.3489],
[-1.2518,46.2833],
[-1.2227,45.8898],
[-1.1411,45.8898],
[-1.2131,45.7588],
[-1.0453,45.6933],
[-1.0312,45.4968],
[-1.1894,45.4313],
[-1.1706,45.1696],
[-1.2519,45.1696],
[-1.2054,44.516],
[-1.2863,44.516],
[-1.268,44.2548],
[-1.3488,44.2548],
[-1.3214,43.8634],
[-1.402,43.8634],
[-1.4599,43.5375],
[-1.6876,43.3421],
[-3.2959,43.3421],
[-3.4672,43.4723],
[-4.9904,43.4072],
[-5.4851,43.5375],
[-5.5656,43.5375],
[-5.7083,43.3421]
]
],
[
[
[-3.6152,5.1072],
[-3.178,5.1072],
[-3.322,5.3644],
[-3.3949,5.3644],
[-3.6144,5.2358],
[-3.6152,5.1072]
]
],
[
[
[8.5346,42.4962],
[8.5388,42.1063],
[8.7005,41.9114],
[8.6227,41.7167],
[8.7821,41.7167],
[8.7839,41.522],
[9.1038,41.3274],
[9.2624,41.3922],
[9.4989,41.7816],
[9.4978,41.9764],
[9.5776,41.9764],
[9.5736,42.7563],
[9.4934,42.7563],
[9.4919,43.0165],
[9.2511,43.0165],
[9.1728,42.7563],
[8.7727,42.6912],
[8.5346,42.4962]
]
],
[
[
[9.8892,44.0591],
[9.8895,43.9938],
[9.9702,43.9938],
[9.9699,44.0591],
[9.8892,44.0591]
]
],
[
[
[10.1343,42.8864],
[10.2148,42.6912],
[10.4552,42.6912],
[10.4551,42.8864],
[10.1343,42.8864]
]
],
[
[
[10.2125,43.9286],
[10.2126,43.8634],
[10.3742,43.6678],
[10.5353,43.0816],
[11.0163,42.8213],
[11.0158,42.6262],
[11.176,42.6262],
[11.2552,42.4312],
[11.4152,42.4312],
[11.4945,42.3012],
[11.6548,42.3662],
[11.7334,42.1712],
[12.1317,42.0413],
[12.1305,41.9114],
[12.6046,41.522],
[12.9222,41.4571],
[13,41.3274],
[13.3976,41.3274],
[13.7134,41.1977],
[13.7929,41.1977],
[14.0374,41.522],
[13.9615,41.7167],
[13.8044,41.8465],
[13.4057,41.8465],
[13.328,41.9764],
[13.0097,42.0413],
[12.8535,42.3012],
[12.8561,42.4962],
[13.1801,42.7563],
[13.0282,43.3421],
[12.6261,43.3421],
[12.3869,43.5375],
[12.2259,43.5375],
[12.3097,43.8634],
[11.9887,44.0591],
[11.7464,44.0591],
[11.5059,44.3854],
[10.5352,44.1243],
[10.5353,43.8634],
[10.2125,43.9286]
]
],
[
[
[10.6955,50.9122],
[10.8643,50.9122],
[10.8649,51.1124],
[10.6959,51.1124],
[10.6955,50.9122]
]
],
[
[
[12.1736,46.8086],
[12.582,46.6115],
[13.5649,46.5459],
[13.5627,46.4145],
[13.3978,46.3489],
[13.4765,46.1521],
[13.312,46.0865],
[13.308,45.8243],
[13.3896,45.8243],
[13.7149,45.7588],
[13.7102,45.4968],
[13.5473,45.4968],
[13.5441,45.3004],
[13.7056,45.235],
[13.7809,44.908],
[13.9432,44.908],
[13.9457,45.0388],
[14.1894,45.0388],
[14.1962,45.3659],
[14.6031,45.3659],
[14.5158,45.1042],
[14.9187,44.9734],
[14.9089,44.5813],
[15.1466,44.3854],
[15.2187,44.0591],
[15.4591,43.9938],
[15.3747,43.8634],
[15.6186,43.9286],
[15.6954,43.7982],
[15.8566,43.7982],
[16.0117,43.6027],
[15.9271,43.4723],
[16.5754,43.6027],
[16.7342,43.5375],
[16.7272,43.3421],
[17.0513,43.4072],
[17.1219,43.1467],
[17.285,43.2118],
[17.3654,43.2118],
[16.9805,43.6678],
[16.8194,43.6678],
[16.4299,44.0591],
[16.2684,44.0591],
[16.1984,44.3854],
[15.8038,44.7119],
[15.8198,45.235],
[15.9824,45.235],
[16.2199,45.0388],
[16.4703,45.235],
[16.7956,45.235],
[16.8004,45.3659],
[16.6422,45.4968],
[16.3979,45.4968],
[16.323,45.6933],
[15.1954,46.2177],
[15.1293,46.8086],
[14.8879,47.0058],
[14.8896,47.0716],
[12.1757,47.0716],
[12.1736,46.8086]
]
],
[
[
[12.4425,54.4095],
[12.7806,54.0029],
[12.9534,54.0029],
[12.9519,53.9352],
[13.0383,53.9352],
[13.0367,53.8676],
[13.6411,53.8676],
[13.4758,54.1384],
[13.3892,54.1384],
[13.3062,54.2739],
[13.7394,54.2739],
[13.7434,54.4095],
[13.6567,54.4095],
[13.6626,54.6132],
[13.4057,54.7491],
[13.1431,54.6811],
[13.0512,54.4774],
[12.4438,54.4774],
[12.4425,54.4095]
]
],
[
[
[14.2609,44.5813],
[14.5024,44.516],
[14.5113,44.908],
[14.3504,44.9734],
[14.2692,44.9734],
[14.2609,44.5813]
]
],
[
[
[17.3552,42.9515],
[17.5157,42.9515],
[17.5079,42.7563],
[17.5933,42.8864],
[17.8339,42.8864],
[18.1435,42.6262],
[18.7721,42.3662],
[18.852,42.3662],
[18.7131,42.8213],
[18.3866,42.6912],
[18.2292,42.7563],
[18.2321,42.8213],
[18.0801,43.0165],
[17.5959,42.9515],
[17.3628,43.1467],
[17.3552,42.9515]
]
],
[
[
[18.3308,54.2739],
[18.5041,54.2739],
[18.5813,54.1384],
[19.1105,54.2739],
[19.1155,54.3417],
[19.2072,54.4095],
[18.6916,54.4774],
[18.6049,54.4774],
[18.3308,54.2739]
]
],
[
[
[22.6867,53.6647],
[22.7121,53.0574],
[25.4787,53.9352],
[27.5141,53.6647],
[29.128,54.0706],
[30.0794,54.0706],
[31.1521,54.2739],
[33.737,55.0892],
[34.1593,55.0211],
[34.3061,54.8851],
[34.2788,54.7491],
[34.599,54.6132],
[34.8043,54.3417],
[35.397,54.2739],
[36.6303,55.1573],
[36.8049,55.1573],
[37.0257,55.3618],
[37.6695,55.4983],
[37.7336,55.7715],
[37.5903,55.9082],
[37.6227,56.0451],
[37.4629,56.1136],
[36.9192,56.0451],
[36.7531,55.7031],
[35.3367,54.8171],
[35.0756,54.8171],
[35.031,55.0211],
[34.6513,55.2936],
[34.6796,55.43],
[34.5329,55.5665],
[34.109,55.6348],
[31.0846,54.8851],
[29.7012,54.4095],
[28.1603,54.5453],
[27.495,54.7491],
[26.1216,54.8851],
[25.704,55.0211],
[25.0853,54.9531],
[24.6746,55.1573],
[23.3504,55.0211],
[23.3279,54.8171],
[23.4868,54.6811],
[23.2614,54.2061],
[23.4199,54.0706],
[23.2397,54.0029],
[23.2253,53.8676],
[22.6867,53.6647]
]
]
]}
}
