{
"type": "Feature",
"properties": {"id":"cliopatria-kingdom-of-spain-1809","edge_precision":"unknown","cliopatria_name":"Kingdom of Spain","cliopatria_from_year":1809,"cliopatria_to_year":1810,"cliopatria_area_km2":233628,"cliopatria_wikidata":"Q29","cliopatria_wikipedia":"Spain","cliopatria_seshat_id":"es_spanish_emp_2","cliopatria_member_of":"(Spanish Empire)"},
"geometry": {"type": "MultiPolygon", "coordinates": [
[
[
[-9.3046,43.1467],
[-9.0787,42.5612],
[-8.6574,42.3662],
[-8.9561,42.1712],
[-8.9281,41.9114],
[-8.47,42.1063],
[-8.1505,42.1063],
[-8.2035,41.8465],
[-8.0375,41.7816],
[-7.3264,41.8465],
[-6.9465,42.0413],
[-6.9107,42.4962],
[-7.1508,42.4962],
[-7.3305,42.6912],
[-7.9117,42.8864],
[-8.369,43.4072],
[-8.8517,43.4072],
[-9.3046,43.1467]
]
],
[
[
[-7.5027,37.7062],
[-7.3874,37.2549],
[-6.8418,37.2549],
[-6.588,36.9971],
[-6.4323,36.9971],
[-6.0638,36.224],
[-5.8311,36.224],
[-5.5848,36.0308],
[-5.4476,36.2884],
[-5.2193,36.3528],
[-5.2282,36.4816],
[-4.6888,36.546],
[-4.4686,36.7393],
[-2.6801,36.7393],
[-2.5321,36.8682],
[-2.0616,36.8037],
[-1.8574,37.3193],
[-1.6235,37.3193],
[-1.7087,37.4483],
[-1.6307,37.4483],
[-1.4038,37.5773],
[-0.7048,37.6417],
[-0.8035,38.0288],
[-0.6609,38.2869],
[0.0994,38.7389],
[-0.3137,39.1265],
[-0.3454,39.7083],
[-0.1265,40.0317],
[0.1825,40.1612],
[0.2478,40.4201],
[0.7093,40.6792],
[0.6958,40.9384],
[0.7751,40.9384],
[0.689,41.068],
[0.3714,41.068],
[-0.7963,40.6792],
[-2.39,40.8088],
[-2.6936,40.6144],
[-2.7283,39.967],
[-3.0262,39.7083],
[-4.8247,39.5143],
[-5.1247,39.3203],
[-6.3051,39.3203],
[-6.5303,39.1911],
[-6.5926,38.9972],
[-6.9799,38.9326],
[-7.2717,38.6743],
[-7.2442,38.3515],
[-6.9984,38.2224],
[-6.9877,38.0933],
[-7.1442,38.0933],
[-7.2791,37.8352],
[-7.5027,37.7062]
]
],
[
[
[-5.5713,35.8377],
[-5.485,35.7089],
[-5.3345,35.7733],
[-5.3389,35.8377],
[-5.5713,35.8377]
]
],
[
[
[-2.9926,35.4514],
[-2.9816,35.2584],
[-2.827,35.2584],
[-2.8379,35.4514],
[-2.9926,35.4514]
]
],
[
[
[1.1831,39.0618],
[1.2735,38.8034],
[1.4305,38.8034],
[1.6575,38.9972],
[1.6518,39.1265],
[1.2587,39.1265],
[1.1831,39.0618]
]
],
[
[
[2.3381,39.6436],
[2.3461,39.4496],
[2.6586,39.5143],
[2.8237,39.3203],
[3.2958,39.3203],
[3.5158,39.7729],
[3.1979,39.8376],
[3.193,39.967],
[2.8772,39.967],
[2.3381,39.6436]
]
],
[
[
[3.7411,40.0964],
[3.8268,39.9023],
[4.3024,39.8376],
[4.2151,40.0964],
[3.7411,40.0964]
]
]
]}
}
