{
"type": "Feature",
"properties": {"id":"cliopatria-kingdom-of-poland-1431","edge_precision":"unknown","cliopatria_name":"Kingdom of Poland","cliopatria_from_year":1431,"cliopatria_to_year":1439,"cliopatria_area_km2":285337,"cliopatria_wikidata":"Q577867","cliopatria_wikipedia":"Kingdom of Poland","cliopatria_seshat_id":"pl_jagiellonian_dyn","cliopatria_member_of":"(Polish-Lithuania Kingdom);(Kingdom of Poland)"},
"geometry": {"type": "MultiPolygon", "coordinates": [
[
[
[15.4893,52.6535],
[15.6462,52.3176],
[15.814,52.2505],
[15.8083,52.1163],
[16.137,51.8481],
[16.1311,51.7142],
[16.5556,51.7142],
[16.719,51.5803],
[16.9801,51.7142],
[17.3197,51.7142],
[17.5493,51.246],
[17.9723,51.246],
[18.0493,51.1124],
[18.7093,50.8455],
[18.7013,50.7121],
[19.0302,50.5789],
[19.022,50.4457],
[19.1861,50.3791],
[19.1739,50.1795],
[19.0899,50.1795],
[19.0819,50.0465],
[19.1658,50.0465],
[19.2376,49.8471],
[18.8835,49.5152],
[19.1304,49.4489],
[19.4725,49.5816],
[19.8655,49.1838],
[20.2119,49.3826],
[20.5459,49.3826],
[20.4536,49.25],
[20.7038,49.25],
[20.7129,49.3826],
[21.7983,49.3826],
[22.5231,49.0513],
[22.7784,49.1175],
[22.9287,48.9189],
[23.6663,48.7865],
[24.053,48.4559],
[24.379,48.3899],
[24.3672,48.2578],
[24.6867,48.1257],
[24.5862,47.9278],
[24.905,47.7959],
[24.9876,47.7959],
[25.0118,48.0597],
[25.5401,48.3899],
[25.5594,48.5881],
[25.2463,48.7865],
[25.3424,48.9189],
[25.5088,48.9189],
[25.9813,48.6542],
[27.3937,48.6542],
[27.5379,48.4559],
[28.42,48.1917],
[28.5704,48.0597],
[28.5553,47.9278],
[29.0282,47.73],
[28.9151,47.4665],
[29.1395,47.269],
[29.5079,47.5982],
[29.5316,47.7959],
[29.6968,47.7959],
[29.7956,47.9278],
[30.5482,47.9938],
[30.5422,48.5881],
[29.8115,48.7204],
[29.6703,48.9189],
[29.7128,49.25],
[29.8796,49.25],
[29.9057,49.4489],
[29.756,49.5816],
[29.5716,49.4489],
[29.2374,49.4489],
[28.3756,49.9136],
[27.9566,49.9136],
[27.8213,50.1795],
[27.4775,50.113],
[27.37,49.9136],
[26.6383,50.113],
[26.3866,50.113],
[26.1969,49.9136],
[26.0293,49.9136],
[26.0437,50.0465],
[25.7992,50.113],
[25.7367,50.3125],
[24.8397,50.5789],
[24.7692,50.7121],
[24.5871,50.5789],
[24.3345,50.5789],
[24.3681,50.9122],
[24.206,50.9789],
[24.7337,51.1792],
[24.9609,51.7142],
[25.2232,51.7811],
[25.2612,52.1163],
[24.8429,52.1833],
[24.6431,51.9151],
[24.0409,51.8481],
[23.9353,51.6472],
[23.5892,51.5803],
[22.7472,51.6472],
[22.6874,51.9151],
[22.1224,52.2505],
[22.147,52.5191],
[22.4033,52.5191],
[22.3432,52.7881],
[22.6988,52.9227],
[22.7389,53.3271],
[22.4214,53.5971],
[21.2894,53.4621],
[20.9277,53.2596],
[20.67,53.2596],
[20.3958,53.0574],
[19.7248,53.2596],
[19.3615,52.99],
[18.9282,52.9227],
[18.6892,53.1922],
[18.5174,53.1922],
[18.4493,53.4621],
[17.5066,53.5296],
[17.3266,53.3946],
[17.0798,53.5971],
[16.8213,53.5971],
[16.6596,53.7999],
[16.4007,53.7999],
[16.4767,53.5971],
[16.301,53.5296],
[16.2944,53.3946],
[16.1192,53.3271],
[16.1097,53.1248],
[16.0238,53.1248],
[16.0971,52.8554],
[15.5748,52.6535],
[15.4893,52.6535]
]
],
[
[
[20.2781,49.1175],
[20.3615,49.1175],
[20.3658,49.1838],
[20.4492,49.1838],
[20.4536,49.25],
[20.2867,49.25],
[20.2781,49.1175]
]
]
]}
}
