{
"type": "Feature",
"properties": {"id":"cliopatria-second-polish-republic-1919","edge_precision":"unknown","cliopatria_name":"Second Polish Republic","cliopatria_from_year":1919,"cliopatria_to_year":1919,"cliopatria_area_km2":223596,"cliopatria_wikidata":"Q207272","cliopatria_wikipedia":"Second Polish Republic","cliopatria_seshat_id":"pl_polish_rep_1"},
"geometry": {"type": "MultiPolygon", "coordinates": [
[
[
[15.7487,52.7208],
[15.8083,52.1163],
[15.9757,52.0492],
[16.1311,51.7142],
[16.5556,51.7142],
[16.8038,51.5803],
[16.9801,51.7142],
[17.3197,51.7142],
[17.5493,51.246],
[17.9723,51.246],
[18.2952,50.9789],
[18.5485,50.9789],
[18.7093,50.8455],
[18.7013,50.7121],
[19.0302,50.5789],
[19.022,50.4457],
[19.1861,50.3791],
[19.0779,49.98],
[19.397,49.7143],
[19.3889,49.5816],
[19.8655,49.1838],
[20.2119,49.3826],
[21.0422,49.3163],
[21.7983,49.3826],
[22.5231,49.0513],
[22.7784,49.1175],
[22.7004,49.1838],
[22.7443,49.7143],
[24.3546,50.7788],
[24.3681,50.9122],
[24.6351,51.0457],
[24.8325,51.3128],
[25.0018,51.3128],
[25.3233,51.9151],
[25.331,51.9822],
[25.2844,52.3176],
[25.0438,52.4519],
[24.8412,52.9227],
[23.8419,53.1922],
[23.6918,53.3946],
[23.6991,53.4621],
[22.6731,53.5296],
[22.4281,53.6647],
[22.2557,53.6647],
[22.2491,53.5971],
[21.8057,53.4621],
[21.2894,53.4621],
[20.2243,53.0574],
[19.6491,53.3946],
[18.7029,53.3946],
[18.8076,53.6647],
[18.98,53.6647],
[19.1671,53.8676],
[18.8409,54.1384],
[18.2352,54.1384],
[18.3308,54.2739],
[18.3354,54.3417],
[18.5087,54.3417],
[18.6096,54.5453],
[18.4453,54.6811],
[18.4595,54.8851],
[18.0241,54.8851],
[17.9107,54.4774],
[17.6419,54.3417],
[17.6212,54.0029],
[17.2793,54.0706],
[17.0987,53.9352],
[17.1697,53.6647],
[16.9038,53.5296],
[16.7105,53.1248],
[16.1859,52.9227],
[16.094,52.7881],
[15.7487,52.7208]
]
]
]}
}
