{
"type": "Feature",
"properties": {"id":"cliopatria-han-dynasty-0106","edge_precision":"unknown","cliopatria_name":"Han Dynasty","cliopatria_from_year":106,"cliopatria_to_year":116,"cliopatria_area_km2":4425440,"cliopatria_wikidata":"Q1068371","cliopatria_wikipedia":"Han dynasty","cliopatria_seshat_id":"cn_eastern_han_dyn"},
"geometry": {"type": "MultiPolygon", "coordinates": [
[
[
[73.0986,40.8088],
[73.1353,40.6792],
[73.2938,40.6792],
[73.3305,40.5496],
[73.4889,40.5496],
[73.5257,40.4201],
[73.8,40.2906],
[73.5731,39.5789],
[73.3953,39.5143],
[73.6903,39.4496],
[73.769,39.4496],
[75.7921,39.1265],
[77.0253,38.8034],
[77.2576,38.5451],
[77.4144,38.5451],
[77.5104,38.3515],
[77.667,38.3515],
[77.8415,38.1578],
[77.8014,38.0288],
[78.0931,37.7062],
[78.3857,37.6417],
[78.4244,37.5128],
[79.1454,37.3193],
[79.3982,37.126],
[80.3713,36.9971],
[81.0312,36.6105],
[85.1134,37.4483],
[85.3562,37.7062],
[85.8129,37.8998],
[86.0814,38.2224],
[86.4401,38.3515],
[87.6617,38.4806],
[88.7458,38.868],
[89.5801,38.9972],
[91.1233,39.1265],
[92.2484,39.385],
[93.0882,39.3203],
[93.9547,39.5143],
[94.5061,39.5143],
[94.9769,39.3203],
[95.3185,39.385],
[95.6823,38.9326],
[96.3097,38.7389],
[96.414,38.6097],
[96.6493,38.6097],
[96.7552,38.868],
[96.6767,38.868],
[96.7571,39.0618],
[96.6785,39.0618],
[96.7596,39.2557],
[96.681,39.2557],
[96.7629,39.4496],
[97.4677,39.2557],
[97.4916,39.1265],
[97.8574,39.0618],
[97.9602,38.9326],
[98.1173,38.9326],
[98.3841,39.1911],
[98.9578,39.0618],
[99.1198,39.2557],
[99.0919,39.1911],
[99.3786,39.1265],
[99.8618,38.416],
[100.1994,38.2869],
[100.4138,38.6097],
[100.6423,38.2224],
[100.7988,38.2224],
[100.7963,38.0288],
[101.2901,37.8998],
[101.3148,37.7707],
[101.6007,37.7062],
[101.7553,37.5128],
[102.0961,37.7707],
[102.0425,37.6417],
[102.172,37.5773],
[102.1705,37.3838],
[102.5856,37.2549],
[102.611,37.126],
[102.871,37.1904],
[103.2078,37.0615],
[103.3627,36.8682],
[103.3107,36.7393],
[103.4402,36.6749],
[103.3886,36.546],
[103.5182,36.4816],
[103.467,36.3528],
[103.6488,36.224],
[103.63,35.5802],
[103.7353,35.4514],
[103.4496,34.4863],
[103.5267,34.4863],
[103.3554,34.229],
[103.4928,33.9718],
[103.21,33.3931],
[102.5516,33.2645],
[101.8832,32.8788],
[101.6869,32.7502],
[101.4404,32.236],
[100.9792,31.0148],
[101.0553,31.0148],
[100.9393,30.6292],
[101.0153,30.6292],
[100.9019,30.2436],
[100.9778,30.2436],
[100.8854,29.9223],
[100.9612,29.9223],
[100.8886,29.6652],
[100.9643,29.6652],
[100.8753,29.3438],
[100.9509,29.3438],
[100.8811,29.0867],
[101.022,28.7652],
[100.9547,28.5081],
[101.0302,28.5081],
[100.9641,28.251],
[101.0395,28.251],
[100.9153,28.0581],
[101.0499,27.9938],
[101.0143,27.5438],
[101.0896,27.5438],
[101.1965,26.3865],
[101.3981,25.9365],
[101.4623,25.165],
[101.8109,24.2649],
[102.9898,23.3649],
[104.9046,23.2363],
[104.9561,23.1077],
[105.1166,23.172],
[105.2198,22.9148],
[105.1746,22.6577],
[105.2491,22.6577],
[104.874,22.2077],
[105.128,21.9505],
[105.0956,21.7577],
[104.9255,21.6291],
[104.9785,21.5005],
[104.8513,21.1791],
[105.0956,20.8577],
[104.873,20.8577],
[104.9053,20.6005],
[104.6191,20.6648],
[104.4396,20.472],
[104.9806,20.1505],
[104.8648,19.8934],
[104.9921,19.7648],
[104.94,19.4434],
[105.014,19.4434],
[105.0152,18.9934],
[105.1423,18.8648],
[105.0373,18.6719],
[105.1851,18.6719],
[105.1438,18.4148],
[106.5337,16.9362],
[106.7649,17.0005],
[107.0264,17.2576],
[106.7517,17.3862],
[106.7721,17.5148],
[106.5712,17.6433],
[106.5696,18.0933],
[106.2949,18.2219],
[106.1783,18.4148],
[106.0305,18.4148],
[106.0513,18.5434],
[105.7339,18.8648],
[105.9655,19.8291],
[106.5369,20.1505],
[106.6854,20.6005],
[106.8337,20.6005],
[106.9613,20.922],
[107.4174,20.9862],
[107.7903,21.4363],
[108.5552,21.5648],
[108.6517,21.6934],
[109.0864,21.6291],
[109.1162,21.372],
[109.807,21.5005],
[109.8701,21.4363],
[109.696,20.8577],
[109.7702,20.8577],
[109.7895,20.5362],
[109.9268,20.472],
[109.8829,20.2148],
[110.4869,20.2791],
[110.6163,20.6005],
[110.3638,20.8577],
[110.4825,21.1148],
[110.4194,21.1791],
[110.7164,21.1791],
[110.7389,21.3077],
[110.9842,21.4363],
[111.6641,21.5005],
[111.8585,21.7577],
[112.4415,21.6934],
[112.7736,21.8863],
[113.071,21.8863],
[113.1063,22.0791],
[113.3175,22.0148],
[113.4156,22.1434],
[113.6387,22.1434],
[113.6987,22.4648],
[113.5985,22.722],
[113.7474,22.722],
[113.7852,22.5291],
[113.9963,22.4648],
[113.9986,22.0791],
[114.3704,22.0791],
[114.5311,22.1434],
[114.6408,22.722],
[114.7527,22.5291],
[114.9016,22.5291],
[115.1744,22.7863],
[115.3729,22.6577],
[115.6706,22.6577],
[115.6956,22.7863],
[116.54,22.9148],
[116.5914,23.172],
[116.815,23.172],
[116.7796,23.3649],
[116.8939,23.5577],
[117.1788,23.4934],
[117.47,23.8149],
[117.6938,23.8149],
[117.7213,23.9435],
[118.0757,24.2006],
[118.1474,24.5221],
[118.7597,24.5864],
[118.8191,24.8435],
[119.0737,24.9721],
[119.0295,25.1007],
[119.3442,25.165],
[119.3911,25.3579],
[119.2731,25.4864],
[119.6157,25.3579],
[119.8721,25.4864],
[119.9044,25.615],
[119.5299,25.615],
[119.7784,26.0008],
[119.587,26.1294],
[119.9381,26.3222],
[119.8399,26.5151],
[120.1577,26.5794],
[120.2108,26.7723],
[120.0606,26.7723],
[120.0964,26.9009],
[120.2467,26.9009],
[120.3947,27.158],
[120.545,27.158],
[120.7325,27.5438],
[120.6573,27.5438],
[120.7146,27.7367],
[120.8677,27.9938],
[121.0382,28.0581],
[121.118,28.3153],
[121.1934,28.3153],
[121.1533,28.1867],
[121.3794,28.1867],
[121.6459,28.3153],
[121.6521,28.5724],
[121.5218,28.6367],
[121.7143,28.7652],
[121.7443,29.0867],
[121.5389,29.1509],
[121.647,29.4723],
[121.5713,29.4723],
[121.7446,29.5366],
[121.7116,29.2152],
[121.9384,29.2152],
[122.016,29.6652],
[121.8645,29.6652],
[122.0298,29.9223],
[121.6202,30.0508],
[121.4841,30.3079],
[121.1047,30.3079],
[120.8088,30.1151],
[120.6798,30.1794],
[121.0453,30.565],
[121.1972,30.565],
[121.5192,30.822],
[121.8993,30.822],
[121.9953,31.0791],
[121.7366,31.4005],
[121.5843,31.4005],
[121.6335,31.529],
[121.4811,31.529],
[121.4544,31.6575],
[120.9191,31.8503],
[121.3005,31.8503],
[121.8356,31.6575],
[121.9368,31.7218],
[121.9613,31.9789],
[121.5033,32.1717],
[121.4026,32.4931],
[120.9192,32.6216],
[120.9263,33.2002],
[120.5505,33.5859],
[120.4894,34.1647],
[120.3418,34.3577],
[119.7323,34.5506],
[119.7113,34.6793],
[119.4309,34.7436],
[119.459,34.8079],
[119.2276,34.8079],
[119.6187,35.5158],
[119.9865,35.6445],
[120.3185,36.0308],
[120.6585,36.0952],
[120.7318,36.4172],
[120.9648,36.4172],
[120.9789,36.6105],
[121.2121,36.6105],
[121.9121,36.9326],
[122.3939,36.8037],
[122.5664,36.9971],
[122.4742,37.126],
[122.7129,37.4483],
[122.1211,37.5128],
[122.1535,37.5773],
[121.4969,37.5128],
[121.4833,37.6417],
[121.171,37.6417],
[121.112,37.8352],
[120.7538,37.8998],
[120.1881,37.7062],
[120.2022,37.5773],
[119.8266,37.4483],
[119.7011,37.1904],
[119.1557,37.1904],
[119.14,37.3193],
[118.984,37.3193],
[119.2366,37.8352],
[119.3928,37.8352],
[119.4571,37.9643],
[118.7718,38.1578],
[118.8042,38.2224],
[118.6476,38.2224],
[118.583,38.0933],
[118.0674,38.1578],
[118.0536,38.2869],
[117.7727,38.3515],
[117.7592,38.4806],
[117.6025,38.4806],
[117.6549,38.7389],
[117.5764,38.7389],
[117.776,39.1265],
[118.0457,39.1911],
[118.0569,39.0618],
[118.4498,39.0618],
[118.9894,39.1911],
[119.2153,39.3203],
[119.3804,39.7729],
[120.5003,40.2259],
[120.6473,40.4849],
[120.9967,40.6792],
[121.1098,40.8736],
[121.8237,40.8736],
[121.827,40.744],
[122.1061,40.6792],
[122.2306,40.4849],
[121.7765,39.967],
[121.5033,39.9023],
[121.4383,39.6436],
[121.2807,39.6436],
[121.2096,39.5143],
[121.2965,39.385],
[121.6901,39.385],
[121.5151,39.0618],
[121.2007,39.0618],
[121.0293,38.7389],
[121.4217,38.7389],
[121.7162,38.9972],
[121.9519,38.9972],
[122.1704,39.2557],
[122.936,39.6436],
[123.5974,39.8376],
[124.034,39.7729],
[124.3446,39.9023],
[124.5124,39.6436],
[124.8646,39.7083],
[124.8697,39.5789],
[125.3057,39.5143],
[125.39,39.385],
[125.0316,38.7389],
[125.1885,38.7389],
[125.1533,38.6743],
[124.9614,38.6097],
[124.7881,38.2869],
[124.8664,38.2869],
[124.7637,38.0933],
[125.0767,38.0933],
[124.8967,37.8998],
[125.2093,37.8998],
[125.2981,37.7707],
[125.231,37.6417],
[125.3871,37.6417],
[125.6783,37.8998],
[125.8347,37.8998],
[125.8449,37.7707],
[126.2695,37.8352],
[126.3477,37.8352],
[126.9374,38.3515],
[127.0229,38.9326],
[126.8541,39.1911],
[126.9645,39.385],
[126.7283,39.385],
[126.8323,39.8376],
[126.7095,40.0317],
[126.4317,40.0964],
[126.2693,40.3554],
[126.4251,40.6144],
[126.6228,40.6792],
[126.7421,41.0032],
[126.187,41.1328],
[126.1084,41.2625],
[125.4331,41.3274],
[124.9955,41.1328],
[124.6778,41.1328],
[124.7174,41.1977],
[124.4392,41.2625],
[124.4789,41.3274],
[124.2404,41.3274],
[124.2802,41.3922],
[124.0018,41.4571],
[124.0417,41.522],
[123.5643,41.6518],
[123.6044,41.7167],
[123.3654,41.7167],
[123.4055,41.7816],
[123.1268,41.8465],
[123.167,41.9114],
[121.0213,41.2625],
[119.39,41.3274],
[119.4281,41.3922],
[118.7918,41.3922],
[118.8298,41.4571],
[118.6327,41.3922],
[118.6706,41.4571],
[118.4319,41.4571],
[118.4699,41.522],
[118.034,41.4571],
[118.0719,41.522],
[117.7913,41.5869],
[117.7079,41.7167],
[117.8226,41.9114],
[117.7014,41.9764],
[117.7373,42.1712],
[117.3379,42.1712],
[115.9924,41.7816],
[114.9585,40.9384],
[113.7604,40.4849],
[112.6977,39.1911],
[111.8506,37.5773],
[111.509,37.5128],
[111.5384,37.5773],
[111.0212,37.6417],
[111.0506,37.7062],
[110.7382,37.7062],
[110.7675,37.7707],
[110.0937,37.8352],
[110.123,37.8998],
[108.8434,37.8352],
[108.745,37.9643],
[108.5104,37.9643],
[108.5395,38.0288],
[107.3586,37.8352],
[105.7738,37.9643],
[104.541,37.6417],
[104.3616,37.7707],
[103.764,37.8352],
[103.6626,37.9643],
[103.8799,38.2869],
[103.7514,38.3515],
[104.1075,38.8034],
[103.6079,38.7389],
[103.9386,39.1265],
[104.6676,39.5143],
[104.5828,39.8376],
[103.8123,39.7083],
[103.132,39.2557],
[102.0948,38.868],
[102.1232,38.9326],
[101.6301,39.0618],
[101.5586,39.2557],
[101.1652,39.2557],
[101.181,39.6436],
[100.7372,39.7083],
[100.3809,39.967],
[100.1441,39.967],
[100.1735,40.0317],
[99.3837,40.0317],
[99.2842,40.1612],
[98.9184,40.2259],
[98.9478,40.2906],
[98.5026,40.3554],
[98.2745,40.5496],
[98.0369,40.5496],
[97.8881,40.744],
[97.1843,40.9384],
[97.2141,41.0032],
[96.2117,41.068],
[94.6956,40.8736],
[93.931,40.9384],
[93.909,41.068],
[93.7502,41.068],
[93.649,41.1977],
[93.7069,41.3274],
[93.4551,41.6518],
[93.514,41.7816],
[93.2838,41.9764],
[93.3433,42.1063],
[92.9439,42.6262],
[92.4436,42.7563],
[92.4738,42.8213],
[87.56,42.9515],
[84.1085,42.7563],
[82.0557,42.2362],
[80.2138,42.4312],
[80.1338,42.4312],
[80.1085,42.3662],
[80.0285,42.3662],
[77.8749,41.522],
[77.3738,41.4571],
[77.3504,41.3922],
[74.7506,41.0032],
[73.3435,41.068],
[73.12,40.8736],
[73.0986,40.8088]
]
],
[
[
[108.6382,18.5434],
[108.7646,18.4148],
[109.1233,18.3505],
[109.2497,18.2219],
[109.8406,18.2219],
[109.8622,18.3505],
[110.1794,18.4791],
[110.1903,18.5434],
[110.5078,18.6719],
[110.6806,19.2505],
[110.8507,19.3791],
[110.8839,19.5719],
[111.0319,19.5719],
[111.0874,19.8934],
[110.9095,20.1505],
[110.613,20.1505],
[110.591,20.022],
[110.1574,20.0862],
[109.2464,19.9577],
[109.2028,19.7005],
[108.7043,19.3791],
[108.6382,18.5434]
]
],
[
[
[121.9766,29.9865],
[122.2798,29.9865],
[122.2726,30.1794],
[122.045,30.1794],
[121.9766,29.9865]
]
]
]}
}
