{
"type": "Feature",
"properties": {"id":"cliopatria-kashmir-and-jammu-1853","edge_precision":"unknown","cliopatria_name":"Kashmir and Jammu","cliopatria_from_year":1853,"cliopatria_to_year":1858,"cliopatria_area_km2":164746,"cliopatria_wikidata":"Q2571484","cliopatria_wikipedia":"Jammu and Kashmir (princely state)"},
"geometry": {"type": "MultiPolygon", "coordinates": [
[
[
[73.3398,33.9075],
[73.4167,33.9075],
[73.4927,33.2645],
[73.5694,33.2645],
[73.5088,33.0073],
[73.77,32.8145],
[74.2142,32.7502],
[74.3988,32.5574],
[74.7811,32.5574],
[75.3326,32.3002],
[75.8061,32.3645],
[76.2191,32.1717],
[76.3258,32.3002],
[76.5398,32.236],
[76.9524,32.3645],
[77.3646,32.1717],
[77.8228,32.1717],
[77.9458,32.3645],
[78.2966,32.236],
[78.4807,32.3645],
[78.4965,32.4288],
[78.7202,33.9075],
[79.0192,34.1647],
[79.0711,34.3577],
[78.1737,34.7436],
[78.2437,35.001],
[78.1665,35.001],
[78.0587,35.4514],
[77.5593,35.3227],
[76.8027,34.8079],
[76.837,34.9366],
[77.1031,35.0653],
[77.1728,35.3227],
[77.0533,35.4514],
[77.0886,35.5802],
[77.0112,35.5802],
[76.5998,35.7733],
[76.5756,35.9664],
[76.2479,35.902],
[76.1704,35.902],
[76.0577,35.7733],
[75.8254,35.7733],
[75.8006,35.9664],
[75.5081,36.0308],
[75.4658,36.1596],
[74.9829,36.0952],
[75.0429,36.0308],
[74.9306,35.902],
[74.6553,36.0308],
[74.4747,35.6445],
[74.6124,35.5802],
[74.5785,35.4514],
[74.1582,35.3227],
[74.1688,35.0653],
[73.3442,34.5506],
[73.3398,33.9075]
]
]
]}
}
