{
"type": "Feature",
"properties": {"id":"cliopatria-four-oirats-1402","edge_precision":"unknown","cliopatria_name":"Four Oirats","cliopatria_from_year":1402,"cliopatria_to_year":1414,"cliopatria_area_km2":912048,"cliopatria_wikidata":"Q4332415","cliopatria_wikipedia":"Oirat Confederation"},
"geometry": {"type": "MultiPolygon", "coordinates": [
[
[
[85.4259,48.0597],
[85.5086,48.0597],
[85.464,47.7959],
[85.4323,47.73],
[85.6169,47.5982],
[85.5541,47.4665],
[85.7387,47.3348],
[85.7276,47.1374],
[85.8921,47.1374],
[85.9635,46.9401],
[86.1278,46.9401],
[86.1993,46.7429],
[86.3634,46.7429],
[86.435,46.5459],
[86.5989,46.5459],
[86.7217,46.2833],
[88.4762,45.4968],
[88.4963,45.3659],
[88.923,45.235],
[88.9428,45.1042],
[89.3687,44.9734],
[89.3884,44.8426],
[89.9449,44.6466],
[89.9644,44.516],
[90.7005,44.1896],
[92.8598,44.9734],
[93.1674,45.4313],
[95.4991,46.4802],
[96.552,47.0716],
[96.6231,47.2032],
[98.9784,48.4559],
[99.5832,48.9189],
[99.7497,48.9189],
[99.9923,49.1838],
[100.8621,49.6479],
[102.1749,50.6455],
[103.1941,51.6472],
[103.212,51.9151],
[103.127,51.9151],
[103.3545,52.1163],
[103.2693,52.1163],
[103.365,52.2505],
[103.2797,52.2505],
[103.3759,52.3847],
[103.2906,52.3847],
[103.3992,52.6535],
[103.2402,52.7881],
[103.3154,53.1248],
[103.1212,53.3271],
[103.2214,53.4621],
[103.0637,53.5971],
[103.1142,53.6647],
[102.9418,53.6647],
[102.9567,53.7999],
[102.7841,53.7999],
[102.7993,53.9352],
[102.6265,53.9352],
[102.6419,54.0706],
[102.3469,54.1384],
[102.398,54.2061],
[102.1382,54.2061],
[102.1893,54.2739],
[102.016,54.2739],
[102.0672,54.3417],
[101.8071,54.3417],
[101.8583,54.4095],
[101.6848,54.4095],
[101.736,54.4774],
[101.2664,54.5453],
[101.3176,54.6132],
[101.2307,54.6132],
[100.6376,54.7491],
[100.6888,54.8171],
[100.3408,54.8171],
[100.3919,54.8851],
[99.4485,55.0211],
[99.4995,55.0892],
[97.1326,54.9531],
[96.5608,54.8851],
[96.463,54.7491],
[96.1536,54.6811],
[94.9282,54.5453],
[91.5187,53.5971],
[89.9732,52.6535],
[88.5655,51.4465],
[88.3961,51.4465],
[88.3646,51.246],
[87.9582,50.9789],
[86.7964,49.7807],
[86.6289,49.7807],
[86.5732,49.5152],
[86.1854,49.25],
[85.5546,48.3238],
[85.4259,48.0597]
],
[
[90.7786,46.8743],
[90.9267,47.0058],
[91.5022,47.0058],
[91.4357,46.8743],
[90.7786,46.8743]
]
]
]}
}
