{
"type": "Feature",
"properties": {"id":"cliopatria-kingdom-of-soissons-0476","edge_precision":"unknown","cliopatria_name":"Kingdom of Soissons","cliopatria_from_year":476,"cliopatria_to_year":479,"cliopatria_area_km2":159003,"cliopatria_wikidata":"Q1247508","cliopatria_wikipedia":"Kingdom of Soissons"},
"geometry": {"type": "MultiPolygon", "coordinates": [
[
[
[-2.8373,47.5982],
[-2.8315,47.5323],
[-2.5784,47.4665],
[-2.5616,47.269],
[-1.4088,47.269],
[-1.1769,47.4665],
[-0.27,47.4665],
[-0.2607,47.3348],
[-0.0959,47.3348],
[-0.0045,47.2032],
[1.3124,47.2032],
[2.0236,47.73],
[2.9453,47.4665],
[3.5957,47.6641],
[3.7305,48.3238],
[4.7952,48.6542],
[4.8653,48.9851],
[4.432,49.3826],
[4.3312,49.7807],
[4.3225,49.98],
[4.1548,49.98],
[3.1418,50.113],
[1.967,50.113],
[1.455,50.246],
[1.371,50.246],
[1.0528,49.98],
[0.2241,49.8471],
[-0.0124,49.6479],
[0.007,49.3826],
[-1.2508,49.4489],
[-1.3618,49.7807],
[-2.0316,49.7807],
[-1.9133,49.3826],
[-1.6517,49.25],
[-1.635,49.0513],
[-1.7183,49.0513],
[-1.6076,48.7204],
[-1.6022,48.6542],
[-1.5083,48.522],
[-1.6689,48.4559],
[-1.6473,48.1917],
[-1.7967,47.9938],
[-2.4472,47.8619],
[-2.8373,47.5982]
]
],
[
[
[14.2609,44.5813],
[14.5024,44.516],
[14.5113,44.908],
[14.3504,44.9734],
[14.2692,44.9734],
[14.2609,44.5813]
]
],
[
[
[14.5158,45.1042],
[14.9187,44.9734],
[14.9089,44.5813],
[15.1466,44.3854],
[15.2187,44.0591],
[15.4591,43.9938],
[15.3747,43.8634],
[15.6186,43.9286],
[15.6954,43.7982],
[15.8566,43.7982],
[16.0117,43.6027],
[15.9271,43.4723],
[16.5754,43.6027],
[16.7342,43.5375],
[16.7272,43.3421],
[17.0513,43.4072],
[17.1219,43.1467],
[17.3654,43.2118],
[17.3552,42.9515],
[17.5157,42.9515],
[17.5079,42.7563],
[17.5933,42.8864],
[17.8339,42.8864],
[18.1435,42.6262],
[18.852,42.3662],
[18.9259,42.2362],
[19.0058,42.2362],
[19.1688,42.3012],
[19.114,42.8213],
[19.4579,43.2769],
[19.3103,43.5375],
[17.8557,43.4072],
[17.7002,43.5375],
[17.4587,43.5375],
[17.1467,43.7982],
[16.4277,43.9938],
[16.3558,44.2548],
[16.1941,44.2548],
[16.1984,44.3854],
[16.0387,44.4507],
[15.8849,44.7119],
[15.6417,44.7119],
[15.6475,44.908],
[15.4852,44.908],
[15.1675,45.1696],
[14.9335,45.5623],
[14.6076,45.5623],
[14.6061,45.4968],
[14.5158,45.1042]
]
]
]}
}
