{
"type": "Feature",
"properties": {"id":"cliopatria-kingdom-of-bithynia-302bce","edge_precision":"unknown","cliopatria_name":"Kingdom of Bithynia","cliopatria_from_year":-301,"cliopatria_to_year":-282,"cliopatria_area_km2":14572,"cliopatria_wikidata":"Q3762571","cliopatria_wikipedia":"Kingdom of Bithynia"},
"geometry": {"type": "MultiPolygon", "coordinates": [
[
[
[29.2486,40.8088],
[29.4865,40.8088],
[29.4801,40.744],
[30.807,40.5496],
[30.8862,40.5496],
[31.196,40.4849],
[31.714,40.8736],
[32.118,40.9384],
[32.1404,41.1328],
[32.3068,41.1977],
[32.322,41.3274],
[32.1137,41.5869],
[32.1214,41.6518],
[32.0265,41.522],
[31.7007,41.4571],
[31.5917,41.1977],
[31.3533,41.1977],
[31.1801,41.068],
[30.6242,41.068],
[30.4792,41.1977],
[29.3668,41.1977],
[29.2486,40.8088]
]
]
]}
}
