{
"type": "Feature",
"properties": {"id":"cliopatria-tibetan-empire-0627","edge_precision":"unknown","cliopatria_name":"Tibetan Empire","cliopatria_from_year":627,"cliopatria_to_year":627,"cliopatria_area_km2":753126,"cliopatria_wikidata":"Q2431480","cliopatria_wikipedia":"Tibetan Empire","cliopatria_seshat_id":"cn_tibet_k"},
"geometry": {"type": "MultiPolygon", "coordinates": [
[
[
[85.1142,34.7436],
[85.4619,34.3577],
[85.424,34.229],
[85.7333,33.9718],
[85.6959,33.8432],
[86.0638,33.5217],
[86.027,33.3931],
[86.4358,32.943],
[86.589,32.943],
[86.9808,32.4288],
[87.1337,32.4288],
[88.0159,31.4647],
[88.1682,31.4647],
[88.1931,31.2719],
[88.4297,31.0148],
[88.2213,30.5007],
[87.5025,30.0508],
[86.5187,29.0867],
[86.4043,28.5724],
[86.4798,28.5724],
[86.4242,28.3153],
[86.6229,28.1867],
[86.5956,28.0581],
[87.0342,27.9938],
[87.3703,27.8009],
[87.7469,27.8009],
[88.2124,27.8652],
[88.5552,28.0581],
[88.8427,27.9938],
[88.8706,28.1224],
[89.6244,28.1224],
[89.969,28.3153],
[90.1952,28.3153],
[90.3316,28.251],
[90.364,28.0581],
[90.8162,28.0581],
[90.9383,27.9295],
[91.4945,28.0581],
[91.6917,27.9295],
[91.6631,27.8009],
[91.6528,27.7543],
[92.2155,27.6893],
[93.5956,28.211],
[94.3885,28.1867],
[96.0005,29.2152],
[96.8633,30.1794],
[97.0471,30.565],
[97.4824,31.7861],
[97.4061,31.7861],
[97.5751,32.8145],
[97.4986,32.8145],
[97.6373,33.0073],
[97.4634,32.943],
[97.3726,33.1359],
[97.2193,33.1359],
[96.663,33.7789],
[95.2067,34.4863],
[91.5931,35.4514],
[89.8775,35.6445],
[89.9199,35.7733],
[89.2019,35.7089],
[88.0821,35.8377],
[86.5329,35.8377],
[85.8727,35.7089],
[85.3286,35.4514],
[85.1531,35.1297],
[85.1142,34.7436]
]
]
]}
}
