{
"type": "Feature",
"properties": {"id":"cliopatria-county-of-barcelona-1040","edge_precision":"unknown","cliopatria_name":"County of Barcelona","cliopatria_from_year":1040,"cliopatria_to_year":1055,"cliopatria_area_km2":6693,"cliopatria_wikidata":"Q7038","cliopatria_wikipedia":"Girona"},
"geometry": {"type": "MultiPolygon", "coordinates": [
[
[
[1.0563,41.6518],
[1.3781,41.5869],
[1.3845,41.4571],
[1.7028,41.4571],
[1.7916,41.2625],
[1.8711,41.2625],
[2.1066,41.3274],
[2.3336,41.5869],
[2.5725,41.5869],
[3.1168,41.9114],
[2.9436,42.2362],
[2.7866,42.1712],
[2.7067,42.1712],
[2.4786,41.9114],
[2.0828,41.8465],
[1.9233,41.8465],
[1.6904,41.7167],
[1.209,41.7816],
[1.1293,41.7816],
[1.0563,41.6518]
]
]
]}
}
