{
"type": "Feature",
"properties": {"id":"cliopatria-grand-duchy-of-lithuania-1395","edge_precision":"unknown","cliopatria_name":"Grand Duchy of Lithuania","cliopatria_from_year":1395,"cliopatria_to_year":1401,"cliopatria_area_km2":806719,"cliopatria_wikidata":"Q49683","cliopatria_wikipedia":"Grand Duchy of Lithuania","cliopatria_seshat_id":"pl_jagiellonian_dyn","cliopatria_member_of":"(Polish-Lithuania Kingdom)"},
"geometry": {"type": "MultiPolygon", "coordinates": [
[
[
[20.9098,55.9766],
[20.9977,55.9766],
[20.9913,55.9082],
[21.2482,55.8398],
[21.2352,55.7031],
[21.6401,55.3618],
[22.0703,55.2936],
[22.3114,55.0892],
[22.573,55.0892],
[22.813,54.8851],
[22.7045,54.6811],
[22.6623,54.2739],
[22.4822,54.2061],
[22.4618,54.0029],
[22.5482,54.0029],
[22.4214,53.5971],
[22.7389,53.3271],
[22.6988,52.9227],
[22.3432,52.7881],
[22.4096,52.5863],
[22.6596,52.5191],
[22.8436,52.6535],
[23.1857,52.6535],
[23.343,52.5191],
[23.1388,52.1833],
[22.6149,52.0492],
[22.7472,51.6472],
[23.5892,51.5803],
[23.9353,51.6472],
[24.0409,51.8481],
[24.6431,51.9151],
[24.8429,52.1833],
[25.2612,52.1163],
[25.2232,51.7811],
[24.9609,51.7142],
[24.7337,51.1792],
[24.1993,50.9122],
[24.3681,50.9122],
[24.3345,50.5789],
[24.5871,50.5789],
[24.7692,50.7121],
[24.8397,50.5789],
[25.7367,50.3125],
[25.7992,50.113],
[25.967,50.113],
[26.0293,49.9136],
[26.1896,49.8471],
[26.2233,49.3826],
[25.7787,49.1175],
[25.3554,49.0513],
[25.2527,48.8527],
[25.5088,48.9189],
[25.9813,48.6542],
[26.4729,48.5881],
[27.3937,48.6542],
[27.5379,48.4559],
[28.0133,48.2578],
[28.9842,48.0597],
[29.2089,47.8619],
[29.1625,47.4665],
[29.5512,47.269],
[29.528,47.0716],
[29.8999,46.7429],
[29.9431,46.4145],
[30.2628,46.3489],
[30.4029,46.1521],
[30.4847,46.1521],
[30.8766,46.6772],
[31.6064,46.6115],
[31.7875,46.7429],
[32.0337,46.7429],
[32.1804,46.6115],
[32.1718,46.5459],
[32.9185,46.6115],
[33.6938,46.8743],
[34.08,47.269],
[34.1091,47.4665],
[34.3762,47.5982],
[35.0261,47.5323],
[35.4964,48.9189],
[35.7796,49.1175],
[35.9463,49.1175],
[36.007,48.9851],
[36.0903,48.9851],
[36.079,48.9189],
[36.3287,48.9189],
[36.3061,48.7865],
[36.6273,48.7204],
[36.6876,48.5881],
[36.9368,48.5881],
[37.8389,48.9851],
[37.8631,49.1175],
[37.7085,49.1838],
[37.6739,49.4489],
[37.5904,49.4489],
[37.6273,49.6479],
[37.5437,49.6479],
[37.7537,50.3125],
[37.8377,50.3125],
[37.8987,51.0457],
[38.0949,51.1792],
[38.1499,51.4465],
[37.9371,51.6472],
[37.9649,51.7811],
[37.4828,51.9151],
[37.4254,52.0492],
[37.0135,52.1163],
[36.7411,52.4519],
[36.4268,52.5863],
[36.3244,52.9227],
[35.7653,53.1248],
[35.834,53.4621],
[36.0482,53.6647],
[35.7896,53.6647],
[35.9039,53.7999],
[35.8316,53.8676],
[35.9312,54.3417],
[35.7284,54.6132],
[34.4253,54.6132],
[34.0109,54.2739],
[34.0446,54.0029],
[33.8457,53.8676],
[33.6824,53.4621],
[33.3008,53.2596],
[32.8712,53.2596],
[32.4681,52.9227],
[32.2159,52.4519],
[32.0451,52.4519],
[31.9938,52.6535],
[31.7485,52.7208],
[31.7948,54.4774],
[31.6454,54.6132],
[30.9387,54.5453],
[30.8869,54.7491],
[30.7999,54.7491],
[30.9698,55.2255],
[30.8825,55.2255],
[30.8791,55.7031],
[31.8562,55.7715],
[32.3566,55.6348],
[32.6589,55.8398],
[33.01,55.8398],
[33.6798,56.1136],
[33.9437,56.1136],
[33.9719,56.2506],
[34.9267,56.5937],
[34.9566,56.7311],
[34.7945,56.7998],
[33.7011,57.0751],
[33.3572,57.558],
[33.1327,57.7654],
[32.8649,57.7654],
[32.6304,57.4889],
[32.4524,57.4889],
[32.131,57.2129],
[31.6605,57.0751],
[31.1282,57.0751],
[30.8379,56.4563],
[30.3725,56.3191],
[30.1081,56.3191],
[29.9555,56.4563],
[29.9792,56.5937],
[29.5844,56.8686],
[28.3778,57.0751],
[27.891,56.7998],
[27.8803,56.7311],
[28.1239,56.5937],
[28.1477,56.1821],
[27.9716,56.1821],
[27.47,55.7715],
[26.8658,55.8398],
[26.5832,55.7031],
[25.8309,55.9766],
[25.7615,56.1136],
[25.0665,56.1821],
[24.8286,56.3877],
[24.1065,56.2506],
[22.1902,56.4563],
[21.8372,56.4563],
[21.8302,56.3877],
[21.5656,56.3877],
[20.9162,56.0451],
[20.9098,55.9766]
]
]
]}
}
