{
"type": "Feature",
"properties": {"id":"cliopatria-rouran-khaganate-0476","edge_precision":"unknown","cliopatria_name":"Rouran Khaganate","cliopatria_from_year":476,"cliopatria_to_year":479,"cliopatria_area_km2":3870934,"cliopatria_wikidata":"Q155361","cliopatria_wikipedia":"Rouran Khaganate","cliopatria_seshat_id":"mn_rouran_khaganate"},
"geometry": {"type": "MultiPolygon", "coordinates": [
[
[
[77.9319,42.9515],
[79.0846,42.8213],
[79.2492,42.6262],
[79.4094,42.6262],
[79.439,42.4962],
[80.0285,42.3662],
[80.5338,42.4312],
[80.9625,42.3012],
[82.0557,42.2362],
[84.1085,42.7563],
[85.7915,42.7563],
[85.7638,42.6912],
[88.1054,42.3662],
[88.0772,42.3012],
[88.8482,42.2362],
[88.8199,42.1712],
[89.6416,42.0413],
[89.6132,41.9764],
[90.223,41.9114],
[90.1945,41.8465],
[90.4337,41.8465],
[90.5362,41.7167],
[90.7753,41.7167],
[91.2702,41.3922],
[92.4798,41.068],
[92.7974,41.068],
[92.769,41.0032],
[93.8455,40.744],
[95.2297,41.0032],
[96.9264,41.068],
[96.8966,41.0032],
[97.6305,40.8736],
[98.0369,40.5496],
[98.2745,40.5496],
[98.5026,40.3554],
[98.9478,40.2906],
[98.9184,40.2259],
[99.2842,40.1612],
[99.3837,40.0317],
[100.1735,40.0317],
[100.1441,39.967],
[100.3809,39.967],
[100.3515,39.9023],
[100.5094,39.9023],
[100.7372,39.7083],
[100.9737,39.7083],
[100.9446,39.6436],
[101.9495,39.7729],
[104.5828,39.8376],
[104.6676,39.5143],
[103.6653,38.868],
[103.6079,38.7389],
[104.1075,38.8034],
[103.8361,38.5451],
[103.7514,38.3515],
[103.8799,38.2869],
[103.6626,37.9643],
[103.764,37.8352],
[104.3616,37.7707],
[104.4629,37.6417],
[105.3772,37.7707],
[105.3494,37.7062],
[105.7399,37.7062],
[105.7121,37.6417],
[105.9966,37.5773],
[106.0193,37.4483],
[106.4094,37.4483],
[107.2455,37.5773],
[107.9056,37.8352],
[109.0778,37.8352],
[110.3979,38.1578],
[110.6748,38.416],
[111.7382,38.6743],
[112.5775,39.5789],
[113.2408,39.6436],
[113.3325,39.5143],
[113.7263,39.5143],
[114.6709,39.967],
[114.8288,39.967],
[114.8397,39.8376],
[115.0764,39.8376],
[116.3504,40.8736],
[116.7041,40.9384],
[117.4817,41.3274],
[118.7502,41.4571],
[119.4281,41.3922],
[119.39,41.3274],
[121.2188,41.3274],
[122.6084,41.7816],
[124.9296,42.3012],
[125.0129,42.4312],
[124.8182,42.6262],
[124.9868,42.8864],
[124.9066,42.8864],
[125.0392,43.2118],
[124.9589,43.2118],
[125.1367,43.6027],
[125.0562,43.6027],
[125.143,43.733],
[125.0624,43.733],
[125.1495,43.8634],
[125.0688,43.8634],
[125.1632,44.1243],
[125.0087,44.2548],
[125.0527,44.3201],
[124.9719,44.3201],
[124.8173,44.4507],
[124.8615,44.516],
[124.4639,44.6466],
[124.5081,44.7119],
[123.3056,44.9734],
[123.3496,45.0388],
[121.6875,45.1042],
[121.731,45.1696],
[120.875,45.1042],
[120.9182,45.1696],
[119.9428,45.1696],
[119.9857,45.235],
[119.3779,45.3004],
[119.4207,45.3659],
[118.6575,45.6933],
[118.6618,45.8243],
[118.3783,45.8898],
[118.4357,46.3489],
[118.3538,46.3489],
[118.441,46.4802],
[118.359,46.4802],
[118.6166,46.7429],
[118.4524,46.7429],
[118.6295,47.0058],
[118.5473,47.0058],
[119.0436,47.73],
[118.961,47.73],
[119.1452,47.9938],
[119.0625,47.9938],
[119.9007,49.3826],
[119.8172,49.3826],
[120.168,49.8471],
[120.0842,49.8471],
[120.8234,51.3128],
[120.7088,51.3797],
[120.7638,51.4465],
[120.5096,51.4465],
[120.5646,51.5134],
[120.026,51.5803],
[120.1364,51.7142],
[119.8265,51.6472],
[119.8817,51.7142],
[119.6822,51.7811],
[119.7376,51.8481],
[119.5676,51.8481],
[119.5937,51.9822],
[119.4235,51.9822],
[119.45,52.1163],
[119.0508,52.2505],
[119.107,52.3176],
[118.8511,52.3176],
[118.9073,52.3847],
[118.7366,52.3847],
[118.793,52.4519],
[118.3369,52.5191],
[118.3933,52.5863],
[118.2224,52.5863],
[118.2788,52.6535],
[117.0521,52.7208],
[114.9902,52.1833],
[113.8615,52.0492],
[112.274,51.6472],
[110.3569,51.5803],
[110.4071,51.6472],
[109.9828,51.6472],
[109.9984,51.7811],
[109.5236,51.7142],
[109.539,51.8481],
[109.2689,51.7142],
[108.7243,51.7811],
[107.2187,51.5803],
[104.9306,50.9789],
[104.2938,50.9122],
[103.4952,50.9789],
[103.4631,51.1792],
[103.294,51.1792],
[103.3012,51.3128],
[103.2166,51.3128],
[103.3171,51.5803],
[103.1941,51.6472],
[103.2878,51.7811],
[103.2028,51.7811],
[103.2971,51.9151],
[102.7961,52.0492],
[102.8435,52.1163],
[102.5125,52.2505],
[102.4272,52.2505],
[102.4748,52.3176],
[102.2189,52.3176],
[102.2665,52.3847],
[101.8777,52.3176],
[101.8874,52.4519],
[101.7166,52.4519],
[101.7265,52.5863],
[101.641,52.5863],
[101.6513,52.7208],
[100.5584,52.99],
[100.5485,52.8554],
[100.0728,52.7881],
[98.8409,52.1163],
[98.5455,52.1833],
[98.591,52.2505],
[98.25,52.2505],
[98.2954,52.3176],
[97.8744,52.4519],
[97.92,52.5191],
[96.3824,52.5191],
[94.5843,52.2505],
[93.0944,51.7811],
[92.5847,51.7811],
[92.5866,51.6472],
[92.3757,51.5803],
[91.6124,51.5803],
[91.6532,51.6472],
[90.6753,51.7142],
[90.6716,51.8481],
[90.0767,51.8481],
[88.5266,51.3797],
[88.3961,51.4465],
[88.28,51.246],
[86.8605,50.9789],
[85.8332,50.6455],
[84.9813,50.3125],
[82.6876,48.9189],
[82.3525,48.3899],
[82.4354,48.3899],
[82.3945,48.1257],
[82.5814,47.9938],
[82.5202,47.8619],
[82.655,47.7959],
[82.5942,47.6641],
[82.751,47.4665],
[82.631,47.2032],
[82.7133,47.2032],
[82.3657,46.6115],
[81.7544,46.1521],
[81.7792,46.0209],
[81.2835,45.6278],
[80.3301,45.1042],
[79.8697,44.9734],
[79.0919,44.0591],
[77.9569,43.0165],
[77.9319,42.9515]
]
],
[
[
[93.0513,51.8481],
[93.1363,51.8481],
[93.1783,51.9151],
[93.0933,51.9151],
[93.0513,51.8481]
]
]
]}
}
