{
"type": "Feature",
"properties": {"id":"cliopatria-spanish-nationalists-1936","edge_precision":"unknown","cliopatria_name":"Spanish Nationalists","cliopatria_from_year":1936,"cliopatria_to_year":1937,"cliopatria_area_km2":207657,"cliopatria_wikidata":"Q2742116","cliopatria_wikipedia":"Nationalist faction (Spanish Civil War)"},
"geometry": {"type": "MultiPolygon", "coordinates": [
[
[
[-9.3046,43.1467],
[-9.0787,42.5612],
[-8.6574,42.3662],
[-8.9561,42.1712],
[-8.9281,41.9114],
[-8.47,42.1063],
[-8.1505,42.1063],
[-8.1371,41.9764],
[-8.2169,41.9764],
[-8.1172,41.7816],
[-6.7008,41.9764],
[-6.5169,41.7167],
[-6.2719,41.6518],
[-6.2542,41.4571],
[-6.9277,41.0032],
[-6.8684,40.3554],
[-7.0149,40.2259],
[-7.0032,40.0964],
[-6.8395,40.0317],
[-6.8955,39.7729],
[-7.4358,39.6436],
[-7.4184,39.4496],
[-7.0752,39.1265],
[-6.8504,39.2557],
[-6.2264,39.3203],
[-5.9329,39.5789],
[-5.7284,39.967],
[-5.3389,40.0317],
[-5.2704,40.1612],
[-4.5794,40.4201],
[-4.2829,40.6792],
[-3.6635,40.8736],
[-3.3654,41.1328],
[-2.8048,41.068],
[-2.4648,40.744],
[-1.8181,40.5496],
[-1.7265,40.3554],
[-1.41,40.3554],
[-1.24,40.1612],
[-1.0067,40.2259],
[-0.5624,40.744],
[-0.5815,41.068],
[-0.1348,41.5869],
[-0.1499,41.8465],
[-0.0055,42.1063],
[0.1505,42.1712],
[0.2192,42.3662],
[0.4555,42.4312],
[0.5208,42.6912],
[0.0401,42.6912],
[-0.2081,42.8213],
[-0.5288,42.8213],
[-1.027,43.0816],
[-1.4284,43.0816],
[-1.4418,43.2769],
[-1.6876,43.3421],
[-1.8484,43.3421],
[-1.9102,43.0816],
[-2.3776,42.8864],
[-3.2752,43.0816],
[-3.4202,42.8864],
[-3.6556,42.8213],
[-3.816,42.8213],
[-3.9924,43.0165],
[-4.2332,43.0165],
[-4.7724,42.7563],
[-5.1045,42.8864],
[-5.9807,42.8213],
[-6.4806,43.0165],
[-7.0359,42.9515],
[-7.3032,43.2118],
[-7.5442,43.2118],
[-7.76,43.733],
[-8.2436,43.733],
[-8.3904,43.6027],
[-8.369,43.4072],
[-8.8517,43.4072],
[-9.3046,43.1467]
]
],
[
[
[-6.3447,36.8682],
[-6.3398,36.8037],
[-6.0638,36.224],
[-5.8311,36.224],
[-5.5848,36.0308],
[-5.4431,36.224],
[-5.4476,36.2884],
[-5.6258,36.6105],
[-5.6538,36.9971],
[-5.4342,37.1904],
[-4.9713,37.2549],
[-4.8428,37.6417],
[-4.6131,37.7062],
[-4.4704,37.8998],
[-4.5624,38.0933],
[-5.0223,37.9643],
[-5.3112,37.6417],
[-5.7748,37.5773],
[-6.0673,37.3193],
[-6.1161,36.9326],
[-6.3447,36.8682]
]
],
[
[
[1.1831,39.0618],
[1.2735,38.8034],
[1.5062,38.868],
[1.5004,38.9972],
[1.6575,38.9972],
[1.6518,39.1265],
[1.2587,39.1265],
[1.1831,39.0618]
]
],
[
[
[2.3381,39.6436],
[2.3461,39.4496],
[2.6586,39.5143],
[2.8237,39.3203],
[3.2958,39.3203],
[3.5158,39.7729],
[3.1979,39.8376],
[3.193,39.967],
[2.8772,39.967],
[2.3381,39.6436]
]
]
]}
}
