{
"type": "Feature",
"properties": {"id":"cliopatria-lydia-616bce","edge_precision":"unknown","cliopatria_name":"Lydia","cliopatria_from_year":-615,"cliopatria_to_year":-601,"cliopatria_area_km2":255809,"cliopatria_wikidata":"Q620765","cliopatria_wikipedia":"Lydia","cliopatria_seshat_id":"tr_lydia_k"},
"geometry": {"type": "MultiPolygon", "coordinates": [
[
[
[26.6571,40.1612],
[26.7097,39.8376],
[26.7045,39.7729],
[27.02,39.7729],
[27.1671,39.6436],
[26.8414,39.5143],
[26.8311,39.385],
[26.7524,39.385],
[26.7422,39.2557],
[26.8209,39.2557],
[26.9098,39.385],
[27.3034,39.385],
[27.445,39.1911],
[27.3456,38.9326],
[27.1048,38.868],
[27.0113,38.6743],
[27.1632,38.6097],
[27.1433,38.3515],
[27.4219,37.8998],
[27.417,37.8352],
[27.4756,37.5773],
[27.6317,37.5773],
[27.7,37.4483],
[28.2411,37.3838],
[28.5127,36.8682],
[28.5905,36.8682],
[28.7361,36.7393],
[29.5033,36.6105],
[30.5246,36.7393],
[30.6191,36.9326],
[31.086,36.9326],
[31.7443,37.3193],
[32.8295,37.2549],
[33.0174,37.5773],
[33.245,37.5128],
[33.5056,37.7707],
[33.2911,37.9643],
[33.3827,38.0933],
[33.2396,38.2224],
[33.2599,38.416],
[33.352,38.5451],
[33.5872,38.5451],
[33.7581,38.6743],
[33.7008,38.868],
[33.7865,38.9326],
[33.4794,38.9972],
[33.3578,39.3203],
[33.1288,39.385],
[33.1648,39.7083],
[33.4161,39.8376],
[33.5174,40.0317],
[34.0703,40.0317],
[33.9904,40.6792],
[34.3073,40.6792],
[34.3154,40.744],
[34.411,40.8736],
[34.2686,41.0032],
[34.285,41.1328],
[34.381,41.2625],
[34.54,41.2625],
[34.5652,41.4571],
[34.8296,41.6518],
[35.157,41.7167],
[35.1212,42.0413],
[34.8817,42.0413],
[34.7845,41.9114],
[32.6308,41.9114],
[32.6947,41.7816],
[32.1934,41.5869],
[32.0417,41.6518],
[32.0265,41.522],
[31.5342,41.3922],
[31.1801,41.068],
[30.6242,41.068],
[30.4792,41.1977],
[29.3668,41.1977],
[29.2486,40.8088],
[29.493,40.8736],
[29.4801,40.744],
[28.9127,40.6144],
[28.9004,40.4849],
[29.0463,40.3554],
[27.9388,40.3554],
[27.9505,40.4849],
[27.7921,40.4849],
[27.6958,40.2906],
[27.5433,40.3554],
[27.4642,40.3554],
[27.3739,40.2259],
[26.6571,40.1612]
]
]
]}
}
