{
"type": "Feature",
"properties": {"id":"cliopatria-southern-han-0911","edge_precision":"unknown","cliopatria_name":"Southern Han","cliopatria_from_year":911,"cliopatria_to_year":946,"cliopatria_area_km2":322737,"cliopatria_wikidata":"Q1198071","cliopatria_wikipedia":"Southern Han","cliopatria_seshat_id":"cn_five_dyn","cliopatria_member_of":"(Five Dynasties and Ten Kingdoms)"},
"geometry": {"type": "MultiPolygon", "coordinates": [
[
[
[104.45,20.5362],
[104.5671,20.3434],
[104.9806,20.1505],
[104.8648,19.8934],
[104.9921,19.7648],
[104.9724,19.1862],
[105.1423,18.8648],
[105.0373,18.6719],
[105.1851,18.6719],
[105.1438,18.4148],
[105.6628,17.9648],
[105.7059,17.7719],
[105.7797,17.7719],
[105.874,17.9005],
[106.2432,17.9005],
[106.2965,17.7719],
[106.5179,17.7719],
[106.5696,18.0933],
[106.2949,18.2219],
[106.1783,18.4148],
[106.0305,18.4148],
[106.0513,18.5434],
[105.7339,18.8648],
[105.9128,19.5077],
[105.8493,19.5719],
[106.0606,19.9577],
[106.5369,20.1505],
[106.6854,20.6005],
[106.8337,20.6005],
[106.8764,20.8577],
[107.4174,20.9862],
[107.7903,21.4363],
[108.5552,21.5648],
[108.6517,21.6934],
[109.0864,21.6291],
[109.1162,21.372],
[109.807,21.5005],
[109.8701,21.4363],
[109.696,20.8577],
[109.7702,20.8577],
[109.7895,20.5362],
[109.9268,20.472],
[109.8829,20.2148],
[110.4869,20.2791],
[110.6163,20.6005],
[110.3638,20.8577],
[110.4825,21.1148],
[110.4194,21.1791],
[110.7164,21.1791],
[110.7389,21.3077],
[110.9842,21.4363],
[111.6641,21.5005],
[111.8585,21.7577],
[112.4415,21.6934],
[112.7736,21.8863],
[113.071,21.8863],
[113.1063,22.0791],
[113.3175,22.0148],
[113.4156,22.1434],
[113.6387,22.1434],
[113.6987,22.4648],
[113.5985,22.722],
[113.7474,22.722],
[113.7852,22.5291],
[113.9963,22.4648],
[113.9986,22.0791],
[114.3704,22.0791],
[114.5311,22.1434],
[114.6408,22.722],
[114.7527,22.5291],
[114.9016,22.5291],
[115.1744,22.7863],
[115.3729,22.6577],
[115.6706,22.6577],
[115.6956,22.7863],
[116.54,22.9148],
[116.5914,23.172],
[116.815,23.172],
[116.7796,23.3649],
[116.8939,23.5577],
[116.9685,23.5577],
[116.8258,23.9435],
[116.8487,24.3935],
[116.7278,24.5221],
[116.3542,24.5221],
[116.3829,24.6506],
[116.2624,24.7792],
[116.0382,24.7792],
[115.817,24.4578],
[115.1729,24.5864],
[114.5471,24.4578],
[114.5893,24.6506],
[115.0351,24.9721],
[115.0944,25.2293],
[114.361,25.2936],
[114.3314,25.4864],
[114.1515,25.3579],
[113.4928,25.4221],
[113.0448,25.1007],
[112.6104,25.165],
[112.6277,24.9078],
[112.4219,24.6506],
[112.2725,24.6506],
[112.2312,24.4578],
[112.34,24.2649],
[112.3132,24.1363],
[112.076,24.072],
[112.0725,23.6863],
[111.6741,23.5577],
[111.4873,23.3649],
[111.2637,23.3649],
[110.7673,23.1077],
[109.5394,22.9148],
[108.1597,23.1077],
[108.1479,23.0434],
[108.285,22.9791],
[108.3871,22.722],
[108.0836,22.272],
[107.1242,21.8863],
[106.9122,21.9505],
[106.6236,21.5648],
[106.1887,21.6291],
[105.9334,21.4363],
[105.7956,21.5005],
[105.7742,21.372],
[105.615,21.3077],
[105.4029,21.372],
[104.9255,21.1791],
[104.9045,21.0505],
[105.0956,20.8577],
[104.873,20.8577],
[104.9053,20.6005],
[104.6191,20.6648],
[104.45,20.5362]
]
],
[
[
[108.6382,18.5434],
[108.7646,18.4148],
[109.1233,18.3505],
[109.2497,18.2219],
[109.8406,18.2219],
[109.8622,18.3505],
[110.1794,18.4791],
[110.1903,18.5434],
[110.5078,18.6719],
[110.6806,19.2505],
[110.8507,19.3791],
[110.8839,19.5719],
[111.0319,19.5719],
[111.0874,19.8934],
[110.9095,20.1505],
[110.613,20.1505],
[110.591,20.022],
[110.1574,20.0862],
[109.2464,19.9577],
[109.2028,19.7005],
[108.7043,19.3791],
[108.6382,18.5434]
]
]
]}
}
