{
"type": "Feature",
"properties": {"id":"cliopatria-magna-frisia-0602","edge_precision":"unknown","cliopatria_name":"Magna Frisia","cliopatria_from_year":602,"cliopatria_to_year":616,"cliopatria_area_km2":21711,"cliopatria_wikidata":"Q87791","cliopatria_wikipedia":"Frisian Kingdom"},
"geometry": {"type": "MultiPolygon", "coordinates": [
[
[
[3.3993,51.6472],
[3.4062,51.5134],
[3.7486,51.4465],
[3.4097,51.4465],
[3.5046,51.246],
[4.0123,51.246],
[4.3417,51.4465],
[4.3297,51.7142],
[4.4995,51.7142],
[4.4877,51.9822],
[4.6521,52.1163],
[4.6463,52.2505],
[5.0725,52.2505],
[5.1499,52.4519],
[5.3206,52.4519],
[5.2222,52.7881],
[5.1366,52.7881],
[4.9709,52.6535],
[4.8713,52.99],
[4.5343,52.8554],
[4.4638,52.5191],
[4.2169,52.3176],
[4.2232,52.1833],
[3.974,52.0492],
[3.9805,51.9151],
[3.8104,51.9151],
[3.817,51.7811],
[3.6471,51.7811],
[3.7387,51.6472],
[3.3993,51.6472]
]
],
[
[
[5.2089,53.1248],
[5.3857,52.99],
[5.3883,52.9227],
[5.5597,52.9227],
[5.655,52.6535],
[6.335,52.7881],
[6.3268,53.0574],
[6.4964,53.1248],
[7.0165,52.9227],
[7.1022,52.9227],
[7.1006,52.99],
[7.1863,52.99],
[7.1847,53.0574],
[7.3563,53.0574],
[8.2969,53.2596],
[8.4669,53.3946],
[8.377,53.6647],
[8.2908,53.6647],
[8.1195,53.5971],
[7.9448,53.7323],
[7.0823,53.7323],
[6.9133,53.5971],
[6.9168,53.4621],
[5.798,53.4621],
[5.2089,53.1248]
]
]
]}
}
