{
"type": "Feature",
"properties": {"id":"cliopatria-ottoman-empire-1920","edge_precision":"unknown","cliopatria_name":"Ottoman Empire","cliopatria_from_year":1920,"cliopatria_to_year":1921,"cliopatria_area_km2":650327,"cliopatria_wikidata":"Q12560","cliopatria_wikipedia":"Ottoman Empire"},
"geometry": {"type": "MultiPolygon", "coordinates": [
[
[
[28.5327,37.126],
[28.6005,36.9971],
[28.829,36.9326],
[28.9068,36.9326],
[28.9694,36.7393],
[29.1249,36.7393],
[29.2397,36.224],
[29.938,36.224],
[30.0261,36.3528],
[30.4919,36.3528],
[30.5246,36.7393],
[30.2968,36.8037],
[30.3966,37.0615],
[30.7138,37.126],
[30.9304,36.9326],
[31.0082,36.9326],
[32.0681,36.6105],
[32.4985,36.224],
[32.5583,36.0308],
[33.9791,36.2884],
[34.2507,36.6749],
[34.5816,36.8682],
[34.6594,36.8682],
[34.7575,37.0615],
[35.5503,37.1904],
[35.7204,37.3193],
[36.3441,37.3193],
[36.697,36.9971],
[36.7529,36.8037],
[37.1975,36.6105],
[37.8344,36.7393],
[38.0051,36.8682],
[38.5498,36.8682],
[38.8374,36.6749],
[39.5371,36.6749],
[40.7623,37.126],
[41.6103,37.0615],
[42.0264,37.2549],
[42.2602,37.2549],
[42.398,37.126],
[42.5538,37.126],
[42.737,37.3193],
[43.4387,37.3193],
[43.7317,37.1904],
[43.9064,37.3193],
[44.2183,37.3193],
[44.2485,36.9971],
[44.4821,36.9971],
[44.7446,37.1904],
[44.7738,37.3838],
[44.6276,37.4483],
[44.5889,37.7062],
[44.306,37.8998],
[44.4545,38.3515],
[44.308,38.416],
[44.3119,38.9326],
[44.1652,38.9972],
[44.1286,39.2557],
[44.0499,39.2557],
[44.071,39.385],
[44.3967,39.4496],
[44.5189,39.7083],
[44.7554,39.7083],
[44.4162,40.0317],
[43.8633,40.0317],
[43.6482,40.1612],
[43.6354,40.5496],
[43.7709,40.8736],
[43.5556,41.0032],
[43.5785,41.1328],
[43.1926,41.1977],
[42.8633,41.5869],
[42.6244,41.5869],
[42.4426,41.4571],
[41.5783,41.522],
[41.5674,41.4571],
[41.4082,41.4571],
[41.3071,41.3274],
[41.1588,41.3922],
[41.0473,41.1977],
[40.5393,41.0032],
[40.3909,41.068],
[40.3703,40.9384],
[39.7355,40.9384],
[39.2098,41.1328],
[38.5357,40.8736],
[37.9993,41.0032],
[37.4437,41.0032],
[37.2147,41.068],
[37.2332,41.1977],
[37.0651,41.1328],
[36.7748,41.3274],
[36.2092,41.2625],
[35.9538,41.7167],
[35.157,41.7167],
[35.1212,42.0413],
[34.8817,42.0413],
[34.7845,41.9114],
[32.6308,41.9114],
[32.6947,41.7816],
[32.1934,41.5869],
[32.0417,41.6518],
[32.0265,41.522],
[31.5342,41.3922],
[31.1801,41.068],
[29.923,41.1977],
[29.8436,41.1977],
[29.7179,40.744],
[29.4008,40.744],
[28.9127,40.6144],
[28.9734,40.4201],
[29.0525,40.4201],
[29.5749,40.0964],
[29.6228,39.7729],
[29.4529,39.6436],
[29.3741,39.6436],
[29.1927,39.385],
[29.4957,39.2557],
[29.4376,38.6097],
[29.5829,38.4806],
[29.5491,38.0933],
[29.287,37.7707],
[28.6361,37.4483],
[28.5327,37.126]
]
]
]}
}
