{
"type": "Feature",
"properties": {"id":"cliopatria-sumerian-city-states-2701bce","edge_precision":"unknown","cliopatria_name":"Sumerian City-States","cliopatria_from_year":-2700,"cliopatria_to_year":-2501,"cliopatria_area_km2":80618,"cliopatria_wikidata":"Q2345840","cliopatria_wikipedia":"History of Sumer"},
"geometry": {"type": "MultiPolygon", "coordinates": [
[
[
[44.1476,32.8145],
[44.2242,32.8145],
[44.1926,32.5574],
[44.3377,32.4931],
[44.322,32.3645],
[44.712,32.4288],
[44.8333,32.1717],
[45.0624,32.1717],
[45.1993,32.0431],
[45.8074,30.7578],
[46.4388,30.3079],
[46.5906,30.3079],
[46.6965,30.565],
[47.2358,30.6292],
[47.2513,30.7578],
[47.799,30.8863],
[48.2552,30.8863],
[48.915,30.6935],
[48.9476,30.9506],
[48.8716,30.9506],
[48.5752,32.1717],
[47.8545,32.4931],
[47.7781,32.4931],
[47.693,32.4288],
[47.0221,32.5574],
[46.7587,32.8788],
[46.1631,33.0073],
[46.1464,33.4574],
[45.7372,33.2645],
[45.5503,33.0073],
[45.0224,33.0716],
[44.7487,33.3288],
[44.5954,33.3288],
[44.579,33.2002],
[44.4256,33.2002],
[44.1636,32.943],
[44.1476,32.8145]
]
]
]}
}
