{
"type": "Feature",
"properties": {"id":"cliopatria-haudenosaunee-1683","edge_precision":"unknown","cliopatria_name":"Haudenosaunee","cliopatria_from_year":1683,"cliopatria_to_year":1686,"cliopatria_area_km2":570383,"cliopatria_wikidata":"Q68518","cliopatria_wikipedia":"Iroquois","cliopatria_seshat_id":"us_haudenosaunee_1"},
"geometry": {"type": "MultiPolygon", "coordinates": [
[
[
[-87.5887,41.7816],
[-87.5854,41.3274],
[-86.9493,41.3274],
[-86.9834,41.3922],
[-86.529,41.5869],
[-86.3015,41.4571],
[-86.3811,41.4571],
[-86.3252,41.1977],
[-86.6216,41.0032],
[-86.5019,40.6144],
[-86.2178,40.6792],
[-86.2508,40.744],
[-85.0151,40.8088],
[-84.7592,40.6144],
[-84.331,40.5496],
[-84.1089,40.4201],
[-84.0618,40.1612],
[-84.3009,39.8376],
[-84.2393,39.7083],
[-84.3662,39.6436],
[-84.3535,39.4496],
[-84.511,39.4496],
[-84.6078,39.3203],
[-84.8743,39.385],
[-84.802,39.0618],
[-84.3304,39.0618],
[-83.9967,38.6743],
[-83.5466,38.5451],
[-83.0552,38.6743],
[-82.784,38.416],
[-82.5489,38.416],
[-82.5559,38.6097],
[-82.399,38.6097],
[-82.1289,38.3515],
[-81.5754,38.1578],
[-81.2308,37.8998],
[-80.6326,37.9643],
[-80.6089,38.0933],
[-80.1124,38.0288],
[-80.0885,38.1578],
[-79.8537,38.1578],
[-79.8809,38.2224],
[-78.9391,38.0288],
[-78.8632,38.2224],
[-78.7067,38.2224],
[-78.5528,38.416],
[-78.6072,38.5451],
[-78.4541,38.7389],
[-77.4826,38.4806],
[-77.5202,39.1265],
[-77.3629,39.1265],
[-77.3078,38.9972],
[-77.2292,38.9972],
[-77.1317,39.3203],
[-76.7151,39.4496],
[-76.6924,39.5789],
[-76.456,39.5789],
[-76.225,39.7729],
[-75.9095,39.7729],
[-75.8143,40.0964],
[-75.6562,40.0964],
[-75.3327,40.6144],
[-75.1743,40.6144],
[-75.2119,40.8736],
[-74.7639,41.4571],
[-74.8434,41.4571],
[-75.4671,42.1063],
[-75.3074,42.1063],
[-75.3205,42.3012],
[-75.223,42.4312],
[-75.063,42.4312],
[-74.9967,42.6262],
[-74.8366,42.6262],
[-74.8192,42.7563],
[-74.4812,42.8864],
[-74.401,42.8864],
[-74.2864,43.1467],
[-73.9651,43.1467],
[-73.6726,43.5375],
[-73.7197,43.7982],
[-73.5265,43.733],
[-73.6547,43.9938],
[-73.5577,44.1243],
[-73.7199,44.4507],
[-73.5749,44.6466],
[-73.5769,44.9734],
[-73.3333,44.9734],
[-73.5135,45.1696],
[-73.4322,45.1696],
[-73.4652,45.235],
[-73.6944,45.3659],
[-74.0199,45.3659],
[-74.0345,45.235],
[-74.1971,45.235],
[-74.264,45.3659],
[-74.5082,45.3659],
[-74.4746,45.3004],
[-74.8953,45.1696],
[-74.9571,44.9734],
[-75.4581,44.8426],
[-75.5531,44.7119],
[-75.4862,44.5813],
[-75.7719,44.1896],
[-76.1427,44.1243],
[-76.0102,43.8634],
[-76.1862,43.733],
[-76.1682,43.5375],
[-76.5379,43.4723],
[-76.5051,43.4072],
[-76.666,43.4072],
[-76.7613,43.2769],
[-77.8063,43.2769],
[-78.114,43.4072],
[-78.5162,43.4072],
[-78.4828,43.3421],
[-78.724,43.3421],
[-78.6906,43.2769],
[-79.7018,43.2118],
[-79.8714,43.5375],
[-79.7104,43.5375],
[-79.6518,43.733],
[-79.4906,43.733],
[-79.7432,44.0591],
[-79.6509,44.1896],
[-79.4893,44.1896],
[-79.5239,44.2548],
[-79.3622,44.2548],
[-79.4203,44.516],
[-79.3393,44.516],
[-79.5143,44.8426],
[-79.7368,45.1042],
[-80.0518,45.235],
[-79.8388,44.8426],
[-80.0011,44.8426],
[-79.9305,44.7119],
[-80.0116,44.7119],
[-79.9412,44.5813],
[-80.0329,44.4507],
[-80.3567,44.4507],
[-81.1368,44.8426],
[-81.4793,45.1696],
[-81.2372,44.5813],
[-81.7266,43.9938],
[-81.6993,43.3421],
[-81.9059,43.2769],
[-81.9171,43.1467],
[-82.2039,43.0816],
[-82.1694,43.0165],
[-82.4904,43.0165],
[-82.6643,43.3421],
[-82.5839,43.3421],
[-82.6891,43.5375],
[-82.6086,43.5375],
[-82.7499,43.7982],
[-82.6693,43.7982],
[-82.8924,44.0591],
[-83.1796,43.9938],
[-83.2786,43.733],
[-83.4398,43.733],
[-83.5297,43.6027],
[-83.9324,43.6027],
[-84.0759,43.8634],
[-83.9422,44.0591],
[-83.6553,44.1243],
[-83.5578,44.3854],
[-83.396,44.3854],
[-83.4162,44.7119],
[-83.3351,44.7119],
[-83.5557,45.1042],
[-83.4301,45.1696],
[-83.5042,45.3004],
[-84.0231,45.4968],
[-84.1045,45.4968],
[-84.3927,45.4313],
[-84.631,45.5623],
[-84.7447,45.7588],
[-85.0329,45.6933],
[-85.0062,45.3659],
[-85.3752,45.3004],
[-85.3492,44.9734],
[-85.7929,45.0388],
[-85.7552,44.9734],
[-86.0421,44.908],
[-86.2591,44.5813],
[-86.2339,44.2548],
[-86.489,43.9938],
[-86.3781,43.7982],
[-86.4587,43.7982],
[-86.3851,43.6678],
[-86.4728,43.5375],
[-86.1553,42.8213],
[-86.2355,42.8213],
[-86.1828,42.4312],
[-86.5871,41.8465],
[-86.7813,41.9114],
[-86.7119,41.7816],
[-87.0412,41.6518],
[-87.0067,41.5869],
[-87.4845,41.5869],
[-87.4742,41.7167],
[-87.5887,41.7816]
]
],
[
[
[-83.3452,46.0209],
[-83.1507,45.8243],
[-82.1867,45.5623],
[-81.6978,45.5623],
[-81.5634,45.7588],
[-81.674,45.9554],
[-81.9562,46.0209],
[-82.5281,46.0209],
[-82.6167,45.8898],
[-83.2635,46.0209],
[-83.3452,46.0209]
]
]
]}
}
