{
"type": "Feature",
"properties": {"id":"cliopatria-song-751bce","edge_precision":"unknown","cliopatria_name":"Song","cliopatria_from_year":-750,"cliopatria_to_year":-481,"cliopatria_area_km2":22944,"cliopatria_wikidata":"Q7462","cliopatria_wikipedia":"Song (state)","cliopatria_member_of":"(Spring and Autumn States)"},
"geometry": {"type": "MultiPolygon", "coordinates": [
[
[
[114.3412,34.7436],
[114.6466,34.5506],
[115.4942,34.5506],
[115.5947,34.422],
[116.107,34.3577],
[116.6157,34.1004],
[117.2311,34.1004],
[117.6198,34.2933],
[117.6741,34.422],
[117.5747,34.5506],
[116.65,34.5506],
[116.7045,34.6793],
[116.5056,34.9366],
[116.1969,34.9366],
[116.0975,35.0653],
[116.1805,35.2584],
[116.2578,35.2584],
[116.2856,35.3227],
[115.9898,35.7089],
[115.2311,35.3871],
[114.499,34.9366],
[114.4721,34.8723],
[114.3412,34.7436]
]
]
]}
}
