{
"type": "Feature",
"properties": {"id":"cliopatria-kingdom-of-italy-1939","edge_precision":"unknown","cliopatria_name":"Kingdom of Italy","cliopatria_from_year":1939,"cliopatria_to_year":1939,"cliopatria_area_km2":323121,"cliopatria_wikidata":"Q172579","cliopatria_wikipedia":"Kingdom of Italy","cliopatria_seshat_id":"it_italian_k"},
"geometry": {"type": "MultiPolygon", "coordinates": [
[
[
[6.6375,44.9734],
[6.9652,44.8426],
[6.9695,44.6466],
[6.8885,44.6466],
[6.978,44.2548],
[7.3039,44.1243],
[7.6259,44.1896],
[7.5521,43.7982],
[7.6327,43.7982],
[8.0339,43.9286],
[8.1916,44.1896],
[8.5925,44.4507],
[9.1591,44.4507],
[9.7274,44.1243],
[9.9697,44.1243],
[9.8895,43.9938],
[10.1314,44.0591],
[10.3742,43.6678],
[10.5353,43.0816],
[11.0163,42.8213],
[11.0158,42.6262],
[11.176,42.6262],
[11.2552,42.4312],
[11.4152,42.4312],
[11.4945,42.3012],
[11.6548,42.3662],
[11.7334,42.1712],
[11.972,42.0413],
[12.292,42.1063],
[12.3705,41.9764],
[12.2097,41.8465],
[12.6046,41.522],
[12.9222,41.4571],
[13,41.3274],
[13.7145,41.2625],
[13.7918,41.1328],
[13.9506,41.1328],
[14.1046,40.8736],
[14.4219,40.8736],
[14.4179,40.6792],
[14.8934,40.6792],
[15.0414,40.2259],
[15.1995,40.2259],
[15.4319,40.0317],
[15.7478,40.0317],
[15.6655,39.9023],
[15.8989,39.7729],
[16.1165,39.0618],
[16.2703,38.9326],
[16.2652,38.7389],
[15.9497,38.6743],
[15.8621,38.2869],
[14.0562,37.9643],
[13.6652,37.9643],
[13.3547,38.1578],
[13.1199,38.1578],
[13.0404,38.0288],
[12.6498,38.0933],
[12.4919,37.8998],
[12.4905,37.7062],
[13.192,37.5773],
[13.5784,37.2549],
[14.2779,37.126],
[14.661,36.7393],
[15.0498,36.7393],
[15.2139,37.1904],
[15.0592,37.2549],
[15.0665,37.6417],
[15.3895,38.1578],
[15.6243,38.1578],
[15.6982,37.9643],
[15.9328,37.9643],
[16.4919,38.416],
[16.5024,38.8034],
[17.1383,39.0618],
[17.0697,39.385],
[16.9162,39.5143],
[16.4473,39.6436],
[16.4567,39.967],
[16.6975,40.0964],
[16.6245,40.2906],
[16.8617,40.2906],
[16.945,40.4201],
[16.868,40.4849],
[17.0285,40.5496],
[17.3452,40.5496],
[17.4175,40.3554],
[17.8131,40.3554],
[18.1122,39.9023],
[18.3489,39.9023],
[18.4381,40.1612],
[17.9812,40.6144],
[17.5107,40.744],
[17.2027,41.0032],
[15.9439,41.3922],
[15.8738,41.7167],
[16.1149,41.7816],
[16.1189,41.9114],
[15.2414,41.9114],
[15.165,42.0413],
[14.924,41.9764],
[14.7659,42.0413],
[14.769,42.1712],
[14.6077,42.1063],
[14.5308,42.2362],
[14.3709,42.2362],
[14.0565,42.4962],
[13.9014,42.7563],
[13.9854,42.9515],
[13.7471,43.0816],
[13.6726,43.4072],
[13.3551,43.6678],
[13.0338,43.733],
[13.0356,43.8634],
[12.8734,43.7982],
[12.7146,43.9938],
[12.5532,43.9938],
[12.1537,44.4507],
[12.1572,44.8426],
[12.3999,44.7773],
[12.4026,45.0388],
[12.16,45.1696],
[12.1628,45.4968],
[12.6522,45.5623],
[12.8168,45.6933],
[13.0605,45.6278],
[13.1448,45.8243],
[13.3896,45.8243],
[13.7149,45.7588],
[13.7102,45.4968],
[13.5473,45.4968],
[13.5441,45.3004],
[13.7056,45.235],
[13.7809,44.908],
[13.9432,44.908],
[13.9457,45.0388],
[14.1894,45.0388],
[14.1962,45.3659],
[14.1214,45.6933],
[13.6378,46.0209],
[13.6401,46.1521],
[13.3968,46.2833],
[13.3989,46.4145],
[13.237,46.5459],
[12.2551,46.7429],
[12.0935,47.0716],
[11.1887,47.0058],
[10.942,46.7429],
[10.4492,46.8743],
[10.3679,46.6115],
[10.0399,46.6115],
[10.0409,46.4145],
[10.1228,46.4145],
[10.0415,46.2833],
[9.3031,46.4802],
[8.9821,45.8898],
[8.6521,46.1521],
[8.4886,46.1521],
[8.4028,46.4145],
[8.0786,46.2177],
[8.0002,46.0209],
[8.0013,45.9554],
[7.9197,45.9554],
[7.9185,46.0209],
[7.431,45.8898],
[6.9396,45.9554],
[6.7795,45.8243],
[6.7827,45.6933],
[7.1132,45.4968],
[7.1176,45.3004],
[6.714,45.1696],
[6.6375,44.9734]
],
[
[12.4703,43.7982],
[12.6323,43.8634],
[12.7122,43.7982],
[12.6308,43.733],
[12.63,43.6678],
[12.4703,43.7982]
]
],
[
[
[8.1546,40.9384],
[8.1595,40.5496],
[8.3187,40.4849],
[8.3209,40.2906],
[8.4,40.2906],
[8.3248,39.967],
[8.4834,39.9023],
[8.4089,39.5143],
[8.3301,39.5143],
[8.3332,39.2557],
[8.4118,39.2557],
[8.3362,38.9972],
[8.7303,38.868],
[8.9659,38.868],
[9.1204,39.1911],
[9.5926,39.1265],
[9.6686,39.6436],
[9.7474,39.6436],
[9.6653,40.2906],
[9.8232,40.3554],
[9.8217,40.744],
[9.5021,41.1977],
[9.1043,41.2625],
[9.0248,41.2625],
[8.552,40.8736],
[8.1546,40.9384]
]
],
[
[
[10.1343,42.8864],
[10.2148,42.6912],
[10.4552,42.6912],
[10.4551,42.8864],
[10.1343,42.8864]
]
],
[
[
[12.1305,41.9114],
[12.2103,41.9114],
[12.2109,41.9764],
[12.1311,41.9764],
[12.1305,41.9114]
]
],
[
[
[19.2487,40.6144],
[19.4863,40.6144],
[19.4714,40.2906],
[19.6295,40.2906],
[20.0094,39.967],
[19.9184,39.7083],
[20.155,39.7083],
[20.3158,39.7729],
[20.4074,40.0317],
[20.6509,40.1612],
[20.7434,40.4201],
[20.9878,40.5496],
[21.0777,40.744],
[20.5434,41.1328],
[20.5205,42.1712],
[20.062,42.5612],
[19.8985,42.4962],
[19.8184,42.4962],
[19.8219,42.5612],
[19.6651,42.6262],
[19.4151,42.4312],
[19.3862,41.8465],
[19.5424,41.7816],
[19.4501,41.522],
[19.5297,41.522],
[19.4438,41.3922],
[19.5233,41.3922],
[19.4376,41.2625],
[19.4985,40.8736],
[19.2545,40.744],
[19.2487,40.6144]
]
],
[
[
[26.8653,36.6749],
[27.1854,36.8037],
[27.1168,36.9326],
[27.0389,36.9326],
[26.8653,36.6749]
]
],
[
[
[27.6925,36.2884],
[27.7426,35.902],
[28.1393,36.0308],
[28.2502,36.4816],
[28.0171,36.4816],
[27.6925,36.2884]
]
],
[
[
[117.1031,39.6436],
[117.1819,39.6436],
[117.1477,39.5789],
[117.3053,39.5789],
[117.4875,39.7729],
[117.1031,39.6436]
]
]
]}
}
