{
"type": "Feature",
"properties": {"id":"cliopatria-hamdanid-emirates-1066","edge_precision":"unknown","cliopatria_name":"Hamdanid Emirates","cliopatria_from_year":1066,"cliopatria_to_year":1125,"cliopatria_area_km2":238759,"cliopatria_wikidata":"Q837187","cliopatria_wikipedia":"Hamdanid dynasty"},
"geometry": {"type": "MultiPolygon", "coordinates": [
[
[
[35.0447,32.8788],
[35.4217,32.8145],
[35.6337,32.6216],
[36.1691,32.6216],
[36.4872,32.7502],
[36.4751,32.6216],
[36.6924,32.4931],
[36.6984,32.5574],
[36.8119,32.943],
[36.901,33.0716],
[37.0542,33.0716],
[37.0732,33.2645],
[38.4794,34.229],
[39.1238,34.4863],
[39.509,34.4863],
[40.0259,34.2933],
[40.1029,34.2933],
[40.6104,34.6793],
[41.2587,34.9366],
[41.6076,35.2584],
[42.4306,35.6445],
[42.7919,36.0308],
[42.9469,36.0308],
[43.155,36.4172],
[43.4151,36.6105],
[43.4387,37.3193],
[43.3015,37.4483],
[43.3203,37.5773],
[42.6959,37.5773],
[42.5554,38.2224],
[42.1734,38.2869],
[41.8104,37.3838],
[41.5764,37.3838],
[41.5942,37.5128],
[41.3779,37.6417],
[41.3958,37.7707],
[40.6927,37.7707],
[39.3929,37.3838],
[38.737,37.126],
[38.7211,36.9971],
[38.4876,36.9971],
[38.3942,36.8682],
[37.2826,36.6749],
[37.0276,36.4816],
[37.0131,36.3528],
[36.6884,36.224],
[36.3433,35.902],
[36.3527,35.2584],
[36.1849,35.1297],
[36.165,34.9366],
[36.3128,34.8723],
[36.293,34.6793],
[36.0552,34.615],
[36.0488,34.5506],
[35.7921,34.2933],
[35.6445,34.3577],
[35.6838,33.9718],
[35.447,33.9075],
[35.4993,33.6502],
[35.3458,33.6502],
[35.3984,33.3931],
[35.0505,32.943],
[35.0447,32.8788]
]
],
[
[
[44.5519,39.9023],
[44.8343,39.7083],
[44.8691,39.4496],
[45.0726,39.2557],
[45.23,39.2557],
[45.3546,39.0618],
[45.872,38.868],
[46.6684,38.9326],
[47.4008,39.5143],
[47.3143,39.9023],
[46.9986,39.9023],
[46.7974,40.0964],
[46.9368,40.4201],
[46.8698,40.4849],
[46.0308,40.2259],
[45.8377,40.0317],
[45.3525,39.967],
[44.8788,39.967],
[44.8223,40.0964],
[44.5741,40.0317],
[44.5519,39.9023]
]
],
[
[
[48.1186,41.5869],
[48.2778,41.5869],
[48.4774,41.7816],
[48.3977,41.7816],
[48.4112,41.8465],
[48.3315,41.8465],
[48.345,41.9114],
[48.2652,41.9114],
[48.1192,41.9764],
[48.1319,41.6518],
[48.1186,41.5869]
]
]
]}
}
