{
"type": "Feature",
"properties": {"id":"cliopatria-electorate-of-hanover-1762","edge_precision":"unknown","cliopatria_name":"Electorate of Hanover","cliopatria_from_year":1762,"cliopatria_to_year":1762,"cliopatria_area_km2":42902,"cliopatria_wikidata":"Q706018","cliopatria_wikipedia":"Electorate of Hanover"},
"geometry": {"type": "MultiPolygon", "coordinates": [
[
[
[7.4523,52.5863],
[7.7967,52.4519],
[7.8031,52.1163],
[7.8882,52.1163],
[7.8895,52.0492],
[7.9746,52.0492],
[7.9758,51.9822],
[8.4021,51.9151],
[8.4002,52.0492],
[8.825,52.1163],
[9.168,51.8481],
[9.1691,51.7142],
[9.5944,51.5803],
[9.4261,51.3797],
[9.4275,51.1792],
[10.1041,51.1792],
[10.6118,51.3797],
[11.0349,51.3128],
[11.0363,51.5803],
[10.9514,51.5803],
[10.9518,51.6472],
[10.782,51.6472],
[10.6966,51.4465],
[10.4424,51.4465],
[10.4426,51.6472],
[10.6972,51.6472],
[10.8677,51.8481],
[10.5282,52.1163],
[10.5285,52.2505],
[10.8698,52.3176],
[10.8704,52.4519],
[10.9558,52.4519],
[10.7874,52.99],
[11.3882,53.0574],
[11.3895,53.1922],
[11.1324,53.2596],
[10.6173,53.3946],
[10.79,53.5296],
[10.791,53.7323],
[10.4464,53.8676],
[10.446,53.7323],
[10.3598,53.7323],
[10.3597,53.6647],
[10.2735,53.6647],
[10.3596,53.5971],
[10.2732,53.3946],
[9.4115,53.6647],
[9.2375,53.8676],
[8.8058,53.8676],
[8.7218,53.6647],
[8.376,53.7323],
[8.377,53.6647],
[8.4641,53.5971],
[8.4669,53.3946],
[8.3809,53.3946],
[8.4706,53.1248],
[8.5564,53.1248],
[8.7289,53.0574],
[8.7304,52.9227],
[8.3019,52.9227],
[8.2183,52.7881],
[8.1327,52.7881],
[7.9639,52.6535],
[7.6191,52.7881],
[7.4523,52.5863]
]
]
]}
}
