{
"type": "Feature",
"properties": {"id":"cliopatria-crown-of-castile-1241","edge_precision":"unknown","cliopatria_name":"Crown of Castile","cliopatria_from_year":1241,"cliopatria_to_year":1249,"cliopatria_area_km2":324289,"cliopatria_wikidata":"Q217196","cliopatria_wikipedia":"Crown of Castile","cliopatria_seshat_id":"es_castile_crown"},
"geometry": {"type": "MultiPolygon", "coordinates": [
[
[
[-9.3046,43.1467],
[-9.0787,42.5612],
[-8.6574,42.3662],
[-8.9561,42.1712],
[-8.9281,41.9114],
[-8.47,42.1063],
[-8.1505,42.1063],
[-8.1371,41.9764],
[-8.2169,41.9764],
[-8.1172,41.7816],
[-6.7008,41.9764],
[-6.3516,41.6518],
[-6.2719,41.6518],
[-6.2542,41.4571],
[-6.9277,41.0032],
[-6.8684,40.3554],
[-7.0149,40.2259],
[-7.0032,40.0964],
[-6.8395,40.0317],
[-6.8955,39.7729],
[-7.4358,39.6436],
[-7.4184,39.4496],
[-6.991,39.0618],
[-7.1203,38.7389],
[-7.2717,38.6743],
[-7.2442,38.3515],
[-6.9984,38.2224],
[-6.9877,38.0933],
[-7.2898,37.9643],
[-7.5593,37.4483],
[-7.4813,37.4483],
[-7.3874,37.2549],
[-6.9198,37.2549],
[-6.8572,37.4483],
[-6.8624,37.5128],
[-6.9613,37.7707],
[-6.5758,37.8352],
[-6.4093,37.7062],
[-5.9358,37.6417],
[-5.5995,37.3193],
[-5.1226,37.1904],
[-4.655,37.1904],
[-4.2006,37.3838],
[-4.1445,37.7062],
[-3.5978,37.7062],
[-3.602,37.7707],
[-2.2817,37.8998],
[-2.2896,38.0288],
[-2.2113,38.0288],
[-2.2192,38.1578],
[-1.9921,38.2869],
[-1.3693,38.3515],
[-1.2347,38.7389],
[-0.8388,38.6743],
[-0.771,38.868],
[-1.0925,38.9972],
[-1.1112,39.3203],
[-1.1974,39.4496],
[-1.3549,39.4496],
[-1.3704,39.7083],
[-1.2166,39.7729],
[-1.157,40.0964],
[-1.7265,40.3554],
[-1.5136,40.744],
[-2.0989,41.1977],
[-2.1165,41.4571],
[-1.8822,41.522],
[-1.9795,41.7816],
[-1.82,41.7816],
[-1.8288,41.9114],
[-1.7756,42.3012],
[-2.0199,42.3662],
[-2.2031,42.6912],
[-1.8391,43.2118],
[-1.8531,43.4072],
[-3.2959,43.3421],
[-3.4672,43.4723],
[-4.9904,43.4072],
[-5.6461,43.5375],
[-7.1757,43.5375],
[-7.3435,43.6027],
[-7.2765,43.733],
[-8.2436,43.733],
[-8.3904,43.6027],
[-8.369,43.4072],
[-8.8517,43.4072],
[-9.3046,43.1467]
]
]
]}
}
