{
"type": "Feature",
"properties": {"id":"cliopatria-qajar-dynasty-1788","edge_precision":"unknown","cliopatria_name":"Qajar Dynasty","cliopatria_from_year":1788,"cliopatria_to_year":1790,"cliopatria_area_km2":579481,"cliopatria_wikidata":"Q189326","cliopatria_wikipedia":"Qajar dynasty"},
"geometry": {"type": "MultiPolygon", "coordinates": [
[
[
[45.3785,36.224],
[45.4184,35.9664],
[45.6509,35.9664],
[45.787,35.8377],
[46.2518,35.8377],
[46.0591,35.5802],
[46.1484,35.1297],
[45.8121,34.9366],
[45.6898,34.615],
[45.5356,34.615],
[45.5002,34.3577],
[45.6453,34.2933],
[45.439,33.9075],
[45.5928,33.9075],
[46.1378,33.3931],
[46.2312,32.943],
[46.6821,32.8788],
[46.9456,32.5574],
[47.3194,32.4931],
[47.5994,32.3002],
[47.5824,32.1717],
[47.9813,31.7218],
[47.7957,31.4647],
[47.739,31.0148],
[48.1031,30.8863],
[48.0478,30.4364],
[48.2755,30.4364],
[48.4117,30.3079],
[48.3884,30.1151],
[48.6005,29.9865],
[48.6763,29.9865],
[48.9873,30.0508],
[48.9428,30.3079],
[49.5859,29.9865],
[49.9051,30.1151],
[49.9131,30.1794],
[50.038,30.565],
[50.5117,31.2719],
[51.2872,31.9146],
[51.3243,32.1717],
[51.7061,32.6859],
[52.5916,33.4574],
[53.3346,33.7789],
[54.355,33.9075],
[54.5416,34.1004],
[56.0488,34.3577],
[56.0604,34.422],
[56.2376,34.5506],
[56.5341,34.4863],
[56.6112,34.4863],
[57.0852,34.5506],
[57.109,34.6793],
[57.5551,35.001],
[57.7094,35.001],
[57.734,35.1297],
[58.0783,35.7089],
[58.5633,37.3193],
[58.9519,38.0288],
[58.9951,38.2224],
[57.7496,38.6097],
[56.4304,38.6743],
[56.3747,38.416],
[56.0067,38.1578],
[55.5372,38.1578],
[53.8826,37.7062],
[53.9105,37.4483],
[54.0947,37.1904],
[54.0333,36.8682],
[53.0877,36.8037],
[52.1859,36.546],
[51.642,36.546],
[50.8207,36.7393],
[50.532,36.8682],
[50.6323,36.9971],
[50.5657,37.0615],
[50.3209,36.9971],
[49.9988,37.3838],
[49.0851,37.5128],
[48.8843,37.7062],
[48.8955,37.7707],
[48.5719,37.7062],
[48.4391,37.3838],
[47.4612,37.126],
[47.1966,36.9326],
[47.1761,36.8037],
[46.9326,36.7393],
[46.3883,36.7393],
[45.3785,36.224]
]
]
]}
}
