{
"type": "Feature",
"properties": {"id":"cliopatria-kazakh-khanate-1588","edge_precision":"unknown","cliopatria_name":"Kazakh Khanate","cliopatria_from_year":1588,"cliopatria_to_year":1594,"cliopatria_area_km2":2559966,"cliopatria_wikidata":"Q1433867","cliopatria_wikipedia":"Kazakh Khanate","cliopatria_seshat_id":"kz_kazakh_khanate_1"},
"geometry": {"type": "MultiPolygon", "coordinates": [
[
[
[50.2245,44.5813],
[50.2595,44.3854],
[50.7295,44.3201],
[51.0716,44.0591],
[51.0407,43.9286],
[51.3169,43.733],
[51.3051,43.3421],
[51.4353,43.2118],
[51.7722,43.2769],
[51.9361,42.9515],
[52.4175,42.9515],
[52.7873,42.8213],
[52.7407,42.6262],
[55.5299,42.8864],
[55.9943,42.8213],
[56.3489,42.9515],
[57.2488,43.0165],
[57.3291,43.0165],
[58.3371,43.4723],
[58.3551,43.5375],
[58.1857,43.7982],
[57.9618,43.8634],
[58.0707,44.2548],
[57.9899,44.2548],
[58.0447,44.4507],
[57.9638,44.4507],
[58.2668,45.235],
[58.4858,45.4313],
[58.6377,45.9554],
[59.3105,46.0209],
[59.49,46.3489],
[59.8374,46.4145],
[60.1215,46.8086],
[60.9837,46.9401],
[60.9426,46.8086],
[61.0862,46.7429],
[61.2303,46.9401],
[61.6411,46.9401],
[61.5779,46.4802],
[61.2512,45.9554],
[61.3329,45.9554],
[61.2523,45.6933],
[61.3339,45.6933],
[61.3352,45.4313],
[61.7222,45.3659],
[61.5823,44.908],
[61.42,44.908],
[61.3805,44.7773],
[60.8969,44.516],
[60.8775,44.4507],
[61.1008,44.3854],
[61.7556,43.6027],
[61.9778,43.5375],
[62.0583,43.5375],
[62.0002,43.3421],
[62.222,43.2769],
[62.1834,43.1467],
[62.344,43.1467],
[62.3857,43.0165],
[63.7341,42.4312],
[68.2836,40.3554],
[68.7181,40.4849],
[69.3733,41.068],
[70.5474,41.2625],
[70.7484,41.3922],
[70.812,41.5869],
[72.3066,42.2362],
[72.7411,42.1063],
[73.3799,42.1063],
[73.9048,42.2362],
[73.9508,42.3662],
[74.2707,42.3662],
[74.4642,42.2362],
[74.9339,42.4312],
[75.4139,42.4312],
[75.8055,42.6262],
[76.4947,42.7563],
[78.3881,42.8864],
[79.0846,42.8213],
[79.2492,42.6262],
[79.4094,42.6262],
[79.439,42.4962],
[79.9738,42.4312],
[80.0032,42.3012],
[80.1631,42.3012],
[80.1884,42.3662],
[80.2872,42.8213],
[80.4734,42.8864],
[80.4711,43.0816],
[80.6317,43.0816],
[80.7907,43.2769],
[80.6825,43.4072],
[80.7354,43.5375],
[80.3572,43.9938],
[80.3832,44.4507],
[80.3023,44.4507],
[80.4103,44.7119],
[79.9779,44.8426],
[79.9509,44.9734],
[81.8231,45.3659],
[82.2122,45.8898],
[82.5433,46.0865],
[83.0351,47.0058],
[83.6406,47.0716],
[83.6106,47.0058],
[83.8572,47.0058],
[83.7971,46.8743],
[84.2597,46.8086],
[84.2296,46.7429],
[84.7005,46.8743],
[85.2868,47.5982],
[85.5149,47.73],
[85.5594,47.9938],
[85.4767,47.9938],
[85.6375,48.3238],
[85.4717,48.3238],
[85.5189,48.5881],
[85.3352,48.7204],
[85.4011,48.8527],
[85.3009,48.9851],
[84.3334,49.3826],
[84.3668,49.4489],
[83.7652,49.5816],
[83.9161,49.7143],
[84.4864,49.8471],
[84.827,50.1795],
[84.309,50.3125],
[84.0642,50.6455],
[84.1353,50.7788],
[83.943,50.7344],
[84.0023,50.8455],
[83.9179,50.8455],
[83.8823,50.7788],
[82.7369,50.8455],
[82.7721,50.9122],
[82.4838,50.8455],
[82.3852,50.9789],
[81.3569,51.1124],
[81.3918,51.1792],
[81.0536,51.1792],
[81.0885,51.246],
[80.4116,51.246],
[79.4298,50.9789],
[79.3284,51.1124],
[78.8549,51.1792],
[78.7533,51.3128],
[78.584,51.3128],
[78.6179,51.3797],
[78.4147,51.3128],
[78.3977,51.4465],
[78.2282,51.4465],
[78.1605,51.6472],
[77.8042,51.7811],
[77.5505,52.1163],
[77.3801,52.1163],
[77.3133,52.3176],
[77.1427,52.3176],
[76.8388,52.7208],
[76.909,52.8554],
[76.5711,53.1922],
[76.9448,53.7323],
[77.6614,54.4095],
[77.6502,54.5453],
[77.4765,54.5453],
[77.5143,54.6132],
[76.7819,54.5453],
[75.5573,54.2061],
[75.1539,53.9352],
[74.7729,53.8676],
[74.3389,53.5296],
[74.2013,53.5971],
[73.6333,53.3271],
[73.4094,53.3946],
[73.3415,53.2596],
[69.3173,52.9227],
[67.407,53.0574],
[67.4374,53.1248],
[66.4676,53.2596],
[66.4978,53.3271],
[66.3259,53.3271],
[66.3864,53.4621],
[65.2676,53.4621],
[65.2974,53.5296],
[64.409,53.6647],
[64.2956,53.7999],
[64.123,53.7999],
[64.1525,53.8676],
[63.9799,53.8676],
[64.0094,53.9352],
[63.8366,53.9352],
[63.8661,54.0029],
[63.2039,54.0706],
[63.176,54.2061],
[62.6275,54.1384],
[62.4831,54.0029],
[61.9931,54.0706],
[61.7916,54.0029],
[61.8213,53.8676],
[61.1056,53.5971],
[61.1365,53.4621],
[60.7966,53.2596],
[60.1179,52.1833],
[59.8966,52.0492],
[59.9311,51.9151],
[58.5822,51.7142],
[58.4973,51.7142],
[57.9639,51.6472],
[57.9879,51.7142],
[57.5634,51.7142],
[57.4412,51.8481],
[56.7849,51.9151],
[56.577,52.0492],
[56.2981,51.9822],
[56.3216,52.0492],
[55.153,52.1163],
[55.176,52.1833],
[54.8352,52.1833],
[54.7106,52.3176],
[54.54,52.3176],
[54.5629,52.3847],
[54.2215,52.3847],
[54.2444,52.4519],
[52.6855,52.3847],
[52.6635,52.3176],
[52.4494,52.1833],
[52.1307,51.4465],
[52.2154,51.4465],
[52.0916,51.0457],
[52.1761,51.0457],
[52.0547,50.6455],
[52.1389,50.6455],
[51.923,49.9136],
[52.0068,49.9136],
[51.9115,49.5816],
[51.9951,49.5816],
[52.0126,49.0513],
[51.9576,48.8527],
[52.0408,48.8527],
[52.0043,48.7204],
[52.1342,48.5881],
[52.1452,48.3238],
[52.2281,48.3238],
[52.1745,48.1257],
[52.2573,48.1257],
[52.0992,47.5323],
[52.1816,47.5323],
[52.1094,46.9401],
[52.1915,46.9401],
[53.1128,47.0058],
[53.2423,46.8743],
[53.1902,46.6772],
[53.2723,46.6772],
[53.268,46.3489],
[53.3499,46.3489],
[53.2474,45.9554],
[53.0671,45.8898],
[53.0646,45.5623],
[53.4214,45.3659],
[53.6656,45.3659],
[53.8794,45.5623],
[54.2868,45.5623],
[54.2181,45.3004],
[54.3636,45.235],
[54.2952,44.9734],
[53.8081,44.9734],
[53.8757,45.235],
[52.0868,45.235],
[51.8752,45.3659],
[51.4683,45.3659],
[51.0635,45.0388],
[51.0162,44.8426],
[51.4712,44.7119],
[51.4237,44.516],
[50.8569,44.516],
[50.645,44.6466],
[50.2245,44.5813]
]
],
[
[
[52.1297,51.7142],
[52.2146,51.7142],
[52.2357,51.7811],
[52.1508,51.7811],
[52.1297,51.7142]
]
],
[
[
[53.084,45.9554],
[53.1657,45.9554],
[53.1827,46.0209],
[53.101,46.0209],
[53.084,45.9554]
]
]
]}
}
