{
"type": "Feature",
"properties": {"id":"cliopatria-lower-burgundy-0860","edge_precision":"unknown","cliopatria_name":"Lower Burgundy","cliopatria_from_year":860,"cliopatria_to_year":865,"cliopatria_area_km2":209032,"cliopatria_wikidata":"Q33242","cliopatria_wikipedia":"Lower Burgundy"},
"geometry": {"type": "MultiPolygon", "coordinates": [
[
[
[3.3993,51.6472],
[3.4062,51.5134],
[3.7453,51.5134],
[3.4944,51.4465],
[3.4097,51.4465],
[3.5046,51.246],
[4.2631,51.3128],
[4.0342,50.7788],
[3.5383,50.5789],
[3.6356,50.3125],
[3.6388,50.246],
[3.9872,49.98],
[4.5768,49.9136],
[4.6798,49.4489],
[5.0267,49.1175],
[4.8653,48.9851],
[4.8834,48.522],
[5.2179,48.4559],
[5.4738,48.2578],
[5.4807,48.0597],
[5.6462,48.0597],
[5.8181,47.8619],
[5.8224,47.73],
[5.5769,47.6641],
[5.5945,47.1374],
[5.1948,46.8086],
[5.286,46.5459],
[5.368,46.5459],
[5.3702,46.4802],
[5.2064,46.4802],
[5.2087,46.4145],
[5.0449,46.4145],
[5.0472,46.3489],
[4.8883,46.2177],
[4.8161,45.9554],
[4.6479,46.0865],
[4.4026,46.0865],
[4.3261,45.9554],
[3.9178,45.9554],
[3.9315,45.6278],
[4.013,45.6278],
[3.9423,45.3659],
[4.3517,45.3004],
[4.3592,45.1042],
[4.1232,44.908],
[3.9609,44.908],
[3.9714,44.6466],
[4.2244,44.3854],
[4.4695,44.3201],
[4.4766,44.1243],
[4.7257,43.9286],
[4.5712,43.733],
[4.41,43.733],
[4.3388,43.4723],
[5.0631,43.4723],
[5.3869,43.4072],
[5.3908,43.2769],
[5.6319,43.2769],
[5.7962,43.1467],
[6.2782,43.1467],
[6.5965,43.2769],
[6.6726,43.4723],
[7.4715,43.7982],
[7.5521,43.7982],
[7.6259,44.1896],
[7.3039,44.1243],
[6.978,44.2548],
[6.8885,44.6466],
[6.9695,44.6466],
[6.9652,44.8426],
[6.6375,44.9734],
[6.714,45.1696],
[7.1176,45.3004],
[7.1132,45.4968],
[6.7827,45.6933],
[6.7795,45.8243],
[6.9396,45.9554],
[7.838,45.9554],
[8.0808,46.0865],
[8.0786,46.2177],
[8.3209,46.4145],
[8.3189,46.5459],
[7.991,46.5459],
[7.9066,46.6772],
[7.4102,46.8743],
[7.5677,47.2032],
[7.731,47.269],
[7.7284,47.4006],
[7.5622,47.4665],
[7.6269,48.3238],
[7.7098,48.3238],
[7.7862,48.6542],
[8.115,48.8527],
[8.1127,48.9851],
[7.3603,49.1175],
[7.0186,49.4489],
[7.1778,49.7807],
[7.7612,49.9136],
[7.3286,50.5122],
[7.2351,50.9122],
[7.0647,50.9789],
[6.9735,51.246],
[6.8007,51.3797],
[6.8785,51.6472],
[6.7051,51.7811],
[6.6996,51.9822],
[6.6146,51.9822],
[6.6127,52.0492],
[6.4385,52.1833],
[6.5082,52.7208],
[6.333,52.8554],
[5.9115,52.6535],
[5.655,52.6535],
[5.5597,52.9227],
[5.3883,52.9227],
[5.3908,52.8554],
[5.3052,52.8554],
[5.3078,52.7881],
[5.2222,52.7881],
[5.2274,52.6535],
[5.3206,52.4519],
[5.1499,52.4519],
[5.0515,52.2505],
[4.6463,52.2505],
[4.4966,51.7811],
[4.4995,51.7142],
[4.2448,51.7142],
[4.1505,51.9151],
[3.8104,51.9151],
[3.817,51.7811],
[3.6471,51.7811],
[3.7387,51.6472],
[3.3993,51.6472]
]
]
]}
}
