{
"type": "Feature",
"properties": {"id":"cliopatria-kingdom-of-spain-1547","edge_precision":"unknown","cliopatria_name":"Kingdom of Spain","cliopatria_from_year":1547,"cliopatria_to_year":1555,"cliopatria_area_km2":971450,"cliopatria_wikidata":"Q29","cliopatria_wikipedia":"Spain","cliopatria_seshat_id":"es_spanish_emp_1","cliopatria_member_of":"(Spanish Empire)"},
"geometry": {"type": "MultiPolygon", "coordinates": [
[
[
[-9.3046,43.1467],
[-9.0787,42.5612],
[-8.6574,42.3662],
[-8.9561,42.1712],
[-8.9281,41.9114],
[-8.47,42.1063],
[-8.1505,42.1063],
[-8.1371,41.9764],
[-8.2169,41.9764],
[-8.1172,41.7816],
[-6.7008,41.9764],
[-6.3516,41.6518],
[-6.2719,41.6518],
[-6.2542,41.4571],
[-6.634,41.2625],
[-6.628,41.1977],
[-6.7075,41.1977],
[-6.7015,41.1328],
[-6.7809,41.1328],
[-6.7749,41.068],
[-6.8544,41.068],
[-6.8484,41.0032],
[-6.9277,41.0032],
[-6.8684,40.3554],
[-7.0149,40.2259],
[-7.0032,40.0964],
[-6.8395,40.0317],
[-6.9012,39.8376],
[-6.8955,39.7729],
[-7.4358,39.6436],
[-7.4184,39.4496],
[-6.991,39.0618],
[-7.1933,38.6743],
[-7.2717,38.6743],
[-7.2442,38.3515],
[-6.9931,38.1578],
[-6.9877,38.0933],
[-7.1442,38.0933],
[-7.2791,37.8352],
[-7.5027,37.7062],
[-7.4759,37.3838],
[-7.3874,37.2549],
[-6.8418,37.2549],
[-6.588,36.9971],
[-6.4323,36.9971],
[-6.0638,36.224],
[-5.8311,36.224],
[-5.5848,36.0308],
[-5.5162,36.1596],
[-5.2879,36.224],
[-5.2282,36.4816],
[-4.6888,36.546],
[-4.4686,36.7393],
[-2.6801,36.7393],
[-2.5321,36.8682],
[-2.0616,36.8037],
[-1.8574,37.3193],
[-1.6235,37.3193],
[-1.7087,37.4483],
[-0.7048,37.6417],
[-0.8035,38.0288],
[-0.6609,38.2869],
[0.0994,38.7389],
[-0.3137,39.1265],
[-0.3454,39.7083],
[-0.2019,39.967],
[0.1825,40.1612],
[0.2478,40.4201],
[0.475,40.6144],
[0.7093,40.6792],
[0.6958,40.9384],
[1.2384,41.1977],
[2.1066,41.3274],
[2.3336,41.5869],
[2.5725,41.5869],
[3.1168,41.9114],
[3.1781,42.3662],
[3.0099,42.5612],
[2.9905,43.0165],
[2.5921,42.9515],
[2.5178,42.8213],
[2.043,42.6912],
[1.6554,42.4312],
[1.4921,42.4962],
[1.4021,42.6912],
[1.0747,42.8213],
[0.6738,42.8213],
[0.6774,42.7563],
[0.0401,42.6912],
[-1.0227,43.0165],
[-1.027,43.0816],
[-1.4284,43.0816],
[-1.4418,43.2769],
[-1.683,43.2769],
[-1.7726,43.4072],
[-3.2959,43.3421],
[-3.4672,43.4723],
[-4.9904,43.4072],
[-5.6461,43.5375],
[-7.1757,43.5375],
[-7.3435,43.6027],
[-7.2765,43.733],
[-8.2436,43.733],
[-8.3904,43.6027],
[-8.369,43.4072],
[-8.8517,43.4072],
[-9.3046,43.1467]
]
],
[
[
[1.1831,39.0618],
[1.2735,38.8034],
[1.4305,38.8034],
[1.6575,38.9972],
[1.6518,39.1265],
[1.2587,39.1265],
[1.1831,39.0618]
]
],
[
[
[2.3381,39.6436],
[2.3461,39.4496],
[2.6586,39.5143],
[2.8237,39.3203],
[3.2958,39.3203],
[3.5158,39.7729],
[3.1979,39.8376],
[3.193,39.967],
[2.8772,39.967],
[2.3381,39.6436]
]
],
[
[
[3.7411,40.0964],
[3.8268,39.9023],
[4.3024,39.8376],
[4.2151,40.0964],
[3.7411,40.0964]
]
],
[
[
[3.9857,46.2833],
[4.0811,45.9554],
[4.4052,46.0209],
[4.313,46.2833],
[3.9857,46.2833]
]
],
[
[
[6.0364,51.4465],
[6.0385,51.3797],
[6.1232,51.3797],
[6.1211,51.4465],
[6.0364,51.4465]
]
],
[
[
[7.5486,43.9938],
[7.5521,43.7982],
[8.0339,43.9286],
[8.1916,44.1896],
[8.5925,44.4507],
[9.1591,44.4507],
[9.5654,44.1896],
[9.8889,44.1243],
[9.9697,44.1243],
[9.6455,44.3201],
[9.6443,44.516],
[9.3194,44.6466],
[9.2344,45.1042],
[9.9654,45.1696],
[10.1284,45.0388],
[10.4533,45.0388],
[10.4531,45.1696],
[9.8834,45.3004],
[9.719,45.5623],
[9.4746,45.5623],
[9.3105,45.6933],
[9.3087,45.8898],
[9.4709,46.0209],
[9.3874,46.2177],
[9.2238,46.2177],
[8.9005,45.8898],
[8.6521,46.1521],
[8.4886,46.1521],
[8.4857,46.3489],
[8.3209,46.4145],
[7.9197,45.9554],
[8.0058,45.6933],
[8.331,45.7588],
[8.5784,45.5623],
[8.5818,45.3004],
[8.3378,45.3004],
[8.3406,45.1042],
[8.504,45.0388],
[8.4272,44.7119],
[8.1059,44.516],
[8.1079,44.3854],
[7.9461,44.3854],
[7.7067,44.1896],
[7.7078,44.1243],
[7.5486,43.9938]
]
],
[
[
[8.1546,40.9384],
[8.1595,40.5496],
[8.3187,40.4849],
[8.3209,40.2906],
[8.4,40.2906],
[8.3248,39.967],
[8.4834,39.9023],
[8.4089,39.5143],
[8.3301,39.5143],
[8.3332,39.2557],
[8.4118,39.2557],
[8.3362,38.9972],
[8.7303,38.868],
[8.9659,38.868],
[9.1204,39.1911],
[9.5926,39.1265],
[9.6686,39.6436],
[9.7474,39.6436],
[9.6653,40.2906],
[9.8232,40.3554],
[9.8217,40.744],
[9.5021,41.1977],
[9.1043,41.2625],
[9.0248,41.2625],
[8.552,40.8736],
[8.1546,40.9384]
]
],
[
[
[9.5414,47.4006],
[9.543,47.2032],
[9.6253,47.2032],
[9.6258,47.1374],
[9.9564,46.8743],
[10.2028,46.8743],
[10.3667,47.0058],
[10.3669,46.9401],
[10.4491,46.9401],
[10.4501,46.5459],
[10.532,46.5459],
[11.1879,46.6115],
[11.1056,46.4145],
[11.2694,46.4145],
[11.5159,46.6115],
[12.0905,46.6772],
[13.5649,46.5459],
[13.5627,46.4145],
[13.3978,46.3489],
[13.4765,46.1521],
[13.312,46.0865],
[13.308,45.8243],
[13.3896,45.8243],
[13.7149,45.7588],
[13.7102,45.4968],
[14.1175,45.4968],
[13.7869,45.235],
[14.027,45.0388],
[14.1894,45.0388],
[14.1962,45.3659],
[14.6031,45.3659],
[14.5985,45.1696],
[14.7595,45.1042],
[14.7564,44.9734],
[14.9187,44.9734],
[14.9089,44.5813],
[15.1484,44.4507],
[15.2293,44.4507],
[15.4777,44.6466],
[15.8849,44.7119],
[16.0387,44.4507],
[16.1984,44.3854],
[16.1941,44.2548],
[16.5198,44.3201],
[16.5243,44.4507],
[16.2859,44.5813],
[16.2946,44.8426],
[16.7932,45.1696],
[16.8027,45.4313],
[17.462,45.6278],
[17.4699,45.8243],
[17.5515,45.8243],
[17.4752,45.9554],
[17.1511,46.0209],
[16.9133,46.2177],
[16.9182,46.3489],
[17.2561,46.6115],
[17.2613,46.7429],
[17.6772,46.8743],
[18.1701,46.8743],
[18.1791,47.0716],
[17.9383,47.2032],
[17.9442,47.3348],
[18.1119,47.4006],
[18.2098,47.73],
[18.7087,47.7959],
[18.8876,48.0597],
[20.125,47.9938],
[20.4436,47.7959],
[20.6915,47.7959],
[21.1265,48.1257],
[21.2273,48.3899],
[21.9933,48.6542],
[22.0032,48.7865],
[22.341,48.8527],
[22.4398,49.0513],
[21.7983,49.3826],
[20.7129,49.3826],
[20.7038,49.25],
[20.4536,49.25],
[20.5459,49.3826],
[20.2119,49.3826],
[19.8655,49.1838],
[19.4725,49.5816],
[18.8798,49.4489],
[18.8873,49.5816],
[19.2376,49.8471],
[19.1658,50.0465],
[19.0819,50.0465],
[19.0899,50.1795],
[19.1739,50.1795],
[19.1861,50.3791],
[19.022,50.4457],
[19.0302,50.5789],
[18.7013,50.7121],
[18.7093,50.8455],
[18.0493,51.1124],
[17.9723,51.246],
[17.5493,51.246],
[17.3197,51.7142],
[16.9801,51.7142],
[16.719,51.5803],
[16.5556,51.7142],
[16.1311,51.7142],
[16.137,51.8481],
[15.8083,52.1163],
[15.814,52.2505],
[15.6462,52.3176],
[15.4703,52.1833],
[15.132,52.2505],
[15.0394,52.0492],
[14.8691,52.0492],
[14.7794,51.9151],
[14.616,52.1163],
[14.3605,52.1163],
[13.9404,52.3176],
[13.4254,52.1833],
[13.4221,52.0492],
[13.6758,51.9822],
[13.7573,51.8481],
[14.0973,51.8481],
[14.2633,51.7142],
[14.2515,51.3128],
[14.3362,51.3128],
[14.3265,50.9789],
[14.154,50.8455],
[13.3919,50.7121],
[12.7965,50.3791],
[12.3761,50.3791],
[12.2903,50.246],
[12.1223,50.246],
[12.1216,50.1795],
[12.3709,49.98],
[12.3676,49.7143],
[12.5341,49.6479],
[12.5324,49.5152],
[13.0296,49.25],
[13.3585,48.9851],
[13.525,48.9851],
[13.5238,48.9189],
[13.607,48.9189],
[14.1005,48.6542],
[13.8472,48.4559],
[13.1773,48.0597],
[13.1752,47.9278],
[13.4189,47.6641],
[13.4125,47.269],
[13.6595,47.269],
[13.7383,47.0716],
[13.0794,47.0058],
[12.8345,47.1374],
[12.7522,47.1374],
[12.1757,47.0716],
[12.1774,47.269],
[12.5081,47.4006],
[12.5109,47.6641],
[11.6026,47.5982],
[11.1896,47.4006],
[10.6124,47.5982],
[10.4474,47.5982],
[10.3657,47.3348],
[10.1185,47.3348],
[9.9527,47.5323],
[9.6228,47.5323],
[9.6238,47.4006],
[9.5414,47.4006]
],
[
[20.4536,49.25],
[20.4492,49.1838],
[20.3658,49.1838],
[20.3615,49.1175],
[20.2781,49.1175],
[20.2867,49.25],
[20.4536,49.25]
],
[
[13.9328,52.0492],
[13.9347,52.1163],
[14.1902,52.1163],
[14.2693,51.9151],
[13.9328,52.0492]
]
],
[
[
[9.8892,44.0591],
[9.8895,43.9938],
[9.9702,43.9938],
[9.9699,44.0591],
[9.8892,44.0591]
]
],
[
[
[12.4905,37.7062],
[13.192,37.5773],
[13.5784,37.2549],
[14.2779,37.126],
[14.661,36.7393],
[15.0498,36.7393],
[15.2139,37.1904],
[15.0592,37.2549],
[15.0665,37.6417],
[15.3895,38.1578],
[15.6243,38.1578],
[15.6982,37.9643],
[15.9328,37.9643],
[16.4919,38.416],
[16.5024,38.8034],
[17.1383,39.0618],
[17.0697,39.385],
[16.9162,39.5143],
[16.4473,39.6436],
[16.4567,39.967],
[16.6975,40.0964],
[16.6245,40.2906],
[16.8617,40.2906],
[16.945,40.4201],
[16.868,40.4849],
[17.0285,40.5496],
[17.3452,40.5496],
[17.4175,40.3554],
[17.8131,40.3554],
[18.1122,39.9023],
[18.3489,39.9023],
[18.3565,40.0964],
[18.4355,40.0964],
[18.3642,40.2906],
[17.9812,40.6144],
[17.5107,40.744],
[17.4361,40.8736],
[16.7329,41.1977],
[15.9439,41.3922],
[15.8738,41.7167],
[16.1149,41.7816],
[16.1189,41.9114],
[15.2414,41.9114],
[15.165,42.0413],
[14.924,41.9764],
[14.7659,42.0413],
[14.769,42.1712],
[14.6077,42.1063],
[14.5308,42.2362],
[14.3709,42.2362],
[13.9014,42.7563],
[13.9854,42.9515],
[13.9051,42.9515],
[13.5831,42.8864],
[13.3393,42.6912],
[13.099,42.6912],
[12.8561,42.4962],
[13.0097,42.0413],
[13.328,41.9764],
[13.4057,41.8465],
[13.8044,41.8465],
[13.9615,41.7167],
[14.0374,41.522],
[13.7929,41.1977],
[13.7918,41.1328],
[13.9506,41.1328],
[14.1046,40.8736],
[14.4219,40.8736],
[14.4179,40.6792],
[14.8934,40.6792],
[15.0414,40.2259],
[15.1995,40.2259],
[15.4319,40.0317],
[15.7478,40.0317],
[15.6655,39.9023],
[15.8989,39.7729],
[16.2652,38.7389],
[15.9497,38.6743],
[15.8621,38.2869],
[14.7634,38.1578],
[14.6046,38.0288],
[13.6652,37.9643],
[13.3547,38.1578],
[13.1199,38.1578],
[13.0404,38.0288],
[12.6498,38.0933],
[12.4919,37.8998],
[12.4905,37.7062]
]
],
[
[
[13.2444,51.7142],
[13.6673,51.6472],
[13.6706,51.7811],
[13.5857,51.7811],
[13.2474,51.8481],
[13.2444,51.7142]
]
]
]}
}
