{
"type": "Feature",
"properties": {"id":"cliopatria-new-netherland-1645","edge_precision":"unknown","cliopatria_name":"New Netherland","cliopatria_from_year":1645,"cliopatria_to_year":1647,"cliopatria_area_km2":90189,"cliopatria_wikidata":"Q382593","cliopatria_wikipedia":"New Netherland"},
"geometry": {"type": "MultiPolygon", "coordinates": [
[
[
[-75.154,40.0317],
[-75.1207,39.7729],
[-74.5222,40.0317],
[-74.5559,40.2906],
[-74.404,40.4849],
[-74.1665,40.4849],
[-74.1445,40.6144],
[-73.6408,40.5496],
[-73.4601,40.6792],
[-73.3809,40.6792],
[-73.7415,41.1328],
[-73.4529,41.1977],
[-73.3947,41.068],
[-73.2359,41.068],
[-73.2649,41.1328],
[-73.106,41.1328],
[-73.1351,41.1977],
[-73.3022,41.3922],
[-73.1725,41.4571],
[-73.0929,41.4571],
[-72.825,41.3922],
[-72.7667,41.2625],
[-72.4488,41.2625],
[-72.6423,42.0413],
[-72.7221,42.0413],
[-73.5506,42.1063],
[-73.8446,42.5612],
[-74.2582,42.7563],
[-74.263,42.4312],
[-74.343,42.4312],
[-74.2388,42.0413],
[-74.3186,42.0413],
[-74.1386,41.1328],
[-74.4689,40.8088],
[-74.411,40.6792],
[-74.5118,40.5496],
[-74.9799,40.3554],
[-74.8155,40.1612],
[-75.154,40.0317]
]
],
[
[
[-70.0191,12.5646],
[-69.9306,12.3717],
[-69.784,12.3717],
[-69.7891,12.436],
[-69.8725,12.5646],
[-70.0191,12.5646]
]
],
[
[
[-69.1245,12.3717],
[-69.1098,12.1789],
[-68.9584,12.1146],
[-68.9536,12.0503],
[-68.6559,11.986],
[-68.7435,12.1789],
[-69.1245,12.3717]
]
],
[
[
[-68.3869,12.3074],
[-68.382,12.2432],
[-68.2944,12.0503],
[-68.1479,12.0503],
[-68.1622,12.2432],
[-68.3869,12.3074]
]
],
[
[
[-63.1635,18.2219],
[-63.1409,18.0291],
[-62.9194,18.0291],
[-62.9269,18.0933],
[-63.1635,18.2219]
]
],
[
[
[-58.8946,6.7144],
[-58.8793,6.1358],
[-58.7319,6.0715],
[-58.7288,5.943],
[-58.3643,5.943],
[-57.77,5.4287],
[-57.2598,5.4287],
[-57.1908,5.6215],
[-57.1921,5.6858],
[-57.1248,5.943],
[-57.2037,6.2001],
[-57.2798,6.3287],
[-57.4986,6.3287],
[-57.8005,6.7144],
[-58.4624,6.9073],
[-58.4663,7.0359],
[-58.6832,6.9716],
[-58.7505,6.7787],
[-58.8946,6.7144]
]
],
[
[
[-36.6084,-5.1145],
[-36.4777,-5.8217],
[-36.2664,-6.1431],
[-36.344,-6.336],
[-36.1332,-6.6574],
[-36.074,-7.1717],
[-36.001,-7.1717],
[-36.0119,-7.5574],
[-35.7295,-7.8789],
[-35.5105,-7.8789],
[-35.2974,-8.0717],
[-35.3095,-8.4575],
[-35.537,-8.7146],
[-35.5435,-8.9075],
[-35.3309,-9.1003],
[-35.2579,-9.1003],
[-35.1718,-8.7146],
[-35.0215,-8.586],
[-34.9154,-7.4931],
[-34.8425,-7.4931],
[-35.0329,-6.4002],
[-35.0313,-6.336],
[-35.1757,-6.2717],
[-35.1654,-5.8217],
[-35.303,-5.4359],
[-35.5881,-5.1145],
[-36.6084,-5.1145]
]
]
]}
}
