{
"type": "Feature",
"properties": {"id":"cliopatria-bahmani-sultanate-1352","edge_precision":"unknown","cliopatria_name":"Bahmani Sultanate","cliopatria_from_year":1352,"cliopatria_to_year":1374,"cliopatria_area_km2":470821,"cliopatria_wikidata":"Q374521","cliopatria_wikipedia":"Bahmani Sultanate","cliopatria_seshat_id":"in_bahmani_sultanate"},
"geometry": {"type": "MultiPolygon", "coordinates": [
[
[
[72.6339,19.8291],
[72.7614,19.6362],
[72.7337,19.3791],
[72.8748,19.3148],
[72.9589,18.0291],
[73.3004,17.0647],
[73.2542,16.6147],
[73.5391,15.779],
[73.7474,15.6504],
[73.7901,15.329],
[73.9311,15.2647],
[73.9745,14.9432],
[74.3126,14.6218],
[74.3068,14.5575],
[74.4595,14.6218],
[74.5214,14.4932],
[74.6683,14.4932],
[74.7891,15.0075],
[75.1581,15.779],
[75.5048,16.2933],
[76.0677,16.7433],
[76.8186,16.8719],
[77.5346,16.679],
[78.7066,16.6147],
[79.8569,16.3576],
[80.1515,16.3576],
[80.7696,16.6147],
[80.8726,16.8719],
[81.0274,16.9362],
[81.5528,17.6433],
[81.7039,18.2862],
[81.529,18.6719],
[81.3889,18.7362],
[81.4046,18.8648],
[81.2645,18.9291],
[81.2801,19.0577],
[81.14,19.1219],
[81.0972,19.3791],
[80.957,19.4434],
[80.922,19.7648],
[80.7816,19.8291],
[80.8361,20.2791],
[80.9102,20.2791],
[80.8828,20.6648],
[80.9804,20.8577],
[80.9062,20.8577],
[80.9026,21.4363],
[80.8283,21.4363],
[80.8521,21.6291],
[80.5787,21.822],
[79.1509,21.6934],
[78.6743,21.4363],
[78.2287,21.4363],
[77.9089,21.2434],
[77.3967,21.3077],
[76.1123,21.1148],
[74.0445,20.5362],
[73.5254,20.5362],
[72.7631,20.3434],
[72.6339,19.8291]
]
]
]}
}
