{
"type": "Feature",
"properties": {"id":"cliopatria-indo-scythians-51bce","edge_precision":"unknown","cliopatria_name":"Indo-Scythians","cliopatria_from_year":-50,"cliopatria_to_year":-32,"cliopatria_area_km2":1273740,"cliopatria_wikidata":"Q240123","cliopatria_wikipedia":"Indo-Scythians"},
"geometry": {"type": "MultiPolygon", "coordinates": [
[
[
[60.9358,29.858],
[62.3037,29.4081],
[64.1197,29.4081],
[64.5298,29.6009],
[65.1247,29.5366],
[65.7631,29.7294],
[66.888,29.6652],
[66.9949,29.4081],
[67.1352,29.3438],
[66.9313,28.5724],
[67.0067,28.5724],
[66.9655,28.3153],
[67.0409,28.3153],
[67.0457,27.8652],
[67.121,27.8652],
[67.0623,27.4795],
[67.1745,27.2223],
[67.1966,26.3222],
[67.5021,25.8079],
[67.1121,25.1007],
[66.6398,24.9078],
[66.632,24.8435],
[67.1477,24.7792],
[67.3261,24.3935],
[67.2891,24.072],
[67.4384,24.072],
[67.4911,23.8792],
[67.6331,23.8149],
[68.1554,23.8149],
[68.1265,23.5577],
[68.3502,23.5577],
[68.3359,23.4291],
[68.5525,23.3649],
[68.8083,22.9791],
[69.4506,22.722],
[70.3653,22.9148],
[70.2625,22.6577],
[69.8695,22.4648],
[69.4974,22.4648],
[69.4093,22.3363],
[69.2605,22.3363],
[69.1998,22.4648],
[68.9765,22.4648],
[68.9495,22.2077],
[69.3487,21.7577],
[69.4974,21.7577],
[69.9032,21.372],
[69.8899,21.2434],
[70.2955,20.8577],
[70.7206,20.6648],
[71.3208,20.7291],
[71.4085,20.8577],
[72.1848,21.1791],
[72.3214,21.7577],
[72.1728,21.7577],
[72.1125,21.8863],
[72.3425,21.9505],
[72.378,22.272],
[72.5267,22.272],
[72.4912,21.9505],
[72.6117,21.6934],
[73.3619,21.7577],
[74.1413,22.0791],
[74.3201,22.9791],
[74.6965,23.622],
[74.9364,23.7506],
[75.1436,24.2006],
[75.3014,24.2649],
[75.5862,24.7149],
[75.8283,24.8435],
[75.9395,25.1007],
[76.3606,25.4221],
[76.5588,25.7436],
[76.7935,25.8079],
[77.4853,26.3865],
[78.2036,26.6437],
[78.2697,27.0295],
[78.1418,27.158],
[78.1237,27.4795],
[77.8458,27.6081],
[77.7303,27.8009],
[77.4407,27.8652],
[77.389,27.9938],
[76.798,28.0581],
[76.7463,28.1867],
[76.3177,28.3153],
[76.2662,28.4438],
[75.6987,28.6367],
[75.6596,28.8295],
[75.092,29.0224],
[75.0535,29.2152],
[74.7635,29.2795],
[74.4605,29.6652],
[74.309,29.6652],
[74.3731,29.9865],
[74.1088,30.1794],
[74.135,30.3079],
[73.8217,30.6292],
[73.8351,30.6935],
[73.1646,30.7578],
[72.7485,30.9506],
[72.4138,31.529],
[72.5734,31.9146],
[73.5854,33.0073],
[73.6005,33.0716],
[73.5239,33.0716],
[73.5236,33.7146],
[73.3555,33.9718],
[73.3892,34.422],
[72.8501,34.422],
[72.5876,34.2933],
[71.5561,34.1647],
[71.4792,34.1647],
[70.9558,34.229],
[70.7716,34.1004],
[70.8184,33.9718],
[70.5728,33.9075],
[69.9876,34.0361],
[69.7394,34.2933],
[66.8143,34.2933],
[66.6887,34.422],
[66.038,34.615],
[66.0665,34.7436],
[65.9265,34.8079],
[65.6179,34.8079],
[65.4149,34.9366],
[65.092,34.8723],
[64.5735,34.615],
[64.3239,34.1647],
[63.8726,33.8432],
[63.4264,32.3645],
[63.185,32.3002],
[63.1608,32.1717],
[62.8195,31.9789],
[62.4212,31.4647],
[61.9415,31.3362],
[61.8746,30.9506],
[60.9358,29.858]
]
]
]}
}
