{
"type": "Feature",
"properties": {"id":"cliopatria-despotate-of-epirus-1216","edge_precision":"unknown","cliopatria_name":"Despotate of Epirus","cliopatria_from_year":1216,"cliopatria_to_year":1219,"cliopatria_area_km2":68323,"cliopatria_wikidata":"Q187684","cliopatria_wikipedia":"Despotate of Epirus","cliopatria_seshat_id":"gr_epirus_despot"},
"geometry": {"type": "MultiPolygon", "coordinates": [
[
[
[19.2487,40.6144],
[19.4863,40.6144],
[19.4714,40.2906],
[19.6295,40.2906],
[20.0094,39.967],
[20.0003,39.7729],
[19.7637,39.7729],
[19.7578,39.6436],
[19.9125,39.5789],
[19.9184,39.7083],
[20.155,39.7083],
[20.2972,39.385],
[20.8355,39.1265],
[20.9078,38.9972],
[20.7475,38.9326],
[20.7414,38.8034],
[20.9737,38.7389],
[21.1933,38.416],
[22.5253,38.416],
[22.3934,38.868],
[23.0216,38.868],
[22.9583,39.1265],
[22.7973,39.0618],
[22.8125,39.3203],
[22.8163,39.385],
[22.7491,39.5789],
[22.5204,39.7083],
[22.5281,39.8376],
[22.1525,40.1612],
[22.1004,40.6144],
[21.5608,40.8736],
[21.489,41.0032],
[20.6194,41.068],
[20.5574,41.3922],
[20.4778,41.3922],
[20.5823,41.8465],
[20.5205,42.1712],
[20.0585,42.4962],
[19.725,42.2362],
[19.4659,41.8465],
[19.4627,41.7816],
[19.5424,41.7816],
[19.4501,41.522],
[19.5297,41.522],
[19.4438,41.3922],
[19.5233,41.3922],
[19.4376,41.2625],
[19.4985,40.8736],
[19.2545,40.744],
[19.2487,40.6144]
]
],
[
[
[20.0701,39.5789],
[20.1489,39.5789],
[20.1519,39.6436],
[20.0731,39.6436],
[20.0701,39.5789]
]
]
]}
}
