{
"type": "Feature",
"properties": {"id":"cliopatria-yenisei-kyrgyz-0793","edge_precision":"unknown","cliopatria_name":"Yenisei Kyrgyz","cliopatria_from_year":793,"cliopatria_to_year":839,"cliopatria_area_km2":167264,"cliopatria_wikidata":"Q83142","cliopatria_wikipedia":"Yenisei Kyrgyz"},
"geometry": {"type": "MultiPolygon", "coordinates": [
[
[
[89.8621,51.9151],
[90.1172,51.9151],
[90.0767,51.8481],
[90.2467,51.8481],
[90.2062,51.7811],
[90.6309,51.7811],
[90.5904,51.7142],
[90.7602,51.7142],
[90.7197,51.6472],
[91.144,51.6472],
[91.1035,51.5803],
[92.3757,51.5803],
[94.5843,52.2505],
[96.3824,52.5191],
[97.92,52.5191],
[97.8744,52.4519],
[98.2954,52.3176],
[98.25,52.2505],
[99.0112,52.1163],
[99.2797,52.3847],
[100.0728,52.7881],
[100.5485,52.8554],
[100.6441,52.99],
[100.5584,52.99],
[100.6064,53.0574],
[100.3113,53.1248],
[100.3217,53.2596],
[100.1499,53.2596],
[100.2578,53.5296],
[100.1344,53.5971],
[100.1833,53.6647],
[100.0109,53.6647],
[100.0226,53.7999],
[99.85,53.7999],
[99.8991,53.8676],
[99.7264,53.8676],
[99.7756,53.9352],
[99.6028,53.9352],
[99.652,54.0029],
[98.86,54.3417],
[98.7734,54.3417],
[98.8228,54.4095],
[98.4012,54.5453],
[98.4508,54.6132],
[96.822,54.8851],
[96.8713,54.9531],
[96.6099,54.9531],
[96.6592,55.0211],
[94.3841,54.8851],
[93.1982,54.6811],
[92.1401,54.2739],
[91.4792,53.7999],
[91.4348,53.7323],
[91.5211,53.7323],
[90.87,52.8554],
[89.9026,51.9822],
[89.8621,51.9151]
]
]
]}
}
