{
"type": "Feature",
"properties": {"id":"cliopatria-kingdom-of-italy-0587","edge_precision":"unknown","cliopatria_name":"Kingdom of Italy","cliopatria_from_year":587,"cliopatria_to_year":601,"cliopatria_area_km2":147965,"cliopatria_wikidata":"Q172579","cliopatria_wikipedia":"Kingdom of Italy"},
"geometry": {"type": "MultiPolygon", "coordinates": [
[
[
[6.6375,44.9734],
[6.9652,44.8426],
[6.8957,44.3201],
[7.1397,44.2548],
[7.227,43.9286],
[7.6293,43.9938],
[7.7078,44.1243],
[8.031,44.1243],
[8.1859,44.5813],
[8.4298,44.516],
[8.7522,44.6466],
[9.4824,44.516],
[9.5621,44.7119],
[9.2361,44.908],
[9.3151,45.1696],
[9.9654,45.1696],
[10.1284,45.0388],
[11.1029,44.9734],
[11.2655,45.0388],
[11.3474,45.235],
[11.673,45.3004],
[11.7559,45.5623],
[12.0834,45.7588],
[12.9824,45.8898],
[13.0614,45.6933],
[13.1429,45.6933],
[13.1448,45.8243],
[13.5517,45.7588],
[13.6333,45.7588],
[13.6355,45.8898],
[14.0424,45.8243],
[14.128,46.0209],
[13.7253,46.3489],
[13.7276,46.4802],
[12.0905,46.6772],
[11.9251,46.4802],
[11.5151,46.4145],
[10.5323,46.4145],
[10.3679,46.6115],
[10.0399,46.6115],
[10.0409,46.4145],
[10.1228,46.4145],
[10.0415,46.2833],
[9.55,46.3489],
[9.3851,46.4802],
[9.1427,46.1521],
[8.2432,46.1521],
[7.838,45.9554],
[6.9396,45.9554],
[6.7795,45.8243],
[6.7827,45.6933],
[7.1132,45.4968],
[7.1176,45.3004],
[6.714,45.1696],
[6.6375,44.9734]
]
],
[
[
[9.6447,44.4507],
[9.6455,44.3201],
[9.9697,44.1243],
[9.9699,44.0591],
[10.1314,44.0591],
[10.2933,43.8634],
[10.5353,43.0816],
[11.0163,42.8213],
[11.0158,42.6262],
[11.176,42.6262],
[11.2552,42.4312],
[11.4949,42.3662],
[11.5748,42.3662],
[11.9784,42.8213],
[11.5795,43.1467],
[11.6628,43.6027],
[11.2609,43.7982],
[11.2619,44.0591],
[10.4543,44.1896],
[9.9684,44.4507],
[9.6447,44.4507]
]
],
[
[
[12.3828,43.1467],
[12.5359,42.4962],
[13.0097,42.0413],
[13.328,41.9764],
[13.4057,41.8465],
[13.8044,41.8465],
[13.9615,41.7167],
[14.0374,41.522],
[13.7929,41.1977],
[13.7918,41.1328],
[13.9506,41.1328],
[13.9483,41.0032],
[14.5039,41.0032],
[14.5791,40.8088],
[14.9756,40.8088],
[15.2025,40.3554],
[15.9847,40.0317],
[15.976,39.7083],
[16.4491,39.7083],
[16.4567,39.967],
[16.6975,40.0964],
[16.6245,40.2906],
[16.7056,40.3554],
[16.7847,40.3554],
[16.7909,40.5496],
[16.2463,40.8736],
[16.2482,40.9384],
[16.0895,40.9384],
[16.0933,41.068],
[16.2541,41.1328],
[16.2601,41.3274],
[16.1011,41.3274],
[16.103,41.3922],
[15.9439,41.3922],
[15.9458,41.4571],
[15.8663,41.4571],
[15.6294,41.522],
[15.6348,41.7167],
[16.0332,41.7167],
[16.1189,41.9114],
[15.2414,41.9114],
[15.165,42.0413],
[15.0037,41.9764],
[14.6048,41.9764],
[14.5293,42.1712],
[14.5308,42.2362],
[14.3709,42.2362],
[14.3723,42.3012],
[14.2924,42.3012],
[14.2938,42.3662],
[14.2138,42.3662],
[14.2152,42.4312],
[14.1352,42.4312],
[14.1365,42.4962],
[13.8164,42.4962],
[13.8188,42.6262],
[13.6598,42.6912],
[13.5888,43.2118],
[13.1124,43.6027],
[12.7098,43.6027],
[12.5472,43.4723],
[12.5449,43.2769],
[12.3828,43.1467]
]
],
[
[
[16.7826,40.2906],
[16.8617,40.2906],
[16.8638,40.3554],
[16.7847,40.3554],
[16.7826,40.2906]
]
]
]}
}
