{
"type": "Feature",
"properties": {"id":"cliopatria-halych-volhynia-occupation-1056","edge_precision":"unknown","cliopatria_name":"Halych-Volhynia occupation","cliopatria_from_year":1056,"cliopatria_to_year":1065,"cliopatria_area_km2":277331,"cliopatria_wikidata":"Q239502","cliopatria_wikipedia":"Kingdom of Galicia-Volhynia"},
"geometry": {"type": "MultiPolygon", "coordinates": [
[
[
[26.3205,48.7204],
[26.3899,48.5881],
[27.3106,48.6542],
[27.4695,48.5881],
[27.3719,48.4559],
[27.6209,48.4559],
[27.6891,48.3238],
[27.9379,48.3238],
[28.0887,48.1917],
[28.2619,48.2578],
[28.3297,48.1257],
[28.4953,48.1257],
[28.5477,47.8619],
[28.9533,47.7959],
[28.9076,47.4006],
[29.1395,47.269],
[29.1243,47.1374],
[29.5717,46.7429],
[29.5564,46.6115],
[29.8024,46.6115],
[29.9508,46.4802],
[29.9354,46.3489],
[30.2628,46.3489],
[30.3211,46.1521],
[30.4847,46.1521],
[30.8766,46.6772],
[31.6064,46.6115],
[31.7875,46.7429],
[32.0337,46.7429],
[32.1891,46.6772],
[32.1631,46.4802],
[31.8354,46.4802],
[31.8183,46.3489],
[32.064,46.3489],
[32.3654,46.1521],
[32.8471,46.0865],
[32.9467,46.2177],
[33.5919,46.1521],
[33.6103,46.2833],
[34.0194,46.2833],
[34.0825,46.1521],
[34.7367,46.1521],
[34.756,46.2833],
[35.247,46.2833],
[35.6346,46.6772],
[36.8044,46.8086],
[36.9079,46.9401],
[37.2257,46.8743],
[37.1652,47.0058],
[37.5161,47.1374],
[38.6795,47.2032],
[38.9498,47.3348],
[39.0321,47.3348],
[39.2342,47.9938],
[39.1051,48.1917],
[39.1666,48.522],
[38.8839,48.7865],
[38.9088,48.9189],
[38.684,49.0513],
[38.6509,49.3163],
[38.4966,49.3826],
[38.3476,49.9136],
[38.2638,49.9136],
[38.2897,50.0465],
[37.9928,50.246],
[38.0189,50.3791],
[37.7025,50.0465],
[37.6899,49.98],
[37.2091,49.6479],
[35.4074,49.3826],
[31.5668,49.3826],
[29.3875,49.3163],
[27.3163,49.4489],
[26.8621,49.1175],
[26.6954,49.1175],
[26.3273,48.7865],
[26.3205,48.7204]
]
],
[
[
[32.6053,45.4968],
[33.2214,45.235],
[33.4654,45.235],
[33.6823,45.0388],
[33.7635,45.0388],
[34.2416,44.9734],
[34.3763,44.7773],
[34.4574,44.7773],
[35.2971,44.9734],
[35.4073,45.1696],
[35.7324,45.1696],
[35.8753,45.0388],
[36.3726,45.1042],
[36.4231,45.4313],
[35.0199,45.3004],
[34.9864,45.6278],
[34.7419,45.6278],
[34.5446,45.9554],
[34.1549,46.0865],
[33.737,46.0209],
[33.7096,45.8243],
[32.6053,45.4968]
]
]
]}
}
