{
"type": "Feature",
"properties": {"id":"cliopatria-huns-0106","edge_precision":"unknown","cliopatria_name":"Huns","cliopatria_from_year":106,"cliopatria_to_year":370,"cliopatria_area_km2":58475,"cliopatria_wikidata":"Q45813","cliopatria_wikipedia":"Huns"},
"geometry": {"type": "MultiPolygon", "coordinates": [
[
[
[46.6074,44.7119],
[46.7696,44.7119],
[46.7836,44.7773],
[46.6214,44.7773],
[46.6074,44.7119]
]
],
[
[
[47.1657,46.1521],
[47.2037,45.9554],
[47.3524,45.8898],
[47.3088,45.6933],
[48.0574,45.7588],
[48.3471,45.9554],
[48.5921,45.9554],
[48.6376,46.1521],
[49.0618,46.2177],
[49.3032,46.5459],
[49.9908,46.6772],
[50.3016,46.9401],
[50.8442,47.1374],
[51.5846,47.1374],
[51.8145,47.0716],
[51.8629,46.9401],
[53.1128,47.0058],
[53.2423,46.8743],
[53.1902,46.6772],
[53.2723,46.6772],
[53.268,46.3489],
[53.3499,46.3489],
[53.2474,45.9554],
[53.0671,45.8898],
[53.0646,45.5623],
[53.4214,45.3659],
[53.6656,45.3659],
[53.8794,45.5623],
[54.2868,45.5623],
[54.5602,46.2833],
[54.4784,46.2833],
[54.5492,46.5459],
[54.4672,46.5459],
[54.5207,46.7429],
[53.6843,47.5982],
[53.0957,47.8619],
[51.2601,47.7959],
[49.9712,47.5982],
[49.5761,47.3348],
[49.4114,47.3348],
[48.7093,46.8086],
[48.3808,46.8086],
[47.7009,46.3489],
[47.1657,46.1521]
]
],
[
[
[53.084,45.9554],
[53.1657,45.9554],
[53.1827,46.0209],
[53.101,46.0209],
[53.084,45.9554]
]
]
]}
}
