{
"type": "Feature",
"properties": {"id":"cliopatria-electorate-of-hesse-1815","edge_precision":"unknown","cliopatria_name":"Electorate of Hesse","cliopatria_from_year":1815,"cliopatria_to_year":1819,"cliopatria_area_km2":10530,"cliopatria_wikidata":"Q529605","cliopatria_wikipedia":"Electorate of Hesse"},
"geometry": {"type": "MultiPolygon", "coordinates": [
[
[
[8.0006,50.5789],
[8.5891,50.6455],
[8.6716,50.7788],
[8.8402,50.7788],
[8.926,50.6455],
[9.263,50.6455],
[9.3461,50.7788],
[9.4305,50.7788],
[9.8517,50.8455],
[10.0195,51.1792],
[9.9343,51.3797],
[9.6802,51.3797],
[9.6809,51.246],
[9.4275,51.1792],
[9.4261,51.3797],
[9.5944,51.5803],
[9.3389,51.7142],
[8.831,51.5803],
[8.8341,51.3128],
[8.6665,51.1792],
[8.4973,51.1792],
[8.4964,51.246],
[8.0734,51.246],
[8.0006,50.5789]
]
],
[
[
[8.6555,52.0492],
[8.9109,52.0492],
[8.9088,52.2505],
[8.7383,52.2505],
[8.6555,52.0492]
]
]
]}
}
