{
"type": "Feature",
"properties": {"id":"cliopatria-kingdom-of-bavaria-1806","edge_precision":"unknown","cliopatria_name":"Kingdom of Bavaria","cliopatria_from_year":1806,"cliopatria_to_year":1806,"cliopatria_area_km2":84896,"cliopatria_wikidata":"Q154195","cliopatria_wikipedia":"Kingdom of Bavaria"},
"geometry": {"type": "MultiPolygon", "coordinates": [
[
[
[9.4572,47.5982],
[9.6228,47.5323],
[9.5425,47.269],
[9.543,47.2032],
[9.6253,47.2032],
[9.6258,47.1374],
[9.9564,46.8743],
[10.2028,46.8743],
[10.2845,47.0058],
[10.3669,46.9401],
[10.4491,46.9401],
[10.4497,46.6772],
[10.3677,46.6772],
[10.3679,46.6115],
[10.5322,46.4802],
[10.4518,45.8243],
[10.6967,45.6933],
[11.1045,45.7588],
[11.1047,45.8898],
[11.3503,46.0865],
[11.6772,46.0865],
[11.8415,46.2177],
[11.8431,46.4802],
[12.0905,46.6772],
[12.3366,46.6772],
[12.093,47.0058],
[12.1774,47.269],
[12.5081,47.4006],
[12.5109,47.6641],
[12.7585,47.6641],
[12.8394,47.5323],
[13.0878,47.5982],
[12.9245,47.73],
[12.9272,47.9278],
[12.7626,47.9938],
[12.7651,48.1917],
[13.2642,48.3238],
[13.4346,48.5881],
[13.6838,48.5881],
[13.7708,48.7865],
[13.6889,48.8527],
[13.6057,48.8527],
[13.443,49.0513],
[13.2763,49.0513],
[13.113,49.25],
[12.5324,49.5152],
[12.5341,49.6479],
[12.3676,49.7143],
[12.3709,49.98],
[12.1216,50.1795],
[11.8697,50.1795],
[11.7841,49.98],
[11.5317,49.8471],
[11.3645,49.9136],
[11.1131,49.9136],
[11.0289,49.7807],
[10.8615,49.7807],
[10.8613,49.6479],
[10.694,49.6479],
[10.1927,49.4489],
[10.1923,49.5816],
[10.3595,49.5816],
[10.443,49.7143],
[10.2756,49.7143],
[10.2758,49.6479],
[10.1085,49.6479],
[10.1097,49.3163],
[9.9435,49.1838],
[10.1111,48.9851],
[10.1125,48.6542],
[9.9471,48.522],
[9.5315,48.5881],
[9.616,48.3899],
[9.699,48.3899],
[9.9485,48.2578],
[10.0324,48.0597],
[9.9496,48.0597],
[9.9508,47.8619],
[9.4572,47.5982]
]
]
]}
}
