{
"type": "Feature",
"properties": {"id":"cliopatria-merina-kingdom-1796","edge_precision":"unknown","cliopatria_name":"Merina Kingdom","cliopatria_from_year":1796,"cliopatria_to_year":1802,"cliopatria_area_km2":85401,"cliopatria_wikidata":"Q1071439","cliopatria_wikipedia":"Merina Kingdom"},
"geometry": {"type": "MultiPolygon", "coordinates": [
[
[
[45.3101,-18.9363],
[45.3286,-19.2578],
[45.4915,-19.5149],
[45.7136,-19.5149],
[45.6845,-20.2864],
[45.7586,-20.2864],
[45.7848,-20.7364],
[45.7106,-20.7364],
[45.6626,-21.1864],
[46.1823,-21.1864],
[46.3117,-20.8649],
[46.6085,-20.8649],
[46.7724,-21.1221],
[47.1357,-20.9935],
[47.2178,-21.1221],
[47.5147,-21.1221],
[47.6355,-20.6721],
[47.7838,-20.6721],
[47.6741,-20.0935],
[47.9385,-19.5792],
[47.9146,-19.1935],
[48.0505,-19.0006],
[47.9527,-18.6149],
[48.0266,-18.6149],
[48.0226,-18.5506],
[48.0965,-18.5506],
[48.0727,-18.1649],
[47.9093,-17.9077],
[47.544,-17.972],
[47.3072,-17.7149],
[47.0933,-17.8435],
[46.9457,-17.8435],
[46.8643,-17.7149],
[46.4953,-17.7149],
[46.2112,-17.9077],
[45.8346,-17.7792],
[45.7165,-18.2935],
[45.421,-18.2935],
[45.4469,-18.7435],
[45.3101,-18.9363]
]
]
]}
}
