{
"type": "Feature",
"properties": {"id":"cliopatria-khoshut-khanate-1683","edge_precision":"unknown","cliopatria_name":"Khoshut Khanate","cliopatria_from_year":1683,"cliopatria_to_year":1686,"cliopatria_area_km2":166115,"cliopatria_wikidata":"Q10921634","cliopatria_wikipedia":"Khoshut Khanate"},
"geometry": {"type": "MultiPolygon", "coordinates": [
[
[
[92.5901,39.2557],
[93.2194,39.4496],
[93.5079,39.385],
[93.8759,39.5143],
[94.5061,39.5143],
[94.7176,39.6436],
[96.2153,39.6436],
[96.1877,39.5789],
[97.2078,39.385],
[97.9088,38.9972],
[98.2231,38.9972],
[98.3841,39.1911],
[98.9068,39.1265],
[99.1984,39.2557],
[99.8104,38.4806],
[100.2264,38.3515],
[100.3354,38.6097],
[99.8962,38.868],
[100.0638,39.2557],
[100.9738,40.2259],
[101.1073,40.6792],
[101.0281,40.6792],
[101.0724,40.9384],
[99.75,41.3274],
[99.7812,41.3922],
[99.2244,41.3922],
[99.2556,41.4571],
[98.9373,41.4571],
[98.9684,41.522],
[97.3401,41.7816],
[97.2604,41.7816],
[97.2913,41.8465],
[97.2115,41.8465],
[96.5863,42.0413],
[96.6484,42.1712],
[96.5197,42.2362],
[96.5163,42.5612],
[95.7609,42.8213],
[94.4814,41.4571],
[94.2928,41.3922],
[93.9247,40.744],
[93.1964,39.967],
[92.7471,39.6436],
[92.5901,39.2557]
]
]
]}
}
