{
"type": "Feature",
"properties": {"id":"cliopatria-second-bulgarian-empire-1344","edge_precision":"unknown","cliopatria_name":"Second Bulgarian Empire","cliopatria_from_year":1344,"cliopatria_to_year":1351,"cliopatria_area_km2":116345,"cliopatria_wikidata":"Q420759","cliopatria_wikipedia":"Second Bulgarian Empire"},
"geometry": {"type": "MultiPolygon", "coordinates": [
[
[
[21.9328,43.0165],
[22.1606,42.8213],
[22.2236,42.5612],
[22.4637,42.5612],
[22.3664,42.3012],
[22.5132,42.1063],
[24.5742,41.9114],
[25.1915,41.6518],
[26.2325,41.7167],
[26.5742,41.9764],
[27.0649,42.1063],
[27.3843,42.1063],
[27.4519,41.9764],
[27.9307,41.9764],
[27.937,42.0413],
[27.4949,42.4312],
[27.5135,42.6262],
[27.8466,42.7563],
[27.8049,43.1467],
[27.8982,43.2769],
[28.2264,43.3421],
[28.1592,43.4723],
[28.4811,43.4723],
[28.6163,43.9938],
[28.5356,43.9938],
[28.5769,44.3854],
[28.8407,44.5813],
[28.802,44.9734],
[29.0456,44.9734],
[29.0241,44.7773],
[29.1052,44.7773],
[29.5253,44.908],
[29.6584,45.3659],
[29.577,45.3659],
[29.5845,45.4313],
[29.096,45.4313],
[28.6677,45.235],
[28.3494,45.3004],
[28.2819,45.4313],
[28.0376,45.4313],
[27.8613,45.3004],
[27.8479,45.1696],
[27.9969,45.0388],
[27.9699,44.7773],
[27.801,44.7119],
[27.7877,44.5813],
[27.943,44.516],
[27.8289,44.1896],
[27.4927,44.0591],
[26.2814,44.0591],
[25.8486,43.733],
[25.4343,43.6027],
[24.8814,43.733],
[24.1509,43.6678],
[23.6018,43.8634],
[22.9518,43.7982],
[22.8946,44.1243],
[22.6569,44.1896],
[22.2262,43.7982],
[22.0302,43.2769],
[21.9498,43.2769],
[21.9328,43.0165]
]
]
]}
}
