{
"type": "Feature",
"properties": {"id":"cliopatria-duchy-of-mecklenburg-1834","edge_precision":"unknown","cliopatria_name":"Duchy of Mecklenburg","cliopatria_from_year":1834,"cliopatria_to_year":1835,"cliopatria_area_km2":11255,"cliopatria_wikidata":"Q109252949","cliopatria_wikipedia":"Duchy of Mecklenburg"},
"geometry": {"type": "MultiPolygon", "coordinates": [
[
[
[10.6173,53.3946],
[11.1324,53.2596],
[11.1329,53.3271],
[11.3061,53.4621],
[11.5635,53.3946],
[11.7381,53.5971],
[11.9104,53.5971],
[11.9094,53.5296],
[12.1656,53.3946],
[12.6817,53.3946],
[12.6844,53.5296],
[12.8566,53.5296],
[12.8596,53.6647],
[13.0335,53.7323],
[12.9504,53.8676],
[13.0383,53.9352],
[12.6104,54.1384],
[12.6132,54.2739],
[12.4425,54.4095],
[12.3558,54.4095],
[11.5728,54.2061],
[11.3111,54.0029],
[11.2247,54.0029],
[11.0508,53.8676],
[11.0498,53.7323],
[10.7907,53.6647],
[10.79,53.5296],
[10.7039,53.5296],
[10.7036,53.4621],
[10.6176,53.4621],
[10.6173,53.3946]
]
]
]}
}
