{
"type": "Feature",
"properties": {"id":"cliopatria-cimmerian-bosporus-0371","edge_precision":"unknown","cliopatria_name":"Cimmerian Bosporus","cliopatria_from_year":371,"cliopatria_to_year":372,"cliopatria_area_km2":40185,"cliopatria_wikidata":"Q321371","cliopatria_wikipedia":"Bosporan Kingdom"},
"geometry": {"type": "MultiPolygon", "coordinates": [
[
[
[32.9224,45.4313],
[33.6101,45.1042],
[33.5476,44.6466],
[33.4665,44.6466],
[33.521,44.4507],
[33.9256,44.4507],
[34.3763,44.7773],
[35.2971,44.9734],
[35.4073,45.1696],
[35.7324,45.1696],
[35.8753,45.0388],
[36.3726,45.1042],
[36.4231,45.4313],
[35.0199,45.3004],
[34.9864,45.6278],
[34.7419,45.6278],
[34.5978,45.7588],
[34.6167,45.8898],
[34.0175,45.6933],
[33.936,45.6933],
[32.9224,45.4313]
]
],
[
[
[36.7487,45.4313],
[36.7789,45.1042],
[37.1039,45.1042],
[37.5285,44.7119],
[37.9338,44.7119],
[38.1173,44.8426],
[38.3879,45.4968],
[39.0705,46.1521],
[39.0819,46.2177],
[39.2915,46.4802],
[39.3379,46.7429],
[39.5138,46.8086],
[39.5492,47.0058],
[39.7374,47.1374],
[39.7153,47.4665],
[39.6328,47.4665],
[39.2445,47.5982],
[38.4902,47.5323],
[38.3502,47.2032],
[39.1969,47.3348],
[39.2203,47.0058],
[38.8915,47.0058],
[38.7863,46.8743],
[38.622,46.8743],
[38.4946,46.6115],
[37.8386,46.6115],
[37.8986,46.4802],
[38.3679,46.3489],
[38.3346,46.1521],
[37.8931,45.9554],
[37.7577,45.6278],
[37.5947,45.6278],
[37.747,45.5623],
[37.7044,45.3004],
[36.9723,45.3004],
[36.9116,45.4313],
[36.7487,45.4313]
]
]
]}
}
