{
"type": "Feature",
"properties": {"id":"cliopatria-principality-of-jersika-1206","edge_precision":"unknown","cliopatria_name":"Principality of Jersika","cliopatria_from_year":1206,"cliopatria_to_year":1209,"cliopatria_area_km2":23277,"cliopatria_wikidata":"Q1687929","cliopatria_wikipedia":"Principality of Jersika"},
"geometry": {"type": "MultiPolygon", "coordinates": [
[
[
[24.6075,56.7311],
[24.6959,56.7311],
[24.6872,56.6623],
[24.7756,56.6623],
[24.7844,56.7311],
[24.8729,56.7311],
[24.864,56.6623],
[25.1292,56.6623],
[25.446,56.3877],
[25.7105,56.3877],
[26.1919,56.0451],
[25.9973,55.9082],
[26.4078,55.7031],
[26.4955,55.7031],
[26.8658,55.8398],
[27.2946,55.7715],
[27.47,55.7715],
[27.9716,56.1821],
[28.1477,56.1821],
[28.1798,56.3877],
[28.1239,56.5937],
[27.8803,56.7311],
[27.9018,56.8686],
[27.8132,56.8686],
[27.6574,57.0063],
[26.3472,57.144],
[26.3671,57.2819],
[26.1102,57.3509],
[25.3893,57.2819],
[25.2726,57.0751],
[25.0064,57.0751],
[24.6075,56.7311]
]
]
]}
}
