{
"type": "Feature",
"properties": {"id":"cliopatria-hamdanid-emirates-1216","edge_precision":"unknown","cliopatria_name":"Hamdanid Emirates","cliopatria_from_year":1216,"cliopatria_to_year":1219,"cliopatria_area_km2":115016,"cliopatria_wikidata":"Q837187","cliopatria_wikipedia":"Hamdanid dynasty"},
"geometry": {"type": "MultiPolygon", "coordinates": [
[
[
[38.6656,40.6792],
[38.8049,40.5496],
[38.7671,40.2906],
[39.1436,40.1612],
[39.2226,40.1612],
[39.6776,40.0317],
[40.0324,40.2906],
[40.9328,40.4849],
[41.1638,40.9384],
[40.5674,40.6792],
[38.6656,40.6792]
]
],
[
[
[38.7448,38.416],
[38.9015,38.416],
[39.242,38.0288],
[39.438,37.126],
[40.356,36.9971],
[40.918,37.126],
[40.9618,36.8682],
[41.1004,36.7393],
[41.8607,36.6105],
[42.737,37.3193],
[43.3607,37.3193],
[43.3203,37.5773],
[43.5545,37.5773],
[43.5736,37.7062],
[44.4426,37.7707],
[44.306,37.8998],
[44.4545,38.3515],
[44.3762,38.3515],
[44.3224,38.9972],
[44.5219,39.2557],
[44.8474,39.3203],
[44.8691,39.4496],
[42.9792,39.4496],
[42.4179,39.385],
[42.3878,39.1911],
[41.6703,39.1265],
[40.7552,39.3203],
[40.2644,39.1911],
[39.9918,38.9326],
[39.8347,38.9326],
[39.8167,38.8034],
[38.7448,38.416]
]
],
[
[
[48.1186,41.5869],
[48.2778,41.5869],
[48.4774,41.7816],
[48.3977,41.7816],
[48.4112,41.8465],
[48.3315,41.8465],
[48.345,41.9114],
[48.2652,41.9114],
[48.1192,41.9764],
[48.1319,41.6518],
[48.1186,41.5869]
]
]
]}
}
