{
"type": "Feature",
"properties": {"id":"cliopatria-republic-of-azerbaijan-1996","edge_precision":"unknown","cliopatria_name":"Republic of Azerbaijan","cliopatria_from_year":1996,"cliopatria_to_year":2023,"cliopatria_area_km2":70479,"cliopatria_wikidata":"Q227","cliopatria_wikipedia":"Azerbaijan"},
"geometry": {"type": "MultiPolygon", "coordinates": [
[
[
[44.8343,39.7083],
[44.8691,39.4496],
[45.5795,38.9972],
[45.6581,38.9972],
[45.872,38.868],
[46.1185,38.9326],
[46.0842,39.1911],
[45.8705,39.3203],
[45.8928,39.4496],
[45.7578,39.5789],
[45.4315,39.5143],
[45.1496,39.7083],
[44.8343,39.7083]
]
],
[
[
[45.1117,41.2625],
[45.3019,41.0032],
[45.5953,40.8736],
[45.4567,40.5496],
[45.5915,40.4201],
[46.1889,40.2259],
[46.3589,40.2906],
[46.438,40.2906],
[46.5411,40.4201],
[46.8698,40.4849],
[46.9368,40.4201],
[46.7974,40.0964],
[46.9986,39.9023],
[47.3143,39.9023],
[47.2785,39.7083],
[47.4362,39.7083],
[47.4913,39.5789],
[48.1338,39.6436],
[48.334,39.4496],
[48.2195,39.2557],
[48.251,38.9972],
[48.0822,38.9326],
[48.0591,38.8034],
[48.3269,38.5451],
[48.7858,38.4806],
[48.7974,38.5451],
[48.801,38.9972],
[48.9155,39.1911],
[49.1514,39.1911],
[49.2666,39.385],
[49.4045,40.0964],
[49.6933,40.3554],
[50.2604,40.4201],
[50.0495,40.5496],
[49.5084,40.6144],
[49.2442,40.8736],
[49.2707,41.0032],
[49.0592,41.1328],
[49.086,41.2625],
[48.5571,41.7816],
[48.4774,41.7816],
[47.8937,41.2625],
[47.5629,41.1977],
[47.2706,41.3274],
[46.7367,41.8465],
[46.4177,41.8465],
[46.2075,41.5869],
[46.5803,41.4571],
[46.714,41.3274],
[46.6763,41.1328],
[46.4256,41.068],
[46.2915,41.1977],
[45.8942,41.1977],
[45.6927,41.3922],
[45.2154,41.3922],
[45.1117,41.2625]
]
]
]}
}
