{
"type": "Feature",
"properties": {"id":"cliopatria-belgian-congo-1961","edge_precision":"unknown","cliopatria_name":"Belgian Congo","cliopatria_from_year":1961,"cliopatria_to_year":1962,"cliopatria_area_km2":49842,"cliopatria_wikidata":"Q213510","cliopatria_wikipedia":"Belgian Congo"},
"geometry": {"type": "MultiPolygon", "coordinates": [
[
[
[28.8125,-2.3501],
[28.8149,-2.6716],
[28.9611,-2.7359],
[28.9626,-2.9287],
[29.1827,-3.1216],
[29.1114,-3.3144],
[29.112,-3.3787],
[29.2582,-3.443],
[29.1876,-3.7002],
[29.4084,-3.9573],
[29.3374,-4.1502],
[29.5577,-4.343],
[29.5584,-4.4073],
[29.9214,-4.2788],
[30.1357,-3.8287],
[30.7125,-3.1859],
[30.7108,-2.993],
[30.4923,-2.993],
[30.4184,-2.8644],
[30.4179,-2.8001],
[30.344,-2.6716],
[30.4147,-2.4144],
[30.7054,-2.3501],
[30.7772,-2.2216],
[30.7732,-1.7073],
[30.3324,-1.1287],
[30.1868,-1.1287],
[29.8979,-1.4501],
[29.533,-1.3215],
[29.1709,-1.5787],
[29.1013,-2.0287],
[28.8125,-2.3501]
]
]
]}
}
