{
"type": "Feature",
"properties": {"id":"cliopatria-duchy-of-gascony-0806","edge_precision":"unknown","cliopatria_name":"Duchy of Gascony","cliopatria_from_year":806,"cliopatria_to_year":824,"cliopatria_area_km2":9177,"cliopatria_wikidata":"Q2295939","cliopatria_wikipedia":"Duchy of Gascony"},
"geometry": {"type": "MultiPolygon", "coordinates": [
[
[
[-3.1949,43.0816],
[-3.0293,43.0165],
[-3.0142,42.8213],
[-2.934,42.8213],
[-2.9993,42.6262],
[-2.1984,42.6262],
[-2.1938,42.5612],
[-2.1137,42.5612],
[-1.8207,42.9515],
[-1.4329,43.1467],
[-1.4418,43.2769],
[-1.6876,43.3421],
[-3.1402,43.4072],
[-3.1949,43.0816]
]
]
]}
}
