{
"type": "Feature",
"properties": {"id":"cliopatria-chu-278bce","edge_precision":"unknown","cliopatria_name":"Chu","cliopatria_from_year":-277,"cliopatria_to_year":-248,"cliopatria_area_km2":505655,"cliopatria_wikidata":"Q504759","cliopatria_wikipedia":"Chu (state)","cliopatria_seshat_id":"cn_chu_k_warring_states","cliopatria_member_of":"(Warring States China)"},
"geometry": {"type": "MultiPolygon", "coordinates": [
[
[
[110.3587,29.9223],
[110.6618,29.9223],
[111.2987,29.5366],
[111.8086,29.4723],
[111.9959,29.3438],
[112.9037,29.3438],
[113.2668,29.5366],
[113.5836,30.0508],
[113.9506,30.2436],
[114.1127,30.5007],
[114.8719,30.5007],
[115.2078,30.3722],
[115.6851,30.4364],
[116.1186,30.3722],
[116.1506,30.2436],
[116.1289,30.1794],
[116.27,29.9223],
[116.7364,29.7294],
[118.3597,29.6009],
[119.7026,29.9865],
[120.5205,30.3722],
[120.7253,30.3079],
[120.8012,30.3079],
[121.5192,30.822],
[121.8993,30.822],
[121.9953,31.0791],
[121.7366,31.4005],
[121.5843,31.4005],
[121.6335,31.529],
[121.4811,31.529],
[121.4544,31.6575],
[120.9191,31.8503],
[121.3005,31.8503],
[121.8356,31.6575],
[121.9368,31.7218],
[121.9613,31.9789],
[121.5033,32.1717],
[121.4026,32.4931],
[120.9192,32.6216],
[120.9263,33.2002],
[120.5505,33.5859],
[120.4894,34.1647],
[120.3418,34.3577],
[119.9847,34.422],
[119.8864,34.5506],
[119.8094,34.5506],
[119.459,34.8079],
[119.2276,34.8079],
[119.6187,35.5158],
[120.0158,35.7089],
[120.0451,35.7733],
[118.2639,35.7733],
[117.5097,35.6445],
[116.3292,35.0653],
[115.8064,34.7436],
[114.4721,34.8723],
[113.6738,34.8079],
[113.44,34.615],
[111.5902,34.615],
[111.0252,34.7436],
[110.7168,34.7436],
[110.6653,34.615],
[110.8196,34.422],
[110.7687,34.2933],
[111.1292,34.0361],
[111.1578,33.7146],
[111.7002,33.3288],
[111.6512,33.2002],
[111.7839,32.943],
[111.7117,32.7502],
[111.8408,32.6859],
[111.9047,32.236],
[112.0341,32.1717],
[111.9876,32.0431],
[112.1171,31.9789],
[112.071,31.8503],
[112.2846,31.5933],
[112.2706,31.3362],
[112.4005,31.2719],
[112.356,31.1434],
[112.518,30.9506],
[110.3789,29.9865],
[110.3587,29.9223]
]
]
]}
}
