{
"type": "Feature",
"properties": {"id":"cliopatria-first-bulgarian-empire-0814","edge_precision":"unknown","cliopatria_name":"First Bulgarian Empire","cliopatria_from_year":814,"cliopatria_to_year":824,"cliopatria_area_km2":324494,"cliopatria_wikidata":"Q203817","cliopatria_wikipedia":"First Bulgarian Empire","cliopatria_seshat_id":"bg_bulgaria_early"},
"geometry": {"type": "MultiPolygon", "coordinates": [
[
[
[18.7756,45.8243],
[18.8572,45.8243],
[18.9259,45.5623],
[19.0074,45.5623],
[18.9976,45.3659],
[19.2384,45.3004],
[19.1373,44.908],
[19.6242,44.908],
[19.6172,44.7773],
[20.0191,44.7119],
[20.1148,44.9734],
[20.3697,45.1696],
[20.5284,45.1042],
[20.4396,44.9734],
[20.6676,44.7119],
[21.4055,44.8426],
[21.6361,44.6466],
[21.8791,44.6466],
[21.8704,44.516],
[22.1089,44.4507],
[22.1676,44.1243],
[21.9886,43.8634],
[22.1455,43.7982],
[22.1324,43.6027],
[22.2129,43.6027],
[22.1236,43.4723],
[22.1866,43.2118],
[22.0216,43.1467],
[22.0088,42.9515],
[21.9285,42.9515],
[21.996,42.7563],
[22.1478,42.6262],
[22.388,42.6262],
[22.455,42.4312],
[22.615,42.4312],
[22.6861,42.3012],
[23.1612,42.2362],
[23.2319,42.1063],
[23.815,42.4312],
[24.7001,42.4962],
[24.9245,42.3012],
[24.9783,41.9764],
[24.9731,41.9114],
[25.2124,41.9114],
[25.2229,42.0413],
[25.4678,42.1063],
[25.7074,42.1063],
[25.9303,41.9114],
[26.5684,41.9114],
[26.8136,41.9764],
[26.9111,42.1712],
[27.0708,42.1712],
[27.3349,42.4312],
[27.4949,42.4312],
[27.5135,42.6262],
[27.8466,42.7563],
[27.8049,43.1467],
[27.8982,43.2769],
[28.2264,43.3421],
[28.1592,43.4723],
[28.4811,43.4723],
[28.6163,43.9938],
[28.5356,43.9938],
[28.5769,44.3854],
[28.8407,44.5813],
[28.802,44.9734],
[29.0456,44.9734],
[29.0241,44.7773],
[29.1052,44.7773],
[29.5253,44.908],
[29.6213,45.0388],
[29.6143,45.6933],
[29.8589,45.6933],
[30.045,45.8898],
[30.2977,45.9554],
[30.8766,46.6772],
[31.6064,46.6115],
[31.7875,46.7429],
[32.0337,46.7429],
[32.1804,46.6115],
[32.1718,46.5459],
[32.9185,46.6115],
[33.6938,46.8743],
[34.08,47.269],
[34.1189,47.5323],
[33.624,47.5323],
[33.4781,47.6641],
[30.6715,47.6641],
[29.3196,47.4006],
[29.1243,47.1374],
[28.9598,47.1374],
[28.9225,46.8086],
[28.7583,46.8086],
[28.811,46.5459],
[28.6327,46.4145],
[28.7073,46.3489],
[28.6714,46.0209],
[28.5897,46.0209],
[28.6571,45.8898],
[28.2888,45.4968],
[28.0513,45.5623],
[28.0376,45.4313],
[27.5227,45.1696],
[26.7912,45.1696],
[26.6974,45.0388],
[26.3786,45.1042],
[26.204,44.9734],
[25.5545,44.9734],
[25.1372,44.8426],
[24.9806,44.908],
[24.7261,44.7773],
[24.4125,44.908],
[23.8444,44.908],
[23.6922,45.0388],
[23.6465,45.4968],
[23.733,45.5623],
[23.5701,45.5623],
[23.6771,45.8898],
[23.5139,45.8898],
[23.5342,46.1521],
[23.3858,46.3489],
[23.4779,46.4802],
[23.3191,46.5459],
[23.3344,46.7429],
[23.2523,46.7429],
[23.3653,47.1374],
[23.1956,47.0716],
[23.2059,47.2032],
[22.969,47.3348],
[23.0616,47.4665],
[22.6494,47.4665],
[22.169,47.6641],
[21.9945,47.5323],
[21.5821,47.5323],
[21.5177,47.7959],
[20.5386,47.9938],
[19.8577,47.6641],
[19.5275,47.6641],
[19.4522,47.7959],
[19.0357,47.73],
[18.9531,47.73],
[19.0253,47.5323],
[19.1868,47.4665],
[19.0871,47.1374],
[18.9226,47.1374],
[18.9193,47.0716],
[18.8141,46.6115],
[18.9748,46.5459],
[19.0435,46.2833],
[18.9616,46.2833],
[18.7756,45.8243]
]
],
[
[
[23.4677,46.3489],
[23.5496,46.3489],
[23.5547,46.4145],
[23.4728,46.4145],
[23.4677,46.3489]
]
],
[
[
[23.8053,42.3012],
[23.8852,42.3012],
[23.8901,42.3662],
[23.8101,42.3662],
[23.8053,42.3012]
]
]
]}
}
