{
"type": "Feature",
"properties": {"id":"cliopatria-balasagan-0638","edge_precision":"unknown","cliopatria_name":"Balasagan","cliopatria_from_year":638,"cliopatria_to_year":643,"cliopatria_area_km2":73965,"cliopatria_wikidata":"Q3633213","cliopatria_wikipedia":"Balasagan"},
"geometry": {"type": "MultiPolygon", "coordinates": [
[
[
[44.2373,41.2625],
[45.1117,41.2625],
[45.3019,41.0032],
[45.5953,40.8736],
[45.4567,40.5496],
[45.5915,40.4201],
[46.2007,40.2906],
[46.2561,40.1612],
[46.4814,40.0964],
[46.4578,39.967],
[46.7736,39.967],
[47.0538,39.7729],
[47.1326,39.7729],
[47.1208,39.7083],
[48.3035,39.7083],
[48.6733,39.5789],
[48.9155,39.1911],
[49.1514,39.1911],
[49.2666,39.385],
[49.5092,40.2259],
[49.6933,40.3554],
[50.2604,40.4201],
[50.0495,40.5496],
[49.5084,40.6144],
[49.2442,40.8736],
[49.2707,41.0032],
[49.0592,41.1328],
[49.086,41.2625],
[48.2787,41.9764],
[48.1989,41.9764],
[48.0923,41.8465],
[48.172,41.8465],
[48.1849,41.522],
[47.8937,41.2625],
[47.5629,41.1977],
[47.2706,41.3274],
[46.7367,41.8465],
[46.3508,41.9114],
[46.2967,42.0413],
[45.7506,42.1063],
[45.6162,42.2362],
[45.3138,41.9114],
[45.0745,41.9114],
[44.7743,41.5869],
[44.3523,41.4571],
[44.2373,41.2625]
]
]
]}
}
