{
"type": "Feature",
"properties": {"id":"cliopatria-gutian-dynasty-2101bce","edge_precision":"unknown","cliopatria_name":"Gutian Dynasty","cliopatria_from_year":-2100,"cliopatria_to_year":-2001,"cliopatria_area_km2":131488,"cliopatria_wikidata":"Q1064034","cliopatria_wikipedia":"Gutian rule in Mesopotamia"},
"geometry": {"type": "MultiPolygon", "coordinates": [
[
[
[44.1636,32.943],
[44.1926,32.5574],
[44.3377,32.4931],
[44.322,32.3645],
[44.712,32.4288],
[44.8333,32.1717],
[45.0624,32.1717],
[45.1993,32.0431],
[45.1836,31.9146],
[45.3968,31.7861],
[45.305,31.6575],
[45.4497,31.5933],
[45.3812,31.0148],
[45.4572,31.0148],
[45.4497,30.9506],
[46.3622,30.9506],
[46.6976,31.2076],
[46.9102,31.0791],
[47.2145,31.0791],
[47.3906,31.2719],
[47.6951,31.2719],
[47.739,31.0148],
[48.0271,30.8863],
[48.1031,30.8863],
[49.1429,30.6935],
[49.2867,30.6292],
[49.1267,30.565],
[49.1106,30.4364],
[49.566,30.4364],
[49.7016,30.3079],
[49.9293,30.3079],
[49.989,30.1794],
[50.0648,30.1794],
[50.2328,30.3079],
[50.5199,30.1794],
[51.0508,30.1794],
[51.1772,30.565],
[51.1012,30.565],
[50.9835,30.822],
[50.7052,31.0148],
[50.7225,31.1434],
[50.5117,31.2719],
[50.5292,31.4005],
[50.3856,31.4647],
[50.4795,31.5933],
[50.2597,31.6575],
[50.2864,31.8503],
[50.0171,32.1074],
[50.0352,32.236],
[49.8241,32.3645],
[49.8515,32.5574],
[49.7169,32.6859],
[49.2488,32.6216],
[49.2761,32.8145],
[48.5377,33.0073],
[48.5467,33.0716],
[47.4829,33.1359],
[46.9049,33.3931],
[46.1292,33.3288],
[46.0697,33.4574],
[45.5671,33.1359],
[45.5503,33.0073],
[45.3205,33.0073],
[44.5954,33.3288],
[44.579,33.2002],
[44.4256,33.2002],
[44.1636,32.943]
]
],
[
[
[50.4618,31.4647],
[50.538,31.4647],
[50.5468,31.529],
[50.4706,31.529],
[50.4618,31.4647]
]
]
]}
}
