{
"type": "Feature",
"properties": {"id":"cliopatria-kingdom-of-france-1188","edge_precision":"unknown","cliopatria_name":"Kingdom of France","cliopatria_from_year":1188,"cliopatria_to_year":1205,"cliopatria_area_km2":37024,"cliopatria_wikidata":"Q207162","cliopatria_wikipedia":"Kingdom of France","cliopatria_seshat_id":"fr_capetian_k_2","cliopatria_member_of":"(Kingdom of France)"},
"geometry": {"type": "MultiPolygon", "coordinates": [
[
[
[1.3888,48.6542],
[1.5671,48.4559],
[1.733,48.4559],
[1.6855,47.8619],
[1.7681,47.8619],
[1.8923,47.1374],
[2.7116,47.2032],
[2.619,47.4006],
[2.3682,47.4665],
[2.4293,47.8619],
[2.7634,47.7959],
[3.2494,47.9938],
[3.7548,47.7959],
[3.7518,47.8619],
[3.8345,47.8619],
[3.8315,47.9278],
[3.9142,47.9278],
[3.6476,48.3238],
[3.5647,48.3238],
[3.4755,48.4559],
[3.0572,48.522],
[2.8843,48.6542],
[2.7907,48.8527],
[3.0334,48.9851],
[2.6135,49.0513],
[2.4394,49.1838],
[1.7724,49.1838],
[1.3888,48.6542]
]
],
[
[
[1.4334,50.5789],
[1.4464,50.3791],
[1.6145,50.3791],
[1.623,50.246],
[1.9508,50.3791],
[2.5544,50.113],
[3.7293,50.113],
[3.726,50.1795],
[3.6421,50.1795],
[3.5416,50.5122],
[3.3733,50.5122],
[3.296,50.3791],
[3.1244,50.4457],
[3.0402,50.4457],
[2.7768,50.6455],
[2.2714,50.6455],
[2.2635,50.7788],
[2.0949,50.7788],
[2.0745,51.1124],
[1.99,51.1124],
[1.5761,50.9789],
[1.5804,50.9122],
[1.8461,50.7121],
[1.686,50.5789],
[1.4334,50.5789]
]
],
[
[
[3.9178,45.9554],
[3.9315,45.6278],
[4.013,45.6278],
[3.9423,45.3659],
[4.2678,45.3659],
[4.3567,45.1696],
[4.6795,45.235],
[4.5045,45.5623],
[4.8281,45.6278],
[5.0726,45.6278],
[5.2951,46.2833],
[4.9677,46.2833],
[4.8954,46.0209],
[4.7345,45.9554],
[4.2312,46.2833],
[4.2258,46.4145],
[3.9829,46.3489],
[4.0784,46.0209],
[3.9178,45.9554]
]
]
]}
}
