{
"type": "Feature",
"properties": {"id":"cliopatria-imamate-of-oman-1919","edge_precision":"unknown","cliopatria_name":"Imamate of Oman","cliopatria_from_year":1919,"cliopatria_to_year":1919,"cliopatria_area_km2":103928,"cliopatria_wikidata":"Q2342282","cliopatria_wikipedia":"Imamate of Oman"},
"geometry": {"type": "MultiPolygon", "coordinates": [
[
[
[55.2949,22.5934],
[55.6947,22.0148],
[56.454,22.2077],
[57.3411,22.1434],
[57.8508,21.1148],
[57.7608,20.922],
[57.9781,20.8577],
[58.0313,20.6005],
[58.2485,20.5362],
[58.3068,20.3434],
[58.5292,20.3434],
[58.7997,20.922],
[59.437,21.4363],
[59.864,22.0791],
[59.9039,22.5291],
[59.5432,22.6577],
[59.2684,22.9148],
[59.2742,22.9791],
[59.045,22.9148],
[58.9076,23.0434],
[58.6841,23.0434],
[58.3347,23.3006],
[58.209,23.5577],
[57.6183,23.622],
[56.827,23.9435],
[56.5521,24.2006],
[56.5641,24.3292],
[56.4147,24.3292],
[56.3766,24.7149],
[56.2333,24.7792],
[56.0838,24.7792],
[56.0962,24.9078],
[55.9529,24.9721],
[55.8595,24.7792],
[55.8232,24.3935],
[56.0177,24.072],
[55.5583,23.9435],
[55.6103,23.6863],
[55.3535,23.3006],
[55.2949,22.5934]
]
]
]}
}
