{
"type": "Feature",
"properties": {"id":"cliopatria-great-seljuk-empire-1126","edge_precision":"unknown","cliopatria_name":"Great Seljuk Empire","cliopatria_from_year":1126,"cliopatria_to_year":1138,"cliopatria_area_km2":2857294,"cliopatria_wikidata":"Q3708094","cliopatria_wikipedia":"Seljuk Empire","cliopatria_seshat_id":"ir_seljuk_sultanate"},
"geometry": {"type": "MultiPolygon", "coordinates": [
[
[
[35.7698,33.2645],
[36.0704,33.2002],
[35.9337,32.5574],
[36.2514,31.8503],
[36.1187,31.2076],
[36.8036,31.2076],
[36.6685,31.4005],
[36.6915,31.6575],
[36.6153,31.6575],
[36.7032,31.7861],
[36.5565,31.8503],
[36.6623,32.1717],
[36.5155,32.236],
[36.7507,32.3002],
[36.7168,32.7502],
[36.901,33.0716],
[37.0542,33.0716],
[37.0732,33.2645],
[38.4794,34.229],
[39.1238,34.4863],
[39.509,34.4863],
[40.4033,34.229],
[40.3115,34.1004],
[40.8499,34.1004],
[40.9117,33.9718],
[41.2116,33.9075],
[41.4886,33.6502],
[42.5783,33.1359],
[42.7085,32.943],
[43.1526,32.8145],
[44.459,31.5933],
[44.444,31.4647],
[44.6576,31.3362],
[44.6353,31.1434],
[44.7949,31.2076],
[45.3982,30.5007],
[45.55,30.5007],
[46.099,29.9865],
[46.5322,29.7937],
[46.5865,29.6009],
[46.745,29.6652],
[46.868,29.4081],
[47.1021,29.4723],
[47.3834,29.2795],
[47.459,29.2795],
[47.5707,29.6009],
[48.0699,29.9865],
[48.1457,29.9865],
[48.5928,29.9223],
[48.6005,29.9865],
[48.6763,29.9865],
[48.9873,30.0508],
[48.9428,30.3079],
[49.5859,29.9865],
[50.0648,30.1794],
[50.2363,29.7294],
[50.6513,29.4081],
[50.6203,29.1509],
[50.915,29.0867],
[50.809,28.8295],
[51.0281,28.7652],
[51.0662,28.4438],
[51.3313,28.1224],
[51.3168,27.9938],
[51.5967,27.8009],
[52.0486,27.8009],
[52.4787,27.6081],
[52.737,27.2223],
[53.4606,26.9652],
[53.6581,26.708],
[54.2589,26.708],
[54.4632,26.5151],
[54.8316,26.4508],
[55.2423,26.7723],
[55.5427,26.7723],
[55.3102,26.708],
[55.2889,26.5151],
[55.439,26.5151],
[55.6034,26.6437],
[56.0612,26.708],
[56.3086,26.9009],
[56.3236,27.0295],
[56.0981,27.0295],
[56.1884,27.158],
[56.7147,27.158],
[57.0524,26.8366],
[57.0449,26.7723],
[57.5031,26.8366],
[58.0007,27.2223],
[58.2912,27.7367],
[58.9884,28.4438],
[59.2301,29.0867],
[59.6086,29.6009],
[60.0266,29.858],
[60.0465,29.9865],
[61.7446,31.0791],
[62.7144,31.4005],
[63.1418,31.6575],
[63.43,31.9789],
[63.4784,32.236],
[63.9614,32.3645],
[64.3171,32.6216],
[64.3552,32.8145],
[64.7,33.0073],
[65.5273,34.0361],
[66.4377,34.6793],
[66.4664,34.8079],
[66.9252,35.1297],
[67.7726,35.4514],
[68.0657,35.7089],
[69.5252,36.2884],
[69.5575,36.4172],
[70.5725,36.7393],
[70.6247,36.7393],
[70.2885,37.0999],
[70.4238,38.313],
[70.9712,38.3052],
[71.3046,38.1567],
[72.9618,38.2153],
[73.126,38.1136],
[73.2081,38.1026],
[73.2241,38.1578],
[73.5713,38.8034],
[73.7104,39.5143],
[73.929,39.7083],
[73.8502,39.7083],
[73.9533,40.0317],
[73.8162,40.0964],
[73.858,40.2259],
[73.684,40.4201],
[73.5257,40.4201],
[73.4889,40.5496],
[73.3305,40.5496],
[73.2938,40.6792],
[72.7815,40.8088],
[72.7662,41.0032],
[71.8764,41.9114],
[71.3257,42.1712],
[71.086,42.1712],
[71.0499,42.3012],
[70.7521,42.3662],
[70.716,42.4962],
[70.4178,42.5612],
[70.1132,43.0816],
[69.5369,43.2769],
[69.8637,43.9938],
[69.9444,43.9938],
[69.9318,44.1896],
[68.8951,43.9938],
[68.1686,43.9938],
[68.4253,43.7982],
[68.3814,43.6678],
[68.5573,43.4723],
[68.4486,43.1467],
[68.529,43.1467],
[68.4214,42.8213],
[68.5016,42.8213],
[68.454,42.4312],
[66.2793,40.8088],
[63.2647,40.2259],
[60.3663,39.385],
[59.1761,38.6743],
[59.1465,38.5451],
[58.5751,38.0933],
[58.4123,37.7062],
[58.1503,37.5773],
[57.8079,37.0615],
[57.6389,36.9971],
[55.8483,36.9971],
[55.3413,37.1904],
[55.0297,37.1904],
[54.8338,37.3838],
[54.0415,37.3193],
[54.0291,37.2549],
[54.0333,36.8682],
[53.0877,36.8037],
[52.1859,36.546],
[51.642,36.546],
[50.8207,36.7393],
[50.532,36.8682],
[50.6323,36.9971],
[50.5657,37.0615],
[50.3209,36.9971],
[49.9988,37.3838],
[49.0851,37.5128],
[48.8843,37.7062],
[48.8411,38.3515],
[48.7627,38.3515],
[48.8206,38.6743],
[48.7422,38.6743],
[48.9155,39.1911],
[49.1635,39.2557],
[49.1757,39.3203],
[49.0305,39.385],
[49.0008,39.6436],
[48.7766,39.7083],
[48.7225,39.8376],
[48.0913,39.8376],
[47.6489,39.5789],
[47.4913,39.5789],
[47.4795,39.5143],
[47.4008,39.5143],
[46.6684,38.9326],
[45.872,38.868],
[45.3546,39.0618],
[45.23,39.2557],
[45.0726,39.2557],
[44.8691,39.4496],
[43.3522,39.3203],
[42.6162,39.6436],
[42.5684,39.8376],
[42.4106,39.8376],
[42.3628,40.0317],
[42.4628,40.1612],
[42.4733,40.2259],
[42.8218,40.4201],
[42.6851,40.5496],
[41.9513,40.4201],
[41.6557,40.5496],
[41.6767,40.6792],
[41.5182,40.6792],
[41.2537,41.0032],
[40.5674,40.6792],
[38.6656,40.6792],
[38.8049,40.5496],
[38.851,39.7729],
[39.2177,39.5789],
[39.0669,39.0618],
[38.6565,38.9326],
[38.6135,38.6097],
[38.7448,38.416],
[39.6067,38.416],
[39.8242,38.2869],
[39.6772,37.7707],
[39.599,37.7707],
[39.5159,37.126],
[39.3439,36.9971],
[38.7211,36.9971],
[37.1198,36.6105],
[37.0907,36.3528],
[37.1684,36.3528],
[36.9917,35.4514],
[36.373,35.4514],
[36.2116,35.3871],
[36.1915,35.194],
[36.2688,35.194],
[36.165,34.9366],
[36.6214,34.8723],
[36.5882,34.5506],
[36.1578,34.1004],
[35.9207,34.0361],
[35.8251,33.8432],
[35.7698,33.2645]
]
],
[
[
[36.6915,31.6575],
[36.7678,31.6575],
[36.7736,31.7218],
[36.6974,31.7218],
[36.6915,31.6575]
]
],
[
[
[55.8062,25.7436],
[56.0532,25.2293],
[56.09,24.8435],
[56.0838,24.7792],
[56.2271,24.7149],
[56.2713,24.3935],
[56.4207,24.3935],
[56.5402,24.072],
[56.8211,23.8792],
[56.8095,23.7506],
[57.8303,23.4934],
[57.9736,23.4291],
[57.962,23.3006],
[58.3347,23.3006],
[58.6096,23.0434],
[58.9076,23.0434],
[58.8961,22.9148],
[59.2684,22.9148],
[59.2801,23.0434],
[59.0682,23.172],
[59.08,23.3006],
[58.8115,23.622],
[57.4927,23.8792],
[57.0627,24.072],
[56.7256,24.4578],
[56.7317,24.5221],
[56.5449,24.9078],
[56.4016,24.9721],
[56.4957,25.165],
[56.4208,25.165],
[56.3988,25.6793],
[56.5433,26.3222],
[56.1682,26.3222],
[55.9696,25.8722],
[55.813,25.8079],
[55.8062,25.7436]
]
]
]}
}
