{
"type": "Feature",
"properties": {"id":"cliopatria-guayaquil-junta-1812","edge_precision":"unknown","cliopatria_name":"Guayaquil Junta","cliopatria_from_year":1812,"cliopatria_to_year":1813,"cliopatria_area_km2":139371,"cliopatria_wikidata":"Q5334383","cliopatria_wikipedia":"Ecuadorian War of Independence"},
"geometry": {"type": "MultiPolygon", "coordinates": [
[
[
[-80.2295,0.4785],
[-80.084,0.4785],
[-80.0118,0.35],
[-79.7207,0.35],
[-79.5759,0.2214],
[-79.5622,-0.0358],
[-79.3448,-0.1643],
[-79.6409,-0.6786],
[-79.5738,-1.1287],
[-79.7959,-1.3858],
[-79.8012,-1.7073],
[-79.4457,-2.1573],
[-79.0089,-2.1573],
[-78.781,-1.643],
[-78.4887,-1.5787],
[-78.0531,-1.643],
[-77.9097,-1.7715],
[-77.9131,-1.9644],
[-77.5516,-2.093],
[-76.9813,-2.6716],
[-76.3932,-2.4144],
[-75.9476,-1.9644],
[-75.4961,-1.0001],
[-75.3498,-0.9358],
[-75.4172,-0.4215],
[-75.7066,-0.2286],
[-75.778,0.0285],
[-76.0836,0.0928],
[-76.3002,0.35],
[-76.5186,0.35],
[-76.6649,0.2214],
[-77.3195,0.2857],
[-77.5371,0.4142],
[-77.5362,0.6071],
[-77.7539,0.8],
[-78.4086,0.9928],
[-78.991,1.4428],
[-78.9909,1.3786],
[-79.1363,1.1857],
[-79.4275,1.1857],
[-79.7187,0.9928],
[-80.2284,0.8643],
[-80.2293,0.5428],
[-80.2295,0.4785]
]
]
]}
}
