{
"type": "Feature",
"properties": {"id":"cliopatria-kingdom-of-aragon-1126","edge_precision":"unknown","cliopatria_name":"Kingdom of Aragon","cliopatria_from_year":1126,"cliopatria_to_year":1138,"cliopatria_area_km2":100638,"cliopatria_wikidata":"Q199442","cliopatria_wikipedia":"Kingdom of Aragon","cliopatria_seshat_id":"es_aragon_k"},
"geometry": {"type": "MultiPolygon", "coordinates": [
[
[
[-4.5248,41.7167],
[-4.3237,41.1977],
[-2.2357,40.8736],
[-1.6597,40.5496],
[-1.2518,40.3554],
[-1.0184,40.4201],
[-0.8717,40.6144],
[-0.7133,40.6144],
[-0.7286,40.8736],
[-0.4151,40.9384],
[-0.2789,41.3274],
[-0.1273,41.4571],
[0.3466,41.522],
[0.4155,41.7167],
[0.5713,41.7816],
[0.5642,41.9114],
[0.644,41.9114],
[0.6404,41.9764],
[0.699,42.3662],
[0.6847,42.6262],
[0.6046,42.6262],
[0.601,42.6912],
[0.0401,42.6912],
[-0.8579,42.9515],
[-0.9639,43.3421],
[-3.2959,43.3421],
[-3.4672,43.4723],
[-4.3468,43.4072],
[-4.4273,43.4072],
[-4.2861,42.6912],
[-4.206,42.6912],
[-4.1579,42.1063],
[-4.5248,41.7167]
]
]
]}
}
