{
"type": "Feature",
"properties": {"id":"cliopatria-judea-111bce","edge_precision":"unknown","cliopatria_name":"Judea","cliopatria_from_year":-110,"cliopatria_to_year":-92,"cliopatria_area_km2":15561,"cliopatria_wikidata":"Q104028","cliopatria_wikipedia":"Judea","cliopatria_seshat_id":"il_judea"},
"geometry": {"type": "MultiPolygon", "coordinates": [
[
[
[34.2972,31.2719],
[34.3579,31.0791],
[34.9771,31.2076],
[34.9824,31.2719],
[35.1346,31.2719],
[35.3031,31.4647],
[35.7657,31.529],
[35.9278,32.4931],
[35.875,32.7502],
[35.4982,32.8145],
[35.3162,32.4931],
[34.9227,32.3645],
[34.9171,32.3002],
[34.7698,32.3645],
[34.813,31.9789],
[34.5733,31.8503],
[34.5626,31.7218],
[34.7913,31.7218],
[34.7805,31.5933],
[34.4704,31.529],
[34.4599,31.4005],
[34.3024,31.3362],
[34.2972,31.2719]
]
]
]}
}
