{
"type": "Feature",
"properties": {"id":"cliopatria-mauretania-111bce","edge_precision":"unknown","cliopatria_name":"Mauretania","cliopatria_from_year":-110,"cliopatria_to_year":-92,"cliopatria_area_km2":69469,"cliopatria_wikidata":"Q309272","cliopatria_wikipedia":"Mauretania","cliopatria_seshat_id":"ma_mauretania"},
"geometry": {"type": "MultiPolygon", "coordinates": [
[
[
[-8.4703,33.2645],
[-8.1544,33.1359],
[-8.0641,32.943],
[-7.5281,32.943],
[-6.9368,33.2645],
[-6.7025,33.2002],
[-6.6344,33.3288],
[-6.0332,33.5217],
[-5.7989,33.4574],
[-5.2737,33.6502],
[-5.0394,33.5859],
[-4.3674,33.9075],
[-4.2099,33.8432],
[-4.1405,33.9718],
[-3.7635,34.1004],
[-2.4592,34.1647],
[-2.8543,34.3577],
[-2.7878,34.5506],
[-2.9455,34.615],
[-2.9598,34.8723],
[-2.809,34.9366],
[-2.7425,35.1297],
[-2.8198,35.1297],
[-2.8379,35.4514],
[-2.9926,35.4514],
[-2.9816,35.2584],
[-3.2869,35.194],
[-4.7548,35.194],
[-5.2398,35.5158],
[-5.3389,35.8377],
[-5.8766,35.7733],
[-5.9999,35.3227],
[-6.1455,35.194],
[-6.132,35.001],
[-6.2909,35.0653],
[-6.2003,34.8723],
[-6.2775,34.8723],
[-6.3324,34.5506],
[-6.4821,34.4863],
[-6.4732,34.3577],
[-6.6997,34.2933],
[-6.6139,34.1647],
[-6.9038,33.9075],
[-7.062,33.9718],
[-7.1299,33.8432],
[-8.403,33.3931],
[-8.4703,33.2645]
]
]
]}
}
