{
"type": "Feature",
"properties": {"id":"cliopatria-kashmir-0772","edge_precision":"unknown","cliopatria_name":"Kashmir","cliopatria_from_year":772,"cliopatria_to_year":849,"cliopatria_area_km2":69466,"cliopatria_wikidata":"Q43100","cliopatria_wikipedia":"Kashmir"},
"geometry": {"type": "MultiPolygon", "coordinates": [
[
[
[74.7189,32.6182],
[74.7661,32.4931],
[75.2098,32.4288],
[75.3326,32.3002],
[76.4022,32.3002],
[76.5246,32.1717],
[77.0439,32.1074],
[77.3037,31.9146],
[78.6767,31.5933],
[78.7529,31.5933],
[78.7987,31.7861],
[78.465,32.3002],
[78.5282,32.5574],
[78.3183,32.943],
[78.367,33.1359],
[78.1588,33.5217],
[78.1221,33.9718],
[78.0452,33.9718],
[78.1217,34.5506],
[78.0447,34.5506],
[78.2261,34.9366],
[78.0649,35.194],
[78.1004,35.3227],
[77.9814,35.4514],
[76.9936,35.5158],
[76.7193,35.6445],
[76.6772,35.7733],
[76.1001,35.6445],
[76.0859,35.5921],
[76.6916,35.2462],
[76.7978,33.8416],
[76.5586,32.611],
[76.2452,32.403],
[75.6553,33.0651],
[75.3198,33.0328],
[74.7189,32.6182]
]
]
]}
}
