{
"type": "Feature",
"properties": {"id":"cliopatria-toltec-0875","edge_precision":"unknown","cliopatria_name":"Toltec","cliopatria_from_year":875,"cliopatria_to_year":899,"cliopatria_area_km2":5605,"cliopatria_wikidata":"Q187897","cliopatria_wikipedia":"Toltec"},
"geometry": {"type": "MultiPolygon", "coordinates": [
[
[
[-99.1824,20.0862],
[-99.1704,20.022],
[-98.7791,19.5077],
[-98.409,19.5077],
[-98.308,19.7648],
[-98.1599,19.7648],
[-98.2072,20.022],
[-98.3554,20.022],
[-98.5512,20.2791],
[-98.8477,20.2791],
[-98.9481,20.022],
[-99.1824,20.0862]
]
]
]}
}
