{
"type": "Feature",
"properties": {"id":"cliopatria-cimmerian-bosporus-367bce","edge_precision":"unknown","cliopatria_name":"Cimmerian Bosporus","cliopatria_from_year":-366,"cliopatria_to_year":-231,"cliopatria_area_km2":6621,"cliopatria_wikidata":"Q321371","cliopatria_wikipedia":"Bosporan Kingdom"},
"geometry": {"type": "MultiPolygon", "coordinates": [
[
[
[35.1538,45.1042],
[35.2351,45.1042],
[35.2159,44.9734],
[35.3879,45.0388],
[35.4073,45.1696],
[35.7324,45.1696],
[35.8753,45.0388],
[36.3726,45.1042],
[36.4231,45.4313],
[36.0874,45.3659],
[36.0061,45.3659],
[35.1826,45.3004],
[35.1538,45.1042]
]
],
[
[
[36.7487,45.4313],
[36.7789,45.1042],
[37.1039,45.1042],
[37.3268,44.9734],
[37.3164,44.908],
[37.5285,44.7119],
[37.9338,44.7119],
[37.7858,45.3004],
[36.9723,45.3004],
[36.9116,45.4313],
[36.7487,45.4313]
]
]
]}
}
