{
"type": "Feature",
"properties": {"id":"cliopatria-county-of-berga-0922","edge_precision":"unknown","cliopatria_name":"County of Berga","cliopatria_from_year":922,"cliopatria_to_year":935,"cliopatria_area_km2":6360,"cliopatria_wikidata":"Q15487","cliopatria_wikipedia":"Berga"},
"geometry": {"type": "MultiPolygon", "coordinates": [
[
[
[1.3651,41.8465],
[1.3684,41.7816],
[1.4481,41.7816],
[1.4513,41.7167],
[1.6904,41.7167],
[1.6872,41.7816],
[2.4786,41.9114],
[2.8637,42.2362],
[2.8554,42.4312],
[2.2954,42.4312],
[2.0492,42.5612],
[1.8923,42.4962],
[1.8123,42.4962],
[1.7481,42.1712],
[1.3651,41.8465]
]
]
]}
}
