{
"type": "Feature",
"properties": {"id":"cliopatria-pomerania-1177","edge_precision":"unknown","cliopatria_name":"Pomerania","cliopatria_from_year":1177,"cliopatria_to_year":1187,"cliopatria_area_km2":26808,"cliopatria_wikidata":"Q104520","cliopatria_wikipedia":"Pomerania"},
"geometry": {"type": "MultiPolygon", "coordinates": [
[
[
[13.4758,54.1384],
[13.643,53.9352],
[13.5492,53.6647],
[14.0601,53.4621],
[14.1461,53.4621],
[14.3998,53.3271],
[14.3953,53.1922],
[14.56,52.99],
[14.7315,52.99],
[15.3454,53.3271],
[15.4399,53.5296],
[16.2084,53.3946],
[16.5628,53.5971],
[16.649,53.5971],
[17.7649,53.5296],
[17.7773,53.7323],
[17.5347,54.0029],
[17.5761,54.6811],
[17.4892,54.6811],
[17.4975,54.8171],
[17.4105,54.8171],
[16.62,54.6811],
[15.9918,54.2739],
[15.0361,54.2061],
[14.5093,54.0029],
[14.4998,53.7323],
[13.9844,53.7999],
[14.1592,53.8676],
[14.1658,54.0706],
[13.4776,54.2061],
[13.4758,54.1384]
]
]
]}
}
