{
"type": "Feature",
"properties": {"id":"cliopatria-taifa-of-zaragoza-1015","edge_precision":"unknown","cliopatria_name":"Taifa of Zaragoza","cliopatria_from_year":1015,"cliopatria_to_year":1017,"cliopatria_area_km2":1668,"cliopatria_wikidata":"Q33061","cliopatria_wikipedia":"Taifa of Zaragoza","cliopatria_seshat_id":"es_taifas","cliopatria_member_of":"(Taifas of Iberia)"},
"geometry": {"type": "MultiPolygon", "coordinates": [
[
[
[0.6298,42.1712],
[0.6369,42.0413],
[0.7237,41.9114],
[1.1226,41.9114],
[1.1192,41.9764],
[1.1091,42.1712],
[1.189,42.1712],
[1.1856,42.2362],
[0.699,42.3662],
[0.7097,42.1712],
[0.6298,42.1712]
]
]
]}
}
