{
"type": "Feature",
"properties": {"id":"cliopatria-kingdom-of-bhutan-1948","edge_precision":"unknown","cliopatria_name":"Kingdom of Bhutan","cliopatria_from_year":1948,"cliopatria_to_year":1952,"cliopatria_area_km2":71218,"cliopatria_wikidata":"Q917","cliopatria_wikipedia":"Bhutan"},
"geometry": {"type": "MultiPolygon", "coordinates": [
[
[
[88.8048,27.0938],
[89.1288,26.8366],
[89.5044,26.8366],
[89.7041,26.708],
[90.0045,26.708],
[90.3438,26.9009],
[90.5692,26.9009],
[90.6933,26.7723],
[91.8199,26.7723],
[92.0719,26.9009],
[92.1057,27.4152],
[93.2015,27.6081],
[93.5605,27.8652],
[94.3885,28.1867],
[94.7667,28.5081],
[95.5846,28.7652],
[96.1887,28.7652],
[96.3673,28.5724],
[96.6419,28.7652],
[96.6151,28.9581],
[96.2536,29.0224],
[96.3196,29.2795],
[96.2017,29.4081],
[95.899,29.4081],
[95.4385,29.0867],
[94.58,29.2795],
[93.9231,28.7652],
[93.4545,28.701],
[93.182,28.5081],
[93.1517,28.3795],
[92.7298,28.1867],
[92.6279,27.7367],
[92.223,27.6081],
[92.0305,27.4152],
[91.6682,27.4795],
[91.7527,27.8652],
[91.5698,28.0581],
[90.4393,28.0581],
[90.2706,28.3153],
[89.8935,28.3153],
[89.5491,28.1224],
[88.9459,27.4152],
[88.8048,27.0938]
]
]
]}
}
