{
"type": "Feature",
"properties": {"id":"cliopatria-carthage-209bce","edge_precision":"unknown","cliopatria_name":"Carthage","cliopatria_from_year":-208,"cliopatria_to_year":-207,"cliopatria_area_km2":405101,"cliopatria_wikidata":"Q2429397","cliopatria_wikipedia":"Ancient Carthage","cliopatria_seshat_id":"tn_carthage_emp"},
"geometry": {"type": "MultiPolygon", "coordinates": [
[
[
[-7.803,33.5859],
[-7.7938,33.4574],
[-7.6404,33.4574],
[-7.5547,33.3288],
[-6.8818,33.5859],
[-6.592,33.8432],
[-6.6007,33.9718],
[-6.2335,34.229],
[-5.6265,35.5158],
[-5.3901,35.4514],
[-5.2141,35.1297],
[-4.7384,34.9366],
[-2.809,34.9366],
[-2.7425,35.1297],
[-2.8198,35.1297],
[-2.8379,35.4514],
[-2.9926,35.4514],
[-2.9816,35.2584],
[-3.2869,35.194],
[-4.7548,35.194],
[-5.2398,35.5158],
[-5.3389,35.8377],
[-5.8766,35.7733],
[-5.9999,35.3227],
[-6.1455,35.194],
[-6.132,35.001],
[-6.2909,35.0653],
[-6.2003,34.8723],
[-6.2775,34.8723],
[-6.3324,34.5506],
[-6.4821,34.4863],
[-6.4732,34.3577],
[-6.6997,34.2933],
[-6.6139,34.1647],
[-6.9038,33.9075],
[-7.062,33.9718],
[-7.1299,33.8432],
[-7.7262,33.5859],
[-7.803,33.5859]
]
],
[
[
[-7.5754,37.6417],
[-7.5539,37.3838],
[-7.4653,37.2549],
[-6.8418,37.2549],
[-6.588,36.9971],
[-6.4323,36.9971],
[-6.0638,36.224],
[-5.8311,36.224],
[-5.5848,36.0308],
[-5.5162,36.1596],
[-5.2879,36.224],
[-5.2282,36.4816],
[-4.6888,36.546],
[-4.4686,36.7393],
[-2.6801,36.7393],
[-2.5321,36.8682],
[-2.0616,36.8037],
[-1.8574,37.3193],
[-1.6978,37.2549],
[-1.6271,37.3838],
[-1.7087,37.4483],
[-1.2477,37.5773],
[-1.1697,37.5773],
[-1.5968,38.2224],
[-1.6979,38.6097],
[-1.9371,38.6743],
[-2.0155,38.6743],
[-2.2389,38.4806],
[-2.7917,38.5451],
[-4.2029,38.5451],
[-4.6924,38.8034],
[-4.702,38.9326],
[-4.8542,38.868],
[-4.9425,38.9972],
[-5.3404,39.0618],
[-5.4824,38.868],
[-5.8699,38.8034],
[-6.0114,38.6097],
[-7.2224,38.0933],
[-7.2845,37.8998],
[-7.5754,37.6417]
]
],
[
[
[0.1552,35.9664],
[0.1581,35.902],
[0.3877,35.9664],
[0.4537,36.224],
[0.3761,36.224],
[0.1552,35.9664]
]
],
[
[
[1.1831,39.0618],
[1.2735,38.8034],
[1.4305,38.8034],
[1.6575,38.9972],
[1.6518,39.1265],
[1.2587,39.1265],
[1.1831,39.0618]
]
],
[
[
[1.913,36.6105],
[1.918,36.4816],
[2.7724,36.4816],
[3.1565,36.6105],
[4.8663,36.6105],
[5.2581,36.4816],
[5.4103,36.6105],
[5.645,36.546],
[5.9516,36.7393],
[6.3404,36.7393],
[6.7257,36.9326],
[6.6478,36.9326],
[6.3339,37.0615],
[6.103,36.9326],
[6.1058,36.8037],
[5.6391,36.8037],
[5.5643,36.6749],
[5.0978,36.6749],
[4.8595,36.8682],
[4.2352,36.9326],
[3.85,36.8037],
[3.459,36.8682],
[3.2299,36.7393],
[2.8411,36.7393],
[2.6902,36.6105],
[1.913,36.6105]
]
],
[
[
[2.3381,39.6436],
[2.3461,39.4496],
[2.6586,39.5143],
[2.8237,39.3203],
[3.2958,39.3203],
[3.5158,39.7729],
[3.1979,39.8376],
[3.193,39.967],
[2.8772,39.967],
[2.3381,39.6436]
]
],
[
[
[3.7411,40.0964],
[3.8268,39.9023],
[4.3024,39.8376],
[4.2151,40.0964],
[3.7411,40.0964]
]
],
[
[
[6.2905,35.3227],
[6.3037,34.615],
[6.9203,34.615],
[7.1535,34.4863],
[7.6149,34.5506],
[8.0016,34.422],
[8.0808,34.229],
[8.7734,34.229],
[8.9278,34.1647],
[8.9288,34.0361],
[9.0826,34.0361],
[9.3159,33.5859],
[9.5465,33.5217],
[9.6242,33.3288],
[9.854,33.3931],
[10.4679,33.2645],
[10.468,33.1359],
[10.6979,33.1359],
[11.0809,32.8788],
[11.617,32.943],
[12.0756,32.7502],
[11.9985,32.6216],
[13.7577,32.6216],
[14.4427,32.3645],
[14.5166,32.1717],
[14.8994,32.236],
[15.0502,32.1074],
[15.193,31.4647],
[15.5687,31.1434],
[17.1611,30.8863],
[18.2161,30.5007],
[18.5861,30.1151],
[18.8136,30.1151],
[18.8961,30.3722],
[18.5925,30.3722],
[18.2223,30.7578],
[17.8468,30.9506],
[16.8635,31.2076],
[16.1786,31.2076],
[15.649,31.4005],
[15.576,31.5933],
[15.4246,31.6575],
[15.2823,32.3002],
[15.0551,32.4288],
[14.7493,32.4288],
[14.6747,32.5574],
[14.4444,32.4931],
[14.0652,32.7502],
[13.7591,32.7502],
[13.7605,32.8788],
[13.4537,32.8145],
[13.3017,32.943],
[12.8418,32.8788],
[12.8408,32.7502],
[12.5347,32.7502],
[12.6121,32.8788],
[12.229,32.8145],
[11.4644,33.2002],
[11.1578,33.2002],
[11.0815,33.5859],
[10.6977,33.5217],
[10.544,33.7146],
[10.2368,33.7146],
[10.0058,33.9075],
[10.0817,34.229],
[10.0045,34.2933],
[10.543,34.5506],
[10.8512,34.8079],
[10.8512,34.9366],
[11.0828,35.001],
[11.0057,35.3871],
[11.083,35.3871],
[11.0832,35.5802],
[10.9284,35.5802],
[10.9284,35.6445],
[10.851,35.7733],
[10.6962,35.7089],
[10.4635,35.902],
[10.5403,36.3528],
[10.4625,36.4172],
[11.0062,36.8037],
[11.0063,36.9971],
[10.8506,36.9971],
[10.5396,36.7393],
[10.2284,36.8037],
[10.3054,37.0615],
[10.2276,37.0615],
[10.227,37.2549],
[9.9934,37.1904],
[9.6031,37.3193],
[9.0595,37.0615],
[8.9032,37.126],
[8.5164,36.8682],
[7.7383,36.8682],
[7.6587,36.9971],
[7.3463,37.0615],
[7.1937,36.8682],
[6.9603,36.8682],
[7.1191,36.6749],
[7.2041,36.224],
[6.5142,35.7733],
[6.3654,35.4514],
[6.3666,35.3871],
[6.2905,35.3227]
],
[
[7.1408,35.3227],
[7.2181,35.3227],
[7.2201,35.194],
[7.1428,35.194],
[7.1408,35.3227]
]
],
[
[
[7.4691,43.9286],
[7.4715,43.7982],
[7.8736,43.8634],
[8.1934,44.0591],
[8.1916,44.1896],
[8.4315,44.3854],
[9.1591,44.4507],
[9.7274,44.1243],
[9.9697,44.1243],
[9.8895,43.9938],
[10.1314,44.0591],
[10.2126,43.8634],
[11.8258,43.8634],
[11.9079,44.0591],
[12.3931,44.1243],
[12.3938,44.1896],
[12.1537,44.4507],
[12.1572,44.8426],
[12.3999,44.7773],
[12.4026,45.0388],
[12.16,45.1696],
[12.1617,45.3659],
[11.7548,45.3659],
[10.5337,45.6278],
[8.9035,45.6278],
[8.5792,45.4968],
[8.5005,45.3004],
[8.2554,45.3659],
[8.3406,45.1042],
[8.0989,44.9734],
[7.4691,43.9286]
]
],
[
[
[12.7057,43.2769],
[13.188,43.2769],
[13.194,43.6678],
[13.1134,43.6678],
[13.1124,43.6027],
[12.7057,43.2769]
]
],
[
[
[13.0097,42.0413],
[13.328,41.9764],
[13.325,41.7816],
[13.7963,41.3922],
[14.4272,41.1328],
[14.9832,41.1328],
[14.8934,40.6792],
[14.8919,40.6144],
[14.9711,40.6144],
[15.0414,40.2259],
[15.1995,40.2259],
[15.4319,40.0317],
[15.7478,40.0317],
[15.6655,39.9023],
[15.8989,39.7729],
[16.1165,39.0618],
[16.2703,38.9326],
[16.2652,38.7389],
[15.9497,38.6743],
[15.8546,37.9643],
[16.4919,38.416],
[16.5024,38.8034],
[17.1383,39.0618],
[17.0697,39.385],
[16.9162,39.5143],
[16.4473,39.6436],
[16.4567,39.967],
[16.6975,40.0964],
[16.6245,40.2906],
[16.8617,40.2906],
[16.945,40.4201],
[16.868,40.4849],
[17.0285,40.5496],
[17.1077,40.5496],
[17.1913,40.6792],
[17.4291,40.6792],
[17.7364,40.4201],
[17.8995,40.5496],
[17.9787,40.5496],
[17.0462,41.068],
[15.9439,41.3922],
[15.8738,41.7167],
[16.1149,41.7816],
[16.1189,41.9114],
[15.2414,41.9114],
[15.165,42.0413],
[15.0852,42.0413],
[14.924,41.9764],
[14.7659,42.0413],
[14.769,42.1712],
[14.6077,42.1063],
[14.4509,42.2362],
[14.3709,42.2362],
[14.2071,42.0413],
[14.0475,42.0413],
[13.7352,42.4312],
[13.4963,42.4962],
[13.4985,42.6262],
[13.3383,42.6262],
[13.2522,42.2362],
[13.0924,42.2362],
[13.0097,42.0413]
]
],
[
[
[21.2436,37.8352],
[21.3217,37.8352],
[21.3186,37.7707],
[21.6311,37.7707],
[21.6375,37.8998],
[21.4124,38.0933],
[21.3342,38.0933],
[21.3279,37.9643],
[21.2497,37.9643],
[21.2436,37.8352]
]
],
[
[
[21.6031,37.1904],
[21.681,37.1904],
[21.7435,36.8682],
[21.8992,36.8682],
[21.9085,37.0615],
[22.22,37.0615],
[22.3563,36.6749],
[22.5118,36.6749],
[22.5994,36.8682],
[22.8328,36.8682],
[23.056,36.6749],
[22.8532,37.2549],
[22.7007,37.3193],
[22.7041,37.3838],
[22.3989,37.5128],
[22.1582,37.3838],
[22.0867,37.5128],
[21.6966,37.5128],
[21.6935,37.4483],
[21.6031,37.1904]
]
],
[
[
[22.874,36.1596],
[23.1068,36.1596],
[23.1168,36.3528],
[22.9649,36.4172],
[22.8872,36.4172],
[22.874,36.1596]
]
]
]}
}
