{
"type": "Feature",
"properties": {"id":"cliopatria-greenland-1757","edge_precision":"unknown","cliopatria_name":"Greenland","cliopatria_from_year":1757,"cliopatria_to_year":1768,"cliopatria_area_km2":50390,"cliopatria_wikidata":"Q223","cliopatria_wikipedia":"Greenland"},
"geometry": {"type": "MultiPolygon", "coordinates": [
[
[
[-53.4228,66.1802],
[-53.0738,65.6641],
[-52.8809,65.6641],
[-52.5415,65.4436],
[-52.2525,65.0042],
[-52.3483,65.0042],
[-52.1591,64.5664],
[-52.2544,64.5664],
[-52.0202,64.203],
[-51.7352,64.203],
[-51.5054,63.8407],
[-51.6947,63.8407],
[-51.5579,63.6239],
[-51.1351,63.5517],
[-51.0901,63.4796],
[-51.2338,63.4075],
[-51.1443,63.2634],
[-50.7236,63.1915],
[-50.4977,62.9758],
[-50.3234,62.6889],
[-50.5105,62.6889],
[-50.3377,62.4027],
[-49.6931,62.2599],
[-49.6509,62.1885],
[-49.837,62.1885],
[-49.7105,61.9746],
[-49.2461,61.9746],
[-49.2878,62.0459],
[-49.0506,62.1172],
[-49.2606,62.4742],
[-49.1673,62.4742],
[-49.3371,62.7606],
[-49.2435,62.7606],
[-49.4149,63.0477],
[-49.321,63.0477],
[-49.4871,63.4796],
[-49.19,63.7684],
[-49.2339,63.8407],
[-49.0446,63.8407],
[-48.9361,64.1304],
[-48.8412,64.1304],
[-49.3381,64.7851],
[-49.7118,65.0773],
[-49.8077,65.0773],
[-50.0889,65.3703],
[-49.9927,65.3703],
[-50.0393,65.4436],
[-50.3749,65.5171],
[-50.7563,65.9587],
[-51.6279,66.1063],
[-52.2134,66.4022],
[-52.2158,66.5504],
[-52.894,66.4022],
[-52.8438,66.3281],
[-53.182,66.2541],
[-53.1318,66.1802],
[-53.4228,66.1802]
]
],
[
[
[-52.4411,70.2558],
[-52.4288,70.1016],
[-52.1696,70.0247],
[-51.967,70.0247],
[-52.0233,70.1016],
[-51.5618,70.0247],
[-51.9332,70.2558],
[-52.4411,70.2558]
]
],
[
[
[-52.1157,71.187],
[-51.9398,70.9532],
[-51.588,71.031],
[-51.7048,71.187],
[-52.1157,71.187]
]
],
[
[
[-51.4015,68.9536],
[-51.3418,68.7257],
[-50.7957,68.8016],
[-50.9013,68.9536],
[-50.7542,69.0297],
[-50.8074,69.1058],
[-51.0613,69.1821],
[-50.4123,69.2583],
[-50.519,69.4111],
[-50.3714,69.4875],
[-50.9288,69.5641],
[-50.8747,69.4875],
[-51.223,69.4111],
[-51.1616,69.1821],
[-51.2619,69.1821],
[-51.1547,69.0297],
[-51.2549,69.0297],
[-51.2015,68.9536],
[-51.4015,68.9536]
]
]
]}
}
