{
"type": "Feature",
"properties": {"id":"cliopatria-eastern-hungarian-kingdom-1540","edge_precision":"unknown","cliopatria_name":"Eastern Hungarian Kingdom","cliopatria_from_year":1540,"cliopatria_to_year":1546,"cliopatria_area_km2":89943,"cliopatria_wikidata":"Q625380","cliopatria_wikipedia":"Eastern Hungarian Kingdom"},
"geometry": {"type": "MultiPolygon", "coordinates": [
[
[
[21.2262,47.1374],
[21.542,46.9401],
[21.5289,46.7429],
[21.9941,46.3489],
[21.8855,45.9554],
[21.8038,45.9554],
[21.8503,45.4313],
[22.0722,45.1042],
[22.5505,44.9734],
[22.6317,44.9734],
[22.7364,45.3004],
[23.1382,45.235],
[23.4735,45.3659],
[23.4836,45.4968],
[25.0423,45.6278],
[25.3453,45.3659],
[25.4382,45.4968],
[25.8455,45.4968],
[25.9389,45.6278],
[26.1019,45.6278],
[26.4404,45.7588],
[26.4779,46.1521],
[25.9421,46.5459],
[25.9668,46.8086],
[25.7266,46.8743],
[25.6689,47.1374],
[25.0166,47.2032],
[25.0343,47.4006],
[24.8813,47.5323],
[24.905,47.7959],
[24.5862,47.9278],
[24.6867,48.1257],
[24.3672,48.2578],
[24.379,48.3899],
[24.053,48.4559],
[23.6663,48.7865],
[23.3337,48.7865],
[23.1511,48.5881],
[23.1295,48.3238],
[23.2124,48.3238],
[23.2685,47.9938],
[23.1858,47.9938],
[23.077,47.6641],
[22.9069,47.5982],
[22.8917,47.4006],
[22.2324,47.4006],
[22.1595,47.5323],
[21.4172,47.5323],
[21.2435,47.4006],
[21.2262,47.1374]
]
]
]}
}
