{
"type": "Feature",
"properties": {"id":"cliopatria-greenland-1772","edge_precision":"unknown","cliopatria_name":"Greenland","cliopatria_from_year":1772,"cliopatria_to_year":1774,"cliopatria_area_km2":67257,"cliopatria_wikidata":"Q223","cliopatria_wikipedia":"Greenland"},
"geometry": {"type": "MultiPolygon", "coordinates": [
[
[
[-54.0529,67.3698],
[-53.8429,67.0711],
[-53.5491,67.0711],
[-53.4456,66.922],
[-53.0545,66.922],
[-52.9523,66.7732],
[-53.538,66.7732],
[-53.5793,66.5504],
[-53.7741,66.5504],
[-53.7229,66.4763],
[-53.8663,66.4022],
[-53.6633,66.1063],
[-53.3725,66.1063],
[-53.0738,65.6641],
[-52.8809,65.6641],
[-52.5415,65.4436],
[-52.2525,65.0042],
[-52.3483,65.0042],
[-52.1591,64.5664],
[-52.2544,64.5664],
[-52.0202,64.203],
[-51.6402,64.203],
[-51.5403,64.4937],
[-51.3062,64.2756],
[-51.1161,64.2756],
[-51.0245,64.1304],
[-51.689,64.1304],
[-51.5054,63.8407],
[-51.6947,63.8407],
[-51.4182,63.5517],
[-51.1351,63.5517],
[-50.9511,63.4075],
[-50.9117,63.1915],
[-50.7236,63.1915],
[-50.5915,62.9758],
[-50.1727,62.9041],
[-50.1293,62.8323],
[-50.4103,62.8323],
[-50.3234,62.6889],
[-50.5105,62.6889],
[-50.3377,62.4027],
[-49.6931,62.2599],
[-49.6509,62.1885],
[-49.837,62.1885],
[-49.7105,61.9746],
[-49.1019,62.0459],
[-49.4871,63.4796],
[-49.19,63.7684],
[-49.2339,63.8407],
[-49.0446,63.8407],
[-48.9361,64.1304],
[-48.8412,64.1304],
[-49.3381,64.7851],
[-49.996,65.2237],
[-50.0393,65.4436],
[-50.3749,65.5171],
[-50.5641,65.8113],
[-51.3371,66.1063],
[-51.6279,66.1063],
[-52.2134,66.4022],
[-52.2158,66.5504],
[-52.4106,66.5504],
[-52.5112,66.6989],
[-52.4137,66.6989],
[-52.4677,66.922],
[-52.8122,66.9965],
[-52.4207,66.9965],
[-52.5274,67.295],
[-52.2841,67.3698],
[-52.3356,67.4446],
[-52.4339,67.4446],
[-52.491,67.6695],
[-52.2471,67.7445],
[-52.3049,67.9701],
[-52.0604,68.0453],
[-52.1655,68.1961],
[-52.5161,68.2716],
[-52.2183,68.2716],
[-52.3318,68.5741],
[-52.2322,68.5741],
[-52.3935,68.8016],
[-52.9927,68.8016],
[-52.884,68.6499],
[-53.183,68.6499],
[-53.1287,68.5741],
[-53.2736,68.4984],
[-53.1655,68.3471],
[-52.8217,68.4227],
[-52.6614,68.1961],
[-53.0125,68.2716],
[-53.6532,68.1961],
[-53.3932,67.9701],
[-53.8341,67.8948],
[-53.7806,67.8196],
[-53.9246,67.7445],
[-53.7652,67.5195],
[-53.9621,67.5195],
[-53.9092,67.4446],
[-54.0529,67.3698]
]
],
[
[
[-52.4411,70.2558],
[-52.4288,70.1016],
[-52.1696,70.0247],
[-51.967,70.0247],
[-52.0233,70.1016],
[-51.5618,70.0247],
[-51.9332,70.2558],
[-52.4411,70.2558]
]
],
[
[
[-52.1157,71.187],
[-51.9398,70.9532],
[-51.588,71.031],
[-51.7048,71.187],
[-52.1157,71.187]
]
],
[
[
[-51.4015,68.9536],
[-51.3949,68.8016],
[-51.3418,68.7257],
[-51.0841,68.4984],
[-50.8851,68.4984],
[-50.9373,68.5741],
[-50.8377,68.5741],
[-50.9954,68.8016],
[-50.7957,68.8016],
[-50.9013,68.9536],
[-50.7542,69.0297],
[-51.0613,69.1821],
[-50.4123,69.2583],
[-50.519,69.4111],
[-50.3714,69.4875],
[-50.4251,69.5641],
[-50.9288,69.5641],
[-50.8747,69.4875],
[-51.223,69.4111],
[-51.1616,69.1821],
[-51.2619,69.1821],
[-51.1547,69.0297],
[-51.4015,68.9536]
]
],
[
[
[-45.93,60.8399],
[-45.7786,60.5577],
[-45.4663,60.4873],
[-45.5037,60.5577],
[-45.2662,60.6282],
[-45.0261,60.3465],
[-44.7518,60.3465],
[-44.7886,60.4168],
[-44.4044,60.5577],
[-44.6439,60.8399],
[-45.4003,61.0519],
[-45.4923,61.0519],
[-45.5085,60.9105],
[-45.6923,60.9105],
[-45.6544,60.8399],
[-45.93,60.8399]
]
]
]}
}
