{
"type": "Feature",
"properties": {"id":"cliopatria-joseon-1636","edge_precision":"unknown","cliopatria_name":"Joseon","cliopatria_from_year":1636,"cliopatria_to_year":1639,"cliopatria_area_km2":202508,"cliopatria_wikidata":"Q28405","cliopatria_wikipedia":"Joseon"},
"geometry": {"type": "MultiPolygon", "coordinates": [
[
[
[125.231,37.6417],
[125.4988,37.7062],
[125.4543,37.7707],
[125.3762,37.7707],
[125.231,37.6417]
]
],
[
[
[125.3584,40.4201],
[125.4399,40.2906],
[125.598,40.2906],
[125.6417,40.0964],
[125.7997,40.0964],
[125.9231,39.9023],
[125.7692,39.7729],
[125.8896,39.7083],
[125.7416,39.4496],
[125.8258,39.3203],
[125.5809,38.7389],
[125.6594,38.7389],
[125.624,38.6743],
[125.6321,38.5451],
[125.7889,38.5451],
[125.9733,38.7389],
[125.6841,38.3515],
[125.8844,38.2869],
[125.8152,38.1578],
[126.363,38.1578],
[126.4505,38.0288],
[127.0326,38.0933],
[126.998,38.0288],
[127.2762,37.9643],
[127.5391,37.5773],
[127.326,37.3193],
[127.0141,37.3193],
[126.9253,37.4483],
[126.6577,37.3838],
[126.6243,37.3193],
[126.7023,37.3193],
[126.6475,37.0615],
[126.3032,36.9971],
[126.0498,36.8037],
[126.2638,36.6105],
[126.4516,36.6749],
[126.4286,36.1596],
[126.5206,36.0308],
[126.6757,36.0308],
[126.6128,35.902],
[126.7678,35.902],
[126.5192,35.7089],
[126.3039,35.2584],
[126.3812,35.2584],
[126.1998,34.8723],
[126.4784,34.8079],
[126.1166,34.3577],
[126.3476,34.3577],
[126.4837,34.4863],
[126.4246,34.3577],
[126.6262,34.2933],
[127.0229,34.4863],
[127.2196,34.7436],
[127.2968,34.7436],
[127.1297,34.5506],
[127.2243,34.422],
[127.3783,34.422],
[127.7595,34.7436],
[128.0679,34.7436],
[128.0821,34.9366],
[128.3136,34.9366],
[128.3297,34.8079],
[128.6849,34.7436],
[128.8074,35.001],
[128.5451,34.9366],
[128.5294,35.0653],
[128.8692,35.1297],
[128.9618,35.001],
[129.2865,35.194],
[129.6669,35.9664],
[129.5765,36.0952],
[129.4214,36.0952],
[129.495,36.546],
[129.4173,36.546],
[129.5167,36.7393],
[129.439,36.7393],
[129.5393,36.9326],
[129.4069,37.126],
[129.4748,37.2549],
[129.2563,37.5773],
[129.1002,37.5773],
[128.3638,38.8034],
[127.9234,38.9972],
[127.7978,39.1911],
[127.4414,39.2557],
[127.6653,39.6436],
[127.5833,39.7729],
[127.9346,39.967],
[128.368,40.0317],
[128.6822,40.2906],
[129.0777,40.4201],
[129.2378,40.6792],
[129.7558,40.8736],
[129.8822,41.1977],
[129.6932,41.522],
[129.7352,41.5869],
[129.7823,41.7816],
[130.1558,42.1063],
[130.6054,42.3012],
[130.7366,42.4962],
[130.5766,42.4962],
[130.6205,42.5612],
[130.3002,42.5612],
[130.2001,42.8864],
[130.0397,42.8864],
[130.084,42.9515],
[129.8433,42.9515],
[129.6963,42.4962],
[129.1664,42.3012],
[128.8355,42.0413],
[128.0749,41.9764],
[127.9908,41.8465],
[128.1503,41.8465],
[128.1084,41.7816],
[128.2678,41.7816],
[128.3436,41.6518],
[128.0982,41.3922],
[127.3437,41.4571],
[127.3848,41.522],
[127.1075,41.5869],
[127.0722,41.7816],
[126.712,41.7167],
[126.1071,41.0032],
[125.3953,40.6144],
[125.4745,40.6144],
[125.3584,40.4201]
]
],
[
[
[126.1388,33.2002],
[126.7035,33.2645],
[126.7801,33.2645],
[126.9988,33.5859],
[126.3563,33.5217],
[126.1388,33.2002]
]
],
[
[
[126.2903,37.5773],
[126.6025,37.5773],
[126.6261,37.7707],
[126.3477,37.8352],
[126.3137,37.7707],
[126.2903,37.5773]
]
],
[
[
[127.1593,37.4483],
[127.3153,37.4483],
[127.383,37.5773],
[127.2269,37.5773],
[127.1593,37.4483]
]
]
]}
}
