{
"type": "Feature",
"properties": {"id":"cliopatria-ptolemaic-kingdom-32bce","edge_precision":"unknown","cliopatria_name":"Ptolemaic Kingdom","cliopatria_from_year":-31,"cliopatria_to_year":-31,"cliopatria_area_km2":1273893,"cliopatria_wikidata":"Q2320005","cliopatria_wikipedia":"Ptolemaic Kingdom","cliopatria_seshat_id":"eg_ptolemaic_k_2"},
"geometry": {"type": "MultiPolygon", "coordinates": [
[
[
[18.812,30.0508],
[19.4961,30.1151],
[19.6514,30.2436],
[20.9516,30.565],
[21.9388,30.565],
[22.7667,30.3722],
[22.7618,30.2436],
[22.916,30.3079],
[23.5101,29.9865],
[23.9622,29.9223],
[24.3304,29.6652],
[24.7792,29.5366],
[24.8467,29.3438],
[25.0008,29.4081],
[25.1465,29.2795],
[25.3735,29.2795],
[25.5863,28.9581],
[27.1401,28.251],
[27.285,28.1224],
[27.2763,27.9295],
[27.4299,27.9938],
[27.792,27.6724],
[27.7109,27.5438],
[27.9367,27.5438],
[28.1537,27.3509],
[28.2702,26.5794],
[28.3453,26.5794],
[28.2437,25.9365],
[28.2886,25.165],
[28.5688,24.6506],
[29.6728,24.2006],
[29.9595,23.8792],
[30.1087,23.8792],
[30.104,23.7506],
[30.3952,23.5577],
[30.4627,23.3649],
[30.5372,23.3649],
[31.6705,23.7506],
[32.0409,23.6863],
[33.389,23.8149],
[33.6818,23.6863],
[33.7564,23.6863],
[35.108,23.8792],
[35.5526,23.8149],
[35.5588,23.9435],
[35.8541,23.8792],
[35.8604,24.0077],
[35.1455,24.6506],
[34.6076,25.8079],
[34.4613,25.8722],
[34.1972,26.5151],
[34.0507,26.5794],
[34.0731,26.9652],
[33.9266,27.0295],
[33.7992,27.4152],
[33.5851,27.6081],
[33.6089,27.9938],
[33.1053,28.3795],
[32.8361,28.8938],
[32.6892,28.9581],
[32.6387,29.3438],
[32.4287,29.6009],
[32.5261,29.9223],
[32.6019,29.9223],
[33.0747,30.1794],
[33.3304,30.565],
[33.445,31.0791],
[33.369,31.0791],
[32.8317,31.0148],
[32.7652,31.1434],
[32.5322,31.0791],
[32.2372,31.2076],
[32.3039,31.0791],
[31.9996,31.0791],
[31.9374,31.2719],
[31.7806,31.2076],
[31.8752,31.4647],
[31.2658,31.4647],
[31.118,31.529],
[31.2033,31.6575],
[30.9746,31.6575],
[30.9656,31.529],
[30.8088,31.4647],
[30.3517,31.4647],
[30.2712,31.4005],
[30.3388,31.2719],
[29.882,31.2719],
[29.8018,31.2076],
[29.8696,31.0791],
[29.6332,30.9506],
[29.4851,31.0148],
[29.3971,30.822],
[28.865,30.822],
[28.4964,31.0148],
[27.5149,31.1434],
[27.2975,31.3362],
[26.8477,31.4647],
[25.248,31.4647],
[25.102,31.5933],
[25.1117,31.7861],
[24.8925,31.9789],
[24.1294,31.9789],
[23.9064,32.1074],
[23.8301,32.1074],
[23.1486,32.236],
[23.0894,32.6216],
[22.1085,32.943],
[21.5698,32.8788],
[21.4117,32.7502],
[21.108,32.8145],
[20.8712,32.6216],
[20.6441,32.6859],
[20.7159,32.5574],
[20.563,32.5574],
[20.482,32.4288],
[20.3313,32.4931],
[20.2461,32.236],
[20.017,32.236],
[20.0891,32.1074],
[19.9961,31.5933],
[20.2143,31.2719],
[20.1221,30.7578],
[19.5014,30.3079],
[18.8944,30.3079],
[18.812,30.0508]
]
],
[
[
[20.3199,38.1578],
[20.7865,38.0933],
[20.7954,38.2869],
[20.5664,38.416],
[20.4881,38.416],
[20.3285,38.3515],
[20.3199,38.1578]
]
],
[
[
[20.3543,40.5496],
[20.5027,40.3554],
[20.4799,39.9023],
[20.5588,39.9023],
[20.6153,39.4496],
[20.7696,39.385],
[20.911,39.0618],
[21.1467,39.0618],
[21.1403,38.9326],
[20.8292,38.9972],
[20.7414,38.8034],
[20.9737,38.7389],
[21.1933,38.416],
[21.7384,38.3515],
[21.7286,38.1578],
[21.4156,38.1578],
[21.2436,37.8352],
[21.6966,37.5128],
[21.6031,37.1904],
[21.681,37.1904],
[21.7435,36.8682],
[21.8992,36.8682],
[21.9085,37.0615],
[22.22,37.0615],
[22.3563,36.6749],
[22.5118,36.6749],
[22.5994,36.8682],
[22.8328,36.8682],
[23.056,36.6749],
[22.8532,37.2549],
[22.7007,37.3193],
[22.7144,37.5773],
[22.9486,37.5773],
[23.1756,37.4483],
[23.1685,37.3193],
[23.4024,37.3193],
[23.3425,37.6417],
[23.1083,37.6417],
[23.0445,37.8998],
[23.2008,37.8998],
[23.2082,38.0288],
[23.4428,38.0288],
[23.9786,37.8352],
[24.0021,38.2224],
[24.1587,38.2224],
[24.1789,38.5451],
[24.0302,38.6743],
[23.5634,38.7389],
[23.6261,38.4806],
[23.3126,38.4806],
[23.1672,38.6743],
[22.9356,38.7389],
[23.0254,38.9326],
[23.3318,38.8034],
[23.4928,38.868],
[22.9583,39.1265],
[22.7973,39.0618],
[22.8163,39.385],
[23.1352,39.4496],
[22.6109,39.9023],
[22.7017,40.0964],
[22.5437,40.0964],
[22.5595,40.3554],
[22.6549,40.6144],
[22.8925,40.6144],
[22.8842,40.4849],
[23.2673,40.2906],
[23.7374,40.2259],
[23.8386,40.5496],
[23.6846,40.6144],
[23.698,40.8088],
[24.0106,40.744],
[24.3466,41.0032],
[25.8495,40.9384],
[26.0822,40.8736],
[26.1403,40.6144],
[26.6264,40.744],
[26.9214,40.4849],
[27.0172,40.6792],
[27.5275,41.068],
[29.1156,41.068],
[29.1028,40.9384],
[29.2486,40.8088],
[29.493,40.8736],
[29.3944,40.6792],
[28.9127,40.6144],
[28.9004,40.4849],
[29.0463,40.3554],
[27.9388,40.3554],
[27.9505,40.4849],
[27.7921,40.4849],
[27.6958,40.2906],
[27.5376,40.2906],
[27.4698,40.4201],
[26.6731,40.3554],
[26.6839,40.4849],
[26.6047,40.4849],
[26.2723,40.2906],
[26.1325,39.5143],
[26.8466,39.5789],
[26.7422,39.2557],
[26.8945,39.1911],
[26.8793,38.9972],
[26.9579,38.9972],
[26.8495,38.6097],
[27.0798,38.5451],
[27.065,38.3515],
[26.595,38.3515],
[26.5358,38.6097],
[26.3837,38.6743],
[26.4289,38.2224],
[26.8203,38.2224],
[26.889,38.0933],
[27.2753,38.0288],
[27.1777,37.7707],
[27.2559,37.7707],
[27.1634,37.5773],
[27.31,37.4483],
[27.2225,37.3193],
[27.5392,37.3838],
[27.598,37.126],
[28.0653,37.126],
[28.1383,37.0615],
[28.0314,36.6749],
[28.1869,36.6749],
[28.3571,36.8682],
[29.1249,36.7393],
[29.2397,36.224],
[29.938,36.224],
[30.0261,36.3528],
[30.4919,36.3528],
[30.6191,36.9326],
[31.086,36.9326],
[31.9185,36.6749],
[32.4985,36.224],
[32.5583,36.0308],
[32.7134,36.0308],
[33.2744,36.224],
[33.9791,36.2884],
[34.2507,36.6749],
[34.5816,36.8682],
[34.8929,36.8682],
[34.9504,36.6749],
[35.1127,36.7393],
[35.4877,36.6105],
[35.8336,36.9326],
[36.1449,36.9326],
[36.2862,36.8037],
[36.2649,36.6105],
[35.8417,36.2884],
[35.9901,36.224],
[35.8449,35.5802],
[35.9929,35.5158],
[35.8825,35.194],
[35.9597,35.194],
[35.927,34.8723],
[36.0682,34.7436],
[36.0488,34.5506],
[35.7921,34.2933],
[35.6445,34.3577],
[35.6838,33.9718],
[35.447,33.9075],
[35.4993,33.6502],
[35.3458,33.6502],
[35.3984,33.3931],
[35.2154,33.0716],
[35.0563,33.0073],
[35.0218,32.6216],
[34.8575,32.4931],
[34.8519,32.4288],
[35.1576,32.4288],
[35.3984,32.5574],
[35.5338,33.2002],
[35.6992,33.3288],
[36.0521,33.0073],
[35.9635,32.8788],
[35.9237,31.5933],
[35.8475,31.5933],
[35.7606,30.565],
[35.8365,30.565],
[36.1457,30.6292],
[36.1564,30.7578],
[36.4009,30.9506],
[36.2709,31.2076],
[36.4231,31.2076],
[36.3866,31.6575],
[36.4629,31.6575],
[36.4919,31.9789],
[36.6564,32.1074],
[36.5155,32.236],
[36.7507,32.3002],
[36.7168,32.7502],
[36.901,33.0716],
[37.0542,33.0716],
[37.0732,33.2645],
[37.5726,33.6502],
[37.7261,33.6502],
[37.7395,33.7789],
[37.9902,33.9718],
[39.1238,34.4863],
[40.2569,34.2933],
[40.4033,34.229],
[40.3115,34.1004],
[40.4728,34.1647],
[40.5497,34.1647],
[40.4792,34.8723],
[40.263,35.001],
[40.2784,35.1297],
[40.0621,35.2584],
[39.9383,35.5158],
[39.4971,35.7089],
[38.428,35.8377],
[38.0701,36.0952],
[38.2079,36.6105],
[38.1302,36.6105],
[38.1762,36.9971],
[37.958,37.126],
[37.9891,37.3838],
[38.333,37.6417],
[38.4435,37.8998],
[38.4599,38.0288],
[38.3817,38.0288],
[38.3899,38.0933],
[37.451,38.0933],
[37.1302,38.0288],
[37.1146,37.8998],
[36.3481,38.0288],
[35.9981,37.7062],
[35.6712,37.5773],
[35.0538,37.6417],
[34.8767,37.4483],
[34.5647,37.4483],
[34.3036,37.1904],
[33.4337,37.0615],
[33.0971,36.8037],
[32.8637,36.8037],
[32.7983,36.9326],
[32.5526,36.8037],
[32.2414,36.8037],
[31.9722,37.2549],
[31.5944,37.3838],
[31.5164,37.3838],
[31.5224,37.4483],
[31.2162,37.5128],
[31.0485,37.3838],
[30.7366,37.3838],
[30.7481,37.5128],
[30.5312,37.7062],
[30.152,37.8352],
[30.2474,38.0288],
[30.8911,38.2224],
[30.9876,38.416],
[31.3857,38.4806],
[31.443,39.0618],
[31.233,39.3203],
[31.3783,39.967],
[31.3061,40.0317],
[32.11,40.1612],
[32.3043,40.4849],
[33.0017,40.3554],
[33.0959,40.4849],
[33.4125,40.4849],
[33.5554,40.3554],
[34.4888,40.2259],
[34.6161,40.6144],
[34.791,40.744],
[34.5614,40.8088],
[34.5779,40.9384],
[35.105,41.3274],
[35.3262,41.1977],
[35.6441,41.1977],
[36.0855,40.9384],
[36.4118,41.0032],
[36.4733,40.8736],
[36.8971,41.068],
[36.9246,41.2625],
[36.2092,41.2625],
[35.9538,41.7167],
[35.3075,41.6518],
[35.086,41.7816],
[35.1212,42.0413],
[34.8817,42.0413],
[34.7845,41.9114],
[32.6308,41.9114],
[32.6947,41.7816],
[32.1934,41.5869],
[32.0417,41.6518],
[32.0265,41.522],
[31.5342,41.3922],
[31.1801,41.068],
[30.6242,41.068],
[30.4792,41.1977],
[28.9631,41.1328],
[28.9759,41.2625],
[28.3525,41.3922],
[28.2183,41.6518],
[28.0528,41.5869],
[28.0043,41.9114],
[27.9245,41.9114],
[27.9307,41.9764],
[27.6115,41.9764],
[27.4641,42.1063],
[26.5742,41.9764],
[26.2325,41.7167],
[25.6802,41.7816],
[24.1511,41.5869],
[23.9028,41.4571],
[23.7437,41.4571],
[23.4483,41.7816],
[23.2137,41.8465],
[23.1339,41.8465],
[22.8991,41.9114],
[22.8282,42.0413],
[22.7484,42.0413],
[22.442,42.2362],
[22.455,42.4312],
[21.4071,42.3012],
[21.3193,42.1712],
[20.8475,42.3012],
[20.8513,42.3662],
[20.4514,42.3662],
[20.4406,42.1712],
[20.5931,42.0413],
[20.4919,41.6518],
[20.5365,41.0032],
[20.4571,41.0032],
[20.3543,40.5496]
]
],
[
[
[20.6127,37.7062],
[20.9221,37.6417],
[20.934,37.8998],
[20.6213,37.8998],
[20.6127,37.7062]
]
],
[
[
[22.874,36.1596],
[23.1068,36.1596],
[23.1168,36.3528],
[22.9649,36.4172],
[22.8872,36.4172],
[22.874,36.1596]
]
],
[
[
[23.4849,38.7389],
[23.5634,38.7389],
[23.5673,38.8034],
[23.4888,38.8034],
[23.4849,38.7389]
]
],
[
[
[23.6154,35.5158],
[23.6792,35.2584],
[24.4484,35.194],
[24.7574,35.194],
[24.8237,35.001],
[26.1401,35.0653],
[26.2253,35.194],
[25.6806,35.1297],
[25.6923,35.3227],
[24.301,35.3227],
[24.1499,35.3871],
[24.1569,35.5158],
[23.6154,35.5158]
]
],
[
[
[24.2013,37.6417],
[24.2716,37.5128],
[24.4316,37.5773],
[24.3614,37.7062],
[24.2833,37.7062],
[24.2013,37.6417]
]
],
[
[
[24.3565,38.868],
[24.662,38.7389],
[24.6749,38.9326],
[24.4435,38.9972],
[24.365,38.9972],
[24.3565,38.868]
]
],
[
[
[24.6819,37.8352],
[24.83,37.7062],
[25.0685,37.7707],
[24.7724,38.0288],
[24.6942,38.0288],
[24.6819,37.8352]
]
],
[
[
[24.9739,39.8376],
[25.4473,39.8376],
[25.4619,40.0317],
[25.067,40.0317],
[24.9739,39.8376]
]
],
[
[
[24.9862,37.7062],
[25.0519,37.5128],
[25.286,37.5128],
[25.2205,37.7062],
[24.9862,37.7062]
]
],
[
[
[25.3308,36.9971],
[25.5644,36.9971],
[25.5727,37.126],
[25.339,37.126],
[25.3308,36.9971]
]
],
[
[
[25.7934,39.1911],
[26.1032,39.1265],
[26.0936,38.9972],
[26.2459,38.9326],
[26.6436,38.9972],
[26.5112,39.3203],
[26.1226,39.385],
[26.0439,39.385],
[25.7934,39.1911]
]
],
[
[
[25.8208,38.4806],
[25.8991,38.4806],
[25.8764,38.1578],
[26.1112,38.1578],
[26.2173,38.5451],
[25.9914,38.6743],
[25.913,38.6743],
[25.8208,38.4806]
]
],
[
[
[25.9882,37.5128],
[26.3049,37.5773],
[26.3139,37.7062],
[26.0796,37.7062],
[25.9882,37.5128]
]
],
[
[
[26.8653,36.6749],
[27.1854,36.8037],
[27.1168,36.9326],
[27.0389,36.9326],
[26.8653,36.6749]
]
],
[
[
[27.6925,36.2884],
[27.7426,35.902],
[28.1393,36.0308],
[28.2502,36.4816],
[28.0171,36.4816],
[27.6925,36.2884]
]
],
[
[
[32.229,34.9366],
[32.3667,34.7436],
[33.0436,34.5506],
[33.1321,34.6793],
[33.5234,34.7436],
[33.6954,34.9366],
[34.0873,35.001],
[33.9571,35.2584],
[34.5294,35.5802],
[34.5421,35.7089],
[34.3098,35.7089],
[33.7374,35.3871],
[32.8869,35.3871],
[32.8752,35.2584],
[32.5547,35.1297],
[32.2458,35.1297],
[32.229,34.9366]
]
]
]}
}
