{
"type": "Feature",
"properties": {"id":"cliopatria-western-karakhanid-khanate-1072","edge_precision":"unknown","cliopatria_name":"Western Karakhanid Khanate","cliopatria_from_year":1072,"cliopatria_to_year":1084,"cliopatria_area_km2":382959,"cliopatria_wikidata":"Q494354","cliopatria_wikipedia":"Kara-Khanid Khanate"},
"geometry": {"type": "MultiPolygon", "coordinates": [
[
[
[62.5467,39.9023],
[63.0883,39.2557],
[63.2457,39.2557],
[63.4155,38.9972],
[63.8374,38.8034],
[64.0075,38.5451],
[64.3669,38.416],
[64.6615,38.0288],
[65.2388,37.8352],
[65.6274,37.5128],
[65.9396,37.5128],
[66.1416,37.3838],
[67.7465,37.2549],
[67.9152,36.9971],
[68.1487,36.9971],
[68.7764,37.3193],
[69.0103,37.3193],
[69.1161,37.126],
[69.3498,37.126],
[69.546,37.5773],
[70.0752,37.5128],
[70.2658,37.6417],
[70.1619,37.8352],
[70.2147,38.0288],
[70.3733,38.0933],
[70.4238,38.313],
[71.1838,38.416],
[71.3456,38.157],
[72.9618,38.2153],
[73.2081,38.1026],
[73.2241,38.1578],
[73.5713,38.8034],
[73.7104,39.5143],
[73.929,39.7083],
[73.8502,39.7083],
[73.9533,40.0317],
[73.8162,40.0964],
[73.858,40.2259],
[73.684,40.4201],
[73.5257,40.4201],
[73.4889,40.5496],
[73.3305,40.5496],
[73.2938,40.6792],
[72.7815,40.8088],
[72.7662,41.0032],
[71.8764,41.9114],
[71.3257,42.1712],
[71.086,42.1712],
[71.0499,42.3012],
[70.7521,42.3662],
[70.716,42.4962],
[70.4178,42.5612],
[70.1132,43.0816],
[69.5369,43.2769],
[69.8637,43.9938],
[69.9444,43.9938],
[69.9318,44.1896],
[68.8951,43.9938],
[68.1686,43.9938],
[68.4253,43.7982],
[68.3814,43.6678],
[68.5573,43.4723],
[68.4486,43.1467],
[68.529,43.1467],
[68.4214,42.8213],
[68.5016,42.8213],
[68.454,42.4312],
[68.273,42.3662],
[68.1096,42.1063],
[67.4283,41.7167],
[67.3881,41.5869],
[66.5147,41.068],
[66.2793,40.8088],
[63.2647,40.2259],
[62.5807,40.0317],
[62.5467,39.9023]
]
]
]}
}
