{
"type": "Feature",
"properties": {"id":"cliopatria-burma-1853","edge_precision":"unknown","cliopatria_name":"Burma","cliopatria_from_year":1853,"cliopatria_to_year":1858,"cliopatria_area_km2":437084,"cliopatria_wikidata":"Q836","cliopatria_wikipedia":"Myanmar"},
"geometry": {"type": "MultiPolygon", "coordinates": [
[
[
[93.0289,22.0791],
[93.0374,21.6291],
[93.0931,21.5005],
[93.5201,21.372],
[93.6407,21.1791],
[94.1418,21.0505],
[94.1046,20.7934],
[94.4477,20.6005],
[94.5958,20.0862],
[94.7347,20.022],
[94.8177,19.5719],
[97.8436,19.5077],
[98.1044,19.7648],
[98.9191,19.7648],
[99.1902,20.0862],
[99.4125,20.0862],
[99.8323,20.4077],
[100.1289,20.4077],
[100.2427,20.6648],
[100.6436,20.8577],
[100.6937,21.1791],
[101.1798,21.4363],
[101.1567,21.7577],
[100.7443,21.5005],
[100.2243,21.5005],
[100.0318,21.6934],
[100.0726,21.9505],
[99.9444,22.0791],
[99.2854,22.1434],
[99.5704,22.9791],
[98.9429,23.2363],
[98.8707,23.6863],
[98.7326,23.7506],
[98.8754,24.1363],
[97.647,23.9435],
[97.79,24.3292],
[97.5891,24.4578],
[97.6482,24.7792],
[97.8218,24.9078],
[97.8709,25.165],
[98.1331,25.3579],
[98.1714,25.5507],
[98.6732,25.8079],
[98.8374,26.5794],
[98.7623,26.5794],
[98.8194,26.8366],
[98.7442,26.8366],
[98.8171,27.158],
[98.742,27.158],
[98.7414,27.4795],
[98.5612,27.6724],
[98.26,27.6724],
[98.1581,28.1867],
[97.9796,28.3795],
[97.5589,28.5081],
[97.4199,28.251],
[97.3422,27.9295],
[96.9952,27.7367],
[96.9355,27.4795],
[97.1317,27.3509],
[97.1631,27.158],
[96.9376,27.158],
[96.8914,27.2866],
[96.0497,27.2223],
[95.9318,27.0295],
[95.1589,26.5794],
[95.079,26.1937],
[95.1899,26.0008],
[94.7021,25.4221],
[94.7443,24.8435],
[94.3656,24.3935],
[94.2143,23.9435],
[93.9797,23.8792],
[93.8519,24.0077],
[93.4041,24.0077],
[93.4363,23.7506],
[93.3512,23.6863],
[93.4796,23.5577],
[93.4182,23.172],
[93.1747,23.0434],
[93.1607,22.4648],
[93.2351,22.4648],
[93.1871,22.1434],
[93.0289,22.0791]
]
]
]}
}
