{
"type": "Feature",
"properties": {"id":"cliopatria-malaya-1344","edge_precision":"unknown","cliopatria_name":"Malaya","cliopatria_from_year":1344,"cliopatria_to_year":1351,"cliopatria_area_km2":143273,"cliopatria_wikidata":"Q1479726","cliopatria_wikipedia":"Malaya"},
"geometry": {"type": "MultiPolygon", "coordinates": [
[
[
[100.3719,4.9144],
[100.5108,4.7858],
[100.4811,4.2072],
[100.8145,3.5643],
[101.2339,3.1786],
[101.2172,2.7929],
[101.4275,2.6],
[101.7161,2.5357],
[101.7108,2.4072],
[101.9917,2.15],
[102.3532,2.0857],
[102.632,1.7643],
[103.064,1.6357],
[103.2753,1.4428],
[103.2707,1.3143],
[103.4913,1.3786],
[104.2192,1.3786],
[104.2311,1.7],
[103.9548,2.0857],
[103.8276,2.5357],
[103.4044,2.8572],
[103.3667,3.6286],
[103.4812,4.4644],
[103.4084,4.4644],
[103.3631,4.9787],
[103.1662,5.3644],
[102.4062,6.0715],
[102.4101,6.1358],
[101.8427,6.393],
[101.5111,6.9073],
[100.8546,6.9073],
[100.7214,7.1002],
[100.6484,7.1002],
[100.567,6.9716],
[100.7045,6.843],
[100.6759,6.393],
[101.0938,6.0715],
[100.9067,5.3644],
[100.8338,5.3644],
[100.3753,4.9787],
[100.3719,4.9144]
]
],
[
[
[103.7668,0.9285],
[104.0601,0.9928],
[104.0668,1.1857],
[103.9235,1.25],
[103.7734,1.1214],
[103.7668,0.9285]
]
],
[
[
[104.1307,0.9285],
[104.2762,0.9285],
[104.3447,0.8],
[104.4903,0.8],
[104.574,1.1214],
[104.2123,1.1857],
[104.1307,0.9285]
]
]
]}
}
