{
"type": "Feature",
"properties": {"id":"cliopatria-sultanate-of-aceh-1626","edge_precision":"unknown","cliopatria_name":"Sultanate of Aceh","cliopatria_from_year":1626,"cliopatria_to_year":1639,"cliopatria_area_km2":127447,"cliopatria_wikidata":"Q1061057","cliopatria_wikipedia":"Aceh Sultanate"},
"geometry": {"type": "MultiPolygon", "coordinates": [
[
[
[95.0655,5.1715],
[95.3404,4.8501],
[95.3339,4.7215],
[96.2436,3.9501],
[96.2377,3.8215],
[96.5989,3.7572],
[96.8815,3.5643],
[97.1476,2.9857],
[97.5036,2.7929],
[97.5558,2.2786],
[97.9173,2.2143],
[98.6259,1.7],
[98.6122,1.3143],
[98.8112,0.7357],
[98.9527,0.6071],
[98.9409,0.2214],
[99.1592,0.2214],
[99.2281,0.0928],
[99.4596,0.0285],
[99.6063,-0.1001],
[99.6841,-0.4215],
[100.2014,-0.8715],
[100.2832,-1.3215],
[100.7331,-1.9001],
[100.7446,-2.3501],
[101.4223,-3.1216],
[101.562,-2.9287],
[101.407,-2.6073],
[101.1104,-2.4144],
[101.1797,-2.2858],
[101.0212,-1.7715],
[100.573,-1.2572],
[100.563,-0.7429],
[99.9731,-0.2929],
[99.7414,0.2214],
[99.169,0.5428],
[98.9034,1.3143],
[98.8491,1.8286],
[97.9249,2.4072],
[98.016,2.8572],
[97.884,3.1786],
[97.8983,3.5],
[97.7614,3.6929],
[97.9221,4.0143],
[98.344,3.6929],
[98.6067,3.05],
[99.3134,2.5357],
[99.3082,2.4072],
[99.5215,2.2786],
[99.5165,2.15],
[99.6596,2.0857],
[99.6547,1.9571],
[99.7978,1.8929],
[99.793,1.7643],
[100.0067,1.6357],
[100.0725,1.4428],
[100.0702,1.3786],
[100.3683,1.5714],
[100.3026,1.7643],
[100.1594,1.8286],
[100.247,2.2143],
[100.1742,2.2143],
[100.1845,2.4714],
[100.2573,2.4714],
[100.2599,2.5357],
[99.9038,2.7286],
[99.9147,2.9857],
[99.5647,3.3072],
[99.419,3.3072],
[99.1423,3.6286],
[98.7112,3.7572],
[98.5777,4.0143],
[98.2196,4.1429],
[98.2387,4.5286],
[98.0234,4.5929],
[97.8281,5.0429],
[97.474,5.2358],
[97.4775,5.3001],
[96.235,5.2358],
[95.6035,5.6858],
[95.239,5.6858],
[95.0861,5.5572],
[95.0655,5.1715]
]
],
[
[
[95.6078,2.7286],
[95.6754,2.6],
[96.1072,2.4714],
[96.175,2.3429],
[96.3934,2.3429],
[96.401,2.5357],
[96.0421,2.6643],
[95.9771,2.8572],
[95.7613,2.9215],
[95.6885,2.9215],
[95.6078,2.7286]
]
],
[
[
[97.0087,1.25],
[97.1499,1.1214],
[97.1478,1.0571],
[97.4326,0.8643],
[97.5679,0.5428],
[97.7882,0.6071],
[97.805,1.1214],
[97.4543,1.5071],
[97.0153,1.4428],
[97.0087,1.25]
]
],
[
[
[98.159,-0.6144],
[98.3773,-0.6144],
[98.4458,-0.3572],
[98.4448,-0.2929],
[98.368,0.0285],
[98.2093,0.0928],
[98.159,-0.6144]
]
],
[
[
[98.3549,0.0928],
[98.5135,0.0285],
[98.7318,0.0285],
[98.7206,0.1571],
[98.4314,0.2214],
[98.3549,0.0928]
]
],
[
[
[98.4571,-1.0001],
[98.4635,-1.3215],
[98.8388,-1.8358],
[99.2013,-1.7715],
[99.1199,-1.3858],
[98.8198,-0.9358],
[98.4571,-1.0001]
]
],
[
[
[99.3531,-2.0287],
[99.3579,-2.2216],
[99.5052,-2.2858],
[99.578,-2.2858],
[99.6542,-2.4144],
[99.7998,-2.4144],
[99.6443,-2.0287],
[99.3531,-2.0287]
]
],
[
[
[99.8069,-2.6716],
[99.8853,-2.8644],
[100.031,-2.8644],
[100.1135,-3.1859],
[100.334,-3.2502],
[100.3989,-2.993],
[100.2475,-2.8001],
[100.1019,-2.8001],
[99.9472,-2.4787],
[99.8744,-2.4787],
[99.8069,-2.6716]
]
]
]}
}
