{
"type": "Feature",
"properties": {"id":"cliopatria-kingdom-of-gwynedd-1279","edge_precision":"unknown","cliopatria_name":"Kingdom of Gwynedd","cliopatria_from_year":1279,"cliopatria_to_year":1284,"cliopatria_area_km2":14544,"cliopatria_wikidata":"Q816814","cliopatria_wikipedia":"Kingdom of Gwynedd","cliopatria_seshat_id":"gb_brythonic_k","cliopatria_member_of":"(Brythonic Kingdoms)"},
"geometry": {"type": "MultiPolygon", "coordinates": [
[
[
[-4.8095,52.9227],
[-4.7937,52.7881],
[-4.5368,52.7881],
[-4.381,52.9227],
[-4.1944,52.7881],
[-4.1567,52.4519],
[-4.553,52.1833],
[-4.6382,52.1833],
[-4.6153,51.9822],
[-4.1899,51.9822],
[-4.2676,51.9151],
[-4.1679,51.7811],
[-3.8352,51.8481],
[-3.7645,51.9822],
[-3.2541,51.9822],
[-3.1966,52.2505],
[-3.1114,52.2505],
[-3.2316,52.5863],
[-3.0676,52.6535],
[-3.0886,52.8554],
[-3.1742,52.8554],
[-3.2741,52.99],
[-3.1955,53.0574],
[-2.8454,52.99],
[-2.8593,53.1248],
[-3.3174,53.3946],
[-3.4034,53.3946],
[-4.1621,53.2596],
[-4.2713,53.4621],
[-4.7017,53.4621],
[-4.6697,53.1922],
[-4.4901,53.1248],
[-4.8095,52.9227]
],
[
[-3.1955,53.0574],
[-3.2813,53.0574],
[-3.2885,53.1248],
[-3.2026,53.1248],
[-3.1955,53.0574]
]
]
]}
}
