{
"type": "Feature",
"properties": {"id":"cliopatria-nguyen-lords-1572","edge_precision":"unknown","cliopatria_name":"Nguyễn lords","cliopatria_from_year":1572,"cliopatria_to_year":1652,"cliopatria_area_km2":89944,"cliopatria_wikidata":"Q2301908","cliopatria_wikipedia":"Nguyễn lords"},
"geometry": {"type": "MultiPolygon", "coordinates": [
[
[
[105.673,18.0291],
[105.7059,17.7719],
[106.6074,16.9362],
[106.6857,16.4861],
[106.9706,16.4219],
[107.1527,16.1647],
[107.5016,16.0361],
[107.2976,15.6504],
[107.6927,15.329],
[107.5127,14.5575],
[107.3804,14.1075],
[107.6669,13.4646],
[107.5473,13.0789],
[107.5686,12.6289],
[107.7885,12.6289],
[108.1188,12.3074],
[108.1046,12.1789],
[108.705,12.3074],
[108.9612,12.6289],
[109.2544,12.6289],
[109.2618,12.6932],
[109.3203,12.5646],
[109.4669,12.5646],
[109.5119,12.9503],
[109.3306,13.2718],
[109.3544,14.0432],
[109.1764,14.3646],
[109.1553,14.7504],
[108.9706,15.0075],
[109.0164,15.329],
[108.6767,15.5218],
[108.6955,15.6504],
[108.3657,15.9076],
[108.3308,16.1647],
[108.1393,16.3576],
[107.8447,16.3576],
[107.8644,16.4861],
[107.717,16.4861],
[107.6731,16.679],
[107.3446,16.9362],
[107.2709,16.9362],
[107.291,17.0647],
[107.1002,17.2576],
[106.7517,17.3862],
[106.5385,17.9005],
[106.5488,17.9648],
[106.1058,17.9648],
[106.0629,18.1576],
[105.673,18.0291]
]
]
]}
}
