{
"type": "Feature",
"properties": {"id":"cliopatria-lan-na-kingdom-1507","edge_precision":"unknown","cliopatria_name":"Lan Na Kingdom","cliopatria_from_year":1507,"cliopatria_to_year":1511,"cliopatria_area_km2":52633,"cliopatria_wikidata":"Q1059707","cliopatria_wikipedia":"Lan Na"},
"geometry": {"type": "MultiPolygon", "coordinates": [
[
[
[97.4494,18.3505],
[97.5971,18.3505],
[97.7714,18.0291],
[97.762,17.9648],
[98.205,17.9648],
[98.6411,18.4148],
[99.5824,18.2862],
[99.6115,18.4791],
[99.7593,18.4791],
[100.1877,18.8648],
[100.5673,18.9291],
[100.5772,18.9934],
[100.755,19.1862],
[100.6269,19.3148],
[100.6567,19.5077],
[100.4644,19.7005],
[100.5981,20.0862],
[100.5439,20.2148],
[100.1289,20.4077],
[99.8323,20.4077],
[99.4125,20.0862],
[99.1902,20.0862],
[98.9191,19.7648],
[98.1044,19.7648],
[97.9369,19.6362],
[97.8665,18.6719],
[97.7735,18.5434],
[97.4683,18.4791],
[97.4494,18.3505]
]
]
]}
}
