{
"type": "Feature",
"properties": {"id":"cliopatria-songhai-empire-1564","edge_precision":"unknown","cliopatria_name":"Songhai Empire","cliopatria_from_year":1564,"cliopatria_to_year":1594,"cliopatria_area_km2":665730,"cliopatria_wikidata":"Q202687","cliopatria_wikipedia":"Songhai Empire","cliopatria_seshat_id":"ml_songhai_2"},
"geometry": {"type": "MultiPolygon", "coordinates": [
[
[
[-16.8308,13.4003],
[-16.8229,13.0789],
[-15.8711,13.1432],
[-15.2829,13.0789],
[-15.2801,12.9503],
[-13.8137,12.9503],
[-13.5963,13.0789],
[-13.375,13.0146],
[-13.3789,13.2075],
[-12.4293,13.4003],
[-12.2852,13.5289],
[-11.9158,13.4003],
[-11.5502,13.4646],
[-10.7409,13.336],
[-10.0774,13.1432],
[-10.0041,13.1432],
[-8.9745,12.9503],
[-8.7518,12.7575],
[-7.1375,12.6289],
[-6.8407,12.3074],
[-6.5469,12.2432],
[-6.4724,12.1146],
[-6.3991,12.1146],
[-6.1813,12.3074],
[-5.9615,12.3074],
[-6.036,12.436],
[-5.6723,12.6932],
[-5.6736,12.8217],
[-5.527,12.8217],
[-5.5284,12.9503],
[-5.3818,12.9503],
[-4.5828,13.6575],
[-4.3634,13.7218],
[-4.2929,13.9789],
[-4.0734,14.0432],
[-4.1484,14.1718],
[-3.8585,14.4932],
[-3.8626,14.8147],
[-3.6481,15.2647],
[-3.2848,15.5861],
[-3.2866,15.7147],
[-2.9196,15.779],
[-2.995,15.9076],
[-2.8487,15.9718],
[-1.5981,16.0361],
[-0.7106,15.6504],
[-0.4867,15.329],
[-0.3397,15.329],
[-0.4103,15.0075],
[-0.1157,14.9432],
[-0.0402,14.6861],
[0.1807,14.6218],
[0.2556,14.4289],
[1.2104,14.4289],
[1.6501,14.6218],
[1.7195,15.329],
[1.5711,15.5218],
[1.2656,16.8719],
[1.265,16.9362],
[0.9647,17.4505],
[0.4437,17.8362],
[-0.4449,18.0291],
[-3.3202,17.7719],
[-4.8637,17.4505],
[-5.9703,17.4505],
[-6.1208,17.579],
[-7.303,17.6433],
[-8.9232,17.5148],
[-9.2166,17.4505],
[-9.2131,17.3219],
[-10.5353,17.129],
[-10.9058,17.1933],
[-10.9021,17.0647],
[-11.3388,16.8719],
[-11.477,16.5504],
[-12.0589,16.2933],
[-12.3535,16.2933],
[-12.2762,16.1647],
[-12.4952,16.1004],
[-12.6369,15.9076],
[-13.2202,15.7147],
[-13.2901,15.5861],
[-14.0883,15.2004],
[-14.0811,14.9432],
[-14.2264,14.8789],
[-14.146,14.6218],
[-14.5033,14.2361],
[-14.5001,14.1075],
[-14.3549,14.1718],
[-14.1987,13.7861],
[-14.6391,13.7861],
[-14.5688,13.9146],
[-14.7156,13.9146],
[-14.7859,13.7861],
[-15.4496,13.9146],
[-16.5507,13.9146],
[-16.6224,13.8503],
[-16.539,13.4646],
[-16.8308,13.4003]
]
],
[
[
[-6.3265,12.1789],
[-6.3259,12.1146],
[-6.2526,12.1146],
[-6.2532,12.1789],
[-6.3265,12.1789]
]
]
]}
}
