{
"type": "Feature",
"properties": {"id":"cliopatria-banate-of-bosnia-1250","edge_precision":"unknown","cliopatria_name":"Banate of Bosnia","cliopatria_from_year":1250,"cliopatria_to_year":1284,"cliopatria_area_km2":19385,"cliopatria_wikidata":"Q3627069","cliopatria_wikipedia":"Banate of Bosnia","cliopatria_seshat_id":"ba_bosnia_banate"},
"geometry": {"type": "MultiPolygon", "coordinates": [
[
[
[17.3363,44.516],
[17.4068,44.2548],
[17.7999,43.9938],
[17.8695,43.733],
[18.1028,43.5375],
[18.011,43.2769],
[18.4159,43.3421],
[18.6724,43.6678],
[18.8336,43.6678],
[19.0043,43.8634],
[19.4076,43.8634],
[19.495,43.9938],
[19.4984,44.0591],
[19.1077,44.3201],
[19.2962,44.8426],
[19.2217,44.9734],
[18.9717,44.8426],
[18.0039,44.9734],
[17.4225,44.6466],
[17.3363,44.516]
]
]
]}
}
