{
"type": "Feature",
"properties": {"id":"cliopatria-kingdom-of-poland-1003","edge_precision":"unknown","cliopatria_name":"Kingdom of Poland","cliopatria_from_year":1003,"cliopatria_to_year":1009,"cliopatria_area_km2":424991,"cliopatria_wikidata":"Q577867","cliopatria_wikipedia":"Kingdom of Poland","cliopatria_seshat_id":"pl_piast_dyn_1","cliopatria_member_of":"(Kingdom of Poland)"},
"geometry": {"type": "MultiPolygon", "coordinates": [
[
[
[11.2889,51.3128],
[12.1319,51.0457],
[12.2112,50.6455],
[12.042,50.5789],
[12.0383,50.246],
[12.3709,49.98],
[12.3676,49.7143],
[12.5341,49.6479],
[12.5324,49.5152],
[13.0296,49.25],
[13.2707,48.7204],
[13.4358,48.6542],
[13.4323,48.4559],
[16.3364,48.4559],
[16.6607,48.2578],
[16.9093,48.2578],
[17.0669,48.0597],
[17.7143,47.73],
[18.5402,47.73],
[18.8876,48.0597],
[20.137,48.1917],
[20.5766,48.5881],
[21.0704,48.522],
[21.2456,48.6542],
[21.2548,48.7865],
[21.4258,48.8527],
[21.3664,49.1838],
[21.283,49.1838],
[21.3857,49.4489],
[21.3906,49.5152],
[22.1585,49.7143],
[22.2583,49.9136],
[22.8621,50.113],
[22.946,50.113],
[22.9151,50.7121],
[23.0898,50.7788],
[23.1083,50.9789],
[23.0238,50.9789],
[23.0424,51.1792],
[22.8794,51.246],
[22.9955,51.5803],
[22.6686,51.7142],
[22.6874,51.9151],
[22.3472,51.9151],
[22.1042,52.0492],
[22.2929,52.2505],
[22.4224,52.7208],
[22.3432,52.7881],
[22.4288,52.7881],
[22.6462,53.2596],
[22.3025,53.2596],
[22.5009,53.5296],
[22.1695,53.6647],
[21.9843,53.5296],
[21.8184,53.5971],
[21.7197,53.4621],
[21.3815,53.5296],
[21.0195,53.3271],
[20.5841,53.2596],
[20.4871,53.1248],
[19.9721,53.1248],
[19.9019,53.3271],
[19.563,53.3946],
[19.4211,53.7999],
[19.3348,53.7999],
[19.3398,53.8676],
[19.2685,54.0706],
[19.355,54.0706],
[19.4622,54.3417],
[18.6869,54.4095],
[18.4453,54.6811],
[18.4595,54.8851],
[17.1495,54.8171],
[16.4426,54.6132],
[15.9918,54.2739],
[15.0361,54.2061],
[14.5093,54.0029],
[14.4998,53.7323],
[13.8138,53.8676],
[13.8098,53.7323],
[13.9781,53.5971],
[13.8879,53.4621],
[14.058,53.3946],
[14.0538,53.2596],
[14.2257,53.2596],
[14.2213,53.1248],
[14.0476,53.0574],
[14.0415,52.8554],
[14.5486,52.6535],
[14.5441,52.5191],
[14.4587,52.5191],
[14.5352,52.2505],
[13.1742,52.3847],
[12.8289,52.1833],
[12.4029,52.1833],
[12.3156,52.0492],
[11.8892,51.9822],
[11.8041,51.9822],
[11.5476,51.8481],
[11.5458,51.6472],
[11.2902,51.5134],
[11.2889,51.3128]
]
]
]}
}
