{
"type": "Feature",
"properties": {"id":"cliopatria-bourbon-kingdom-of-france-1840","edge_precision":"unknown","cliopatria_name":"Bourbon Kingdom of France","cliopatria_from_year":1840,"cliopatria_to_year":1841,"cliopatria_area_km2":629179,"cliopatria_wikidata":"Q207162","cliopatria_wikipedia":"Bourbon Restoration in France","cliopatria_seshat_id":"fr_france_napoleonic","cliopatria_member_of":"(Bourbon Kingdom of France)"},
"geometry": {"type": "MultiPolygon", "coordinates": [
[
[
[-63.0821,18.1576],
[-62.9269,18.0933],
[-62.9495,18.2862],
[-63.0234,18.2862],
[-63.0821,18.1576]
]
],
[
[
[-61.7692,16.2933],
[-61.7363,15.9718],
[-61.5827,15.9076],
[-61.4614,16.1647],
[-61.1735,16.229],
[-61.18,16.2933],
[-61.3473,16.4861],
[-61.4946,16.4861],
[-61.4813,16.3576],
[-61.7692,16.2933]
]
],
[
[
[-61.1902,14.8789],
[-61.0881,14.5575],
[-61.0825,14.4932],
[-60.7831,14.4289],
[-60.8112,14.7504],
[-60.9697,14.8789],
[-61.1902,14.8789]
]
],
[
[
[-56.4931,47.0716],
[-56.4375,46.9401],
[-56.2731,46.9401],
[-56.3008,47.0058],
[-56.2186,47.0058],
[-56.2742,47.1374],
[-56.4931,47.0716]
]
],
[
[
[-54.6055,2.3429],
[-54.3141,2.0857],
[-54.023,2.2786],
[-53.5134,2.2786],
[-53.2949,2.15],
[-52.8581,2.2786],
[-52.4951,2.7929],
[-52.3518,3.3072],
[-51.9893,3.5643],
[-51.7028,4.1429],
[-51.7035,4.2072],
[-51.7816,4.6572],
[-52.0002,4.6572],
[-52.0747,4.7858],
[-52.1476,4.7858],
[-52.5885,5.0429],
[-52.8875,5.493],
[-53.9858,5.7501],
[-54.0587,5.7501],
[-54.1244,5.3644],
[-54.4126,5.1715],
[-54.4823,4.9787],
[-54.4711,4.1429],
[-54.3221,3.8215],
[-54.1025,3.6929],
[-54.1,3.3715],
[-54.2448,3.2429],
[-54.2426,2.7929],
[-54.46,2.4072],
[-54.6055,2.3429]
]
],
[
[
[-17.4542,14.6861],
[-17.1583,14.6218],
[-17.0947,14.9432],
[-17.1682,14.9432],
[-17.3867,14.8789],
[-17.4542,14.6861]
]
],
[
[
[-16.6028,15.6504],
[-16.3842,15.7147],
[-16.3863,15.779],
[-16.2392,15.779],
[-16.1699,15.9076],
[-16.25,16.1004],
[-16.4731,16.1647],
[-16.6028,15.6504]
]
],
[
[
[-4.9117,48.522],
[-4.8913,48.3238],
[-4.6426,48.3238],
[-4.5464,48.1917],
[-4.7054,48.1257],
[-4.6921,47.9938],
[-4.4244,47.7959],
[-3.9349,47.8619],
[-3.7572,47.73],
[-3.3443,47.73],
[-3.1555,47.4665],
[-2.8373,47.5982],
[-2.8258,47.4665],
[-2.5784,47.4665],
[-2.5616,47.269],
[-2.2322,47.269],
[-2.1391,47.1374],
[-2.1944,46.8086],
[-2.0249,46.7429],
[-2.0144,46.6115],
[-1.666,46.3489],
[-1.2518,46.2833],
[-1.2227,45.8898],
[-1.1411,45.8898],
[-1.2131,45.7588],
[-1.0453,45.6933],
[-1.0312,45.4968],
[-1.1894,45.4313],
[-1.1706,45.1696],
[-1.2519,45.1696],
[-1.2054,44.516],
[-1.2863,44.516],
[-1.268,44.2548],
[-1.3488,44.2548],
[-1.3214,43.8634],
[-1.402,43.8634],
[-1.4599,43.5375],
[-1.6922,43.4072],
[-1.6876,43.3421],
[-1.4418,43.2769],
[-1.4284,43.0816],
[-1.027,43.0816],
[-0.5288,42.8213],
[-0.2081,42.8213],
[0.0401,42.6912],
[1.0747,42.8213],
[1.4855,42.6262],
[1.7258,42.6262],
[1.729,42.5612],
[1.8091,42.5612],
[2.4583,42.3662],
[3.0927,42.4962],
[3.09,42.5612],
[3.0099,42.5612],
[2.9849,43.1467],
[3.8509,43.6027],
[4.173,43.6027],
[4.1778,43.4723],
[4.578,43.5375],
[5.3869,43.4072],
[5.3908,43.2769],
[5.6319,43.2769],
[5.7962,43.1467],
[6.5176,43.2118],
[6.5936,43.4072],
[6.8321,43.5375],
[6.9126,43.5375],
[6.8293,43.6678],
[6.6681,43.6678],
[6.7429,43.9286],
[6.4169,44.0591],
[6.4137,44.1896],
[6.8149,44.3201],
[6.5659,44.5813],
[6.6407,44.8426],
[6.228,45.1042],
[5.9011,45.1696],
[5.8121,45.4313],
[5.4822,45.5623],
[5.6349,45.8898],
[6.0335,46.2177],
[6.1038,46.6115],
[6.5067,46.8743],
[6.9899,47.269],
[6.9834,47.5323],
[7.3973,47.4665],
[7.5594,47.5982],
[7.551,47.9938],
[7.6338,47.9938],
[7.7058,48.522],
[8.115,48.8527],
[8.1127,48.9851],
[7.2754,49.1838],
[6.6917,49.1838],
[6.3484,49.5152],
[6.0998,49.4489],
[5.8448,49.5816],
[5.3432,49.5816],
[5.2546,49.7143],
[4.8309,49.8471],
[4.7362,50.113],
[4.4902,49.98],
[4.1548,49.98],
[4.1428,50.246],
[3.9686,50.3791],
[3.5482,50.3791],
[3.1067,50.7788],
[2.6008,50.7788],
[2.4933,51.1792],
[2.4087,51.1792],
[1.6562,51.0457],
[1.4247,50.7121],
[1.455,50.246],
[1.0528,49.98],
[0.2241,49.8471],
[-0.0124,49.6479],
[0.007,49.3826],
[-1.2508,49.4489],
[-1.3618,49.7807],
[-2.0316,49.7807],
[-1.9133,49.3826],
[-1.6517,49.25],
[-1.635,49.0513],
[-1.7183,49.0513],
[-1.6022,48.6542],
[-2.5219,48.7204],
[-2.7594,48.5881],
[-3.1222,48.9189],
[-3.4551,48.9189],
[-3.8518,48.7204],
[-4.5999,48.7204],
[-4.9117,48.522]
]
],
[
[
[-3.6152,5.1072],
[-3.178,5.1072],
[-3.322,5.3644],
[-3.3949,5.3644],
[-3.6144,5.2358],
[-3.6152,5.1072]
]
],
[
[
[7.9185,46.0209],
[7.9197,45.9554],
[8.0013,45.9554],
[8.0002,46.0209],
[7.9185,46.0209]
]
],
[
[
[8.5346,42.4962],
[8.5388,42.1063],
[8.7005,41.9114],
[8.6227,41.7167],
[8.7821,41.7167],
[8.7839,41.522],
[9.1038,41.3274],
[9.2624,41.3922],
[9.4989,41.7816],
[9.4978,41.9764],
[9.5776,41.9764],
[9.5736,42.7563],
[9.4934,42.7563],
[9.4919,43.0165],
[9.2511,43.0165],
[9.1728,42.7563],
[8.7727,42.6912],
[8.5346,42.4962]
]
]
]}
}
