{
"type": "Feature",
"properties": {"id":"cliopatria-portuguese-empire-1696","edge_precision":"unknown","cliopatria_name":"Portuguese Empire","cliopatria_from_year":1696,"cliopatria_to_year":1699,"cliopatria_area_km2":1089453,"cliopatria_wikidata":"Q200464","cliopatria_wikipedia":"Portuguese Empire","cliopatria_seshat_id":"pt_portuguese_emp_2","cliopatria_member_of":"(Portuguese Empire)"},
"geometry": {"type": "MultiPolygon", "coordinates": [
[
[
[-62.6544,-7.686],
[-62.5145,-7.8146],
[-62.2925,-7.7503],
[-62.1317,-7.4288],
[-62.1148,-7.0431],
[-61.8799,-6.6574],
[-61.5051,-6.4002],
[-61.5001,-6.2717],
[-61.126,-6.0145],
[-61.1214,-5.8859],
[-60.7479,-5.6288],
[-60.7436,-5.5002],
[-59.2452,-4.0859],
[-59.242,-3.9573],
[-58.7218,-3.5073],
[-58.7191,-3.3787],
[-57.9128,-3.1216],
[-57.3971,-2.8001],
[-57.1786,-2.8001],
[-56.6646,-2.543],
[-56.0093,-2.543],
[-56.2416,-3.3144],
[-56.694,-4.0216],
[-56.7003,-4.2788],
[-56.4817,-4.2788],
[-56.0326,-3.7645],
[-55.6484,-2.7359],
[-55.2812,-2.543],
[-53.8988,-2.6073],
[-53.3124,-2.3501],
[-53.0177,-2.093],
[-51.924,-1.9644],
[-49.8169,-2.2858],
[-49.8233,-2.7359],
[-49.6797,-2.8644],
[-49.3884,-2.8644],
[-49.3081,-2.3501],
[-48.2106,-1.9001],
[-47.7003,-1.8358],
[-46.4695,-2.4144],
[-46.4002,-2.6716],
[-46.2537,-2.6073],
[-45.6786,-3.1216],
[-45.6828,-3.3787],
[-45.5382,-3.443],
[-45.5404,-3.5716],
[-45.0364,-3.893],
[-42.8546,-4.0859],
[-42.7113,-4.2145],
[-42.4187,-4.1502],
[-41.4049,-4.4716],
[-41.3359,-4.6645],
[-41.116,-4.6002],
[-40.4642,-4.7931],
[-39.9622,-5.1788],
[-39.8164,-5.1788],
[-39.7478,-5.3716],
[-39.3194,-5.7574],
[-38.4854,-7.3003],
[-38.5622,-7.4288],
[-38.3452,-7.4931],
[-38.3491,-7.6217],
[-37.9943,-7.9432],
[-37.8674,-8.5217],
[-38.0887,-8.586],
[-37.9517,-8.8432],
[-38.1071,-9.1003],
[-38.2099,-9.8718],
[-38.4561,-10.5147],
[-39.2167,-11.1575],
[-39.5344,-11.6718],
[-39.651,-12.5076],
[-39.5778,-12.5076],
[-39.533,-13.0219],
[-39.7986,-13.7933],
[-39.8268,-14.2433],
[-39.9002,-14.2433],
[-39.9559,-15.0791],
[-39.8823,-15.0791],
[-40.0157,-15.9148],
[-40.1677,-15.9791],
[-40.1821,-16.172],
[-40.5013,-16.4934],
[-40.6104,-16.9434],
[-40.763,-17.0077],
[-40.7471,-17.7149],
[-41.0285,-18.422],
[-41.1763,-18.422],
[-41.1471,-18.9363],
[-41.3746,-19.0006],
[-41.3348,-19.3864],
[-41.4088,-19.3864],
[-41.4376,-19.7078],
[-42.0266,-20.4792],
[-42.3215,-21.2507],
[-42.73,-21.6364],
[-42.7489,-21.8292],
[-43.214,-22.0221],
[-43.3821,-22.215],
[-44.2135,-22.3435],
[-45.445,-22.7292],
[-45.587,-22.665],
[-45.6079,-22.8578],
[-46.427,-22.8578],
[-46.8882,-22.9864],
[-48.661,-22.8578],
[-48.8993,-22.9864],
[-49.164,-23.9507],
[-49.2627,-24.1436],
[-49.412,-24.1436],
[-49.4366,-24.3365],
[-49.7857,-24.7222],
[-49.9213,-25.1722],
[-49.7414,-25.4937],
[-49.2263,-25.558],
[-49.0471,-25.8795],
[-49.0749,-26.0723],
[-49.2342,-26.1366],
[-49.1592,-26.1366],
[-49.2261,-26.5867],
[-49.1053,-26.7796],
[-49.1449,-27.0367],
[-49.0698,-27.0367],
[-49.1203,-27.3582],
[-49.0451,-27.3582],
[-49.1818,-28.1939],
[-49.3985,-28.5797],
[-49.821,-28.8368],
[-50.1288,-29.2868],
[-50.28,-29.2868],
[-50.2399,-29.4796],
[-50.5642,-29.9938],
[-51.0949,-29.9938],
[-51.1458,-29.8652],
[-51.3607,-29.801],
[-51.6887,-29.9295],
[-51.7276,-30.508],
[-52.0119,-31.1506],
[-52.5648,-31.6005],
[-52.8977,-31.7291],
[-52.9831,-32.1147],
[-52.8592,-32.2432],
[-52.8882,-32.3718],
[-52.5496,-32.5646],
[-52.2338,-32.179],
[-51.7194,-31.9219],
[-51.8441,-31.7933],
[-52.2254,-31.7933],
[-52.1976,-31.6648],
[-52.0662,-31.4077],
[-51.6449,-31.2149],
[-51.2464,-30.3794],
[-51.0315,-30.4437],
[-50.7784,-30.3152],
[-50.8165,-30.508],
[-50.3483,-30.4437],
[-50.0487,-29.6724],
[-49.8734,-29.5439],
[-49.7389,-29.2225],
[-48.8812,-28.6439],
[-48.645,-27.6796],
[-48.4944,-27.6796],
[-48.4535,-27.4225],
[-48.6792,-27.4225],
[-48.5636,-27.1653],
[-48.7039,-27.101],
[-48.6644,-26.8438],
[-48.7951,-26.7153],
[-48.7565,-26.4581],
[-48.5969,-26.3938],
[-48.578,-26.2652],
[-48.7187,-26.2009],
[-48.4774,-25.558],
[-48.6932,-25.4937],
[-48.5434,-25.4937],
[-48.5258,-25.3651],
[-48.2351,-25.4294],
[-47.9759,-25.1722],
[-48.0337,-25.0437],
[-47.618,-24.7222],
[-47.228,-24.5936],
[-46.8815,-24.2079],
[-46.3435,-24.0793],
[-46.0892,-23.8221],
[-45.5744,-23.8864],
[-45.5894,-24.015],
[-45.3655,-24.015],
[-45.3358,-23.7579],
[-45.4776,-23.6936],
[-44.9194,-23.3721],
[-44.6958,-23.3721],
[-44.7351,-23.0507],
[-43.8343,-22.9864],
[-43.848,-23.115],
[-43.401,-23.115],
[-43.2384,-22.9864],
[-42.1211,-22.9864],
[-42.0269,-22.7935],
[-42.0818,-22.6007],
[-41.9265,-22.5364],
[-41.9136,-22.4078],
[-41.1445,-22.1507],
[-41.0393,-21.8292],
[-41.0712,-21.3792],
[-40.9048,-21.1864],
[-40.8811,-20.9292],
[-40.4068,-20.6078],
[-40.1956,-19.9006],
[-39.7972,-19.5792],
[-39.7669,-18.3578],
[-39.5924,-18.0363],
[-39.2761,-17.7792],
[-39.2885,-17.0077],
[-39.0231,-16.4291],
[-38.9532,-15.4648],
[-39.1385,-14.9505],
[-39.011,-14.1148],
[-39.0343,-13.279],
[-38.8766,-13.0862],
[-38.3597,-13.0219],
[-38.1292,-12.829],
[-37.7291,-12.1861],
[-37.6368,-11.8004],
[-37.4842,-11.6718],
[-37.4721,-11.4147],
[-37.2465,-11.2861],
[-37.2378,-11.0932],
[-36.7792,-10.6432],
[-36.2565,-10.3861],
[-35.7124,-9.5503],
[-35.4131,-9.3575],
[-35.1718,-8.7146],
[-35.0215,-8.586],
[-34.9154,-7.4931],
[-34.8425,-7.4931],
[-34.9631,-6.5288],
[-35.0313,-6.336],
[-35.1757,-6.2717],
[-35.1654,-5.8217],
[-35.3733,-5.3074],
[-35.5881,-5.1145],
[-36.6813,-5.1145],
[-37.2592,-4.8573],
[-37.3296,-4.7288],
[-37.6915,-4.6002],
[-38.5504,-3.7002],
[-38.9126,-3.5716],
[-39.1273,-3.3144],
[-39.273,-3.3144],
[-39.4159,-3.1216],
[-39.9223,-2.8644],
[-40.9409,-2.8001],
[-41.5979,-2.9287],
[-41.8866,-2.7359],
[-42.3243,-2.8001],
[-43.1924,-2.3501],
[-43.5565,-2.3501],
[-43.9229,-2.543],
[-44.0685,-2.543],
[-44.1397,-2.4144],
[-44.4309,-2.4144],
[-44.4286,-2.2216],
[-44.6463,-2.1573],
[-44.57,-1.8358],
[-44.86,-1.7073],
[-44.9304,-1.4501],
[-45.2944,-1.4501],
[-45.4417,-1.643],
[-45.5116,-1.3215],
[-46.601,-1.0001],
[-46.6724,-0.8072],
[-47.2543,-0.7429],
[-47.2535,-0.6144],
[-47.3987,-0.5501],
[-47.5443,-0.5501],
[-47.5454,-0.7429],
[-48.2732,-0.7429],
[-48.4196,-0.8715],
[-48.4216,-1.1287],
[-48.6415,-1.3215],
[-48.6433,-1.5144],
[-48.9345,-1.5144],
[-48.5648,-0.8072],
[-48.4888,-0.2286],
[-49.5071,-0.1001],
[-49.594,0.0928],
[-49.8123,0.0928],
[-49.7382,0.2214],
[-49.8097,0.35],
[-50.2464,0.35],
[-50.0997,0.4785],
[-50.098,0.6714],
[-50.1708,0.6714],
[-50.3887,0.7357],
[-50.2413,0.9928],
[-49.9494,1.1214],
[-50.0218,1.1857],
[-49.9469,1.7],
[-50.0921,1.8286],
[-50.5289,1.8286],
[-50.5286,1.9571],
[-50.6742,1.9571],
[-51.7702,0.9285],
[-52.419,-0.2929],
[-53.0044,-0.8072],
[-53.15,-0.8072],
[-53.151,-0.9358],
[-53.7387,-1.5144],
[-54.9063,-1.7715],
[-56.799,-1.7715],
[-57.6051,-2.1573],
[-57.9741,-2.4787],
[-59.1446,-2.8001],
[-60.5293,-2.8644],
[-60.6046,-2.993],
[-60.7503,-2.993],
[-60.8283,-3.2502],
[-60.614,-3.443],
[-59.0832,-3.3787],
[-59.0846,-3.443],
[-59.7535,-4.0216],
[-59.9075,-4.343],
[-60.4282,-4.7288],
[-60.4319,-4.8573],
[-61.0289,-5.3074],
[-61.0331,-5.4359],
[-62.466,-6.7217],
[-62.6544,-7.686]
]
],
[
[
[-58.3917,-34.172],
[-58.3319,-34.2363],
[-58.2549,-34.2363],
[-58.0928,-34.4936],
[-57.3994,-34.4936],
[-57.2911,-33.7861],
[-57.7956,-33.6575],
[-58.2637,-33.979],
[-58.3917,-34.172]
]
],
[
[
[-50.1809,-29.1582],
[-50.1053,-29.1582],
[-50.0937,-29.0939],
[-50.1693,-29.0939],
[-50.1809,-29.1582]
]
],
[
[
[-25.3537,17.0647],
[-25.2701,16.8719],
[-25.0522,16.9362],
[-24.9688,16.7433],
[-24.8214,16.7433],
[-24.831,16.9362],
[-24.9817,17.0005],
[-24.908,17.0005],
[-24.9949,17.2576],
[-25.2866,17.1933],
[-25.3537,17.0647]
]
],
[
[
[-24.4503,15.0718],
[-24.3636,14.7504],
[-24.2901,14.7504],
[-24.2298,15.0718],
[-24.4503,15.0718]
]
],
[
[
[-24.3761,16.679],
[-24.3668,16.4861],
[-24.0752,16.5504],
[-24.0813,16.679],
[-24.3761,16.679]
]
],
[
[
[-23.786,15.0075],
[-23.7834,14.9432],
[-23.4134,14.8789],
[-23.4237,15.1361],
[-23.5787,15.329],
[-23.7258,15.329],
[-23.786,15.0075]
]
],
[
[
[-23.2819,15.2647],
[-23.2005,15.0718],
[-23.127,15.0718],
[-22.9852,15.2004],
[-23.064,15.329],
[-23.2819,15.2647]
]
],
[
[
[-22.982,16.8076],
[-22.976,16.679],
[-22.8286,16.679],
[-22.8376,16.8719],
[-22.982,16.8076]
]
],
[
[
[-22.9441,15.9718],
[-22.6497,15.9718],
[-22.5816,16.1004],
[-22.5845,16.1647],
[-22.8818,16.229],
[-22.9441,15.9718]
]
],
[
[
[-16.8124,12.6289],
[-16.8067,12.3717],
[-16.5828,12.1789],
[-16.363,12.1789],
[-16.2821,11.7931],
[-16.1369,11.8574],
[-16.0612,11.7289],
[-15.6219,11.7289],
[-15.6231,11.7931],
[-15.551,11.8574],
[-15.6279,12.0503],
[-16.0674,12.0503],
[-16.07,12.1789],
[-15.9235,12.1789],
[-15.9274,12.3717],
[-16.1472,12.3717],
[-16.002,12.436],
[-16.0823,12.7575],
[-16.5969,12.8217],
[-16.5925,12.6289],
[-16.8124,12.6289]
]
],
[
[
[-9.0549,32.8788],
[-9.0502,32.8145],
[-8.7301,32.6216],
[-8.4424,32.8788],
[-8.447,32.943],
[-8.6956,33.2002],
[-9.0549,32.8788]
]
],
[
[
[6.2996,0.2857],
[6.3828,0.0285],
[6.6612,0.1571],
[6.6657,0.4142],
[6.3007,0.35],
[6.2996,0.2857]
]
],
[
[
[7.1934,1.5071],
[7.339,1.5071],
[7.3421,1.7],
[7.2693,1.7],
[7.1934,1.5071]
]
],
[
[
[8.3119,3.2429],
[8.6751,3.1786],
[8.8992,3.5643],
[8.9001,3.6286],
[8.83,3.8215],
[8.5377,3.7572],
[8.4613,3.5],
[8.3147,3.4358],
[8.3119,3.2429]
]
],
[
[
[12.8223,-13.0219],
[13.5549,-12.829],
[13.6269,-12.4433],
[13.4799,-12.3147],
[13.3336,-12.379],
[13.3338,-12.4433],
[12.8946,-12.6361],
[12.8223,-13.0219]
]
],
[
[
[12.8857,-8.9075],
[12.8864,-9.2289],
[13.1063,-9.4861],
[13.325,-9.2932],
[13.3246,-9.1646],
[13.5436,-9.1003],
[13.6156,-8.7146],
[13.469,-8.5217],
[13.2497,-8.4575],
[13.2504,-8.7146],
[12.9586,-8.8432],
[12.9587,-8.9075],
[12.8857,-8.9075]
]
],
[
[
[34.2514,-19.8364],
[34.3379,-20.1578],
[34.5653,-20.2864],
[34.7085,-20.1578],
[34.6983,-19.9006],
[34.6243,-19.9006],
[34.5375,-19.5792],
[34.2514,-19.8364]
]
],
[
[
[34.9341,-23.8221],
[35.0268,-24.2079],
[35.3286,-24.2722],
[35.397,-24.1436],
[35.3939,-24.0793],
[35.4686,-24.0793],
[35.3817,-23.8221],
[34.9341,-23.8221]
]
],
[
[
[37.1981,-17.7792],
[37.3429,-17.7149],
[37.3402,-17.6506],
[37.6325,-17.5863],
[37.7007,-17.4577],
[37.2553,-17.3934],
[37.1981,-17.7792]
]
],
[
[
[39.0568,-6.2074],
[39.427,-6.5288],
[39.4933,-6.1431],
[39.3474,-6.1431],
[39.3432,-5.8859],
[39.2682,-5.7574],
[39.1224,-5.7574],
[39.0568,-6.2074]
]
],
[
[
[39.2423,-3.9573],
[39.2457,-4.2145],
[39.394,-4.4073],
[39.5388,-4.343],
[39.6794,-3.9573],
[39.6785,-3.893],
[39.7489,-3.7002],
[39.3855,-3.7645],
[39.2423,-3.9573]
]
],
[
[
[39.5241,-7.8146],
[39.528,-8.0074],
[39.674,-8.0074],
[39.7443,-7.8789],
[39.8173,-7.8789],
[39.8134,-7.686],
[39.6675,-7.686],
[39.5241,-7.8146]
]
],
[
[
[39.547,-4.9216],
[39.5547,-5.4359],
[39.7005,-5.4359],
[39.7665,-4.9859],
[39.547,-4.9216]
]
],
[
[
[40.1712,-14.9505],
[40.5548,-15.3362],
[40.7487,-14.6933],
[40.5309,-14.7576],
[40.4574,-14.7576],
[40.3079,-14.6933],
[40.1712,-14.9505]
]
]
]}
}
