{
"type": "Feature",
"properties": {"id":"cliopatria-vijayanagara-empire-1375","edge_precision":"unknown","cliopatria_name":"Vijayanagara Empire","cliopatria_from_year":1375,"cliopatria_to_year":1449,"cliopatria_area_km2":395114,"cliopatria_wikidata":"Q167639","cliopatria_wikipedia":"Vijayanagara Empire","cliopatria_seshat_id":"in_vijayanagara_emp"},
"geometry": {"type": "MultiPolygon", "coordinates": [
[
[
[73.1863,17.3862],
[73.4171,16.0361],
[73.5391,15.779],
[73.7474,15.6504],
[73.9745,14.9432],
[74.3745,14.4932],
[74.4707,13.9146],
[74.6636,13.5932],
[74.7477,12.8217],
[75.0647,12.1789],
[75.3385,11.9217],
[75.5849,11.2788],
[75.7268,11.2146],
[75.9021,10.5717],
[76.2338,10.0574],
[76.2214,9.8645],
[76.3635,9.8002],
[76.3553,9.6717],
[76.2092,9.6717],
[76.1971,9.4788],
[76.3353,9.3502],
[76.3235,9.1574],
[76.531,8.9645],
[76.5888,8.7073],
[76.7311,8.6431],
[76.7236,8.5145],
[77.2819,8.0645],
[77.8733,8.193],
[78.1803,8.4502],
[78.2842,8.9645],
[78.5883,9.1574],
[78.9577,9.2216],
[78.9865,9.6717],
[79.2959,9.9288],
[79.3176,10.2502],
[79.9026,10.2502],
[79.8844,11.986],
[80.303,12.6289],
[80.3303,12.9503],
[79.6869,13.1432],
[79.7037,13.336],
[79.3654,13.6575],
[78.2318,14.1075],
[78.1088,14.3646],
[78.1355,15.3933],
[78.062,15.3933],
[78.0347,15.8433],
[77.901,15.9718],
[77.9351,16.2933],
[77.675,16.6147],
[77.5277,16.6147],
[77.5346,16.679],
[77.2538,16.8076],
[76.45,16.8719],
[75.7593,16.6147],
[75.3575,16.2933],
[74.896,16.1004],
[74.3806,16.1004],
[73.8976,16.4219],
[73.5484,17.3219],
[73.4144,17.4505],
[73.1931,17.4505],
[73.1863,17.3862]
]
]
]}
}
