{
"type": "Feature",
"properties": {"id":"cliopatria-southern-song-1241","edge_precision":"unknown","cliopatria_name":"Southern Song","cliopatria_from_year":1241,"cliopatria_to_year":1249,"cliopatria_area_km2":1954300,"cliopatria_wikidata":"Q7462","cliopatria_wikipedia":"Song dynasty","cliopatria_seshat_id":"cn_southern_song_dyn"},
"geometry": {"type": "MultiPolygon", "coordinates": [
[
[
[100.9202,30.565],
[100.9962,30.565],
[100.9394,30.3722],
[101.0153,30.3722],
[100.9592,30.1794],
[101.0553,29.9865],
[100.9824,29.7294],
[101.0581,29.7294],
[101.062,29.4723],
[101.1956,29.4081],
[101.2417,29.0224],
[101.4411,28.6367],
[101.4243,28.5724],
[101.6205,27.8652],
[101.6958,27.8652],
[101.6137,26.9009],
[101.6889,26.9009],
[101.6591,26.7723],
[102.1405,26.5794],
[102.1898,26.1294],
[102.6397,26.1294],
[102.9078,26.3222],
[103.2829,26.3222],
[103.4622,26.4508],
[103.477,26.5151],
[103.2882,27.6081],
[103.3204,27.7367],
[103.4548,27.6724],
[103.6379,27.8009],
[103.9635,28.1867],
[103.9973,28.3153],
[103.8635,28.3795],
[103.9905,28.5724],
[104.6351,28.4438],
[104.2569,27.8652],
[104.4335,27.6724],
[104.617,27.8009],
[105.1276,27.7367],
[105.5126,28.0581],
[105.5231,28.3795],
[106.1441,28.4438],
[106.2426,28.251],
[106.1327,28.1224],
[106.2081,28.1224],
[106.1818,27.7367],
[106.4591,27.3509],
[106.6096,27.3509],
[106.9048,27.0295],
[107.9089,26.8366],
[107.9651,26.4508],
[108.2498,26.3865],
[108.2638,26.1294],
[108.3388,26.1294],
[107.8582,23.8792],
[107.4482,23.6863],
[106.7023,23.6863],
[106.3537,23.8149],
[106.2791,23.8149],
[106.0816,23.5577],
[105.7087,23.5577],
[105.5359,23.4291],
[105.5008,23.2363],
[105.7526,22.9791],
[106.1995,22.9791],
[106.3254,22.8506],
[106.7093,22.9148],
[106.7722,22.8506],
[106.607,22.3363],
[106.7113,22.0791],
[107.2398,21.6934],
[107.4627,21.6934],
[107.5894,21.5648],
[107.9719,21.6291],
[108.0984,21.5005],
[108.1727,21.5005],
[108.5552,21.5648],
[108.6517,21.6934],
[109.0864,21.6291],
[109.1162,21.372],
[109.807,21.5005],
[109.8701,21.4363],
[109.696,20.8577],
[109.7702,20.8577],
[109.7895,20.5362],
[109.9268,20.472],
[109.8829,20.2148],
[110.4869,20.2791],
[110.6163,20.6005],
[110.3638,20.8577],
[110.4825,21.1148],
[110.4194,21.1791],
[110.7164,21.1791],
[110.7389,21.3077],
[110.9842,21.4363],
[111.6641,21.5005],
[111.8585,21.7577],
[112.4415,21.6934],
[112.7736,21.8863],
[113.071,21.8863],
[113.1063,22.0791],
[113.3175,22.0148],
[113.4156,22.1434],
[113.6387,22.1434],
[113.6987,22.4648],
[113.5985,22.722],
[113.7474,22.722],
[113.7852,22.5291],
[113.9963,22.4648],
[113.9986,22.0791],
[114.3704,22.0791],
[114.5311,22.1434],
[114.6408,22.722],
[114.7527,22.5291],
[114.9016,22.5291],
[115.1744,22.7863],
[115.3729,22.6577],
[115.6706,22.6577],
[115.6956,22.7863],
[116.54,22.9148],
[116.5914,23.172],
[116.815,23.172],
[116.7796,23.3649],
[116.8939,23.5577],
[117.1788,23.4934],
[117.47,23.8149],
[117.6938,23.8149],
[117.7213,23.9435],
[118.0757,24.2006],
[118.1474,24.5221],
[118.7597,24.5864],
[118.8191,24.8435],
[119.0737,24.9721],
[119.0295,25.1007],
[119.3442,25.165],
[119.3911,25.3579],
[119.2731,25.4864],
[119.4229,25.4864],
[119.466,25.3579],
[119.8721,25.4864],
[119.9044,25.615],
[119.5299,25.615],
[119.7784,26.0008],
[119.587,26.1294],
[119.9381,26.3222],
[119.8399,26.5151],
[120.1577,26.5794],
[120.2108,26.7723],
[120.0606,26.7723],
[120.0964,26.9009],
[120.2467,26.9009],
[120.3947,27.158],
[120.545,27.158],
[120.7325,27.5438],
[120.6573,27.5438],
[120.7146,27.7367],
[120.8677,27.9938],
[121.0382,28.0581],
[121.118,28.3153],
[121.1934,28.3153],
[121.1533,28.1867],
[121.6459,28.3153],
[121.6521,28.5724],
[121.5218,28.6367],
[121.7143,28.7652],
[121.7443,29.0867],
[121.5389,29.1509],
[121.5932,29.5366],
[121.7984,29.4723],
[121.7116,29.2152],
[121.9384,29.2152],
[122.0035,29.4081],
[121.9279,29.4081],
[122.016,29.6652],
[121.8645,29.6652],
[122.0298,29.9223],
[121.6202,30.0508],
[121.4841,30.3079],
[121.1047,30.3079],
[120.8088,30.1151],
[120.6798,30.1794],
[121.0453,30.565],
[121.1972,30.565],
[121.5192,30.822],
[121.8993,30.822],
[121.9953,31.0791],
[121.7366,31.4005],
[121.5843,31.4005],
[121.9135,31.4647],
[121.9631,31.5933],
[121.8356,31.6575],
[121.9368,31.7218],
[121.9613,31.9789],
[121.5033,32.1717],
[121.4026,32.4931],
[120.9192,32.6216],
[120.9735,32.943],
[120.8969,32.943],
[120.8763,33.2645],
[120.7997,33.2645],
[120.5505,33.5859],
[120.4894,34.1647],
[120.3418,34.3577],
[119.8094,34.5506],
[119.7323,34.5506],
[118.8192,34.0361],
[116.8127,33.2645],
[116.1993,33.2645],
[115.893,33.0716],
[115.3819,33.1359],
[114.5407,32.943],
[113.5452,32.943],
[112.1632,33.1359],
[111.2617,33.5859],
[111.1558,33.9075],
[110.7965,33.9718],
[110.4641,33.9075],
[110.1347,33.6502],
[109.7508,33.6502],
[109.2174,33.4574],
[107.0871,33.7146],
[106.8516,33.9075],
[106.4143,33.9718],
[106.2367,33.9075],
[106.0416,33.5859],
[105.3921,31.7218],
[105.1134,31.3362],
[104.8436,31.2076],
[102.6061,31.5933],
[102.4949,31.7218],
[101.7942,31.9146],
[101.5167,32.236],
[100.9792,31.0148],
[101.0553,31.0148],
[100.9202,30.565]
]
],
[
[
[108.6382,18.5434],
[108.7646,18.4148],
[109.1233,18.3505],
[109.2497,18.2219],
[109.8406,18.2219],
[109.8622,18.3505],
[110.1794,18.4791],
[110.1903,18.5434],
[110.5078,18.6719],
[110.6806,19.2505],
[110.8507,19.3791],
[110.8839,19.5719],
[111.0319,19.5719],
[111.0874,19.8934],
[110.9095,20.1505],
[110.613,20.1505],
[110.591,20.022],
[110.1574,20.0862],
[109.2464,19.9577],
[109.2028,19.7005],
[108.7043,19.3791],
[108.6382,18.5434]
]
],
[
[
[121.9766,29.9865],
[122.2798,29.9865],
[122.2726,30.1794],
[122.045,30.1794],
[121.9766,29.9865]
]
]
]}
}
