{
"type": "Feature",
"properties": {"id":"cliopatria-duchy-of-bavaria-1791","edge_precision":"unknown","cliopatria_name":"Duchy of Bavaria","cliopatria_from_year":1791,"cliopatria_to_year":1793,"cliopatria_area_km2":53910,"cliopatria_wikidata":"Q47261","cliopatria_wikipedia":"Duchy of Bavaria","cliopatria_seshat_id":"de_bavaria_1"},
"geometry": {"type": "MultiPolygon", "coordinates": [
[
[
[5.7913,51.1792],
[5.7958,51.0457],
[5.9669,50.9789],
[5.9756,50.7121],
[6.0599,50.7121],
[6.2346,50.5122],
[6.4029,50.5122],
[6.4048,50.4457],
[6.7413,50.4457],
[6.8201,50.6455],
[6.4794,50.7788],
[6.5542,51.1124],
[6.4678,51.1792],
[6.5505,51.246],
[6.4639,51.3128],
[6.0407,51.3128],
[5.9604,51.1792],
[5.7913,51.1792]
]
],
[
[
[6.7233,51.1124],
[6.7251,51.0457],
[6.8201,50.6455],
[7.0728,50.6455],
[7.0696,50.7788],
[7.4024,50.9789],
[7.3995,51.1124],
[7.2304,51.1124],
[7.2335,50.9789],
[7.0647,50.9789],
[7.0614,51.1124],
[7.2289,51.1792],
[7.2273,51.246],
[6.799,51.4465],
[6.7233,51.1124]
]
],
[
[
[7.0153,49.5816],
[7.3573,49.25],
[7.6882,49.3826],
[7.8616,49.0513],
[7.9449,49.0513],
[7.9461,48.9851],
[8.1127,48.9851],
[8.2748,49.25],
[8.7745,49.3163],
[8.6057,49.4489],
[8.3551,49.4489],
[8.2672,49.7143],
[7.8488,49.7143],
[7.7612,49.9136],
[7.5098,49.9136],
[7.6005,49.5816],
[7.0153,49.5816]
]
],
[
[
[10.3617,48.6542],
[10.5286,48.2578],
[10.5287,48.1917],
[10.4469,47.7959],
[10.6948,47.73],
[10.6124,47.5982],
[11.1896,47.4006],
[11.6026,47.5982],
[12.5109,47.6641],
[12.7585,47.6641],
[12.8394,47.5323],
[13.0878,47.5982],
[12.9245,47.73],
[12.8454,47.9938],
[12.7626,47.9938],
[12.7651,48.1917],
[13.2642,48.3238],
[13.4346,48.5881],
[13.2685,48.5881],
[13.2707,48.7204],
[13.1876,48.7204],
[13.3585,48.9851],
[13.113,49.25],
[12.5324,49.5152],
[12.5341,49.6479],
[12.3676,49.7143],
[12.3709,49.98],
[12.1216,50.1795],
[11.8697,50.1795],
[11.6997,49.9136],
[11.3642,49.8471],
[11.3635,49.7143],
[11.2798,49.7143],
[11.2789,49.5152],
[11.0279,49.3826],
[11.0276,49.25],
[11.2778,49.25],
[11.2773,49.1175],
[10.9436,48.8527],
[10.7772,48.9189],
[10.6107,48.9189],
[10.3617,48.6542]
]
]
]}
}
