{
"type": "Feature",
"properties": {"id":"cliopatria-aztec-triple-alliance-1440","edge_precision":"unknown","cliopatria_name":"Aztec Triple Alliance","cliopatria_from_year":1440,"cliopatria_to_year":1449,"cliopatria_area_km2":15136,"cliopatria_wikidata":"Q2608489","cliopatria_wikipedia":"Aztec Empire","cliopatria_seshat_id":"mx_aztec_emp"},
"geometry": {"type": "MultiPolygon", "coordinates": [
[
[
[-100.2188,18.4791],
[-100.0987,18.2219],
[-99.6669,18.2862],
[-99.1333,18.6076],
[-98.7918,18.3505],
[-98.7179,18.3505],
[-98.6668,18.4791],
[-98.5076,18.4148],
[-98.3827,18.5434],
[-98.2299,18.9291],
[-98.3738,19.3148],
[-98.5218,19.3148],
[-98.5452,19.4434],
[-98.3349,19.5077],
[-98.4443,19.7005],
[-98.6665,19.7005],
[-98.7169,19.5719],
[-98.8768,19.6362],
[-99.013,19.5719],
[-98.9894,19.4434],
[-99.1374,19.4434],
[-99.1138,19.3148],
[-99.2618,19.3148],
[-99.1174,18.9291],
[-100.2188,18.4791]
]
]
]}
}
