{
"type": "Feature",
"properties": {"id":"cliopatria-second-bulgarian-empire-1188","edge_precision":"unknown","cliopatria_name":"Second Bulgarian Empire","cliopatria_from_year":1188,"cliopatria_to_year":1191,"cliopatria_area_km2":109105,"cliopatria_wikidata":"Q420759","cliopatria_wikipedia":"Second Bulgarian Empire"},
"geometry": {"type": "MultiPolygon", "coordinates": [
[
[
[19.1077,44.3201],
[19.4244,44.1896],
[19.832,44.2548],
[20.2289,44.1243],
[20.4788,44.2548],
[20.7943,44.1243],
[20.9361,43.7982],
[21.6491,43.6027],
[21.645,43.5375],
[21.7255,43.5375],
[21.7213,43.4723],
[21.8017,43.4723],
[21.789,43.2769],
[22.1106,43.2769],
[22.2582,43.0816],
[22.4991,43.0816],
[22.566,42.8864],
[23.0425,42.8213],
[23.269,42.6262],
[23.8296,42.6262],
[23.8443,42.8213],
[24.8064,42.8213],
[24.876,42.6912],
[25.1964,42.6912],
[25.3349,42.4312],
[26.2092,42.3662],
[27.261,42.4962],
[27.3596,42.6912],
[27.68,42.6912],
[27.6863,42.7563],
[27.8466,42.7563],
[27.8659,42.9515],
[27.7118,43.0165],
[27.7374,43.2769],
[27.9851,43.3421],
[28.2264,43.3421],
[28.1592,43.4723],
[28.4811,43.4723],
[28.6163,43.9938],
[28.5356,43.9938],
[28.5769,44.3854],
[28.8407,44.5813],
[28.802,44.9734],
[29.0456,44.9734],
[29.0241,44.7773],
[29.1052,44.7773],
[29.1124,44.8426],
[29.5253,44.908],
[29.6584,45.3659],
[29.577,45.3659],
[29.5845,45.4313],
[29.096,45.4313],
[28.6677,45.235],
[28.3494,45.3004],
[28.2819,45.4313],
[27.8681,45.3659],
[27.8479,45.1696],
[27.9969,45.0388],
[27.9699,44.7773],
[27.801,44.7119],
[27.7877,44.5813],
[27.943,44.516],
[27.8289,44.1896],
[27.4927,44.0591],
[26.2814,44.0591],
[25.8486,43.733],
[25.4343,43.6027],
[24.8814,43.733],
[24.1509,43.6678],
[23.6018,43.8634],
[22.9518,43.7982],
[22.8946,44.1243],
[22.5044,44.3201],
[22.5182,44.516],
[22.6895,44.6466],
[21.9514,44.516],
[21.8791,44.6466],
[21.4055,44.8426],
[20.7486,44.7119],
[20.5169,44.908],
[20.5284,45.1042],
[20.2884,45.1696],
[20.1369,45.3659],
[19.8856,45.235],
[19.2351,45.235],
[19.1406,44.9734],
[19.2996,44.908],
[19.1077,44.3201]
]
]
]}
}
