{
"type": "Feature",
"properties": {"id":"cliopatria-first-bulgarian-empire-0806","edge_precision":"unknown","cliopatria_name":"First Bulgarian Empire","cliopatria_from_year":806,"cliopatria_to_year":813,"cliopatria_area_km2":306144,"cliopatria_wikidata":"Q203817","cliopatria_wikipedia":"First Bulgarian Empire","cliopatria_seshat_id":"bg_bulgaria_early"},
"geometry": {"type": "MultiPolygon", "coordinates": [
[
[
[18.7788,45.8898],
[18.9259,45.5623],
[19.0074,45.5623],
[18.9976,45.3659],
[19.2384,45.3004],
[19.1373,44.908],
[19.6242,44.908],
[19.6172,44.7773],
[20.0191,44.7119],
[20.1148,44.9734],
[20.3697,45.1696],
[20.5284,45.1042],
[20.4396,44.9734],
[20.6676,44.7119],
[21.4055,44.8426],
[21.6361,44.6466],
[21.8791,44.6466],
[21.8704,44.516],
[22.1089,44.4507],
[22.0912,44.1896],
[22.172,44.1896],
[21.9973,43.9938],
[21.9886,43.8634],
[22.1455,43.7982],
[22.1324,43.6027],
[22.2129,43.6027],
[22.1193,43.4072],
[22.5929,43.2769],
[22.8157,43.0165],
[23.0565,43.0165],
[23.1274,42.8864],
[23.6135,42.9515],
[23.6038,42.8213],
[23.9294,42.8864],
[24.0798,42.7563],
[24.4805,42.7563],
[24.5452,42.5612],
[24.9245,42.3012],
[24.9783,41.9764],
[24.9731,41.9114],
[25.2124,41.9114],
[25.2229,42.0413],
[25.4624,42.0413],
[25.7983,42.2362],
[27.3288,42.3662],
[27.5323,42.8213],
[27.7665,42.7563],
[27.8466,42.7563],
[27.8659,42.9515],
[27.7856,42.9515],
[27.792,43.0165],
[27.7118,43.0165],
[27.7374,43.2769],
[27.9851,43.3421],
[28.2264,43.3421],
[28.1592,43.4723],
[28.4811,43.4723],
[28.6163,43.9938],
[28.5356,43.9938],
[28.5769,44.3854],
[28.8407,44.5813],
[28.802,44.9734],
[29.0456,44.9734],
[29.0241,44.7773],
[29.1052,44.7773],
[29.5253,44.908],
[29.6213,45.0388],
[29.6143,45.6933],
[29.8589,45.6933],
[30.045,45.8898],
[30.2977,45.9554],
[30.8766,46.6772],
[31.6064,46.6115],
[31.7875,46.7429],
[32.0337,46.7429],
[32.1804,46.6115],
[32.1718,46.5459],
[32.9185,46.6115],
[33.6938,46.8743],
[34.08,47.269],
[34.1189,47.5323],
[33.624,47.5323],
[33.4781,47.6641],
[30.6715,47.6641],
[29.3196,47.4006],
[29.1243,47.1374],
[28.9598,47.1374],
[28.9225,46.8086],
[28.7583,46.8086],
[28.811,46.5459],
[28.6327,46.4145],
[28.7073,46.3489],
[28.6714,46.0209],
[28.5897,46.0209],
[28.6571,45.8898],
[28.2888,45.4968],
[28.0513,45.5623],
[28.0376,45.4313],
[27.5227,45.1696],
[26.7912,45.1696],
[26.6974,45.0388],
[26.3786,45.1042],
[26.204,44.9734],
[25.5545,44.9734],
[25.1372,44.8426],
[24.9806,44.908],
[24.7261,44.7773],
[24.4125,44.908],
[23.8444,44.908],
[23.6922,45.0388],
[23.6465,45.4968],
[23.733,45.5623],
[23.5701,45.5623],
[23.6771,45.8898],
[23.5139,45.8898],
[23.5342,46.1521],
[23.3858,46.3489],
[23.4779,46.4802],
[23.3191,46.5459],
[23.3344,46.7429],
[23.2523,46.7429],
[23.3653,47.1374],
[23.1956,47.0716],
[23.2059,47.2032],
[22.969,47.3348],
[23.0616,47.4665],
[22.6494,47.4665],
[22.169,47.6641],
[21.9945,47.5323],
[21.5821,47.5323],
[21.5177,47.7959],
[20.5386,47.9938],
[19.8577,47.6641],
[19.5275,47.6641],
[19.4522,47.7959],
[19.0357,47.73],
[18.9531,47.73],
[19.0253,47.5323],
[19.1868,47.4665],
[19.1729,47.2032],
[18.837,47.0716],
[18.8141,46.6115],
[19.0501,46.4145],
[18.8604,45.8898],
[18.7788,45.8898]
]
],
[
[
[23.4677,46.3489],
[23.5496,46.3489],
[23.5547,46.4145],
[23.4728,46.4145],
[23.4677,46.3489]
]
]
]}
}
