{
"type": "Feature",
"properties": {"id":"cliopatria-ethiopian-empire-1272","edge_precision":"unknown","cliopatria_name":"Ethiopian Empire","cliopatria_from_year":1272,"cliopatria_to_year":1284,"cliopatria_area_km2":209304,"cliopatria_wikidata":"Q207521","cliopatria_wikipedia":"Ethiopian Empire","cliopatria_seshat_id":"et_ethiopian_k"},
"geometry": {"type": "MultiPolygon", "coordinates": [
[
[
[36.6504,11.4074],
[36.7236,11.4074],
[36.7257,11.4717],
[36.6525,11.4717],
[36.6504,11.4074]
]
],
[
[
[36.7193,11.2788],
[36.8678,11.3431],
[36.9345,11.1503],
[38.0043,10.3145],
[37.9269,10.186],
[38.1484,10.2502],
[38.3614,10.0574],
[38.3572,9.9288],
[39.2824,9.1574],
[39.2783,9.0288],
[39.4995,9.0931],
[39.5684,8.9645],
[40.0798,8.9645],
[40.0839,9.0931],
[40.4577,9.3502],
[40.462,9.4788],
[40.6082,9.4788],
[40.557,10.1217],
[40.4839,10.1217],
[40.5182,11.086],
[39.9961,12.7575],
[39.852,12.8217],
[39.7864,13.0146],
[39.7995,13.336],
[39.7262,13.336],
[39.8102,13.5932],
[39.6688,13.7218],
[39.8725,15.0075],
[39.8814,15.2004],
[39.7344,15.2004],
[39.676,15.5218],
[39.4645,15.7147],
[39.4737,15.9076],
[39.2684,16.229],
[39.2232,16.8076],
[39.0821,16.9362],
[38.6824,16.2933],
[38.532,16.229],
[38.2871,15.7147],
[38.137,15.6504],
[37.8739,14.6861],
[37.5587,14.1718],
[37.6217,13.9146],
[37.3055,13.336],
[37.1588,13.336],
[37.2248,13.1432],
[36.9953,12.886],
[36.9057,12.436],
[36.7523,12.2432],
[36.7968,11.4074],
[36.7193,11.2788]
]
],
[
[
[38.14,15.7147],
[38.2136,15.7147],
[38.2165,15.779],
[38.1429,15.779],
[38.14,15.7147]
]
]
]}
}
