{
"type": "Feature",
"properties": {"id":"cliopatria-byzantine-empire-1415","edge_precision":"unknown","cliopatria_name":"Byzantine Empire","cliopatria_from_year":1415,"cliopatria_to_year":1430,"cliopatria_area_km2":11533,"cliopatria_wikidata":"Q112039853","cliopatria_wikipedia":"Byzantine Empire"},
"geometry": {"type": "MultiPolygon", "coordinates": [
[
[
[22.1421,37.0615],
[22.22,37.0615],
[22.3563,36.6749],
[22.5118,36.6749],
[22.5994,36.8682],
[22.8328,36.8682],
[23.056,36.6749],
[22.9953,36.9971],
[22.7007,37.3193],
[22.7144,37.5773],
[22.6364,37.5773],
[22.6398,37.6417],
[22.3242,37.5773],
[22.155,37.3193],
[22.1421,37.0615]
]
],
[
[
[22.4132,40.5496],
[22.5675,40.4849],
[22.5716,40.5496],
[22.8925,40.6144],
[22.9592,40.4201],
[23.1966,40.4201],
[23.2093,40.6144],
[23.1301,40.6144],
[23.143,40.8088],
[22.6672,40.8088],
[22.4212,40.6792],
[22.4132,40.5496]
]
],
[
[
[23.8999,40.2906],
[24.4397,40.0964],
[24.4489,40.2259],
[24.0716,40.4849],
[23.9924,40.4849],
[23.8999,40.2906]
]
],
[
[
[24.491,40.8088],
[24.5513,40.5496],
[24.7936,40.6144],
[24.8081,40.8088],
[24.491,40.8088]
]
],
[
[
[24.9739,39.8376],
[25.4473,39.8376],
[25.4619,40.0317],
[25.067,40.0317],
[24.9739,39.8376]
]
],
[
[
[25.7038,40.0964],
[26.0249,40.1612],
[26.0351,40.2906],
[25.7188,40.2906],
[25.7038,40.0964]
]
],
[
[
[28.2482,41.1328],
[28.871,41.0032],
[29.0362,41.068],
[28.9759,41.2625],
[28.8964,41.2625],
[28.432,41.3922],
[28.2482,41.1328]
]
],
[
[
[41.1744,41.0032],
[41.2537,41.0032],
[41.2643,41.068],
[41.1849,41.068],
[41.1744,41.0032]
]
]
]}
}
