{
"type": "Feature",
"properties": {"id":"cliopatria-ayyubid-sultanate-1192","edge_precision":"unknown","cliopatria_name":"Ayyubid Sultanate","cliopatria_from_year":1192,"cliopatria_to_year":1201,"cliopatria_area_km2":2034836,"cliopatria_wikidata":"Q180114","cliopatria_wikipedia":"Ayyubid dynasty","cliopatria_seshat_id":"eg_ayyubid_sultanate"},
"geometry": {"type": "MultiPolygon", "coordinates": [
[
[
[18.812,30.0508],
[19.1911,30.0508],
[20.9516,30.565],
[21.9388,30.565],
[22.5415,30.4364],
[22.7667,30.3722],
[22.7618,30.2436],
[22.916,30.3079],
[23.5101,29.9865],
[24.26,29.7937],
[24.3304,29.6652],
[24.7792,29.5366],
[24.8467,29.3438],
[25.0008,29.4081],
[25.1465,29.2795],
[25.3735,29.2795],
[25.5863,28.9581],
[27.1401,28.251],
[27.285,28.1224],
[27.2763,27.9295],
[27.4299,27.9938],
[27.792,27.6724],
[27.7109,27.5438],
[27.9367,27.5438],
[28.1537,27.3509],
[28.2702,26.5794],
[28.3453,26.5794],
[28.2437,25.9365],
[28.2886,25.165],
[28.5688,24.6506],
[29.6728,24.2006],
[29.9595,23.8792],
[30.1087,23.8792],
[30.104,23.7506],
[30.3952,23.5577],
[30.4627,23.3649],
[30.5372,23.3649],
[31.6705,23.7506],
[32.0409,23.6863],
[33.389,23.8149],
[33.6818,23.6863],
[33.7564,23.6863],
[35.108,23.8792],
[35.5526,23.8149],
[35.5588,23.9435],
[35.8541,23.8792],
[35.8604,24.0077],
[35.1455,24.6506],
[34.6076,25.8079],
[34.4613,25.8722],
[34.1972,26.5151],
[34.0507,26.5794],
[34.0731,26.9652],
[33.9266,27.0295],
[33.7992,27.4152],
[33.5851,27.6081],
[33.6089,27.9938],
[33.1053,28.3795],
[32.8361,28.8938],
[32.6892,28.9581],
[32.6387,29.3438],
[32.4287,29.6009],
[32.5261,29.9223],
[32.8571,29.2152],
[33.2139,28.8938],
[33.1889,28.5081],
[33.403,28.3153],
[33.5538,28.3153],
[33.617,28.1224],
[34.12,27.7367],
[34.3459,27.7367],
[34.3583,27.9295],
[34.5173,28.0581],
[34.7523,29.2795],
[34.9129,29.4081],
[34.8535,28.5724],
[34.6054,28.251],
[34.5927,28.0581],
[35.0492,28.1224],
[35.4087,27.8652],
[35.4669,27.6081],
[35.6132,27.5438],
[35.6717,27.2866],
[36.1649,26.7723],
[36.4291,26.1937],
[36.7173,26.0008],
[36.773,25.6793],
[37.2707,25.2293],
[37.3308,24.9721],
[37.1776,24.9078],
[37.1705,24.7792],
[37.3876,24.6506],
[37.4448,24.3292],
[38.0318,24.1363],
[38.6011,23.622],
[38.8688,23.0434],
[38.8589,22.8506],
[39.1402,22.5291],
[39.0271,21.7577],
[39.1693,21.6291],
[39.147,21.1791],
[39.3506,20.7934],
[39.8439,20.2791],
[40.1404,20.2791],
[40.5616,19.8291],
[40.851,19.7005],
[40.8408,19.5077],
[40.9854,19.4434],
[41.0421,19.1219],
[41.2501,18.8648],
[41.2361,18.6076],
[41.4508,18.4791],
[41.7849,17.8362],
[42.2802,17.4505],
[42.3363,17.129],
[42.4837,17.129],
[42.4767,17.0005],
[42.824,16.6147],
[42.7824,15.8433],
[42.7088,15.8433],
[42.7458,15.1361],
[42.8896,15.0718],
[42.9534,14.8789],
[43.0566,13.9789],
[43.2648,13.7218],
[43.2356,13.0789],
[43.447,12.886],
[43.4386,12.6932],
[44.3886,12.6289],
[44.6143,12.7575],
[45.0541,12.7575],
[45.7411,13.336],
[46.8446,13.4003],
[47.668,13.7218],
[47.7515,13.9146],
[48.7861,14.0432],
[49.017,14.2361],
[49.0242,14.3646],
[49.4832,14.6861],
[49.3475,14.8789],
[48.6275,15.1361],
[47.8528,15.7147],
[47.8605,15.8433],
[47.5777,16.0361],
[47.5855,16.1647],
[46.958,16.7433],
[46.9699,16.9362],
[46.8185,16.8719],
[46.6211,17.2576],
[46.4736,17.2576],
[45.6355,18.0291],
[45.6434,18.1576],
[45.2898,18.4148],
[45.2976,18.5434],
[44.4567,19.3148],
[44.4682,19.5077],
[43.9726,19.8934],
[43.98,20.022],
[42.7849,21.1791],
[42.4493,21.822],
[41.8902,22.4648],
[41.8974,22.5934],
[41.7522,22.6577],
[41.5543,23.1077],
[41.4089,23.172],
[41.3455,23.3649],
[41.4237,23.4291],
[41.2038,23.4934],
[41.0064,23.9435],
[40.7232,24.2006],
[40.1891,25.2293],
[40.2765,25.4221],
[40.131,25.4864],
[40.0951,26.0651],
[39.9408,26.0008],
[40.0336,26.258],
[39.8836,26.258],
[39.8971,26.4508],
[39.8221,26.4508],
[39.9109,26.6437],
[39.7608,26.6437],
[39.7137,27.0295],
[39.6386,27.0295],
[39.602,27.5438],
[39.5268,27.5438],
[39.6219,27.8009],
[39.401,27.8652],
[39.3561,28.251],
[39.2807,28.251],
[39.3716,28.4438],
[39.2312,28.5724],
[39.1502,29.4081],
[39.0211,29.6652],
[39.0437,29.9223],
[38.9679,29.9223],
[38.9967,30.2436],
[38.8684,30.5007],
[38.8921,30.7578],
[38.8161,30.7578],
[38.9163,31.0148],
[38.7702,31.0791],
[38.7947,31.3362],
[38.7186,31.3362],
[38.8576,31.9789],
[38.705,31.9789],
[38.7371,32.3002],
[38.6607,32.3002],
[38.7264,32.943],
[39.4993,33.7146],
[39.8137,33.7789],
[40.4728,34.1647],
[40.8499,34.1004],
[40.9117,33.9718],
[41.2116,33.9075],
[41.2733,33.7789],
[42.287,33.2645],
[42.3636,33.2645],
[42.5715,33.7146],
[42.8946,33.8432],
[43.2426,34.1647],
[43.3965,34.1647],
[43.6606,34.422],
[43.8146,34.422],
[43.9256,34.6793],
[44.1741,34.8079],
[44.4073,35.3871],
[44.8984,35.5802],
[44.9534,35.9664],
[44.5934,36.1596],
[44.6119,36.2884],
[44.3384,36.546],
[44.3571,36.6749],
[43.7814,36.9971],
[43.5479,36.9971],
[43.3015,37.4483],
[43.3203,37.5773],
[43.5545,37.5773],
[43.5736,37.7062],
[44.4426,37.7707],
[44.306,37.8998],
[44.4545,38.3515],
[44.308,38.416],
[44.3224,38.9972],
[44.5219,39.2557],
[44.8474,39.3203],
[44.8691,39.4496],
[43.6985,39.5143],
[41.4538,39.2557],
[40.6765,39.3203],
[40.5003,39.1911],
[40.2644,39.1911],
[39.8257,38.868],
[38.5797,38.3515],
[38.1963,38.416],
[37.8503,38.1578],
[37.5836,37.8998],
[37.5055,37.8998],
[37.3103,37.5773],
[36.9753,37.3838],
[36.7675,36.9326],
[36.5974,36.8037],
[36.6108,36.224],
[36.4139,35.8377],
[35.8516,35.6445],
[35.8449,35.5802],
[35.9929,35.5158],
[35.8825,35.194],
[36.2688,35.194],
[36.165,34.9366],
[36.3128,34.8723],
[36.2865,34.615],
[36.2094,34.615],
[36.2669,34.422],
[36.0103,34.1647],
[35.6319,34.229],
[35.6256,34.1647],
[35.7026,34.1647],
[35.6838,33.9718],
[35.5239,33.9075],
[35.6007,33.9075],
[35.8251,33.8432],
[35.7759,33.3288],
[35.5338,33.2002],
[35.1946,31.9789],
[35.189,31.9146],
[34.9438,31.7218],
[34.5679,31.7861],
[34.5626,31.7218],
[34.6334,31.6575],
[34.3076,31.4005],
[34.2972,31.2719],
[33.7493,31.0791],
[32.8317,31.0148],
[32.7652,31.1434],
[32.5322,31.0791],
[32.2372,31.2076],
[32.3039,31.0791],
[31.9996,31.0791],
[31.9374,31.2719],
[31.7806,31.2076],
[31.8752,31.4647],
[31.2658,31.4647],
[31.118,31.529],
[31.2033,31.6575],
[30.9746,31.6575],
[30.9656,31.529],
[30.8088,31.4647],
[30.3517,31.4647],
[30.2712,31.4005],
[30.3388,31.2719],
[29.882,31.2719],
[29.8018,31.2076],
[29.8696,31.0791],
[29.6332,30.9506],
[29.4851,31.0148],
[29.3971,30.822],
[28.865,30.822],
[28.4964,31.0148],
[27.5149,31.1434],
[27.2975,31.3362],
[26.8477,31.4647],
[25.248,31.4647],
[25.102,31.5933],
[25.1117,31.7861],
[24.8925,31.9789],
[24.1294,31.9789],
[23.6803,32.1717],
[23.2985,32.1717],
[23.0779,32.3645],
[23.0894,32.6216],
[21.8787,32.943],
[21.4117,32.7502],
[21.108,32.8145],
[20.8712,32.6216],
[20.6441,32.6859],
[20.7159,32.5574],
[20.563,32.5574],
[20.482,32.4288],
[20.3313,32.4931],
[20.2461,32.236],
[20.017,32.236],
[20.0891,32.1074],
[19.9961,31.5933],
[20.2143,31.2719],
[20.1341,31.1434],
[20.2021,30.8863],
[19.9682,30.6935],
[19.9643,30.565],
[19.655,30.3722],
[18.8169,30.2436],
[18.812,30.0508]
]
]
]}
}
