{
"type": "Feature",
"properties": {"id":"cliopatria-kingdom-of-italy-0899","edge_precision":"unknown","cliopatria_name":"Kingdom of Italy","cliopatria_from_year":899,"cliopatria_to_year":899,"cliopatria_area_km2":171584,"cliopatria_wikidata":"Q172579","cliopatria_wikipedia":"Kingdom of Italy"},
"geometry": {"type": "MultiPolygon", "coordinates": [
[
[
[6.6343,45.1042],
[6.6375,44.9734],
[6.9652,44.8426],
[6.9695,44.6466],
[6.8885,44.6466],
[6.978,44.2548],
[7.3039,44.1243],
[7.6259,44.1896],
[7.5521,43.7982],
[7.6327,43.7982],
[8.0339,43.9286],
[8.4315,44.3854],
[9.1591,44.4507],
[9.7274,44.1243],
[9.9697,44.1243],
[9.8895,43.9938],
[10.2123,43.9938],
[10.5353,43.0816],
[11.0163,42.8213],
[11.0158,42.6262],
[11.176,42.6262],
[11.2552,42.4312],
[11.4949,42.3662],
[11.5748,42.3662],
[11.7366,42.6262],
[12.058,42.7563],
[11.9811,43.1467],
[11.821,43.2118],
[11.8219,43.3421],
[12.2246,43.4072],
[12.1412,43.0816],
[12.3018,43.0816],
[12.3752,42.4312],
[12.6152,42.4312],
[13.0097,42.0413],
[13.328,41.9764],
[13.327,41.9114],
[13.8044,41.8465],
[13.9615,41.7167],
[14.1208,41.7167],
[14.3654,41.9764],
[14.6876,42.1063],
[14.6077,42.1063],
[14.0565,42.4962],
[13.9014,42.7563],
[13.9854,42.9515],
[13.7471,43.0816],
[13.6726,43.4072],
[13.3551,43.6678],
[13.0338,43.733],
[13.0356,43.8634],
[12.8734,43.7982],
[12.313,44.1896],
[12.1537,44.4507],
[12.1572,44.8426],
[12.3999,44.7773],
[12.4026,45.0388],
[12.16,45.1696],
[12.1617,45.3659],
[11.9989,45.3659],
[12.0004,45.5623],
[12.1644,45.6933],
[12.7367,45.8243],
[12.9816,45.8243],
[13.0614,45.6933],
[13.1448,45.8243],
[13.7149,45.7588],
[13.7102,45.4968],
[13.6288,45.4968],
[13.9457,45.0388],
[14.1894,45.0388],
[14.1962,45.3659],
[14.2776,45.3659],
[14.2817,45.5623],
[13.9596,45.7588],
[13.9634,45.9554],
[13.6434,46.3489],
[13.7276,46.4802],
[13.6468,46.5459],
[13.0731,46.5459],
[12.5827,46.6772],
[11.5982,46.6772],
[10.8599,46.5459],
[10.0399,46.6115],
[10.0409,46.4145],
[10.1228,46.4145],
[10.0415,46.2833],
[9.3031,46.4802],
[8.9821,45.8898],
[8.6521,46.1521],
[8.4886,46.1521],
[8.4028,46.4145],
[7.9185,46.0209],
[8.0025,45.8898],
[7.9265,45.5623],
[7.3562,45.5623],
[7.1147,45.4313],
[7.0377,45.235],
[6.6343,45.1042]
]
],
[
[
[8.5346,42.4962],
[8.5388,42.1063],
[8.7005,41.9114],
[8.6227,41.7167],
[8.7821,41.7167],
[8.7839,41.522],
[9.1038,41.3274],
[9.2624,41.3922],
[9.4989,41.7816],
[9.4978,41.9764],
[9.5776,41.9764],
[9.5736,42.7563],
[9.4934,42.7563],
[9.4919,43.0165],
[9.2511,43.0165],
[9.1728,42.7563],
[8.7727,42.6912],
[8.5346,42.4962]
]
],
[
[
[10.1343,42.8864],
[10.2148,42.6912],
[10.4552,42.6912],
[10.4551,42.8864],
[10.1343,42.8864]
]
],
[
[
[14.6876,42.1063],
[14.7674,42.1063],
[14.769,42.1712],
[14.6891,42.1712],
[14.6876,42.1063]
]
]
]}
}
