{
"type": "Feature",
"properties": {"id":"cliopatria-safavid-dynasty-1609","edge_precision":"unknown","cliopatria_name":"Safavid Dynasty","cliopatria_from_year":1609,"cliopatria_to_year":1611,"cliopatria_area_km2":2625034,"cliopatria_wikidata":"Q161205","cliopatria_wikipedia":"Safavid dynasty","cliopatria_seshat_id":"ir_safavid_emp"},
"geometry": {"type": "MultiPolygon", "coordinates": [
[
[
[42.6811,35.194],
[42.8189,35.0653],
[42.8216,34.4863],
[43.0199,34.229],
[42.9634,33.7789],
[43.0403,33.7789],
[43.0006,33.4574],
[43.0773,33.4574],
[43.1526,32.8145],
[43.1449,32.7502],
[44.459,31.5933],
[44.444,31.4647],
[44.6576,31.3362],
[44.6353,31.1434],
[44.7949,31.2076],
[45.3982,30.5007],
[45.55,30.5007],
[46.099,29.9865],
[46.5322,29.7937],
[46.5865,29.6009],
[46.745,29.6652],
[46.868,29.4081],
[47.1021,29.4723],
[47.2392,29.3438],
[47.7688,29.3438],
[47.8662,29.5366],
[48.4035,29.6009],
[48.3654,29.9223],
[48.9037,29.9865],
[48.9873,30.0508],
[48.9428,30.3079],
[49.5859,29.9865],
[50.0648,30.1794],
[50.2363,29.7294],
[50.6513,29.4081],
[50.6203,29.1509],
[50.915,29.0867],
[50.809,28.8295],
[51.0281,28.7652],
[51.0662,28.4438],
[51.3313,28.1224],
[51.3168,27.9938],
[51.5967,27.8009],
[52.0486,27.8009],
[52.4787,27.6081],
[52.737,27.2223],
[53.4606,26.9652],
[53.6581,26.708],
[54.2589,26.708],
[54.4632,26.5151],
[54.8316,26.4508],
[55.2423,26.7723],
[55.5427,26.7723],
[55.3102,26.708],
[55.2889,26.5151],
[55.439,26.5151],
[55.6034,26.6437],
[56.0612,26.708],
[56.3086,26.9009],
[56.3236,27.0295],
[56.0981,27.0295],
[56.1884,27.158],
[56.7147,27.158],
[57.0524,26.8366],
[57.1148,26.0651],
[57.3795,25.7436],
[57.6792,25.7436],
[57.7402,25.615],
[57.958,25.5507],
[58.7817,25.5507],
[59.0602,25.3579],
[60.6321,25.3579],
[60.6178,25.2293],
[60.9171,25.2293],
[61.1274,25.1007],
[61.6582,25.165],
[61.7187,25.0364],
[62.0179,25.0364],
[62.182,25.165],
[62.4739,25.1007],
[62.5634,25.2293],
[63.5362,25.2293],
[63.6262,25.3579],
[64.225,25.3579],
[64.2845,25.2293],
[64.8006,25.165],
[64.8161,25.2936],
[66.0215,25.3579],
[66.2621,25.4864],
[66.2703,25.5507],
[66.2283,25.8079],
[66.5478,26.5151],
[66.4244,26.708],
[66.4607,26.9652],
[66.3856,26.9652],
[66.6638,28.3153],
[66.5883,28.3153],
[66.6711,28.8295],
[66.5956,28.8295],
[66.6944,29.858],
[65.83,30.1151],
[65.007,30.1794],
[64.7711,30.565],
[64.8431,31.7861],
[65.4006,32.3002],
[65.4923,33.1359],
[65.9521,33.1359],
[66.1321,33.2645],
[66.3845,35.1297],
[66.3073,35.1297],
[66.3279,36.224],
[66.3578,36.6749],
[66.2178,36.7393],
[66.1719,37.1904],
[65.9077,37.3838],
[65.9396,37.5128],
[65.6274,37.5128],
[65.2388,37.8352],
[64.6615,38.0288],
[64.3669,38.416],
[64.0075,38.5451],
[63.8374,38.8034],
[63.4155,38.9972],
[63.2457,39.2557],
[63.0883,39.2557],
[62.6538,39.7083],
[62.6876,39.8376],
[62.3161,40.2259],
[62.4027,40.5496],
[62.2969,40.744],
[62.4472,41.0032],
[62.3679,41.0032],
[62.3783,41.3274],
[60.8424,40.9384],
[60.1283,40.9384],
[60.0036,41.068],
[57.8295,41.2625],
[57.8131,41.1977],
[57.0337,40.6144],
[56.891,40.6792],
[56.3906,39.9023],
[56.3608,39.7729],
[56.5185,39.7729],
[56.4742,39.5789],
[56.2874,39.4496],
[56.08,38.868],
[56.4444,38.7389],
[56.3747,38.416],
[56.0067,38.1578],
[55.5372,38.1578],
[53.8826,37.7062],
[53.9105,37.4483],
[54.0947,37.1904],
[54.0333,36.8682],
[53.0877,36.8037],
[52.1859,36.546],
[51.642,36.546],
[50.8207,36.7393],
[50.532,36.8682],
[50.6323,36.9971],
[50.5657,37.0615],
[50.3209,36.9971],
[49.9988,37.3838],
[49.0851,37.5128],
[48.8843,37.7062],
[48.8411,38.3515],
[48.7627,38.3515],
[48.8206,38.6743],
[48.7422,38.6743],
[48.9035,39.1265],
[48.9155,39.1911],
[47.7911,39.0618],
[46.8483,38.6097],
[46.2101,38.5451],
[45.9789,38.0933],
[45.9372,37.8352],
[46.0728,37.7062],
[45.9335,37.3193],
[45.4941,36.9971],
[44.4938,36.546],
[43.7997,36.0308],
[43.3257,35.9664],
[42.9897,35.7733],
[42.6811,35.194]
]
],
[
[
[50.4299,25.9365],
[50.6487,25.8722],
[50.6668,26.0651],
[50.6852,26.258],
[50.4602,26.258],
[50.4299,25.9365]
]
]
]}
}
