{
"type": "Feature",
"properties": {"id":"cliopatria-first-french-empire-1806","edge_precision":"unknown","cliopatria_name":"First French Empire","cliopatria_from_year":1806,"cliopatria_to_year":1806,"cliopatria_area_km2":675586,"cliopatria_wikidata":"Q71084","cliopatria_wikipedia":"First French Empire","cliopatria_seshat_id":"fr_bourbon_k_2","cliopatria_member_of":"(First French Empire)"},
"geometry": {"type": "MultiPolygon", "coordinates": [
[
[
[-17.4542,14.6861],
[-17.1583,14.6218],
[-17.0947,14.9432],
[-17.1682,14.9432],
[-17.3867,14.8789],
[-17.4542,14.6861]
]
],
[
[
[-16.6028,15.6504],
[-16.3842,15.7147],
[-16.3863,15.779],
[-16.2392,15.779],
[-16.1699,15.9076],
[-16.25,16.1004],
[-16.4731,16.1647],
[-16.6028,15.6504]
]
],
[
[
[-4.9117,48.522],
[-4.8913,48.3238],
[-4.6426,48.3238],
[-4.5464,48.1917],
[-4.7054,48.1257],
[-4.6921,47.9938],
[-4.4244,47.7959],
[-3.9349,47.8619],
[-3.7572,47.73],
[-3.3443,47.73],
[-3.1555,47.4665],
[-2.8373,47.5982],
[-2.8258,47.4665],
[-2.5784,47.4665],
[-2.5616,47.269],
[-2.2322,47.269],
[-2.1391,47.1374],
[-2.1944,46.8086],
[-2.0249,46.7429],
[-2.0144,46.6115],
[-1.666,46.3489],
[-1.2518,46.2833],
[-1.2227,45.8898],
[-1.1411,45.8898],
[-1.2131,45.7588],
[-1.0453,45.6933],
[-1.0312,45.4968],
[-1.1894,45.4313],
[-1.1706,45.1696],
[-1.2519,45.1696],
[-1.2054,44.516],
[-1.2863,44.516],
[-1.268,44.2548],
[-1.3488,44.2548],
[-1.3214,43.8634],
[-1.402,43.8634],
[-1.4599,43.5375],
[-1.6922,43.4072],
[-1.6876,43.3421],
[-1.4418,43.2769],
[-1.4284,43.0816],
[-1.027,43.0816],
[-0.5288,42.8213],
[-0.2081,42.8213],
[0.0401,42.6912],
[1.0747,42.8213],
[1.4855,42.6262],
[1.7258,42.6262],
[1.729,42.5612],
[1.8091,42.5612],
[2.4583,42.3662],
[3.0927,42.4962],
[3.09,42.5612],
[3.0099,42.5612],
[2.9849,43.1467],
[3.8509,43.6027],
[4.173,43.6027],
[4.1778,43.4723],
[5.0631,43.4723],
[5.3869,43.4072],
[5.3908,43.2769],
[5.6319,43.2769],
[5.7962,43.1467],
[6.2782,43.1467],
[6.5176,43.2118],
[6.6726,43.4723],
[6.9931,43.5375],
[7.1502,43.733],
[8.0339,43.9286],
[8.1916,44.1896],
[8.5925,44.4507],
[9.1591,44.4507],
[9.5654,44.1896],
[9.8889,44.1243],
[9.9697,44.1243],
[9.6455,44.3201],
[9.6447,44.4507],
[10.0491,44.516],
[10.0487,44.6466],
[10.2915,44.7773],
[10.291,44.9734],
[9.9654,45.1696],
[8.6648,45.1696],
[8.5784,45.5623],
[8.4145,45.6278],
[8.4126,45.7588],
[8.1647,45.9554],
[8.0013,45.9554],
[8.0002,46.0209],
[8.0786,46.2177],
[8.4028,46.4145],
[8.3989,46.6772],
[8.3168,46.6772],
[8.155,46.5459],
[7.7451,46.5459],
[7.1773,46.2833],
[7.0136,46.2833],
[6.9286,46.4145],
[6.2734,46.4145],
[6.0335,46.2177],
[6.1038,46.6115],
[6.4246,46.8743],
[7.0801,46.9401],
[6.9125,47.0716],
[6.9834,47.5323],
[7.3973,47.4665],
[7.5594,47.5982],
[7.551,47.9938],
[7.6338,47.9938],
[7.7058,48.522],
[8.115,48.8527],
[8.353,49.5816],
[8.3519,49.6479],
[8.2683,49.6479],
[8.2661,49.7807],
[8.1824,49.7807],
[8.1813,49.8471],
[7.7625,49.8471],
[7.4201,50.1795],
[7.3361,50.1795],
[7.1666,50.246],
[7.0728,50.6455],
[7.0712,50.7121],
[6.8992,50.8455],
[6.8923,51.1124],
[6.7197,51.246],
[6.7124,51.5134],
[6.3693,51.6472],
[6.1934,51.8481],
[6.0234,51.8481],
[5.7707,51.7811],
[5.8647,51.5134],
[5.5352,51.246],
[5.0196,51.4465],
[4.3417,51.4465],
[4.0123,51.246],
[3.5046,51.246],
[3.4097,51.4465],
[3.3249,51.4465],
[2.7394,51.3128],
[2.5778,51.1792],
[1.6562,51.0457],
[1.4247,50.7121],
[1.455,50.246],
[1.0528,49.98],
[0.2241,49.8471],
[-0.0124,49.6479],
[0.007,49.3826],
[-1.2508,49.4489],
[-1.3618,49.7807],
[-2.0316,49.7807],
[-1.9133,49.3826],
[-1.6517,49.25],
[-1.635,49.0513],
[-1.7183,49.0513],
[-1.6022,48.6542],
[-2.5219,48.7204],
[-2.7594,48.5881],
[-3.1222,48.9189],
[-3.4551,48.9189],
[-3.8518,48.7204],
[-4.5999,48.7204],
[-4.9117,48.522]
]
],
[
[
[-3.6152,5.1072],
[-3.178,5.1072],
[-3.322,5.3644],
[-3.3949,5.3644],
[-3.6144,5.2358],
[-3.6152,5.1072]
]
],
[
[
[8.5346,42.4962],
[8.5388,42.1063],
[8.7005,41.9114],
[8.6227,41.7167],
[8.7821,41.7167],
[8.7839,41.522],
[9.1038,41.3274],
[9.2624,41.3922],
[9.4989,41.7816],
[9.4978,41.9764],
[9.5776,41.9764],
[9.5736,42.7563],
[9.4934,42.7563],
[9.4919,43.0165],
[9.2511,43.0165],
[9.1728,42.7563],
[8.7727,42.6912],
[8.5346,42.4962]
]
],
[
[
[9.8428,53.5296],
[10.2732,53.3946],
[10.3596,53.5971],
[10.2735,53.6647],
[10.0148,53.7323],
[9.8428,53.5296]
]
],
[
[
[9.8892,44.0591],
[9.8895,43.9938],
[9.9702,43.9938],
[9.9699,44.0591],
[9.8892,44.0591]
]
],
[
[
[10.0243,49.7807],
[10.0248,49.6479],
[10.694,49.7143],
[10.694,49.6479],
[10.8613,49.6479],
[10.8615,49.7807],
[11.0289,49.7807],
[11.1131,49.9136],
[11.3645,49.9136],
[11.4495,50.113],
[11.7013,50.113],
[11.6189,50.3125],
[11.5349,50.3125],
[11.5353,50.3791],
[11.4513,50.3791],
[11.4517,50.4457],
[11.2824,50.246],
[10.4424,50.246],
[10.4425,50.113],
[10.1071,50.0465],
[10.108,49.7807],
[10.0243,49.7807]
]
],
[
[
[10.1343,42.8864],
[10.2148,42.6912],
[10.4552,42.6912],
[10.4551,42.8864],
[10.1343,42.8864]
]
],
[
[
[55.0771,-20.9935],
[55.0963,-21.2507],
[55.408,-21.4435],
[55.6308,-21.4435],
[55.7695,-21.3149],
[55.5918,-20.9292],
[55.5869,-20.8649],
[55.2159,-20.8649],
[55.0771,-20.9935]
]
],
[
[
[55.2077,-4.6002],
[55.4304,-4.7931],
[55.429,-4.7288],
[55.4263,-4.6002],
[55.2077,-4.6002]
]
],
[
[
[57.1793,-20.3506],
[57.1943,-20.5435],
[57.5651,-20.5435],
[57.6241,-20.3506],
[57.6982,-20.3506],
[57.673,-20.0292],
[57.4457,-19.9649],
[57.1793,-20.3506]
]
]
]}
}
