{
"type": "Feature",
"properties": {"id":"cliopatria-twenty-sixth-dynasty-of-egypt-616bce","edge_precision":"unknown","cliopatria_name":"Twenty-sixth Dynasty of Egypt","cliopatria_from_year":-615,"cliopatria_to_year":-551,"cliopatria_area_km2":452849,"cliopatria_wikidata":"Q662410","cliopatria_wikipedia":"Twenty-sixth Dynasty of Egypt"},
"geometry": {"type": "MultiPolygon", "coordinates": [
[
[
[28.2675,26.5151],
[28.2886,25.165],
[28.6412,24.5864],
[29.6728,24.2006],
[29.9595,23.8792],
[30.1087,23.8792],
[30.104,23.7506],
[30.3952,23.5577],
[30.4627,23.3649],
[30.5372,23.3649],
[31.6705,23.7506],
[32.0409,23.6863],
[33.389,23.8149],
[33.6818,23.6863],
[33.7564,23.6863],
[35.108,23.8792],
[35.5526,23.8149],
[35.5588,23.9435],
[35.708,23.9435],
[35.7889,24.072],
[35.1455,24.6506],
[34.6076,25.8079],
[34.4613,25.8722],
[34.1972,26.5151],
[34.0507,26.5794],
[34.0731,26.9652],
[33.9266,27.0295],
[33.7992,27.4152],
[33.5851,27.6081],
[33.6089,27.9938],
[33.1053,28.3795],
[32.8361,28.8938],
[32.6892,28.9581],
[32.6387,29.3438],
[32.4287,29.6009],
[32.5261,29.9223],
[32.8571,29.2152],
[33.2139,28.8938],
[33.1889,28.5081],
[33.403,28.3153],
[33.5538,28.3153],
[33.617,28.1224],
[34.12,27.7367],
[34.3459,27.7367],
[34.4378,27.9938],
[34.4419,28.0581],
[34.1614,28.3795],
[33.9781,29.0224],
[33.769,29.2795],
[33.7824,29.4723],
[33.5734,29.7294],
[33.2929,31.0791],
[33.2168,31.0791],
[32.8317,31.0148],
[32.7652,31.1434],
[32.5322,31.0791],
[32.3133,31.2076],
[32.2372,31.2076],
[32.3039,31.0791],
[31.9996,31.0791],
[31.9374,31.2719],
[31.7806,31.2076],
[31.8752,31.4647],
[31.2658,31.4647],
[31.118,31.529],
[31.2033,31.6575],
[30.9746,31.6575],
[30.9656,31.529],
[30.8088,31.4647],
[30.3517,31.4647],
[30.2712,31.4005],
[30.3388,31.2719],
[29.882,31.2719],
[29.8018,31.2076],
[29.8696,31.0791],
[29.6332,30.9506],
[29.4851,31.0148],
[29.3971,30.822],
[29.017,30.822],
[28.6945,29.1509],
[28.6189,29.1509],
[28.6054,28.8938],
[28.451,28.8295],
[28.5233,28.7652],
[28.4665,27.6081],
[28.3912,27.6081],
[28.4458,27.158],
[28.3707,27.158],
[28.3426,26.5151],
[28.2675,26.5151]
]
]
]}
}
