{
"type": "Feature",
"properties": {"id":"cliopatria-mughal-empire-1534","edge_precision":"unknown","cliopatria_name":"Mughal Empire","cliopatria_from_year":1534,"cliopatria_to_year":1539,"cliopatria_area_km2":955784,"cliopatria_wikidata":"Q33296","cliopatria_wikipedia":"Mughal Empire","cliopatria_seshat_id":"in_mughal_emp"},
"geometry": {"type": "MultiPolygon", "coordinates": [
[
[
[69.2794,31.8503],
[69.4187,31.7861],
[69.3531,31.4647],
[69.4293,31.4647],
[69.2879,29.5366],
[69.3636,29.5366],
[69.3177,29.2795],
[69.4576,29.2152],
[69.4126,28.9581],
[69.573,28.5724],
[69.5298,28.3153],
[69.6052,28.3153],
[69.7061,27.5438],
[70.4832,27.2223],
[74.0944,26.7723],
[74.3095,26.708],
[74.4739,26.3222],
[74.4234,25.4864],
[74.2189,25.1007],
[74.0403,24.3292],
[73.413,23.4934],
[73.1209,22.9148],
[73.0912,22.6577],
[73.218,22.4648],
[73.3669,22.4648],
[73.6353,22.2077],
[74.1413,22.0791],
[74.9667,22.1434],
[76.7624,25.1007],
[77.399,25.3579],
[77.5391,25.2936],
[77.5115,24.5864],
[77.5862,24.5864],
[77.5504,24.3292],
[77.6647,24.072],
[78.2016,23.622],
[78.7812,23.4934],
[80.5881,23.622],
[81.6681,23.8792],
[82.6381,23.8792],
[82.8246,24.1363],
[83.1979,24.1363],
[83.3697,24.7792],
[83.3151,24.9078],
[83.485,25.0364],
[84.7132,25.2293],
[84.7881,25.2293],
[84.9609,25.8079],
[84.8971,25.8722],
[84.8222,25.8722],
[84.2338,25.9365],
[84.2563,26.0651],
[83.748,26.5794],
[83.4712,26.708],
[83.2459,26.708],
[82.6921,26.9652],
[82.1661,26.9652],
[81.6754,27.158],
[81.3747,27.158],
[81.4856,27.3509],
[81.4225,27.4152],
[80.3031,27.8652],
[80.0511,28.1224],
[79.7621,28.1867],
[79.7117,28.3153],
[79.4854,28.3153],
[78.9321,28.5724],
[78.5427,28.8938],
[78.1151,29.0224],
[77.8019,29.3438],
[77.5124,29.4081],
[77.4762,29.6009],
[77.3381,29.6652],
[77.3647,29.7937],
[77.2266,29.858],
[77.3082,30.2436],
[77.5155,30.5007],
[77.4961,30.7578],
[77.7202,31.0791],
[78.2208,31.2719],
[78.4329,31.529],
[78.448,31.5933],
[78.0361,31.7861],
[77.3037,31.9146],
[77.0439,32.1074],
[76.5246,32.1717],
[76.4022,32.3002],
[75.3326,32.3002],
[75.2098,32.4288],
[74.3988,32.5574],
[74.2142,32.7502],
[73.6319,32.8788],
[73.5088,33.0073],
[73.5694,33.2645],
[73.4927,33.2645],
[73.4167,33.9075],
[73.3398,33.9075],
[73.3282,34.4863],
[73.2511,34.4863],
[71.9431,34.8079],
[71.5254,34.3577],
[71.4183,33.9075],
[70.9891,33.7146],
[70.7763,33.4574],
[70.6229,33.4574],
[70.5791,33.2645],
[70.3969,33.1359],
[70.3682,33.0073],
[70.4448,33.0073],
[70.3256,32.8145],
[69.3654,32.6216],
[69.2794,31.8503]
]
]
]}
}
