{
"type": "Feature",
"properties": {"id":"cliopatria-emirate-of-diriyah-1805","edge_precision":"unknown","cliopatria_name":"Emirate of Diriyah","cliopatria_from_year":1805,"cliopatria_to_year":1810,"cliopatria_area_km2":2250458,"cliopatria_wikidata":"Q146871","cliopatria_wikipedia":"Emirate of Diriyah"},
"geometry": {"type": "MultiPolygon", "coordinates": [
[
[
[34.5927,28.0581],
[35.0492,28.1224],
[35.4087,27.8652],
[35.4669,27.6081],
[35.6132,27.5438],
[35.6717,27.2866],
[36.1649,26.7723],
[36.4291,26.1937],
[36.7173,26.0008],
[36.773,25.6793],
[37.2707,25.2293],
[37.3308,24.9721],
[37.1776,24.9078],
[37.1705,24.7792],
[37.3876,24.6506],
[37.4448,24.3292],
[38.0318,24.1363],
[38.6011,23.622],
[38.8688,23.0434],
[38.8589,22.8506],
[39.1402,22.5291],
[39.0271,21.7577],
[39.1693,21.6291],
[39.147,21.1791],
[39.3506,20.7934],
[39.8439,20.2791],
[40.1404,20.2791],
[40.5616,19.8291],
[40.851,19.7005],
[40.8408,19.5077],
[40.9854,19.4434],
[41.0421,19.1219],
[41.2501,18.8648],
[41.2361,18.6076],
[41.4508,18.4791],
[41.5775,18.0933],
[42.2802,17.4505],
[42.3363,17.129],
[42.4837,17.129],
[42.4767,17.0005],
[42.7574,16.7433],
[42.7458,15.1361],
[42.8896,15.0718],
[43.0566,13.9789],
[43.2648,13.7218],
[43.25,13.4003],
[43.3968,13.4003],
[43.6139,13.336],
[43.6785,13.1432],
[43.8223,13.0789],
[43.8252,13.1432],
[44.3415,13.2075],
[44.3474,13.336],
[44.5766,13.5289],
[45.0199,13.5932],
[45.1026,13.7861],
[45.4792,13.9789],
[45.4187,14.2361],
[45.6624,14.6861],
[45.6096,15.0718],
[45.7637,15.2004],
[45.6937,15.2647],
[45.8222,16.229],
[45.7485,16.229],
[45.775,16.679],
[46.0931,17.0647],
[46.9161,17.2576],
[46.9242,17.3862],
[47.2274,17.5148],
[47.4447,17.4505],
[47.457,17.6433],
[47.6087,17.7076],
[47.826,17.6433],
[47.8343,17.7719],
[48.4332,17.9005],
[48.5198,18.0933],
[48.6675,18.0933],
[49.5192,18.6719],
[53.3922,19.0577],
[54.3735,19.3148],
[54.9262,19.7648],
[54.9361,19.8934],
[55.1633,19.9577],
[55.198,20.4077],
[55.5646,21.3077],
[55.5307,21.822],
[55.6998,22.0791],
[55.699,22.9791],
[55.5662,23.172],
[55.5771,23.3006],
[55.7261,23.3006],
[55.6626,23.4291],
[55.7595,23.6863],
[55.8341,23.6863],
[55.8511,23.8792],
[56.0119,24.0077],
[56.0653,24.5864],
[56.3205,24.9078],
[56.1836,25.0364],
[56.2158,25.3579],
[56.0792,25.4864],
[56.2831,26.0008],
[56.0651,26.0651],
[56.0582,26.0008],
[55.6431,25.615],
[55.4119,25.5507],
[55.1427,25.1007],
[54.7442,24.8435],
[54.5591,24.4578],
[54.3178,24.2649],
[54.0995,24.3292],
[54.0825,24.1363],
[53.112,24.1363],
[52.6003,24.2649],
[52.2801,24.0077],
[51.907,24.0077],
[51.8535,24.2649],
[51.4108,24.3292],
[51.5236,24.7792],
[51.69,24.9721],
[51.7188,25.2936],
[51.575,25.3579],
[51.6979,25.8722],
[51.4228,26.1294],
[51.1229,26.1294],
[50.9545,25.9365],
[50.9246,25.615],
[50.769,25.5507],
[50.7289,25.1007],
[50.6541,25.1007],
[50.6076,25.4221],
[50.3255,25.615],
[50.211,26.0008],
[50.067,26.0651],
[50.223,26.1294],
[50.2537,26.4508],
[50.116,26.5794],
[50.135,26.7723],
[49.3596,27.2866],
[49.2419,27.6081],
[48.8722,27.6724],
[48.9741,27.9295],
[48.5627,28.3153],
[48.5834,28.5081],
[48.4394,28.5724],
[48.392,28.8295],
[47.8632,28.8295],
[47.4449,29.1509],
[47.4805,29.4723],
[47.7443,29.7937],
[47.3118,29.9865],
[47.2509,30.1151],
[45.68,30.3079],
[45.1235,30.7578],
[45.1382,30.8863],
[44.7188,31.2076],
[44.7337,31.3362],
[44.5127,31.4005],
[44.5277,31.529],
[44.108,31.8503],
[44.1004,31.7861],
[43.6969,31.5933],
[43.5844,31.2719],
[43.2657,31.1434],
[43.1205,31.2076],
[43.1064,31.0791],
[42.4149,31.0148],
[41.3903,31.4005],
[41.397,31.4647],
[41.2447,31.4647],
[40.8975,31.7861],
[40.3142,32.0431],
[39.4878,32.1717],
[39.1823,32.1717],
[38.9339,31.9789],
[38.0759,31.7861],
[37.9996,31.7861],
[37.3133,30.9506],
[36.9377,30.1151],
[36.6943,29.9223],
[36.5428,29.9223],
[36.3758,29.7294],
[35.9213,29.7294],
[35.2203,29.4723],
[35.1352,29.3438],
[34.9082,29.3438],
[34.8535,28.5724],
[34.6054,28.251],
[34.5927,28.0581]
]
],
[
[
[43.1967,31.2076],
[43.2728,31.2076],
[43.2799,31.2719],
[43.2038,31.2719],
[43.1967,31.2076]
]
],
[
[
[55.5999,21.7577],
[55.6742,21.7577],
[55.6793,21.822],
[55.605,21.822],
[55.5999,21.7577]
]
],
[
[
[55.7316,23.3649],
[55.8062,23.3649],
[55.8117,23.4291],
[55.7372,23.4291],
[55.7316,23.3649]
]
]
]}
}
