{
"type": "Feature",
"properties": {"id":"cliopatria-kingdom-of-brittany-0870","edge_precision":"unknown","cliopatria_name":"Kingdom of Brittany","cliopatria_from_year":870,"cliopatria_to_year":879,"cliopatria_area_km2":47425,"cliopatria_wikidata":"Q771193","cliopatria_wikipedia":"Kingdom of Brittany"},
"geometry": {"type": "MultiPolygon", "coordinates": [
[
[
[-4.9117,48.522],
[-4.8913,48.3238],
[-4.6426,48.3238],
[-4.5464,48.1917],
[-4.7054,48.1257],
[-4.6921,47.9938],
[-4.4244,47.7959],
[-3.9349,47.8619],
[-3.7572,47.73],
[-3.3443,47.73],
[-3.1555,47.4665],
[-2.8373,47.5982],
[-2.8258,47.4665],
[-2.5784,47.4665],
[-2.5616,47.269],
[-2.2322,47.269],
[-2.1337,47.0716],
[-2.1283,47.0058],
[-1.3063,47.0058],
[-1.2542,47.4006],
[-0.9345,47.5323],
[-0.3571,47.5323],
[-0.3713,47.73],
[-0.2155,47.8619],
[-0.225,47.9938],
[-0.7312,48.1257],
[-1.0829,48.3899],
[-1.0414,48.9189],
[-1.2132,48.9851],
[-1.2454,49.3826],
[-1.1673,49.4489],
[-1.2508,49.4489],
[-1.3618,49.7807],
[-2.0316,49.7807],
[-1.9133,49.3826],
[-1.6517,49.25],
[-1.635,49.0513],
[-1.7183,49.0513],
[-1.6022,48.6542],
[-2.5219,48.7204],
[-2.7594,48.5881],
[-3.1222,48.9189],
[-3.4551,48.9189],
[-3.8518,48.7204],
[-4.5999,48.7204],
[-4.9117,48.522]
]
]
]}
}
