{
"type": "Feature",
"properties": {"id":"cliopatria-taifa-of-valencia-1147","edge_precision":"unknown","cliopatria_name":"Taifa of Valencia","cliopatria_from_year":1147,"cliopatria_to_year":1151,"cliopatria_area_km2":53656,"cliopatria_wikidata":"Q676811","cliopatria_wikipedia":"Taifa of Valencia","cliopatria_seshat_id":"es_taifas","cliopatria_member_of":"(Taifas of Iberia)"},
"geometry": {"type": "MultiPolygon", "coordinates": [
[
[
[-2.9485,38.5451],
[-2.5524,38.4806],
[-2.4037,38.6097],
[-1.9332,38.6097],
[-1.4777,38.868],
[-0.8495,38.868],
[-0.7639,38.7389],
[-0.91,38.5451],
[-0.8958,38.2869],
[-0.8175,38.2869],
[-0.6574,38.2224],
[-0.4362,38.4806],
[-0.126,38.5451],
[0.0994,38.7389],
[-0.3137,39.1265],
[-0.3454,39.7083],
[-0.2019,39.967],
[0.107,40.0964],
[0.2478,40.4201],
[0.4784,40.5496],
[0.475,40.6144],
[0.7093,40.6792],
[0.6958,40.9384],
[0.9305,41.0032],
[0.9272,41.068],
[0.8478,41.068],
[0.9206,41.1977],
[0.8343,41.3274],
[1.0729,41.3274],
[1.2254,41.4571],
[1.2189,41.5869],
[1.0563,41.6518],
[0.7377,41.6518],
[0.5713,41.7816],
[0.4916,41.7816],
[0.4951,41.7167],
[0.3466,41.522],
[-0.1273,41.4571],
[-0.2789,41.3274],
[-0.4151,40.9384],
[-0.7286,40.8736],
[-0.7133,40.6144],
[-0.8717,40.6144],
[-1.0184,40.4201],
[-1.2518,40.3554],
[-1.5805,40.5496],
[-1.7347,40.4849],
[-1.8722,40.1612],
[-2.2504,39.9023],
[-2.3912,39.6436],
[-2.7022,39.5789],
[-2.4365,39.1265],
[-2.6639,38.9972],
[-2.6556,38.868],
[-2.8827,38.7389],
[-2.9485,38.5451]
]
]
]}
}
