{
"type": "Feature",
"properties": {"id":"cliopatria-kimek-kipchak-confederation-0880","edge_precision":"unknown","cliopatria_name":"Kimek-Kipchak confederation","cliopatria_from_year":880,"cliopatria_to_year":895,"cliopatria_area_km2":1431650,"cliopatria_wikidata":"Q2477776","cliopatria_wikipedia":"Kimek-Kipchak confederation","cliopatria_seshat_id":"kz_kimek_conf"},
"geometry": {"type": "MultiPolygon", "coordinates": [
[
[
[51.2812,48.1917],
[53.6004,48.1917],
[53.7935,47.9938],
[53.959,47.9938],
[54.0049,47.8619],
[54.1702,47.8619],
[54.2986,47.73],
[54.2619,47.5982],
[54.4086,47.5323],
[54.3721,47.4006],
[54.5186,47.3348],
[56.3824,47.7959],
[61.8177,47.9938],
[63.8632,47.9278],
[64.2311,47.7959],
[64.2685,47.6641],
[64.4336,47.6641],
[64.5309,47.4665],
[64.7556,47.4006],
[64.7482,47.1374],
[64.8305,47.1374],
[64.7858,47.0058],
[64.868,47.0058],
[64.8235,46.8743],
[64.9434,46.7429],
[64.8934,46.3489],
[64.9753,46.3489],
[64.8187,45.6278],
[64.9002,45.6278],
[66.0949,45.3004],
[66.3923,44.9734],
[67.5363,44.516],
[67.8676,44.0591],
[68.0511,44.1243],
[68.0879,43.9938],
[68.8951,43.9938],
[69.851,44.1896],
[69.9318,44.1896],
[70.9557,45.6933],
[72.0334,46.6115],
[73.1759,46.8086],
[73.9148,46.8086],
[73.8889,46.7429],
[74.3554,46.6772],
[74.4374,46.6772],
[74.5978,46.8743],
[76.3226,46.8743],
[76.351,46.7429],
[76.7614,46.7429],
[76.7344,46.6772],
[77.9103,46.7429],
[78.1016,46.6115],
[78.7046,46.8743],
[79.3336,46.8086],
[79.3055,46.7429],
[79.6057,46.6772],
[80.0725,46.8086],
[80.3156,46.6115],
[80.8327,46.4802],
[80.8611,46.5459],
[82.4535,46.8086],
[82.6767,46.9401],
[82.8935,46.8743],
[83.0351,47.0058],
[83.3639,47.0058],
[83.9783,47.269],
[85.173,47.5323],
[85.3498,47.73],
[85.5149,47.73],
[85.5914,48.0597],
[85.5086,48.0597],
[85.6375,48.3238],
[85.4717,48.3238],
[85.5189,48.5881],
[85.3352,48.7204],
[85.4011,48.8527],
[85.3009,48.9851],
[84.3334,49.3826],
[84.3668,49.4489],
[83.899,49.5152],
[83.7988,49.6479],
[79.0218,49.98],
[78.8144,50.246],
[78.6464,50.246],
[78.6594,50.4457],
[78.4911,50.4457],
[78.3174,50.7788],
[78.1488,50.7788],
[78.0787,50.9789],
[77.9098,50.9789],
[77.8401,51.1792],
[77.671,51.1792],
[77.6016,51.3797],
[77.4322,51.3797],
[77.3119,51.6472],
[77.1422,51.6472],
[77.0735,51.8481],
[76.5798,52.0492],
[76.375,52.3176],
[74.8361,52.99],
[74.8704,53.0574],
[74.613,53.0574],
[74.6474,53.1248],
[73.4275,53.2596],
[73.4614,53.3271],
[73.1697,53.2596],
[73.2035,53.3271],
[72.6877,53.3271],
[72.7213,53.3946],
[72.1192,53.3946],
[72.1526,53.4621],
[71.292,53.4621],
[71.325,53.5296],
[67.2537,53.6647],
[63.9211,53.7323],
[62.7711,53.6647],
[61.2536,53.3271],
[61.1091,53.3946],
[60.3134,53.1248],
[59.4442,52.6535],
[59.1206,52.2505],
[59.0454,52.0492],
[59.1907,51.9822],
[59.0068,51.7142],
[58.1131,51.1124],
[56.4062,51.3128],
[55.7576,51.6472],
[54.5918,51.7142],
[54.6142,51.7811],
[53.573,51.7142],
[52.8297,51.5134],
[52.4269,51.5803],
[52.3002,51.4465],
[51.9405,51.3797],
[51.649,50.9789],
[51.4392,49.98],
[51.5231,49.98],
[51.5771,49.5816],
[51.8091,49.5152],
[51.5597,48.9189],
[51.3933,48.9189],
[51.4584,48.8527],
[51.3038,48.5881],
[51.2986,48.2578],
[51.2812,48.1917]
]
],
[
[
[61.1951,53.3946],
[61.2811,53.3946],
[61.3087,53.4621],
[61.2226,53.4621],
[61.1951,53.3946]
]
],
[
[
[66.1636,53.7323],
[66.2498,53.7323],
[66.2804,53.7999],
[66.1941,53.7999],
[66.1636,53.7323]
]
],
[
[
[67.9264,43.9938],
[68.0072,43.9938],
[68.0291,44.0591],
[67.9484,44.0591],
[67.9264,43.9938]
]
],
[
[
[67.9852,43.9286],
[68.0659,43.9286],
[68.0879,43.9938],
[68.0072,43.9938],
[67.9852,43.9286]
]
]
]}
}
