{
"type": "Feature",
"properties": {"id":"cliopatria-viking-settlements-1018","edge_precision":"unknown","cliopatria_name":"Viking settlements","cliopatria_from_year":1018,"cliopatria_to_year":1027,"cliopatria_area_km2":47004,"cliopatria_wikidata":"Q12567","cliopatria_wikipedia":"Vikings"},
"geometry": {"type": "MultiPolygon", "coordinates": [
[
[
[-52.2535,64.7122],
[-52.0202,64.203],
[-51.7352,64.203],
[-51.5054,63.8407],
[-51.6947,63.8407],
[-51.4182,63.5517],
[-50.6135,63.6239],
[-50.6583,63.6961],
[-50.0412,63.7684],
[-50.0857,63.8407],
[-49.9911,63.8407],
[-49.5116,63.9855],
[-49.5057,64.1304],
[-49.4107,64.1304],
[-49.4999,64.2756],
[-49.3544,64.3482],
[-49.716,64.9311],
[-50.1416,65.1504],
[-50.5254,65.1504],
[-50.4788,65.0773],
[-50.9091,65.1504],
[-50.9114,65.0042],
[-51.2458,65.0773],
[-51.1519,64.9311],
[-51.2964,64.8581],
[-51.1565,64.6393],
[-52.2535,64.7122]
]
],
[
[
[-51.2338,63.4075],
[-51.189,63.3354],
[-51.0057,63.1915],
[-50.7236,63.1915],
[-50.3668,62.7606],
[-50.0356,62.8323],
[-50.2162,62.9758],
[-50.0286,62.9758],
[-50.0721,63.0477],
[-50.5299,63.3354],
[-50.5244,63.4796],
[-51.2338,63.4075]
]
],
[
[
[-49.5667,62.0459],
[-49.4412,61.8322],
[-49.2143,61.7611],
[-49.173,61.69],
[-49.3582,61.69],
[-49.2345,61.477],
[-48.6799,61.477],
[-48.6103,61.1935],
[-48.1095,61.1227],
[-48.0427,60.8399],
[-47.7279,60.7693],
[-47.7672,60.8399],
[-47.6753,60.8399],
[-47.5308,60.9105],
[-47.741,61.1227],
[-47.412,61.1935],
[-47.4515,61.2643],
[-48.6685,62.2599],
[-49.2695,62.3313],
[-49.1436,62.1172],
[-49.5667,62.0459]
]
],
[
[
[-8.7086,52.0492],
[-8.5755,51.7142],
[-8.1603,51.7811],
[-8.0753,51.7811],
[-8.0183,51.9822],
[-8.1222,52.1163],
[-8.7086,52.0492]
]
],
[
[
[-8.4649,52.7208],
[-8.4551,52.6535],
[-8.3695,52.6535],
[-8.3793,52.7208],
[-8.4649,52.7208]
]
],
[
[
[-7.6481,52.3847],
[-7.6112,52.1163],
[-7.0151,52.1163],
[-7.4012,52.4519],
[-7.6481,52.3847]
]
],
[
[
[-7.5973,57.3509],
[-7.4655,57.0751],
[-7.2881,57.0751],
[-7.3198,57.2819],
[-7.231,57.2819],
[-7.2522,57.4199],
[-7.5973,57.3509]
]
],
[
[
[-7.5625,57.6962],
[-7.4409,57.4889],
[-7.1058,57.6271],
[-7.1165,57.6962],
[-7.5625,57.6962]
]
],
[
[
[-7.3245,62.3313],
[-7.2756,62.0459],
[-6.7872,61.9034],
[-6.6944,61.9034],
[-6.6602,62.2599],
[-6.7652,62.3313],
[-6.9637,62.4027],
[-7.3245,62.3313]
]
],
[
[
[-7.2812,58.181],
[-7.0698,57.9731],
[-7.1271,57.7654],
[-6.5228,57.9038],
[-6.3851,58.181],
[-6.2059,58.181],
[-6.2573,58.5282],
[-6.786,58.4587],
[-6.7647,58.3198],
[-6.8544,58.3198],
[-7.2812,58.181]
]
],
[
[
[-7.0181,61.619],
[-6.9945,61.477],
[-6.7056,61.406],
[-6.7172,61.477],
[-6.7404,61.619],
[-7.0181,61.619]
]
],
[
[
[-6.8441,53.3946],
[-6.8076,53.1248],
[-6.4732,53.1922],
[-6.0949,52.9227],
[-6.1471,53.3271],
[-6.2419,53.3946],
[-6.0875,53.5296],
[-6.1913,53.6647],
[-6.6132,53.5971],
[-6.6041,53.5296],
[-6.8441,53.3946]
]
],
[
[
[-6.7969,57.3509],
[-6.619,57.3509],
[-6.4109,57.144],
[-6.0558,57.144],
[-6.0362,57.0063],
[-5.7798,57.0751],
[-5.8088,57.2819],
[-6.0853,57.3509],
[-6.2243,57.6962],
[-6.5022,57.7654],
[-6.4715,57.558],
[-6.7388,57.558],
[-6.7969,57.3509]
]
],
[
[
[-6.7947,52.3847],
[-6.7683,52.1833],
[-6.4275,52.1833],
[-6.2827,52.3847],
[-6.3085,52.5863],
[-6.5649,52.5863],
[-6.7947,52.3847]
]
],
[
[
[-6.6347,55.6348],
[-6.3815,55.7031],
[-6.3623,55.5665],
[-6.1872,55.5665],
[-6.1279,55.7715],
[-5.874,55.8398],
[-5.8927,55.9766],
[-5.717,55.9766],
[-5.7449,56.1821],
[-5.921,56.1821],
[-5.9115,56.1136],
[-6.0685,55.9766],
[-6.5079,55.9766],
[-6.6347,55.6348]
]
],
[
[
[-6.4289,52.8554],
[-6.4027,52.6535],
[-6.3172,52.6535],
[-6.3085,52.5863],
[-6.1461,52.6535],
[-6.1806,52.9227],
[-6.4289,52.8554]
]
],
[
[
[-6.3414,56.6623],
[-6.2334,56.525],
[-6.2925,56.3191],
[-5.9399,56.3191],
[-5.6849,56.3877],
[-5.7037,56.525],
[-5.8803,56.525],
[-5.9878,56.6623],
[-6.3414,56.6623]
]
],
[
[
[-5.9152,55.4983],
[-5.8876,55.2936],
[-5.5471,55.3618],
[-5.5742,55.5665],
[-5.3812,55.43],
[-5.1188,55.43],
[-5.1629,55.7715],
[-5.4261,55.7715],
[-5.4352,55.8398],
[-5.777,55.7715],
[-5.7585,55.6348],
[-5.9152,55.4983]
]
],
[
[
[-5.3564,55.9082],
[-5.3474,55.8398],
[-4.9963,55.8398],
[-4.9261,55.9766],
[-4.9349,56.0451],
[-5.2957,56.1136],
[-5.3564,55.9082]
]
],
[
[
[-4.8613,54.0706],
[-4.3584,54.2061],
[-4.3826,54.4095],
[-4.8079,54.3417],
[-4.7996,54.2739],
[-4.8613,54.0706]
]
],
[
[
[17.5919,68.5741],
[17.6915,68.5741],
[17.6984,68.6499],
[17.5987,68.6499],
[17.5919,68.5741]
]
],
[
[
[17.6778,68.4227],
[17.8766,68.4227],
[17.8837,68.4984],
[17.6846,68.4984],
[17.6778,68.4227]
]
],
[
[
[17.8907,68.5741],
[18.0755,68.4227],
[18.0827,68.4984],
[18.1969,68.6499],
[17.8907,68.5741]
]
]
]}
}
