{
"type": "Feature",
"properties": {"id":"cliopatria-almohad-caliphate-1139","edge_precision":"unknown","cliopatria_name":"Almohad Caliphate","cliopatria_from_year":1139,"cliopatria_to_year":1146,"cliopatria_area_km2":264869,"cliopatria_wikidata":"Q199688","cliopatria_wikipedia":"Almohad Caliphate","cliopatria_seshat_id":"ma_almohad_emp"},
"geometry": {"type": "MultiPolygon", "coordinates": [
[
[
[-11.6194,28.251],
[-10.4688,27.9295],
[-9.1844,27.8652],
[-8.8149,27.9938],
[-8.6607,27.9295],
[-8.0068,28.3795],
[-7.5611,28.5081],
[-7.3485,28.7652],
[-7.1975,28.7652],
[-6.1801,29.5366],
[-5.8773,29.5366],
[-5.884,29.6652],
[-5.5944,29.9223],
[-5.4429,29.9223],
[-4.8659,30.5007],
[-4.5655,30.565],
[-4.648,30.6935],
[-4.2084,31.0148],
[-4.2149,31.1434],
[-3.9235,31.4005],
[-3.768,31.3362],
[-3.781,31.5933],
[-3.5556,31.6575],
[-3.6383,31.7861],
[-3.416,31.9146],
[-3.3494,32.1074],
[-3.1935,32.0431],
[-3.2032,32.236],
[-2.834,32.4931],
[-2.8404,32.6216],
[-2.5408,32.7502],
[-1.8795,33.3288],
[-1.5728,33.3288],
[-1.4314,33.5859],
[-1.2779,33.5859],
[-0.9855,33.9075],
[-0.8317,33.9075],
[-0.6896,34.1647],
[-0.5357,34.1647],
[-0.5386,34.229],
[-0.0936,34.615],
[-0.1996,35.2584],
[-0.1223,35.2584],
[-0.1252,35.3227],
[-0.0714,35.8377],
[-0.1489,35.8377],
[-0.9171,35.7089],
[-1.0655,35.5802],
[-1.2235,35.6445],
[-1.1365,35.4514],
[-1.3587,35.2584],
[-2.044,35.0653],
[-2.1212,35.0653],
[-2.4162,34.8079],
[-2.5705,34.8079],
[-2.7878,34.5506],
[-3.0924,34.4863],
[-3.2357,34.2933],
[-4.3636,33.8432],
[-4.502,33.5859],
[-4.7976,33.3931],
[-4.79,33.2645],
[-5.8079,32.3645],
[-6.1097,32.3002],
[-6.2506,32.1074],
[-6.773,31.9146],
[-7.062,31.6575],
[-7.2144,31.6575],
[-7.2063,31.529],
[-7.507,31.4647],
[-7.8673,31.1434],
[-8.3155,31.0148],
[-8.8225,30.6292],
[-9.6408,30.3722],
[-9.6365,30.3079],
[-9.8301,29.7937],
[-10.3307,29.3438],
[-10.3224,29.2152],
[-10.6165,29.0867],
[-10.8265,28.8295],
[-10.9776,28.8295],
[-11.6194,28.251]
]
]
]}
}
