{
"type": "Feature",
"properties": {"id":"cliopatria-duchy-of-sandomierz-1188","edge_precision":"unknown","cliopatria_name":"Duchy of Sandomierz","cliopatria_from_year":1188,"cliopatria_to_year":1191,"cliopatria_area_km2":141788,"cliopatria_wikidata":"Q16933165","cliopatria_wikipedia":"Duchy of Sandomierz","cliopatria_seshat_id":"pl_piast_dyn_2","cliopatria_member_of":"(Duchies of Poland)"},
"geometry": {"type": "MultiPolygon", "coordinates": [
[
[
[16.7245,53.3946],
[16.7963,53.1248],
[17.1249,52.8554],
[17.5493,52.7881],
[17.6272,52.6535],
[18.0506,52.5863],
[18.1279,52.4519],
[18.2133,52.4519],
[18.3508,51.9151],
[18.08,51.6472],
[17.9723,51.246],
[18.0493,51.1124],
[18.7093,50.8455],
[18.7013,50.7121],
[19.0302,50.5789],
[19.1021,50.3791],
[19.1861,50.3791],
[19.0779,49.98],
[19.2416,49.9136],
[19.3889,49.5816],
[19.8655,49.1838],
[20.2119,49.3826],
[21.2973,49.3826],
[21.3906,49.5152],
[22.1585,49.7143],
[22.2583,49.9136],
[22.946,50.113],
[22.9754,50.4457],
[22.8913,50.4457],
[22.9151,50.7121],
[23.0898,50.7788],
[23.1083,50.9789],
[23.0238,50.9789],
[23.0424,51.1792],
[22.8794,51.246],
[22.9955,51.5803],
[22.6686,51.7142],
[22.6874,51.9151],
[22.3472,51.9151],
[22.1042,52.0492],
[22.2929,52.2505],
[22.4224,52.7208],
[22.3432,52.7881],
[22.4288,52.7881],
[22.6462,53.2596],
[22.3025,53.2596],
[22.5009,53.5296],
[22.1695,53.6647],
[21.9843,53.5296],
[21.8184,53.5971],
[21.7197,53.4621],
[21.3815,53.5296],
[21.0195,53.3271],
[20.5841,53.2596],
[20.4871,53.1248],
[19.9721,53.1248],
[19.9019,53.3271],
[19.563,53.3946],
[19.4211,53.7999],
[19.3348,53.7999],
[19.2685,54.0706],
[19.355,54.0706],
[19.4622,54.3417],
[18.6869,54.4095],
[18.4453,54.6811],
[18.4595,54.8851],
[17.5017,54.8851],
[17.4892,54.6811],
[17.5761,54.6811],
[17.5347,54.0029],
[17.7773,53.7323],
[17.7649,53.5296],
[16.9038,53.5296],
[16.7245,53.3946]
],
[
[18.2641,53.2596],
[18.5263,53.3271],
[18.5174,53.1922],
[18.6892,53.1922],
[18.9282,52.9227],
[19.0996,52.9227],
[19.423,52.6535],
[19.4844,52.3176],
[20.0764,52.2505],
[20.1465,52.0492],
[20.2316,52.0492],
[20.2215,51.9151],
[19.8716,51.7811],
[19.6215,51.8481],
[18.6533,52.6535],
[18.6622,52.7881],
[18.3326,52.99],
[18.2641,53.2596]
]
]
]}
}
