{
"type": "Feature",
"properties": {"id":"cliopatria-free-county-of-burgundy-1333","edge_precision":"unknown","cliopatria_name":"Free County of Burgundy","cliopatria_from_year":1333,"cliopatria_to_year":1351,"cliopatria_area_km2":22687,"cliopatria_wikidata":"Q642314","cliopatria_wikipedia":"County of Burgundy","cliopatria_seshat_id":"de_empire_3","cliopatria_member_of":"(Holy Roman Empire)"},
"geometry": {"type": "MultiPolygon", "coordinates": [
[
[
[1.5761,50.9789],
[1.5804,50.9122],
[1.8419,50.7788],
[1.6018,50.5789],
[1.7827,50.3791],
[2.5544,50.113],
[3.7293,50.113],
[3.726,50.1795],
[3.6421,50.1795],
[3.5416,50.5122],
[3.3733,50.5122],
[3.296,50.3791],
[3.2119,50.3791],
[2.7768,50.6455],
[2.2714,50.6455],
[2.2635,50.7788],
[2.0949,50.7788],
[2.0745,51.1124],
[1.99,51.1124],
[1.5761,50.9789]
]
],
[
[
[5.3769,46.2833],
[5.8679,46.2833],
[6.3443,46.8086],
[6.6658,47.0716],
[6.8303,47.0716],
[6.8269,47.2032],
[6.9899,47.269],
[6.9834,47.5323],
[6.8909,47.9278],
[6.1447,47.9938],
[5.8181,47.8619],
[5.8224,47.73],
[5.6572,47.73],
[5.6594,47.6641],
[5.5769,47.6641],
[5.5945,47.1374],
[5.4322,47.0716],
[5.3769,46.2833]
]
]
]}
}
