{
"type": "Feature",
"properties": {"id":"cliopatria-jin-751bce","edge_precision":"unknown","cliopatria_name":"Jin","cliopatria_from_year":-750,"cliopatria_to_year":-551,"cliopatria_area_km2":136495,"cliopatria_wikidata":"Q6201794","cliopatria_wikipedia":"Jin (Chinese state)","cliopatria_seshat_id":"cn_jin_spring_and_autumn","cliopatria_member_of":"(Spring and Autumn States)"},
"geometry": {"type": "MultiPolygon", "coordinates": [
[
[
[110.5884,34.8079],
[110.7168,34.7436],
[110.6911,34.4863],
[110.8196,34.422],
[110.8203,34.229],
[110.8973,34.229],
[112.1548,34.4863],
[112.1837,34.9366],
[112.1066,34.9366],
[112.3199,35.4514],
[113.5301,35.3871],
[114.226,35.3871],
[114.2809,35.5158],
[114.3144,35.7733],
[114.6098,36.0952],
[115.4417,36.7393],
[115.9611,37.1904],
[116.2215,37.5773],
[116.4394,37.7062],
[116.5955,38.0288],
[117.1971,38.6097],
[116.1454,38.5451],
[116.3993,38.7389],
[116.1639,38.7389],
[116.2618,38.9326],
[116.0919,39.0618],
[116.1009,39.385],
[115.8648,39.385],
[116.1021,39.8376],
[116.0232,39.8376],
[115.8997,39.9023],
[115.8312,39.7729],
[115.4479,39.6436],
[114.359,38.7389],
[114.0917,38.6743],
[114.1069,38.5451],
[113.2674,37.7707],
[112.2013,37.3193],
[112.1722,37.2549],
[111.4133,36.4172],
[111.2303,36.3528],
[111.0618,35.7733],
[111.1628,35.6445],
[111.0029,35.2584],
[110.6662,35.001],
[110.5884,34.8079]
]
]
]}
}
