{
"type": "Feature",
"properties": {"id":"cliopatria-kingdom-of-lysimachus-324bce","edge_precision":"unknown","cliopatria_name":"Kingdom of Lysimachus","cliopatria_from_year":-323,"cliopatria_to_year":-319,"cliopatria_area_km2":151410,"cliopatria_wikidata":"Q32133","cliopatria_wikipedia":"Lysimachian Empire","cliopatria_seshat_id":"tr_lysimachus_k"},
"geometry": {"type": "MultiPolygon", "coordinates": [
[
[
[22.3707,42.3662],
[22.4377,42.1712],
[22.6729,42.1063],
[22.8194,41.9114],
[23.528,41.7816],
[23.5938,41.5869],
[23.7484,41.522],
[23.8047,41.1977],
[23.9636,41.1977],
[24.2625,40.9384],
[25.8495,40.9384],
[26.0822,40.8736],
[26.1403,40.6144],
[26.6264,40.744],
[26.9214,40.4849],
[27.0172,40.6792],
[27.5275,41.068],
[29.0362,41.068],
[28.9759,41.2625],
[28.5053,41.3274],
[28.2792,41.4571],
[28.2183,41.6518],
[27.9794,41.6518],
[27.937,42.0413],
[27.4949,42.4312],
[27.5135,42.6262],
[27.8466,42.7563],
[27.8049,43.1467],
[27.8982,43.2769],
[28.2264,43.3421],
[28.1592,43.4723],
[28.4811,43.4723],
[28.6163,43.9938],
[28.5356,43.9938],
[28.5769,44.3854],
[28.8407,44.5813],
[28.802,44.9734],
[29.0456,44.9734],
[29.0241,44.7773],
[29.1935,44.8426],
[29.2746,44.8426],
[29.6213,45.0388],
[29.6659,45.4313],
[29.1847,45.4968],
[28.7561,45.3004],
[28.4307,45.3004],
[28.275,45.3659],
[28.2888,45.4968],
[28.0513,45.5623],
[28.0376,45.4313],
[27.7867,45.3659],
[27.7666,45.1696],
[27.9224,45.1042],
[27.8888,44.7773],
[27.7266,44.7773],
[27.7067,44.5813],
[27.8687,44.5813],
[27.8488,44.3854],
[27.9297,44.3854],
[27.7481,44.1896],
[26.3682,44.1243],
[25.5205,43.6678],
[24.8062,43.7982],
[24.0754,43.733],
[23.9244,43.8634],
[23.5211,43.8634],
[23.582,43.6027],
[23.4209,43.6027],
[23.3307,43.4723],
[23.3967,43.2769],
[23.0705,43.2118],
[23.1414,43.0816],
[22.9808,43.0816],
[22.5526,42.6912],
[22.4725,42.6912],
[22.5394,42.4962],
[22.3707,42.3662]
]
],
[
[
[22.3924,42.6912],
[22.4725,42.6912],
[22.4769,42.7563],
[22.3968,42.7563],
[22.3924,42.6912]
]
],
[
[
[22.6462,42.8864],
[22.7264,42.8864],
[22.7309,42.9515],
[22.6506,42.9515],
[22.6462,42.8864]
]
],
[
[
[22.7309,42.9515],
[22.8111,42.9515],
[22.8157,43.0165],
[22.7354,43.0165],
[22.7309,42.9515]
]
],
[
[
[22.8157,43.0165],
[22.8959,43.0165],
[22.9005,43.0816],
[22.8203,43.0816],
[22.8157,43.0165]
]
]
]}
}
