{
"type": "Feature",
"properties": {"id":"cliopatria-principality-of-reuss-gera-1815","edge_precision":"unknown","cliopatria_name":"Principality of Reuss-Gera","cliopatria_from_year":1815,"cliopatria_to_year":1819,"cliopatria_area_km2":3135,"cliopatria_wikidata":"Q639100","cliopatria_wikipedia":"Principality of Reuss-Gera"},
"geometry": {"type": "MultiPolygon", "coordinates": [
[
[
[11.1155,50.5122],
[11.3672,50.3791],
[11.8723,50.4457],
[11.9564,50.4457],
[11.9578,50.5789],
[12.2112,50.6455],
[12.2129,50.7788],
[12.0451,50.8455],
[11.9592,50.7121],
[11.7907,50.7121],
[11.792,50.8455],
[11.7076,50.8455],
[11.2854,50.7788],
[11.2862,50.9122],
[11.2018,50.9122],
[11.2007,50.7121],
[11.1165,50.7121],
[11.1155,50.5122]
]
],
[
[
[11.9614,50.9122],
[12.2999,50.9789],
[12.3018,51.1124],
[12.2173,51.1124],
[12.2164,51.0457],
[11.9629,51.0457],
[11.9614,50.9122]
]
]
]}
}
