{
"type": "Feature",
"properties": {"id":"cliopatria-south-african-republic-1898","edge_precision":"unknown","cliopatria_name":"South African Republic","cliopatria_from_year":1898,"cliopatria_to_year":1899,"cliopatria_area_km2":316468,"cliopatria_wikidata":"Q550374","cliopatria_wikipedia":"South African Republic"},
"geometry": {"type": "MultiPolygon", "coordinates": [
[
[
[24.6277,-28.1297],
[24.7083,-28.2582],
[24.9994,-28.0011],
[25.5188,-27.8082],
[25.8981,-27.8725],
[26.406,-27.4225],
[26.3228,-27.2296],
[26.6129,-26.9724],
[26.9162,-27.0367],
[27.1389,-26.9724],
[27.2811,-26.7796],
[27.5788,-26.7153],
[27.729,-26.7153],
[27.9655,-26.9724],
[28.113,-26.9081],
[28.4223,-27.101],
[28.9485,-27.101],
[29.6544,-27.6796],
[29.8769,-27.6153],
[30.0343,-27.7439],
[30.0446,-27.9368],
[30.1989,-28.0011],
[30.3425,-27.8725],
[31.2355,-27.6796],
[31.4433,-27.3582],
[31.8158,-27.2939],
[31.6909,-27.7439],
[32.3088,-28.0011],
[32.392,-28.1297],
[32.4674,-28.1297],
[32.7749,-26.9724],
[32.7713,-26.9081],
[32.0164,-26.8438],
[31.9793,-26.1366],
[31.7416,-25.8795],
[31.9508,-25.558],
[31.8521,-25.0437],
[31.9016,-24.465],
[31.8269,-24.465],
[31.7285,-23.8864],
[31.4947,-23.6293],
[31.4777,-23.1793],
[31.1545,-22.4721],
[31.1522,-22.4078],
[31.0034,-22.4078],
[31.0012,-22.3435],
[30.0341,-22.3435],
[29.8068,-22.215],
[29.1354,-22.1507],
[28.7008,-22.5364],
[28.2561,-22.6007],
[27.6068,-23.3078],
[27.3106,-23.3721],
[26.8019,-23.8221],
[26.8038,-23.8864],
[26.6682,-24.3365],
[26.3046,-24.6579],
[25.7854,-24.7865],
[25.654,-25.3651],
[25.365,-25.6866],
[25.4666,-26.4581],
[25.3916,-26.4581],
[25.3378,-27.0367],
[25.1221,-27.2939],
[25.2073,-27.5511],
[24.836,-27.6796],
[24.8461,-27.9368],
[24.6277,-28.1297]
]
]
]}
}
