{
"type": "Feature",
"properties": {"id":"cliopatria-california-republic-1846","edge_precision":"unknown","cliopatria_name":"California Republic","cliopatria_from_year":1846,"cliopatria_to_year":1847,"cliopatria_area_km2":15546,"cliopatria_wikidata":"Q17557","cliopatria_wikipedia":"California Republic"},
"geometry": {"type": "MultiPolygon", "coordinates": [
[
[
[-123.7441,38.9972],
[-122.9775,38.2869],
[-123.0536,38.1578],
[-122.9736,38.0288],
[-122.5814,37.8998],
[-122.5026,37.7707],
[-122.5805,37.6417],
[-122.1963,36.9971],
[-121.8097,36.8682],
[-121.9716,36.6105],
[-121.8285,36.224],
[-121.6278,36.4172],
[-121.7014,36.546],
[-121.546,36.546],
[-121.4646,36.6749],
[-121.5359,36.9326],
[-121.3375,37.126],
[-121.5676,37.3838],
[-121.6059,37.4483],
[-121.9168,37.7062],
[-122.2727,38.2869],
[-122.7046,38.3515],
[-123.0279,38.7389],
[-123.7441,38.9972]
]
],
[
[
[-121.8132,38.8034],
[-121.5719,38.5451],
[-121.2987,38.6097],
[-121.5402,38.868],
[-121.6188,38.868],
[-121.8132,38.8034]
]
]
]}
}
