{
"type": "Feature",
"properties": {"id":"cliopatria-duchy-of-wroc-aw-1192","edge_precision":"unknown","cliopatria_name":"Duchy of Wrocław","cliopatria_from_year":1192,"cliopatria_to_year":1201,"cliopatria_area_km2":5861,"cliopatria_wikidata":"Q568638","cliopatria_wikipedia":"Duchy of Wrocław","cliopatria_seshat_id":"pl_piast_dyn_2","cliopatria_member_of":"(Duchies of Poland)"},
"geometry": {"type": "MultiPolygon", "coordinates": [
[
[
[17.246,50.246],
[17.6593,50.113],
[17.7432,50.113],
[17.7466,50.1795],
[18.0896,50.3125],
[18.338,50.246],
[19.1021,50.3791],
[19.0302,50.5789],
[18.7013,50.7121],
[17.5215,50.7121],
[17.246,50.246]
]
]
]}
}
