{
"type": "Feature",
"properties": {"id":"cliopatria-grand-duchy-of-berg-1814","edge_precision":"unknown","cliopatria_name":"Grand Duchy of Berg","cliopatria_from_year":1814,"cliopatria_to_year":1814,"cliopatria_area_km2":102968,"cliopatria_wikidata":"Q249428","cliopatria_wikipedia":"Grand Duchy of Berg"},
"geometry": {"type": "MultiPolygon", "coordinates": [
[
[
[2.0419,48.8527],
[2.1554,48.3238],
[2.4077,48.2578],
[2.5049,47.9938],
[2.9353,47.6641],
[2.942,47.5323],
[3.2783,47.4006],
[3.5377,47.1374],
[4.1192,47.0058],
[5.4344,47.0058],
[5.5945,47.1374],
[6.3312,47.269],
[6.736,47.5323],
[6.9851,47.4665],
[6.9834,47.5323],
[7.4769,47.5982],
[7.5594,47.5982],
[7.5496,48.0597],
[6.8893,47.9938],
[6.6464,47.7959],
[6.1567,47.5982],
[5.8266,47.5982],
[5.666,47.4665],
[5.1713,47.4665],
[5.4966,47.5982],
[5.5724,47.7959],
[5.816,47.9278],
[5.8117,48.0597],
[6.2176,48.3238],
[6.368,48.8527],
[6.6084,49.1838],
[8.1127,48.9851],
[8.2759,49.1838],
[8.353,49.5816],
[8.3519,49.6479],
[8.2683,49.6479],
[8.2661,49.7807],
[8.1824,49.7807],
[8.1813,49.8471],
[7.7625,49.8471],
[7.4201,50.1795],
[7.3361,50.1795],
[7.1666,50.246],
[7.0728,50.6455],
[7.0712,50.7121],
[6.8992,50.8455],
[6.8923,51.1124],
[6.7197,51.246],
[6.7124,51.5134],
[6.3693,51.6472],
[6.1934,51.8481],
[6.0234,51.8481],
[5.7707,51.7811],
[5.8647,51.5134],
[5.5352,51.246],
[5.0196,51.4465],
[4.3417,51.4465],
[4.0123,51.246],
[3.5046,51.246],
[3.4097,51.4465],
[3.3249,51.4465],
[2.7394,51.3128],
[2.5778,51.1792],
[2.4933,51.1792],
[2.6008,50.7788],
[3.1067,50.7788],
[3.5482,50.3791],
[3.9686,50.3791],
[4.1428,50.246],
[4.1548,49.98],
[4.4902,49.98],
[4.7362,50.113],
[4.8309,49.8471],
[5.2546,49.7143],
[5.3432,49.5816],
[5.9284,49.5816],
[6.2669,49.4489],
[6.1955,49.0513],
[6.0331,48.9189],
[5.8796,48.522],
[4.9165,47.6641],
[4.7514,47.6641],
[4.5117,47.4665],
[4.182,47.4665],
[3.7578,47.73],
[3.1335,48.6542],
[2.8773,48.7865],
[2.8704,48.9189],
[2.6098,49.1175],
[2.1931,49.1175],
[2.1251,48.8527],
[2.0419,48.8527]
]
],
[
[
[10.0207,50.7788],
[10.0215,50.5122],
[10.1898,50.5122],
[10.4424,50.246],
[11.2824,50.246],
[11.4517,50.4457],
[11.5379,50.7121],
[11.7907,50.7121],
[11.792,50.8455],
[11.2854,50.7788],
[11.2862,50.9122],
[10.7799,50.9122],
[10.695,50.6455],
[10.5265,50.7121],
[10.4423,50.9122],
[10.0207,50.7788]
]
],
[
[
[10.6119,51.4465],
[10.8659,51.3797],
[10.8656,51.3128],
[11.0349,51.3128],
[11.0359,51.5134],
[10.6119,51.4465]
]
]
]}
}
