{
"type": "Feature",
"properties": {"id":"cliopatria-safavid-dynasty-1579","edge_precision":"unknown","cliopatria_name":"Safavid Dynasty","cliopatria_from_year":1579,"cliopatria_to_year":1587,"cliopatria_area_km2":2581730,"cliopatria_wikidata":"Q161205","cliopatria_wikipedia":"Safavid dynasty","cliopatria_seshat_id":"ir_safavid_emp"},
"geometry": {"type": "MultiPolygon", "coordinates": [
[
[
[44.0313,40.5496],
[44.2916,40.2259],
[44.2362,39.9023],
[44.4183,39.5789],
[44.3967,39.4496],
[44.071,39.385],
[44.0499,39.2557],
[44.1286,39.2557],
[44.1652,38.9972],
[44.3119,38.9326],
[44.308,38.416],
[44.4545,38.3515],
[44.306,37.8998],
[44.5889,37.7062],
[44.6276,37.4483],
[44.7738,37.3838],
[44.8521,36.8682],
[45.0567,36.6749],
[45.0964,36.4172],
[45.3785,36.224],
[45.3502,36.0308],
[45.4959,35.9664],
[45.5855,35.5158],
[45.8764,35.3871],
[45.8893,34.9366],
[45.7168,34.8079],
[45.6898,34.615],
[45.5356,34.615],
[45.5002,34.3577],
[45.6453,34.2933],
[45.439,33.9075],
[45.5928,33.9075],
[46.1378,33.3931],
[46.2312,32.943],
[46.6821,32.8788],
[46.9456,32.5574],
[47.3194,32.4931],
[47.5994,32.3002],
[47.5824,32.1717],
[47.9813,31.7218],
[47.7957,31.4647],
[47.739,31.0148],
[48.1031,30.8863],
[48.0478,30.4364],
[48.2755,30.4364],
[48.4117,30.3079],
[48.3884,30.1151],
[48.6005,29.9865],
[48.6763,29.9865],
[48.9873,30.0508],
[48.9428,30.3079],
[49.5859,29.9865],
[50.0648,30.1794],
[50.2363,29.7294],
[50.6513,29.4081],
[50.6203,29.1509],
[50.915,29.0867],
[50.809,28.8295],
[51.0281,28.7652],
[51.0662,28.4438],
[51.3313,28.1224],
[51.3168,27.9938],
[51.5967,27.8009],
[52.0486,27.8009],
[52.4787,27.6081],
[52.737,27.2223],
[53.4606,26.9652],
[53.6581,26.708],
[54.2589,26.708],
[54.4632,26.5151],
[54.8316,26.4508],
[55.2423,26.7723],
[55.6179,26.7723],
[55.7149,26.9652],
[56.0981,27.0295],
[56.1884,27.158],
[56.7147,27.158],
[57.0524,26.8366],
[57.1148,26.0651],
[57.3795,25.7436],
[57.6792,25.7436],
[57.7402,25.615],
[57.958,25.5507],
[58.7817,25.5507],
[59.0602,25.3579],
[60.6321,25.3579],
[60.6178,25.2293],
[60.9171,25.2293],
[61.1274,25.1007],
[61.6582,25.165],
[61.7187,25.0364],
[62.0179,25.0364],
[62.182,25.165],
[62.4739,25.1007],
[62.5634,25.2293],
[63.5362,25.2293],
[63.6262,25.3579],
[64.225,25.3579],
[64.2845,25.2293],
[64.8006,25.165],
[64.8161,25.2936],
[66.0215,25.3579],
[66.2621,25.4864],
[66.2283,25.8079],
[66.5478,26.5151],
[66.4244,26.708],
[66.4607,26.9652],
[66.3856,26.9652],
[66.6638,28.3153],
[66.5883,28.3153],
[66.6711,28.8295],
[66.5956,28.8295],
[66.7033,29.4723],
[66.6276,29.4723],
[66.6944,29.858],
[66.4026,29.9223],
[66.4139,29.9865],
[66.2205,30.1794],
[65.9285,30.2436],
[65.9689,30.8863],
[65.8929,30.8863],
[66.0246,31.9789],
[65.9483,31.9789],
[66.0504,32.4931],
[65.974,32.4931],
[66.182,33.1359],
[66.1053,33.1359],
[66.2272,33.7146],
[66.1504,33.7146],
[66.2895,34.3577],
[66.2125,34.3577],
[66.3845,35.1297],
[66.3073,35.1297],
[66.3279,36.224],
[66.3578,36.6749],
[66.2178,36.7393],
[66.1719,37.1904],
[65.9077,37.3838],
[65.9396,37.5128],
[65.6274,37.5128],
[65.2388,37.8352],
[64.6615,38.0288],
[64.3669,38.416],
[64.0075,38.5451],
[63.8374,38.8034],
[63.4155,38.9972],
[63.2457,39.2557],
[63.0883,39.2557],
[62.6538,39.7083],
[62.6876,39.8376],
[62.3161,40.2259],
[62.4027,40.5496],
[62.2969,40.744],
[62.4472,41.0032],
[62.3679,41.0032],
[62.3783,41.3274],
[60.8424,40.9384],
[60.1283,40.9384],
[60.0036,41.068],
[57.8295,41.2625],
[57.8131,41.1977],
[57.0337,40.6144],
[56.891,40.6792],
[56.3906,39.9023],
[56.3608,39.7729],
[56.5185,39.7729],
[56.4742,39.5789],
[56.2874,39.4496],
[56.08,38.868],
[56.4444,38.7389],
[56.3747,38.416],
[56.0067,38.1578],
[55.5372,38.1578],
[53.8826,37.7062],
[53.9105,37.4483],
[54.0947,37.1904],
[54.0333,36.8682],
[53.0877,36.8037],
[52.586,36.6105],
[51.2647,36.6105],
[50.532,36.8682],
[50.6323,36.9971],
[50.5657,37.0615],
[50.3209,36.9971],
[49.8541,37.4483],
[49.0851,37.5128],
[48.8285,37.8352],
[48.801,38.9972],
[48.9155,39.1911],
[49.1514,39.1911],
[49.2666,39.385],
[49.5092,40.2259],
[49.6933,40.3554],
[50.2604,40.4201],
[50.0495,40.5496],
[49.5084,40.6144],
[49.2442,40.8736],
[49.2707,41.0032],
[49.0592,41.1328],
[49.086,41.2625],
[48.2787,41.9764],
[48.1192,41.9764],
[48.0923,41.8465],
[48.172,41.8465],
[47.9863,41.3274],
[47.4963,41.2625],
[47.2964,41.4571],
[47.2168,41.4571],
[47.1116,41.3274],
[46.7809,41.2625],
[46.4802,40.9384],
[45.992,40.8736],
[45.6032,40.4849],
[44.7555,40.6144],
[44.6202,40.744],
[44.2917,40.6792],
[44.2354,40.8088],
[44.0768,40.8088],
[44.0313,40.5496]
]
]
]}
}
