{
"type": "Feature",
"properties": {"id":"cliopatria-danishmendids-1177","edge_precision":"unknown","cliopatria_name":"Danishmendids","cliopatria_from_year":1177,"cliopatria_to_year":1187,"cliopatria_area_km2":41685,"cliopatria_wikidata":"Q846670","cliopatria_wikipedia":"Danishmendids"},
"geometry": {"type": "MultiPolygon", "coordinates": [
[
[
[35.0329,38.1578],
[35.068,37.7707],
[35.2314,37.8352],
[35.6031,38.3515],
[37.2242,38.1578],
[37.3807,38.1578],
[37.5695,38.416],
[38.283,38.4806],
[38.423,38.3515],
[38.5013,38.3515],
[38.7448,38.416],
[38.6135,38.6097],
[38.6565,38.9326],
[39.0669,39.0618],
[39.2177,39.5789],
[38.851,39.7729],
[38.3687,39.7083],
[37.4415,39.2557],
[36.9861,39.385],
[36.3564,39.385],
[35.7974,39.3203],
[35.3805,39.1265],
[35.0357,38.868],
[35.0621,38.416],
[35.1405,38.416],
[35.0329,38.1578]
]
]
]}
}
