{
"type": "Feature",
"properties": {"id":"cliopatria-republic-of-costa-rica-1905","edge_precision":"unknown","cliopatria_name":"Republic of Costa Rica","cliopatria_from_year":1905,"cliopatria_to_year":1999,"cliopatria_area_km2":56087,"cliopatria_wikidata":"Q800","cliopatria_wikipedia":"Costa Rica","cliopatria_seshat_id":"cr_costa_rica_rep"},
"geometry": {"type": "MultiPolygon", "coordinates": [
[
[
[-85.8857,10.4431],
[-85.7793,9.9931],
[-85.4777,9.8645],
[-85.2406,9.6074],
[-84.9482,9.6074],
[-84.8288,9.9931],
[-84.5742,9.4788],
[-84.2819,9.4788],
[-84.1231,9.2859],
[-83.6725,9.0931],
[-83.5876,8.9002],
[-83.7259,8.7716],
[-83.7072,8.4502],
[-83.2618,8.3216],
[-83.2764,8.5788],
[-83.2034,8.5788],
[-83.1158,8.3216],
[-83.0428,8.3216],
[-82.8309,8.4502],
[-82.788,8.9645],
[-82.8892,9.4145],
[-82.6095,9.6074],
[-82.6137,9.6717],
[-83.2341,10.186],
[-83.4916,10.7003],
[-83.5647,10.7003],
[-83.5746,10.8288],
[-83.9305,10.7003],
[-84.4679,11.0217],
[-85.1213,10.9574],
[-85.3565,11.1503],
[-85.7171,11.086],
[-85.7119,11.0217],
[-85.853,10.9574],
[-85.8376,10.7645],
[-85.6812,10.636],
[-85.8857,10.4431]
]
]
]}
}
