{
"type": "Feature",
"properties": {"id":"cliopatria-jesuit-reducciones-1629","edge_precision":"unknown","cliopatria_name":"Jesuit Reducciones","cliopatria_from_year":1629,"cliopatria_to_year":1639,"cliopatria_area_km2":261321,"cliopatria_wikidata":"Q465960","cliopatria_wikipedia":"Jesuit missions among the Guaraní"},
"geometry": {"type": "MultiPolygon", "coordinates": [
[
[
[-58.4302,-26.8438],
[-58.3144,-27.0367],
[-58.3609,-27.2939],
[-58.2857,-27.2939],
[-56.9784,-27.5511],
[-56.4516,-27.5511],
[-56.2027,-27.4225],
[-56.2258,-27.5511],
[-56.0349,-27.7439],
[-56.0941,-28.0654],
[-56.7324,-28.6439],
[-56.8713,-28.9654],
[-56.6703,-29.0939],
[-56.3679,-29.0939],
[-55.9519,-28.9011],
[-55.5511,-28.3868],
[-54.1814,-28.3225],
[-53.4448,-28.0011],
[-53.3466,-27.8725],
[-53.3882,-27.6796],
[-54.1297,-27.6153],
[-54.3107,-27.3582],
[-53.9017,-27.1653],
[-53.7641,-26.3295],
[-53.8392,-26.3295],
[-53.8289,-26.2652],
[-53.9539,-25.6223],
[-54.0288,-25.6223],
[-54.019,-25.558],
[-54.1398,-25.3651],
[-54.0646,-24.8508],
[-52.9116,-23.5007],
[-52.9034,-23.4364],
[-52.6635,-23.3078],
[-52.3099,-22.8578],
[-52.338,-22.4721],
[-52.6719,-22.1507],
[-53.2669,-22.1507],
[-53.7363,-22.3435],
[-54.4031,-22.9221],
[-55.2142,-22.8578],
[-55.2723,-22.7292],
[-55.7028,-22.6007],
[-56.538,-22.7292],
[-56.7531,-22.665],
[-56.8524,-22.8578],
[-57.4566,-22.9221],
[-57.9553,-23.3078],
[-57.9044,-24.015],
[-57.7735,-24.1436],
[-57.8392,-24.5936],
[-57.7644,-24.5936],
[-57.5026,-24.3365],
[-57.1292,-24.3365],
[-56.9984,-24.465],
[-57.3385,-25.2365],
[-57.8694,-25.7509],
[-58.0938,-26.2009],
[-58.2547,-26.2652],
[-58.4302,-26.8438]
]
]
]}
}
