{
"type": "Feature",
"properties": {"id":"cliopatria-pyu-city-states-0084","edge_precision":"unknown","cliopatria_name":"Pyu City-States","cliopatria_from_year":84,"cliopatria_to_year":849,"cliopatria_area_km2":116187,"cliopatria_wikidata":"Q1627675","cliopatria_wikipedia":"Pyu city-states"},
"geometry": {"type": "MultiPolygon", "coordinates": [
[
[
[94.4107,20.8577],
[94.6516,20.472],
[94.6144,20.2148],
[94.8363,19.7005],
[94.725,19.4434],
[94.8912,19.0577],
[94.8541,18.8005],
[95.085,18.3505],
[95.6761,18.3505],
[95.6947,18.4791],
[95.8425,18.4791],
[96.1944,18.8648],
[96.418,19.3791],
[96.4009,19.7648],
[96.5776,19.9577],
[96.4769,20.2791],
[96.7088,20.3434],
[96.6176,20.7291],
[96.7851,20.8577],
[96.7493,21.1148],
[96.8235,21.1148],
[96.8913,21.5648],
[96.817,21.5648],
[96.9502,21.9505],
[96.8312,22.1434],
[96.8412,22.2077],
[96.8579,22.7863],
[96.7834,22.7863],
[96.8669,23.3006],
[96.5913,23.8792],
[96.1656,24.0077],
[95.2905,23.6863],
[94.6648,22.0791],
[94.7199,21.9505],
[94.552,21.822],
[94.4107,20.8577]
]
],
[
[
[96.6549,23.8149],
[96.7295,23.8149],
[96.7405,23.8792],
[96.6659,23.8792],
[96.6549,23.8149]
]
],
[
[
[96.7185,23.7506],
[96.7931,23.7506],
[96.8041,23.8149],
[96.7295,23.8149],
[96.7185,23.7506]
]
]
]}
}
