{
"type": "Feature",
"properties": {"id":"cliopatria-grand-duchy-of-berg-1809","edge_precision":"unknown","cliopatria_name":"Grand Duchy of Berg","cliopatria_from_year":1809,"cliopatria_to_year":1810,"cliopatria_area_km2":20537,"cliopatria_wikidata":"Q249428","cliopatria_wikipedia":"Grand Duchy of Berg"},
"geometry": {"type": "MultiPolygon", "coordinates": [
[
[
[6.4483,51.8481],
[6.7919,51.7142],
[6.882,51.5134],
[7.2195,51.5803],
[7.2132,51.8481],
[7.3802,51.9822],
[7.3773,52.1163],
[7.5462,52.1833],
[7.542,52.3847],
[6.9497,52.1833],
[6.7793,52.1833],
[6.7811,52.1163],
[6.696,52.1163],
[6.7015,51.9151],
[6.5333,51.8481],
[6.4483,51.8481]
]
],
[
[
[6.936,52.7208],
[7.1088,52.6535],
[7.6177,52.8554],
[7.615,52.99],
[7.5293,52.99],
[7.5278,53.0574],
[7.5264,53.1248],
[7.3548,53.1248],
[7.3517,53.2596],
[7.2658,53.2596],
[7.2642,53.3271],
[7.1783,53.3271],
[7.1799,53.2596],
[7.1038,52.8554],
[6.936,52.7208]
]
],
[
[
[8.1735,50.3125],
[8.2596,50.1795],
[8.1757,50.1795],
[8.1768,50.113],
[8.2607,50.113],
[8.2629,49.98],
[8.6001,49.8471],
[8.5982,49.98],
[8.4296,50.0465],
[8.7642,50.113],
[9.3522,50.0465],
[10.0215,50.5122],
[10.1898,50.5122],
[10.4424,50.246],
[11.2824,50.246],
[11.4517,50.4457],
[11.4531,50.6455],
[11.5373,50.6455],
[11.5379,50.7121],
[11.7907,50.7121],
[11.792,50.8455],
[11.2854,50.7788],
[11.2862,50.9122],
[10.7799,50.9122],
[10.7795,50.7788],
[10.6952,50.7788],
[10.6948,50.5122],
[10.5265,50.5122],
[10.4423,50.7121],
[10.5265,50.7121],
[10.5266,50.8455],
[10.4423,50.8455],
[10.4423,50.9122],
[10.105,50.7788],
[9.7674,50.8455],
[9.3461,50.7788],
[9.263,50.6455],
[8.926,50.6455],
[8.76,50.4457],
[8.2564,50.3791],
[8.1735,50.3125]
]
],
[
[
[10.1923,49.5816],
[10.1927,49.4489],
[10.5268,49.5152],
[10.694,49.6479],
[10.6103,49.7143],
[10.5266,49.7143],
[10.1923,49.5816]
]
],
[
[
[10.6118,51.3797],
[10.8659,51.3797],
[10.8656,51.3128],
[11.0349,51.3128],
[11.0359,51.5134],
[10.6968,51.5134],
[10.6118,51.3797]
]
],
[
[
[11.3642,49.8471],
[11.6997,49.9136],
[11.8697,50.1795],
[12.1216,50.1795],
[12.1223,50.246],
[12.0383,50.246],
[12.0391,50.3125],
[11.955,50.3125],
[11.9557,50.3791],
[11.8716,50.3791],
[11.8723,50.4457],
[11.7882,50.4457],
[11.7876,50.3791],
[11.6194,50.3791],
[11.6189,50.3125],
[11.7013,50.113],
[11.4495,50.113],
[11.3642,49.8471]
]
]
]}
}
