{
"type": "Feature",
"properties": {"id":"cliopatria-wu-551bce","edge_precision":"unknown","cliopatria_name":"Wu","cliopatria_from_year":-550,"cliopatria_to_year":-481,"cliopatria_area_km2":193430,"cliopatria_wikidata":"Q274488","cliopatria_wikipedia":"Wu (state)","cliopatria_seshat_id":"cn_wu_confederacy","cliopatria_member_of":"(Spring and Autumn States)"},
"geometry": {"type": "MultiPolygon", "coordinates": [
[
[
[116.0966,30.3079],
[116.27,29.9223],
[116.7364,29.7294],
[117.1908,29.7294],
[117.5269,29.6009],
[117.9054,29.6009],
[117.8842,29.5366],
[117.9599,29.5366],
[117.9811,29.6009],
[118.3597,29.6009],
[119.2257,29.9223],
[119.7784,29.9865],
[120.2424,29.7937],
[121.3124,29.6009],
[121.42,29.4723],
[121.8203,29.5366],
[122.0298,29.9223],
[121.6202,30.0508],
[121.4841,30.3079],
[121.1047,30.3079],
[120.8088,30.1151],
[120.6798,30.1794],
[121.0453,30.565],
[121.1972,30.565],
[121.5192,30.822],
[121.8993,30.822],
[121.9953,31.0791],
[121.7366,31.4005],
[121.5843,31.4005],
[121.6335,31.529],
[121.0467,31.7861],
[120.8942,31.7861],
[120.9191,31.8503],
[120.9954,31.8503],
[121.5806,31.7861],
[121.6831,31.6575],
[121.8356,31.6575],
[121.987,31.8503],
[121.7832,32.1074],
[121.5033,32.1717],
[121.4026,32.4931],
[120.9192,32.6216],
[120.9263,33.2002],
[120.5505,33.5859],
[120.4894,34.1647],
[120.314,34.2933],
[120.3418,34.3577],
[119.9847,34.422],
[119.7323,34.5506],
[119.7113,34.6793],
[119.3047,34.8079],
[119.2276,34.8079],
[118.4284,34.7436],
[118.435,34.9366],
[118.2807,34.9366],
[118.1199,34.7436],
[117.9657,34.7436],
[117.6741,34.422],
[117.6198,34.2933],
[117.2311,34.1004],
[117.7392,33.8432],
[117.7629,33.7146],
[118.0436,33.6502],
[118.118,33.4574],
[118.449,33.3288],
[118.5746,33.0716],
[118.9058,32.943],
[118.3194,32.4288],
[117.1096,31.6575],
[117.0208,31.2076],
[116.8374,30.6935],
[116.1186,30.3722],
[116.0966,30.3079]
]
]
]}
}
