{
"type": "Feature",
"properties": {"id":"cliopatria-hyksos-1601bce","edge_precision":"unknown","cliopatria_name":"Hyksos","cliopatria_from_year":-1600,"cliopatria_to_year":-1501,"cliopatria_area_km2":134167,"cliopatria_wikidata":"Q192319","cliopatria_wikipedia":"Hyksos"},
"geometry": {"type": "MultiPolygon", "coordinates": [
[
[
[30.6264,29.366],
[30.8835,29.2329],
[31.4598,29.2321],
[31.4306,29.4251],
[31.6178,30.4454],
[32.8604,30.5064],
[32.8453,30.0762],
[32.5767,29.92],
[32.7414,29.4547],
[33.1726,28.9951],
[33.2428,28.5544],
[33.7633,28.0219],
[34.2544,27.7286],
[34.4419,27.9969],
[34.4092,28.3187],
[34.7614,29.3347],
[34.9038,29.4867],
[34.4901,30.689],
[34.7174,30.996],
[35.066,30.9843],
[35.3792,30.7065],
[35.6848,30.6341],
[36.2275,30.8757],
[36.9243,33.9681],
[36.3512,34.5007],
[36.3596,34.5249],
[36.4593,34.6304],
[36.1799,34.7809],
[36.1132,35.2655],
[35.9257,35.3163],
[35.875,34.9121],
[35.9836,34.5275],
[35.6489,34.2811],
[35.6344,34.0128],
[35.4753,33.9018],
[35.0732,32.8728],
[34.9532,32.8234],
[34.7083,31.9476],
[34.2097,31.3165],
[33.7439,31.1333],
[33.1436,31.0583],
[33.1156,31.1925],
[32.7118,31.0335],
[32.3806,31.2164],
[32.3219,31.0237],
[31.8507,30.6583],
[31.4988,30.5996],
[31.4104,30.4412],
[30.931,30.2896],
[30.8062,29.6776],
[30.6264,29.366]
]
]
]}
}
