{
"type": "Feature",
"properties": {"id":"cliopatria-kastamonu-1333","edge_precision":"unknown","cliopatria_name":"Kastamonu","cliopatria_from_year":1333,"cliopatria_to_year":1343,"cliopatria_area_km2":33647,"cliopatria_wikidata":"Q155915","cliopatria_wikipedia":"Kastamonu"},
"geometry": {"type": "MultiPolygon", "coordinates": [
[
[
[32.2992,41.1328],
[32.3787,41.1328],
[32.5941,40.9384],
[32.9115,40.9384],
[32.8962,40.8088],
[33.7684,40.8088],
[33.7448,40.6144],
[34.7118,40.744],
[35.7508,40.8088],
[36.1648,40.9384],
[36.2442,40.9384],
[36.4118,41.0032],
[36.4733,40.8736],
[36.632,40.8736],
[36.7565,41.1977],
[36.9154,41.1977],
[36.9246,41.2625],
[36.2092,41.2625],
[35.9538,41.7167],
[35.157,41.7167],
[35.1212,42.0413],
[34.8817,42.0413],
[34.7845,41.9114],
[33.1891,41.9114],
[33.6266,41.5869],
[32.2992,41.1328]
]
]
]}
}
