{
"type": "Feature",
"properties": {"id":"cliopatria-chola-empire-1111","edge_precision":"unknown","cliopatria_name":"Chola Empire","cliopatria_from_year":1111,"cliopatria_to_year":1125,"cliopatria_area_km2":341628,"cliopatria_wikidata":"Q6806806","cliopatria_wikipedia":"Chola Empire","cliopatria_seshat_id":"in_chola_emp"},
"geometry": {"type": "MultiPolygon", "coordinates": [
[
[
[75.2178,11.9915],
[75.3385,11.9217],
[75.5849,11.2788],
[75.7268,11.2146],
[75.9021,10.5717],
[76.2338,10.0574],
[76.2214,9.8645],
[76.3635,9.8002],
[76.3553,9.6717],
[76.2092,9.6717],
[76.1971,9.4788],
[76.7236,8.5145],
[77.2819,8.0645],
[77.8733,8.193],
[78.1803,8.4502],
[78.2842,8.9645],
[78.5883,9.1574],
[78.9577,9.2216],
[78.9865,9.6717],
[79.2959,9.9288],
[79.3176,10.2502],
[79.9026,10.2502],
[79.8844,11.986],
[80.303,12.6289],
[80.4316,13.2718],
[80.3078,13.5289],
[80.161,13.5289],
[80.2816,14.0432],
[80.2082,14.0432],
[80.2158,14.8789],
[80.0882,15.0718],
[80.2016,15.4575],
[80.6106,15.8433],
[81.1188,15.779],
[81.3227,16.2933],
[82.2211,16.4219],
[82.3832,16.5504],
[82.4205,16.8719],
[82.3468,16.8719],
[82.4508,17.129],
[83.153,17.4505],
[83.324,17.6433],
[83.1023,17.4868],
[82.8051,18.0317],
[82.4233,18.2862],
[81.5328,18.0933],
[81.1329,17.8362],
[81.0591,17.8362],
[80.0395,17.3219],
[79.6633,17.2576],
[79.3319,16.9362],
[78.7066,16.6147],
[78.5173,16.229],
[78.37,16.229],
[78.3839,16.3576],
[78.1629,16.3576],
[77.7741,16.1647],
[77.2054,15.6504],
[77.0931,15.2647],
[76.9313,15.1361],
[76.922,14.543],
[77.058,14.311],
[78.128,14.179],
[78.185,13.599],
[77.733,12.265],
[77.48,11.857],
[77.047,11.609],
[76.608,11.654],
[75.619,12.057],
[75.2178,11.9915]
]
]
]}
}
