{
"type": "Feature",
"properties": {"id":"cliopatria-county-of-berga-0936","edge_precision":"unknown","cliopatria_name":"County of Berga","cliopatria_from_year":936,"cliopatria_to_year":959,"cliopatria_area_km2":4096,"cliopatria_wikidata":"Q15487","cliopatria_wikipedia":"Berga"},
"geometry": {"type": "MultiPolygon", "coordinates": [
[
[
[1.3651,41.8465],
[1.3684,41.7816],
[1.6872,41.7816],
[2.2274,42.1712],
[2.861,42.3012],
[2.8554,42.4312],
[2.2954,42.4312],
[2.0492,42.5612],
[1.8923,42.4962],
[1.8123,42.4962],
[1.7481,42.1712],
[1.3651,41.8465]
]
]
]}
}
