{
"type": "Feature",
"properties": {"id":"cliopatria-sur-empire-1588","edge_precision":"unknown","cliopatria_name":"Sur Empire","cliopatria_from_year":1588,"cliopatria_to_year":1594,"cliopatria_area_km2":38836,"cliopatria_wikidata":"Q373650","cliopatria_wikipedia":"Sur Empire"},
"geometry": {"type": "MultiPolygon", "coordinates": [
[
[
[83.9766,18.7362],
[84.3877,18.4791],
[84.9212,19.1862],
[85.4149,19.5719],
[85.374,19.8291],
[85.5221,19.8291],
[85.4972,19.6362],
[86.1063,19.7648],
[86.1147,19.8291],
[86.4194,19.8934],
[86.4362,20.022],
[86.8404,20.2791],
[86.7915,20.472],
[87.0309,20.6005],
[86.9589,21.1791],
[86.8847,21.1791],
[86.8932,21.2434],
[86.7533,21.3077],
[85.9686,20.9862],
[85.5233,20.9862],
[85.3256,21.1791],
[85.2514,21.1791],
[84.6087,19.6362],
[84.1074,19.1862],
[83.9766,18.7362]
]
]
]}
}
