{
"type": "Feature",
"properties": {"id":"cliopatria-crown-of-castile-1415","edge_precision":"unknown","cliopatria_name":"Crown of Castile","cliopatria_from_year":1415,"cliopatria_to_year":1439,"cliopatria_area_km2":360273,"cliopatria_wikidata":"Q217196","cliopatria_wikipedia":"Crown of Castile","cliopatria_seshat_id":"es_castile_crown"},
"geometry": {"type": "MultiPolygon", "coordinates": [
[
[
[-18.0575,27.6724],
[-17.9018,27.6081],
[-17.8469,27.8652],
[-17.9976,27.8652],
[-17.9924,27.8009],
[-18.0575,27.6724]
]
],
[
[
[-14.3203,28.0581],
[-13.8062,28.251],
[-13.763,28.701],
[-13.7677,28.7652],
[-14.065,28.701],
[-14.1171,28.3795],
[-14.2633,28.3153],
[-14.3203,28.0581]
]
],
[
[
[-13.8621,29.0224],
[-13.8479,28.8295],
[-13.4749,28.8938],
[-13.4228,29.2152],
[-13.6497,29.2152],
[-13.8621,29.0224]
]
],
[
[
[-9.3046,43.1467],
[-9.0787,42.5612],
[-8.6574,42.3662],
[-8.9561,42.1712],
[-8.9281,41.9114],
[-8.47,42.1063],
[-8.1505,42.1063],
[-8.1371,41.9764],
[-8.2169,41.9764],
[-8.1172,41.7816],
[-6.7008,41.9764],
[-6.3516,41.6518],
[-6.2719,41.6518],
[-6.2542,41.4571],
[-6.9277,41.0032],
[-6.8684,40.3554],
[-7.0149,40.2259],
[-7.0032,40.0964],
[-6.8395,40.0317],
[-6.8955,39.7729],
[-7.4358,39.6436],
[-7.4184,39.4496],
[-7.2552,39.385],
[-6.9854,38.9972],
[-7.1203,38.7389],
[-7.2717,38.6743],
[-7.2442,38.3515],
[-6.9984,38.2224],
[-6.9877,38.0933],
[-7.1442,38.0933],
[-7.2791,37.8352],
[-7.5027,37.7062],
[-7.3874,37.2549],
[-6.8418,37.2549],
[-6.588,36.9971],
[-6.4323,36.9971],
[-6.0638,36.224],
[-5.8311,36.224],
[-5.6623,36.0308],
[-5.5117,36.0952],
[-5.5162,36.1596],
[-5.6074,36.3528],
[-5.8496,36.4816],
[-5.8636,36.6749],
[-5.6444,36.8682],
[-5.3424,36.9971],
[-4.7974,36.9971],
[-4.6595,37.2549],
[-3.6505,37.3193],
[-3.5155,37.6417],
[-3.2032,37.6417],
[-3.1949,37.5128],
[-2.9609,37.5128],
[-2.8289,37.8998],
[-2.1216,37.8352],
[-1.939,37.3838],
[-1.7794,37.3193],
[-1.6235,37.3193],
[-1.7087,37.4483],
[-1.4038,37.5773],
[-0.7048,37.6417],
[-0.8035,38.0288],
[-0.6609,38.2869],
[-0.4328,38.416],
[-0.4362,38.4806],
[-1.0962,39.0618],
[-1.1149,39.385],
[-1.3549,39.4496],
[-1.3704,39.7083],
[-1.1454,39.9023],
[-1.157,40.0964],
[-1.7265,40.3554],
[-1.5136,40.744],
[-2.0989,41.1977],
[-2.1165,41.4571],
[-1.8822,41.522],
[-1.9795,41.7816],
[-1.82,41.7816],
[-1.8288,41.9114],
[-1.7756,42.3012],
[-2.0199,42.3662],
[-2.2031,42.6912],
[-1.8391,43.2118],
[-1.8531,43.4072],
[-3.2959,43.3421],
[-3.4672,43.4723],
[-4.9904,43.4072],
[-5.6461,43.5375],
[-7.1757,43.5375],
[-7.3435,43.6027],
[-7.2765,43.733],
[-8.2436,43.733],
[-8.3904,43.6027],
[-8.369,43.4072],
[-8.8517,43.4072],
[-9.3046,43.1467]
]
]
]}
}
