{
"type": "Feature",
"properties": {"id":"cliopatria-elam-901bce","edge_precision":"unknown","cliopatria_name":"Elam","cliopatria_from_year":-900,"cliopatria_to_year":-801,"cliopatria_area_km2":46092,"cliopatria_wikidata":"Q128904","cliopatria_wikipedia":"Elam","cliopatria_seshat_id":"ir_elam_8"},
"geometry": {"type": "MultiPolygon", "coordinates": [
[
[
[47.8632,32.5574],
[48.1516,32.4288],
[48.2528,31.4647],
[49.2867,30.6292],
[49.2705,30.5007],
[49.1186,30.5007],
[49.1106,30.4364],
[49.0187,30.3079],
[49.5859,29.9865],
[49.9131,30.1794],
[50.1407,30.1794],
[50.477,30.4364],
[50.3585,30.6935],
[50.0714,30.822],
[50.0048,31.4647],
[50.1659,31.529],
[50.2864,31.8503],
[50.0171,32.1074],
[50.0352,32.236],
[49.9588,32.236],
[49.7169,32.6859],
[49.2488,32.6216],
[49.2761,32.8145],
[49.0464,32.8145],
[48.9881,32.943],
[48.6818,32.943],
[48.5467,33.0716],
[48.087,33.0716],
[47.872,32.6216],
[47.8632,32.5574]
]
]
]}
}
