{
"type": "Feature",
"properties": {"id":"cliopatria-afsharid-iran-1734","edge_precision":"unknown","cliopatria_name":"Afsharid Iran","cliopatria_from_year":1734,"cliopatria_to_year":1737,"cliopatria_area_km2":1594932,"cliopatria_wikidata":"Q63149558","cliopatria_wikipedia":"Afsharid Iran"},
"geometry": {"type": "MultiPolygon", "coordinates": [
[
[
[44.7836,37.4483],
[44.8521,36.8682],
[45.0567,36.6749],
[45.0964,36.4172],
[45.3785,36.224],
[45.3502,36.0308],
[45.787,35.8377],
[46.2518,35.8377],
[46.0591,35.5802],
[46.1484,35.1297],
[45.8121,34.9366],
[45.6898,34.615],
[45.5356,34.615],
[45.5002,34.3577],
[45.6453,34.2933],
[45.439,33.9075],
[45.5928,33.9075],
[46.1378,33.3931],
[46.2312,32.943],
[46.6821,32.8788],
[46.9456,32.5574],
[47.3194,32.4931],
[47.5994,32.3002],
[47.5824,32.1717],
[47.9813,31.7218],
[47.7957,31.4647],
[47.739,31.0148],
[48.1031,30.8863],
[48.0478,30.4364],
[48.2755,30.4364],
[48.4117,30.3079],
[48.3884,30.1151],
[48.6005,29.9865],
[48.6763,29.9865],
[48.9873,30.0508],
[48.9428,30.3079],
[49.5859,29.9865],
[50.0648,30.1794],
[50.2363,29.7294],
[50.6513,29.4081],
[50.6203,29.1509],
[50.915,29.0867],
[50.809,28.8295],
[51.0281,28.7652],
[51.0662,28.4438],
[51.3313,28.1224],
[51.3168,27.9938],
[51.5967,27.8009],
[52.0486,27.8009],
[52.4787,27.6081],
[52.737,27.2223],
[53.4606,26.9652],
[53.6581,26.708],
[54.2589,26.708],
[54.4632,26.5151],
[54.8316,26.4508],
[55.2423,26.7723],
[55.5427,26.7723],
[55.3102,26.708],
[55.2889,26.5151],
[55.439,26.5151],
[55.6034,26.6437],
[56.0612,26.708],
[56.3086,26.9009],
[56.3236,27.0295],
[56.0981,27.0295],
[56.1884,27.158],
[56.7147,27.158],
[57.0524,26.8366],
[57.1148,26.0651],
[57.3795,25.7436],
[57.6792,25.7436],
[57.7402,25.615],
[57.958,25.5507],
[58.7817,25.5507],
[59.0602,25.3579],
[59.3596,25.3579],
[59.3666,25.4221],
[59.1027,25.7436],
[59.1172,25.8722],
[58.9745,25.9365],
[59.1691,26.3222],
[59.0342,26.4508],
[59.0965,26.9652],
[58.9541,27.0295],
[58.9356,27.4795],
[59.4954,28.8295],
[59.7593,29.0867],
[59.7601,29.6009],
[59.9311,29.7294],
[59.9608,29.9223],
[60.1527,30.1794],
[60.9319,30.3079],
[61.2452,31.2719],
[61.4197,31.4005],
[62.1997,32.7502],
[62.607,32.8788],
[63.014,33.3931],
[64.1835,34.229],
[65.5195,34.3577],
[65.7015,34.4863],
[66.1819,35.2584],
[66.2112,35.3871],
[66.3658,35.3871],
[66.3449,35.9664],
[66.2674,35.9664],
[66.3279,36.224],
[66.3578,36.6749],
[66.2178,36.7393],
[66.1719,37.1904],
[65.9077,37.3838],
[65.9396,37.5128],
[65.6274,37.5128],
[65.6116,37.4483],
[65.4863,37.2549],
[64.9407,37.2549],
[64.7539,37.126],
[64.6025,36.4816],
[64.2183,36.1596],
[63.4629,35.902],
[63.0755,35.902],
[63.0473,35.7733],
[63.1741,35.6445],
[62.8865,35.3871],
[62.1133,35.3871],
[61.3165,35.6445],
[61.2485,36.4172],
[61.1709,36.4172],
[61.2269,36.6749],
[60.23,36.7393],
[60.2578,36.8682],
[60.0023,37.126],
[59.4849,37.2549],
[59.1791,37.6417],
[58.3342,37.7062],
[57.8429,37.9643],
[57.452,37.9643],
[57.2085,38.2869],
[56.8953,38.2869],
[56.7804,38.4806],
[56.4808,38.5451],
[56.0067,38.1578],
[55.5372,38.1578],
[55.1063,37.9643],
[55.0931,37.8998],
[55.7826,37.4483],
[55.7567,37.3193],
[55.8347,37.3193],
[55.6926,36.9971],
[54.2837,36.546],
[53.0139,35.9664],
[52.0839,35.9664],
[51.2643,36.1596],
[50.9431,36.0952],
[50.6546,36.224],
[50.1986,36.7393],
[49.9435,36.6105],
[49.4772,36.6105],
[49.1877,36.7393],
[49.0083,37.0615],
[48.7854,37.126],
[48.762,37.4483],
[48.4938,37.7062],
[48.6389,38.0933],
[48.5607,38.0933],
[48.5506,38.4806],
[48.4723,38.4806],
[48.5184,38.7389],
[48.44,38.7389],
[48.4985,39.0618],
[48.7943,39.385],
[48.9409,40.5496],
[48.7552,40.8088],
[48.5966,40.8088],
[48.1986,41.1977],
[48.1585,41.3922],
[47.9994,41.3922],
[47.9863,41.3274],
[47.4963,41.2625],
[47.2964,41.4571],
[47.2168,41.4571],
[47.1116,41.3274],
[46.7809,41.2625],
[46.4802,40.9384],
[45.992,40.8736],
[45.6032,40.4849],
[45.8844,40.2906],
[46.3708,40.3554],
[46.3352,40.1612],
[46.6039,39.9023],
[46.6361,39.6436],
[46.861,39.5789],
[46.6684,38.9326],
[46.4216,38.868],
[46.1993,38.4806],
[45.8539,38.2869],
[45.6349,37.8998],
[45.312,37.8352],
[45.0275,37.5128],
[44.7836,37.4483]
]
]
]}
}
