{
"type": "Feature",
"properties": {"id":"cliopatria-kingdom-of-dali-1056","edge_precision":"unknown","cliopatria_name":"Kingdom of Dali","cliopatria_from_year":1056,"cliopatria_to_year":1249,"cliopatria_area_km2":359754,"cliopatria_wikidata":"Q26472","cliopatria_wikipedia":"Dali Kingdom","cliopatria_seshat_id":"cn_dali_k"},
"geometry": {"type": "MultiPolygon", "coordinates": [
[
[
[98.4723,27.9295],
[98.5919,27.8009],
[98.4859,27.6724],
[98.6813,27.5438],
[98.6816,27.2223],
[98.7568,27.2223],
[98.6835,26.9009],
[98.7587,26.9009],
[98.7014,26.6437],
[98.7765,26.6437],
[98.6249,25.9365],
[98.898,25.8079],
[98.8715,25.6793],
[99.0442,25.4221],
[99.0059,25.2293],
[99.0807,25.2293],
[98.9616,24.2006],
[98.6692,23.8149],
[98.8072,23.7506],
[98.8265,23.4291],
[99.0704,23.1077],
[99.5704,22.9791],
[99.4001,22.8506],
[99.211,22.1434],
[100.0085,22.0148],
[99.9677,21.7577],
[100.1703,21.6291],
[100.2142,21.4363],
[100.6599,21.4363],
[101.0824,21.7577],
[101.6666,21.6934],
[101.8689,21.5648],
[101.6547,22.0791],
[101.7182,22.4648],
[102.2284,22.4005],
[102.5802,22.722],
[102.7291,22.722],
[102.9832,22.4648],
[103.1321,22.4648],
[103.3247,22.722],
[103.4516,22.5934],
[103.526,22.5934],
[103.7713,22.722],
[103.8871,22.5291],
[104.036,22.5291],
[104.1547,22.7863],
[104.5158,22.722],
[104.8361,22.8506],
[104.9561,23.1077],
[105.2143,23.3006],
[105.5008,23.2363],
[105.5359,23.4291],
[105.7087,23.5577],
[106.0816,23.5577],
[106.2791,23.8149],
[106.2913,23.8792],
[106.1044,24.072],
[105.8558,23.9435],
[105.5073,24.072],
[105.4827,23.9435],
[105.3335,23.9435],
[105.1964,24.0077],
[105.1588,24.2006],
[104.7108,24.2006],
[104.5863,24.3292],
[104.7242,24.6506],
[104.8995,24.7792],
[104.864,24.9721],
[105.0269,25.0364],
[105.0536,25.165],
[104.8426,25.2293],
[104.8086,25.4221],
[104.5367,25.5507],
[104.7394,26.1294],
[104.9482,26.3865],
[104.9782,26.5151],
[104.8582,26.6437],
[104.4229,26.708],
[104.3176,26.5794],
[104.1074,26.6437],
[104.0775,26.5151],
[103.5373,26.4508],
[103.4622,26.4508],
[103.2829,26.3222],
[102.9078,26.3222],
[102.6397,26.1294],
[102.1898,26.1294],
[102.1405,26.5794],
[101.6591,26.7723],
[101.6889,26.9009],
[101.6137,26.9009],
[101.6958,27.8652],
[101.6205,27.8652],
[101.4243,28.5724],
[101.3488,28.5724],
[101.173,28.7652],
[100.6613,28.8295],
[100.6199,28.9581],
[100.2081,28.8295],
[99.9229,28.8938],
[99.7382,28.7652],
[99.4361,28.7652],
[99.0518,28.4438],
[98.9172,28.5081],
[98.8848,28.3795],
[98.5351,28.1867],
[98.4723,27.9295]
]
]
]}
}
