{
"type": "Feature",
"properties": {"id":"cliopatria-buyid-dynasty-0990","edge_precision":"unknown","cliopatria_name":"Buyid Dynasty","cliopatria_from_year":990,"cliopatria_to_year":999,"cliopatria_area_km2":1133689,"cliopatria_wikidata":"Q12536","cliopatria_wikipedia":"Buyid dynasty","cliopatria_seshat_id":"ir_buyid_confederation"},
"geometry": {"type": "MultiPolygon", "coordinates": [
[
[
[42.3636,33.2645],
[42.4299,31.8503],
[42.5061,31.8503],
[42.4705,31.529],
[42.5467,31.529],
[42.685,30.6935],
[42.6782,30.6292],
[43.2306,30.822],
[43.8387,30.822],
[44.2804,30.6935],
[44.5155,30.7578],
[45.0944,30.5007],
[45.5068,30.1151],
[45.6584,30.1151],
[45.8574,29.858],
[46.3594,29.6009],
[46.5653,29.4081],
[46.5514,29.2795],
[46.7097,29.3438],
[46.6957,29.2152],
[46.847,29.2152],
[46.7575,29.0867],
[46.9843,29.0867],
[47.2521,28.7652],
[47.4031,28.7652],
[47.6778,28.5081],
[48.4324,28.5081],
[48.4604,28.7652],
[48.1937,29.0867],
[48.2154,29.2795],
[48.0786,29.4081],
[47.8517,29.4081],
[47.8662,29.5366],
[48.4035,29.6009],
[48.3654,29.9223],
[48.9037,29.9865],
[48.9873,30.0508],
[48.9428,30.3079],
[49.5859,29.9865],
[50.0648,30.1794],
[50.2363,29.7294],
[50.6513,29.4081],
[50.6203,29.1509],
[50.915,29.0867],
[50.809,28.8295],
[51.0281,28.7652],
[51.0662,28.4438],
[51.4532,27.8652],
[52.0486,27.8009],
[52.4787,27.6081],
[52.737,27.2223],
[53.4606,26.9652],
[53.6581,26.708],
[54.2589,26.708],
[54.6815,26.4508],
[54.9886,26.5151],
[55.2423,26.7723],
[55.5427,26.7723],
[55.3102,26.708],
[55.2889,26.5151],
[56.0612,26.708],
[56.3086,26.9009],
[56.3236,27.0295],
[56.0981,27.0295],
[56.1884,27.158],
[56.7147,27.158],
[57.0524,26.8366],
[57.0612,26.258],
[57.1362,26.258],
[57.7884,26.708],
[57.9386,26.708],
[58.4518,27.2223],
[58.8375,28.4438],
[58.913,28.4438],
[58.8707,29.2152],
[58.5869,29.858],
[58.445,29.9223],
[58.4644,30.0508],
[58.2564,30.1794],
[58.1441,30.4364],
[57.8503,30.5007],
[57.7942,30.6292],
[57.5002,30.6935],
[57.1601,30.9506],
[56.2772,31.1434],
[56.1951,31.5933],
[56.1189,31.5933],
[56.1144,32.0431],
[55.9618,32.0431],
[55.1911,32.943],
[54.9719,33.0073],
[54.8276,33.5217],
[54.6849,33.5859],
[54.7065,33.7146],
[54.5638,33.7789],
[54.5306,34.0361],
[54.4537,34.0361],
[54.4978,34.2933],
[54.366,34.422],
[54.3673,34.8723],
[54.2469,35.0653],
[54.8276,36.546],
[54.6311,36.7393],
[54.6558,36.8682],
[54.07,37.0615],
[54.0333,36.8682],
[53.4887,36.8682],
[52.7531,36.6749],
[52.6753,36.6749],
[52.1859,36.546],
[51.2647,36.6105],
[50.532,36.8682],
[50.6323,36.9971],
[50.5657,37.0615],
[50.3209,36.9971],
[49.9988,37.3838],
[49.5421,37.4483],
[49.4641,37.4483],
[49.1531,36.9971],
[48.8525,37.0615],
[48.7963,37.1904],
[48.3853,37.0615],
[48.2616,37.2549],
[48.0844,37.126],
[47.6275,37.1904],
[47.1966,36.9326],
[47.2808,36.4816],
[47.1054,36.3528],
[46.8725,36.3528],
[46.8147,36.4816],
[46.2612,36.4172],
[45.844,36.224],
[45.6208,36.2884],
[45.3502,36.0308],
[45.1177,36.0308],
[44.8984,35.5802],
[44.4073,35.3871],
[44.1741,34.8079],
[43.9256,34.6793],
[43.8146,34.422],
[43.6606,34.422],
[43.3965,34.1647],
[43.2426,34.1647],
[42.8946,33.8432],
[42.5715,33.7146],
[42.3636,33.2645]
]
],
[
[
[55.7246,25.6793],
[55.9295,25.4864],
[56.0152,24.8435],
[56.2271,24.7149],
[56.2713,24.3935],
[56.4894,24.3292],
[56.5402,24.072],
[56.8211,23.8792],
[56.8095,23.7506],
[57.8303,23.4934],
[57.9736,23.4291],
[57.962,23.3006],
[58.3347,23.3006],
[58.6096,23.0434],
[58.9076,23.0434],
[58.8961,22.9148],
[59.2684,22.9148],
[59.2801,23.0434],
[59.0682,23.172],
[59.08,23.3006],
[58.8115,23.622],
[57.4927,23.8792],
[57.0627,24.072],
[56.7256,24.4578],
[56.7317,24.5221],
[56.5449,24.9078],
[56.4016,24.9721],
[56.4957,25.165],
[56.4208,25.165],
[56.3988,25.6793],
[56.5433,26.3222],
[56.3253,26.3865],
[56.1682,26.3222],
[55.9696,25.8722],
[55.7246,25.6793]
]
]
]}
}
