{
"type": "Feature",
"properties": {"id":"cliopatria-taifa-of-zaragoza-1046","edge_precision":"unknown","cliopatria_name":"Taifa of Zaragoza","cliopatria_from_year":1046,"cliopatria_to_year":1065,"cliopatria_area_km2":36530,"cliopatria_wikidata":"Q33061","cliopatria_wikipedia":"Taifa of Zaragoza","cliopatria_seshat_id":"es_taifas","cliopatria_member_of":"(Taifas of Iberia)"},
"geometry": {"type": "MultiPolygon", "coordinates": [
[
[
[-3.286,41.1328],
[-2.6323,40.8736],
[-1.9227,40.9384],
[-1.5136,40.744],
[-0.8991,41.068],
[-0.5021,41.068],
[-0.4113,40.8736],
[0.1546,40.6792],
[0.1439,40.8736],
[0.3749,41.0032],
[0.4403,41.2625],
[0.6719,41.3922],
[0.665,41.522],
[0.8936,41.7167],
[0.9732,41.7167],
[0.9698,41.7816],
[0.6475,41.8465],
[0.6404,41.9764],
[0.5606,41.9764],
[0.5571,42.0413],
[0.3974,42.0413],
[0.401,41.9764],
[0.1617,41.9764],
[0.0744,42.1063],
[-0.6524,42.2362],
[-0.7486,42.4962],
[-1.3802,42.3662],
[-1.7845,42.4312],
[-1.7667,42.1712],
[-1.9175,42.0413],
[-1.8377,42.0413],
[-1.82,41.7816],
[-2.1299,41.6518],
[-2.121,41.522],
[-2.3462,41.3274],
[-3.2161,41.2625],
[-3.286,41.1328]
]
]
]}
}
