{
"type": "Feature",
"properties": {"id":"cliopatria-kingdom-of-northumbria-0656","edge_precision":"unknown","cliopatria_name":"Kingdom of Northumbria","cliopatria_from_year":656,"cliopatria_to_year":660,"cliopatria_area_km2":85388,"cliopatria_wikidata":"Q107299","cliopatria_wikipedia":"Northumbria","cliopatria_seshat_id":"gb_anglo_saxon_1","cliopatria_member_of":"(Anglo-Saxon England)"},
"geometry": {"type": "MultiPolygon", "coordinates": [
[
[
[-3.7918,56.0451],
[-3.7837,55.9766],
[-3.2742,55.3618],
[-3.1868,55.3618],
[-3.0616,55.0211],
[-3.4026,54.9531],
[-3.395,54.8851],
[-3.6484,54.8171],
[-3.7042,54.5453],
[-3.6174,54.5453],
[-3.5868,54.2739],
[-3.3194,54.2061],
[-3.3045,54.0706],
[-2.9658,54.1384],
[-3.196,53.8676],
[-3.0952,53.7323],
[-3.1597,53.5296],
[-3.1525,53.4621],
[-2.8873,53.3946],
[-2.8454,52.99],
[-2.7323,52.7208],
[-2.8179,52.7208],
[-2.9273,52.1163],
[-2.9138,51.9822],
[-2.8287,51.9822],
[-2.822,51.9151],
[-2.5539,51.7811],
[-2.7041,51.5803],
[-2.3458,51.3797],
[-2.1104,51.5803],
[-2.1229,51.7142],
[-1.3647,51.7811],
[-1.2622,51.5803],
[-0.8437,51.6472],
[-0.7477,51.5134],
[-0.5782,51.5134],
[-0.6963,51.9151],
[-0.4303,51.7811],
[-0.4412,51.9151],
[0.3241,51.9151],
[0.2081,52.3176],
[0.1229,52.3176],
[0.0912,52.7208],
[0.2518,52.8554],
[0.1662,52.8554],
[0.0698,52.99],
[0.3165,53.1248],
[0.2953,53.3946],
[0.0208,53.5971],
[0.0043,53.7999],
[-0.1796,53.9352],
[-0.2024,54.2061],
[-0.6714,54.6132],
[-1.286,54.6811],
[-1.4992,55.0892],
[-1.5058,55.1573],
[-1.6336,55.5665],
[-2.019,55.9082],
[-2.6563,56.1136],
[-3.7918,56.0451]
]
]
]}
}
