{
"type": "Feature",
"properties": {"id":"cliopatria-sultanate-of-aceh-1516","edge_precision":"unknown","cliopatria_name":"Sultanate of Aceh","cliopatria_from_year":1516,"cliopatria_to_year":1525,"cliopatria_area_km2":8991,"cliopatria_wikidata":"Q1061057","cliopatria_wikipedia":"Aceh Sultanate"},
"geometry": {"type": "MultiPolygon", "coordinates": [
[
[
[95.0655,5.1715],
[95.3404,4.8501],
[95.3339,4.7215],
[95.8946,4.2715],
[95.8977,4.3358],
[95.8375,4.5929],
[96.0724,4.9144],
[96.1453,4.9144],
[95.652,5.2358],
[95.6693,5.5572],
[95.7422,5.5572],
[95.7457,5.6215],
[95.239,5.6858],
[95.0861,5.5572],
[95.0655,5.1715]
]
]
]}
}
