{
"type": "Feature",
"properties": {"id":"cliopatria-macedonian-empire-351bce","edge_precision":"unknown","cliopatria_name":"Macedonian Empire","cliopatria_from_year":-350,"cliopatria_to_year":-338,"cliopatria_area_km2":57049,"cliopatria_wikidata":"Q83958","cliopatria_wikipedia":"Macedonia (ancient kingdom)","cliopatria_member_of":"(Macedonian Empire)"},
"geometry": {"type": "MultiPolygon", "coordinates": [
[
[
[20.2784,40.6144],
[20.3576,40.6144],
[20.3478,40.4201],
[20.5027,40.3554],
[20.4929,40.1612],
[20.8056,40.0964],
[20.9434,39.7083],
[21.0978,39.6436],
[21.0944,39.5789],
[21.3926,39.2557],
[21.7107,39.3203],
[22.0078,38.9972],
[22.1685,39.0618],
[22.5505,38.868],
[23.0216,38.868],
[22.9583,39.1265],
[22.7973,39.0618],
[22.8163,39.385],
[23.1352,39.4496],
[22.6109,39.9023],
[22.7017,40.0964],
[22.5437,40.0964],
[22.5716,40.5496],
[22.8133,40.6144],
[23.5262,40.6144],
[23.535,40.744],
[23.6935,40.744],
[23.698,40.8088],
[24.0106,40.744],
[24.3466,41.0032],
[24.4259,41.0032],
[24.7632,41.2625],
[24.7731,41.3922],
[24.5493,41.5869],
[23.5846,41.4571],
[23.505,41.4571],
[22.9436,41.3922],
[21.838,41.522],
[21.83,41.3922],
[21.5119,41.3922],
[21.2808,41.522],
[21.1068,41.2625],
[20.5469,41.1977],
[20.5399,41.068],
[20.3777,41.0032],
[20.4469,40.8088],
[20.285,40.744],
[20.2784,40.6144]
]
]
]}
}
