{
"type": "Feature",
"properties": {"id":"cliopatria-ptolemaic-kingdom-165bce","edge_precision":"unknown","cliopatria_name":"Ptolemaic Kingdom","cliopatria_from_year":-164,"cliopatria_to_year":-127,"cliopatria_area_km2":679404,"cliopatria_wikidata":"Q2320005","cliopatria_wikipedia":"Ptolemaic Kingdom","cliopatria_seshat_id":"eg_ptolemaic_k_2"},
"geometry": {"type": "MultiPolygon", "coordinates": [
[
[
[18.812,30.0508],
[19.5719,30.1151],
[19.6514,30.2436],
[19.9567,30.3079],
[20.5822,30.8863],
[21.9507,30.8863],
[22.8527,30.6292],
[22.8476,30.5007],
[23.2273,30.5007],
[23.6669,30.1151],
[24.2627,29.858],
[24.4061,29.6652],
[24.8549,29.5366],
[24.9224,29.3438],
[25.225,29.3438],
[25.8829,28.8295],
[26.8471,28.4438],
[27.285,28.1224],
[27.2763,27.9295],
[27.4299,27.9938],
[27.792,27.6724],
[27.7109,27.5438],
[27.9367,27.5438],
[28.1537,27.3509],
[28.2702,26.5794],
[28.3453,26.5794],
[28.2437,25.9365],
[28.2886,25.165],
[28.5688,24.6506],
[29.6728,24.2006],
[29.9595,23.8792],
[30.1087,23.8792],
[30.104,23.7506],
[30.3952,23.5577],
[30.4627,23.3649],
[30.5372,23.3649],
[31.6705,23.7506],
[32.0409,23.6863],
[33.389,23.8149],
[33.6818,23.6863],
[33.7564,23.6863],
[35.108,23.8792],
[35.5526,23.8149],
[35.5588,23.9435],
[35.8541,23.8792],
[35.8604,24.0077],
[35.1455,24.6506],
[34.6076,25.8079],
[34.4613,25.8722],
[34.1972,26.5151],
[34.0507,26.5794],
[34.0731,26.9652],
[33.9266,27.0295],
[33.7992,27.4152],
[33.5851,27.6081],
[33.6089,27.9938],
[33.1053,28.3795],
[32.8361,28.8938],
[32.6892,28.9581],
[32.6387,29.3438],
[32.4287,29.6009],
[32.5261,29.9223],
[32.6019,29.9223],
[33.1506,30.1794],
[34.3029,30.3722],
[34.5455,30.565],
[34.2972,31.2719],
[34.2211,31.2719],
[33.7493,31.0791],
[32.8317,31.0148],
[32.7652,31.1434],
[32.5322,31.0791],
[32.3894,31.2076],
[32.2372,31.2076],
[32.3039,31.0791],
[31.9996,31.0791],
[31.9374,31.2719],
[31.7806,31.2076],
[31.8752,31.4647],
[31.2658,31.4647],
[31.118,31.529],
[31.2033,31.6575],
[30.9746,31.6575],
[30.9656,31.529],
[30.8088,31.4647],
[30.3517,31.4647],
[30.2712,31.4005],
[30.3388,31.2719],
[29.882,31.2719],
[29.8018,31.2076],
[29.8696,31.0791],
[29.6332,30.9506],
[29.4851,31.0148],
[29.3971,30.822],
[28.865,30.822],
[28.4964,31.0148],
[27.5149,31.1434],
[27.2975,31.3362],
[26.8477,31.4647],
[25.248,31.4647],
[25.102,31.5933],
[25.1117,31.7861],
[24.8925,31.9789],
[23.9797,32.0431],
[23.9034,32.0431],
[23.1486,32.236],
[23.2308,32.3645],
[23.0808,32.4288],
[23.0894,32.6216],
[22.1085,32.943],
[21.5698,32.8788],
[21.4117,32.7502],
[21.108,32.8145],
[20.8712,32.6216],
[20.6441,32.6859],
[20.7159,32.5574],
[20.563,32.5574],
[20.482,32.4288],
[20.3313,32.4931],
[20.2461,32.236],
[20.017,32.236],
[20.0891,32.1074],
[19.9961,31.5933],
[20.2143,31.2719],
[20.1221,30.7578],
[19.5014,30.3079],
[18.8944,30.3079],
[18.812,30.0508]
]
],
[
[
[32.229,34.9366],
[32.3667,34.7436],
[33.0436,34.5506],
[33.1321,34.6793],
[33.5234,34.7436],
[33.6954,34.9366],
[34.0873,35.001],
[33.9571,35.2584],
[34.5294,35.5802],
[34.5421,35.7089],
[34.3098,35.7089],
[33.7374,35.3871],
[32.8869,35.3871],
[32.8752,35.2584],
[32.5547,35.1297],
[32.2458,35.1297],
[32.229,34.9366]
]
]
]}
}
