{
"type": "Feature",
"properties": {"id":"cliopatria-republic-of-india-1983","edge_precision":"unknown","cliopatria_name":"Republic of India","cliopatria_from_year":1983,"cliopatria_to_year":1986,"cliopatria_area_km2":3180006,"cliopatria_wikidata":"Q668","cliopatria_wikipedia":"India"},
"geometry": {"type": "MultiPolygon", "coordinates": [
[
[
[63.7517,29.4723],
[63.8274,29.4723],
[63.8379,29.5366],
[63.7622,29.5366],
[63.7517,29.4723]
]
],
[
[
[66.251,29.9223],
[66.3268,29.9223],
[66.3381,29.9865],
[66.2623,29.9865],
[66.251,29.9223]
]
],
[
[
[68.1265,23.5577],
[68.3502,23.5577],
[68.3359,23.4291],
[68.5525,23.3649],
[68.8083,22.9791],
[69.2342,22.7863],
[69.7484,22.722],
[70.0674,22.9148],
[70.4326,22.8506],
[70.2837,22.8506],
[70.2766,22.7863],
[70.3697,22.7863],
[70.1811,22.5934],
[69.4974,22.4648],
[69.4093,22.3363],
[68.9765,22.4648],
[68.9495,22.2077],
[69.3487,21.7577],
[69.4974,21.7577],
[69.9032,21.372],
[69.8899,21.2434],
[70.2955,20.8577],
[70.7206,20.6648],
[71.3208,20.7291],
[71.4085,20.8577],
[72.1848,21.1791],
[72.3214,21.7577],
[72.1728,21.7577],
[72.1125,21.8863],
[72.3425,21.9505],
[72.378,22.272],
[72.5267,22.272],
[72.5444,21.7577],
[72.7603,21.6934],
[72.5629,21.2434],
[72.8994,20.922],
[72.8373,20.3434],
[72.6339,19.8291],
[72.7614,19.6362],
[72.7337,19.3791],
[72.8748,19.3148],
[72.9589,18.0291],
[73.2534,17.3219],
[73.2542,16.6147],
[73.3279,16.6147],
[73.4171,16.0361],
[73.5391,15.779],
[73.7474,15.6504],
[73.9745,14.9432],
[74.3745,14.4932],
[74.4707,13.9146],
[74.6636,13.5932],
[74.7477,12.8217],
[75.0647,12.1789],
[75.3385,11.9217],
[75.5849,11.2788],
[75.7268,11.2146],
[75.9021,10.5717],
[76.2338,10.0574],
[76.2214,9.8645],
[76.3635,9.8002],
[76.3553,9.6717],
[76.2092,9.6717],
[76.1971,9.4788],
[76.3353,9.3502],
[76.3235,9.1574],
[76.531,8.9645],
[76.5888,8.7073],
[76.7311,8.6431],
[76.7236,8.5145],
[77.2819,8.0645],
[77.8733,8.193],
[78.1803,8.4502],
[78.2842,8.9645],
[78.5883,9.1574],
[78.9577,9.2216],
[78.9865,9.6717],
[79.2959,9.9288],
[79.3176,10.2502],
[79.9026,10.2502],
[79.8844,11.986],
[80.303,12.6289],
[80.4316,13.2718],
[80.3078,13.5289],
[80.161,13.5289],
[80.246,13.6575],
[80.2637,14.6218],
[80.0882,15.0718],
[80.376,15.7147],
[80.6106,15.8433],
[81.1188,15.779],
[81.3227,16.2933],
[82.0665,16.3576],
[82.3832,16.5504],
[82.4205,16.8719],
[82.3468,16.8719],
[82.4508,17.129],
[83.153,17.4505],
[83.5612,17.7719],
[83.6667,18.0291],
[84.0519,18.1576],
[84.3796,18.4148],
[84.7487,18.9934],
[85.4149,19.5719],
[85.374,19.8291],
[85.5221,19.8291],
[85.4972,19.6362],
[85.6453,19.6362],
[86.4194,19.8934],
[86.4362,20.022],
[86.8404,20.2791],
[86.7915,20.472],
[87.0309,20.6005],
[86.9589,21.1791],
[86.8847,21.1791],
[87.0675,21.4363],
[87.762,21.6291],
[88.1033,21.9505],
[88.1777,21.9505],
[88.1335,21.6291],
[88.3477,21.5648],
[88.3653,21.6934],
[88.5139,21.6934],
[88.6416,22.0791],
[88.716,22.0791],
[88.728,21.6291],
[89.1083,21.6934],
[89.1173,21.7577],
[88.9475,23.172],
[88.808,23.2363],
[88.8369,23.4291],
[88.6327,23.5577],
[88.8072,24.2006],
[88.112,24.5221],
[88.1648,24.8435],
[88.5933,25.165],
[88.8926,25.165],
[88.9898,25.2936],
[88.1829,25.8079],
[88.254,26.1937],
[88.4161,26.258],
[88.4025,26.5794],
[88.5526,26.5794],
[88.7283,26.3222],
[89.1158,26.3865],
[89.2047,26.0651],
[89.3426,26.0008],
[89.8167,26.1294],
[89.9183,25.8722],
[89.8994,25.3579],
[90.101,25.2293],
[92.1846,25.165],
[92.4493,24.9721],
[92.0285,24.2649],
[91.3889,24.0077],
[91.2225,23.4291],
[91.297,23.4291],
[91.2672,23.2363],
[91.4163,23.2363],
[91.6005,22.9791],
[91.7495,22.9791],
[91.9035,23.4934],
[92.0833,23.6863],
[92.2324,23.6863],
[92.3611,23.5577],
[92.4198,22.9791],
[92.4943,22.9791],
[92.4649,22.7863],
[92.6302,22.4005],
[92.5922,22.1434],
[92.7314,22.0791],
[93.0194,22.0148],
[93.1871,22.1434],
[93.1747,23.0434],
[93.4182,23.172],
[93.4796,23.5577],
[93.405,23.5577],
[93.4041,24.0077],
[93.8519,24.0077],
[94.1289,23.8792],
[94.3656,24.3935],
[94.7443,24.8435],
[94.7144,25.4864],
[94.8765,25.5507],
[95.1899,26.0008],
[95.079,26.1937],
[95.1589,26.5794],
[95.5753,26.7723],
[96.2145,27.2866],
[96.8914,27.2866],
[96.9376,27.158],
[97.1631,27.158],
[97.1317,27.3509],
[96.9355,27.4795],
[96.9952,27.7367],
[97.3422,27.9295],
[97.4199,28.251],
[96.8638,28.4438],
[96.3954,28.3795],
[96.3673,28.5724],
[96.6419,28.7652],
[96.6151,28.9581],
[96.2536,29.0224],
[96.3196,29.2795],
[96.2017,29.4081],
[95.899,29.4081],
[95.4385,29.0867],
[94.58,29.2795],
[93.9231,28.7652],
[93.3636,28.6367],
[93.0612,28.3153],
[92.7298,28.1867],
[92.5813,27.8652],
[91.7243,27.7367],
[91.6682,27.4795],
[92.0919,27.3509],
[92.0719,26.9009],
[91.8199,26.7723],
[90.6933,26.7723],
[90.5692,26.9009],
[90.3438,26.9009],
[90.0045,26.708],
[89.7041,26.708],
[89.5044,26.8366],
[89.1288,26.8366],
[88.8048,27.0938],
[88.9459,27.4152],
[88.7954,27.4152],
[88.9519,27.8009],
[88.7813,28.0581],
[88.4798,28.0581],
[88.1371,27.8652],
[88.0402,27.0295],
[88.2148,26.7723],
[88.1649,26.5151],
[87.9903,26.3865],
[87.2399,26.3865],
[87.1141,26.5151],
[86.6516,26.4508],
[86.3126,26.6437],
[85.787,26.6437],
[85.7362,26.7723],
[85.2735,26.708],
[84.9972,26.8366],
[84.8836,27.0295],
[84.7333,27.0295],
[84.7579,27.158],
[84.4318,27.4152],
[83.0776,27.4152],
[82.5377,27.7367],
[81.885,27.8652],
[81.1945,28.1867],
[80.957,28.5081],
[80.6811,28.6367],
[80.3036,28.6367],
[80.1031,28.7652],
[80.4707,29.7937],
[81.011,30.1794],
[80.8417,30.4364],
[80.2636,30.565],
[79.9724,30.9506],
[79.455,31.0148],
[79.1645,31.4005],
[78.7686,31.3362],
[78.7987,31.7861],
[78.5101,32.1717],
[78.5282,32.5574],
[78.6971,32.6216],
[78.8022,32.4288],
[79.0156,32.3645],
[79.2004,32.4931],
[79.3633,33.1359],
[79.1831,33.3288],
[79.0297,33.3288],
[78.8063,33.6502],
[78.8482,34.1004],
[79.0538,34.2933],
[78.6611,34.5506],
[78.1563,34.6793],
[78.2261,34.9366],
[78.0649,35.194],
[78.1004,35.3227],
[77.8267,35.4514],
[77.8089,35.3871],
[77.5593,35.3227],
[76.8798,34.8079],
[76.8027,34.8079],
[75.6393,34.4863],
[74.7806,34.7436],
[74.0865,34.7436],
[73.8998,34.615],
[73.8353,34.3577],
[73.9732,34.2933],
[73.9253,34.1004],
[74.2781,33.9718],
[74.0927,33.8432],
[74.03,33.5859],
[74.1679,33.5217],
[74.0754,33.1359],
[74.3824,32.8145],
[74.6734,32.7502],
[74.7661,32.4931],
[75.3476,32.3645],
[75.3028,32.1717],
[74.6333,31.9146],
[74.5735,30.9506],
[73.9469,30.5007],
[73.9441,30.1151],
[73.4507,29.9223],
[73.2874,29.4723],
[72.9878,29.0867],
[72.3885,28.701],
[71.8882,27.9938],
[71.6406,27.8652],
[70.7157,27.7367],
[70.7367,27.8652],
[70.5425,28.0581],
[70.3918,28.0581],
[69.5611,27.0938],
[69.5128,26.7723],
[70.2163,26.4508],
[70.1907,25.7436],
[70.6973,25.615],
[70.7862,25.165],
[71.1097,24.7792],
[71.0529,24.3292],
[70.5969,24.2649],
[70.6127,24.3935],
[70.4713,24.4578],
[69.9093,24.1363],
[69.5514,24.2649],
[68.8047,24.2649],
[68.7745,24.0077],
[68.1554,23.8149],
[68.1265,23.5577]
],
[
[75.5021,32.0431],
[75.517,32.1074],
[75.5933,32.1074],
[75.5784,32.0431],
[75.5021,32.0431]
]
],
[
[
[92.2867,10.5717],
[92.574,10.5074],
[92.606,10.8931],
[92.3865,10.8931],
[92.3811,10.8288],
[92.2867,10.5717]
]
],
[
[
[92.5208,11.6003],
[92.7348,11.536],
[92.8252,11.7289],
[92.8311,11.7931],
[92.7874,12.1146],
[93.0376,12.436],
[93.0626,12.6932],
[92.9286,12.8217],
[93.101,13.0789],
[93.0809,13.5932],
[92.854,13.5289],
[92.7151,12.886],
[92.7202,12.1789],
[92.5676,12.1146],
[92.5208,11.6003]
]
],
[
[
[93.2563,7.8716],
[93.4753,7.8716],
[93.4882,8.0645],
[93.2692,8.0645],
[93.2563,7.8716]
]
],
[
[
[93.5068,7.2287],
[93.6527,7.2287],
[93.6979,6.7787],
[93.9207,6.843],
[93.8595,7.0359],
[93.8716,7.2287],
[93.7257,7.2287],
[93.7379,7.4216],
[93.5149,7.3573],
[93.5068,7.2287]
]
]
]}
}
