{
"type": "Feature",
"properties": {"id":"cliopatria-magyars-0900","edge_precision":"unknown","cliopatria_name":"Magyars","cliopatria_from_year":900,"cliopatria_to_year":910,"cliopatria_area_km2":108495,"cliopatria_wikidata":"Q133032","cliopatria_wikipedia":"Hungarians"},
"geometry": {"type": "MultiPolygon", "coordinates": [
[
[
[19.497,48.5881],
[19.561,48.2578],
[19.8846,48.1257],
[20.4809,48.3899],
[21.5685,48.522],
[21.725,48.3899],
[22.3834,48.3238],
[22.9325,47.9278],
[22.9894,47.5982],
[23.1441,47.4665],
[23.1236,47.2032],
[23.2779,47.0716],
[23.3141,46.4802],
[23.4677,46.3489],
[23.5139,45.8898],
[23.5955,45.8898],
[23.4735,45.3659],
[22.8895,45.1696],
[22.861,44.7773],
[23.3328,44.5813],
[23.6821,44.908],
[24.7261,44.7773],
[26.21,45.0388],
[26.6099,44.9734],
[26.7036,45.1042],
[27.0222,45.0388],
[27.1976,45.1696],
[27.7733,45.235],
[27.8681,45.3659],
[27.7867,45.3659],
[27.5558,45.4968],
[26.1712,45.4968],
[26.1895,45.6933],
[25.9509,45.7588],
[25.9691,45.9554],
[25.8874,45.9554],
[25.9873,46.1521],
[25.754,46.2833],
[25.7083,46.6772],
[25.41,47.0058],
[25.5104,47.2032],
[25.3458,47.2032],
[25.1932,47.3348],
[25.2052,47.4665],
[24.8931,47.6641],
[24.9876,47.7959],
[24.6689,47.9278],
[24.6218,48.3238],
[24.4678,48.4559],
[24.296,48.3899],
[24.2307,48.5881],
[23.9758,48.522],
[23.91,48.7204],
[23.0174,48.9851],
[22.8509,48.9851],
[22.8617,49.1175],
[22.2001,49.1838],
[21.7198,49.4489],
[20.2998,49.4489],
[20.0365,49.25],
[19.6154,49.1838],
[19.6114,49.1175],
[19.6788,48.8527],
[19.497,48.5881]
]
]
]}
}
