{
"type": "Feature",
"properties": {"id":"cliopatria-danish-india-1757","edge_precision":"unknown","cliopatria_name":"Danish India","cliopatria_from_year":1757,"cliopatria_to_year":1799,"cliopatria_area_km2":2885,"cliopatria_wikidata":"Q912382","cliopatria_wikipedia":"Danish India"},
"geometry": {"type": "MultiPolygon", "coordinates": [
[
[
[-0.1863,5.5572],
[-0.0405,5.5572],
[-0.0391,5.7501],
[-0.112,5.7501],
[-0.1863,5.5572]
]
],
[
[
[0.1062,5.6858],
[0.252,5.6858],
[0.254,5.943],
[0.1081,5.943],
[0.1062,5.6858]
]
],
[
[
[88.3239,22.4648],
[88.4727,22.4648],
[88.491,22.5934],
[88.4166,22.5934],
[88.3239,22.4648]
]
],
[
[
[93.2563,7.8716],
[93.4753,7.8716],
[93.4882,8.0645],
[93.2692,8.0645],
[93.2563,7.8716]
]
],
[
[
[93.5068,7.2287],
[93.6527,7.2287],
[93.6979,6.7787],
[93.9207,6.843],
[93.8595,7.0359],
[93.8716,7.2287],
[93.7257,7.2287],
[93.7379,7.4216],
[93.5149,7.3573],
[93.5068,7.2287]
]
]
]}
}
