{
"type": "Feature",
"properties": {"id":"cliopatria-tabal-kingdom-751bce","edge_precision":"unknown","cliopatria_name":"Tabal Kingdom","cliopatria_from_year":-750,"cliopatria_to_year":-701,"cliopatria_area_km2":38587,"cliopatria_wikidata":"Q727710","cliopatria_wikipedia":"Tabal (state)","cliopatria_seshat_id":"tr_tabal_k"},
"geometry": {"type": "MultiPolygon", "coordinates": [
[
[
[34.5249,36.7455],
[35.3525,36.557],
[35.6036,36.6188],
[35.9734,36.9277],
[36.1564,36.8462],
[36.835,37.1591],
[37.6019,37.6259],
[38.075,38.1245],
[37.2901,38.6612],
[37.3685,38.7484],
[37.2661,38.7998],
[36.785,38.7323],
[36.5593,38.4435],
[36.3662,38.612],
[36.2322,38.5597],
[36.1848,38.3507],
[35.7538,38.1226],
[35.633,37.853],
[35.077,37.7501],
[34.5249,36.7455]
]
]
]}
}
