{
"type": "Feature",
"properties": {"id":"cliopatria-beylik-of-aydin-1422","edge_precision":"unknown","cliopatria_name":"Beylik of Aydin","cliopatria_from_year":1422,"cliopatria_to_year":1428,"cliopatria_area_km2":7589,"cliopatria_wikidata":"Q717112","cliopatria_wikipedia":"Aydinids"},
"geometry": {"type": "MultiPolygon", "coordinates": [
[
[
[27.173,37.7062],
[27.31,37.4483],
[27.2225,37.3193],
[27.4612,37.3838],
[27.5392,37.3838],
[27.7098,37.5773],
[28.2663,37.7062],
[28.2612,37.6417],
[28.4123,37.5773],
[28.4021,37.4483],
[28.631,37.3838],
[28.6361,37.4483],
[28.7141,37.4483],
[28.6778,37.9643],
[28.3755,38.0933],
[27.2753,38.0288],
[27.2704,37.9643],
[27.1922,37.9643],
[27.2511,37.7062],
[27.173,37.7062]
]
]
]}
}
