{
"type": "Feature",
"properties": {"id":"cliopatria-people-s-republic-of-bangladesh-1973","edge_precision":"unknown","cliopatria_name":"People's Republic of Bangladesh","cliopatria_from_year":1973,"cliopatria_to_year":2023,"cliopatria_area_km2":144765,"cliopatria_wikidata":"Q902","cliopatria_wikipedia":"Bangladesh"},
"geometry": {"type": "MultiPolygon", "coordinates": [
[
[
[88.112,24.5221],
[88.8072,24.2006],
[88.6327,23.5577],
[88.8369,23.4291],
[88.808,23.2363],
[88.9475,23.172],
[89.1173,21.7577],
[89.7118,21.7577],
[90.0545,22.0791],
[90.1288,22.0791],
[90.0272,21.8863],
[90.1577,21.7577],
[90.3154,21.822],
[90.4263,22.0791],
[90.6494,22.0791],
[90.631,21.9505],
[90.7797,21.9505],
[90.9378,22.5291],
[91.497,22.7863],
[91.3748,22.4648],
[91.7374,22.4005],
[91.7648,22.0791],
[91.8948,21.9505],
[91.8302,21.5005],
[92.0531,21.5005],
[92.0074,21.1791],
[92.1847,20.8577],
[92.2589,20.8577],
[92.3513,20.9862],
[92.3318,21.372],
[92.694,21.3077],
[92.7314,22.0791],
[92.5922,22.1434],
[92.6302,22.4005],
[92.4649,22.7863],
[92.4943,22.9791],
[92.4198,22.9791],
[92.3611,23.5577],
[92.2324,23.6863],
[92.0833,23.6863],
[91.9035,23.4934],
[91.7495,22.9791],
[91.6005,22.9791],
[91.4163,23.2363],
[91.2672,23.2363],
[91.297,23.4291],
[91.2225,23.4291],
[91.3889,24.0077],
[92.0285,24.2649],
[92.4493,24.9721],
[92.1846,25.165],
[90.101,25.2293],
[89.8994,25.3579],
[89.9183,25.8722],
[89.8167,26.1294],
[89.3426,26.0008],
[89.2047,26.0651],
[89.1158,26.3865],
[88.7283,26.3222],
[88.5526,26.5794],
[88.4025,26.5794],
[88.4161,26.258],
[88.254,26.1937],
[88.1829,25.8079],
[88.9898,25.2936],
[88.8926,25.165],
[88.5933,25.165],
[88.1648,24.8435],
[88.112,24.5221]
]
],
[
[
[91.0304,22.1434],
[91.2628,22.2077],
[91.2166,22.4005],
[91.0677,22.4005],
[91.0304,22.1434]
]
]
]}
}
