{
"type": "Feature",
"properties": {"id":"cliopatria-odrysian-kingdom-451bce","edge_precision":"unknown","cliopatria_name":"Odrysian Kingdom","cliopatria_from_year":-450,"cliopatria_to_year":-405,"cliopatria_area_km2":105364,"cliopatria_wikidata":"Q870517","cliopatria_wikipedia":"Odrysian kingdom"},
"geometry": {"type": "MultiPolygon", "coordinates": [
[
[
[23.152,42.1063],
[23.2888,41.7816],
[23.5892,41.522],
[23.5846,41.4571],
[23.8139,41.3274],
[23.8047,41.1977],
[24.0384,41.1328],
[24.1178,41.1328],
[24.6042,41.2625],
[26.0295,41.1977],
[26.1776,41.068],
[26.8185,41.1328],
[26.983,41.1977],
[27.0856,41.4571],
[27.6306,41.3274],
[27.8078,41.522],
[28.1262,41.522],
[27.9794,41.6518],
[28.0043,41.9114],
[27.9245,41.9114],
[27.9307,41.9764],
[27.6115,41.9764],
[27.3166,42.2362],
[27.3288,42.3662],
[27.1749,42.4312],
[27.1932,42.6262],
[27.4521,42.8213],
[27.657,43.2769],
[27.9917,43.4072],
[28.018,43.6678],
[28.3002,44.0591],
[28.4634,44.8426],
[28.6396,44.9734],
[28.5584,44.9734],
[27.7266,44.7773],
[27.7067,44.5813],
[27.8687,44.5813],
[27.8488,44.3854],
[27.9297,44.3854],
[27.7481,44.1896],
[26.3682,44.1243],
[25.5205,43.6678],
[24.8062,43.7982],
[24.0754,43.733],
[24.1406,43.5375],
[23.8941,43.4723],
[23.9544,43.2118],
[23.7084,43.1467],
[23.6937,42.9515],
[23.4339,42.6912],
[23.5845,42.5612],
[23.575,42.4312],
[23.2457,42.3012],
[23.3164,42.1712],
[23.152,42.1063]
]
],
[
[
[28.1324,41.5869],
[28.2121,41.5869],
[28.2183,41.6518],
[28.1387,41.6518],
[28.1324,41.5869]
]
]
]}
}
