{
"type": "Feature",
"properties": {"id":"cliopatria-kingdom-of-luang-phrabang-1890","edge_precision":"unknown","cliopatria_name":"Kingdom of Luang Phrabang","cliopatria_from_year":1890,"cliopatria_to_year":1894,"cliopatria_area_km2":124327,"cliopatria_wikidata":"Q190165","cliopatria_wikipedia":"Luang Prabang"},
"geometry": {"type": "MultiPolygon", "coordinates": [
[
[
[100.1289,20.4077],
[100.5439,20.2148],
[100.5186,19.5719],
[101.1849,19.5719],
[101.313,19.4434],
[101.2829,19.2505],
[101.4009,19.0577],
[101.351,18.7362],
[101.1832,18.6076],
[101.1338,18.2862],
[101.2717,18.2219],
[101.0652,17.8362],
[101.081,17.4505],
[101.312,17.5148],
[102.3258,18.3505],
[102.5541,18.8648],
[102.7121,18.9291],
[102.6787,19.1862],
[103.1226,19.1862],
[103.7601,18.5434],
[104.4459,18.6719],
[104.561,18.9291],
[104.5077,19.0577],
[104.0208,19.2505],
[103.9674,19.3791],
[104.0827,19.6362],
[104.527,19.6362],
[104.8544,19.8291],
[104.9806,20.1505],
[104.6516,20.4077],
[104.5033,20.4077],
[104.6191,20.6648],
[104.364,20.922],
[103.993,20.922],
[103.8135,20.7291],
[103.5909,20.7291],
[103.0385,20.9862],
[102.9313,21.2434],
[103.068,21.6291],
[102.7069,21.6934],
[102.4516,21.9505],
[102.4727,22.0791],
[102.207,22.272],
[102.2284,22.4005],
[101.7182,22.4648],
[101.6443,22.0148],
[101.8792,21.6291],
[101.8074,21.1791],
[101.3619,21.1791],
[101.3182,21.372],
[101.1798,21.4363],
[100.6937,21.1791],
[100.6436,20.8577],
[100.2427,20.6648],
[100.1289,20.4077]
]
]
]}
}
