{
"type": "Feature",
"properties": {"id":"cliopatria-vandals-0367","edge_precision":"unknown","cliopatria_name":"Vandals","cliopatria_from_year":367,"cliopatria_to_year":393,"cliopatria_area_km2":31904,"cliopatria_wikidata":"Q42211","cliopatria_wikipedia":"Vandals"},
"geometry": {"type": "MultiPolygon", "coordinates": [
[
[
[13.6838,48.5881],
[13.7642,48.4559],
[14.2576,48.2578],
[15.171,48.3238],
[15.4985,48.1917],
[16.0783,48.1917],
[16.6632,48.3238],
[17.0643,47.9938],
[17.7143,47.73],
[18.8739,47.7959],
[19.0322,47.6641],
[19.0253,47.5323],
[19.1868,47.4665],
[19.1729,47.2032],
[18.837,47.0716],
[18.8141,46.6115],
[19.0501,46.4145],
[18.8604,45.8898],
[18.7788,45.8898],
[18.9259,45.5623],
[19.0074,45.5623],
[18.9976,45.3659],
[19.2351,45.235],
[19.8856,45.235],
[20.0556,45.3659],
[19.9997,45.8243],
[19.9181,45.8243],
[19.7478,45.6933],
[19.3571,46.0209],
[19.4631,46.4802],
[19.3812,46.4802],
[19.3951,46.7429],
[19.313,46.7429],
[19.4056,46.9401],
[19.3269,47.0058],
[19.6667,47.2032],
[19.6814,47.4665],
[19.5202,47.5323],
[19.61,47.6641],
[19.1323,47.9938],
[19.2223,48.1257],
[17.732,48.1257],
[17.4893,48.2578],
[17.4951,48.3899],
[17.3264,48.3238],
[17.2491,48.4559],
[17.0832,48.4559],
[17.1717,48.5881],
[16.9226,48.5881],
[16.928,48.7204],
[16.4268,48.6542],
[16.3437,48.6542],
[15.6747,48.522],
[14.7669,48.7204],
[14.1005,48.6542],
[13.8553,48.8527],
[13.6889,48.8527],
[13.6838,48.5881]
]
],
[
[
[17.3293,48.3899],
[17.4122,48.3899],
[17.4151,48.4559],
[17.3321,48.4559],
[17.3293,48.3899]
]
],
[
[
[19.5772,47.0716],
[19.6594,47.0716],
[19.663,47.1374],
[19.5808,47.1374],
[19.5772,47.0716]
]
]
]}
}
