{
"type": "Feature",
"properties": {"id":"cliopatria-northern-yuan-1375","edge_precision":"unknown","cliopatria_name":"Northern Yuan","cliopatria_from_year":1375,"cliopatria_to_year":1401,"cliopatria_area_km2":3439109,"cliopatria_wikidata":"Q8959","cliopatria_wikipedia":"Northern Yuan","cliopatria_seshat_id":"mn_mongol_late"},
"geometry": {"type": "MultiPolygon", "coordinates": [
[
[
[84.5896,50.0465],
[85.0234,49.9136],
[85.1371,49.6479],
[85.3043,49.6479],
[85.2518,49.3826],
[85.5507,48.9851],
[85.4843,48.8527],
[85.6176,48.7865],
[85.5517,48.6542],
[85.6347,48.6542],
[85.5692,48.522],
[85.67,48.3899],
[85.4767,47.9938],
[85.5594,47.9938],
[85.5149,47.73],
[85.6169,47.5982],
[85.5541,47.4665],
[85.7387,47.3348],
[85.7276,47.1374],
[85.8921,47.1374],
[85.9635,46.9401],
[86.1278,46.9401],
[86.1993,46.7429],
[86.3634,46.7429],
[86.435,46.5459],
[86.5989,46.5459],
[86.7217,46.2833],
[88.4762,45.4968],
[88.4963,45.3659],
[88.923,45.235],
[88.9428,45.1042],
[89.3687,44.9734],
[89.3884,44.8426],
[89.9449,44.6466],
[89.9644,44.516],
[90.3885,44.3854],
[90.4079,44.2548],
[90.7505,44.1243],
[90.7088,43.8634],
[90.8395,43.7982],
[90.6576,43.4072],
[90.738,43.4072],
[90.3313,41.9764],
[90.4623,41.9114],
[90.4233,41.4571],
[90.5029,41.4571],
[90.4947,41.068],
[90.6502,40.8736],
[91.4775,42.0413],
[91.9233,42.4962],
[92.3333,42.6912],
[94.5029,42.3662],
[96.242,42.8213],
[96.4825,42.8213],
[96.5794,42.6912],
[97.7331,42.7563],
[97.701,42.6912],
[98.1817,42.6912],
[98.1495,42.6262],
[98.9504,42.6262],
[98.918,42.5612],
[100.7924,42.6262],
[100.7593,42.5612],
[101.5599,42.5612],
[101.5266,42.4962],
[103.7673,42.4962],
[107.591,42.7563],
[110.5131,42.8213],
[111.4697,42.9515],
[112.5347,43.5375],
[114.3003,43.9286],
[115.3073,44.3854],
[116.4408,44.516],
[118.7309,45.4313],
[121.9191,45.6933],
[123.6206,46.1521],
[124.193,46.1521],
[124.2386,46.2177],
[124.8072,46.6772],
[125.1834,47.2032],
[125.1011,47.2032],
[125.4851,47.73],
[125.4025,47.73],
[125.5486,47.9278],
[125.4659,47.9278],
[125.7964,48.5881],
[125.7133,48.5881],
[125.9864,49.0513],
[125.9031,49.0513],
[126.048,49.4489],
[125.9645,49.4489],
[126.1149,49.8471],
[126.0009,49.9136],
[126.1331,50.1795],
[126.0197,50.246],
[126.1291,50.3791],
[125.9869,50.5122],
[126.0978,50.6455],
[125.9565,50.7788],
[126.0687,50.9122],
[125.9004,51.1124],
[125.9022,51.3128],
[125.8176,51.3128],
[125.7399,51.7142],
[125.5701,51.7142],
[125.6018,51.8481],
[125.2086,51.9822],
[125.2673,52.0492],
[125.0119,52.0492],
[125.0707,52.1163],
[124.8152,52.1163],
[124.874,52.1833],
[124.3628,52.1833],
[124.4215,52.2505],
[123.5743,52.4519],
[123.6333,52.5191],
[123.4625,52.5191],
[123.5215,52.5863],
[123.0677,52.6535],
[123.1269,52.7208],
[122.9558,52.7208],
[123.0151,52.7881],
[122.7583,52.7881],
[122.8176,52.8554],
[122.475,52.8554],
[122.5343,52.9227],
[122.0794,52.99],
[122.1389,53.0574],
[121.5977,53.1248],
[121.631,53.2596],
[121.4591,53.2596],
[121.5787,53.3946],
[121.089,53.3271],
[121.1487,53.3946],
[120.8643,53.4621],
[120.9241,53.5296],
[120.3548,53.6647],
[120.4148,53.7323],
[119.9048,53.9352],
[119.9652,54.0029],
[119.195,54.2061],
[119.2555,54.2739],
[119.0823,54.2739],
[119.1429,54.3417],
[118.8829,54.3417],
[118.9435,54.4095],
[117.3625,54.6811],
[117.4837,54.8171],
[117.0752,54.7491],
[117.1356,54.8171],
[116.4127,54.8851],
[116.473,54.9531],
[114.4735,55.1573],
[114.5332,55.2255],
[113.9816,55.2936],
[114.0414,55.3618],
[112.1793,55.6348],
[112.0917,55.6348],
[112.151,55.7031],
[110.6613,55.9082],
[110.7203,55.9766],
[109.2264,55.9766],
[108.7016,55.7715],
[106.922,55.6348],
[105.8793,55.43],
[98.5401,55.0892],
[96.5608,54.8851],
[96.463,54.7491],
[94.9282,54.5453],
[91.6911,53.5971],
[91.4768,53.6647],
[91.3886,53.5296],
[89.0713,52.8554],
[88.9416,52.9227],
[88.8586,52.7881],
[87.3381,52.2505],
[87.2132,52.1833],
[87.2195,52.0492],
[86.307,51.6472],
[86.3537,51.5803],
[86.1553,51.3797],
[84.6101,50.246],
[84.6243,50.113],
[84.5896,50.0465]
]
]
]}
}
