{
"type": "Feature",
"properties": {"id":"cliopatria-county-of-barcelona-1000","edge_precision":"unknown","cliopatria_name":"County of Barcelona","cliopatria_from_year":1000,"cliopatria_to_year":1002,"cliopatria_area_km2":6143,"cliopatria_wikidata":"Q7038","cliopatria_wikipedia":"Girona"},
"geometry": {"type": "MultiPolygon", "coordinates": [
[
[
[1.4513,41.7167],
[1.7916,41.2625],
[1.8711,41.2625],
[2.1066,41.3274],
[2.3336,41.5869],
[2.5725,41.5869],
[3.1168,41.9114],
[3.0208,42.3012],
[2.861,42.3012],
[2.7866,42.1712],
[2.7067,42.1712],
[2.4786,41.9114],
[2.0828,41.8465],
[1.9233,41.8465],
[1.9264,41.7816],
[1.6872,41.7816],
[1.6904,41.7167],
[1.4513,41.7167]
]
]
]}
}
