{
"type": "Feature",
"properties": {"id":"cliopatria-state-of-kuwait-1961","edge_precision":"unknown","cliopatria_name":"State of Kuwait","cliopatria_from_year":1961,"cliopatria_to_year":1972,"cliopatria_area_km2":14137,"cliopatria_wikidata":"Q817","cliopatria_wikipedia":"Kuwait"},
"geometry": {"type": "MultiPolygon", "coordinates": [
[
[
[46.6888,29.1509],
[47.6436,28.8938],
[47.6505,28.9581],
[47.8843,29.0224],
[48.3164,28.8295],
[48.2009,29.1509],
[48.2081,29.2152],
[48.0786,29.4081],
[47.8517,29.4081],
[47.8662,29.5366],
[48.4035,29.6009],
[48.4261,29.7937],
[48.3654,29.9223],
[48.0623,29.9223],
[48.0699,29.9865],
[47.2435,30.0508],
[46.6888,29.1509]
]
]
]}
}
