{
"type": "Feature",
"properties": {"id":"cliopatria-makuria-kingdom-1507","edge_precision":"unknown","cliopatria_name":"Makuria Kingdom","cliopatria_from_year":1507,"cliopatria_to_year":1515,"cliopatria_area_km2":240898,"cliopatria_wikidata":"Q829356","cliopatria_wikipedia":"Makuria"},
"geometry": {"type": "MultiPolygon", "coordinates": [
[
[
[30.5349,23.3006],
[30.742,22.8506],
[30.7214,22.272],
[30.5615,21.9505],
[30.6358,21.9505],
[30.6879,21.3077],
[30.7621,21.3077],
[31.0283,18.4148],
[31.2946,17.6433],
[31.5062,17.3862],
[31.5038,17.3219],
[33.4269,17.4505],
[34.2467,17.6433],
[34.9249,17.9648],
[35.2941,17.9648],
[35.297,18.0291],
[35.1578,18.2219],
[34.939,18.2862],
[34.8792,18.6076],
[34.5974,18.9291],
[34.4687,19.3791],
[34.2575,19.6362],
[33.8196,21.6291],
[33.7453,21.6291],
[33.8352,22.0148],
[33.7635,22.0791],
[33.8378,22.0791],
[33.8404,22.1434],
[33.8832,23.172],
[33.8087,23.172],
[33.8225,23.4934],
[33.679,23.622],
[33.6818,23.6863],
[33.389,23.8149],
[32.0409,23.6863],
[31.6705,23.7506],
[30.5372,23.3649],
[30.5349,23.3006]
]
]
]}
}
