{
"type": "Feature",
"properties": {"id":"cliopatria-serbian-empire-1363","edge_precision":"unknown","cliopatria_name":"Serbian Empire","cliopatria_from_year":1363,"cliopatria_to_year":1374,"cliopatria_area_km2":184871,"cliopatria_wikidata":"Q1406298","cliopatria_wikipedia":"Serbian Empire","cliopatria_seshat_id":"rs_serbia_k"},
"geometry": {"type": "MultiPolygon", "coordinates": [
[
[
[18.2264,42.6912],
[18.6921,42.3662],
[18.852,42.3662],
[19.5424,41.7816],
[19.4501,41.522],
[19.6824,41.3922],
[19.676,41.2625],
[19.4314,41.1328],
[19.4985,40.8736],
[19.3368,40.8088],
[19.4893,40.6792],
[19.4863,40.6144],
[19.6417,40.5496],
[19.5504,40.2906],
[19.6295,40.2906],
[20.0094,39.967],
[19.9184,39.7083],
[20.2307,39.6436],
[20.4485,39.2557],
[20.6059,39.2557],
[20.8324,39.0618],
[21.1467,39.0618],
[21.1403,38.9326],
[20.9078,38.9972],
[20.8952,38.7389],
[21.1243,38.6097],
[21.1933,38.416],
[21.5067,38.416],
[21.5916,38.5451],
[21.9904,38.6743],
[22.1614,38.9326],
[22.9431,38.868],
[23.0216,38.868],
[22.9583,39.1265],
[22.7973,39.0618],
[22.8163,39.385],
[23.1352,39.4496],
[22.6109,39.9023],
[22.7017,40.0964],
[22.5437,40.0964],
[22.5675,40.4849],
[22.4132,40.5496],
[22.5045,40.744],
[23.143,40.8088],
[23.1301,40.6144],
[23.2093,40.6144],
[23.1966,40.4201],
[23.1175,40.4201],
[23.1133,40.3554],
[23.7374,40.2259],
[23.8386,40.5496],
[23.6846,40.6144],
[23.698,40.8088],
[24.0106,40.744],
[24.3418,40.9384],
[24.3466,41.0032],
[23.6549,41.3274],
[23.2618,41.3922],
[22.8903,41.7816],
[22.8282,42.0413],
[22.4377,42.1712],
[22.3707,42.3662],
[22.4506,42.3662],
[22.4637,42.5612],
[22.2993,42.4962],
[22.1606,42.8213],
[21.9328,43.0165],
[21.9498,43.2769],
[22.1997,43.4072],
[22.1236,43.4723],
[22.1543,43.9286],
[22.235,43.9286],
[22.3608,44.5813],
[21.9514,44.516],
[21.8791,44.6466],
[21.7981,44.6466],
[21.4055,44.8426],
[21.081,44.8426],
[20.8297,44.7119],
[20.3508,44.8426],
[19.857,44.7119],
[19.6242,44.908],
[19.2962,44.8426],
[19.1077,44.3201],
[19.4984,44.0591],
[19.4916,43.9286],
[19.1623,43.7982],
[19.0043,43.8634],
[18.8336,43.6678],
[18.6724,43.6678],
[18.2464,43.1467],
[18.2264,42.6912]
]
],
[
[
[20.0701,39.5789],
[20.1489,39.5789],
[20.1519,39.6436],
[20.0731,39.6436],
[20.0701,39.5789]
]
],
[
[
[22.3608,44.5813],
[22.4418,44.5813],
[22.4464,44.6466],
[22.3653,44.6466],
[22.3608,44.5813]
]
]
]}
}
