{
"type": "Feature",
"properties": {"id":"cliopatria-mongol-khanate-1468","edge_precision":"unknown","cliopatria_name":"Mongol Khanate","cliopatria_from_year":1468,"cliopatria_to_year":1474,"cliopatria_area_km2":3459985,"cliopatria_wikidata":"Q19927420","cliopatria_wikipedia":"Mongol khanate","cliopatria_seshat_id":"mn_mongol_late"},
"geometry": {"type": "MultiPolygon", "coordinates": [
[
[
[90.2879,42.9515],
[90.5792,42.8864],
[90.36,42.0413],
[90.4623,41.9114],
[90.3769,41.7167],
[90.4566,41.7167],
[90.4947,41.068],
[90.7021,40.8088],
[90.6475,40.6792],
[91.0143,40.4201],
[91.8305,40.2906],
[92.6947,39.7083],
[92.5901,39.2557],
[92.4856,39.1911],
[90.9487,38.6743],
[90.8752,38.4806],
[91.0374,38.2869],
[90.9414,38.0288],
[91.2847,37.8998],
[91.4479,37.7062],
[91.4008,37.5773],
[91.5334,37.5128],
[91.4634,37.3193],
[91.0046,37.126],
[90.9363,36.9326],
[91.3578,36.8037],
[91.3126,36.6749],
[91.3904,36.6749],
[91.7924,36.9326],
[92.3603,36.9971],
[92.6023,36.8037],
[93.544,36.6105],
[95.7694,35.4514],
[96.552,35.2584],
[97.4528,34.7436],
[97.6841,34.7436],
[97.7164,34.615],
[98.2881,34.4863],
[98.3205,34.3577],
[98.8473,34.1004],
[100.8563,33.9075],
[101.1956,33.7789],
[101.5255,33.8432],
[101.6933,34.1004],
[101.5313,34.2933],
[101.0695,34.2933],
[100.8534,34.5506],
[100.923,34.7436],
[101.2315,34.7436],
[101.7548,34.4863],
[102.0327,34.615],
[102.1034,34.8079],
[101.7413,34.8723],
[101.7114,35.001],
[102.0919,35.194],
[102.0869,35.3871],
[102.2372,35.5802],
[102.5713,35.6445],
[102.6175,35.9664],
[102.7975,36.0308],
[102.9235,36.3528],
[102.7926,36.6105],
[102.8441,36.7393],
[102.6106,36.9326],
[102.6889,37.126],
[102.534,37.3193],
[102.2485,37.3838],
[102.094,37.5773],
[102.0961,37.7707],
[101.7037,37.5773],
[101.5492,37.7707],
[101.2634,37.8352],
[101.2387,37.9643],
[100.8745,38.0288],
[100.4138,38.6097],
[99.998,38.7389],
[99.8962,38.868],
[100.0638,39.2557],
[100.5007,39.7083],
[100.7664,39.7729],
[100.7372,39.7083],
[101.181,39.6436],
[101.1652,39.2557],
[101.5586,39.2557],
[101.6301,39.0618],
[102.1232,38.9326],
[102.0948,38.868],
[102.3588,38.9326],
[102.5523,39.1911],
[102.9952,39.1265],
[102.9662,39.0618],
[103.1234,39.0618],
[102.8801,38.868],
[103.137,38.7389],
[102.845,38.6097],
[102.7888,38.4806],
[102.996,38.416],
[103.0185,38.2869],
[103.3039,38.2224],
[103.3267,38.0933],
[103.612,38.0288],
[103.6902,38.0288],
[103.6626,37.9643],
[103.764,37.8352],
[104.3616,37.7707],
[104.4629,37.6417],
[105.2209,37.7707],
[105.433,37.8998],
[106.1647,37.9643],
[106.5136,38.2224],
[106.6684,38.7389],
[106.5899,38.7389],
[106.9212,39.4496],
[107.3292,39.6436],
[107.4416,39.385],
[107.647,39.3203],
[107.2858,38.5451],
[107.4426,38.5451],
[107.5113,38.3515],
[107.9029,38.3515],
[107.9718,38.1578],
[108.745,37.9643],
[108.8434,37.8352],
[109.4195,37.8998],
[109.5269,37.9643],
[109.5964,38.2869],
[109.7829,38.3515],
[109.825,38.6097],
[109.7466,38.6097],
[109.9614,39.0618],
[110.2911,39.2557],
[110.4179,39.5143],
[111.1591,39.5789],
[111.447,39.8376],
[111.6509,39.7729],
[111.9077,39.967],
[112.6752,41.2625],
[113.7663,42.6262],
[114.6672,43.6027],
[115.3887,44.1243],
[116.1973,44.3854],
[116.4818,44.5813],
[117.254,44.7773],
[118.7309,45.4313],
[121.9191,45.6933],
[123.6206,46.1521],
[124.193,46.1521],
[124.2386,46.2177],
[124.8072,46.6772],
[125.1834,47.2032],
[125.1011,47.2032],
[125.4851,47.73],
[125.4025,47.73],
[125.5486,47.9278],
[125.4659,47.9278],
[125.7964,48.5881],
[125.7133,48.5881],
[125.9864,49.0513],
[125.9031,49.0513],
[126.048,49.4489],
[125.9645,49.4489],
[126.1149,49.8471],
[126.0009,49.9136],
[126.1331,50.1795],
[126.0197,50.246],
[126.1291,50.3791],
[125.9869,50.5122],
[126.0978,50.6455],
[125.9565,50.7788],
[126.0687,50.9122],
[125.9004,51.1124],
[125.9022,51.3128],
[125.8176,51.3128],
[125.7399,51.7142],
[125.5701,51.7142],
[125.6018,51.8481],
[125.2086,51.9822],
[125.2673,52.0492],
[125.0119,52.0492],
[125.0707,52.1163],
[124.8152,52.1163],
[124.874,52.1833],
[124.3628,52.1833],
[124.4215,52.2505],
[123.5743,52.4519],
[123.6333,52.5191],
[123.4625,52.5191],
[123.5215,52.5863],
[123.0677,52.6535],
[123.1269,52.7208],
[122.9558,52.7208],
[123.0151,52.7881],
[122.7583,52.7881],
[122.8176,52.8554],
[122.475,52.8554],
[122.5343,52.9227],
[122.0794,52.99],
[122.1389,53.0574],
[121.5977,53.1248],
[121.631,53.2596],
[121.4591,53.2596],
[121.5787,53.3946],
[121.089,53.3271],
[121.1487,53.3946],
[120.8643,53.4621],
[120.9241,53.5296],
[120.3548,53.6647],
[120.4148,53.7323],
[119.9048,53.9352],
[119.9652,54.0029],
[119.195,54.2061],
[119.2555,54.2739],
[119.0823,54.2739],
[119.1429,54.3417],
[118.8829,54.3417],
[118.9435,54.4095],
[117.3625,54.6811],
[117.4837,54.8171],
[117.0752,54.7491],
[117.1356,54.8171],
[116.4127,54.8851],
[116.473,54.9531],
[114.4735,55.1573],
[114.5332,55.2255],
[113.1987,55.4983],
[113.1112,55.4983],
[111.0413,55.8398],
[111.1004,55.9082],
[110.6613,55.9082],
[110.7203,55.9766],
[109.988,55.8398],
[109.761,55.1573],
[109.8483,55.1573],
[109.6778,54.9531],
[109.7649,54.9531],
[109.6519,54.8171],
[109.7389,54.8171],
[109.5147,54.5453],
[109.6015,54.5453],
[109.5458,54.4774],
[109.6637,54.4095],
[109.5529,54.2739],
[109.6395,54.2739],
[108.8282,53.2596],
[108.4319,53.1922],
[108.0341,52.7881],
[107.3329,52.6535],
[106.8248,52.3176],
[106.3983,52.3176],
[106.006,51.7811],
[104.8341,51.4465],
[103.7792,51.5134],
[103.826,51.5803],
[103.5716,51.5803],
[103.8073,51.9151],
[103.5522,51.9151],
[103.5996,51.9822],
[103.4295,51.9822],
[103.4771,52.0492],
[103.3068,52.0492],
[103.2971,51.9151],
[103.212,51.9151],
[103.1941,51.6472],
[102.1749,50.6455],
[100.8621,49.6479],
[99.9923,49.1838],
[99.7497,48.9189],
[99.5832,48.9189],
[98.9784,48.4559],
[96.6231,47.2032],
[96.552,47.0716],
[95.4991,46.4802],
[94.4769,46.0865],
[93.7544,45.6278],
[92.55,45.1696],
[91.759,44.7119],
[90.3175,43.0165],
[90.2879,42.9515]
]
],
[
[
[103.127,51.9151],
[103.212,51.9151],
[103.2594,51.9822],
[103.1743,51.9822],
[103.127,51.9151]
]
],
[
[
[108.5244,53.5296],
[108.8688,53.5296],
[109.1059,53.9352],
[108.9331,53.9352],
[108.5986,53.7323],
[108.5244,53.5296]
]
]
]}
}
