{
"type": "Feature",
"properties": {"id":"cliopatria-emirate-of-afghanistan-1924","edge_precision":"unknown","cliopatria_name":"Emirate of Afghanistan","cliopatria_from_year":1924,"cliopatria_to_year":1925,"cliopatria_area_km2":643906,"cliopatria_wikidata":"Q1335260","cliopatria_wikipedia":"Emirate of Afghanistan","cliopatria_seshat_id":"af_afghanistan_emirate"},
"geometry": {"type": "MultiPolygon", "coordinates": [
[
[
[73,36.8269],
[74.1074,36.8682],
[74.5506,37.0615],
[74.5869,37.1904],
[74.917,37.2549],
[74.7979,37.3838],
[74.0961,37.3838],
[73.8258,37.2549],
[73.7243,37.4483],
[73.3343,37.4483],
[73,37.2711],
[73,36.8269]
]
]
]}
}
