{
"type": "Feature",
"properties": {"id":"cliopatria-pala-empire-0980","edge_precision":"unknown","cliopatria_name":"Pala Empire","cliopatria_from_year":980,"cliopatria_to_year":989,"cliopatria_area_km2":76509,"cliopatria_wikidata":"Q668412","cliopatria_wikipedia":"Pala Empire","cliopatria_seshat_id":"in_pala_emp"},
"geometry": {"type": "MultiPolygon", "coordinates": [
[
[
[84.048,24.3292],
[84.1684,24.1363],
[84.8861,23.9435],
[85.8643,23.4934],
[85.9202,23.3649],
[86.2836,23.3006],
[87.7318,24.0077],
[87.962,24.9721],
[87.8342,25.1007],
[87.8895,25.4221],
[87.5152,25.4221],
[86.4256,25.615],
[84.703,25.615],
[84.3817,25.4864],
[84.0937,25.1007],
[84.048,24.3292]
]
],
[
[
[89.8845,24.8435],
[89.9592,24.8435],
[89.9702,24.9078],
[89.8954,24.9078],
[89.8845,24.8435]
]
]
]}
}
