{
"type": "Feature",
"properties": {"id":"cliopatria-taifa-of-badajoz-1072","edge_precision":"unknown","cliopatria_name":"Taifa of Badajoz","cliopatria_from_year":1072,"cliopatria_to_year":1093,"cliopatria_area_km2":65278,"cliopatria_wikidata":"Q276841","cliopatria_wikipedia":"Taifa of Badajoz","cliopatria_seshat_id":"es_taifas","cliopatria_member_of":"(Taifas of Iberia)"},
"geometry": {"type": "MultiPolygon", "coordinates": [
[
[
[-9.5531,38.7389],
[-9.3837,38.6097],
[-9.233,38.6743],
[-9.2085,38.416],
[-8.8227,38.4806],
[-8.8595,38.0288],
[-8.8537,37.9643],
[-8.0605,37.8352],
[-7.8316,37.8998],
[-7.5519,38.2869],
[-6.9931,38.1578],
[-5.4376,38.2869],
[-5.4425,38.3515],
[-5.3642,38.3515],
[-5.3593,38.2869],
[-4.9086,38.5451],
[-4.7518,38.5451],
[-4.6379,39.1265],
[-5.036,39.1911],
[-5.2186,39.5143],
[-5.4497,39.4496],
[-5.4758,39.7729],
[-5.3337,39.967],
[-7.9028,39.5789],
[-8.5332,39.5789],
[-9.025,39.7729],
[-9.1039,39.7729],
[-9.1572,39.5143],
[-9.387,39.4496],
[-9.5531,38.7389]
]
]
]}
}
