{
"type": "Feature",
"properties": {"id":"cliopatria-songhai-empire-1463","edge_precision":"unknown","cliopatria_name":"Songhai Empire","cliopatria_from_year":1463,"cliopatria_to_year":1467,"cliopatria_area_km2":116860,"cliopatria_wikidata":"Q202687","cliopatria_wikipedia":"Songhai Empire","cliopatria_seshat_id":"ml_songhai_1"},
"geometry": {"type": "MultiPolygon", "coordinates": [
[
[
[-2.4815,16.0361],
[-1.5981,16.0361],
[-0.7106,15.6504],
[-0.4867,15.329],
[-0.3397,15.329],
[-0.4103,15.0075],
[-0.1157,14.9432],
[-0.0402,14.6861],
[0.1807,14.6218],
[0.2556,14.4289],
[1.2104,14.4289],
[1.6501,14.6218],
[1.7226,14.8147],
[1.6464,15.2647],
[1.7195,15.329],
[1.5711,15.5218],
[1.2656,16.8719],
[1.265,16.9362],
[0.9647,17.4505],
[0.2952,17.9005],
[-0.5188,18.0291],
[-2.1402,17.8362],
[-2.214,17.8362],
[-2.3472,16.9362],
[-2.4209,16.9362],
[-2.4815,16.0361]
]
]
]}
}
