{
"type": "Feature",
"properties": {"id":"cliopatria-indus-valley-civilization-1751bce","edge_precision":"unknown","cliopatria_name":"Indus Valley Civilization","cliopatria_from_year":-1750,"cliopatria_to_year":-1701,"cliopatria_area_km2":222948,"cliopatria_wikidata":"Q42534","cliopatria_wikipedia":"Indus Valley Civilisation"},
"geometry": {"type": "MultiPolygon", "coordinates": [
[
[
[65.7221,25.3579],
[66.0215,25.3579],
[66.3451,25.5507],
[66.6791,25.2293],
[66.632,24.8435],
[67.1477,24.7792],
[67.2818,24.6506],
[67.3797,24.8435],
[68.8827,25.4864],
[69.327,26.0008],
[69.4206,27.158],
[69.7368,27.7367],
[70.2411,28.0581],
[70.6072,27.9938],
[70.8548,28.1224],
[71.6195,28.1867],
[71.7924,28.3153],
[72.5551,29.6009],
[72.9102,30.6292],
[72.9233,30.6935],
[72.8649,31.1434],
[72.4626,31.4005],
[71.513,31.5933],
[71.0558,31.5933],
[70.7242,31.4647],
[70.4802,31.0148],
[70.3287,30.2436],
[69.9343,29.3438],
[69.7946,29.4081],
[69.5106,29.0867],
[68.8726,28.8938],
[67.4324,27.9295],
[66.611,26.9652],
[66.4816,26.5794],
[66.112,26.0651],
[66.0784,25.8079],
[65.7221,25.3579]
]
],
[
[
[68.3359,23.4291],
[68.5525,23.3649],
[68.8083,22.9791],
[69.4506,22.722],
[69.7484,22.722],
[70.0674,22.9148],
[70.7305,22.8506],
[70.8938,22.9791],
[70.9156,23.172],
[70.8411,23.172],
[70.7141,23.3649],
[69.7818,23.6863],
[69.3944,24.2006],
[69.0957,24.2006],
[68.8342,23.8792],
[68.685,23.8792],
[68.3574,23.622],
[68.3359,23.4291]
]
],
[
[
[70.2199,27.9295],
[70.2953,27.9295],
[70.3058,27.9938],
[70.2305,27.9938],
[70.2199,27.9295]
]
],
[
[
[70.6481,31.4647],
[70.7242,31.4647],
[70.7376,31.529],
[70.6614,31.529],
[70.6481,31.4647]
]
],
[
[
[71.5952,22.5934],
[71.7441,22.5934],
[71.8644,22.3363],
[72.1619,22.3363],
[72.1763,22.4648],
[72.4884,22.5934],
[72.5177,22.8506],
[72.2346,22.9791],
[72.2494,23.1077],
[71.9514,23.1077],
[71.773,22.8506],
[71.6986,22.8506],
[71.5952,22.5934]
]
],
[
[
[73.0865,36.546],
[73.337,36.6105],
[73.2767,36.6749],
[73.199,36.6749],
[73.0865,36.546]
]
]
]}
}
