{
"type": "Feature",
"properties": {"id":"cliopatria-ottoman-empire-1333","edge_precision":"unknown","cliopatria_name":"Ottoman Empire","cliopatria_from_year":1333,"cliopatria_to_year":1343,"cliopatria_area_km2":31144,"cliopatria_wikidata":"Q12560","cliopatria_wikipedia":"Ottoman Empire"},
"geometry": {"type": "MultiPolygon", "coordinates": [
[
[
[28.6763,39.7729],
[28.98,39.6436],
[31.3446,39.6436],
[31.6735,39.7729],
[31.6872,39.9023],
[32.031,40.1612],
[32.0021,40.6144],
[31.9229,40.6144],
[32.0387,40.9384],
[31.2452,40.9384],
[30.1604,40.4201],
[29.923,40.4201],
[29.936,40.5496],
[29.7049,40.6144],
[29.7179,40.744],
[29.4008,40.744],
[28.9127,40.6144],
[28.9004,40.4849],
[29.0525,40.4201],
[28.8881,40.3554],
[28.809,40.3554],
[28.6763,39.7729]
]
]
]}
}
