{
"type": "Feature",
"properties": {"id":"cliopatria-emirate-of-diriyah-1778","edge_precision":"unknown","cliopatria_name":"Emirate of Diriyah","cliopatria_from_year":1778,"cliopatria_to_year":1779,"cliopatria_area_km2":71671,"cliopatria_wikidata":"Q146871","cliopatria_wikipedia":"Emirate of Diriyah"},
"geometry": {"type": "MultiPolygon", "coordinates": [
[
[
[42.8596,25.9365],
[43.126,25.4864],
[43.0327,25.2293],
[43.2526,25.165],
[43.1553,24.8435],
[43.3841,24.9078],
[43.4456,24.7149],
[45.2348,24.6506],
[45.6465,24.1363],
[45.8705,24.1363],
[45.9317,23.9435],
[46.1422,23.7506],
[46.2914,23.7506],
[46.3527,23.5577],
[46.651,23.5577],
[46.9064,24.0077],
[46.6263,24.2649],
[46.7199,24.5221],
[46.395,25.165],
[46.4361,25.6793],
[46.3612,25.6793],
[46.4681,26.0651],
[46.2596,26.258],
[45.9595,26.258],
[44.9897,26.3222],
[44.8291,26.1937],
[44.4541,26.1937],
[44.1644,26.3222],
[43.4142,26.3222],
[42.9541,26.1937],
[42.8596,25.9365]
]
]
]}
}
