{
"type": "Feature",
"properties": {"id":"cliopatria-ottoman-empire-1415","edge_precision":"unknown","cliopatria_name":"Ottoman Empire","cliopatria_from_year":1415,"cliopatria_to_year":1421,"cliopatria_area_km2":439326,"cliopatria_wikidata":"Q12560","cliopatria_wikipedia":"Ottoman Empire","cliopatria_seshat_id":"tr_ottoman_emp_1"},
"geometry": {"type": "MultiPolygon", "coordinates": [
[
[
[20.4674,41.1977],
[20.5296,40.8736],
[20.609,40.8736],
[20.5987,40.6792],
[20.9984,40.744],
[21.2147,40.3554],
[21.7213,39.5143],
[22.1685,39.0618],
[22.0689,38.6743],
[21.9904,38.6743],
[22.0552,38.416],
[22.2119,38.416],
[22.2084,38.3515],
[22.2868,38.3515],
[22.2902,38.416],
[22.5253,38.416],
[22.3934,38.868],
[23.0216,38.868],
[22.9583,39.1265],
[22.7973,39.0618],
[22.8163,39.385],
[23.1352,39.4496],
[22.6109,39.9023],
[22.7017,40.0964],
[22.5437,40.0964],
[22.5675,40.4849],
[22.4132,40.5496],
[22.4212,40.6792],
[22.6672,40.8088],
[23.143,40.8088],
[23.1301,40.6144],
[23.2093,40.6144],
[23.1133,40.3554],
[23.7374,40.2259],
[23.8386,40.5496],
[23.6846,40.6144],
[23.698,40.8088],
[24.0106,40.744],
[24.3466,41.0032],
[25.8495,40.9384],
[26.1615,40.8736],
[26.2248,40.6792],
[26.6264,40.744],
[26.9214,40.4849],
[27.0172,40.6792],
[27.5275,41.068],
[28.0773,41.0032],
[28.432,41.3922],
[28.2792,41.4571],
[28.2183,41.6518],
[27.9794,41.6518],
[28.0043,41.9114],
[27.7835,42.1063],
[27.796,42.2362],
[27.4949,42.4312],
[27.5135,42.6262],
[27.8466,42.7563],
[27.8049,43.1467],
[27.8982,43.2769],
[28.2264,43.3421],
[28.1592,43.4723],
[28.4811,43.4723],
[28.6163,43.9938],
[28.5356,43.9938],
[28.5769,44.3854],
[28.8407,44.5813],
[28.802,44.9734],
[29.0456,44.9734],
[29.0241,44.7773],
[29.1052,44.7773],
[29.1124,44.8426],
[29.5253,44.908],
[29.6584,45.3659],
[29.577,45.3659],
[29.5845,45.4313],
[29.096,45.4313],
[28.6677,45.235],
[28.3494,45.3004],
[28.2819,45.4313],
[28.0376,45.4313],
[27.8613,45.3004],
[27.8479,45.1696],
[27.9969,45.0388],
[27.9699,44.7773],
[27.801,44.7119],
[27.7877,44.5813],
[27.943,44.516],
[27.8289,44.1896],
[27.4927,44.0591],
[26.2814,44.0591],
[25.8486,43.733],
[25.4343,43.6027],
[24.8814,43.733],
[24.1509,43.6678],
[23.6018,43.8634],
[22.9518,43.7982],
[22.8946,44.1243],
[22.5044,44.3201],
[22.5182,44.516],
[22.6895,44.6466],
[22.532,44.7119],
[22.1134,44.516],
[22.0956,44.2548],
[21.9296,44.1896],
[21.8993,43.733],
[22.128,43.5375],
[22.289,43.5375],
[22.3562,43.3421],
[22.517,43.3421],
[22.5035,43.1467],
[22.5839,43.1467],
[22.4637,42.5612],
[22.5394,42.4962],
[22.1265,42.3012],
[21.487,42.3012],
[21.2356,42.1063],
[20.9998,42.1712],
[20.7527,42.0413],
[20.5787,41.7816],
[20.4813,41.4571],
[20.5574,41.3922],
[20.5469,41.1977],
[20.4674,41.1977]
]
],
[
[
[26.1325,39.5143],
[26.8466,39.5789],
[26.7422,39.2557],
[26.8945,39.1911],
[26.8793,38.9972],
[26.9579,38.9972],
[26.8495,38.6097],
[27.0798,38.5451],
[27.065,38.3515],
[26.595,38.3515],
[26.5358,38.6097],
[26.3837,38.6743],
[26.4289,38.2224],
[26.8203,38.2224],
[26.889,38.0933],
[27.1971,38.0288],
[28.3755,38.0933],
[28.6424,38.4806],
[28.5019,38.6743],
[28.5293,38.9972],
[28.6191,39.1265],
[28.7763,39.1265],
[28.8049,39.4496],
[28.98,39.6436],
[30.9505,39.6436],
[31.1804,39.5789],
[31.1543,39.3203],
[31.6133,39.1911],
[32.4852,39.2557],
[32.499,39.385],
[32.6565,39.385],
[32.7777,39.7729],
[32.7423,40.1612],
[32.7496,40.2259],
[32.6706,40.2259],
[32.6779,40.2906],
[32.757,40.2906],
[32.7644,40.3554],
[32.6135,40.4201],
[32.6358,40.6144],
[32.5566,40.6144],
[32.6017,41.0032],
[32.3711,41.068],
[32.3068,41.1977],
[31.9815,41.1328],
[31.6933,41.3922],
[31.6137,41.3922],
[31.1801,41.068],
[30.6242,41.068],
[30.4792,41.1977],
[29.2079,41.1977],
[29.0426,41.1328],
[29.1028,40.9384],
[29.2486,40.8088],
[29.493,40.8736],
[29.4801,40.744],
[28.9127,40.6144],
[28.9004,40.4849],
[29.0463,40.3554],
[27.9388,40.3554],
[27.9446,40.4201],
[27.7921,40.4849],
[27.6958,40.2906],
[27.5376,40.2906],
[27.4698,40.4201],
[26.6731,40.3554],
[26.6839,40.4849],
[26.6047,40.4849],
[26.2723,40.2906],
[26.2465,39.967],
[26.1675,39.967],
[26.1325,39.5143]
]
],
[
[
[26.1403,40.6144],
[26.2195,40.6144],
[26.2248,40.6792],
[26.1455,40.6792],
[26.1403,40.6144]
]
],
[
[
[27.5344,37.3193],
[27.6124,37.3193],
[27.598,37.126],
[28.1383,37.0615],
[28.0314,36.6749],
[28.1869,36.6749],
[28.3571,36.8682],
[28.4349,36.8682],
[28.631,37.3838],
[28.4021,37.4483],
[28.4123,37.5773],
[28.2612,37.6417],
[28.2663,37.7062],
[27.7098,37.5773],
[27.5392,37.3838],
[27.5344,37.3193]
]
],
[
[
[33.5665,39.7729],
[34.3706,39.9023],
[34.4341,39.7729],
[35.0571,39.7083],
[34.6776,38.4806],
[34.8908,38.2869],
[35.2041,38.2869],
[35.3459,38.1578],
[35.395,37.8998],
[35.4731,37.8998],
[35.4658,37.8352],
[35.6221,37.8352],
[35.7224,38.0288],
[36.0503,38.1578],
[36.1591,38.416],
[36.4803,38.4806],
[36.8257,38.7389],
[38.8488,38.6097],
[38.8747,38.8034],
[40.0886,39.0618],
[40.1857,39.1911],
[40.0469,39.3203],
[40.0656,39.4496],
[39.9081,39.4496],
[39.9268,39.5789],
[39.7092,39.7083],
[39.6776,40.0317],
[38.9855,40.1612],
[38.8462,40.2906],
[38.2136,40.2906],
[37.8732,40.6792],
[37.169,40.744],
[36.879,40.9384],
[36.632,40.8736],
[36.4733,40.8736],
[36.4118,41.0032],
[36.2442,40.9384],
[36.2354,40.8736],
[36.0767,40.8736],
[34.8786,40.8088],
[34.5919,40.4201],
[33.9432,40.2906],
[33.7696,40.1612],
[33.5665,39.7729]
]
]
]}
}
