{
"type": "Feature",
"properties": {"id":"cliopatria-taifa-of-moron-1056","edge_precision":"unknown","cliopatria_name":"Taifa of Morón","cliopatria_from_year":1056,"cliopatria_to_year":1065,"cliopatria_area_km2":1263,"cliopatria_wikidata":"Q2666791","cliopatria_wikipedia":"Taifa of Morón","cliopatria_seshat_id":"es_taifas","cliopatria_member_of":"(Taifas of Iberia)"},
"geometry": {"type": "MultiPolygon", "coordinates": [
[
[
[-5.8095,36.9971],
[-5.6444,36.8682],
[-5.3332,36.8682],
[-5.3424,36.9971],
[-5.2645,36.9971],
[-5.4342,37.1904],
[-5.7507,37.2549],
[-5.6585,37.0615],
[-5.8095,36.9971]
]
]
]}
}
