{
"type": "Feature",
"properties": {"id":"cliopatria-principality-of-reuss-gera-1811","edge_precision":"unknown","cliopatria_name":"Principality of Reuss-Gera","cliopatria_from_year":1811,"cliopatria_to_year":1813,"cliopatria_area_km2":1788,"cliopatria_wikidata":"Q639100","cliopatria_wikipedia":"Principality of Reuss-Gera"},
"geometry": {"type": "MultiPolygon", "coordinates": [
[
[
[11.4517,50.4457],
[11.9564,50.4457],
[11.9578,50.5789],
[12.2112,50.6455],
[12.2129,50.7788],
[12.0451,50.8455],
[11.9592,50.7121],
[11.5379,50.7121],
[11.5373,50.6455],
[11.4531,50.6455],
[11.4522,50.5122],
[11.4517,50.4457]
]
],
[
[
[11.9614,50.9122],
[12.2999,50.9789],
[12.3018,51.1124],
[12.0482,51.1124],
[12.0474,51.0457],
[11.9629,51.0457],
[11.9614,50.9122]
]
]
]}
}
