{
"type": "Feature",
"properties": {"id":"cliopatria-small-horde-1564","edge_precision":"unknown","cliopatria_name":"Small Horde","cliopatria_from_year":1564,"cliopatria_to_year":1571,"cliopatria_area_km2":521534,"cliopatria_wikidata":"Q631210","cliopatria_wikipedia":"Nogai Horde"},
"geometry": {"type": "MultiPolygon", "coordinates": [
[
[
[36.7487,45.4313],
[36.7789,45.1042],
[37.8034,44.908],
[38.5338,44.908],
[38.9876,44.7119],
[39.949,44.6466],
[40.9685,44.908],
[41.0734,45.0388],
[41.91,45.1696],
[42.2158,45.4968],
[42.3034,45.9554],
[42.4921,46.0865],
[42.3413,46.1521],
[42.4741,46.4145],
[42.2284,46.4145],
[42.2539,46.5459],
[41.8947,46.8086],
[41.8126,46.8086],
[41.5221,47.0058],
[41.2754,47.0058],
[41.288,47.0716],
[40.7371,47.2032],
[40.5973,47.3348],
[39.3855,47.4665],
[39.5264,47.3348],
[39.4788,47.0716],
[39.2203,47.0058],
[39.1381,47.0058],
[38.622,46.8743],
[38.4946,46.6115],
[37.8386,46.6115],
[37.8986,46.4802],
[38.3679,46.3489],
[38.3346,46.1521],
[37.8931,45.9554],
[37.7577,45.6278],
[37.5947,45.6278],
[37.747,45.5623],
[37.7044,45.3004],
[36.9723,45.3004],
[36.9116,45.4313],
[36.7487,45.4313]
]
],
[
[
[46.0823,48.9851],
[46.7205,48.522],
[47.5186,48.3899],
[47.7195,48.1917],
[48.4487,48.1257],
[48.8804,47.8619],
[49.1283,47.8619],
[49.261,47.73],
[49.9547,47.5323],
[49.9219,47.4006],
[50.0704,47.3348],
[50.0377,47.2032],
[50.3016,46.9401],
[50.3838,46.9401],
[50.8442,47.1374],
[51.5846,47.1374],
[51.8145,47.0716],
[51.8629,46.9401],
[53.1128,47.0058],
[53.2423,46.8743],
[53.1902,46.6772],
[53.2723,46.6772],
[54.0171,47.0058],
[55.0401,47.1374],
[55.0606,47.7959],
[55.7347,48.1257],
[55.6222,48.5881],
[55.5391,48.5881],
[55.5785,48.7204],
[55.4954,48.7204],
[55.5349,48.8527],
[55.4517,48.8527],
[55.4914,48.9851],
[55.2381,49.25],
[55.5065,49.5816],
[56.2607,50.113],
[56.3067,50.5122],
[55.9955,50.8455],
[56.2369,51.3128],
[56.5598,51.5134],
[56.6295,51.7142],
[56.5446,51.7142],
[56.5534,51.9822],
[56.6245,52.1833],
[56.4403,52.3847],
[56.427,52.5863],
[56.1091,52.6535],
[56.1332,52.7208],
[55.6198,52.7208],
[55.0595,52.5863],
[54.6633,52.9227],
[54.7105,53.0574],
[54.539,53.0574],
[54.3523,53.2596],
[54.3376,53.4621],
[53.9933,53.4621],
[53.9546,53.5971],
[53.5238,53.5971],
[53.4848,53.7323],
[53.3123,53.7323],
[53.3595,53.8676],
[53.1714,54.0706],
[52.9984,54.0706],
[53.0548,54.4774],
[52.7795,54.6811],
[51.9737,54.6132],
[51.6201,54.3417],
[51.0318,54.1384],
[50.3173,54.0706],
[49.5821,53.6647],
[49.0693,53.1248],
[49.0074,52.9227],
[48.5837,52.6535],
[47.3753,52.3176],
[47.1289,52.0492],
[47.0727,51.8481],
[47.3089,51.7811],
[46.8146,50.5789],
[46.6462,50.5789],
[46.1409,49.9136],
[46.0823,48.9851]
]
]
]}
}
