{
"type": "Feature",
"properties": {"id":"cliopatria-kingdom-of-hungary-1018","edge_precision":"unknown","cliopatria_name":"Kingdom of Hungary","cliopatria_from_year":1018,"cliopatria_to_year":1027,"cliopatria_area_km2":265467,"cliopatria_wikidata":"Q171150","cliopatria_wikipedia":"Kingdom of Hungary","cliopatria_seshat_id":"hu_arpad_dyn"},
"geometry": {"type": "MultiPolygon", "coordinates": [
[
[
[15.86,46.5459],
[16.0197,46.4145],
[16.1835,46.4145],
[16.4361,46.6115],
[17.1511,46.0209],
[17.8751,45.7588],
[18.4461,45.7588],
[18.7788,45.8898],
[18.9259,45.5623],
[19.0074,45.5623],
[18.9976,45.3659],
[19.2351,45.235],
[19.8856,45.235],
[20.1369,45.3659],
[20.2884,45.1696],
[20.5284,45.1042],
[20.5169,44.908],
[20.7486,44.7119],
[21.4055,44.8426],
[21.4097,44.908],
[22.4923,45.3004],
[22.7317,45.235],
[22.7411,45.3659],
[22.9901,45.4313],
[24.6293,45.5623],
[24.5642,45.7588],
[25.7062,45.7588],
[25.8177,46.0865],
[25.9812,46.0865],
[25.754,46.2833],
[25.6384,46.8086],
[25.41,47.0058],
[25.5104,47.2032],
[25.3458,47.2032],
[25.1932,47.3348],
[25.2052,47.4665],
[24.8931,47.6641],
[24.9876,47.7959],
[24.6689,47.9278],
[24.6927,48.1917],
[24.4442,48.1917],
[24.3078,48.522],
[23.9758,48.522],
[23.91,48.7204],
[22.8509,48.9851],
[22.8563,49.0513],
[22.8617,49.1175],
[22.5231,49.0513],
[21.7983,49.3826],
[20.2119,49.3826],
[20.1199,49.25],
[19.6114,49.1175],
[19.2896,49.3163],
[18.4551,49.3163],
[17.4296,48.7865],
[17.0139,48.7865],
[16.8395,48.5881],
[16.9093,48.2578],
[16.9842,48.0597],
[16.4852,47.9938],
[16.3151,47.8619],
[16.3035,47.5323],
[16.1386,47.5323],
[16.1232,47.0716],
[15.8641,46.6772],
[15.86,46.5459]
]
]
]}
}
