{
"type": "Feature",
"properties": {"id":"cliopatria-polish-lithuanian-commonwealth-1659","edge_precision":"unknown","cliopatria_name":"Polish-Lithuanian Commonwealth","cliopatria_from_year":1659,"cliopatria_to_year":1661,"cliopatria_area_km2":435644,"cliopatria_wikidata":"Q172107","cliopatria_wikipedia":"Polish-Lithuanian Commonwealth","cliopatria_seshat_id":"pl_poland_lithuania_commonwealth"},
"geometry": {"type": "MultiPolygon", "coordinates": [
[
[
[15.4893,52.6535],
[15.6462,52.3176],
[15.814,52.2505],
[15.8083,52.1163],
[16.137,51.8481],
[16.1311,51.7142],
[16.5556,51.7142],
[16.719,51.5803],
[16.9801,51.7142],
[17.3197,51.7142],
[17.5493,51.246],
[17.9723,51.246],
[18.0493,51.1124],
[18.7093,50.8455],
[18.7013,50.7121],
[18.8618,50.5789],
[19.0302,50.5789],
[19.022,50.4457],
[19.1861,50.3791],
[19.0779,49.98],
[19.2376,49.8471],
[18.8873,49.5816],
[18.8798,49.4489],
[19.4725,49.5816],
[19.8655,49.1838],
[20.2119,49.3826],
[20.5459,49.3826],
[20.4536,49.25],
[20.7038,49.25],
[20.7129,49.3826],
[21.7983,49.3826],
[22.4398,49.0513],
[22.7784,49.1175],
[23.0897,48.8527],
[23.8269,48.7204],
[24.053,48.4559],
[24.379,48.3899],
[24.3672,48.2578],
[24.6867,48.1257],
[24.5862,47.9278],
[24.905,47.7959],
[24.9876,47.7959],
[25.0118,48.0597],
[25.5401,48.3899],
[25.5594,48.5881],
[25.2463,48.7865],
[25.3424,48.9189],
[25.9813,48.6542],
[26.4729,48.5881],
[27.3106,48.6542],
[27.3179,48.7204],
[27.5064,48.9189],
[27.5364,49.1838],
[27.7108,49.25],
[27.8648,49.8471],
[27.7811,49.8471],
[27.8132,50.113],
[27.6534,50.1795],
[27.6695,50.3125],
[27.5095,50.3791],
[27.4579,50.6455],
[27.3736,50.6455],
[27.4825,50.8455],
[27.5075,51.0457],
[26.5905,51.8481],
[26.4206,51.8481],
[26.198,52.1163],
[26.0277,52.1163],
[25.8814,52.3176],
[25.5561,52.4519],
[25.433,52.8554],
[25.1919,52.99],
[25.0681,53.3946],
[24.9821,53.3946],
[25.0061,53.5971],
[24.7795,53.8676],
[24.7334,54.2061],
[24.5682,54.2739],
[24.6086,54.6132],
[25.2681,55.0211],
[25.3815,55.2255],
[25.8635,55.5665],
[26.6805,55.7715],
[26.6121,55.9082],
[26.3582,55.9766],
[26.3086,56.2506],
[26.1515,56.3877],
[25.8081,56.4563],
[25.3578,56.3877],
[25.2877,56.525],
[25.0228,56.525],
[24.6163,56.7998],
[23.8916,56.6623],
[23.7312,56.7998],
[23.4657,56.7998],
[23.49,57.0063],
[23.5787,57.0063],
[23.5869,57.0751],
[23.4094,57.0751],
[22.5176,57.8346],
[21.6028,57.6271],
[21.3076,57.3509],
[21.2801,57.0751],
[21.0007,56.9374],
[20.8409,56.1821],
[20.9977,55.9766],
[20.9913,55.9082],
[21.2482,55.8398],
[21.2352,55.7031],
[21.6401,55.3618],
[22.4127,55.2255],
[22.3986,55.0892],
[22.573,55.0892],
[22.813,54.8851],
[22.7045,54.6811],
[22.6623,54.2739],
[22.4822,54.2061],
[22.4618,54.0029],
[22.5482,54.0029],
[22.4214,53.5971],
[21.2894,53.4621],
[20.9277,53.2596],
[20.67,53.2596],
[20.3958,53.0574],
[19.9721,53.1248],
[19.7299,53.3271],
[19.7402,53.4621],
[19.3099,53.4621],
[19.2141,53.3271],
[18.7029,53.3946],
[18.8076,53.6647],
[18.98,53.6647],
[19.2535,53.8676],
[19.2685,54.0706],
[19.4518,54.2061],
[19.8739,54.0706],
[19.8579,53.8676],
[20.1006,53.6647],
[20.273,53.6647],
[20.8253,54.0706],
[20.7506,54.2061],
[20.4966,54.2739],
[20.1445,54.2061],
[19.8089,54.3417],
[19.8197,54.4774],
[19.5594,54.4774],
[19.4622,54.3417],
[18.6869,54.4095],
[18.4453,54.6811],
[18.4595,54.8851],
[18.0241,54.8851],
[17.9107,54.4774],
[17.6419,54.3417],
[17.6212,54.0029],
[17.2793,54.0706],
[17.0987,53.9352],
[17.1697,53.6647],
[16.9074,53.5971],
[16.8213,53.5971],
[16.6596,53.7999],
[16.4007,53.7999],
[16.4767,53.5971],
[16.301,53.5296],
[16.2944,53.3946],
[16.1192,53.3271],
[16.1097,53.1248],
[16.0238,53.1248],
[16.0971,52.8554],
[15.4893,52.6535]
]
],
[
[
[20.2781,49.1175],
[20.3615,49.1175],
[20.3658,49.1838],
[20.4492,49.1838],
[20.4536,49.25],
[20.2867,49.25],
[20.2781,49.1175]
]
]
]}
}
