{
"type": "Feature",
"properties": {"id":"cliopatria-chimu-empire-1475","edge_precision":"unknown","cliopatria_name":"Chimu Empire","cliopatria_from_year":1475,"cliopatria_to_year":1481,"cliopatria_area_km2":96143,"cliopatria_wikidata":"Q581741","cliopatria_wikipedia":"Chimor"},
"geometry": {"type": "MultiPolygon", "coordinates": [
[
[
[-81.4747,-4.4073],
[-81.4186,-4.8573],
[-81.2753,-4.9216],
[-81.2909,-5.3074],
[-81.0132,-5.6288],
[-81.0218,-5.8217],
[-81.1705,-5.8859],
[-80.9548,-5.9502],
[-80.8002,-5.7574],
[-80.4386,-5.8217],
[-80.5173,-5.9502],
[-80.3715,-5.9502],
[-80.2377,-6.2074],
[-80.2471,-6.4002],
[-80.4755,-6.5931],
[-80.3296,-6.5931],
[-79.9815,-6.9145],
[-79.8529,-7.236],
[-79.7105,-7.3003],
[-79.5901,-7.7503],
[-78.9762,-8.4575],
[-78.8637,-8.9718],
[-78.3425,-9.8718],
[-78.3568,-10.0646],
[-77.7744,-11.029],
[-77.8014,-11.3504],
[-77.3842,-11.6075],
[-77.2604,-11.8647],
[-77.2662,-11.929],
[-77.1197,-11.929],
[-77.1026,-11.7361],
[-76.9505,-11.6718],
[-76.9176,-11.2861],
[-77.1683,-10.7718],
[-77.3095,-10.7075],
[-77.3625,-10.4504],
[-77.5038,-10.3861],
[-77.4891,-10.1932],
[-77.6257,-10.0646],
[-77.6115,-9.8718],
[-77.7483,-9.7432],
[-77.7345,-9.5503],
[-77.8717,-9.4218],
[-77.8583,-9.2289],
[-78.1811,-8.586],
[-78.3231,-8.5217],
[-78.38,-8.2646],
[-78.6565,-8.0074],
[-78.8492,-7.5574],
[-79.1339,-7.4288],
[-79.1927,-7.1717],
[-79.4013,-6.9788],
[-79.315,-6.7217],
[-79.521,-6.4645],
[-79.5695,-5.9502],
[-79.7767,-5.6931],
[-79.763,-5.3716],
[-79.8983,-5.1145],
[-79.8718,-4.4073],
[-79.6322,-3.7645],
[-79.6937,-3.3787],
[-79.7665,-3.3787],
[-80.1236,-3.1216],
[-80.1271,-3.2502],
[-80.4201,-3.3144],
[-80.646,-3.5716],
[-80.9413,-3.7002],
[-80.9453,-3.8287],
[-81.1679,-3.9573],
[-81.4747,-4.4073]
]
]
]}
}
