{
"type": "Feature",
"properties": {"id":"cliopatria-kingdom-of-duklja-1072","edge_precision":"unknown","cliopatria_name":"Kingdom of Duklja","cliopatria_from_year":1072,"cliopatria_to_year":1084,"cliopatria_area_km2":28346,"cliopatria_wikidata":"Q1252942","cliopatria_wikipedia":"Duklja"},
"geometry": {"type": "MultiPolygon", "coordinates": [
[
[
[17.5105,42.8213],
[17.8339,42.8864],
[18.1435,42.6262],
[18.852,42.3662],
[19.3862,41.8465],
[19.4659,41.8465],
[19.7183,42.1063],
[19.6651,42.6262],
[19.9157,42.8213],
[20.1527,42.7563],
[20.24,42.8864],
[20.4004,42.8864],
[20.5683,43.0165],
[20.5795,43.2118],
[20.3458,43.3421],
[20.3569,43.5375],
[20.1995,43.6027],
[20.1299,43.7982],
[19.9686,43.7982],
[19.6634,44.1243],
[19.2628,44.1896],
[19.0979,44.1243],
[18.8367,43.733],
[18.5617,43.0165],
[17.7644,43.1467],
[17.6788,43.0165],
[17.5183,43.0165],
[17.5105,42.8213]
]
],
[
[
[17.6656,42.6912],
[17.7457,42.6912],
[17.7483,42.7563],
[17.6682,42.7563],
[17.6656,42.6912]
]
]
]}
}
