{
"type": "Feature",
"properties": {"id":"cliopatria-roman-republic-481bce","edge_precision":"unknown","cliopatria_name":"Roman Republic","cliopatria_from_year":-480,"cliopatria_to_year":-338,"cliopatria_area_km2":906,"cliopatria_wikidata":"Q175881","cliopatria_wikipedia":"Roman Republic","cliopatria_seshat_id":"it_roman_rep_1"},
"geometry": {"type": "MultiPolygon", "coordinates": [
[
[
[11.972,42.0413],
[12.1317,42.0413],
[12.1305,41.9114],
[12.2103,41.9114],
[12.2888,41.7816],
[12.4482,41.7816],
[12.4517,42.1063],
[11.9725,42.1063],
[11.972,42.0413]
]
]
]}
}
