{
"type": "Feature",
"properties": {"id":"cliopatria-uyghur-khaganate-0750","edge_precision":"unknown","cliopatria_name":"Uyghur Khaganate","cliopatria_from_year":750,"cliopatria_to_year":754,"cliopatria_area_km2":2943976,"cliopatria_wikidata":"Q831218","cliopatria_wikipedia":"Uyghur Khaganate","cliopatria_seshat_id":"mn_uygur_khaganate"},
"geometry": {"type": "MultiPolygon", "coordinates": [
[
[
[77.7198,46.2833],
[77.8016,46.2833],
[77.8287,46.3489],
[77.7468,46.3489],
[77.7198,46.2833]
]
],
[
[
[77.8016,46.2833],
[77.8305,45.9554],
[78.0218,45.8243],
[77.9965,45.5623],
[78.3504,45.4313],
[78.5692,45.1696],
[79.3557,44.908],
[80.2769,45.3659],
[81.5815,45.5623],
[82.3962,45.5623],
[83.0814,45.8243],
[83.6001,45.8898],
[85.0114,46.4802],
[86.8479,47.0716],
[88.4788,46.8743],
[88.447,46.8086],
[88.6933,46.8086],
[88.7936,46.6772],
[89.0397,46.6772],
[89.14,46.5459],
[89.3859,46.5459],
[89.4859,46.4145],
[89.7316,46.4145],
[89.6997,46.3489],
[89.8634,46.3489],
[89.9632,46.2177],
[90.2086,46.2177],
[90.3083,46.0865],
[90.5535,46.0865],
[90.5215,46.0209],
[91.0788,45.8243],
[91.0965,45.6933],
[91.6526,45.4968],
[91.9492,45.1042],
[91.8539,44.908],
[91.935,44.908],
[91.9257,44.3854],
[92.0066,44.3854],
[91.9623,44.1243],
[92.043,44.1243],
[91.9807,43.9938],
[92.0614,43.9938],
[91.9993,43.8634],
[92.0986,43.733],
[92.006,43.5375],
[92.0865,43.5375],
[92.0444,43.2769],
[92.1248,43.2769],
[92.0638,43.1467],
[92.1636,43.0165],
[92.0729,42.8213],
[92.173,42.6912],
[92.0833,42.4962],
[92.1633,42.4962],
[92.1038,42.3662],
[92.2045,42.2362],
[92.1589,41.7816],
[92.311,41.5869],
[92.4702,41.5869],
[92.6955,41.1977],
[92.8544,41.1977],
[92.8258,41.1328],
[92.9847,41.1328],
[93.4774,40.8088],
[93.7153,40.8088],
[93.6869,40.744],
[95.2297,41.0032],
[97.2141,41.0032],
[97.1843,40.9384],
[97.8881,40.744],
[98.0369,40.5496],
[98.2745,40.5496],
[98.5026,40.3554],
[98.9478,40.2906],
[98.9184,40.2259],
[99.2842,40.1612],
[99.3837,40.0317],
[100.1735,40.0317],
[100.1441,39.967],
[100.3809,39.967],
[100.7372,39.7083],
[101.2599,39.6436],
[101.2804,39.5143],
[101.438,39.5143],
[101.5375,39.385],
[101.4799,39.2557],
[101.6301,39.0618],
[102.1232,38.9326],
[102.1169,38.7389],
[102.4026,38.6743],
[102.6042,38.416],
[102.7609,38.416],
[103.3774,38.0288],
[103.6902,38.0288],
[103.764,37.8352],
[104.3616,37.7707],
[104.4629,37.6417],
[105.2209,37.7707],
[105.433,37.8998],
[106.1647,37.9643],
[106.378,38.0933],
[107.3937,39.4496],
[107.4392,39.7083],
[107.6443,39.967],
[108.51,40.744],
[109.7898,41.068],
[110.8668,41.0032],
[110.8323,40.9384],
[111.3084,40.9384],
[111.2738,40.8736],
[112.9747,40.9384],
[113.01,41.0032],
[113.4342,41.1977],
[114.6642,42.1063],
[114.8493,42.5612],
[116.44,44.3854],
[116.9296,44.7773],
[118.0216,46.2177],
[118.4905,46.6772],
[118.6295,47.0058],
[118.5473,47.0058],
[118.8161,47.4006],
[118.7337,47.4006],
[119.0436,47.73],
[118.961,47.73],
[119.1452,47.9938],
[119.0625,47.9938],
[119.3427,48.3899],
[119.2598,48.3899],
[120.168,49.8471],
[120.0842,49.8471],
[120.5382,50.6455],
[120.454,50.6455],
[120.7209,50.9789],
[120.6365,50.9789],
[120.7988,51.1792],
[120.7143,51.1792],
[120.8234,51.3128],
[120.7088,51.3797],
[120.7638,51.4465],
[120.026,51.5803],
[120.1364,51.7142],
[119.8265,51.6472],
[119.8817,51.7142],
[119.6822,51.7811],
[119.7376,51.8481],
[119.5676,51.8481],
[119.5937,51.9822],
[119.4235,51.9822],
[119.45,52.1163],
[119.0508,52.2505],
[119.107,52.3176],
[118.8511,52.3176],
[118.9073,52.3847],
[118.7366,52.3847],
[118.793,52.4519],
[118.3369,52.5191],
[118.3933,52.5863],
[118.2224,52.5863],
[118.2788,52.6535],
[117.5947,52.6535],
[117.651,52.7208],
[116.6541,52.6535],
[114.9902,52.1833],
[113.8615,52.0492],
[112.274,51.6472],
[110.3569,51.5803],
[110.4071,51.6472],
[109.9828,51.6472],
[109.9984,51.7811],
[109.5236,51.7142],
[109.539,51.8481],
[109.2689,51.7142],
[108.7243,51.7811],
[107.2187,51.5803],
[104.9306,50.9789],
[104.2938,50.9122],
[103.4952,50.9789],
[103.4631,51.1792],
[103.294,51.1792],
[103.3012,51.3128],
[103.2166,51.3128],
[103.3171,51.5803],
[103.1941,51.6472],
[103.2408,51.7142],
[103.1559,51.7142],
[103.212,51.9151],
[102.834,51.9822],
[102.8812,52.0492],
[102.465,52.1833],
[102.5125,52.2505],
[101.7924,52.3176],
[101.802,52.4519],
[101.6312,52.4519],
[101.6033,52.6535],
[101.4323,52.6535],
[101.4801,52.7208],
[100.5962,52.9227],
[99.6752,52.5863],
[99.0112,52.1163],
[98.25,52.2505],
[98.2954,52.3176],
[97.8744,52.4519],
[97.92,52.5191],
[96.3824,52.5191],
[94.5843,52.2505],
[92.3757,51.5803],
[91.1035,51.5803],
[91.144,51.6472],
[90.9743,51.6472],
[91.0149,51.7142],
[90.6753,51.7142],
[90.6716,51.8481],
[90.2467,51.8481],
[90.0008,51.5803],
[89.0804,51.3128],
[87.3096,50.113],
[86.5386,49.4489],
[84.4133,48.1917],
[84.3304,48.1917],
[82.894,47.5982],
[79.5826,47.0058],
[79.3336,46.8086],
[79.2496,46.6115],
[79.0856,46.6115],
[78.9748,46.3489],
[77.8016,46.2833]
]
]
]}
}
