{
"type": "Feature",
"properties": {"id":"cliopatria-mataram-sultanate-1626","edge_precision":"unknown","cliopatria_name":"Mataram Sultanate","cliopatria_from_year":1626,"cliopatria_to_year":1676,"cliopatria_area_km2":65741,"cliopatria_wikidata":"Q402145","cliopatria_wikipedia":"Mataram Sultanate","cliopatria_seshat_id":"id_mataram_k"},
"geometry": {"type": "MultiPolygon", "coordinates": [
[
[
[109.2409,-6.8503],
[109.2525,-7.0431],
[109.4023,-7.1074],
[109.4913,-7.3646],
[110.0144,-7.5574],
[109.8941,-7.9432],
[109.8985,-8.0074],
[110.6464,-8.2646],
[112.8508,-8.4575],
[112.8461,-8.3932],
[112.6815,-8.136],
[112.7409,-7.9432],
[113.6168,-7.9432],
[113.7583,-7.8789],
[113.745,-7.686],
[113.672,-7.686],
[113.0925,-7.7503],
[112.7919,-7.6217],
[112.6935,-7.236],
[113.2814,-7.3003],
[113.7838,-7.1717],
[113.8486,-7.0431],
[113.9945,-7.0431],
[113.9094,-6.8503],
[112.6004,-6.9145],
[112.5314,-6.9788],
[112.5235,-6.8503],
[112.1627,-6.9145],
[111.936,-6.786],
[111.6442,-6.786],
[111.4869,-6.5931],
[111.0531,-6.6574],
[110.8923,-6.4002],
[110.5314,-6.4645],
[110.339,-6.9145],
[109.2409,-6.8503]
]
]
]}
}
