{
"type": "Feature",
"properties": {"id":"cliopatria-seleucid-empire-165bce","edge_precision":"unknown","cliopatria_name":"Seleucid Empire","cliopatria_from_year":-164,"cliopatria_to_year":-145,"cliopatria_area_km2":669880,"cliopatria_wikidata":"Q705904","cliopatria_wikipedia":"Seleucid dynasty","cliopatria_seshat_id":"ir_seleucid_emp"},
"geometry": {"type": "MultiPolygon", "coordinates": [
[
[
[34.2972,31.2719],
[34.5455,30.565],
[34.6974,30.565],
[35.0217,30.822],
[35.0321,30.9506],
[35.5098,31.2076],
[35.4554,31.4647],
[35.3792,31.4647],
[35.314,31.5933],
[34.873,31.7861],
[34.9004,32.1074],
[35.5875,32.1074],
[35.6047,32.3002],
[35.7575,32.3002],
[35.7691,32.4288],
[35.922,32.4288],
[36.0102,32.5574],
[36.5515,32.6216],
[36.6924,32.4931],
[36.6984,32.5574],
[36.8119,32.943],
[36.901,33.0716],
[37.0542,33.0716],
[37.0732,33.2645],
[37.5726,33.6502],
[37.7261,33.6502],
[37.7395,33.7789],
[37.9902,33.9718],
[39.1238,34.4863],
[39.509,34.4863],
[40.4033,34.229],
[40.3115,34.1004],
[40.8499,34.1004],
[40.9117,33.9718],
[41.2116,33.9075],
[41.4886,33.6502],
[42.5783,33.1359],
[42.7085,32.943],
[43.1526,32.8145],
[44.459,31.5933],
[44.5814,31.3362],
[44.9546,31.2719],
[45.7705,30.4364],
[46.5906,30.3079],
[46.6151,29.858],
[46.8497,29.9223],
[46.994,29.858],
[46.9794,29.7294],
[47.2897,29.7937],
[47.6464,29.6009],
[48.0933,29.5366],
[48.4035,29.6009],
[48.3654,29.9223],
[48.9873,30.0508],
[48.9428,30.3079],
[49.5859,29.9865],
[49.989,30.1794],
[50.0648,30.1794],
[50.3928,30.3722],
[50.4177,30.565],
[50.063,30.7578],
[50.0967,31.0148],
[49.9702,31.2076],
[50.0048,31.4647],
[50.2775,31.7861],
[50.0081,32.0431],
[50.0261,32.1717],
[49.815,32.3002],
[49.8423,32.4931],
[49.7077,32.6216],
[49.3162,32.5574],
[49.123,32.8145],
[48.9024,32.8788],
[48.8624,33.1359],
[48.6508,33.2645],
[48.6296,33.6502],
[48.8978,33.9075],
[48.9361,34.1647],
[48.8591,34.1647],
[48.8499,34.615],
[48.7153,34.7436],
[48.7072,35.194],
[47.9542,35.3227],
[46.031,35.3871],
[45.2171,35.6445],
[45.1952,36.0308],
[45.1177,36.0308],
[45.2509,36.9326],
[44.8713,36.9971],
[44.7446,37.1904],
[44.7738,37.3838],
[44.4131,37.5773],
[43.9448,37.5773],
[42.5082,37.8998],
[41.961,37.8998],
[41.6666,38.0288],
[40.5716,38.0288],
[40.5983,38.2224],
[40.4418,38.2224],
[40.4507,38.2869],
[40.1374,38.2869],
[39.3803,38.4806],
[39.1807,38.1578],
[38.8677,38.1578],
[38.658,38.3515],
[38.423,38.3515],
[38.3116,38.0933],
[38.147,38.0288],
[37.764,38.0933],
[37.6381,37.7062],
[37.9891,37.3838],
[37.958,37.126],
[38.1762,36.9971],
[38.1607,36.8682],
[37.6011,36.7393],
[37.5233,36.7393],
[37.1975,36.6105],
[36.1592,37.0615],
[35.9964,36.9971],
[35.9822,36.8682],
[36.06,36.8682],
[36.1449,36.9326],
[36.2862,36.8037],
[36.2649,36.6105],
[35.8417,36.2884],
[35.9901,36.224],
[35.8449,35.5802],
[35.9929,35.5158],
[35.8825,35.194],
[35.9597,35.194],
[35.927,34.8723],
[36.0682,34.7436],
[36.0488,34.5506],
[35.7921,34.2933],
[35.6445,34.3577],
[35.6838,33.9718],
[35.447,33.9075],
[35.4993,33.6502],
[35.3458,33.6502],
[35.3984,33.3931],
[35.2154,33.0716],
[35.0563,33.0073],
[35.0218,32.6216],
[34.7698,32.3645],
[34.813,31.9789],
[34.5733,31.8503],
[34.6334,31.6575],
[34.3024,31.3362],
[34.2972,31.2719]
]
]
]}
}
