{
"type": "Feature",
"properties": {"id":"cliopatria-tay-son-dynasty-1778","edge_precision":"unknown","cliopatria_name":"Tây Sơn dynasty","cliopatria_from_year":1778,"cliopatria_to_year":1787,"cliopatria_area_km2":102091,"cliopatria_wikidata":"Q1034173","cliopatria_wikipedia":"Tây Sơn dynasty"},
"geometry": {"type": "MultiPolygon", "coordinates": [
[
[
[104.4111,10.3788],
[104.5399,10.186],
[105.0345,9.9931],
[105.0288,9.9288],
[105.2424,9.8645],
[105.2653,10.1217],
[104.7886,10.5074],
[104.496,10.5074],
[104.4901,10.4431],
[104.417,10.4431],
[104.4111,10.3788]
]
],
[
[
[105.673,18.0291],
[105.7059,17.7719],
[106.6074,16.9362],
[106.6857,16.4861],
[106.9706,16.4219],
[107.0248,16.2933],
[107.5016,16.0361],
[107.2976,15.6504],
[107.6927,15.329],
[107.5651,14.9432],
[107.5562,14.8789],
[107.6209,14.8147],
[107.5127,14.5575],
[107.3804,14.1075],
[107.6669,13.4646],
[107.5248,12.886],
[107.6419,12.6289],
[107.7885,12.6289],
[108.1188,12.3074],
[108.1046,12.1789],
[108.3244,12.1789],
[108.4852,12.3074],
[108.705,12.3074],
[108.764,12.1789],
[109.0882,11.7931],
[109.2347,11.7931],
[109.2416,11.8574],
[109.2251,12.3717],
[109.3203,12.5646],
[109.4669,12.5646],
[109.5119,12.9503],
[109.3306,13.2718],
[109.3544,14.0432],
[109.1764,14.3646],
[109.1553,14.7504],
[108.9706,15.0075],
[109.0164,15.329],
[108.6767,15.5218],
[108.6955,15.6504],
[108.3657,15.9076],
[108.3308,16.1647],
[108.1393,16.3576],
[107.8447,16.3576],
[107.8644,16.4861],
[107.717,16.4861],
[107.6731,16.679],
[107.3446,16.9362],
[107.2709,16.9362],
[107.291,17.0647],
[107.1002,17.2576],
[106.7517,17.3862],
[106.5385,17.9005],
[106.5488,17.9648],
[106.1058,17.9648],
[106.0629,18.1576],
[105.673,18.0291]
]
],
[
[
[105.8329,9.9288],
[106.187,9.8002],
[106.3447,9.9288],
[106.2217,10.186],
[106.3797,10.3145],
[105.9469,10.3788],
[105.9292,10.186],
[106.1427,10.1217],
[105.9234,10.1217],
[105.8329,9.9288]
]
],
[
[
[106.4345,10.8931],
[106.6354,10.7003],
[106.8549,10.7003],
[106.8798,10.9574],
[106.4597,11.1503],
[106.4345,10.8931]
]
],
[
[
[106.9529,10.9574],
[107.1724,10.9574],
[107.1915,11.1503],
[107.0452,11.1503],
[106.9529,10.9574]
]
],
[
[
[107.0012,10.7003],
[107.0743,10.7003],
[107.0499,10.4431],
[107.2022,10.5074],
[107.2331,10.8288],
[107.0136,10.8288],
[107.0012,10.7003]
]
]
]}
}
