{
"type": "Feature",
"properties": {"id":"cliopatria-chola-empire-1241","edge_precision":"unknown","cliopatria_name":"Chola Empire","cliopatria_from_year":1241,"cliopatria_to_year":1249,"cliopatria_area_km2":64289,"cliopatria_wikidata":"Q6806806","cliopatria_wikipedia":"Chola Empire","cliopatria_seshat_id":"in_chola_emp"},
"geometry": {"type": "MultiPolygon", "coordinates": [
[
[
[77.8921,11.7931],
[78.468,11.7337],
[79.7832,11.2731],
[79.8928,11.1371],
[79.9033,11.2788],
[79.8301,11.2788],
[79.8844,11.986],
[80.303,12.6289],
[80.4316,13.2718],
[80.3078,13.5289],
[80.161,13.5289],
[80.2816,14.0432],
[80.2082,14.0432],
[80.2158,14.8789],
[80.1641,14.8789],
[80.1641,14.2807],
[79.823,14.3091],
[79.4251,14.7924],
[78.9419,14.7355],
[78.7779,15.2002],
[78.6049,14.1718],
[78.6783,14.1718],
[78.6316,13.6575],
[78.705,13.6575],
[78.6493,13.0146],
[77.897,11.8574],
[77.8921,11.7931]
]
]
]}
}
