{
"type": "Feature",
"properties": {"id":"cliopatria-principality-of-serbia-0850","edge_precision":"unknown","cliopatria_name":"Principality of Serbia","cliopatria_from_year":850,"cliopatria_to_year":859,"cliopatria_area_km2":36324,"cliopatria_wikidata":"Q1311990","cliopatria_wikipedia":"Principality of Serbia"},
"geometry": {"type": "MultiPolygon", "coordinates": [
[
[
[17.4613,43.6027],
[17.6038,43.1467],
[17.7672,43.2118],
[17.9971,42.9515],
[18.2349,42.8864],
[18.1435,42.6262],
[18.6151,42.4312],
[18.7011,42.5612],
[19.0151,42.4312],
[20.1386,42.4962],
[20.1527,42.7563],
[20.4004,42.8864],
[20.3311,43.0816],
[20.4955,43.1467],
[20.5029,43.2769],
[20.4225,43.2769],
[20.4262,43.3421],
[20.3569,43.5375],
[20.1922,43.4723],
[20.1226,43.6678],
[19.9615,43.6678],
[19.8109,43.8634],
[19.8144,43.9286],
[19.495,43.9938],
[19.1077,44.3201],
[19.1175,44.516],
[19.0366,44.516],
[18.8778,44.5813],
[18.7065,44.3854],
[18.5477,44.4507],
[18.5416,44.3201],
[18.0478,44.1243],
[18.0421,43.9938],
[17.7165,43.9286],
[17.6224,43.6027],
[17.4613,43.6027]
]
]
]}
}
