{
"type": "Feature",
"properties": {"id":"cliopatria-second-athenian-league-351bce","edge_precision":"unknown","cliopatria_name":"Second Athenian League","cliopatria_from_year":-350,"cliopatria_to_year":-338,"cliopatria_area_km2":11560,"cliopatria_wikidata":"Q2338980","cliopatria_wikipedia":"Second Athenian League"},
"geometry": {"type": "MultiPolygon", "coordinates": [
[
[
[23.0254,38.9326],
[23.3318,38.8034],
[23.4928,38.868],
[23.4142,38.868],
[23.3435,38.9972],
[23.0331,39.0618],
[23.0254,38.9326]
]
],
[
[
[23.2864,38.0288],
[23.4428,38.0288],
[23.9786,37.8352],
[24.0021,38.2224],
[24.1587,38.2224],
[24.1789,38.5451],
[24.0302,38.6743],
[23.5634,38.7389],
[23.6301,38.5451],
[23.6261,38.4806],
[23.6967,38.3515],
[23.4617,38.3515],
[23.2975,38.2224],
[23.2901,38.0933],
[23.2864,38.0288]
]
],
[
[
[23.4849,38.7389],
[23.5634,38.7389],
[23.5673,38.8034],
[23.4888,38.8034],
[23.4849,38.7389]
]
],
[
[
[24.2013,37.6417],
[24.2716,37.5128],
[24.4316,37.5773],
[24.3614,37.7062],
[24.2833,37.7062],
[24.2013,37.6417]
]
],
[
[
[24.3565,38.868],
[24.662,38.7389],
[24.6749,38.9326],
[24.4435,38.9972],
[24.365,38.9972],
[24.3565,38.868]
]
],
[
[
[24.6819,37.8352],
[24.83,37.7062],
[25.0685,37.7707],
[24.7724,38.0288],
[24.6942,38.0288],
[24.6819,37.8352]
]
],
[
[
[24.9862,37.7062],
[25.0519,37.5128],
[25.286,37.5128],
[25.2205,37.7062],
[24.9862,37.7062]
]
],
[
[
[25.3308,36.9971],
[25.5644,36.9971],
[25.5727,37.126],
[25.339,37.126],
[25.3308,36.9971]
]
],
[
[
[25.7934,39.1911],
[26.1032,39.1265],
[26.0936,38.9972],
[26.2459,38.9326],
[26.6436,38.9972],
[26.5112,39.3203],
[26.1226,39.385],
[26.0439,39.385],
[25.7934,39.1911]
]
],
[
[
[25.9882,37.5128],
[26.3049,37.5773],
[26.3139,37.7062],
[26.0796,37.7062],
[25.9882,37.5128]
]
],
[
[
[26.5574,37.8352],
[26.6217,37.6417],
[27.012,37.6417],
[27.0263,37.8352],
[26.5574,37.8352]
]
],
[
[
[26.8653,36.6749],
[27.1854,36.8037],
[27.1168,36.9326],
[27.0389,36.9326],
[26.8653,36.6749]
]
],
[
[
[27.1946,36.9326],
[27.3503,36.9326],
[27.4422,37.126],
[27.2085,37.126],
[27.1946,36.9326]
]
]
]}
}
