{
"type": "Feature",
"properties": {"id":"cliopatria-chimu-empire-1202","edge_precision":"unknown","cliopatria_name":"Chimu Empire","cliopatria_from_year":1202,"cliopatria_to_year":1343,"cliopatria_area_km2":6897,"cliopatria_wikidata":"Q581741","cliopatria_wikipedia":"Chimor"},
"geometry": {"type": "MultiPolygon", "coordinates": [
[
[
[-79.8529,-7.236],
[-79.7105,-7.3003],
[-79.7213,-7.4931],
[-79.4479,-7.8146],
[-79.4556,-7.9432],
[-79.3134,-8.0074],
[-79.3213,-8.136],
[-78.9762,-8.4575],
[-78.9722,-8.3932],
[-78.8141,-8.2003],
[-79.3564,-7.4931],
[-79.2727,-7.3003],
[-79.3317,-7.0431],
[-79.6167,-6.9145],
[-79.8459,-7.1074],
[-79.8529,-7.236]
]
],
[
[
[-79.2834,-7.4931],
[-79.2105,-7.4931],
[-79.2069,-7.4288],
[-79.2798,-7.4288],
[-79.2834,-7.4931]
]
]
]}
}
