{
"type": "Feature",
"properties": {"id":"cliopatria-second-bulgarian-empire-1220","edge_precision":"unknown","cliopatria_name":"Second Bulgarian Empire","cliopatria_from_year":1220,"cliopatria_to_year":1226,"cliopatria_area_km2":193428,"cliopatria_wikidata":"Q420759","cliopatria_wikipedia":"Second Bulgarian Empire"},
"geometry": {"type": "MultiPolygon", "coordinates": [
[
[
[21.3311,43.6678],
[21.3994,43.4723],
[21.5562,43.4072],
[21.5438,43.2118],
[21.9285,42.9515],
[21.9117,42.6912],
[21.5791,42.4962],
[21.4751,42.1063],
[22.2484,41.7167],
[23.032,41.522],
[23.387,42.0413],
[23.711,42.1063],
[23.9652,42.3012],
[24.5298,42.3662],
[25.5585,42.2362],
[25.7074,42.1063],
[26.1066,42.1063],
[26.1752,41.9764],
[26.4146,41.9764],
[26.5915,42.1712],
[26.8312,42.1712],
[27.5011,42.4962],
[27.5073,42.5612],
[27.6737,42.6262],
[27.6863,42.7563],
[27.8466,42.7563],
[27.8049,43.1467],
[27.8982,43.2769],
[28.2264,43.3421],
[28.1592,43.4723],
[28.4811,43.4723],
[28.6163,43.9938],
[28.5356,43.9938],
[28.5769,44.3854],
[28.8407,44.5813],
[28.802,44.9734],
[29.0456,44.9734],
[29.0241,44.7773],
[29.5253,44.908],
[29.6584,45.3659],
[29.577,45.3659],
[29.5845,45.4313],
[29.096,45.4313],
[28.6677,45.235],
[28.3494,45.3004],
[28.2819,45.4313],
[27.78,45.3004],
[27.6306,45.4313],
[26.9793,45.4313],
[26.4342,45.6933],
[26.0204,45.6278],
[25.9509,45.7588],
[25.7122,45.8243],
[24.5642,45.7588],
[24.4663,45.5623],
[24.1351,45.4968],
[23.3207,45.4968],
[22.9469,44.8426],
[22.5182,44.516],
[22.5044,44.3201],
[22.6615,44.2548],
[22.6523,44.1243],
[22.4816,43.9938],
[21.666,43.8634],
[21.3311,43.6678]
]
]
]}
}
