{
"type": "Feature",
"properties": {"id":"cliopatria-habsburg-monarchy-1805","edge_precision":"unknown","cliopatria_name":"Habsburg Monarchy","cliopatria_from_year":1805,"cliopatria_to_year":1805,"cliopatria_area_km2":669876,"cliopatria_wikidata":"Q66504140","cliopatria_wikipedia":"Habsburg monarchy","cliopatria_seshat_id":"at_habsburg_2","cliopatria_member_of":"(Habsburg Monarchy)"},
"geometry": {"type": "MultiPolygon", "coordinates": [
[
[
[8.2106,48.1257],
[8.2128,47.9938],
[8.461,47.9938],
[8.3762,48.1257],
[8.2106,48.1257]
]
],
[
[
[8.5349,48.5881],
[8.5359,48.522],
[8.7019,48.522],
[8.7001,48.6542],
[8.617,48.6542],
[8.6179,48.5881],
[8.5349,48.5881]
]
],
[
[
[8.5388,48.3238],
[8.5408,48.1917],
[8.7884,48.2578],
[8.7046,48.3238],
[8.5388,48.3238]
]
],
[
[
[8.6264,47.9938],
[8.6283,47.8619],
[8.7936,47.8619],
[8.7101,47.9278],
[8.7092,47.9938],
[8.6264,47.9938]
]
],
[
[
[8.7867,48.3899],
[8.7875,48.3238],
[8.8704,48.3238],
[8.8696,48.3899],
[8.7867,48.3899]
]
],
[
[
[8.878,47.73],
[9.0431,47.73],
[9.0424,47.7959],
[9.2076,47.7959],
[9.209,47.6641],
[9.6228,47.5323],
[9.5425,47.269],
[9.543,47.2032],
[9.6253,47.2032],
[9.6258,47.1374],
[9.9564,46.8743],
[10.2028,46.8743],
[10.3667,47.0058],
[10.4491,46.9401],
[10.3679,46.6115],
[10.5322,46.4802],
[10.4518,45.8243],
[10.6967,45.6933],
[11.1045,45.7588],
[11.1853,45.4313],
[12.16,45.1696],
[12.1628,45.4968],
[12.6522,45.5623],
[12.8168,45.6933],
[13.0605,45.6278],
[13.1448,45.8243],
[13.7149,45.7588],
[13.7102,45.4968],
[13.5473,45.4968],
[13.5441,45.3004],
[13.7056,45.235],
[13.7809,44.908],
[13.9432,44.908],
[13.9457,45.0388],
[14.1894,45.0388],
[14.1962,45.3659],
[14.6031,45.3659],
[14.5158,45.1042],
[14.9187,44.9734],
[14.9089,44.5813],
[15.1466,44.3854],
[15.2187,44.0591],
[15.4591,43.9938],
[15.3747,43.8634],
[15.6186,43.9286],
[15.6954,43.7982],
[15.8566,43.7982],
[16.0117,43.6027],
[15.9271,43.4723],
[16.5754,43.6027],
[16.7342,43.5375],
[16.7272,43.3421],
[17.0513,43.4072],
[17.1219,43.1467],
[17.285,43.2118],
[17.3654,43.2118],
[16.9805,43.6678],
[16.8194,43.6678],
[16.4299,44.0591],
[16.2684,44.0591],
[16.1984,44.3854],
[15.8038,44.7119],
[15.8198,45.235],
[15.9824,45.235],
[16.2199,45.0388],
[16.4703,45.235],
[17.1209,45.235],
[17.7631,45.0388],
[18.5784,45.1042],
[18.8906,44.8426],
[19.1406,44.9734],
[19.2962,44.8426],
[19.6242,44.908],
[19.857,44.7119],
[20.0191,44.7119],
[20.1148,44.9734],
[20.2809,45.0388],
[20.5208,44.9734],
[20.5904,44.7773],
[20.7486,44.7119],
[21.4055,44.8426],
[21.8791,44.6466],
[21.9514,44.516],
[22.2753,44.516],
[22.532,44.7119],
[22.6504,45.235],
[23.1382,45.235],
[23.4735,45.3659],
[23.4836,45.4968],
[25.0423,45.6278],
[25.3453,45.3659],
[25.4382,45.4968],
[25.8455,45.4968],
[25.9389,45.6278],
[26.1019,45.6278],
[26.4404,45.7588],
[26.4779,46.1521],
[25.9421,46.5459],
[25.9668,46.8086],
[25.7266,46.8743],
[25.6689,47.1374],
[25.0166,47.2032],
[25.4525,47.4665],
[25.7698,47.3348],
[25.9598,47.5982],
[26.379,47.6641],
[26.3095,47.7959],
[26.0681,47.8619],
[26.177,48.1257],
[26.0114,48.1257],
[26.0245,48.2578],
[26.2665,48.1917],
[26.2798,48.3238],
[26.0644,48.6542],
[25.9049,48.7204],
[25.925,48.9189],
[25.8418,48.9189],
[25.8546,49.8471],
[25.7011,49.98],
[25.7224,50.1795],
[25.2957,50.113],
[25.0714,50.3791],
[24.5669,50.3791],
[24.3411,50.6455],
[24.0042,50.6455],
[24.0305,50.9122],
[23.7124,51.1124],
[23.5958,51.6472],
[23.511,51.6472],
[23.6295,51.9822],
[23.3944,52.1833],
[23.0601,52.2505],
[22.988,52.3847],
[22.5677,52.4519],
[22.416,52.6535],
[21.9946,52.7208],
[21.2985,52.5863],
[21.1847,52.2505],
[21.0142,52.2505],
[21.0031,52.1163],
[21.1623,51.9822],
[21.2089,51.5134],
[20.6899,51.3797],
[20.416,51.1124],
[20.0731,51.0457],
[20.0497,50.7121],
[19.8767,50.6455],
[19.8543,50.3125],
[19.7703,50.3125],
[19.7615,50.1795],
[19.925,50.113],
[19.912,49.9136],
[19.4092,49.9136],
[18.8835,49.5152],
[18.4874,49.9136],
[17.9042,49.98],
[17.7399,50.0465],
[17.75,50.246],
[17.498,50.246],
[17.1715,50.4457],
[16.9192,50.4457],
[16.8231,50.1795],
[16.4873,50.1795],
[16.2435,50.3791],
[16.3388,50.6455],
[15.417,50.7788],
[15.1732,51.0457],
[14.9998,50.9122],
[14.5778,50.9122],
[14.4974,51.0457],
[14.3284,51.0457],
[14.154,50.8455],
[13.3919,50.7121],
[12.7965,50.3791],
[12.3761,50.3791],
[12.2903,50.246],
[12.1223,50.246],
[12.1216,50.1795],
[12.3709,49.98],
[12.3676,49.7143],
[12.5341,49.6479],
[12.5324,49.5152],
[13.113,49.25],
[13.3585,48.9851],
[13.525,48.9851],
[13.7708,48.7865],
[13.6838,48.5881],
[13.7642,48.4559],
[14.2576,48.2578],
[15.171,48.3238],
[15.4985,48.1917],
[16.0783,48.1917],
[16.2534,48.4559],
[16.5853,48.4559],
[16.7461,48.3238],
[16.7384,48.1257],
[16.4828,47.9278],
[15.9866,47.9278],
[15.5692,47.7959],
[15.4078,47.9278],
[14.0848,47.9278],
[13.1813,48.3238],
[12.7651,48.1917],
[12.7626,47.9938],
[12.8454,47.9938],
[13.1773,48.0597],
[13.1752,47.9278],
[13.4189,47.6641],
[13.4125,47.269],
[13.6595,47.269],
[13.7383,47.0716],
[13.0794,47.0058],
[12.8345,47.1374],
[12.7522,47.1374],
[12.1757,47.0716],
[12.1774,47.269],
[12.5081,47.4006],
[12.5109,47.6641],
[11.6026,47.5982],
[11.1896,47.4006],
[10.4474,47.5982],
[10.3657,47.3348],
[10.1185,47.3348],
[9.9527,47.5323],
[9.7052,47.5323],
[9.456,47.73],
[9.5364,47.9938],
[9.3703,48.0597],
[9.1228,47.9938],
[9.1242,47.8619],
[8.9573,47.9938],
[8.878,47.73]
]
],
[
[
[9.4496,48.4559],
[9.4519,48.1917],
[9.7824,48.3238],
[9.7819,48.3899],
[9.616,48.3899],
[9.6155,48.4559],
[9.4496,48.4559]
]
],
[
[
[10.1971,48.2578],
[10.1979,48.0597],
[10.2807,48.0597],
[10.2809,47.9938],
[10.3636,47.9938],
[10.3634,48.0597],
[10.4462,48.0597],
[10.4459,48.1917],
[10.5287,48.1917],
[10.1971,48.2578]
]
],
[
[
[14.2609,44.5813],
[14.5024,44.516],
[14.5113,44.908],
[14.3504,44.9734],
[14.2692,44.9734],
[14.2609,44.5813]
]
],
[
[
[17.3577,43.0165],
[17.5157,42.9515],
[17.5209,43.0816],
[17.3603,43.0816],
[17.3577,43.0165]
]
],
[
[
[17.5079,42.7563],
[17.5881,42.7563],
[17.5907,42.8213],
[17.5105,42.8213],
[17.5079,42.7563]
]
],
[
[
[18.3036,42.6262],
[18.7721,42.3662],
[18.852,42.3662],
[18.7131,42.8213],
[18.3065,42.6912],
[18.3036,42.6262]
]
]
]}
}
