{
"type": "Feature",
"properties": {"id":"cliopatria-itza-mayans-1564","edge_precision":"unknown","cliopatria_name":"Itza Mayans","cliopatria_from_year":1564,"cliopatria_to_year":1669,"cliopatria_area_km2":32873,"cliopatria_wikidata":"Q606377","cliopatria_wikipedia":"Itza people"},
"geometry": {"type": "MultiPolygon", "coordinates": [
[
[
[-90.6024,16.5504],
[-90.3528,16.3576],
[-90.3797,16.0361],
[-90.0116,16.0361],
[-90.0208,16.1004],
[-89.994,16.4219],
[-89.8112,16.679],
[-89.3146,16.8076],
[-89.0839,16.7433],
[-89.1031,16.8719],
[-88.7831,17.1933],
[-88.7094,17.1933],
[-88.5815,17.3219],
[-88.4242,17.2576],
[-88.5474,17.579],
[-88.1685,17.5148],
[-88.1146,17.6433],
[-88.1011,18.0291],
[-88.0273,18.0291],
[-88.0783,18.3505],
[-88.2364,18.4148],
[-88.2467,18.4791],
[-88.3945,18.4791],
[-88.7556,17.9648],
[-89.0509,17.9648],
[-89.168,17.7719],
[-90.5705,17.7719],
[-90.6024,16.5504]
]
],
[
[
[-88.5717,17.2576],
[-88.5619,17.1933],
[-88.4881,17.1933],
[-88.4979,17.2576],
[-88.5717,17.2576]
]
]
]}
}
