{
"type": "Feature",
"properties": {"id":"cliopatria-eastern-roman-empire-0469","edge_precision":"unknown","cliopatria_name":"Eastern Roman Empire","cliopatria_from_year":469,"cliopatria_to_year":489,"cliopatria_area_km2":2003623,"cliopatria_wikidata":"Q12544","cliopatria_wikipedia":"Byzantine Empire","cliopatria_seshat_id":"tr_east_roman_emp"},
"geometry": {"type": "MultiPolygon", "coordinates": [
[
[
[14.3368,35.8377],
[14.5682,35.7733],
[14.5712,35.9664],
[14.4171,36.0308],
[14.3396,36.0308],
[14.3368,35.8377]
]
],
[
[
[18.812,30.0508],
[19.4961,30.1151],
[19.6514,30.2436],
[20.9516,30.565],
[21.9388,30.565],
[22.7667,30.3722],
[22.7618,30.2436],
[22.916,30.3079],
[23.5101,29.9865],
[23.9622,29.9223],
[24.3304,29.6652],
[24.7792,29.5366],
[24.8467,29.3438],
[25.0008,29.4081],
[25.1465,29.2795],
[25.3735,29.2795],
[25.5863,28.9581],
[27.1401,28.251],
[27.285,28.1224],
[27.2763,27.9295],
[27.4299,27.9938],
[27.792,27.6724],
[27.7109,27.5438],
[27.9367,27.5438],
[28.1537,27.3509],
[28.2702,26.5794],
[28.3453,26.5794],
[28.2437,25.9365],
[28.2886,25.165],
[28.5688,24.6506],
[29.6728,24.2006],
[29.9595,23.8792],
[30.1087,23.8792],
[30.104,23.7506],
[30.3952,23.5577],
[30.4627,23.3649],
[30.5372,23.3649],
[31.6705,23.7506],
[32.0409,23.6863],
[33.389,23.8149],
[33.6818,23.6863],
[33.7564,23.6863],
[35.108,23.8792],
[35.5526,23.8149],
[35.5588,23.9435],
[35.8541,23.8792],
[35.8604,24.0077],
[35.1455,24.6506],
[34.6076,25.8079],
[34.4613,25.8722],
[34.1972,26.5151],
[34.0507,26.5794],
[34.0731,26.9652],
[33.9266,27.0295],
[33.7992,27.4152],
[33.5851,27.6081],
[33.6089,27.9938],
[33.1053,28.3795],
[32.8361,28.8938],
[32.6892,28.9581],
[32.4416,29.7937],
[32.6019,29.9223],
[32.5888,29.7294],
[32.8571,29.2152],
[33.1468,29.0224],
[33.1889,28.5081],
[33.403,28.3153],
[33.5538,28.3153],
[33.617,28.1224],
[34.12,27.7367],
[34.3459,27.7367],
[34.3583,27.9295],
[34.5173,28.0581],
[34.7523,29.2795],
[34.9129,29.4081],
[34.8535,28.5724],
[34.6054,28.251],
[34.5927,28.0581],
[35.1956,28.0581],
[35.4803,28.8938],
[35.6408,29.0224],
[35.6551,29.2152],
[35.8063,29.2152],
[35.7699,29.7294],
[35.8456,29.7294],
[36.1564,30.7578],
[36.4009,30.9506],
[36.2709,31.2076],
[36.4231,31.2076],
[36.3866,31.6575],
[36.6623,32.1717],
[36.5155,32.236],
[36.7507,32.3002],
[36.7168,32.7502],
[36.901,33.0716],
[37.0542,33.0716],
[37.0732,33.2645],
[37.5726,33.6502],
[37.7261,33.6502],
[37.7395,33.7789],
[37.9902,33.9718],
[39.1238,34.4863],
[39.509,34.4863],
[40.0259,34.2933],
[40.1029,34.2933],
[40.6181,34.7436],
[40.7723,34.7436],
[41.1122,35.001],
[41.0863,36.0308],
[41.6626,36.2884],
[41.6796,36.4172],
[41.5328,36.4816],
[41.5498,36.6105],
[41.2124,36.9971],
[41.1191,38.0288],
[40.9115,38.2224],
[40.9479,38.4806],
[40.8695,38.4806],
[40.9663,38.6097],
[40.9817,39.2557],
[41.2566,39.5143],
[41.326,39.967],
[41.4839,39.967],
[41.6725,40.1612],
[41.7035,40.3554],
[41.3598,40.6792],
[41.5348,41.2625],
[41.8061,41.4571],
[41.8392,41.6518],
[41.6909,41.7167],
[41.6799,41.6518],
[41.5674,41.4571],
[41.4082,41.4571],
[41.3071,41.3274],
[41.1588,41.3922],
[41.0473,41.1977],
[40.5393,41.0032],
[40.3909,41.068],
[40.3703,40.9384],
[39.7355,40.9384],
[39.0509,41.1328],
[38.7834,40.9384],
[38.2977,40.8736],
[38.1581,41.0032],
[37.8312,40.9384],
[37.7706,41.068],
[37.2147,41.068],
[37.2332,41.1977],
[37.0651,41.1328],
[36.7748,41.3274],
[36.2092,41.2625],
[35.9538,41.7167],
[35.157,41.7167],
[35.1212,42.0413],
[34.8817,42.0413],
[34.7845,41.9114],
[33.2771,41.9764],
[32.8621,41.8465],
[32.6308,41.9114],
[32.6947,41.7816],
[32.1934,41.5869],
[32.0417,41.6518],
[32.0265,41.522],
[31.5342,41.3922],
[31.1801,41.068],
[30.6242,41.068],
[30.4792,41.1977],
[28.9631,41.1328],
[28.9759,41.2625],
[28.5053,41.3274],
[28.2792,41.4571],
[28.2183,41.6518],
[27.9794,41.6518],
[27.937,42.0413],
[27.4949,42.4312],
[27.5135,42.6262],
[27.8466,42.7563],
[27.8049,43.1467],
[27.8982,43.2769],
[28.2264,43.3421],
[28.1592,43.4723],
[28.4811,43.4723],
[28.6163,43.9938],
[28.5356,43.9938],
[28.5769,44.3854],
[28.8407,44.5813],
[28.802,44.9734],
[29.0456,44.9734],
[29.0241,44.7773],
[29.1052,44.7773],
[29.1124,44.8426],
[29.5253,44.908],
[29.6659,45.4313],
[29.1847,45.4968],
[28.7561,45.3004],
[28.4307,45.3004],
[28.275,45.3659],
[28.2888,45.4968],
[28.0513,45.5623],
[28.0376,45.4313],
[27.7867,45.3659],
[27.7666,45.1696],
[27.9224,45.1042],
[27.8888,44.7773],
[27.7266,44.7773],
[27.7067,44.5813],
[27.8687,44.5813],
[27.8488,44.3854],
[27.9297,44.3854],
[27.7481,44.1896],
[26.3682,44.1243],
[26.0333,43.9938],
[25.768,43.733],
[25.2788,43.6678],
[24.8062,43.7982],
[24.0754,43.733],
[23.9244,43.8634],
[23.526,43.9286],
[22.8758,43.8634],
[22.9754,44.1243],
[22.509,44.3854],
[22.5182,44.516],
[22.7658,44.5813],
[22.6941,44.7119],
[22.3699,44.7119],
[22.1943,44.516],
[22.0324,44.516],
[21.8835,44.7119],
[21.6403,44.7119],
[21.4097,44.908],
[20.6715,44.7773],
[20.5208,44.9734],
[20.6097,45.1042],
[20.3735,45.235],
[20.2922,45.235],
[19.938,44.7119],
[19.9236,44.4507],
[19.6704,44.2548],
[19.6599,44.0591],
[19.4109,43.9286],
[19.4747,43.6027],
[19.3103,43.5375],
[19.4579,43.2769],
[19.114,42.8213],
[19.1688,42.3012],
[19.0058,42.2362],
[19.0027,42.1712],
[19.5424,41.7816],
[19.4501,41.522],
[19.5297,41.522],
[19.4438,41.3922],
[19.5233,41.3922],
[19.4376,41.2625],
[19.4985,40.8736],
[19.2545,40.744],
[19.2487,40.6144],
[19.4863,40.6144],
[19.4714,40.2906],
[19.6295,40.2906],
[20.0094,39.967],
[20.0003,39.7729],
[19.7637,39.7729],
[19.7578,39.6436],
[19.9125,39.5789],
[19.9184,39.7083],
[20.155,39.7083],
[20.2972,39.385],
[20.911,39.0618],
[20.7414,38.8034],
[20.9737,38.7389],
[21.1933,38.416],
[21.7384,38.3515],
[21.7286,38.1578],
[21.4156,38.1578],
[21.2436,37.8352],
[21.6966,37.5128],
[21.6031,37.1904],
[21.681,37.1904],
[21.7435,36.8682],
[21.8992,36.8682],
[21.9085,37.0615],
[22.22,37.0615],
[22.3563,36.6749],
[22.5118,36.6749],
[22.5994,36.8682],
[22.8328,36.8682],
[23.056,36.6749],
[22.8532,37.2549],
[22.7007,37.3193],
[22.7144,37.5773],
[22.9486,37.5773],
[23.1756,37.4483],
[23.1685,37.3193],
[23.4024,37.3193],
[23.3425,37.6417],
[23.1083,37.6417],
[23.0445,37.8998],
[23.2008,37.8998],
[23.2082,38.0288],
[23.4428,38.0288],
[23.9786,37.8352],
[24.0021,38.2224],
[24.1587,38.2224],
[24.1789,38.5451],
[24.0302,38.6743],
[23.5634,38.7389],
[23.6261,38.4806],
[23.3126,38.4806],
[23.1672,38.6743],
[22.9356,38.7389],
[23.0254,38.9326],
[23.3318,38.8034],
[23.4928,38.868],
[22.9583,39.1265],
[22.7973,39.0618],
[22.8163,39.385],
[23.1352,39.4496],
[22.6109,39.9023],
[22.7017,40.0964],
[22.5437,40.0964],
[22.5716,40.5496],
[22.8925,40.6144],
[22.9592,40.4201],
[23.7374,40.2259],
[23.8386,40.5496],
[23.6846,40.6144],
[23.698,40.8088],
[24.0106,40.744],
[24.3466,41.0032],
[25.8495,40.9384],
[26.0822,40.8736],
[26.1403,40.6144],
[26.5472,40.744],
[26.621,40.6792],
[26.7795,40.6792],
[26.774,40.6144],
[26.9324,40.6144],
[26.7685,40.5496],
[26.9214,40.4849],
[27.0172,40.6792],
[27.5275,41.068],
[29.1156,41.068],
[29.1028,40.9384],
[29.2486,40.8088],
[29.493,40.8736],
[29.3944,40.6792],
[28.9127,40.6144],
[28.9004,40.4849],
[29.0463,40.3554],
[27.9388,40.3554],
[27.9505,40.4849],
[27.7921,40.4849],
[27.6958,40.2906],
[27.5376,40.2906],
[27.4698,40.4201],
[26.6731,40.3554],
[26.6839,40.4849],
[26.6047,40.4849],
[26.2723,40.2906],
[26.1325,39.5143],
[26.8466,39.5789],
[26.7422,39.2557],
[26.8945,39.1911],
[26.8793,38.9972],
[26.9579,38.9972],
[26.8495,38.6097],
[27.0798,38.5451],
[27.065,38.3515],
[26.595,38.3515],
[26.5358,38.6097],
[26.3837,38.6743],
[26.4289,38.2224],
[26.8203,38.2224],
[26.889,38.0933],
[27.2753,38.0288],
[27.1777,37.7707],
[27.2559,37.7707],
[27.1634,37.5773],
[27.31,37.4483],
[27.2225,37.3193],
[27.5392,37.3838],
[27.598,37.126],
[28.0653,37.126],
[28.1383,37.0615],
[28.0314,36.6749],
[28.1869,36.6749],
[28.3571,36.8682],
[28.5905,36.8682],
[28.7361,36.7393],
[29.1249,36.7393],
[29.2397,36.224],
[29.938,36.224],
[30.0261,36.3528],
[30.4919,36.3528],
[30.6191,36.9326],
[31.086,36.9326],
[32.0681,36.6105],
[32.4985,36.224],
[32.5583,36.0308],
[32.7134,36.0308],
[33.2744,36.224],
[33.9791,36.2884],
[34.2507,36.6749],
[34.5816,36.8682],
[34.8929,36.8682],
[34.9504,36.6749],
[35.1127,36.7393],
[35.3323,36.6105],
[35.4877,36.6105],
[35.8336,36.9326],
[36.1449,36.9326],
[36.2862,36.8037],
[36.2649,36.6105],
[35.8417,36.2884],
[35.9901,36.224],
[35.8449,35.5802],
[35.9929,35.5158],
[35.8825,35.194],
[35.9597,35.194],
[35.927,34.8723],
[36.0682,34.7436],
[36.0488,34.5506],
[35.7921,34.2933],
[35.6445,34.3577],
[35.6838,33.9718],
[35.447,33.9075],
[35.4993,33.6502],
[35.3458,33.6502],
[35.3984,33.3931],
[35.2154,33.0716],
[35.0563,33.0073],
[35.0218,32.6216],
[34.7698,32.3645],
[34.813,31.9789],
[34.5733,31.8503],
[34.6388,31.7218],
[34.5466,31.529],
[34.3076,31.4005],
[34.2972,31.2719],
[33.9826,31.1434],
[32.8317,31.0148],
[32.7652,31.1434],
[32.5322,31.0791],
[32.3894,31.2076],
[32.2372,31.2076],
[32.3039,31.0791],
[31.9996,31.0791],
[31.9374,31.2719],
[31.7806,31.2076],
[31.8752,31.4647],
[31.2658,31.4647],
[31.118,31.529],
[31.2033,31.6575],
[30.9746,31.6575],
[30.9656,31.529],
[30.8088,31.4647],
[30.3517,31.4647],
[30.2712,31.4005],
[30.3388,31.2719],
[29.882,31.2719],
[29.8018,31.2076],
[29.8696,31.0791],
[29.6332,30.9506],
[29.4851,31.0148],
[29.3971,30.822],
[28.865,30.822],
[28.4964,31.0148],
[27.5149,31.1434],
[27.2975,31.3362],
[26.8477,31.4647],
[25.248,31.4647],
[25.102,31.5933],
[25.1117,31.7861],
[24.8925,31.9789],
[24.1294,31.9789],
[23.6803,32.1717],
[23.2985,32.1717],
[23.0779,32.3645],
[23.0894,32.6216],
[21.8787,32.943],
[21.4117,32.7502],
[21.108,32.8145],
[20.8712,32.6216],
[20.6441,32.6859],
[20.7159,32.5574],
[20.563,32.5574],
[20.482,32.4288],
[20.3313,32.4931],
[20.2461,32.236],
[20.017,32.236],
[20.0891,32.1074],
[19.9961,31.5933],
[20.2143,31.2719],
[20.1341,31.1434],
[20.2021,30.8863],
[19.9682,30.6935],
[19.9643,30.565],
[19.655,30.3722],
[19.272,30.2436],
[18.8944,30.3079],
[18.812,30.0508]
]
],
[
[
[20.0701,39.5789],
[20.1489,39.5789],
[20.1519,39.6436],
[20.0731,39.6436],
[20.0701,39.5789]
]
],
[
[
[20.3199,38.1578],
[20.7865,38.0933],
[20.7954,38.2869],
[20.5664,38.416],
[20.4881,38.416],
[20.3285,38.3515],
[20.3199,38.1578]
]
],
[
[
[20.6127,37.7062],
[20.9221,37.6417],
[20.934,37.8998],
[20.6213,37.8998],
[20.6127,37.7062]
]
],
[
[
[22.874,36.1596],
[23.1068,36.1596],
[23.1168,36.3528],
[22.9649,36.4172],
[22.8872,36.4172],
[22.874,36.1596]
]
],
[
[
[23.4849,38.7389],
[23.5634,38.7389],
[23.5673,38.8034],
[23.4888,38.8034],
[23.4849,38.7389]
]
],
[
[
[23.6154,35.5158],
[23.6792,35.2584],
[24.4484,35.194],
[24.7574,35.194],
[24.8237,35.001],
[26.1401,35.0653],
[26.2253,35.194],
[25.6806,35.1297],
[25.6923,35.3227],
[24.301,35.3227],
[24.1499,35.3871],
[24.1569,35.5158],
[23.6154,35.5158]
]
],
[
[
[24.2013,37.6417],
[24.2716,37.5128],
[24.4316,37.5773],
[24.3614,37.7062],
[24.2833,37.7062],
[24.2013,37.6417]
]
],
[
[
[24.3565,38.868],
[24.662,38.7389],
[24.6749,38.9326],
[24.4435,38.9972],
[24.365,38.9972],
[24.3565,38.868]
]
],
[
[
[24.491,40.8088],
[24.5513,40.5496],
[24.7936,40.6144],
[24.8081,40.8088],
[24.491,40.8088]
]
],
[
[
[24.6819,37.8352],
[24.83,37.7062],
[25.0685,37.7707],
[24.7724,38.0288],
[24.6942,38.0288],
[24.6819,37.8352]
]
],
[
[
[24.9739,39.8376],
[25.4473,39.8376],
[25.4619,40.0317],
[25.067,40.0317],
[24.9739,39.8376]
]
],
[
[
[24.9862,37.7062],
[25.0519,37.5128],
[25.286,37.5128],
[25.2205,37.7062],
[24.9862,37.7062]
]
],
[
[
[25.3308,36.9971],
[25.5644,36.9971],
[25.5727,37.126],
[25.339,37.126],
[25.3308,36.9971]
]
],
[
[
[25.7038,40.0964],
[26.0249,40.1612],
[26.0351,40.2906],
[25.7188,40.2906],
[25.7038,40.0964]
]
],
[
[
[25.7934,39.1911],
[26.1032,39.1265],
[26.0936,38.9972],
[26.2459,38.9326],
[26.6436,38.9972],
[26.5112,39.3203],
[26.1226,39.385],
[26.0439,39.385],
[25.7934,39.1911]
]
],
[
[
[25.8208,38.4806],
[25.8991,38.4806],
[25.8764,38.1578],
[26.1112,38.1578],
[26.2173,38.5451],
[25.9914,38.6743],
[25.913,38.6743],
[25.8208,38.4806]
]
],
[
[
[25.9882,37.5128],
[26.3049,37.5773],
[26.3139,37.7062],
[26.0796,37.7062],
[25.9882,37.5128]
]
],
[
[
[26.8653,36.6749],
[27.1854,36.8037],
[27.1168,36.9326],
[27.0389,36.9326],
[26.8653,36.6749]
]
],
[
[
[27.6925,36.2884],
[27.7426,35.902],
[28.1393,36.0308],
[28.2502,36.4816],
[28.0171,36.4816],
[27.6925,36.2884]
]
],
[
[
[32.229,34.9366],
[32.3667,34.7436],
[33.0436,34.5506],
[33.1321,34.6793],
[33.5234,34.7436],
[33.6954,34.9366],
[34.0873,35.001],
[33.9571,35.2584],
[34.5294,35.5802],
[34.5421,35.7089],
[34.3098,35.7089],
[33.7374,35.3871],
[32.8869,35.3871],
[32.8752,35.2584],
[32.5547,35.1297],
[32.2458,35.1297],
[32.229,34.9366]
]
],
[
[
[32.6053,45.4968],
[33.6101,45.1042],
[33.5476,44.6466],
[33.4665,44.6466],
[33.521,44.4507],
[33.9256,44.4507],
[34.3763,44.7773],
[34.5385,44.7773],
[34.5478,44.8426],
[35.2971,44.9734],
[35.4267,45.3004],
[35.0199,45.3004],
[34.9864,45.6278],
[34.7419,45.6278],
[34.5978,45.7588],
[34.6167,45.8898],
[34.3812,45.9554],
[34.3184,46.0865],
[33.737,46.0209],
[33.7096,45.8243],
[32.6053,45.4968]
]
]
]}
}
