{
"type": "Feature",
"properties": {"id":"cliopatria-nazi-germany-1943","edge_precision":"unknown","cliopatria_name":"Nazi Germany","cliopatria_from_year":1943,"cliopatria_to_year":1943,"cliopatria_area_km2":3308749,"cliopatria_wikidata":"Q7318","cliopatria_wikipedia":"Nazi Germany","cliopatria_seshat_id":"de_ns_germany"},
"geometry": {"type": "MultiPolygon", "coordinates": [
[
[
[-8.9718,40.0317],
[-8.9654,39.967],
[-8.8864,39.967],
[-8.8928,40.0317],
[-8.9718,40.0317]
]
],
[
[
[-7.3245,62.3313],
[-7.3122,62.2599],
[-7.1259,62.2599],
[-7.138,62.3313],
[-7.3245,62.3313]
]
],
[
[
[-7.1502,62.4027],
[-7.138,62.3313],
[-6.9516,62.3313],
[-6.9637,62.4027],
[-7.1502,62.4027]
]
],
[
[
[-6.3264,58.3892],
[-6.3058,58.2504],
[-6.2161,58.2504],
[-6.2367,58.3892],
[-6.3264,58.3892]
]
],
[
[
[-4.9117,48.522],
[-4.8913,48.3238],
[-4.6426,48.3238],
[-4.5464,48.1917],
[-4.7054,48.1257],
[-4.6921,47.9938],
[-4.4244,47.7959],
[-3.9349,47.8619],
[-3.7572,47.73],
[-3.3443,47.73],
[-3.1555,47.4665],
[-2.8373,47.5982],
[-2.8258,47.4665],
[-2.5784,47.4665],
[-2.5616,47.269],
[-2.2322,47.269],
[-2.1391,47.1374],
[-2.1944,46.8086],
[-2.0249,46.7429],
[-2.0144,46.6115],
[-1.666,46.3489],
[-1.2518,46.2833],
[-1.2227,45.8898],
[-1.1411,45.8898],
[-1.2131,45.7588],
[-1.0453,45.6933],
[-1.0312,45.4968],
[-1.1894,45.4313],
[-1.1706,45.1696],
[-1.2519,45.1696],
[-1.2054,44.516],
[-1.2863,44.516],
[-1.268,44.2548],
[-1.3488,44.2548],
[-1.3214,43.8634],
[-1.402,43.8634],
[-1.4599,43.5375],
[-1.6922,43.4072],
[-1.6876,43.3421],
[-1.4418,43.2769],
[-1.4284,43.0816],
[-1.027,43.0816],
[-0.5288,42.8213],
[-0.2081,42.8213],
[0.0401,42.6912],
[1.0747,42.8213],
[1.4855,42.6262],
[1.7258,42.6262],
[1.729,42.5612],
[1.8091,42.5612],
[2.4583,42.3662],
[3.0927,42.4962],
[3.09,42.5612],
[3.0099,42.5612],
[2.9849,43.1467],
[3.8509,43.6027],
[4.173,43.6027],
[4.1778,43.4723],
[4.578,43.5375],
[5.3869,43.4072],
[5.3908,43.2769],
[5.6319,43.2769],
[5.7962,43.1467],
[6.5176,43.2118],
[6.5936,43.4072],
[6.8321,43.5375],
[6.9126,43.5375],
[6.8293,43.6678],
[6.6681,43.6678],
[6.7429,43.9286],
[6.4169,44.0591],
[6.4137,44.1896],
[6.8149,44.3201],
[6.5659,44.5813],
[6.6407,44.8426],
[6.228,45.1042],
[5.9011,45.1696],
[5.8121,45.4313],
[5.4822,45.5623],
[5.6349,45.8898],
[6.0335,46.2177],
[6.1038,46.6115],
[6.6658,47.0716],
[6.8303,47.0716],
[6.8269,47.2032],
[6.9899,47.269],
[6.9834,47.5323],
[7.3973,47.4665],
[7.4769,47.5982],
[7.9732,47.5323],
[8.467,47.5982],
[8.5476,47.73],
[8.9605,47.73],
[9.5397,47.5982],
[9.6228,47.5323],
[9.5425,47.269],
[9.543,47.2032],
[9.6253,47.2032],
[9.6258,47.1374],
[9.9564,46.8743],
[10.2028,46.8743],
[10.2845,47.0058],
[10.4492,46.8743],
[10.942,46.7429],
[11.1887,47.0058],
[12.0935,47.0716],
[12.2551,46.7429],
[13.237,46.5459],
[13.8792,45.8243],
[14.207,45.8898],
[15.2648,45.7588],
[15.6785,45.9554],
[15.6045,46.2177],
[15.9337,46.2833],
[16.0197,46.4145],
[15.86,46.5459],
[15.8641,46.6772],
[16.2032,47.0058],
[16.4521,47.0716],
[16.4638,47.4006],
[16.631,47.4665],
[16.6359,47.5982],
[16.4756,47.73],
[16.8859,47.6641],
[17.0563,47.7959],
[17.1579,48.2578],
[18.0757,48.3899],
[18.9845,48.3238],
[19.1575,48.4559],
[19.7422,48.522],
[20.0906,48.7865],
[20.6684,48.7204],
[20.7427,48.5881],
[20.9177,48.7204],
[21.7489,48.7204],
[22.1545,48.5881],
[22.4398,49.0513],
[22.7784,49.1175],
[22.9287,48.9189],
[23.6663,48.7865],
[23.9758,48.522],
[24.4619,48.3899],
[24.6867,48.1257],
[24.5862,47.9278],
[24.905,47.7959],
[25.2477,47.9278],
[26.0811,47.9938],
[26.4389,48.2578],
[26.6875,48.2578],
[26.8671,48.3899],
[27.9453,48.3899],
[28.1415,48.6542],
[28.0813,48.8527],
[28.838,48.9189],
[28.9052,48.7865],
[29.2296,48.7204],
[29.2134,48.5881],
[29.4626,48.5881],
[29.4463,48.4559],
[29.687,48.3899],
[29.6706,48.2578],
[29.9691,47.9938],
[30.5398,47.9278],
[30.7456,47.5982],
[31.0757,47.5982],
[31.1411,47.4665],
[31.5447,47.4006],
[31.6097,47.269],
[31.8655,47.3348],
[31.9517,46.7429],
[32.0337,46.7429],
[32.1891,46.6772],
[32.1631,46.4802],
[31.8354,46.4802],
[31.8183,46.3489],
[32.064,46.3489],
[32.3654,46.1521],
[33.5919,46.1521],
[33.6103,46.2833],
[34.0919,46.2177],
[34.0639,46.0209],
[33.737,46.0209],
[33.7096,45.8243],
[33.039,45.6933],
[32.5967,45.4313],
[32.9224,45.4313],
[33.2214,45.235],
[33.4654,45.235],
[33.6101,45.1042],
[33.4488,44.516],
[33.9256,44.4507],
[34.3763,44.7773],
[35.2971,44.9734],
[35.4073,45.1696],
[35.7324,45.1696],
[35.8753,45.0388],
[36.3726,45.1042],
[36.4231,45.4313],
[35.0199,45.3004],
[34.9864,45.6278],
[34.7419,45.6278],
[34.5978,45.7588],
[34.6167,45.8898],
[34.3812,45.9554],
[34.3278,46.1521],
[34.7367,46.1521],
[34.756,46.2833],
[34.9917,46.2177],
[35.0931,46.3489],
[35.247,46.2833],
[35.4505,46.5459],
[35.891,46.7429],
[36.8044,46.8086],
[36.9079,46.9401],
[37.2257,46.8743],
[37.1652,47.0058],
[37.5161,47.1374],
[38.6795,47.2032],
[39.1969,47.3348],
[39.2674,47.269],
[39.1265,46.9401],
[38.8915,47.0058],
[38.7863,46.8743],
[38.622,46.8743],
[38.4946,46.6115],
[37.8386,46.6115],
[37.8986,46.4802],
[38.3679,46.3489],
[38.3346,46.1521],
[37.8931,45.9554],
[37.7577,45.6278],
[37.5947,45.6278],
[37.747,45.5623],
[37.7044,45.3004],
[36.9723,45.3004],
[36.9116,45.4313],
[36.7487,45.4313],
[36.7789,45.1042],
[37.256,45.0388],
[37.5285,44.7119],
[38.0149,44.7119],
[38.1984,44.8426],
[38.4418,44.8426],
[38.5555,45.0388],
[38.718,45.0388],
[38.7772,44.908],
[39.1019,44.908],
[39.2276,45.1696],
[39.4941,45.3004],
[39.5395,45.5623],
[39.2475,45.7588],
[39.2569,46.2833],
[39.9944,46.7429],
[40.0424,47.0058],
[39.89,47.0716],
[39.8559,47.3348],
[40.2346,47.5982],
[40.3476,48.1917],
[40.2648,48.1917],
[40.2845,48.7204],
[39.7283,48.8527],
[39.767,49.0513],
[40.0431,49.1838],
[40.0963,49.4489],
[39.9559,49.5816],
[39.6215,49.5816],
[39.1724,49.8471],
[38.6698,49.8471],
[38.4574,50.0465],
[37.9414,49.98],
[38.0542,50.9789],
[37.9697,50.9789],
[38.1068,51.6472],
[37.9649,51.7811],
[38.0355,52.1163],
[37.9503,52.1163],
[38.2097,52.9227],
[38.1241,52.9227],
[38.2286,53.3946],
[38.3147,53.3946],
[38.3604,53.5971],
[38.2742,53.5971],
[38.3202,53.7999],
[38.1227,54.0706],
[38.1537,54.2061],
[38.0671,54.2061],
[38.0981,54.3417],
[38.0115,54.3417],
[38.0426,54.4774],
[37.8133,54.6132],
[37.0164,54.5453],
[36.4107,54.9531],
[35.6412,55.0211],
[35.2484,55.2255],
[35.4086,55.5665],
[35.716,55.7715],
[35.7033,56.1136],
[35.7913,56.1136],
[35.837,56.3191],
[35.7489,56.3191],
[35.7948,56.525],
[35.7065,56.525],
[35.8045,57.3509],
[35.5847,57.558],
[35.1084,57.4199],
[34.913,56.9374],
[34.8675,56.3191],
[34.6476,56.1136],
[34.3836,56.1136],
[34.3243,56.2506],
[33.9719,56.2506],
[33.9437,56.1136],
[33.2598,55.7715],
[32.558,55.7715],
[32.4964,55.9082],
[32.246,55.9766],
[32.2102,56.2506],
[31.4428,56.3877],
[31.3673,56.4563],
[31.4442,56.8686],
[31.3556,56.8686],
[31.2817,57.4199],
[31.1927,57.4199],
[31.2318,57.6271],
[31.3474,57.7654],
[32.2955,58.0423],
[32.3234,58.181],
[32.0824,58.3198],
[31.2884,58.3892],
[31.1356,58.5282],
[31.0859,58.7369],
[31.3207,59.0155],
[31.1674,59.1551],
[31.1949,59.2947],
[30.9233,59.2947],
[30.7693,59.4345],
[30.7466,59.7846],
[30.3828,59.7846],
[30.1876,59.7145],
[30.0456,59.9249],
[29.9545,59.9249],
[29.7593,59.8547],
[29.7724,59.9249],
[29.0692,60.0653],
[28.8493,59.8547],
[28.4065,59.9249],
[28.2912,59.7846],
[27.9274,59.7846],
[27.8804,59.5045],
[26.792,59.5045],
[26.4507,59.6445],
[25.371,59.7145],
[25.3508,59.5745],
[24.1616,59.5045],
[23.962,59.3646],
[23.4098,59.2947],
[23.4053,58.5282],
[23.6663,58.4587],
[23.8198,58.2504],
[24.2681,58.2504],
[24.2339,57.2819],
[23.9418,57.0751],
[23.5787,57.0063],
[22.5176,57.8346],
[21.6028,57.6271],
[21.3076,57.3509],
[21.2801,57.0751],
[21.0007,56.9374],
[20.9548,56.4563],
[20.8665,56.4563],
[20.8409,56.1821],
[20.9977,55.9766],
[20.9659,55.6348],
[21.203,55.3618],
[21.0903,55.0892],
[21.0031,55.0892],
[20.9907,54.9531],
[20.7293,54.9531],
[20.6542,55.0892],
[19.9509,55.0211],
[19.8361,54.6811],
[20.0044,54.6132],
[19.8306,54.6132],
[19.8197,54.4774],
[19.5594,54.4774],
[19.4622,54.3417],
[18.6869,54.4095],
[18.4453,54.6811],
[18.4595,54.8851],
[17.5017,54.8851],
[16.4426,54.6132],
[15.9918,54.2739],
[15.0361,54.2061],
[14.5093,54.0029],
[14.4998,53.7323],
[13.9844,53.7999],
[14.1592,53.8676],
[14.1658,54.0706],
[13.3045,54.2061],
[13.7394,54.2739],
[13.6626,54.6132],
[13.4057,54.7491],
[13.1431,54.6811],
[13.0512,54.4774],
[12.4438,54.4774],
[12.0934,54.2739],
[11.3989,54.1384],
[11.3975,54.0029],
[10.8793,54.0706],
[11.0533,54.2061],
[11.0549,54.4095],
[9.9272,54.5453],
[10.0136,55.0211],
[9.9264,55.0892],
[10.5367,55.0211],
[10.5357,54.7491],
[10.797,54.8171],
[10.8862,55.1573],
[10.799,55.1573],
[10.8006,55.43],
[10.626,55.4983],
[10.6266,55.6348],
[9.7506,55.5665],
[9.7502,55.7031],
[9.9255,55.7031],
[9.9253,55.8398],
[10.2767,55.9766],
[10.2771,56.2506],
[10.3652,56.2506],
[10.3649,56.1136],
[10.5408,56.1136],
[10.8052,56.1821],
[10.8061,56.3191],
[10.8942,56.3191],
[10.8079,56.5937],
[10.2778,56.5937],
[10.2787,57.0751],
[10.5458,57.2819],
[10.4587,57.7654],
[9.9231,57.6962],
[9.8342,57.558],
[9.656,57.558],
[9.6565,57.4199],
[9.3907,57.2129],
[8.5024,57.2129],
[8.1529,56.8686],
[8.2436,56.7311],
[7.9795,56.6623],
[7.9894,56.1136],
[8.0774,56.1136],
[7.998,55.6348],
[8.0856,55.6348],
[8.0879,55.4983],
[8.3504,55.4983],
[8.5273,55.3618],
[8.5291,55.2255],
[8.4418,55.2255],
[8.5345,54.8171],
[8.7977,54.6132],
[8.7992,54.4774],
[8.5398,54.4095],
[8.5415,54.2739],
[8.8022,54.2061],
[8.8922,53.8676],
[8.4595,53.9352],
[8.377,53.6647],
[8.2057,53.5971],
[7.9448,53.7323],
[7.0823,53.7323],
[6.9133,53.5971],
[6.9168,53.4621],
[6.2262,53.5296],
[5.5423,53.3946],
[5.2089,53.1248],
[5.3857,52.99],
[5.3908,52.8554],
[5.1366,52.7881],
[5.0564,52.6535],
[4.7855,52.99],
[4.8628,53.1922],
[4.691,53.1922],
[4.6081,53.1248],
[4.7027,52.9227],
[4.5343,52.8554],
[4.4638,52.5191],
[4.2169,52.3176],
[4.2232,52.1833],
[3.974,52.0492],
[3.9805,51.9151],
[3.8104,51.9151],
[3.817,51.7811],
[3.6471,51.7811],
[3.7387,51.6472],
[3.3993,51.6472],
[3.4062,51.5134],
[3.5791,51.4465],
[3.1555,51.4465],
[2.5778,51.1792],
[1.6562,51.0457],
[1.4247,50.7121],
[1.455,50.246],
[1.0528,49.98],
[0.2241,49.8471],
[-0.0124,49.6479],
[0.007,49.3826],
[-1.2508,49.4489],
[-1.3618,49.7807],
[-2.0316,49.7807],
[-1.9133,49.3826],
[-1.6517,49.25],
[-1.635,49.0513],
[-1.7183,49.0513],
[-1.6022,48.6542],
[-2.5219,48.7204],
[-2.7594,48.5881],
[-3.1222,48.9189],
[-3.4551,48.9189],
[-3.8518,48.7204],
[-4.5999,48.7204],
[-4.9117,48.522]
]
],
[
[
[-3.848,58.6673],
[-3.8392,58.5977],
[-3.6593,58.5977],
[-3.668,58.6673],
[-3.848,58.6673]
]
],
[
[
[-0.0765,53.7323],
[-0.0653,53.5971],
[0.107,53.5971],
[0.096,53.7323],
[-0.0765,53.7323]
]
],
[
[
[1.5004,38.9972],
[1.5033,38.9326],
[1.5818,38.9326],
[1.579,38.9972],
[1.5004,38.9972]
]
],
[
[
[2.9786,39.385],
[2.9811,39.3203],
[3.0597,39.3203],
[3.0573,39.385],
[2.9786,39.385]
]
],
[
[
[3.9847,39.9023],
[3.9869,39.8376],
[4.0658,39.8376],
[4.0636,39.9023],
[3.9847,39.9023]
]
],
[
[
[4.8889,60.4168],
[4.8992,60.2058],
[5.2613,60.2761],
[5.4501,60.1355],
[5.1827,59.995],
[5.1923,59.7846],
[5.2833,59.7846],
[5.2143,59.2947],
[5.848,59.2947],
[5.8426,59.4345],
[6.0265,59.3646],
[5.9491,59.0155],
[5.4976,59.0155],
[5.515,58.5977],
[5.7004,58.4587],
[6.5155,58.2504],
[6.6116,58.0423],
[7.5975,57.9731],
[8.6665,58.3198],
[8.9329,58.5977],
[9.1127,58.5977],
[9.1116,58.7369],
[9.3818,58.7369],
[9.3809,58.8761],
[9.5613,58.8761],
[9.651,59.0155],
[10.0122,58.9458],
[10.193,59.1551],
[10.3738,59.1551],
[10.4663,59.6445],
[10.5571,59.6445],
[10.5556,59.3646],
[10.8258,59.1551],
[11.097,59.1551],
[11.0963,59.0853],
[11.6363,58.9458],
[11.7321,59.2947],
[11.8226,59.2947],
[11.7332,59.3646],
[11.7389,59.7145],
[11.8298,59.7145],
[11.8322,59.8547],
[12.3829,60.0653],
[12.4807,60.3465],
[12.5721,60.3465],
[12.4891,60.6987],
[12.3072,60.7693],
[12.312,60.9812],
[12.7776,61.1935],
[12.7834,61.406],
[12.1444,61.7611],
[12.2515,62.4027],
[12.1582,62.4027],
[12.1629,62.6173],
[12.0695,62.6173],
[12.1757,63.1915],
[12.0817,63.1915],
[12.0895,63.5517],
[12.1839,63.5517],
[12.1889,63.7684],
[12.7647,64.0579],
[14.0958,64.1304],
[14.2004,64.3482],
[13.924,64.5664],
[13.7333,64.5664],
[13.6436,64.7122],
[14.035,64.9311],
[14.0413,65.0773],
[14.5385,65.4436],
[14.5715,66.1063],
[15.2585,66.2541],
[15.7771,66.7732],
[16.3841,67.0711],
[16.4003,67.295],
[16.1162,67.4446],
[16.2252,67.5945],
[16.7294,67.7445],
[17.0499,68.0453],
[18.0471,68.1207],
[18.1677,68.3471],
[18.0684,68.3471],
[18.0899,68.5741],
[19.9648,68.4227],
[20.209,68.8016],
[20.3088,68.8016],
[20.2366,69.0297],
[20.9475,69.1058],
[21.0678,69.2583],
[21.7706,69.2583],
[22.2172,68.8776],
[22.4171,68.8776],
[22.406,68.8016],
[22.7941,68.7257],
[22.7827,68.6499],
[24.4033,68.8016],
[24.3905,68.7257],
[24.8632,68.5741],
[25.4295,68.9536],
[25.6296,68.9536],
[25.6576,69.1058],
[25.7578,69.1058],
[25.8587,69.6407],
[26.5249,69.9477],
[28.1612,70.0247],
[28.1442,69.9477],
[28.5318,69.8709],
[28.5147,69.7941],
[29.2041,69.7173],
[29.2696,69.5641],
[28.7981,69.2583],
[28.7643,69.1058],
[29.1652,69.1058],
[29.3176,69.3347],
[29.9385,69.4111],
[30.1949,69.6407],
[30.6801,69.5641],
[30.92,69.7173],
[30.9586,69.8709],
[30.8575,69.8709],
[30.0672,69.9477],
[30.03,69.7941],
[29.828,69.7941],
[29.8648,69.9477],
[29.6623,69.9477],
[29.6991,70.1016],
[30.2061,70.1016],
[31.0766,70.333],
[31.0349,70.565],
[30.2386,70.6425],
[30.2582,70.7201],
[28.4195,70.7201],
[28.384,70.565],
[28.0781,70.565],
[28.1131,70.7201],
[27.1937,70.7201],
[26.9566,70.565],
[26.6508,70.565],
[26.5809,70.7201],
[25.7637,70.7201],
[25.1508,70.1787],
[24.9478,70.1787],
[25.2959,70.4103],
[25.2087,70.4876],
[25.2529,70.7201],
[23.7207,70.7201],
[23.7073,70.6425],
[22.9803,70.565],
[23.032,70.2558],
[23.2351,70.2558],
[23.1086,70.1016],
[22.9181,70.1787],
[22.8659,70.4876],
[22.764,70.4876],
[22.9036,70.7201],
[22.495,70.7201],
[22.4585,70.4876],
[22.1178,70.2558],
[22.0162,70.2558],
[22.0393,70.4103],
[21.8244,70.333],
[21.4287,70.4103],
[21.3849,70.1016],
[21.7905,70.1016],
[21.7682,69.9477],
[20.7663,70.0247],
[20.8077,70.333],
[20.2893,70.2558],
[20.3611,70.0247],
[20.1585,70.0247],
[20.0381,69.8709],
[19.8359,69.8709],
[19.883,70.2558],
[19.7909,70.333],
[19.5876,70.333],
[19.6612,70.1016],
[18.8587,70.1787],
[18.7487,70.1016],
[18.7236,69.8709],
[18.8163,69.7941],
[18.2024,69.7173],
[18.1869,69.5641],
[18.5899,69.5641],
[18.5819,69.4875],
[17.9779,69.4875],
[17.8921,69.6407],
[16.8706,69.4875],
[16.8577,69.3347],
[16.9582,69.3347],
[17.039,69.1058],
[17.6474,69.1821],
[17.5194,68.8776],
[17.3195,68.8776],
[17.3329,69.0297],
[17.2328,69.0297],
[17.213,68.8016],
[16.6078,68.7257],
[16.6198,68.8776],
[15.9202,68.8776],
[15.9367,69.1058],
[16.1428,69.1821],
[16.1544,69.3347],
[15.7524,69.3347],
[15.4407,69.1821],
[15.5153,68.8016],
[15.3155,68.8016],
[15.3304,69.0297],
[15.0347,69.1058],
[14.9252,68.9536],
[14.4167,68.8016],
[14.4086,68.6499],
[14.9115,68.7257],
[14.9025,68.5741],
[14.4004,68.4984],
[14.1937,68.3471],
[14.1861,68.1961],
[14.984,68.2716],
[15.0925,68.4227],
[15.8827,68.3471],
[15.8774,68.2716],
[15.5796,68.2716],
[15.362,67.9701],
[15.0652,67.9701],
[14.9488,67.6695],
[14.5465,67.5195],
[14.4366,67.295],
[14.1314,67.0711],
[13.6416,67.0711],
[13.5407,66.9965],
[13.6293,66.7732],
[13.2388,66.7732],
[13.2333,66.6246],
[12.9409,66.6246],
[13.1228,66.2541],
[12.9286,66.2541],
[12.8245,66.0324],
[12.633,66.1063],
[12.6374,66.2541],
[12.3461,66.2541],
[12.3422,66.1063],
[12.4391,66.1063],
[12.3364,65.8849],
[12.5298,65.8849],
[12.5256,65.7376],
[12.136,65.5905],
[12.1325,65.4436],
[12.0363,65.4436],
[12.1256,65.1504],
[11.8393,65.2237],
[11.7405,65.0773],
[11.4517,65.0042],
[11.4493,64.8581],
[11.3537,64.8581],
[11.4447,64.5664],
[11.3483,64.4937],
[11.1596,64.6393],
[10.8733,64.6393],
[10.2998,64.4209],
[10.2993,64.2756],
[9.919,64.1304],
[9.919,63.9855],
[9.5402,63.9131],
[9.5414,63.6239],
[9.3525,63.6239],
[9.2596,63.4075],
[8.9762,63.4796],
[9.0686,63.6961],
[8.5015,63.6961],
[8.2218,63.4796],
[7.8431,63.5517],
[7.7536,63.3354],
[8.2244,63.3354],
[8.2269,63.1915],
[7.9448,63.1915],
[7.9478,63.0477],
[6.915,63.0477],
[6.9216,62.8323],
[7.3919,62.7606],
[7.3956,62.6173],
[6.643,62.7606],
[6.5591,62.4742],
[5.9086,62.4027],
[5.9173,62.1885],
[5.7311,62.1885],
[5.7221,62.4027],
[5.4422,62.4027],
[5.4519,62.1885],
[5.0761,62.2599],
[5.1862,61.9034],
[4.9148,61.7611],
[4.9219,61.619],
[5.1995,61.619],
[4.9289,61.477],
[5.035,61.1935],
[5.1272,61.1935],
[4.9497,61.0519],
[5.1602,60.4873],
[4.8889,60.4168]
],
[
[17.7772,68.4227],
[17.7841,68.4984],
[17.8837,68.4984],
[17.8766,68.4227],
[17.7772,68.4227]
],
[
[17.8837,68.4984],
[17.8907,68.5741],
[17.9903,68.5741],
[17.9832,68.4984],
[17.8837,68.4984]
]
],
[
[
[7.0697,43.733],
[7.071,43.6678],
[7.1515,43.6678],
[7.1502,43.733],
[7.0697,43.733]
]
],
[
[
[7.1489,43.7982],
[7.1502,43.733],
[7.2308,43.733],
[7.2296,43.7982],
[7.1489,43.7982]
]
],
[
[
[8.1831,55.0211],
[8.1864,54.8171],
[8.3594,54.8851],
[8.4465,54.8851],
[8.3574,55.0211],
[8.1831,55.0211]
]
],
[
[
[9.2922,37.1904],
[9.5283,36.8037],
[9.6842,36.7393],
[9.6846,36.6749],
[9.9955,36.6749],
[10.3075,36.2884],
[10.5404,36.2884],
[10.5403,36.3528],
[10.4625,36.4172],
[11.0062,36.8037],
[11.0063,36.9971],
[10.4618,36.7393],
[10.2284,36.8037],
[10.3054,37.0615],
[10.2276,37.0615],
[10.227,37.2549],
[9.9934,37.1904],
[9.6031,37.3193],
[9.3701,37.1904],
[9.2922,37.1904]
],
[
[10.2276,37.0615],
[10.2278,36.9971],
[10.1499,36.9971],
[10.1497,37.0615],
[10.2276,37.0615]
]
],
[
[
[9.6218,33.8432],
[9.7011,33.2645],
[11.31,32.5574],
[11.4629,32.5574],
[11.4628,32.4931],
[11.5392,32.4931],
[11.539,32.4288],
[13.2959,32.3002],
[13.6054,32.6859],
[13.6074,32.8788],
[13.5308,32.8788],
[13.5302,32.8145],
[13.4537,32.8145],
[13.4543,32.8788],
[13.3012,32.8788],
[13.3017,32.943],
[13.2252,32.943],
[12.8418,32.8788],
[12.8408,32.7502],
[12.5347,32.7502],
[12.6121,32.8788],
[12.229,32.8145],
[11.4644,33.2002],
[11.1578,33.2002],
[11.0815,33.5859],
[10.6977,33.5217],
[10.544,33.7146],
[10.2368,33.7146],
[10.0058,33.9075],
[10.0821,34.1004],
[9.8513,34.1004],
[9.6218,33.8432]
],
[
[13.0709,32.8145],
[13.0715,32.8788],
[13.148,32.8788],
[13.1475,32.8145],
[13.0709,32.8145]
]
],
[
[
[10.2949,42.7563],
[10.2949,42.6912],
[10.3751,42.6912],
[10.375,42.7563],
[10.2949,42.7563]
]
],
[
[
[10.364,55.7715],
[10.6272,55.7715],
[10.6282,55.9766],
[10.4524,55.9766],
[10.364,55.7715]
]
],
[
[
[10.8836,54.7491],
[11.5785,54.6811],
[11.6654,54.6811],
[12.1012,54.7491],
[12.108,55.1573],
[12.3711,55.2255],
[12.375,55.43],
[12.2025,55.5665],
[12.5557,55.7031],
[12.5644,56.1136],
[12.4778,56.1821],
[11.8606,56.1136],
[11.7686,55.8398],
[11.5957,56.0451],
[11.3319,56.0451],
[11.242,55.8398],
[10.8904,55.7715],
[10.8894,55.6348],
[11.0641,55.5665],
[10.9745,55.2936],
[11.4979,55.2255],
[11.6707,55.0892],
[11.6681,54.8851],
[10.9725,55.0211],
[10.8836,54.7491]
]
],
[
[
[11.0156,42.5612],
[11.0957,42.5612],
[11.0959,42.6262],
[11.0158,42.6262],
[11.0156,42.5612]
]
],
[
[
[11.0952,42.4312],
[11.1752,42.4312],
[11.1755,42.4962],
[11.0954,42.4962],
[11.0952,42.4312]
]
],
[
[
[12.0502,41.8465],
[12.1299,41.8465],
[12.1305,41.9114],
[12.0507,41.9114],
[12.0502,41.8465]
]
],
[
[
[12.1311,41.9764],
[12.2109,41.9764],
[12.2115,42.0413],
[12.1317,42.0413],
[12.1311,41.9764]
]
],
[
[
[12.2103,41.9114],
[12.29,41.9114],
[12.2907,41.9764],
[12.2109,41.9764],
[12.2103,41.9114]
]
],
[
[
[12.2115,42.0413],
[12.2913,42.0413],
[12.292,42.1063],
[12.2121,42.1063],
[12.2115,42.0413]
]
],
[
[
[12.2907,41.9764],
[12.3705,41.9764],
[12.3711,42.0413],
[12.2913,42.0413],
[12.2907,41.9764]
]
],
[
[
[12.4696,43.733],
[12.5502,43.733],
[12.5509,43.7982],
[12.4703,43.7982],
[12.4696,43.733]
]
],
[
[
[12.5494,43.6678],
[12.63,43.6678],
[12.6308,43.733],
[12.5502,43.733],
[12.5494,43.6678]
]
],
[
[
[12.5509,43.7982],
[12.6316,43.7982],
[12.6323,43.8634],
[12.5517,43.8634],
[12.5509,43.7982]
]
],
[
[
[12.6308,43.733],
[12.7114,43.733],
[12.7122,43.7982],
[12.6316,43.7982],
[12.6308,43.733]
]
],
[
[
[12.7873,67.8948],
[13.1856,67.9701],
[13.1914,68.1207],
[12.8941,68.1207],
[12.8914,68.0453],
[12.7924,68.0453],
[12.7873,67.8948]
]
],
[
[
[13.3865,68.0453],
[13.5845,68.0453],
[13.5878,68.1207],
[14.0869,68.1961],
[14.0981,68.4227],
[13.7004,68.4227],
[13.3927,68.1961],
[13.3865,68.0453]
]
],
[
[
[13.8596,44.7773],
[13.9407,44.7773],
[13.942,44.8426],
[13.8608,44.8426],
[13.8596,44.7773]
]
],
[
[
[14.5055,36.7393],
[14.5833,36.7393],
[14.5853,36.8682],
[14.5075,36.8682],
[14.5055,36.7393]
]
],
[
[
[14.6362,55.0892],
[15.0694,55.0211],
[15.0779,55.2255],
[14.9906,55.2255],
[14.644,55.2936],
[14.6362,55.0892]
]
],
[
[
[15.3409,45.5623],
[15.4224,45.5623],
[15.4242,45.6278],
[15.3427,45.6278],
[15.3409,45.5623]
]
],
[
[
[16.0901,43.5375],
[16.1706,43.5375],
[16.1728,43.6027],
[16.0922,43.6027],
[16.0901,43.5375]
]
],
[
[
[16.1016,46.4145],
[16.1835,46.4145],
[16.1857,46.4802],
[16.1038,46.4802],
[16.1016,46.4145]
]
],
[
[
[16.1685,43.4723],
[16.249,43.4723],
[16.2511,43.5375],
[16.1706,43.5375],
[16.1685,43.4723]
]
],
[
[
[16.2698,46.5459],
[16.5158,46.5459],
[16.4361,46.6115],
[16.3541,46.6115],
[16.2698,46.5459]
]
],
[
[
[17.5542,45.8898],
[17.6359,45.8898],
[17.6386,45.9554],
[17.5569,45.9554],
[17.5542,45.8898]
]
],
[
[
[18.3404,59.2947],
[18.612,59.2947],
[18.6176,59.3646],
[18.6288,59.5045],
[18.3513,59.4345],
[18.3404,59.2947]
]
],
[
[
[18.4667,42.6912],
[18.5468,42.6912],
[18.5498,42.7563],
[18.4697,42.7563],
[18.4667,42.6912]
]
],
[
[
[18.8148,43.2769],
[18.8952,43.2769],
[18.8984,43.3421],
[18.8179,43.3421],
[18.8148,43.2769]
]
],
[
[
[18.9883,43.5375],
[19.0688,43.5375],
[19.072,43.6027],
[18.9915,43.6027],
[18.9883,43.5375]
]
],
[
[
[19.1077,44.3201],
[19.4984,44.0591],
[19.4109,43.9286],
[19.4781,43.6678],
[19.8739,43.5375],
[20.101,43.2769],
[20.2618,43.2769],
[20.488,43.0165],
[20.8053,42.9515],
[20.8778,42.8213],
[21.6713,42.6912],
[22.0045,42.8864],
[22.013,43.0165],
[22.2626,43.1467],
[22.2757,43.3421],
[22.526,43.4723],
[22.374,43.6027],
[22.4009,43.9938],
[22.6569,44.1896],
[22.5044,44.3201],
[22.5182,44.516],
[22.6895,44.6466],
[21.9514,44.516],
[21.5635,44.7773],
[21.4013,44.7773],
[21.4264,45.1696],
[20.8694,45.3659],
[20.8118,45.7588],
[20.3337,45.9554],
[20.2634,46.1521],
[19.8509,46.0865],
[19.8365,45.8243],
[20.0776,45.7588],
[19.9924,45.6933],
[20.0556,45.3659],
[20.2922,45.235],
[20.0191,44.7119],
[19.857,44.7119],
[19.6242,44.908],
[19.3807,44.908],
[19.1175,44.516],
[19.1077,44.3201]
]
],
[
[
[20.3199,38.1578],
[20.3982,38.1578],
[20.4068,38.3515],
[20.3285,38.3515],
[20.3199,38.1578]
]
],
[
[
[20.4969,38.6097],
[20.6538,38.6097],
[20.5813,38.7389],
[20.5029,38.7389],
[20.4969,38.6097]
]
],
[
[
[20.6156,37.7707],
[20.6937,37.7707],
[20.6995,37.8998],
[20.6213,37.8998],
[20.6156,37.7707]
]
],
[
[
[20.766,37.6417],
[20.8441,37.6417],
[20.847,37.7062],
[20.7689,37.7062],
[20.766,37.6417]
]
],
[
[
[20.9808,40.4201],
[21.06,40.4201],
[21.0324,39.9023],
[21.2622,39.7729],
[21.2554,39.6436],
[22.2013,39.6436],
[22.1976,39.5789],
[22.7569,39.7083],
[22.7608,39.7729],
[22.6109,39.9023],
[22.7017,40.0964],
[22.5437,40.0964],
[22.5716,40.5496],
[22.8925,40.6144],
[22.9592,40.4201],
[23.7374,40.2259],
[23.8386,40.5496],
[23.6846,40.6144],
[23.698,40.8088],
[22.8641,41.3922],
[22.5292,41.1328],
[22.0526,41.1328],
[21.0777,40.744],
[20.9808,40.4201]
]
],
[
[
[21.8473,58.2504],
[21.9295,58.181],
[22.0191,58.181],
[21.8997,57.9038],
[22.0785,57.9038],
[22.2879,58.181],
[23.119,58.3892],
[23.2339,58.5977],
[22.2523,58.6673],
[22.1469,58.5282],
[21.8772,58.5282],
[21.8473,58.2504]
]
],
[
[
[21.9608,70.565],
[22.0627,70.565],
[22.0864,70.7201],
[21.9842,70.7201],
[21.9608,70.565]
]
],
[
[
[22.1529,70.4876],
[22.2547,70.4876],
[22.2907,70.7201],
[22.1885,70.7201],
[22.1529,70.4876]
]
],
[
[
[22.1857,58.8761],
[22.366,58.8761],
[22.3502,58.7369],
[22.7105,58.7369],
[22.8988,58.8065],
[22.8417,59.0853],
[22.4883,59.1551],
[22.2014,59.0155],
[22.1857,58.8761]
]
],
[
[
[22.8348,59.7846],
[23.0167,59.7846],
[23.0425,59.995],
[22.8603,59.995],
[22.8348,59.7846]
]
],
[
[
[23.0325,36.224],
[23.1101,36.224],
[23.1134,36.2884],
[23.0358,36.2884],
[23.0325,36.224]
]
],
[
[
[23.6154,35.5158],
[23.6792,35.2584],
[24.4484,35.194],
[24.7574,35.194],
[24.8237,35.001],
[26.1401,35.0653],
[26.2253,35.194],
[25.6806,35.1297],
[25.6923,35.3227],
[24.301,35.3227],
[24.1499,35.3871],
[24.1569,35.5158],
[23.6154,35.5158]
]
],
[
[
[24.491,40.8088],
[24.5513,40.5496],
[24.7936,40.6144],
[24.8081,40.8088],
[24.491,40.8088]
]
],
[
[
[24.7673,65.0042],
[24.9589,65.0042],
[24.982,65.1504],
[24.7902,65.1504],
[24.7673,65.0042]
]
],
[
[
[24.9739,39.8376],
[25.4473,39.8376],
[25.4619,40.0317],
[25.067,40.0317],
[24.9739,39.8376]
]
],
[
[
[25.3308,36.9971],
[25.5644,36.9971],
[25.5769,37.1904],
[25.4211,37.1904],
[25.3308,36.9971]
]
],
[
[
[25.7828,40.0964],
[25.8618,40.0964],
[25.8668,40.1612],
[25.7878,40.1612],
[25.7828,40.0964]
]
],
[
[
[25.7934,39.1911],
[26.1032,39.1265],
[26.0936,38.9972],
[26.2459,38.9326],
[26.6436,38.9972],
[26.5112,39.3203],
[26.1226,39.385],
[26.0439,39.385],
[25.7934,39.1911]
]
],
[
[
[25.8208,38.4806],
[25.8991,38.4806],
[25.8764,38.1578],
[26.1112,38.1578],
[26.2173,38.5451],
[25.9914,38.6743],
[25.913,38.6743],
[25.8208,38.4806]
]
],
[
[
[25.8442,40.8736],
[26.0822,40.8736],
[26.0769,40.8088],
[26.2354,40.8088],
[26.3419,41.1328],
[26.5969,41.3274],
[26.6139,41.522],
[26.3122,41.7167],
[26.0732,41.7167],
[26.1363,41.522],
[26.2159,41.522],
[26.1036,41.1328],
[25.8495,40.9384],
[25.8442,40.8736]
]
],
[
[
[26.5574,37.8352],
[26.6217,37.6417],
[27.012,37.6417],
[27.0263,37.8352],
[26.5574,37.8352]
]
],
[
[
[26.594,40.3554],
[26.6731,40.3554],
[26.6785,40.4201],
[26.5993,40.4201],
[26.594,40.3554]
]
],
[
[
[26.7685,40.5496],
[26.8477,40.5496],
[26.8532,40.6144],
[26.774,40.6144],
[26.7685,40.5496]
]
],
[
[
[28.9504,41.0032],
[29.0298,41.0032],
[29.0362,41.068],
[28.9567,41.068],
[28.9504,41.0032]
]
],
[
[
[29.1731,60.1355],
[29.2644,60.1355],
[29.2772,60.2058],
[29.1859,60.2058],
[29.1731,60.1355]
]
],
[
[
[29.8162,61.1227],
[29.9083,61.1227],
[29.9357,61.2643],
[29.8435,61.2643],
[29.8162,61.1227]
]
],
[
[
[29.8946,61.0519],
[29.9867,61.0519],
[30.0004,61.1227],
[29.9083,61.1227],
[29.8946,61.0519]
]
],
[
[
[29.9357,61.2643],
[30.1202,61.2643],
[30.1341,61.3351],
[29.9495,61.3351],
[29.9357,61.2643]
]
],
[
[
[29.973,60.9812],
[30.065,60.9812],
[30.0787,61.0519],
[29.9867,61.0519],
[29.973,60.9812]
]
],
[
[
[30.0513,60.9105],
[30.1432,60.9105],
[30.157,60.9812],
[30.065,60.9812],
[30.0513,60.9105]
]
],
[
[
[30.1295,60.8399],
[30.2213,60.8399],
[30.2351,60.9105],
[30.1432,60.9105],
[30.1295,60.8399]
]
],
[
[
[30.1341,61.3351],
[30.2264,61.3351],
[30.2404,61.406],
[30.148,61.406],
[30.1341,61.3351]
]
],
[
[
[30.1939,60.6987],
[30.2856,60.6987],
[30.2994,60.7693],
[30.3132,60.8399],
[30.2213,60.8399],
[30.1939,60.6987]
]
],
[
[
[30.2404,61.406],
[30.5317,61.477],
[30.2544,61.477],
[30.2404,61.406]
]
],
[
[
[30.2445,60.4873],
[30.3361,60.4873],
[30.3773,60.6987],
[30.2856,60.6987],
[30.2445,60.4873]
]
],
[
[
[30.2951,60.2761],
[30.3865,60.2761],
[30.4276,60.4873],
[30.3361,60.4873],
[30.2951,60.2761]
]
],
[
[
[30.3593,60.1355],
[30.4505,60.1355],
[30.4779,60.2761],
[30.3865,60.2761],
[30.3593,60.1355]
]
],
[
[
[30.3963,59.8547],
[30.4873,59.8547],
[30.5418,60.1355],
[30.4505,60.1355],
[30.3963,59.8547]
]
],
[
[
[30.5317,61.477],
[30.6241,61.477],
[30.6385,61.548],
[30.546,61.548],
[30.5317,61.477]
]
],
[
[
[30.6385,61.548],
[30.9305,61.619],
[30.6529,61.619],
[30.6385,61.548]
]
],
[
[
[30.8789,59.995],
[30.9701,59.995],
[31.012,60.2058],
[30.9207,60.2058],
[30.8789,59.995]
]
],
[
[
[30.9014,61.477],
[30.9939,61.477],
[31.0085,61.548],
[30.916,61.548],
[30.9014,61.477]
]
],
[
[
[30.9793,61.406],
[31.164,61.406],
[31.1787,61.477],
[30.9939,61.477],
[30.9793,61.406]
]
],
[
[
[31.012,60.2058],
[31.1033,60.2058],
[31.1174,60.2761],
[31.0261,60.2761],
[31.012,60.2058]
]
],
[
[
[31.1174,60.2761],
[31.3001,60.2761],
[31.3144,60.3465],
[31.1316,60.3465],
[31.1174,60.2761]
]
],
[
[
[31.1494,61.3351],
[31.334,61.3351],
[31.3488,61.406],
[31.164,61.406],
[31.1494,61.3351]
]
],
[
[
[31.2859,60.2058],
[31.5742,60.2761],
[31.3001,60.2761],
[31.2859,60.2058]
]
],
[
[
[31.3193,61.2643],
[31.5038,61.2643],
[31.5186,61.3351],
[31.334,61.3351],
[31.3193,61.2643]
]
],
[
[
[31.4889,61.1935],
[31.6733,61.1935],
[31.6882,61.2643],
[31.5038,61.2643],
[31.4889,61.1935]
]
],
[
[
[31.5454,60.1355],
[31.7279,60.1355],
[31.7424,60.2058],
[31.5598,60.2058],
[31.5454,60.1355]
]
],
[
[
[31.6584,61.1227],
[31.7505,61.1227],
[31.7655,61.1935],
[31.6733,61.1935],
[31.6584,61.1227]
]
],
[
[
[31.7207,60.9812],
[31.8127,60.9812],
[31.8276,61.0519],
[31.8426,61.1227],
[31.7505,61.1227],
[31.7207,60.9812]
]
],
[
[
[31.7424,60.2058],
[31.8337,60.2058],
[31.8777,60.4168],
[31.7862,60.4168],
[31.7424,60.2058]
]
],
[
[
[31.7978,60.9105],
[31.8897,60.9105],
[31.9047,60.9812],
[31.8127,60.9812],
[31.7978,60.9105]
]
],
[
[
[31.8748,60.8399],
[32.0585,60.8399],
[32.0736,60.9105],
[31.8897,60.9105],
[31.8748,60.8399]
]
],
[
[
[31.8777,60.4168],
[31.9692,60.4168],
[32.0137,60.6282],
[31.922,60.6282],
[31.8777,60.4168]
]
],
[
[
[32.0137,60.6282],
[32.1053,60.6282],
[32.1504,60.8399],
[32.0585,60.8399],
[32.0137,60.6282]
]
],
[
[
[33.9171,62.1172],
[34.0101,62.1172],
[34.0956,62.4742],
[34.0023,62.4742],
[33.9171,62.1172]
]
],
[
[
[33.9762,61.9746],
[34.0691,61.9746],
[34.0861,62.0459],
[34.1031,62.1172],
[34.0101,62.1172],
[33.9762,61.9746]
]
],
[
[
[34.0522,61.9034],
[34.145,61.9034],
[34.162,61.9746],
[34.0691,61.9746],
[34.0522,61.9034]
]
],
[
[
[34.0648,63.1195],
[34.1588,63.1195],
[34.1941,63.2634],
[34.1,63.2634],
[34.0648,63.1195]
]
],
[
[
[34.0956,62.4742],
[34.189,62.4742],
[34.2063,62.5457],
[34.2237,62.6173],
[34.1302,62.6173],
[34.0956,62.4742]
]
],
[
[
[34.128,61.8322],
[34.3135,61.8322],
[34.3306,61.9034],
[34.145,61.9034],
[34.128,61.8322]
]
],
[
[
[34.1412,63.0477],
[34.329,63.0477],
[34.3467,63.1195],
[34.1588,63.1195],
[34.1412,63.0477]
]
],
[
[
[34.1941,63.2634],
[34.2882,63.2634],
[34.306,63.3354],
[34.2118,63.3354],
[34.1941,63.2634]
]
],
[
[
[34.2237,62.6173],
[34.3172,62.6173],
[34.3346,62.6889],
[34.2411,62.6889],
[34.2237,62.6173]
]
],
[
[
[34.2314,31.4005],
[34.3076,31.4005],
[34.3128,31.4647],
[34.2366,31.4647],
[34.2314,31.4005]
]
],
[
[
[34.2704,63.1915],
[34.4585,63.1915],
[34.4764,63.2634],
[34.2882,63.2634],
[34.2704,63.1915]
]
],
[
[
[34.2965,61.7611],
[34.5918,61.8322],
[34.3135,61.8322],
[34.2965,61.7611]
]
],
[
[
[34.2997,62.5457],
[34.3931,62.5457],
[34.4106,62.6173],
[34.3172,62.6173],
[34.2997,62.5457]
]
],
[
[
[34.3113,62.9758],
[34.6106,63.0477],
[34.329,63.0477],
[34.3113,62.9758]
]
],
[
[
[34.3583,62.4027],
[34.4516,62.4027],
[34.4865,62.5457],
[34.3931,62.5457],
[34.3583,62.4027]
]
],
[
[
[34.4341,62.3313],
[34.5273,62.3313],
[34.5448,62.4027],
[34.4516,62.4027],
[34.4341,62.3313]
]
],
[
[
[34.4406,63.1195],
[34.7405,63.1915],
[34.4585,63.1915],
[34.4406,63.1195]
]
],
[
[
[34.5099,62.2599],
[34.6962,62.2599],
[34.7138,62.3313],
[34.5273,62.3313],
[34.5099,62.2599]
]
],
[
[
[34.5574,61.69],
[34.8526,61.7611],
[34.5746,61.7611],
[34.5574,61.69]
]
],
[
[
[34.5749,62.9041],
[34.8742,62.9758],
[34.5927,62.9758],
[34.5749,62.9041]
]
],
[
[
[34.6787,62.1885],
[34.7718,62.1885],
[34.7893,62.2599],
[34.6962,62.2599],
[34.6787,62.1885]
]
],
[
[
[34.7045,63.0477],
[35.0043,63.1195],
[34.7225,63.1195],
[34.7045,63.0477]
]
],
[
[
[34.7542,62.1172],
[34.8472,62.1172],
[34.8648,62.1885],
[34.7718,62.1885],
[34.7542,62.1172]
]
],
[
[
[34.8179,61.619],
[35.2058,61.69],
[34.8353,61.69],
[34.8179,61.619]
]
],
[
[
[34.8382,62.8323],
[34.9319,62.8323],
[34.9499,62.9041],
[34.8561,62.9041],
[34.8382,62.8323]
]
],
[
[
[34.8648,62.1885],
[34.9579,62.1885],
[35.1011,62.7606],
[35.0075,62.7606],
[34.8648,62.1885]
]
],
[
[
[34.9139,62.7606],
[35.0075,62.7606],
[35.0255,62.8323],
[34.9319,62.8323],
[34.9139,62.7606]
]
],
[
[
[34.968,62.9758],
[35.1556,62.9758],
[35.1739,63.0477],
[34.9861,63.0477],
[34.968,62.9758]
]
],
[
[
[35.1224,62.4742],
[35.2158,62.4742],
[35.2883,62.7606],
[35.1947,62.7606],
[35.1224,62.4742]
]
],
[
[
[35.1374,62.9041],
[35.2311,62.9041],
[35.2494,62.9758],
[35.1556,62.9758],
[35.1374,62.9041]
]
],
[
[
[35.1706,61.548],
[35.3556,61.548],
[35.3733,61.619],
[35.1882,61.619],
[35.1706,61.548]
]
],
[
[
[35.1798,62.3313],
[35.273,62.3313],
[35.3091,62.4742],
[35.2158,62.4742],
[35.1798,62.3313]
]
],
[
[
[35.2129,62.8323],
[35.3066,62.8323],
[35.3249,62.9041],
[35.2311,62.9041],
[35.2129,62.8323]
]
],
[
[
[35.2161,60.9812],
[35.3081,60.9812],
[35.3254,61.0519],
[35.2334,61.0519],
[35.2161,60.9812]
]
],
[
[
[35.2551,62.2599],
[35.3482,62.2599],
[35.3662,62.3313],
[35.273,62.3313],
[35.2551,62.2599]
]
],
[
[
[35.2883,62.7606],
[35.3819,62.7606],
[35.4002,62.8323],
[35.3066,62.8323],
[35.2883,62.7606]
]
],
[
[
[35.2908,60.9105],
[35.4747,60.9105],
[35.4921,60.9812],
[35.3081,60.9812],
[35.2908,60.9105]
]
],
[
[
[35.3254,61.0519],
[35.4175,61.0519],
[35.4349,61.1227],
[35.4524,61.1935],
[35.3602,61.1935],
[35.3254,61.0519]
]
],
[
[
[35.3302,62.1885],
[35.4233,62.1885],
[35.4414,62.2599],
[35.3482,62.2599],
[35.3302,62.1885]
]
],
[
[
[35.338,61.477],
[35.4305,61.477],
[35.4481,61.548],
[35.3556,61.548],
[35.338,61.477]
]
],
[
[
[35.3953,61.3351],
[35.4876,61.3351],
[35.5229,61.477],
[35.4305,61.477],
[35.3953,61.3351]
]
],
[
[
[35.4053,62.1172],
[35.4983,62.1172],
[35.5164,62.1885],
[35.4233,62.1885],
[35.4053,62.1172]
]
],
[
[
[35.4524,61.1935],
[35.5446,61.1935],
[35.5799,61.3351],
[35.4876,61.3351],
[35.4524,61.1935]
]
],
[
[
[35.4803,62.0459],
[35.6662,62.0459],
[35.6843,62.1172],
[35.4983,62.1172],
[35.4803,62.0459]
]
],
[
[
[35.4921,60.9812],
[35.6761,60.9812],
[35.6936,61.0519],
[35.5095,61.0519],
[35.4921,60.9812]
]
],
[
[
[35.6481,61.9746],
[35.741,61.9746],
[35.7591,62.0459],
[35.6662,62.0459],
[35.6481,61.9746]
]
],
[
[
[35.6936,61.0519],
[35.7857,61.0519],
[35.8034,61.1227],
[35.7113,61.1227],
[35.6936,61.0519]
]
],
[
[
[35.7219,32.7502],
[35.7985,32.7502],
[35.8103,32.8788],
[35.7338,32.8788],
[35.7219,32.7502]
]
],
[
[
[35.7229,61.9034],
[35.9085,61.9034],
[35.9268,61.9746],
[35.741,61.9746],
[35.7229,61.9034]
]
],
[
[
[35.7637,33.2002],
[35.8404,33.2002],
[35.8526,33.3288],
[35.7759,33.3288],
[35.7637,33.2002]
]
],
[
[
[35.8034,61.1227],
[35.9876,61.1227],
[36.0055,61.1935],
[35.8211,61.1935],
[35.8034,61.1227]
]
],
[
[
[35.8103,32.8788],
[35.8869,32.8788],
[35.9171,33.2002],
[35.8404,33.2002],
[35.8103,32.8788]
]
],
[
[
[35.8903,61.8322],
[35.9831,61.8322],
[36.0013,61.9034],
[35.9085,61.9034],
[35.8903,61.8322]
]
],
[
[
[35.9491,61.3351],
[36.0414,61.3351],
[36.0594,61.406],
[36.0775,61.477],
[35.985,61.477],
[35.9491,61.3351]
]
],
[
[
[35.9649,61.7611],
[36.0576,61.7611],
[36.0758,61.8322],
[35.9831,61.8322],
[35.9649,61.7611]
]
],
[
[
[36.0055,61.1935],
[36.0976,61.1935],
[36.1156,61.2643],
[36.1337,61.3351],
[36.0414,61.3351],
[36.0055,61.1935]
]
],
[
[
[36.0212,61.619],
[36.1138,61.619],
[36.132,61.69],
[36.1503,61.7611],
[36.0576,61.7611],
[36.0212,61.619]
]
],
[
[
[36.0775,61.477],
[36.1699,61.477],
[36.2063,61.619],
[36.1138,61.619],
[36.0775,61.477]
]
],
[
[
[39.5761,33.7146],
[39.6529,33.7146],
[39.66,33.7789],
[39.5832,33.7789],
[39.5761,33.7146]
]
],
[
[
[40.4728,34.1647],
[40.5497,34.1647],
[40.5572,34.229],
[40.4803,34.229],
[40.4728,34.1647]
]
],
[
[
[41.1894,35.001],
[41.2666,35.001],
[41.2745,35.0653],
[41.1973,35.0653],
[41.1894,35.001]
]
],
[
[
[43.7578,48.2578],
[43.895,48.1257],
[44.2262,48.1257],
[44.2156,48.4559],
[44.3962,48.522],
[44.4109,48.5881],
[44.0934,48.6542],
[43.8008,48.4559],
[43.7578,48.2578]
]
],
[
[
[44.5868,39.6436],
[44.7444,39.6436],
[44.7554,39.7083],
[44.5977,39.7083],
[44.5868,39.6436]
]
],
[
[
[47.6549,30.9506],
[47.807,30.9506],
[47.815,31.0148],
[47.6629,31.0148],
[47.6549,30.9506]
]
],
[
[
[47.7875,31.4005],
[47.8637,31.4005],
[47.8884,31.5933],
[47.8122,31.5933],
[47.7875,31.4005]
]
],
[
[
[47.8372,31.7861],
[47.9134,31.7861],
[47.9302,31.9146],
[47.854,31.9146],
[47.8372,31.7861]
]
],
[
[
[47.8884,31.5933],
[47.9646,31.5933],
[47.9897,31.7861],
[47.9134,31.7861],
[47.8884,31.5933]
]
],
[
[
[48.2787,41.9764],
[48.3585,41.9764],
[48.3721,42.0413],
[48.2923,42.0413],
[48.2787,41.9764]
]
],
[
[
[48.7074,38.4806],
[48.7858,38.4806],
[48.7974,38.5451],
[48.7189,38.5451],
[48.7074,38.4806]
]
]
]}
}
