{
"type": "Feature",
"properties": {"id":"cliopatria-chechen-republic-1992","edge_precision":"unknown","cliopatria_name":"Chechen Republic","cliopatria_from_year":1992,"cliopatria_to_year":1995,"cliopatria_area_km2":17433,"cliopatria_wikidata":"Q5187","cliopatria_wikipedia":"Chechnya"},
"geometry": {"type": "MultiPolygon", "coordinates": [
[
[
[44.6822,43.6027],
[44.9654,43.4072],
[44.9267,43.2118],
[45.007,43.2118],
[44.8374,42.7563],
[44.8247,42.6912],
[45.2253,42.6912],
[45.6673,42.4962],
[45.8403,42.5612],
[45.9725,42.8213],
[46.4266,43.0816],
[46.3999,43.3421],
[46.3195,43.3421],
[46.4812,43.733],
[46.3336,43.7982],
[46.3608,43.9286],
[46.2266,44.0591],
[45.7153,43.9286],
[45.4191,44.0591],
[45.2312,43.9286],
[44.734,43.8634],
[44.6822,43.6027]
]
]
]}
}
