{
"type": "Feature",
"properties": {"id":"cliopatria-yuan-dynasty-1363","edge_precision":"unknown","cliopatria_name":"Yuan Dynasty","cliopatria_from_year":1363,"cliopatria_to_year":1374,"cliopatria_area_km2":12200649,"cliopatria_wikidata":"Q7313","cliopatria_wikipedia":"Yuan dynasty","cliopatria_seshat_id":"cn_yuan_dyn"},
"geometry": {"type": "MultiPolygon", "coordinates": [
[
[
[80.9822,54.7491],
[81.2899,54.6811],
[81.2968,54.5453],
[81.604,54.4774],
[81.6109,54.3417],
[81.7843,54.3417],
[81.7913,54.2061],
[82.2777,54.0029],
[82.4254,53.6647],
[82.5978,53.6647],
[82.6523,53.4621],
[82.8244,53.4621],
[82.7853,53.3946],
[82.965,53.2596],
[82.8873,53.1248],
[83.0672,52.99],
[82.9901,52.8554],
[83.123,52.7881],
[83.0465,52.6535],
[83.1793,52.5863],
[83.1034,52.4519],
[83.2363,52.3847],
[83.1609,52.2505],
[83.2563,52.1163],
[83.0942,51.5134],
[83.1911,51.3797],
[83.0831,51.1792],
[83.1677,51.1792],
[83.1097,50.9122],
[83.2921,50.7788],
[83.2218,50.6455],
[83.4192,50.3791],
[83.9381,50.246],
[83.9035,50.1795],
[84.7574,50.0465],
[84.7227,49.98],
[85.0234,49.9136],
[85.1371,49.6479],
[85.3043,49.6479],
[85.2518,49.3826],
[85.5507,48.9851],
[85.4843,48.8527],
[85.6176,48.7865],
[85.5517,48.6542],
[85.6347,48.6542],
[85.5692,48.522],
[85.67,48.3899],
[85.4767,47.9938],
[85.5594,47.9938],
[85.5149,47.73],
[85.6169,47.5982],
[85.5541,47.4665],
[85.7387,47.3348],
[85.7276,47.1374],
[85.8921,47.1374],
[85.9635,46.9401],
[86.1278,46.9401],
[86.1993,46.7429],
[86.3634,46.7429],
[86.435,46.5459],
[86.5989,46.5459],
[86.7217,46.2833],
[88.4762,45.4968],
[88.4963,45.3659],
[88.923,45.235],
[88.9428,45.1042],
[89.3687,44.9734],
[89.3884,44.8426],
[89.9449,44.6466],
[89.9644,44.516],
[90.3885,44.3854],
[90.4079,44.2548],
[90.7505,44.1243],
[90.7088,43.8634],
[90.8395,43.7982],
[90.5583,43.0165],
[90.6386,43.0165],
[90.1222,40.9384],
[90.2784,40.744],
[90.5162,40.744],
[91.0143,40.4201],
[91.8305,40.2906],
[92.6947,39.7083],
[92.5901,39.2557],
[92.4856,39.1911],
[90.9487,38.6743],
[90.8752,38.4806],
[91.0374,38.2869],
[90.9414,38.0288],
[91.2847,37.8998],
[91.4479,37.7062],
[91.4008,37.5773],
[91.5334,37.5128],
[91.4634,37.3193],
[91.0046,37.126],
[90.9363,36.9326],
[91.3578,36.8037],
[91.3126,36.6749],
[91.3904,36.6749],
[91.7924,36.9326],
[92.3603,36.9971],
[92.6023,36.8037],
[93.544,36.6105],
[95.7694,35.4514],
[96.552,35.2584],
[97.4528,34.7436],
[97.6841,34.7436],
[97.7164,34.615],
[98.2881,34.4863],
[98.3205,34.3577],
[98.8473,34.1004],
[100.8563,33.9075],
[101.8738,33.5217],
[101.1784,31.6575],
[101.1022,31.6575],
[100.6794,29.7294],
[99.9815,28.8295],
[99.7382,28.7652],
[99.6983,28.3153],
[99.5313,28.251],
[99.4291,28.4438],
[99.4864,28.9581],
[99.4109,28.9581],
[99.531,29.4081],
[99.3971,29.4723],
[99.2351,29.1509],
[99.0253,29.2152],
[98.8687,28.3153],
[98.5351,28.1867],
[98.567,28.3153],
[98.3728,28.4438],
[98.1581,28.1867],
[98.26,27.6724],
[98.5612,27.6724],
[98.7865,27.3509],
[98.7442,26.8366],
[98.8194,26.8366],
[98.7623,26.5794],
[98.8374,26.5794],
[98.6865,25.8722],
[98.898,25.8079],
[98.8715,25.6793],
[99.0442,25.4221],
[99.0059,25.2293],
[99.0807,25.2293],
[98.95,24.1363],
[98.7326,23.7506],
[98.8707,23.6863],
[99.0066,23.172],
[99.5704,22.9791],
[99.2854,22.1434],
[99.9444,22.0791],
[100.0726,21.9505],
[100.0318,21.6934],
[100.2243,21.5005],
[100.7443,21.5005],
[101.1567,21.7577],
[101.1798,21.4363],
[101.3182,21.372],
[101.3619,21.1791],
[101.8074,21.1791],
[101.8792,21.6291],
[101.6443,22.0148],
[101.7182,22.4648],
[102.154,22.4005],
[102.5802,22.722],
[102.867,22.6577],
[102.9197,22.5291],
[103.2173,22.5291],
[103.3247,22.722],
[103.7713,22.722],
[103.9616,22.5291],
[104.1547,22.7863],
[104.5158,22.722],
[104.8361,22.8506],
[104.9561,23.1077],
[105.2143,23.3006],
[105.4379,23.3006],
[105.7526,22.9791],
[106.1995,22.9791],
[106.3254,22.8506],
[106.7093,22.9148],
[106.7722,22.8506],
[106.607,22.3363],
[106.7113,22.0791],
[107.2398,21.6934],
[107.4627,21.6934],
[107.5894,21.5648],
[107.9719,21.6291],
[108.0984,21.5005],
[108.1727,21.5005],
[108.5552,21.5648],
[108.6517,21.6934],
[109.0864,21.6291],
[109.1162,21.372],
[109.807,21.5005],
[109.8701,21.4363],
[109.696,20.8577],
[109.7702,20.8577],
[109.7895,20.5362],
[109.9268,20.472],
[109.8829,20.2148],
[110.4869,20.2791],
[110.6163,20.6005],
[110.3638,20.8577],
[110.4825,21.1148],
[110.4194,21.1791],
[110.7164,21.1791],
[110.7389,21.3077],
[110.9842,21.4363],
[111.6641,21.5005],
[111.8585,21.7577],
[112.4415,21.6934],
[112.7736,21.8863],
[113.071,21.8863],
[113.1063,22.0791],
[113.3175,22.0148],
[113.4156,22.1434],
[113.6387,22.1434],
[113.6987,22.4648],
[113.5985,22.722],
[113.7474,22.722],
[113.7852,22.5291],
[113.9963,22.4648],
[113.9986,22.0791],
[114.3704,22.0791],
[114.5311,22.1434],
[114.6408,22.722],
[114.7527,22.5291],
[114.9016,22.5291],
[115.1744,22.7863],
[115.3729,22.6577],
[115.6706,22.6577],
[115.6956,22.7863],
[116.54,22.9148],
[116.5914,23.172],
[116.815,23.172],
[116.7796,23.3649],
[116.8939,23.5577],
[117.1788,23.4934],
[117.47,23.8149],
[117.6938,23.8149],
[117.7213,23.9435],
[118.0757,24.2006],
[118.1474,24.5221],
[118.7597,24.5864],
[118.8191,24.8435],
[119.0737,24.9721],
[119.0295,25.1007],
[119.3442,25.165],
[119.3911,25.3579],
[119.2731,25.4864],
[119.4229,25.4864],
[119.466,25.3579],
[119.8721,25.4864],
[119.9044,25.615],
[119.5299,25.615],
[119.7784,26.0008],
[119.587,26.1294],
[119.9381,26.3222],
[119.8399,26.5151],
[120.0651,26.5151],
[120.2108,26.7723],
[119.9951,26.7229],
[120.0964,26.9009],
[120.2467,26.9009],
[120.3011,27.0938],
[120.545,27.158],
[120.7325,27.5438],
[120.6573,27.5438],
[120.7146,27.7367],
[120.8677,27.9938],
[121.0382,28.0581],
[121.118,28.3153],
[121.1934,28.3153],
[121.1533,28.1867],
[121.6459,28.3153],
[121.6521,28.5724],
[121.5218,28.6367],
[121.7143,28.7652],
[121.7443,29.0867],
[121.5389,29.1509],
[121.647,29.4723],
[121.5713,29.4723],
[121.5932,29.5366],
[121.7984,29.4723],
[121.7116,29.2152],
[121.9384,29.2152],
[122.016,29.6652],
[121.8645,29.6652],
[122.0298,29.9223],
[121.9766,29.9865],
[121.6202,30.0508],
[121.4841,30.3079],
[121.1047,30.3079],
[120.8088,30.1151],
[120.733,30.1151],
[120.7556,30.1794],
[120.6798,30.1794],
[120.7253,30.3079],
[120.8771,30.3079],
[121.0453,30.565],
[121.1972,30.565],
[121.5192,30.822],
[121.8993,30.822],
[121.9953,31.0791],
[121.7366,31.4005],
[121.5843,31.4005],
[121.9135,31.4647],
[121.9631,31.5933],
[121.8356,31.6575],
[121.9368,31.7218],
[121.9613,31.9789],
[121.5033,32.1717],
[121.4026,32.4931],
[120.9192,32.6216],
[120.9735,32.943],
[120.8969,32.943],
[120.8763,33.2645],
[120.7997,33.2645],
[120.5505,33.5859],
[120.4894,34.1647],
[120.3418,34.3577],
[119.8094,34.5506],
[119.7323,34.5506],
[119.7603,34.615],
[119.459,34.8079],
[119.2276,34.8079],
[119.6187,35.5158],
[119.9865,35.6445],
[120.3185,36.0308],
[120.6585,36.0952],
[120.7318,36.4172],
[120.9648,36.4172],
[120.9789,36.6105],
[121.2121,36.6105],
[121.9121,36.9326],
[122.1456,36.9326],
[122.1605,36.8037],
[122.5031,36.8682],
[122.5664,36.9971],
[122.4424,37.0615],
[122.7129,37.4483],
[122.1211,37.5128],
[122.1535,37.5773],
[121.4969,37.5128],
[121.4833,37.6417],
[121.171,37.6417],
[121.112,37.8352],
[120.7538,37.8998],
[120.1881,37.7062],
[120.2022,37.5773],
[119.8266,37.4483],
[119.7011,37.1904],
[119.1557,37.1904],
[119.14,37.3193],
[118.984,37.3193],
[119.2366,37.8352],
[119.3928,37.8352],
[119.4571,37.9643],
[118.7718,38.1578],
[118.8042,38.2224],
[118.6476,38.2224],
[118.583,38.0933],
[118.0674,38.1578],
[118.0536,38.2869],
[117.6025,38.4806],
[117.6549,38.7389],
[117.5764,38.7389],
[117.8884,39.1911],
[118.0457,39.1911],
[118.0569,39.0618],
[118.9894,39.1911],
[119.2153,39.3203],
[119.3452,39.7083],
[119.3804,39.7729],
[119.4593,39.7729],
[120.5003,40.2259],
[120.6473,40.4849],
[120.9967,40.6792],
[121.1098,40.8736],
[121.8237,40.8736],
[121.827,40.744],
[122.1061,40.6792],
[122.2306,40.4849],
[121.7765,39.967],
[121.5033,39.9023],
[121.4383,39.6436],
[121.2807,39.6436],
[121.2096,39.5143],
[121.2965,39.385],
[121.6901,39.385],
[121.5151,39.0618],
[121.2007,39.0618],
[121.0293,38.7389],
[121.4217,38.7389],
[121.7162,38.9972],
[121.9519,38.9972],
[122.1704,39.2557],
[122.936,39.6436],
[123.5974,39.8376],
[124.2286,39.8376],
[124.2657,39.9023],
[124.57,40.2906],
[125.0012,40.4849],
[127.9775,41.3274],
[129.6932,41.522],
[129.7352,41.5869],
[129.7823,41.7816],
[130.3221,42.2362],
[130.6054,42.3012],
[130.9048,42.6262],
[131.2251,42.6262],
[131.7539,43.2769],
[131.9147,43.2769],
[131.7787,43.0816],
[132.0999,43.0816],
[132.271,43.2118],
[132.2052,42.8864],
[132.6062,42.8864],
[132.5611,42.8213],
[132.997,42.7563],
[132.9519,42.6912],
[133.2723,42.6912],
[134.2218,43.0165],
[135.1096,43.4723],
[135.9866,44.4507],
[136.1484,44.4507],
[136.7191,45.1042],
[137.8591,45.9554],
[138.4251,46.6772],
[138.3431,46.6772],
[138.4999,46.8743],
[138.4178,46.8743],
[138.6286,47.1374],
[138.8995,47.269],
[139.3576,47.9278],
[140.0211,48.3238],
[140.2464,48.5881],
[140.1634,48.5881],
[140.2771,48.7204],
[140.194,48.7204],
[140.3658,48.9189],
[140.2825,48.9189],
[140.4644,49.3163],
[140.3809,49.3163],
[140.593,49.6479],
[140.4378,49.8471],
[140.7414,50.1795],
[140.4895,50.1795],
[140.5059,50.3791],
[140.4218,50.3791],
[140.5457,50.5122],
[140.4396,50.5789],
[140.5647,50.7121],
[140.4805,50.7121],
[140.7764,51.1124],
[140.6512,51.246],
[140.93,51.4465],
[140.8257,51.5134],
[140.9566,51.6472],
[141.4579,51.9822],
[141.3546,52.0492],
[141.5566,52.2505],
[141.1979,52.3176],
[141.2311,52.5191],
[141.1457,52.5191],
[141.3512,52.7208],
[141.2324,52.8554],
[141.3017,52.9227],
[141.114,52.99],
[141.464,53.3271],
[140.917,53.4621],
[140.9877,53.5296],
[140.8001,53.5971],
[140.8711,53.6647],
[140.6987,53.6647],
[140.7698,53.7323],
[140.5111,53.7323],
[140.5822,53.7999],
[140.2069,53.9352],
[140.2491,54.1384],
[140.076,54.1384],
[140.1335,54.2739],
[139.9603,54.2739],
[140.0325,54.3417],
[138.7323,54.3417],
[138.5184,54.1384],
[138.6204,54.0706],
[138.3768,54.0029],
[138.0961,53.7323],
[137.2677,53.5971],
[137.8581,54.0029],
[137.2366,54.0706],
[137.0272,53.8676],
[136.6818,53.8676],
[136.9121,54.3417],
[136.8093,54.4095],
[136.9512,54.5453],
[136.8487,54.6132],
[136.92,54.6811],
[135.6162,54.6811],
[135.687,54.7491],
[135.2358,54.8171],
[135.2748,55.0211],
[135.1876,55.0211],
[137.5389,57.4199],
[137.4499,57.4199],
[138.6984,58.8065],
[138.6083,58.8065],
[139.2684,59.4345],
[139.1716,59.5045],
[140.1908,60.5577],
[140.0955,60.6282],
[140.1836,60.6987],
[139.8094,60.8399],
[139.8979,60.9105],
[139.0706,60.9105],
[139.1588,60.9812],
[125.7034,61.1227],
[125.783,61.1935],
[117.3225,61.477],
[117.3971,61.548],
[113.646,61.406],
[109.979,60.7693],
[109.7714,60.8399],
[109.3852,60.6282],
[102.8301,59.4345],
[100.7768,59.3646],
[98.4635,59.0853],
[96.1785,58.5977],
[93.8439,58.2504],
[89.6987,57.9731],
[89.0635,57.8346],
[88.7552,57.9038],
[88.56,57.6271],
[88.148,57.4199],
[88.0935,57.2129],
[85.3236,55.5665],
[84.7562,55.3618],
[84.6243,55.43],
[84.5385,55.2936],
[84.1042,55.1573],
[82.0665,54.8171],
[81.0223,54.8171],
[80.9822,54.7491]
],
[
[119.6497,26.6437],
[119.685,26.7723],
[119.8537,26.6905],
[119.6497,26.6437]
]
],
[
[
[108.6382,18.5434],
[108.7646,18.4148],
[109.1233,18.3505],
[109.2497,18.2219],
[109.8406,18.2219],
[109.8622,18.3505],
[110.1794,18.4791],
[110.1903,18.5434],
[110.5078,18.6719],
[110.6806,19.2505],
[110.8507,19.3791],
[110.8839,19.5719],
[111.0319,19.5719],
[111.0874,19.8934],
[110.9095,20.1505],
[110.613,20.1505],
[110.591,20.022],
[110.1574,20.0862],
[109.2464,19.9577],
[109.2028,19.7005],
[108.7043,19.3791],
[108.6382,18.5434]
]
],
[
[
[121.9766,29.9865],
[122.2798,29.9865],
[122.2726,30.1794],
[122.045,30.1794],
[121.9766,29.9865]
]
]
]}
}
