{
"type": "Feature",
"properties": {"id":"cliopatria-zand-dynasty-1780","edge_precision":"unknown","cliopatria_name":"Zand Dynasty","cliopatria_from_year":1780,"cliopatria_to_year":1787,"cliopatria_area_km2":1585563,"cliopatria_wikidata":"Q97629053","cliopatria_wikipedia":"Zand dynasty"},
"geometry": {"type": "MultiPolygon", "coordinates": [
[
[
[44.071,39.385],
[44.1652,38.9972],
[44.3119,38.9326],
[44.308,38.416],
[44.4545,38.3515],
[44.306,37.8998],
[44.5889,37.7062],
[44.6276,37.4483],
[44.7738,37.3838],
[44.8521,36.8682],
[45.0567,36.6749],
[45.0964,36.4172],
[45.3785,36.224],
[45.3502,36.0308],
[45.787,35.8377],
[46.2518,35.8377],
[46.0591,35.5802],
[46.1484,35.1297],
[45.8121,34.9366],
[45.6898,34.615],
[45.5356,34.615],
[45.5002,34.3577],
[45.6453,34.2933],
[45.439,33.9075],
[45.5928,33.9075],
[46.1378,33.3931],
[46.2312,32.943],
[46.6821,32.8788],
[46.9456,32.5574],
[47.3194,32.4931],
[47.5994,32.3002],
[47.5824,32.1717],
[47.9813,31.7218],
[47.7957,31.4647],
[47.739,31.0148],
[48.1031,30.8863],
[48.0478,30.4364],
[48.2755,30.4364],
[48.4117,30.3079],
[48.3884,30.1151],
[48.6005,29.9865],
[48.6763,29.9865],
[48.9873,30.0508],
[48.9428,30.3079],
[49.5859,29.9865],
[50.0648,30.1794],
[50.2363,29.7294],
[50.6513,29.4081],
[50.6203,29.1509],
[50.915,29.0867],
[50.809,28.8295],
[51.0281,28.7652],
[51.0662,28.4438],
[51.3313,28.1224],
[51.3168,27.9938],
[51.5967,27.8009],
[52.0486,27.8009],
[52.4787,27.6081],
[52.737,27.2223],
[53.4606,26.9652],
[53.6581,26.708],
[54.2589,26.708],
[54.4632,26.5151],
[54.8316,26.4508],
[55.2423,26.7723],
[55.5427,26.7723],
[55.3102,26.708],
[55.2889,26.5151],
[55.439,26.5151],
[55.6034,26.6437],
[56.0612,26.708],
[56.3086,26.9009],
[56.3236,27.0295],
[56.0981,27.0295],
[56.1884,27.158],
[56.7147,27.158],
[57.0524,26.8366],
[57.1148,26.0651],
[57.3795,25.7436],
[57.6792,25.7436],
[57.7402,25.615],
[57.958,25.5507],
[58.7817,25.5507],
[59.0602,25.3579],
[60.6321,25.3579],
[60.6178,25.2293],
[60.9171,25.2293],
[61.1274,25.1007],
[61.5834,25.165],
[61.6582,25.165],
[61.854,26.1937],
[62.4277,26.5794],
[63.1118,26.6437],
[63.2789,26.7723],
[63.3308,27.158],
[62.822,27.2866],
[62.9028,27.8652],
[62.8274,27.8652],
[62.7984,28.1867],
[61.8743,28.5724],
[61.4882,29.0224],
[61.4516,29.2795],
[60.9257,29.7937],
[60.9562,29.9865],
[61.3872,30.3079],
[61.8746,30.9506],
[61.9191,31.2076],
[61.7243,31.4005],
[61.1151,31.4005],
[60.8439,31.5933],
[60.8814,32.236],
[60.6574,32.6859],
[60.693,32.8788],
[60.6164,32.8788],
[60.6884,33.2645],
[60.8906,33.5217],
[60.5959,33.5859],
[60.5684,33.8432],
[60.4915,33.8432],
[60.5664,34.229],
[60.8354,34.422],
[60.2955,34.8079],
[59.4078,35.001],
[58.0059,34.9366],
[57.9533,35.0653],
[57.734,35.1297],
[58.0783,35.7089],
[58.5633,37.3193],
[58.6413,37.3193],
[58.9951,38.2224],
[57.7496,38.6097],
[56.4304,38.6743],
[56.3747,38.416],
[56.0067,38.1578],
[55.5372,38.1578],
[55.015,37.8998],
[54.7153,37.9643],
[53.8826,37.7062],
[53.9105,37.4483],
[54.0947,37.1904],
[54.0333,36.8682],
[53.0877,36.8037],
[52.1859,36.546],
[51.642,36.546],
[50.8207,36.7393],
[50.532,36.8682],
[50.6323,36.9971],
[50.5657,37.0615],
[50.3209,36.9971],
[49.9988,37.3838],
[49.0851,37.5128],
[48.8285,37.8352],
[48.7742,38.416],
[48.7858,38.4806],
[48.801,38.9972],
[48.9155,39.1911],
[49.1635,39.2557],
[49.1757,39.3203],
[49.0305,39.385],
[49.0008,39.6436],
[48.7766,39.7083],
[48.7225,39.8376],
[48.0913,39.8376],
[47.8973,39.6436],
[47.4913,39.5789],
[47.2986,39.385],
[47.2199,39.385],
[46.6684,38.9326],
[45.872,38.868],
[45.0726,39.2557],
[44.7554,39.7083],
[44.5189,39.7083],
[44.3967,39.4496],
[44.071,39.385]
]
]
]}
}
