{
"type": "Feature",
"properties": {"id":"cliopatria-sultanate-of-brunei-1885","edge_precision":"unknown","cliopatria_name":"Sultanate of Brunei","cliopatria_from_year":1885,"cliopatria_to_year":1889,"cliopatria_area_km2":12017,"cliopatria_wikidata":"Q887803","cliopatria_wikipedia":"Bruneian Sultanate (1368-1888)"},
"geometry": {"type": "MultiPolygon", "coordinates": [
[
[
[114.0457,4.4644],
[114.5342,4.0786],
[114.5238,3.8858],
[114.5967,3.8858],
[114.5899,3.7572],
[114.8051,3.6929],
[115.277,4.3358],
[115.2806,4.4001],
[115.1688,4.9787],
[115.0959,4.9787],
[114.7354,5.0429],
[114.2753,4.6572],
[114.0567,4.6572],
[114.0457,4.4644]
]
]
]}
}
