{
"type": "Feature",
"properties": {"id":"cliopatria-majapahit-1402","edge_precision":"unknown","cliopatria_name":"Majapahit","cliopatria_from_year":1402,"cliopatria_to_year":1474,"cliopatria_area_km2":1001500,"cliopatria_wikidata":"Q49326","cliopatria_wikipedia":"Majapahit","cliopatria_seshat_id":"id_majapahit_k"},
"geometry": {"type": "MultiPolygon", "coordinates": [
[
[
[95.0655,5.1715],
[95.1979,4.9144],
[96.2436,3.9501],
[96.2377,3.8215],
[96.5989,3.7572],
[96.8815,3.5643],
[97.1476,2.9857],
[97.5036,2.7929],
[97.5558,2.2786],
[97.9173,2.2143],
[98.6259,1.7],
[98.6122,1.3143],
[98.8112,0.7357],
[98.9527,0.6071],
[98.9409,0.2214],
[99.1592,0.2214],
[99.2281,0.0928],
[99.4596,0.0285],
[99.6063,-0.1001],
[99.6841,-0.4215],
[100.2014,-0.8715],
[100.2832,-1.3215],
[100.7331,-1.9001],
[100.7446,-2.3501],
[100.8973,-2.6073],
[101.2688,-2.8644],
[101.4264,-3.2502],
[102.097,-3.7002],
[102.1814,-4.0216],
[103.0862,-4.7931],
[103.2319,-4.7931],
[103.7588,-5.1788],
[103.7646,-5.3074],
[103.9953,-5.5645],
[104.141,-5.5645],
[104.3025,-5.8859],
[104.5973,-5.9502],
[104.5055,-5.5645],
[104.8064,-5.7574],
[105.171,-5.7574],
[105.2345,-5.5645],
[105.3929,-5.8217],
[105.6877,-5.8859],
[105.7795,-4.7288],
[105.8524,-4.7288],
[105.7558,-4.1502],
[105.8941,-3.9573],
[105.7342,-3.5716],
[105.946,-3.3787],
[106.008,-3.0573],
[105.6358,-2.8001],
[105.477,-2.3501],
[104.8199,-2.2858],
[104.8131,-2.0287],
[104.5202,-1.9644],
[104.3566,-1.193],
[104.207,-1.0001],
[103.6247,-1.0001],
[103.3286,-0.7429],
[103.3229,-0.4215],
[103.6129,-0.3572],
[103.6108,-0.2286],
[103.3915,-0.1643],
[103.7534,-0.0358],
[103.6024,0.35],
[103.3174,0.5428],
[103.0991,0.5428],
[102.9494,0.4142],
[102.9619,0.8],
[103.1074,0.8],
[103.1117,0.9285],
[102.8272,1.1214],
[102.3904,1.1214],
[102.4065,1.5714],
[101.6809,1.6357],
[101.6129,1.7643],
[101.6857,1.7643],
[101.698,2.0857],
[101.4093,2.15],
[101.2587,2.0214],
[100.9073,2.3429],
[100.6889,2.3429],
[100.6813,2.15],
[100.3926,2.2143],
[100.2625,2.6],
[100.1143,2.5357],
[100.1196,2.6643],
[99.9038,2.7286],
[99.9147,2.9857],
[99.5647,3.3072],
[99.419,3.3072],
[99.1423,3.6286],
[98.7112,3.7572],
[98.5777,4.0143],
[98.2894,4.0786],
[98.2387,4.5286],
[98.0234,4.5929],
[97.7587,5.1072],
[97.3317,5.3001],
[97.3283,5.2358],
[97.3943,5.1072],
[97.1588,4.7858],
[97.086,4.7858],
[96.7912,4.7215],
[95.8604,5.0429],
[95.652,5.2358],
[95.6693,5.5572],
[95.7422,5.5572],
[95.7457,5.6215],
[95.239,5.6858],
[95.0861,5.5572],
[95.0655,5.1715]
]
],
[
[
[100.3719,4.9144],
[100.5108,4.7858],
[100.4811,4.2072],
[100.8145,3.5643],
[101.2339,3.1786],
[101.2172,2.7929],
[101.4275,2.6],
[101.7161,2.5357],
[101.7108,2.4072],
[101.9215,2.2143],
[102.145,2.3429],
[102.4337,2.2786],
[102.3507,2.0214],
[102.632,1.7643],
[103.064,1.6357],
[103.2753,1.4428],
[103.2707,1.3143],
[104.1441,1.3143],
[104.2311,1.7],
[103.9548,2.0857],
[103.9626,2.2786],
[103.8276,2.5357],
[103.4044,2.8572],
[103.3667,3.6286],
[103.4812,4.4644],
[103.4084,4.4644],
[103.3631,4.9787],
[103.1662,5.3644],
[102.4062,6.0715],
[102.4101,6.1358],
[101.8427,6.393],
[101.5111,6.9073],
[100.8546,6.9073],
[100.7214,7.1002],
[100.6484,7.1002],
[100.567,6.9716],
[100.7045,6.843],
[100.6759,6.393],
[101.0938,6.0715],
[100.9067,5.3644],
[100.8338,5.3644],
[100.3753,4.9787],
[100.3719,4.9144]
]
],
[
[
[103.176,0.6714],
[103.3943,0.6714],
[103.3964,0.7357],
[103.4007,0.8643],
[103.1823,0.8643],
[103.176,0.6714]
]
],
[
[
[103.7668,0.9285],
[104.0601,0.9928],
[104.0668,1.1857],
[103.9235,1.25],
[103.7734,1.1214],
[103.7668,0.9285]
]
],
[
[
[104.1224,-0.3572],
[104.1268,-0.6144],
[104.4191,-0.6786],
[104.4863,-0.3572],
[104.4124,-0.2929],
[104.9229,-0.3572],
[104.9208,-0.2286],
[104.5537,0.0285],
[104.3354,0.0285],
[104.3396,-0.2929],
[104.2669,-0.2929],
[104.2679,-0.3572],
[104.1224,-0.3572]
]
],
[
[
[104.1307,0.9285],
[104.2762,0.9285],
[104.3447,0.8],
[104.4903,0.8],
[104.574,1.1214],
[104.2123,1.1857],
[104.1307,0.9285]
]
],
[
[
[104.957,-1.9644],
[105.1077,-2.1573],
[105.6173,-2.1573],
[105.77,-2.4144],
[105.7815,-2.8001],
[106.4492,-3.1859],
[106.8091,-3.0573],
[106.8029,-2.8644],
[106.5844,-2.8644],
[106.5804,-2.7359],
[106.7241,-2.6716],
[106.7222,-2.6073],
[106.2069,-2.4144],
[105.9651,-1.5144],
[105.6011,-1.5144],
[105.6042,-1.643],
[105.2372,-1.5144],
[105.2449,-1.8358],
[104.957,-1.9644]
]
],
[
[
[107.4503,-2.6073],
[107.4687,-3.1859],
[108.1242,-3.1859],
[108.1804,-2.6716],
[108.0308,-2.543],
[107.5212,-2.543],
[107.5231,-2.6073],
[107.4503,-2.6073]
]
],
[
[
[107.8953,3.8858],
[108.0377,3.8215],
[108.1009,3.6286],
[108.2466,3.6286],
[108.2498,3.6929],
[108.3226,3.6929],
[108.3422,4.0786],
[107.9814,4.1429],
[107.8953,3.8858]
]
],
[
[
[108.6584,-1.5144],
[108.6615,-1.643],
[108.8799,-1.643],
[108.8767,-1.5144],
[108.6584,-1.5144]
]
],
[
[
[108.7009,0.4785],
[108.9798,0.0928],
[108.9291,-0.5501],
[109.2214,-0.6144],
[109.0809,-0.8715],
[109.3733,-0.9358],
[109.3089,-1.3215],
[109.5273,-1.3215],
[109.6685,-1.1287],
[109.8912,-1.3215],
[109.899,-1.643],
[109.755,-1.7073],
[109.76,-1.9001],
[109.9818,-2.0287],
[110.086,-3.0573],
[110.4458,-2.9287],
[110.4501,-3.0573],
[111.0349,-3.1216],
[111.1033,-2.993],
[111.6109,-2.9287],
[111.709,-3.6359],
[111.8546,-3.6359],
[112.0636,-3.3787],
[112.6485,-3.443],
[112.9988,-3.0573],
[113.0785,-3.2502],
[113.4426,-3.2502],
[113.5249,-3.5073],
[113.8162,-3.5073],
[113.8843,-3.3787],
[114.1756,-3.3787],
[114.1804,-3.5073],
[114.3965,-3.443],
[114.5004,-4.2145],
[114.6461,-4.2145],
[115.5015,-3.7645],
[115.72,-3.7645],
[115.7877,-3.6359],
[115.9334,-3.6359],
[116.0247,-4.0859],
[116.2378,-3.9573],
[116.1279,-2.993],
[116.3396,-2.8001],
[116.2583,-2.543],
[116.4768,-2.543],
[116.4687,-2.2858],
[116.5415,-2.2858],
[116.5376,-2.1573],
[116.3192,-2.1573],
[116.3882,-2.0287],
[116.3065,-1.7073],
[116.4521,-1.7073],
[116.447,-1.5144],
[116.6621,-1.3858],
[116.659,-1.2572],
[117.0214,-1.193],
[117.1611,-0.9358],
[117.5222,-0.8072],
[117.4467,-0.6786],
[117.5156,-0.4858],
[117.3689,-0.4215],
[117.3617,0.0285],
[117.5863,0.6714],
[117.882,0.8],
[117.8913,1.0571],
[117.2339,0.9928],
[117.1542,0.8],
[116.9313,0.6714],
[116.7686,0.1571],
[116.7843,-0.2929],
[116.5734,-0.6786],
[116.2849,-0.8072],
[116.148,-1.193],
[116.0039,-1.2572],
[115.6566,-1.9001],
[115.7426,-2.3501],
[115.6698,-2.3501],
[115.6779,-2.6073],
[115.1881,-3.1859],
[114.8968,-3.1859],
[114.7399,-2.8644],
[114.5193,-2.8001],
[114.515,-2.6716],
[113.7869,-2.6716],
[113.1235,-2.4144],
[112.6887,-2.4787],
[112.4783,-2.7359],
[112.1143,-2.7359],
[111.9548,-2.2858],
[111.6636,-2.2858],
[111.3781,-2.4787],
[111.0849,-2.4144],
[111.0888,-2.543],
[110.5772,-2.4787],
[110.3896,-0.8072],
[109.7284,-0.4858],
[109.7206,0.0285],
[109.4993,0.4142],
[109.5078,0.6714],
[109.435,0.6714],
[109.4438,0.9285],
[109.6713,1.1857],
[109.6784,1.3786],
[109.824,1.3786],
[109.756,1.5071],
[109.9818,1.7],
[109.6255,1.8929],
[109.6307,2.0214],
[109.3395,2.0214],
[109.1058,1.6357],
[108.8825,1.5071],
[108.7009,0.4785]
]
],
[
[
[109.2409,-6.8503],
[109.2525,-7.0431],
[109.4023,-7.1074],
[109.4913,-7.3646],
[110.0144,-7.5574],
[109.8941,-7.9432],
[109.8985,-8.0074],
[110.6464,-8.2646],
[111.8922,-8.3289],
[112.2667,-8.4575],
[112.8508,-8.4575],
[112.9874,-8.3289],
[113.2065,-8.3289],
[113.7416,-8.6503],
[114.1798,-8.6503],
[114.2677,-8.8432],
[114.4869,-8.8432],
[114.4719,-8.6503],
[114.3161,-8.5217],
[114.3747,-8.3289],
[114.9832,-8.6503],
[114.9302,-8.9075],
[115.0763,-8.9075],
[115.3434,-8.586],
[115.6305,-8.5217],
[115.6112,-8.2646],
[115.305,-8.0717],
[114.4336,-8.136],
[114.3514,-8.0074],
[114.4107,-7.8146],
[114.2559,-7.686],
[113.0925,-7.7503],
[112.7146,-7.5574],
[112.6935,-7.236],
[113.2814,-7.3003],
[113.7838,-7.1717],
[113.8486,-7.0431],
[113.9945,-7.0431],
[113.9094,-6.8503],
[112.6004,-6.9145],
[112.5314,-6.9788],
[112.5235,-6.8503],
[112.1627,-6.9145],
[111.936,-6.786],
[111.6442,-6.786],
[111.4869,-6.5931],
[111.0531,-6.6574],
[110.8923,-6.4002],
[110.5314,-6.4645],
[110.339,-6.9145],
[109.2409,-6.8503]
]
],
[
[
[115.0765,-6.8503],
[115.1617,-7.0431],
[115.2347,-7.0431],
[115.3765,-6.9788],
[115.2913,-6.786],
[115.0765,-6.8503]
]
],
[
[
[115.7185,-8.7146],
[115.7337,-8.9075],
[116.4693,-8.9718],
[116.4488,-8.7146],
[116.6529,-8.5217],
[116.6382,-8.3289],
[116.4825,-8.2003],
[116.1175,-8.2003],
[115.9129,-8.3932],
[115.9376,-8.7146],
[115.7185,-8.7146]
]
],
[
[
[116.6,-8.7789],
[116.6206,-9.036],
[116.8504,-9.1646],
[117.4295,-9.1003],
[117.5651,-8.9718],
[118.0711,-8.9075],
[118.1338,-8.7789],
[118.2799,-8.7789],
[118.2903,-8.9075],
[118.7233,-8.8432],
[118.7181,-8.7789],
[119.0833,-8.7789],
[118.8967,-8.2646],
[118.5365,-8.3289],
[118.3077,-8.2003],
[118.1715,-8.3289],
[118.006,-8.0717],
[117.3538,-8.136],
[117.3683,-8.3289],
[117.5825,-8.2646],
[118.0505,-8.6503],
[117.7635,-8.7146],
[117.5193,-8.3932],
[116.8621,-8.3932],
[116.6529,-8.5217],
[116.673,-8.7789],
[116.6,-8.7789]
]
],
[
[
[118.7775,-9.4861],
[118.9463,-9.7432],
[119.4638,-9.8075],
[120.0173,-10.2575],
[120.4622,-10.3218],
[120.5353,-10.3218],
[120.7424,-10.1932],
[120.7183,-9.9361],
[120.4755,-9.6789],
[120.1773,-9.6146],
[120.0085,-9.3575],
[118.9855,-9.3575],
[118.7775,-9.4861]
]
],
[
[
[119.2088,-8.5217],
[119.292,-8.6503],
[119.365,-8.6503],
[119.506,-8.586],
[119.4177,-8.3932],
[119.2717,-8.3932],
[119.2088,-8.5217]
]
],
[
[
[119.4433,-8.7146],
[119.4537,-8.8432],
[119.6676,-8.7789],
[119.7512,-8.9075],
[120.6224,-8.8432],
[120.7792,-8.9718],
[121.2906,-8.9718],
[121.2798,-8.8432],
[121.7234,-8.9075],
[121.9318,-8.7789],
[122.6568,-8.7146],
[122.7087,-8.4575],
[122.7922,-8.586],
[122.9383,-8.586],
[123.0008,-8.4575],
[123.1521,-8.5217],
[123.1574,-8.586],
[123.5225,-8.586],
[123.512,-8.4575],
[123.7258,-8.3932],
[123.7833,-8.2003],
[123.2774,-8.2646],
[123.2147,-8.3932],
[123.2043,-8.2646],
[122.9123,-8.2646],
[122.8242,-8.0717],
[122.6051,-8.0717],
[122.6254,-8.3289],
[122.4793,-8.3289],
[122.281,-8.586],
[121.9785,-8.4575],
[121.3265,-8.5217],
[120.722,-8.2646],
[120.0649,-8.2646],
[120.0019,-8.3932],
[119.7148,-8.4575],
[119.6572,-8.6503],
[119.4433,-8.7146]
]
],
[
[
[121.6575,-10.5789],
[121.877,-10.5789],
[121.8579,-10.3861],
[121.7117,-10.3861],
[121.6575,-10.5789]
]
],
[
[
[121.6841,-5.1145],
[121.7743,-5.4359],
[121.9894,-5.3716],
[121.8993,-5.0502],
[121.8265,-5.0502],
[121.6841,-5.1145]
]
],
[
[
[122.1387,-5.4359],
[122.4303,-5.4359],
[122.4412,-5.6288],
[122.8093,-5.6931],
[122.7983,-5.5002],
[123.0863,-5.4359],
[122.9129,-4.9216],
[123.1217,-4.7288],
[123.033,-4.4073],
[122.8144,-4.4073],
[122.6781,-4.6002],
[122.4595,-4.6002],
[122.1776,-4.7931],
[122.1387,-5.4359]
]
],
[
[
[122.6946,-10.7075],
[122.7211,-10.9647],
[123.0071,-10.9004],
[123.0004,-10.8361],
[123.2864,-10.7718],
[123.2603,-10.5147],
[122.6946,-10.7075]
]
],
[
[
[122.7003,-1.2572],
[122.7106,-1.643],
[122.8561,-1.643],
[122.9254,-1.5144],
[123.0017,-1.643],
[123.1473,-1.643],
[123.4332,-1.4501],
[123.4282,-1.2572],
[123.1371,-1.2572],
[123.0611,-1.1287],
[122.9883,-1.1287],
[122.7003,-1.2572]
]
],
[
[
[123.1743,-10.3861],
[123.8325,-10.3861],
[124.106,-10.1932],
[124.3985,-10.1932],
[124.459,-10.0646],
[124.6053,-10.0646],
[124.5928,-9.9361],
[124.8669,-9.7432],
[124.8548,-9.6146],
[125.0563,-9.4218],
[125.7637,-9.1646],
[125.8367,-9.1646],
[126.6175,-8.9075],
[126.6793,-8.7789],
[126.8984,-8.7789],
[127.1739,-8.586],
[127.2306,-8.3932],
[126.6412,-8.3289],
[126.5058,-8.4575],
[124.9831,-8.586],
[124.516,-9.1003],
[123.9429,-9.2289],
[123.6679,-9.4218],
[123.6796,-9.5503],
[123.4171,-9.8718],
[123.5148,-10.1289],
[123.2223,-10.1289],
[123.1743,-10.3861]
]
],
[
[
[123.7988,-8.3932],
[123.804,-8.4575],
[123.9607,-8.586],
[124.1744,-8.5217],
[124.1587,-8.3289],
[124.2475,-8.5217],
[124.9724,-8.4575],
[125.0245,-8.2003],
[124.3623,-8.136],
[124.3725,-8.2646],
[124.0023,-8.2003],
[123.7988,-8.3932]
]
],
[
[
[124.2392,-1.643],
[124.2506,-2.0287],
[125.1931,-1.9001],
[125.1146,-1.7073],
[124.5304,-1.643],
[124.2392,-1.643]
]
],
[
[
[125.262,-1.7715],
[125.2659,-1.9001],
[125.4862,-1.9644],
[125.7046,-1.9644],
[125.792,-2.4144],
[126.0126,-2.4787],
[125.923,-1.9644],
[126.0686,-1.9644],
[126.1356,-1.7715],
[125.262,-1.7715]
]
],
[
[
[125.6661,-8.0074],
[126.3961,-8.0074],
[126.537,-7.9432],
[126.5269,-7.8146],
[126.6729,-7.8146],
[126.5072,-7.5574],
[126.2931,-7.6217],
[126.2201,-7.6217],
[125.7142,-7.686],
[125.6661,-8.0074]
]
],
[
[
[125.8906,-3.1216],
[125.9063,-3.5073],
[126.3573,-3.8287],
[126.4301,-3.8287],
[126.6515,-3.893],
[127.1528,-3.7002],
[127.2145,-3.443],
[127.0583,-3.1859],
[126.8348,-3.0573],
[125.8906,-3.1216]
]
],
[
[
[127.7138,-3.1859],
[127.7244,-3.443],
[127.87,-3.443],
[127.9348,-3.2502],
[128.0779,-3.1859],
[128.0831,-3.3144],
[128.3826,-3.5073],
[128.5282,-3.5073],
[128.6657,-3.3144],
[128.9625,-3.443],
[129.7608,-3.3787],
[129.9148,-3.5716],
[130.7306,-3.893],
[130.786,-3.5073],
[130.562,-3.3787],
[130.5513,-3.1216],
[130.4005,-2.993],
[129.9635,-2.993],
[129.6648,-2.8001],
[128.2813,-2.8001],
[127.779,-2.993],
[127.7138,-3.1859]
]
],
[
[
[127.8027,-3.5716],
[127.814,-3.8287],
[128.2453,-3.7002],
[128.2369,-3.5073],
[127.9483,-3.5716],
[127.8027,-3.5716]
]
]
]}
}
