{
"type": "Feature",
"properties": {"id":"cliopatria-byzantine-empire-0990","edge_precision":"unknown","cliopatria_name":"Byzantine Empire","cliopatria_from_year":990,"cliopatria_to_year":999,"cliopatria_area_km2":835220,"cliopatria_wikidata":"Q112039853","cliopatria_wikipedia":"Byzantine Empire","cliopatria_seshat_id":"tr_byzantine_emp_2"},
"geometry": {"type": "MultiPolygon", "coordinates": [
[
[
[14.9865,44.4507],
[15.0674,44.4507],
[15.0692,44.516],
[14.9882,44.516],
[14.9865,44.4507]
]
],
[
[
[15.0657,44.3854],
[15.1466,44.3854],
[15.1484,44.4507],
[15.0674,44.4507],
[15.0657,44.3854]
]
],
[
[
[15.1432,44.2548],
[15.224,44.2548],
[15.2205,44.1243],
[15.3839,44.1896],
[15.3875,44.3201],
[15.1466,44.3854],
[15.1432,44.2548]
]
],
[
[
[15.3127,41.5869],
[15.377,41.0032],
[15.5358,41.0032],
[15.4415,40.4201],
[15.5206,40.4201],
[15.5898,40.0317],
[15.7478,40.0317],
[15.6655,39.9023],
[15.8989,39.7729],
[16.1165,39.0618],
[16.2703,38.9326],
[16.2652,38.7389],
[15.9497,38.6743],
[15.9419,38.3515],
[15.6271,38.2869],
[15.6982,37.9643],
[15.9328,37.9643],
[16.4919,38.416],
[16.5024,38.8034],
[16.663,38.9326],
[17.1383,39.0618],
[17.0697,39.385],
[16.4473,39.6436],
[16.4548,39.9023],
[16.6975,40.0964],
[16.6245,40.2906],
[16.8617,40.2906],
[16.945,40.4201],
[16.868,40.4849],
[17.0285,40.5496],
[17.3452,40.5496],
[17.4175,40.3554],
[17.8131,40.3554],
[18.1122,39.9023],
[18.3489,39.9023],
[18.4381,40.1612],
[17.9812,40.6144],
[17.5107,40.744],
[17.2027,41.0032],
[15.9439,41.3922],
[15.8738,41.7167],
[16.1149,41.7816],
[16.1189,41.9114],
[15.401,41.9114],
[15.4754,41.7167],
[15.3127,41.5869]
]
],
[
[
[15.9271,43.4723],
[16.1685,43.4723],
[16.2533,43.6027],
[16.5732,43.5375],
[16.6537,43.5375],
[16.6583,43.6678],
[15.9332,43.6678],
[15.9312,43.6027],
[16.0117,43.6027],
[15.9271,43.4723]
]
],
[
[
[17.438,43.0165],
[17.5105,42.8213],
[17.8339,42.8864],
[18.1435,42.6262],
[18.852,42.3662],
[19.3862,41.8465],
[19.7084,41.9114],
[19.715,42.0413],
[19.6352,42.0413],
[18.4814,43.0165],
[17.7644,43.1467],
[17.6788,43.0165],
[17.438,43.0165]
]
],
[
[
[17.6656,42.6912],
[17.7457,42.6912],
[17.7483,42.7563],
[17.6682,42.7563],
[17.6656,42.6912]
]
],
[
[
[19.7578,39.6436],
[19.9125,39.5789],
[19.9214,39.7729],
[19.7637,39.7729],
[19.7578,39.6436]
]
],
[
[
[20.3199,38.1578],
[20.7865,38.0933],
[20.7954,38.2869],
[20.5664,38.416],
[20.4881,38.416],
[20.3285,38.3515],
[20.3199,38.1578]
]
],
[
[
[20.3729,39.3203],
[20.911,39.0618],
[20.7414,38.8034],
[20.9737,38.7389],
[21.1933,38.416],
[21.7384,38.3515],
[21.7286,38.1578],
[21.4156,38.1578],
[21.2436,37.8352],
[21.6966,37.5128],
[21.6031,37.1904],
[21.681,37.1904],
[21.7435,36.8682],
[21.8992,36.8682],
[21.9085,37.0615],
[22.22,37.0615],
[22.3563,36.6749],
[22.5118,36.6749],
[22.5994,36.8682],
[22.8328,36.8682],
[23.056,36.6749],
[22.8532,37.2549],
[22.7007,37.3193],
[22.7144,37.5773],
[22.9486,37.5773],
[23.1756,37.4483],
[23.1685,37.3193],
[23.4024,37.3193],
[23.3425,37.6417],
[23.1083,37.6417],
[23.0445,37.8998],
[23.2008,37.8998],
[23.2082,38.0288],
[23.4428,38.0288],
[23.9786,37.8352],
[24.0021,38.2224],
[24.1587,38.2224],
[24.1789,38.5451],
[24.0302,38.6743],
[23.5634,38.7389],
[23.6261,38.4806],
[23.3126,38.4806],
[23.1672,38.6743],
[22.9356,38.7389],
[23.0254,38.9326],
[23.3318,38.8034],
[23.4928,38.868],
[22.9583,39.1265],
[22.7973,39.0618],
[22.8163,39.385],
[23.1352,39.4496],
[22.6109,39.9023],
[22.7017,40.0964],
[22.5437,40.0964],
[22.5716,40.5496],
[22.8925,40.6144],
[22.9592,40.4201],
[23.7374,40.2259],
[23.8386,40.5496],
[23.6846,40.6144],
[23.698,40.8088],
[24.0106,40.744],
[24.3466,41.0032],
[25.8495,40.9384],
[26.0822,40.8736],
[26.1403,40.6144],
[26.5472,40.744],
[26.621,40.6792],
[26.7795,40.6792],
[26.774,40.6144],
[26.9324,40.6144],
[26.7685,40.5496],
[26.9214,40.4849],
[27.0172,40.6792],
[27.5275,41.068],
[29.1156,41.068],
[29.1028,40.9384],
[29.2486,40.8088],
[29.493,40.8736],
[29.3944,40.6792],
[28.9127,40.6144],
[28.9004,40.4849],
[29.0463,40.3554],
[27.9388,40.3554],
[27.9505,40.4849],
[27.7921,40.4849],
[27.6958,40.2906],
[27.5376,40.2906],
[27.4698,40.4201],
[26.6731,40.3554],
[26.6839,40.4849],
[26.6047,40.4849],
[26.2723,40.2906],
[26.1325,39.5143],
[26.8466,39.5789],
[26.7422,39.2557],
[26.8945,39.1911],
[26.8793,38.9972],
[26.9579,38.9972],
[26.8495,38.6097],
[27.0798,38.5451],
[27.065,38.3515],
[26.595,38.3515],
[26.5358,38.6097],
[26.3837,38.6743],
[26.4289,38.2224],
[26.8203,38.2224],
[26.889,38.0933],
[27.2753,38.0288],
[27.1777,37.7707],
[27.2559,37.7707],
[27.1634,37.5773],
[27.31,37.4483],
[27.2225,37.3193],
[27.5392,37.3838],
[27.598,37.126],
[28.0653,37.126],
[28.1383,37.0615],
[28.0314,36.6749],
[28.1869,36.6749],
[28.3571,36.8682],
[28.5905,36.8682],
[28.7361,36.7393],
[29.1249,36.7393],
[29.2397,36.224],
[29.938,36.224],
[30.0261,36.3528],
[30.4919,36.3528],
[30.6191,36.9326],
[31.086,36.9326],
[32.0681,36.6105],
[32.4985,36.224],
[32.5583,36.0308],
[32.7134,36.0308],
[33.2744,36.224],
[33.9791,36.2884],
[34.2507,36.6749],
[34.5816,36.8682],
[34.8929,36.8682],
[34.9504,36.6749],
[35.1127,36.7393],
[35.4877,36.6105],
[35.8336,36.9326],
[36.1449,36.9326],
[36.2862,36.8037],
[36.2649,36.6105],
[35.8486,36.3528],
[35.9901,36.224],
[35.8449,35.5802],
[35.9929,35.5158],
[35.8891,35.2584],
[35.927,34.8723],
[36.0552,34.615],
[36.2159,34.6793],
[36.293,34.6793],
[36.3128,34.8723],
[36.165,34.9366],
[36.1849,35.1297],
[36.3527,35.2584],
[36.3433,35.902],
[36.6884,36.224],
[37.0131,36.3528],
[37.0276,36.4816],
[37.2826,36.6749],
[38.3942,36.8682],
[38.4876,36.9971],
[38.7211,36.9971],
[38.737,37.126],
[39.3929,37.3838],
[40.6927,37.7707],
[41.3958,37.7707],
[41.3779,37.6417],
[41.5942,37.5128],
[41.5764,37.3838],
[41.8104,37.3838],
[42.1734,38.2869],
[42.4771,38.2224],
[42.4962,38.3515],
[42.0739,38.6743],
[42.1321,39.0618],
[42.2305,39.1911],
[42.4665,39.1911],
[42.5753,39.385],
[42.9211,39.5789],
[42.8631,39.7083],
[42.5477,39.7083],
[42.5684,39.8376],
[41.6317,39.9023],
[41.7515,40.1612],
[40.586,40.2906],
[40.5269,40.4201],
[40.2995,40.4849],
[40.5776,40.744],
[41.2643,41.068],
[41.2276,41.3274],
[41.2383,41.3922],
[41.0473,41.1977],
[40.5393,41.0032],
[40.3909,41.068],
[40.3703,40.9384],
[39.7355,40.9384],
[39.0509,41.1328],
[38.7834,40.9384],
[38.2977,40.8736],
[38.1581,41.0032],
[37.8312,40.9384],
[37.7706,41.068],
[37.2147,41.068],
[37.2332,41.1977],
[37.0651,41.1328],
[36.7748,41.3274],
[36.2092,41.2625],
[35.9538,41.7167],
[35.3075,41.6518],
[35.086,41.7816],
[35.1212,42.0413],
[34.8817,42.0413],
[34.7845,41.9114],
[32.6308,41.9114],
[32.6947,41.7816],
[32.1934,41.5869],
[32.0417,41.6518],
[32.0265,41.522],
[31.5342,41.3922],
[31.1801,41.068],
[30.6242,41.068],
[30.4792,41.1977],
[28.9631,41.1328],
[28.9695,41.1977],
[28.3525,41.3922],
[28.2183,41.6518],
[27.9794,41.6518],
[27.937,42.0413],
[27.4949,42.4312],
[27.5135,42.6262],
[27.8466,42.7563],
[27.8659,42.9515],
[27.7856,42.9515],
[27.792,43.0165],
[25.7629,42.7563],
[25.7572,42.6912],
[25.6771,42.6912],
[24.5045,42.0413],
[24.4945,41.9114],
[24.7983,41.7167],
[24.7781,41.4571],
[24.5247,41.2625],
[24.2067,41.2625],
[23.4734,41.0032],
[22.9972,41.0032],
[22.5045,40.744],
[22.3857,40.0964],
[22.682,39.7729],
[22.6742,39.6436],
[22.8279,39.5789],
[22.4116,39.1911],
[20.376,39.385],
[20.3729,39.3203]
]
],
[
[
[20.6127,37.7062],
[20.9221,37.6417],
[20.934,37.8998],
[20.6213,37.8998],
[20.6127,37.7062]
]
],
[
[
[22.874,36.1596],
[23.1068,36.1596],
[23.1168,36.3528],
[22.9649,36.4172],
[22.8872,36.4172],
[22.874,36.1596]
]
],
[
[
[23.4849,38.7389],
[23.5634,38.7389],
[23.5673,38.8034],
[23.4888,38.8034],
[23.4849,38.7389]
]
],
[
[
[23.6154,35.5158],
[23.6792,35.2584],
[24.4484,35.194],
[24.7574,35.194],
[24.8237,35.001],
[26.1401,35.0653],
[26.2253,35.194],
[25.6806,35.1297],
[25.6923,35.3227],
[24.301,35.3227],
[24.1499,35.3871],
[24.1569,35.5158],
[23.6154,35.5158]
]
],
[
[
[24.2013,37.6417],
[24.2716,37.5128],
[24.4316,37.5773],
[24.3614,37.7062],
[24.2833,37.7062],
[24.2013,37.6417]
]
],
[
[
[24.3565,38.868],
[24.662,38.7389],
[24.6749,38.9326],
[24.4435,38.9972],
[24.365,38.9972],
[24.3565,38.868]
]
],
[
[
[24.491,40.8088],
[24.5513,40.5496],
[24.7936,40.6144],
[24.8081,40.8088],
[24.491,40.8088]
]
],
[
[
[24.6819,37.8352],
[24.83,37.7062],
[25.0685,37.7707],
[24.7724,38.0288],
[24.6942,38.0288],
[24.6819,37.8352]
]
],
[
[
[24.9739,39.8376],
[25.4473,39.8376],
[25.4619,40.0317],
[25.067,40.0317],
[24.9739,39.8376]
]
],
[
[
[24.9862,37.7062],
[25.0519,37.5128],
[25.286,37.5128],
[25.2205,37.7062],
[24.9862,37.7062]
]
],
[
[
[25.3308,36.9971],
[25.5644,36.9971],
[25.5727,37.126],
[25.339,37.126],
[25.3308,36.9971]
]
],
[
[
[25.7038,40.0964],
[26.0249,40.1612],
[26.0351,40.2906],
[25.7188,40.2906],
[25.7038,40.0964]
]
],
[
[
[25.7934,39.1911],
[26.1032,39.1265],
[26.0936,38.9972],
[26.2459,38.9326],
[26.6436,38.9972],
[26.5112,39.3203],
[26.1226,39.385],
[26.0439,39.385],
[25.7934,39.1911]
]
],
[
[
[25.8208,38.4806],
[25.8991,38.4806],
[25.8764,38.1578],
[26.1112,38.1578],
[26.2173,38.5451],
[25.9914,38.6743],
[25.913,38.6743],
[25.8208,38.4806]
]
],
[
[
[25.9882,37.5128],
[26.3049,37.5773],
[26.3139,37.7062],
[26.0796,37.7062],
[25.9882,37.5128]
]
],
[
[
[26.8653,36.6749],
[27.1854,36.8037],
[27.1168,36.9326],
[27.0389,36.9326],
[26.8653,36.6749]
]
],
[
[
[27.6925,36.2884],
[27.7426,35.902],
[28.1393,36.0308],
[28.2502,36.4816],
[28.0171,36.4816],
[27.6925,36.2884]
]
],
[
[
[32.229,34.9366],
[32.3667,34.7436],
[33.0436,34.5506],
[33.1321,34.6793],
[33.5234,34.7436],
[33.6954,34.9366],
[34.0873,35.001],
[33.9571,35.2584],
[34.5294,35.5802],
[34.5421,35.7089],
[34.3098,35.7089],
[33.7374,35.3871],
[32.8869,35.3871],
[32.8752,35.2584],
[32.5547,35.1297],
[32.2458,35.1297],
[32.229,34.9366]
]
],
[
[
[33.4488,44.516],
[33.5298,44.516],
[33.521,44.4507],
[33.7638,44.4507],
[34.0966,44.516],
[34.3671,44.7119],
[34.3855,44.8426],
[34.2416,44.9734],
[34.0793,44.9734],
[34.0884,45.0388],
[33.6011,45.0388],
[33.5476,44.6466],
[33.4665,44.6466],
[33.4488,44.516]
]
]
]}
}
