{
"type": "Feature",
"properties": {"id":"cliopatria-principality-of-transylvania-1622","edge_precision":"unknown","cliopatria_name":"Principality of Transylvania","cliopatria_from_year":1622,"cliopatria_to_year":1661,"cliopatria_area_km2":111717,"cliopatria_wikidata":"Q655621","cliopatria_wikipedia":"Principality of Transylvania (1570-1711)","cliopatria_seshat_id":"ro_transylvania_principality"},
"geometry": {"type": "MultiPolygon", "coordinates": [
[
[
[20.6832,47.6641],
[20.819,47.2032],
[21.1439,47.1374],
[21.1312,46.9401],
[21.3691,46.8086],
[21.6154,46.8086],
[21.7617,46.5459],
[22.4128,46.4802],
[22.3987,46.2833],
[22.4806,46.2833],
[22.3802,46.0209],
[21.5332,45.5623],
[21.5204,45.3659],
[21.8416,45.3004],
[22.1445,44.9734],
[22.6317,44.9734],
[22.7364,45.3004],
[23.1382,45.235],
[23.4735,45.3659],
[23.4836,45.4968],
[25.0423,45.6278],
[25.3453,45.3659],
[25.4382,45.4968],
[25.8455,45.4968],
[25.9389,45.6278],
[26.1019,45.6278],
[26.4404,45.7588],
[26.4779,46.1521],
[25.9421,46.5459],
[25.9668,46.8086],
[25.7266,46.8743],
[25.6689,47.1374],
[25.0166,47.2032],
[25.0343,47.4006],
[24.8813,47.5323],
[24.905,47.7959],
[24.5862,47.9278],
[24.6867,48.1257],
[24.3672,48.2578],
[24.379,48.3899],
[24.053,48.4559],
[23.8269,48.7204],
[23.0897,48.8527],
[22.7784,49.1175],
[22.4398,49.0513],
[22.3358,48.7865],
[21.7441,48.6542],
[21.642,48.3899],
[21.4715,48.3238],
[21.4577,48.1257],
[21.0306,47.9278],
[20.8482,47.6641],
[20.6832,47.6641]
]
]
]}
}
