{
"type": "Feature",
"properties": {"id":"cliopatria-shaybanids-1507","edge_precision":"unknown","cliopatria_name":"Shaybanids","cliopatria_from_year":1507,"cliopatria_to_year":1511,"cliopatria_area_km2":1747804,"cliopatria_wikidata":"Q856361","cliopatria_wikipedia":"Shaybanids","cliopatria_seshat_id":"uz_shaybanid_k"},
"geometry": {"type": "MultiPolygon", "coordinates": [
[
[
[52.5926,35.7733],
[52.8798,35.6445],
[54.1182,35.6445],
[55.1482,35.7733],
[55.8744,35.5158],
[56.6049,34.8723],
[56.5812,34.7436],
[56.8541,34.5506],
[56.8841,34.2933],
[57.122,33.9075],
[57.0875,33.7146],
[57.2296,33.6502],
[57.2067,33.5217],
[57.5875,33.0716],
[57.5428,32.8145],
[57.8917,32.1717],
[58.0479,31.2719],
[58.3007,30.9506],
[58.3767,30.9506],
[60.1045,30.822],
[61.6574,30.565],
[62.3627,30.6935],
[62.7984,31.0148],
[63.1139,31.0791],
[63.2475,31.4005],
[63.5874,31.5933],
[63.6111,31.7218],
[64.7123,32.6859],
[64.7636,32.943],
[64.9558,33.1359],
[64.9317,33.3931],
[65.1885,33.5217],
[65.3191,33.7789],
[66.3279,36.224],
[66.964,36.2884],
[67.3832,36.0952],
[68.4228,36.224],
[68.5464,36.0952],
[68.624,36.0952],
[68.878,36.8037],
[68.6773,36.9326],
[68.7101,37.0615],
[68.4765,37.0615],
[68.5094,37.1904],
[69.0103,37.3193],
[69.1161,37.126],
[69.3498,37.126],
[69.546,37.5773],
[70.1704,37.5773],
[70.1878,37.6417],
[70.2832,37.7062],
[70.1619,37.8352],
[70.2147,38.0288],
[70.3889,38.0933],
[70.4246,38.2224],
[70.7137,38.416],
[71.2622,38.416],
[71.6126,38.5451],
[72.4894,39.385],
[73.0993,39.3203],
[73.2966,39.4496],
[73.6903,39.4496],
[73.8882,39.5789],
[73.9533,40.0317],
[73.8,40.2906],
[73.8485,40.6792],
[73.733,40.8088],
[73.8199,41.068],
[73.6693,41.3274],
[73.7136,41.4571],
[73.634,41.4571],
[73.6088,41.8465],
[73.3799,42.1063],
[72.7411,42.1063],
[72.3066,42.2362],
[71.9426,42.1063],
[71.1878,42.2362],
[70.8611,41.9764],
[70.3608,41.9114],
[70.1858,42.1063],
[70.1923,42.3662],
[70.1123,42.3662],
[70.3235,42.7563],
[70.2073,42.8864],
[70.2961,43.1467],
[71.3524,44.3201],
[70.428,44.4507],
[70.1393,44.3201],
[66.6778,44.1243],
[66.6617,44.3201],
[66.4243,44.5813],
[66.2623,44.5813],
[66.1055,44.8426],
[65.4011,45.1696],
[65.3628,45.3004],
[64.9174,45.4313],
[64.8787,45.5623],
[63.0315,46.4145],
[61.6815,46.8086],
[61.6607,46.7429],
[61.2512,45.9554],
[61.3329,45.9554],
[61.2523,45.6933],
[61.3339,45.6933],
[61.3352,45.4313],
[61.7222,45.3659],
[61.5823,44.908],
[61.42,44.908],
[61.3805,44.7773],
[60.8969,44.516],
[60.7808,44.1243],
[60.6001,44.0591],
[60.3865,43.6027],
[60.1075,43.4723],
[59.1235,43.4072],
[58.6329,43.6678],
[58.4175,43.4723],
[58.3371,43.4723],
[57.3291,43.0165],
[57.2034,42.2362],
[57.2833,42.2362],
[57.279,41.9114],
[57.4514,41.6518],
[57.4018,41.4571],
[57.2099,41.3274],
[56.4305,41.068],
[55.859,41.0032],
[54.6836,41.068],
[54.6683,41.0032],
[54.4001,40.8736],
[54.3701,40.744],
[53.8006,40.6792],
[53.4044,40.6792],
[53.4482,40.8736],
[53.3397,40.744],
[52.9433,40.744],
[52.9723,40.8736],
[52.893,40.8736],
[52.7927,40.4201],
[52.7135,40.4201],
[52.7877,40.0317],
[53.4985,40.0317],
[53.5449,39.5143],
[53.1375,39.4496],
[53.5176,39.385],
[53.9868,38.9972],
[53.8298,37.8352],
[53.9079,37.8352],
[53.9105,37.4483],
[54.0947,37.1904],
[54.0333,36.8682],
[53.2433,36.8037],
[53.1655,36.8037],
[53.1842,36.4816],
[52.9823,36.224],
[52.7381,36.1596],
[52.5926,35.7733]
]
]
]}
}
