{
"type": "Feature",
"properties": {"id":"cliopatria-ziyadid-dynasty-1072","edge_precision":"unknown","cliopatria_name":"Ziyadid dynasty","cliopatria_from_year":1072,"cliopatria_to_year":1084,"cliopatria_area_km2":134858,"cliopatria_wikidata":"Q207017","cliopatria_wikipedia":"Ziyadid dynasty"},
"geometry": {"type": "MultiPolygon", "coordinates": [
[
[
[43.0016,14.3646],
[43.0566,13.9789],
[43.2648,13.7218],
[43.2356,13.0789],
[43.447,12.886],
[43.4386,12.6932],
[44.3886,12.6289],
[44.6143,12.7575],
[45.0541,12.7575],
[45.7411,13.336],
[46.8446,13.4003],
[47.668,13.7218],
[47.7515,13.9146],
[48.7861,14.0432],
[49.017,14.2361],
[49.0242,14.3646],
[49.4832,14.6861],
[49.1233,14.8147],
[48.5354,14.8147],
[47.8114,15.0075],
[47.5284,15.2004],
[46.7269,15.329],
[46.6533,15.329],
[46.1494,15.5218],
[46.2303,15.6504],
[46.3774,15.6504],
[46.4697,15.9718],
[46.1753,15.9718],
[46.0206,15.8433],
[45.579,15.8433],
[45.3656,15.9718],
[45.2883,15.9076],
[45.2147,15.9076],
[45.0424,15.4575],
[44.8953,15.4575],
[44.8883,15.329],
[44.6677,15.329],
[44.5103,15.1361],
[44.2128,15.0718],
[44.0525,14.8147],
[43.7553,14.7504],
[43.522,14.4932],
[43.0047,14.4289],
[43.0016,14.3646]
]
]
]}
}
