{
"type": "Feature",
"properties": {"id":"cliopatria-sur-empire-1552","edge_precision":"unknown","cliopatria_name":"Sur Empire","cliopatria_from_year":1552,"cliopatria_to_year":1555,"cliopatria_area_km2":1209808,"cliopatria_wikidata":"Q373650","cliopatria_wikipedia":"Sur Empire","cliopatria_seshat_id":"in_sur_emp"},
"geometry": {"type": "MultiPolygon", "coordinates": [
[
[
[69.2794,31.8503],
[69.4187,31.7861],
[69.3531,31.4647],
[69.4293,31.4647],
[69.2879,29.5366],
[69.3636,29.5366],
[69.3177,29.2795],
[69.4576,29.2152],
[69.4126,28.9581],
[69.573,28.5724],
[69.6512,27.6724],
[69.8364,27.4152],
[70.1373,27.4152],
[70.4832,27.2223],
[73.2887,26.9009],
[74.5245,26.6437],
[76.6481,26.7723],
[76.9272,26.6437],
[76.7688,26.1294],
[76.764,25.615],
[77.0344,25.4221],
[77.3533,25.5507],
[77.5682,25.4864],
[77.5504,24.3292],
[77.9288,23.8149],
[78.4169,23.5577],
[80.0574,23.5577],
[81.6681,23.8792],
[82.6381,23.8792],
[82.8246,24.1363],
[84.1684,24.1363],
[84.178,24.2006],
[84.2527,24.2006],
[84.3923,24.1363],
[86.2885,24.3292],
[86.3235,24.072],
[85.9671,23.6863],
[85.8968,23.4291],
[85.855,23.4291],
[85.8457,23.3649],
[85.8792,23.3649],
[85.8089,23.1077],
[86.0978,23.0434],
[86.294,22.8506],
[86.5918,22.8506],
[86.5469,22.5291],
[86.8178,22.3363],
[86.8395,21.9505],
[86.9882,21.9505],
[86.9707,21.822],
[87.2593,21.7577],
[87.3819,21.5648],
[87.762,21.6291],
[88.1777,21.9505],
[88.1335,21.6291],
[88.3477,21.5648],
[88.3653,21.6934],
[88.5139,21.6934],
[88.6416,22.0791],
[88.716,22.0791],
[88.728,21.6291],
[89.0995,21.6291],
[89.1173,21.7577],
[89.7118,21.7577],
[89.8695,21.822],
[89.8966,22.0148],
[90.232,21.7577],
[90.4263,22.0791],
[90.6494,22.0791],
[90.631,21.9505],
[90.8632,22.0148],
[90.9378,22.5291],
[90.7983,22.5934],
[90.6875,22.8506],
[90.5386,22.8506],
[90.6419,23.0434],
[90.6864,23.8149],
[90.6118,23.8149],
[90.5463,24.7792],
[90.4716,24.7792],
[90.516,25.0364],
[90.36,25.4221],
[90.3921,26.0008],
[90.0173,26.0008],
[89.604,26.1937],
[89.154,26.1937],
[88.8784,26.3222],
[88.3532,26.3222],
[88.2276,26.4508],
[87.2399,26.3865],
[87.252,26.4508],
[86.6516,26.4508],
[86.3126,26.6437],
[85.787,26.6437],
[85.7362,26.7723],
[85.2735,26.708],
[85.0723,26.8366],
[84.9972,26.8366],
[85.0094,26.9009],
[84.7333,27.0295],
[84.7579,27.158],
[84.4318,27.4152],
[83.0776,27.4152],
[82.5377,27.7367],
[81.885,27.8652],
[81.1945,28.1867],
[80.957,28.5081],
[80.6811,28.6367],
[80.1656,28.701],
[80.1293,28.8938],
[79.4797,29.4081],
[79.3963,29.7294],
[79.2586,29.7937],
[79.1906,30.1794],
[79.1148,30.1794],
[79.1573,30.3722],
[79.0814,30.3722],
[79.1343,31.2719],
[79.1493,31.3362],
[79.1034,31.4647],
[78.7529,31.5933],
[77.3037,31.9146],
[77.0439,32.1074],
[76.5246,32.1717],
[76.4022,32.3002],
[75.3326,32.3002],
[75.2098,32.4288],
[74.3988,32.5574],
[74.2142,32.7502],
[73.6319,32.8788],
[73.5088,33.0073],
[73.5694,33.2645],
[73.4927,33.2645],
[73.4167,33.9075],
[73.3398,33.9075],
[73.3282,34.4863],
[73.2511,34.4863],
[71.9431,34.8079],
[71.5254,34.3577],
[71.4183,33.9075],
[70.9891,33.7146],
[70.7763,33.4574],
[70.6229,33.4574],
[70.5791,33.2645],
[70.3969,33.1359],
[70.3682,33.0073],
[70.4448,33.0073],
[70.3256,32.8145],
[69.3654,32.6216],
[69.2794,31.8503]
]
]
]}
}
