{
"type": "Feature",
"properties": {"id":"cliopatria-kannauj-varman-dynasty-0741","edge_precision":"unknown","cliopatria_name":"Kannauj-Varman Dynasty","cliopatria_from_year":741,"cliopatria_to_year":750,"cliopatria_area_km2":573391,"cliopatria_wikidata":"Q614890","cliopatria_wikipedia":"Kannauj","cliopatria_seshat_id":"in_kannauj_varman_dyn"},
"geometry": {"type": "MultiPolygon", "coordinates": [
[
[
[74.078,27.15],
[74.497,27.27],
[74.887,26.963],
[75.179,27.142],
[76.84,25.988],
[77.416,25.854],
[78.263,25.406],
[79.14,25.123],
[80.322,24.933],
[80.882,24.666],
[81.253,24.685],
[82.341,25.5],
[83.208,25.296],
[83.572,24.986],
[84.86,24.33],
[85.5122,24.1161],
[86.17,24.4432],
[86.4377,25.3387],
[86.2571,26.1438],
[85.4046,27.1705],
[84.078,27.469],
[83.531,27.415],
[82.306,27.744],
[80.093,28.886],
[80.916,30.214],
[77.511,32.596],
[76.568,33.374],
[76.377,32.571],
[76.277,32.509],
[75.627,33.095],
[75.103,33.128],
[74.755,33.024],
[74.692,32.658],
[74.847,29.664],
[75.446,28.367],
[74.162,27.904],
[74.078,27.15]
]
]
]}
}
