{
"type": "Feature",
"properties": {"id":"cliopatria-qin-316bce","edge_precision":"unknown","cliopatria_name":"Qin","cliopatria_from_year":-315,"cliopatria_to_year":-278,"cliopatria_area_km2":632147,"cliopatria_wikidata":"Q1471995","cliopatria_wikipedia":"Qin (state)","cliopatria_member_of":"(Warring States China)"},
"geometry": {"type": "MultiPolygon", "coordinates": [
[
[
[100.5975,30.5007],
[100.6735,30.5007],
[100.6743,30.2436],
[100.8648,30.1151],
[100.8279,29.9865],
[101.0187,29.858],
[100.9824,29.7294],
[101.1556,29.5366],
[101.4404,29.4723],
[101.4805,29.3438],
[102.602,29.0224],
[102.9273,28.8295],
[103.8568,28.6367],
[103.8978,28.5081],
[104.066,28.5724],
[105.1286,28.3153],
[106.0686,28.4438],
[106.0284,28.5724],
[107.4594,28.8295],
[110.2829,29.9223],
[110.3587,29.9223],
[110.2273,29.9865],
[110.4056,30.3079],
[109.9158,30.4364],
[109.4763,30.9506],
[109.4752,31.4005],
[109.3125,31.5933],
[109.8693,32.943],
[109.7637,33.0716],
[109.8596,33.3288],
[110.2149,33.4574],
[110.3129,33.7146],
[110.4912,33.7789],
[110.514,34.0361],
[110.7447,34.0361],
[110.8196,34.422],
[110.6911,34.4863],
[110.7168,34.7436],
[111.5902,34.615],
[111.8828,35.5158],
[112.0507,36.0952],
[111.9732,36.0952],
[112.2819,36.8037],
[113.7206,37.0615],
[113.9352,37.1904],
[113.9165,37.3193],
[113.6343,37.3838],
[113.7798,38.0288],
[113.7016,38.0288],
[113.8873,38.416],
[114.359,38.7389],
[114.8083,39.3203],
[114.3361,39.3203],
[114.2706,39.1911],
[114.1133,39.1911],
[114.0808,39.1265],
[111.4337,36.9971],
[110.8818,36.8037],
[110.7543,36.8682],
[110.6981,36.7393],
[109.81,36.4816],
[109.4216,36.4816],
[109.3671,36.3528],
[108.0693,36.0308],
[107.0605,35.6445],
[106.854,35.7089],
[106.8026,35.5802],
[106.4931,35.5802],
[106.1848,35.3871],
[104.1331,34.8723],
[103.4972,34.615],
[103.4793,34.3577],
[103.3788,34.2933],
[103.0944,34.3577],
[102.4087,34.1647],
[102.2485,33.7146],
[102.3252,33.7146],
[102.2351,33.4574],
[102.3118,33.4574],
[102.1578,32.5574],
[101.8358,32.0431],
[100.9819,31.2719],
[100.5975,30.5007]
]
]
]}
}
