{
"type": "Feature",
"properties": {"id":"cliopatria-kingdom-of-gwynedd-0860","edge_precision":"unknown","cliopatria_name":"Kingdom of Gwynedd","cliopatria_from_year":860,"cliopatria_to_year":865,"cliopatria_area_km2":10721,"cliopatria_wikidata":"Q816814","cliopatria_wikipedia":"Kingdom of Gwynedd","cliopatria_seshat_id":"gb_brythonic_k","cliopatria_member_of":"(Brythonic Kingdoms)"},
"geometry": {"type": "MultiPolygon", "coordinates": [
[
[
[-4.8095,52.9227],
[-4.7937,52.7881],
[-4.2953,52.9227],
[-4.1642,52.5191],
[-4.1567,52.4519],
[-3.8079,52.3847],
[-3.6938,52.1163],
[-2.9273,52.1163],
[-2.9341,52.1833],
[-2.8489,52.1833],
[-2.8692,52.3847],
[-2.9545,52.3847],
[-3.1391,52.5191],
[-3.0746,52.7208],
[-3.1601,52.7208],
[-3.4894,53.3946],
[-3.5754,53.3946],
[-4.1621,53.2596],
[-4.2713,53.4621],
[-4.7017,53.4621],
[-4.6697,53.1922],
[-4.4901,53.1248],
[-4.8095,52.9227]
]
]
]}
}
