{
"type": "Feature",
"properties": {"id":"cliopatria-dzungar-khanate-1609","edge_precision":"unknown","cliopatria_name":"Dzungar Khanate","cliopatria_from_year":1609,"cliopatria_to_year":1618,"cliopatria_area_km2":365737,"cliopatria_wikidata":"Q1923401","cliopatria_wikipedia":"Dzungar Khanate"},
"geometry": {"type": "MultiPolygon", "coordinates": [
[
[
[79.9509,44.9734],
[79.9779,44.8426],
[80.4103,44.7119],
[80.3023,44.4507],
[80.3832,44.4507],
[80.3572,43.9938],
[80.7354,43.5375],
[80.6825,43.4072],
[80.7907,43.2769],
[80.6317,43.0816],
[80.4711,43.0816],
[80.4734,42.8864],
[80.2872,42.8213],
[80.1884,42.3662],
[80.5338,42.4312],
[80.9625,42.3012],
[82.0557,42.2362],
[84.1085,42.7563],
[85.7915,42.7563],
[85.7638,42.6912],
[86.7493,42.5612],
[87.5488,44.1896],
[88.2734,44.7119],
[89.9299,45.3004],
[90.6888,45.6933],
[90.9944,46.1521],
[90.9126,46.1521],
[91.0096,46.3489],
[90.9277,46.3489],
[91.0252,46.5459],
[90.1732,47.7959],
[89.711,47.8619],
[89.6129,47.9938],
[89.0338,47.9938],
[88.9353,48.1257],
[88.7697,48.1257],
[88.8033,48.1917],
[88.6376,48.1917],
[88.622,48.3238],
[88.324,48.3899],
[88.3085,48.522],
[88.0595,48.522],
[87.8969,48.8527],
[87.7305,48.8527],
[87.7844,49.1175],
[87.3335,49.0513],
[87.1864,49.25],
[86.7546,49.3826],
[86.6078,49.5816],
[86.5732,49.5152],
[86.1854,49.25],
[85.67,48.3899],
[85.4767,47.9938],
[85.5594,47.9938],
[85.5149,47.73],
[85.2868,47.5982],
[84.7005,46.8743],
[84.2296,46.7429],
[84.2597,46.8086],
[83.7971,46.8743],
[83.8572,47.0058],
[83.6106,47.0058],
[83.6406,47.0716],
[83.0351,47.0058],
[82.5433,46.0865],
[82.2122,45.8898],
[81.8231,45.3659],
[79.9509,44.9734]
]
]
]}
}
