{
"type": "Feature",
"properties": {"id":"cliopatria-aetolian-league-211bce","edge_precision":"unknown","cliopatria_name":"Aetolian League","cliopatria_from_year":-210,"cliopatria_to_year":-209,"cliopatria_area_km2":11244,"cliopatria_wikidata":"Q245273","cliopatria_wikipedia":"Aetolian League"},
"geometry": {"type": "MultiPolygon", "coordinates": [
[
[
[20.5303,39.3203],
[20.6783,39.1265],
[21.1435,38.9972],
[21.1403,38.9326],
[21.2908,38.8034],
[21.35,38.416],
[22.6784,38.3515],
[22.7713,38.6097],
[22.7749,38.6743],
[22.618,38.6743],
[22.6253,38.8034],
[22.3898,38.8034],
[22.397,38.9326],
[22.5578,38.9972],
[22.4903,39.1911],
[21.7004,39.1265],
[21.5364,38.9972],
[21.4713,39.2557],
[21.3173,39.3203],
[21.3139,39.2557],
[21.0746,39.1911],
[20.8451,39.3203],
[20.5303,39.3203]
]
]
]}
}
