{
"type": "Feature",
"properties": {"id":"cliopatria-habsburg-monarchy-1702","edge_precision":"unknown","cliopatria_name":"Habsburg Monarchy","cliopatria_from_year":1702,"cliopatria_to_year":1705,"cliopatria_area_km2":530522,"cliopatria_wikidata":"Q66504140","cliopatria_wikipedia":"Habsburg monarchy","cliopatria_seshat_id":"at_habsburg_2","cliopatria_member_of":"(Habsburg Monarchy)"},
"geometry": {"type": "MultiPolygon", "coordinates": [
[
[
[7.5524,47.9278],
[7.6351,47.9278],
[7.6365,47.8619],
[7.8882,47.6641],
[7.5608,47.5323],
[7.7297,47.3348],
[8.0592,47.3348],
[8.1381,47.5323],
[8.0545,47.5982],
[8.2184,47.6641],
[8.1278,48.1257],
[8.2106,48.1257],
[8.2083,48.2578],
[7.9597,48.2578],
[7.7966,48.1257],
[7.7927,48.3238],
[7.6269,48.3238],
[7.5524,47.9278]
]
],
[
[
[7.7875,48.5881],
[7.7888,48.522],
[7.9548,48.522],
[7.9536,48.5881],
[7.7875,48.5881]
]
],
[
[
[7.8616,49.0513],
[7.9449,49.0513],
[7.9461,48.9851],
[8.1127,48.9851],
[8.1138,48.9189],
[8.2803,48.9189],
[8.4427,49.1838],
[7.9399,49.3163],
[7.8616,49.0513]
]
],
[
[
[8.2061,48.3899],
[8.2912,48.2578],
[8.2901,48.3238],
[8.4549,48.3899],
[8.2061,48.3899]
]
],
[
[
[8.2106,48.1257],
[8.2128,47.9938],
[8.461,47.9938],
[8.46,48.0597],
[8.3772,48.0597],
[8.3762,48.1257],
[8.2106,48.1257]
]
],
[
[
[8.2858,48.5881],
[8.3709,48.4559],
[8.4529,48.522],
[8.4519,48.5881],
[8.2858,48.5881]
]
],
[
[
[8.5359,48.522],
[8.7019,48.522],
[8.7001,48.6542],
[8.5359,48.522]
]
],
[
[
[8.5388,48.3238],
[8.5398,48.2578],
[8.7064,48.1917],
[8.7875,48.3238],
[8.5388,48.3238]
]
],
[
[
[8.6264,47.9938],
[8.6283,47.8619],
[8.7936,47.8619],
[8.7101,47.9278],
[8.7092,47.9938],
[8.6264,47.9938]
]
],
[
[
[8.8704,48.3238],
[8.8721,48.1917],
[9.0378,48.1917],
[9.037,48.2578],
[8.9541,48.2578],
[8.9533,48.3238],
[8.8704,48.3238]
]
],
[
[
[8.878,47.73],
[9.0431,47.73],
[9.2902,47.7959],
[9.2882,47.9938],
[9.1228,47.9938],
[9.1242,47.8619],
[9.0416,47.8619],
[8.9573,47.9938],
[8.878,47.73]
]
],
[
[
[9.202,48.3238],
[9.2027,48.2578],
[9.3685,48.2578],
[9.3666,48.4559],
[9.202,48.3238]
]
],
[
[
[9.2289,45.6933],
[9.2302,45.5623],
[9.3116,45.5623],
[9.3122,45.4968],
[9.5575,45.3659],
[9.6402,45.1696],
[10.4533,45.0388],
[10.4531,45.1696],
[9.8834,45.3004],
[9.719,45.5623],
[9.4746,45.5623],
[9.3105,45.6933],
[9.2289,45.6933]
]
],
[
[
[9.3716,47.9278],
[9.5375,47.8619],
[9.5364,47.9938],
[9.4543,47.9278],
[9.3716,47.9278]
]
],
[
[
[9.4496,48.4559],
[9.4519,48.1917],
[9.7824,48.3238],
[10.0314,48.2578],
[9.9474,48.4559],
[9.4496,48.4559]
]
],
[
[
[9.5414,47.4006],
[9.543,47.2032],
[9.6253,47.2032],
[9.6258,47.1374],
[9.9564,46.8743],
[10.2028,46.8743],
[10.2845,47.0058],
[10.4491,46.9401],
[10.5326,46.2833],
[10.4518,45.8243],
[10.7782,45.6933],
[11.0229,45.7588],
[11.3503,46.0865],
[11.6772,46.0865],
[11.8415,46.2177],
[11.8431,46.4802],
[12.0905,46.6772],
[13.5649,46.5459],
[13.5627,46.4145],
[13.3978,46.3489],
[13.4765,46.1521],
[13.312,46.0865],
[13.308,45.8243],
[13.3896,45.8243],
[13.7149,45.7588],
[13.7102,45.4968],
[14.1175,45.4968],
[13.7869,45.235],
[14.027,45.0388],
[14.1894,45.0388],
[14.1962,45.3659],
[14.6031,45.3659],
[14.5985,45.1696],
[14.7595,45.1042],
[14.7564,44.9734],
[14.9187,44.9734],
[14.9089,44.5813],
[15.1484,44.4507],
[15.1466,44.3854],
[15.8647,44.0591],
[16.2706,44.1243],
[16.0429,44.5813],
[15.8038,44.7119],
[15.8198,45.235],
[15.9824,45.235],
[16.2199,45.0388],
[16.4703,45.235],
[17.1209,45.235],
[17.7631,45.0388],
[18.5784,45.1042],
[18.8906,44.8426],
[19.2217,44.9734],
[20.0191,44.7119],
[20.2922,45.235],
[19.9815,45.4968],
[20.0776,45.7588],
[19.8365,45.8243],
[19.9363,46.1521],
[20.6723,46.1521],
[20.8278,46.0209],
[21.49,46.1521],
[21.5631,46.0209],
[22.3802,46.0209],
[22.3709,45.8898],
[22.4525,45.8898],
[22.3571,45.6933],
[22.6691,45.4968],
[22.7364,45.3004],
[23.1382,45.235],
[23.4735,45.3659],
[23.4836,45.4968],
[24.1351,45.4968],
[24.6348,45.6278],
[25.0423,45.6278],
[25.3453,45.3659],
[25.4382,45.4968],
[25.8455,45.4968],
[25.9389,45.6278],
[26.1019,45.6278],
[26.4404,45.7588],
[26.4779,46.1521],
[25.9421,46.5459],
[25.9668,46.8086],
[25.7266,46.8743],
[25.6689,47.1374],
[25.0166,47.2032],
[25.0343,47.4006],
[24.8813,47.5323],
[24.905,47.7959],
[24.5862,47.9278],
[24.6867,48.1257],
[24.3672,48.2578],
[24.379,48.3899],
[24.053,48.4559],
[23.6663,48.7865],
[22.9287,48.9189],
[22.7784,49.1175],
[22.5231,49.0513],
[21.7983,49.3826],
[20.7129,49.3826],
[20.7038,49.25],
[20.4536,49.25],
[20.5459,49.3826],
[20.2119,49.3826],
[19.8655,49.1838],
[19.4725,49.5816],
[18.8798,49.4489],
[18.8873,49.5816],
[19.2376,49.8471],
[19.0779,49.98],
[19.1861,50.3791],
[19.022,50.4457],
[19.0302,50.5789],
[18.8618,50.5789],
[18.7013,50.7121],
[18.7093,50.8455],
[18.0493,51.1124],
[17.9723,51.246],
[17.5493,51.246],
[17.3197,51.7142],
[16.9801,51.7142],
[16.719,51.5803],
[16.5556,51.7142],
[16.1311,51.7142],
[16.137,51.8481],
[15.8083,52.1163],
[15.814,52.2505],
[15.6462,52.3176],
[15.4703,52.1833],
[15.132,52.2505],
[14.9543,52.0492],
[15.0274,51.7142],
[14.8576,51.7142],
[14.853,51.5803],
[15.2722,51.4465],
[15.1732,51.0457],
[15.0888,51.0457],
[14.9998,50.9122],
[14.5778,50.9122],
[14.4974,51.0457],
[14.3284,51.0457],
[14.154,50.8455],
[13.3919,50.7121],
[12.7965,50.3791],
[12.3761,50.3791],
[12.2903,50.246],
[12.1223,50.246],
[12.1216,50.1795],
[12.3709,49.98],
[12.3676,49.7143],
[12.5341,49.6479],
[12.5324,49.5152],
[13.113,49.25],
[13.3585,48.9851],
[13.525,48.9851],
[13.5238,48.9189],
[13.607,48.9189],
[14.1005,48.6542],
[13.8472,48.4559],
[13.1773,48.0597],
[13.1752,47.9278],
[13.4189,47.6641],
[13.4125,47.269],
[13.6595,47.269],
[13.7383,47.0716],
[13.0794,47.0058],
[12.8345,47.1374],
[12.7522,47.1374],
[12.1757,47.0716],
[12.1774,47.269],
[12.5081,47.4006],
[12.5109,47.6641],
[11.6026,47.5982],
[11.1896,47.4006],
[10.6124,47.5982],
[10.4474,47.5982],
[10.3657,47.3348],
[10.1185,47.3348],
[9.9527,47.5323],
[9.6228,47.5323],
[9.6238,47.4006],
[9.5414,47.4006]
],
[
[20.4536,49.25],
[20.4492,49.1838],
[20.3658,49.1838],
[20.3615,49.1175],
[20.2781,49.1175],
[20.2867,49.25],
[20.4536,49.25]
]
],
[
[
[10.0297,48.5881],
[10.0301,48.522],
[10.1131,48.522],
[10.1128,48.5881],
[10.0297,48.5881]
]
],
[
[
[10.1134,48.4559],
[10.114,48.3238],
[10.2798,48.3238],
[10.2795,48.3899],
[10.1966,48.3899],
[10.1963,48.4559],
[10.1134,48.4559]
]
],
[
[
[10.1152,48.0597],
[10.3636,47.9938],
[10.5287,48.1917],
[10.5286,48.2578],
[10.1971,48.2578],
[10.1152,48.0597]
]
]
]}
}
