{
"type": "Feature",
"properties": {"id":"cliopatria-zaporozhian-cossacks-1772","edge_precision":"unknown","cliopatria_name":"Zaporozhian Cossacks","cliopatria_from_year":1772,"cliopatria_to_year":1774,"cliopatria_area_km2":98423,"cliopatria_wikidata":"Q1076173","cliopatria_wikipedia":"Zaporozhian Cossacks"},
"geometry": {"type": "MultiPolygon", "coordinates": [
[
[
[30.5398,47.9278],
[30.6225,47.9278],
[30.5973,47.73],
[30.7456,47.5982],
[31.8007,47.4665],
[31.8831,47.4665],
[33.0095,47.269],
[33.1835,47.3348],
[33.7221,47.0716],
[33.8043,47.0716],
[34.08,47.269],
[34.1091,47.4665],
[34.3762,47.5982],
[35.0261,47.5323],
[35.0465,47.6641],
[35.5418,47.6641],
[35.9439,47.5982],
[35.9948,47.4006],
[36.7256,47.3348],
[36.951,47.2032],
[37.4559,47.269],
[37.5717,47.4665],
[37.8418,47.5982],
[38.4193,47.5982],
[38.3717,47.7959],
[38.4543,47.7959],
[38.5015,48.0597],
[39.2544,48.9851],
[37.3512,49.0513],
[37.0415,49.1838],
[36.6014,49.0513],
[36.5412,49.1838],
[36.2077,49.1838],
[35.3576,49.5816],
[34.9789,49.3163],
[34.2794,49.1175],
[34.1132,48.5881],
[33.5418,48.6542],
[33.3559,48.522],
[32.9505,48.5881],
[32.9312,48.4559],
[32.7652,48.4559],
[32.4523,48.5881],
[31.6218,48.5881],
[30.6079,48.4559],
[30.5398,47.9278]
]
]
]}
}
