{
"type": "Feature",
"properties": {"id":"cliopatria-himyarite-kingdom-0270","edge_precision":"unknown","cliopatria_name":"Himyarite Kingdom","cliopatria_from_year":270,"cliopatria_to_year":282,"cliopatria_area_km2":73095,"cliopatria_wikidata":"Q289577","cliopatria_wikipedia":"Himyarite Kingdom","cliopatria_seshat_id":"ye_himyar_1"},
"geometry": {"type": "MultiPolygon", "coordinates": [
[
[
[42.8863,15.0075],
[43.0566,13.9789],
[43.2648,13.7218],
[43.2356,13.0789],
[43.447,12.886],
[43.4386,12.6932],
[43.8023,12.6289],
[45.0541,12.7575],
[45.7411,13.336],
[46.111,13.4003],
[46.0471,13.5932],
[46.2003,13.7218],
[46.1631,14.4289],
[45.9462,14.4932],
[45.8163,14.8147],
[45.2283,14.8147],
[44.5603,14.6861],
[44.3465,14.8147],
[44.2897,15.1361],
[42.8896,15.0718],
[42.8863,15.0075]
]
],
[
[
[43.7418,18.4791],
[43.8896,18.4791],
[43.8971,18.6076],
[43.8232,18.6076],
[43.8194,18.5434],
[43.7455,18.5434],
[43.7418,18.4791]
]
]
]}
}
