{
"type": "Feature",
"properties": {"id":"cliopatria-kingdom-of-aragon-1046","edge_precision":"unknown","cliopatria_name":"Kingdom of Aragon","cliopatria_from_year":1046,"cliopatria_to_year":1084,"cliopatria_area_km2":10120,"cliopatria_wikidata":"Q199442","cliopatria_wikipedia":"Kingdom of Aragon","cliopatria_seshat_id":"es_aragon_k"},
"geometry": {"type": "MultiPolygon", "coordinates": [
[
[
[-1.3888,42.4962],
[-1.3802,42.3662],
[-0.7486,42.4962],
[-0.6524,42.2362],
[0.0744,42.1063],
[0.1617,41.9764],
[0.401,41.9764],
[0.3974,42.0413],
[0.5571,42.0413],
[0.7097,42.1712],
[0.6847,42.6262],
[0.6046,42.6262],
[0.601,42.6912],
[0.0401,42.6912],
[-0.8579,42.9515],
[-1.1616,42.6912],
[-1.1573,42.6262],
[-1.3888,42.4962]
]
]
]}
}
