{
"type": "Feature",
"properties": {"id":"cliopatria-dutch-republic-1582","edge_precision":"unknown","cliopatria_name":"Dutch Republic","cliopatria_from_year":1582,"cliopatria_to_year":1587,"cliopatria_area_km2":32050,"cliopatria_wikidata":"Q170072","cliopatria_wikipedia":"Dutch Republic","cliopatria_member_of":"(Dutch Republic)"},
"geometry": {"type": "MultiPolygon", "coordinates": [
[
[
[2.9087,51.3128],
[2.9161,51.1792],
[3.1698,51.1792],
[3.3458,51.0457],
[4.1907,51.0457],
[4.2871,50.7788],
[4.4558,50.7788],
[4.3567,51.1124],
[4.6017,51.3128],
[4.5873,51.6472],
[4.8336,51.8481],
[5.6834,51.8481],
[5.8647,51.5134],
[5.5352,51.246],
[5.6198,51.246],
[5.6221,51.1792],
[5.7067,51.1792],
[5.709,51.1124],
[5.8781,51.1124],
[6.045,51.1792],
[6.1211,51.4465],
[6.2058,51.4465],
[6.1148,51.6472],
[5.9428,51.7142],
[5.9384,51.8481],
[6.5333,51.8481],
[6.6996,51.9822],
[6.6146,51.9822],
[6.6127,52.0492],
[6.6978,52.0492],
[6.948,52.2505],
[6.9446,52.3847],
[6.8593,52.3847],
[6.8575,52.4519],
[6.7721,52.4519],
[6.7703,52.5191],
[6.6849,52.5191],
[6.683,52.5863],
[6.5976,52.5863],
[6.335,52.7881],
[6.0782,52.7881],
[6.2283,53.4621],
[6.1423,53.4621],
[5.5423,53.3946],
[5.2089,53.1248],
[5.3857,52.99],
[5.3908,52.8554],
[5.1366,52.7881],
[5.0564,52.6535],
[4.7855,52.99],
[4.8628,53.1922],
[4.691,53.1922],
[4.6081,53.1248],
[4.7027,52.9227],
[4.5343,52.8554],
[4.4638,52.5191],
[4.2169,52.3176],
[4.2232,52.1833],
[3.974,52.0492],
[3.9805,51.9151],
[3.8104,51.9151],
[3.817,51.7811],
[3.6471,51.7811],
[3.7387,51.6472],
[3.3993,51.6472],
[3.4062,51.5134],
[3.7486,51.4465],
[3.1555,51.4465],
[2.9934,51.3128],
[2.9087,51.3128]
]
],
[
[
[4.7997,44.1243],
[5.0399,44.1896],
[4.9569,44.2548],
[4.8761,44.2548],
[4.7997,44.1243]
]
]
]}
}
