{
"type": "Feature",
"properties": {"id":"cliopatria-sultanate-of-malacca-1744","edge_precision":"unknown","cliopatria_name":"Sultanate of Malacca","cliopatria_from_year":1744,"cliopatria_to_year":1799,"cliopatria_area_km2":48134,"cliopatria_wikidata":"Q46652","cliopatria_wikipedia":"Malacca Sultanate"},
"geometry": {"type": "MultiPolygon", "coordinates": [
[
[
[97.8401,3.8215],
[97.913,3.8215],
[98.5451,3.3072],
[98.6067,3.05],
[99.3134,2.5357],
[99.3082,2.4072],
[99.5215,2.2786],
[99.5165,2.15],
[99.6596,2.0857],
[99.6547,1.9571],
[99.7978,1.8929],
[99.793,1.7643],
[100.0067,1.6357],
[100.0725,1.4428],
[100.0702,1.3786],
[100.3683,1.5714],
[100.3026,1.7643],
[100.1594,1.8286],
[100.247,2.2143],
[100.1742,2.2143],
[100.1845,2.4714],
[100.2573,2.4714],
[100.2599,2.5357],
[99.9038,2.7286],
[99.9147,2.9857],
[99.7746,3.1143],
[99.7018,3.1143],
[99.1423,3.6286],
[98.7112,3.7572],
[98.7172,3.8858],
[98.2894,4.0786],
[98.2228,4.2072],
[98.2259,4.2715],
[98.0042,4.2072],
[97.8401,3.8215]
]
],
[
[
[101.5343,4.8501],
[101.6072,4.8501],
[101.6107,4.9144],
[101.6836,4.9144],
[101.687,4.9787],
[102.4887,4.9787],
[102.3644,5.3644],
[102.2223,5.4287],
[102.2487,5.8787],
[102.4023,6.0073],
[102.4062,6.0715],
[102.1264,6.2644],
[102.0535,6.2644],
[101.8765,5.7501],
[101.7307,5.7501],
[101.7777,5.3001],
[101.5483,5.1072],
[101.5343,4.8501]
]
],
[
[
[107.9877,-7.8146],
[108.0607,-7.8146],
[108.2839,-7.8789],
[108.5632,-7.686],
[108.7822,-7.686],
[109.4475,-7.8146],
[109.4518,-7.8789],
[109.8941,-7.9432],
[110.0271,-7.7503],
[110.0144,-7.5574],
[109.4913,-7.3646],
[109.4023,-7.1074],
[108.6689,-7.0431],
[108.166,-7.1717],
[107.9877,-7.8146]
]
]
]}
}
