{
"type": "Feature",
"properties": {"id":"cliopatria-gothia-0207","edge_precision":"unknown","cliopatria_name":"Gothia","cliopatria_from_year":207,"cliopatria_to_year":237,"cliopatria_area_km2":210831,"cliopatria_wikidata":"Q422253","cliopatria_wikipedia":"Gothia"},
"geometry": {"type": "MultiPolygon", "coordinates": [
[
[
[22.8336,49.7807],
[23.969,49.3826],
[23.8736,49.25],
[24.1239,49.25],
[24.5811,48.7865],
[25.4764,48.5881],
[25.5465,48.4559],
[26.1969,48.3238],
[26.3493,48.1917],
[26.9291,48.1917],
[27.1565,47.9938],
[27.3556,47.5323],
[27.815,47.2032],
[27.801,47.0716],
[28.0335,46.9401],
[28.0194,46.8086],
[28.1694,46.6772],
[28.1203,46.2177],
[28.0385,46.2177],
[28.0445,45.4968],
[28.0376,45.4313],
[28.2819,45.4313],
[28.5051,45.235],
[29.0888,45.3659],
[29.2881,45.6933],
[30.5404,46.6115],
[30.5484,46.6772],
[30.951,47.269],
[31.1241,47.3348],
[31.0418,47.3348],
[31.0928,47.73],
[31.0102,47.73],
[31.0619,48.1257],
[30.9791,48.1257],
[31.0881,48.3238],
[31.0052,48.3238],
[31.0405,48.5881],
[30.9574,48.5881],
[31.0852,48.9189],
[31.002,48.9189],
[31.0474,49.25],
[30.964,49.25],
[31.0101,49.5816],
[30.9265,49.5816],
[31.0382,49.7807],
[30.8802,49.8471],
[30.8629,50.3125],
[30.4157,50.7121],
[28.5036,50.9122],
[27.9128,50.9122],
[27.5075,51.0457],
[25.48,51.0457],
[24.6213,50.9122],
[24.0107,50.7121],
[23.9912,50.5122],
[23.6483,50.4457],
[22.8336,49.7807]
]
]
]}
}
