{
"type": "Feature",
"properties": {"id":"cliopatria-sultanate-of-malacca-1512","edge_precision":"unknown","cliopatria_name":"Sultanate of Malacca","cliopatria_from_year":1512,"cliopatria_to_year":1528,"cliopatria_area_km2":230126,"cliopatria_wikidata":"Q46652","cliopatria_wikipedia":"Malacca Sultanate"},
"geometry": {"type": "MultiPolygon", "coordinates": [
[
[
[99.8496,1.3143],
[99.9907,1.1857],
[99.8948,0.4785],
[100.0364,0.35],
[100.2567,0.4142],
[100.6147,0.2214],
[100.6967,0.0285],
[100.6261,-0.1643],
[100.7757,-0.4215],
[101.366,-0.8715],
[101.6583,-0.9358],
[101.7363,-1.193],
[102.1029,-1.3215],
[102.6986,-1.9001],
[102.9914,-1.9644],
[103.1472,-2.3501],
[103.149,-2.4144],
[103.2946,-2.4144],
[103.4315,-2.093],
[103.8602,-1.7715],
[104.4395,-1.643],
[104.438,-1.5787],
[104.207,-1.0001],
[103.6247,-1.0001],
[103.3286,-0.7429],
[103.3229,-0.4215],
[103.6129,-0.3572],
[103.6108,-0.2286],
[103.3915,-0.1643],
[103.7534,-0.0358],
[103.6024,0.35],
[103.3174,0.5428],
[103.0991,0.5428],
[102.9494,0.4142],
[102.9619,0.8],
[103.1074,0.8],
[103.1117,0.9285],
[102.8272,1.1214],
[102.3904,1.1214],
[102.4065,1.5714],
[101.6809,1.6357],
[101.6129,1.7643],
[101.6857,1.7643],
[101.698,2.0857],
[101.5524,2.0857],
[101.4093,2.15],
[101.2587,2.0214],
[100.9073,2.3429],
[100.6889,2.3429],
[100.6813,2.15],
[100.5357,2.15],
[100.3926,2.2143],
[100.2625,2.6],
[100.0441,2.6],
[100.1767,2.2786],
[100.089,1.8929],
[100.2322,1.8286],
[100.2932,1.5071],
[99.8496,1.3143]
]
],
[
[
[100.3684,4.8501],
[100.5108,4.7858],
[100.4811,4.2072],
[100.8145,3.5643],
[101.2339,3.1786],
[101.2172,2.7929],
[101.6433,2.5357],
[101.7161,2.5357],
[102.0181,2.7929],
[102.1021,3.05],
[102.3906,2.9857],
[102.8109,2.6],
[103.3179,2.5357],
[103.3854,2.4072],
[103.531,2.4072],
[103.6846,2.6],
[103.6874,2.6643],
[103.4044,2.8572],
[103.3667,3.6286],
[103.4812,4.4644],
[103.3526,4.7858],
[103.3561,4.8501],
[103.1662,5.3644],
[102.4023,6.0073],
[102.3412,6.2001],
[102.1264,6.2644],
[102.0535,6.2644],
[101.8765,5.7501],
[101.4467,5.8787],
[101.14,5.6215],
[100.998,5.6858],
[100.9067,5.3644],
[100.6773,5.1715],
[100.6044,5.1715],
[100.3788,5.0429],
[100.3684,4.8501]
]
],
[
[
[103.176,0.6714],
[103.3943,0.6714],
[103.4007,0.8643],
[103.1823,0.8643],
[103.176,0.6714]
]
],
[
[
[103.5618,1.3143],
[103.6346,1.3143],
[103.6323,1.25],
[103.8507,1.25],
[103.853,1.3143],
[103.9258,1.3143],
[103.9281,1.3786],
[103.5641,1.3786],
[103.5618,1.3143]
]
],
[
[
[103.7668,0.9285],
[104.0601,0.9928],
[104.0668,1.1857],
[103.9235,1.25],
[103.7734,1.1214],
[103.7668,0.9285]
]
],
[
[
[104.1224,-0.3572],
[104.1268,-0.6144],
[104.4191,-0.6786],
[104.4863,-0.3572],
[104.4124,-0.2929],
[104.9229,-0.3572],
[104.9208,-0.2286],
[104.5537,0.0285],
[104.3354,0.0285],
[104.3396,-0.2929],
[104.2669,-0.2929],
[104.2679,-0.3572],
[104.1224,-0.3572]
]
],
[
[
[104.1307,0.9285],
[104.2762,0.9285],
[104.3447,0.8],
[104.4903,0.8],
[104.574,1.1214],
[104.2123,1.1857],
[104.1307,0.9285]
]
]
]}
}
