{
"type": "Feature",
"properties": {"id":"cliopatria-kingdom-of-asturias-0755","edge_precision":"unknown","cliopatria_name":"Kingdom of Asturias","cliopatria_from_year":755,"cliopatria_to_year":824,"cliopatria_area_km2":78716,"cliopatria_wikidata":"Q231392","cliopatria_wikipedia":"Kingdom of Asturias","cliopatria_seshat_id":"es_asturias_k"},
"geometry": {"type": "MultiPolygon", "coordinates": [
[
[
[-9.3046,43.1467],
[-9.2752,42.8864],
[-9.1003,42.7563],
[-9.0787,42.5612],
[-8.6574,42.3662],
[-8.9561,42.1712],
[-8.8868,41.522],
[-8.4159,41.5869],
[-8.3563,41.7816],
[-7.2467,41.8465],
[-7.1796,41.9764],
[-6.6149,41.9114],
[-6.3877,42.0413],
[-4.9564,42.1063],
[-4.0192,42.3662],
[-3.7148,42.5612],
[-3.0794,42.6262],
[-2.9993,42.6262],
[-2.934,42.8213],
[-3.0142,42.8213],
[-3.0293,43.0165],
[-3.1949,43.0816],
[-3.1402,43.4072],
[-4.9904,43.4072],
[-5.6461,43.5375],
[-7.1757,43.5375],
[-7.3435,43.6027],
[-7.2765,43.733],
[-8.2436,43.733],
[-8.3904,43.6027],
[-8.369,43.4072],
[-8.8517,43.4072],
[-9.1587,43.2769],
[-9.3046,43.1467]
]
]
]}
}
