{
"type": "Feature",
"properties": {"id":"cliopatria-kingdom-of-the-two-sicilies-1860","edge_precision":"unknown","cliopatria_name":"Kingdom of the Two Sicilies","cliopatria_from_year":1860,"cliopatria_to_year":1860,"cliopatria_area_km2":56554,"cliopatria_wikidata":"Q180393","cliopatria_wikipedia":"Kingdom of the Two Sicilies","cliopatria_seshat_id":"it_two_sicilies_k"},
"geometry": {"type": "MultiPolygon", "coordinates": [
[
[
[12.8535,42.3012],
[13.0097,42.0413],
[13.328,41.9764],
[13.4057,41.8465],
[13.8044,41.8465],
[13.9615,41.7167],
[14.0374,41.522],
[13.7929,41.1977],
[13.7918,41.1328],
[13.9506,41.1328],
[14.1046,40.8736],
[14.4219,40.8736],
[14.4179,40.6792],
[14.8934,40.6792],
[14.9638,40.2906],
[15.4319,40.0317],
[15.7478,40.0317],
[15.6655,39.9023],
[16.2969,39.9023],
[16.3815,40.0964],
[16.5375,40.0317],
[16.6165,40.0317],
[16.7015,40.2259],
[16.6245,40.2906],
[16.8617,40.2906],
[16.945,40.4201],
[16.868,40.4849],
[17.0285,40.5496],
[17.3452,40.5496],
[17.4175,40.3554],
[17.8131,40.3554],
[18.1122,39.9023],
[18.3489,39.9023],
[18.4381,40.1612],
[17.9812,40.6144],
[17.5107,40.744],
[17.2027,41.0032],
[15.9439,41.3922],
[15.8738,41.7167],
[16.1149,41.7816],
[16.1189,41.9114],
[15.2414,41.9114],
[15.165,42.0413],
[14.924,41.9764],
[14.7659,42.0413],
[14.769,42.1712],
[14.6077,42.1063],
[14.5308,42.2362],
[14.3709,42.2362],
[13.9014,42.7563],
[13.9854,42.9515],
[13.9051,42.9515],
[13.5831,42.8864],
[13.5007,42.7563],
[13.1801,42.7563],
[13.017,42.5612],
[12.937,42.5612],
[12.8535,42.3012]
]
]
]}
}
