{
"type": "Feature",
"properties": {"id":"cliopatria-grand-duchy-of-hesse-1870","edge_precision":"unknown","cliopatria_name":"Grand Duchy of Hesse","cliopatria_from_year":1870,"cliopatria_to_year":1870,"cliopatria_area_km2":7804,"cliopatria_wikidata":"Q20135","cliopatria_wikipedia":"Grand Duchy of Hesse"},
"geometry": {"type": "MultiPolygon", "coordinates": [
[
[
[7.8322,50.5789],
[7.9226,50.246],
[8.0917,50.1795],
[8.6785,50.246],
[9.2641,50.5122],
[9.263,50.6455],
[9.0945,50.6455],
[9.0932,50.7788],
[8.9238,50.8455],
[8.6707,50.8455],
[8.169,50.5789],
[7.9152,50.6455],
[7.9164,50.5789],
[7.8322,50.5789]
]
],
[
[
[8.179,49.98],
[8.1824,49.7807],
[8.3519,49.6479],
[8.353,49.5816],
[8.771,49.5816],
[8.7727,49.4489],
[9.0226,49.5152],
[8.9328,50.0465],
[8.8489,50.0465],
[8.8481,50.113],
[8.6803,50.113],
[8.179,49.98]
]
]
]}
}
