{
"type": "Feature",
"properties": {"id":"cliopatria-french-indochina-1871","edge_precision":"unknown","cliopatria_name":"French Indochina","cliopatria_from_year":1871,"cliopatria_to_year":1884,"cliopatria_area_km2":208390,"cliopatria_wikidata":"Q185682","cliopatria_wikipedia":"French Indochina","cliopatria_seshat_id":"fr_france_modern_1","cliopatria_member_of":"(French Third Republic)"},
"geometry": {"type": "MultiPolygon", "coordinates": [
[
[
[55.0771,-20.9935],
[55.0963,-21.2507],
[55.408,-21.4435],
[55.6308,-21.4435],
[55.7695,-21.3149],
[55.5918,-20.9292],
[55.5869,-20.8649],
[55.2159,-20.8649],
[55.0771,-20.9935]
]
],
[
[
[75.5254,11.4717],
[75.5986,11.4717],
[75.6032,11.536],
[75.6765,11.536],
[75.6811,11.6003],
[75.5347,11.6003],
[75.5254,11.4717]
]
],
[
[
[79.7228,11.7931],
[79.8693,11.7931],
[79.8794,11.9217],
[79.8061,11.9217],
[79.7228,11.7931]
]
],
[
[
[79.7286,10.8931],
[79.8749,10.8931],
[79.8843,11.0217],
[79.8111,11.0217],
[79.7286,10.8931]
]
],
[
[
[82.2581,16.7433],
[82.4055,16.7433],
[82.4205,16.8719],
[82.3468,16.8719],
[82.2581,16.7433]
]
],
[
[
[88.3421,22.5934],
[88.491,22.5934],
[88.5187,22.7863],
[88.4442,22.7863],
[88.3421,22.5934]
]
],
[
[
[103.4898,10.7003],
[103.5452,10.5074],
[103.9168,10.5717],
[104.1244,10.4431],
[104.417,10.4431],
[104.5399,10.186],
[105.0345,9.9931],
[104.7926,9.7359],
[104.7122,8.7716],
[104.8583,8.7716],
[104.702,8.6431],
[104.7649,8.5145],
[105.1351,8.5788],
[105.6203,9.1574],
[106.1425,9.2859],
[106.2321,9.4788],
[106.603,9.5431],
[106.5525,9.8002],
[106.6987,9.8002],
[106.6429,9.9931],
[106.7949,10.0574],
[106.8066,10.186],
[106.6663,10.2502],
[106.8185,10.3145],
[106.7574,10.4431],
[106.9828,10.5074],
[107.0012,10.7003],
[107.0743,10.7003],
[107.0499,10.4431],
[107.3364,10.3788],
[107.3669,10.7003],
[107.6783,10.8931],
[107.3105,11.6003],
[107.5398,12.3717],
[107.613,12.3717],
[107.6202,12.436],
[107.5469,12.436],
[107.6419,12.6289],
[107.5248,12.886],
[107.6669,13.4646],
[107.6093,13.5932],
[107.6172,13.6575],
[107.3804,14.1075],
[107.5127,14.5575],
[106.8913,14.3004],
[106.6311,14.5575],
[106.4842,14.5575],
[106.0917,14.3646],
[106.116,13.9789],
[105.8958,13.9789],
[105.8064,13.8503],
[105.5049,13.7861],
[105.466,13.4646],
[105.1573,13.336],
[105.1423,13.2075],
[104.8415,13.1432],
[104.7906,13.336],
[104.4971,13.336],
[104.3355,13.2075],
[104.1097,12.5003],
[103.8556,12.1789],
[103.777,11.4074],
[103.618,11.2788],
[103.5932,11.0217],
[103.6664,11.0217],
[103.6421,10.7645],
[103.4898,10.7003]
]
],
[
[
[103.8144,10.2502],
[103.9435,10.0574],
[104.0897,10.0574],
[104.1244,10.4431],
[103.905,10.4431],
[103.8144,10.2502]
]
],
[
[
[117.1692,39.3203],
[117.4286,39.5143],
[117.2265,39.5789],
[117.1923,39.5143],
[117.1692,39.3203]
]
],
[
[
[163.885,-20.1578],
[164.0933,-20.6721],
[165.0004,-21.5721],
[165.8489,-21.9578],
[166.087,-22.2792],
[166.8672,-22.4078],
[166.8511,-22.0864],
[166.518,-21.9578],
[166.3904,-21.7649],
[165.8571,-21.4435],
[165.7828,-21.4435],
[165.4167,-21.1864],
[165.1657,-20.8007],
[164.744,-20.6078],
[164.4374,-20.2864],
[163.885,-20.1578]
]
],
[
[
[166.9066,-20.9292],
[167.05,-21.1864],
[167.1243,-21.1864],
[167.3296,-21.1221],
[167.2604,-20.8649],
[167.0604,-20.6721],
[166.912,-20.6721],
[166.9066,-20.9292]
]
],
[
[
[167.6222,-21.3792],
[167.6927,-21.6364],
[168.0076,-21.7007],
[168.0111,-21.4435],
[167.7707,-21.3792],
[167.6222,-21.3792]
]
]
]}
}
