{
"type": "Feature",
"properties": {"id":"cliopatria-eastern-kushans-0238","edge_precision":"unknown","cliopatria_name":"Eastern Kushans","cliopatria_from_year":238,"cliopatria_to_year":259,"cliopatria_area_km2":1240514,"cliopatria_wikidata":"Q25979","cliopatria_wikipedia":"Kushan Empire"},
"geometry": {"type": "MultiPolygon", "coordinates": [
[
[
[66.0771,29.7937],
[66.4336,29.6652],
[66.888,29.6652],
[66.9949,29.4081],
[67.1352,29.3438],
[66.9313,28.5724],
[67.0067,28.5724],
[66.9655,28.3153],
[67.0409,28.3153],
[67.0457,27.8652],
[67.121,27.8652],
[67.0623,27.4795],
[67.1745,27.2223],
[67.1966,26.3222],
[67.5021,25.8079],
[67.1121,25.1007],
[66.6398,24.9078],
[66.632,24.8435],
[67.1477,24.7792],
[67.3261,24.3935],
[67.2891,24.072],
[67.4384,24.072],
[67.4911,23.8792],
[67.6331,23.8149],
[68.1554,23.8149],
[68.1265,23.5577],
[68.3502,23.5577],
[68.3359,23.4291],
[68.5525,23.3649],
[68.6058,23.172],
[68.9502,22.9148],
[69.0247,22.9148],
[69.0387,23.0434],
[69.4999,23.172],
[70.0653,23.5577],
[70.4242,24.072],
[70.4475,24.2649],
[70.6048,24.3292],
[70.5701,24.6506],
[71.0855,25.165],
[71.2351,25.165],
[71.9047,25.6793],
[73.179,26.1937],
[73.479,26.1937],
[73.9586,26.3865],
[76.5837,26.8366],
[77.1096,26.8366],
[77.2382,26.708],
[78.2364,26.8366],
[78.257,26.5151],
[78.3321,26.5151],
[78.2921,25.8079],
[78.367,25.8079],
[78.3144,24.9721],
[78.576,24.7149],
[79.3796,24.5864],
[80.585,24.1363],
[81.3075,23.4291],
[81.3162,23.4934],
[81.6026,23.9435],
[82.3589,24.5221],
[83.0707,24.7792],
[83.7536,24.8435],
[84.3391,25.2293],
[84.4566,25.4864],
[84.5155,26.258],
[84.4405,26.258],
[84.5106,26.6437],
[84.3604,26.6437],
[84.3566,27.4152],
[83.0776,27.4152],
[82.5377,27.7367],
[81.885,27.8652],
[81.1945,28.1867],
[80.957,28.5081],
[80.6811,28.6367],
[80.1656,28.701],
[79.8666,29.0867],
[79.9609,29.5366],
[79.8852,29.5366],
[79.9544,29.858],
[79.8449,30.0508],
[79.8693,30.5007],
[79.6239,30.7578],
[79.6071,31.0148],
[79.1796,31.4647],
[78.8139,31.529],
[78.8443,31.6575],
[78.448,31.5933],
[76.4634,32.236],
[76.0811,32.5574],
[76.1274,32.7502],
[75.8824,32.6859],
[75.4694,32.8788],
[75.4238,33.0073],
[75.2706,33.0073],
[75.2405,33.2002],
[75.1028,33.2645],
[75.1341,33.3931],
[74.9964,33.4574],
[75.028,33.5859],
[74.6016,34.0361],
[74.6337,34.1647],
[74.2526,34.4863],
[74.1756,34.4863],
[73.9931,34.6793],
[73.701,34.7436],
[73.8107,34.8723],
[73.4412,34.9366],
[73.2142,35.2584],
[72.7059,35.3871],
[72.1323,35.2584],
[71.682,35.001],
[71.6048,35.001],
[71.202,34.2933],
[70.7716,34.1004],
[70.8953,33.9718],
[70.8678,33.5217],
[70.6229,33.4574],
[70.5791,33.2645],
[70.3969,33.1359],
[70.3682,33.0073],
[70.4448,33.0073],
[70.3256,32.8145],
[69.4419,32.6216],
[68.3511,31.7861],
[68.1223,31.7861],
[67.9312,31.5933],
[66.8783,31.2719],
[66.5252,31.0148],
[66.3425,30.4364],
[66.4184,30.4364],
[66.3156,29.858],
[66.0771,29.7937]
]
]
]}
}
