{
"type": "Feature",
"properties": {"id":"cliopatria-kingdom-of-serbia-1227","edge_precision":"unknown","cliopatria_name":"Kingdom of Serbia","cliopatria_from_year":1227,"cliopatria_to_year":1235,"cliopatria_area_km2":52734,"cliopatria_wikidata":"Q241748","cliopatria_wikipedia":"Kingdom of Serbia","cliopatria_seshat_id":"rs_serbia_k"},
"geometry": {"type": "MultiPolygon", "coordinates": [
[
[
[17.5985,43.0165],
[18.0801,43.0165],
[18.2321,42.8213],
[18.2292,42.7563],
[18.458,42.4962],
[18.852,42.3662],
[19.3862,41.8465],
[19.4659,41.8465],
[19.725,42.2362],
[20.0585,42.4962],
[20.5205,42.1712],
[20.5823,41.8465],
[20.7454,41.9114],
[20.8363,42.1063],
[21.3992,42.1712],
[21.567,42.3012],
[21.5791,42.4962],
[21.9117,42.6912],
[21.9285,42.9515],
[21.5438,43.2118],
[21.5562,43.4072],
[21.4757,43.4072],
[21.4798,43.4723],
[21.3994,43.4723],
[21.4075,43.6027],
[21.327,43.6027],
[21.3311,43.6678],
[20.8594,43.8634],
[20.7174,44.1896],
[19.4244,44.1896],
[19.4177,44.0591],
[19.4984,44.0591],
[19.4076,43.8634],
[19.0043,43.8634],
[18.8336,43.6678],
[18.5053,43.5375],
[18.4159,43.3421],
[18.011,43.2769],
[18.0054,43.1467],
[17.7644,43.1467],
[17.5985,43.0165]
]
]
]}
}
