{
"type": "Feature",
"properties": {"id":"cliopatria-lan-xang-1375","edge_precision":"unknown","cliopatria_name":"Lan Xang","cliopatria_from_year":1375,"cliopatria_to_year":1384,"cliopatria_area_km2":377421,"cliopatria_wikidata":"Q853477","cliopatria_wikipedia":"Lan Xang","cliopatria_seshat_id":"la_lan_xang_k"},
"geometry": {"type": "MultiPolygon", "coordinates": [
[
[
[100.1289,20.4077],
[100.5439,20.2148],
[100.5981,20.0862],
[100.4644,19.7005],
[100.6567,19.5077],
[101.1849,19.5719],
[101.313,19.4434],
[101.2829,19.2505],
[101.4009,19.0577],
[101.351,18.7362],
[101.1832,18.6076],
[101.1338,18.2862],
[101.2717,18.2219],
[101.252,18.0933],
[101.0555,17.7719],
[101.0458,17.7076],
[100.972,17.7076],
[100.9623,17.6433],
[101.081,17.4505],
[101.312,17.5148],
[101.4662,17.0647],
[101.6136,17.0647],
[101.7326,16.8719],
[102.1012,16.8719],
[103.2328,16.5504],
[103.0573,16.3576],
[103.0482,15.779],
[103.2331,15.5218],
[103.285,14.8147],
[103.6109,14.4932],
[103.8149,14.3646],
[104.9248,14.4289],
[104.9818,14.3004],
[105.2756,14.3004],
[105.2592,14.1718],
[105.6917,14.1075],
[106.0345,13.9146],
[106.1735,14.4289],
[106.6311,14.5575],
[106.8913,14.3004],
[107.5127,14.5575],
[107.6927,15.329],
[107.2976,15.6504],
[107.5016,16.0361],
[107.1527,16.1647],
[106.9706,16.4219],
[106.6857,16.4861],
[106.6074,16.9362],
[105.2074,18.3505],
[105.2487,18.6076],
[105.1216,18.7362],
[104.6247,18.8648],
[104.5077,19.0577],
[103.9571,19.3148],
[104.0827,19.6362],
[104.6855,19.7005],
[104.9493,19.9577],
[104.9806,20.1505],
[104.6516,20.4077],
[104.5033,20.4077],
[104.8197,20.9862],
[104.6923,21.1148],
[104.7345,21.372],
[104.5859,21.372],
[104.6177,21.5648],
[104.5647,21.6934],
[104.4161,21.6934],
[104.4481,21.8863],
[104.3209,22.0148],
[104.2466,22.0148],
[104.2573,22.0791],
[103.9616,22.5291],
[103.8871,22.5291],
[103.7824,22.7863],
[103.537,22.6577],
[103.3357,22.7863],
[103.1429,22.5291],
[102.7926,22.6577],
[102.74,22.7863],
[102.5911,22.7863],
[102.2391,22.4648],
[101.7289,22.5291],
[101.5804,22.0791],
[101.8152,21.6934],
[101.8074,21.1791],
[101.2978,21.2434],
[101.3284,21.4363],
[101.2541,21.4363],
[101.2643,21.5005],
[100.6937,21.1791],
[100.6436,20.8577],
[100.2427,20.6648],
[100.1289,20.4077]
]
]
]}
}
