{
"type": "Feature",
"properties": {"id":"cliopatria-kingdom-of-alba-1094","edge_precision":"unknown","cliopatria_name":"Kingdom of Alba","cliopatria_from_year":1094,"cliopatria_to_year":1098,"cliopatria_area_km2":58332,"cliopatria_wikidata":"Q1991742","cliopatria_wikipedia":"Kingdom of Alba","cliopatria_seshat_id":"gb_alba_k"},
"geometry": {"type": "MultiPolygon", "coordinates": [
[
[
[-5.9974,56.7311],
[-5.8803,56.525],
[-5.4481,56.5937],
[-5.6849,56.3877],
[-5.6569,56.1821],
[-5.7449,56.1821],
[-5.717,55.9766],
[-5.8049,55.9766],
[-5.7863,55.8398],
[-5.4442,55.9082],
[-5.3564,55.9082],
[-5.2957,56.1136],
[-4.9349,56.0451],
[-4.847,56.0451],
[-5.0051,55.9082],
[-4.9787,55.7031],
[-4.7947,55.6348],
[-4.7861,55.5665],
[-4.6195,55.6348],
[-4.5939,55.43],
[-4.3067,55.2255],
[-3.5769,54.9531],
[-3.1413,54.9531],
[-2.8075,55.0892],
[-2.7349,55.2255],
[-2.5603,55.2255],
[-2.2394,55.4983],
[-2.2681,55.7715],
[-2.1069,55.9082],
[-2.1947,55.9082],
[-2.6563,56.1136],
[-3.2643,56.0451],
[-3.1039,56.1821],
[-2.6713,56.2506],
[-2.79,56.525],
[-2.5326,56.5937],
[-2.2087,56.8686],
[-2.0757,57.2819],
[-1.8236,57.4199],
[-1.8529,57.6962],
[-2.0388,57.7654],
[-2.8422,57.7654],
[-3.994,57.6962],
[-3.9308,57.9038],
[-4.1096,57.9038],
[-4.8154,57.8346],
[-5.262,57.8346],
[-5.4599,57.9731],
[-5.5494,57.9731],
[-5.8872,57.8346],
[-5.9173,57.4199],
[-5.7296,57.3509],
[-5.7007,57.144],
[-5.9476,57.0063],
[-5.909,56.7311],
[-5.9974,56.7311]
]
]
]}
}
