{
"type": "Feature",
"properties": {"id":"cliopatria-kingdom-of-rheged-0644","edge_precision":"unknown","cliopatria_name":"Kingdom of Rheged","cliopatria_from_year":644,"cliopatria_to_year":646,"cliopatria_area_km2":11868,"cliopatria_wikidata":"Q633573","cliopatria_wikipedia":"Rheged","cliopatria_seshat_id":"gb_brythonic_k","cliopatria_member_of":"(Brythonic Kingdoms)"},
"geometry": {"type": "MultiPolygon", "coordinates": [
[
[
[-3.7042,54.5453],
[-3.6174,54.5453],
[-3.5868,54.2739],
[-3.3194,54.2061],
[-3.3045,54.0706],
[-2.9658,54.1384],
[-3.196,53.8676],
[-3.0952,53.7323],
[-3.1525,53.4621],
[-2.7083,53.3271],
[-2.6224,53.3271],
[-2.1264,53.5296],
[-2.1802,54.0706],
[-2.3739,54.2739],
[-2.5171,54.8171],
[-3.0616,55.0211],
[-3.1488,55.0211],
[-3.5691,54.8851],
[-3.7042,54.5453]
]
]
]}
}
