{
"type": "Feature",
"properties": {"id":"cliopatria-french-directory-1797","edge_precision":"unknown","cliopatria_name":"French Directory","cliopatria_from_year":1797,"cliopatria_to_year":1798,"cliopatria_area_km2":655465,"cliopatria_wikidata":"Q219817","cliopatria_wikipedia":"French Directory","cliopatria_seshat_id":"fr_bourbon_k_2","cliopatria_member_of":"(French Directory)"},
"geometry": {"type": "MultiPolygon", "coordinates": [
[
[
[-91.1882,43.3421],
[-91.112,43.2118],
[-91.0273,43.3421],
[-91.1882,43.3421]
]
],
[
[
[-63.0821,18.1576],
[-62.9269,18.0933],
[-62.9495,18.2862],
[-63.0234,18.2862],
[-63.0821,18.1576]
]
],
[
[
[-61.7692,16.2933],
[-61.7363,15.9718],
[-61.5827,15.9076],
[-61.4614,16.1647],
[-61.1735,16.229],
[-61.18,16.2933],
[-61.3473,16.4861],
[-61.4946,16.4861],
[-61.4813,16.3576],
[-61.7692,16.2933]
]
],
[
[
[-56.4931,47.0716],
[-56.4375,46.9401],
[-56.2731,46.9401],
[-56.3008,47.0058],
[-56.2186,47.0058],
[-56.2742,47.1374],
[-56.4931,47.0716]
]
],
[
[
[-54.2679,5.2358],
[-54.195,5.2358],
[-53.6088,5.0429],
[-53.534,4.9144],
[-53.3892,4.9787],
[-53.0958,4.8501],
[-52.2856,4.1429],
[-51.7738,3.9501],
[-51.7071,4.5286],
[-52.0747,4.7858],
[-52.1476,4.7858],
[-52.5885,5.0429],
[-52.8875,5.493],
[-53.9858,5.7501],
[-54.0587,5.7501],
[-54.0538,5.493],
[-54.2679,5.2358]
]
],
[
[
[-17.4542,14.6861],
[-17.1583,14.6218],
[-17.0947,14.9432],
[-17.1682,14.9432],
[-17.3867,14.8789],
[-17.4542,14.6861]
]
],
[
[
[-16.6028,15.6504],
[-16.3842,15.7147],
[-16.3863,15.779],
[-16.2392,15.779],
[-16.1699,15.9076],
[-16.25,16.1004],
[-16.4731,16.1647],
[-16.6028,15.6504]
]
],
[
[
[-4.9117,48.522],
[-4.8913,48.3238],
[-4.6426,48.3238],
[-4.5464,48.1917],
[-4.7054,48.1257],
[-4.6921,47.9938],
[-4.4244,47.7959],
[-3.9349,47.8619],
[-3.7572,47.73],
[-3.3443,47.73],
[-3.1555,47.4665],
[-2.8373,47.5982],
[-2.8258,47.4665],
[-2.5784,47.4665],
[-2.5616,47.269],
[-2.2322,47.269],
[-2.1391,47.1374],
[-2.1944,46.8086],
[-2.0249,46.7429],
[-2.0144,46.6115],
[-1.666,46.3489],
[-1.2518,46.2833],
[-1.2227,45.8898],
[-1.1411,45.8898],
[-1.2131,45.7588],
[-1.0453,45.6933],
[-1.0312,45.4968],
[-1.1894,45.4313],
[-1.1706,45.1696],
[-1.2519,45.1696],
[-1.2054,44.516],
[-1.2863,44.516],
[-1.268,44.2548],
[-1.3488,44.2548],
[-1.3214,43.8634],
[-1.402,43.8634],
[-1.4599,43.5375],
[-1.6922,43.4072],
[-1.6876,43.3421],
[-1.4418,43.2769],
[-1.4284,43.0816],
[-1.027,43.0816],
[-0.5288,42.8213],
[-0.2081,42.8213],
[0.0401,42.6912],
[1.0747,42.8213],
[1.4855,42.6262],
[1.7258,42.6262],
[1.729,42.5612],
[1.8091,42.5612],
[2.4583,42.3662],
[3.0927,42.4962],
[3.09,42.5612],
[3.0099,42.5612],
[2.9849,43.1467],
[3.8509,43.6027],
[4.173,43.6027],
[4.1778,43.4723],
[5.0631,43.4723],
[5.3869,43.4072],
[5.3908,43.2769],
[5.6319,43.2769],
[5.7962,43.1467],
[6.2782,43.1467],
[6.5176,43.2118],
[6.6726,43.4723],
[6.9931,43.5375],
[7.1502,43.733],
[8.0339,43.9286],
[8.3523,44.2548],
[8.3497,44.4507],
[8.5901,44.6466],
[8.5074,44.7773],
[8.5885,44.7773],
[8.586,44.9734],
[8.1761,45.235],
[8.0167,45.0388],
[8.0198,44.8426],
[7.7787,44.7119],
[7.7832,44.4507],
[7.6259,44.1896],
[7.3039,44.1243],
[6.978,44.2548],
[6.8885,44.6466],
[6.9695,44.6466],
[6.9652,44.8426],
[6.6375,44.9734],
[6.6295,45.3004],
[6.7875,45.4968],
[6.5414,45.5623],
[6.4531,45.8243],
[6.9396,45.9554],
[6.8499,46.2833],
[6.6829,46.4145],
[6.2734,46.4145],
[6.0335,46.2177],
[6.1038,46.6115],
[6.5067,46.8743],
[6.5049,46.9401],
[6.5871,46.9401],
[6.5853,47.0058],
[6.6675,47.0058],
[6.6658,47.0716],
[6.8303,47.0716],
[6.8286,47.1374],
[6.9899,47.269],
[6.9834,47.5323],
[7.3973,47.4665],
[7.5594,47.5982],
[7.5524,47.9278],
[7.6269,48.3238],
[7.7098,48.3238],
[7.7058,48.522],
[7.7888,48.522],
[7.7875,48.5881],
[7.8705,48.5881],
[7.868,48.7204],
[8.115,48.8527],
[8.1115,49.0513],
[8.2748,49.25],
[8.2716,49.4489],
[8.3551,49.4489],
[8.3519,49.6479],
[8.1813,49.8471],
[7.7625,49.8471],
[7.3346,50.246],
[7.1666,50.246],
[7.0712,50.7121],
[6.8992,50.8455],
[6.8043,51.246],
[6.7197,51.246],
[6.7124,51.5134],
[6.5391,51.6472],
[6.0234,51.8481],
[5.7707,51.7811],
[5.8647,51.5134],
[5.5352,51.246],
[5.0196,51.4465],
[4.3417,51.4465],
[4.0123,51.246],
[3.5046,51.246],
[3.4097,51.4465],
[3.3249,51.4465],
[2.7394,51.3128],
[2.5778,51.1792],
[1.6562,51.0457],
[1.4247,50.7121],
[1.455,50.246],
[1.0528,49.98],
[0.2241,49.8471],
[-0.0124,49.6479],
[0.007,49.3826],
[-1.2508,49.4489],
[-1.3618,49.7807],
[-2.0316,49.7807],
[-1.9133,49.3826],
[-1.6517,49.25],
[-1.635,49.0513],
[-1.7183,49.0513],
[-1.6022,48.6542],
[-2.5219,48.7204],
[-2.7594,48.5881],
[-3.1222,48.9189],
[-3.4551,48.9189],
[-3.8518,48.7204],
[-4.5999,48.7204],
[-4.9117,48.522]
]
],
[
[
[-3.6152,5.1072],
[-3.178,5.1072],
[-3.322,5.3644],
[-3.3949,5.3644],
[-3.6144,5.2358],
[-3.6152,5.1072]
]
],
[
[
[8.5346,42.4962],
[8.5388,42.1063],
[8.7005,41.9114],
[8.6227,41.7167],
[8.7821,41.7167],
[8.7839,41.522],
[9.1038,41.3274],
[9.2624,41.3922],
[9.4989,41.7816],
[9.4978,41.9764],
[9.5776,41.9764],
[9.5736,42.7563],
[9.4934,42.7563],
[9.4919,43.0165],
[9.2511,43.0165],
[9.1728,42.7563],
[8.7727,42.6912],
[8.5346,42.4962]
]
],
[
[
[19.7578,39.6436],
[19.9125,39.5789],
[19.9214,39.7729],
[19.7637,39.7729],
[19.7578,39.6436]
]
],
[
[
[20.3199,38.1578],
[20.7865,38.0933],
[20.7954,38.2869],
[20.5664,38.416],
[20.4881,38.416],
[20.3285,38.3515],
[20.3199,38.1578]
]
],
[
[
[20.4969,38.6097],
[20.7322,38.6097],
[20.6659,38.868],
[20.5874,38.868],
[20.4969,38.6097]
]
],
[
[
[20.6127,37.7062],
[20.9221,37.6417],
[20.934,37.8998],
[20.6213,37.8998],
[20.6127,37.7062]
]
],
[
[
[20.6783,39.1265],
[20.7569,39.1265],
[20.911,39.0618],
[20.9173,39.1911],
[20.6783,39.1265]
]
],
[
[
[22.874,36.1596],
[23.1068,36.1596],
[23.1168,36.3528],
[22.9649,36.4172],
[22.8872,36.4172],
[22.874,36.1596]
]
],
[
[
[55.0771,-20.9935],
[55.0963,-21.2507],
[55.408,-21.4435],
[55.6308,-21.4435],
[55.7695,-21.3149],
[55.5918,-20.9292],
[55.5869,-20.8649],
[55.2159,-20.8649],
[55.0771,-20.9935]
]
],
[
[
[55.2077,-4.6002],
[55.4304,-4.7931],
[55.4263,-4.6002],
[55.2077,-4.6002]
]
],
[
[
[57.1793,-20.3506],
[57.1943,-20.5435],
[57.5651,-20.5435],
[57.6241,-20.3506],
[57.6982,-20.3506],
[57.673,-20.0292],
[57.4457,-19.9649],
[57.1793,-20.3506]
]
]
]}
}
