{
"type": "Feature",
"properties": {"id":"cliopatria-ostrogothic-kingdom-0546","edge_precision":"unknown","cliopatria_name":"Ostrogothic Kingdom","cliopatria_from_year":546,"cliopatria_to_year":554,"cliopatria_area_km2":77918,"cliopatria_wikidata":"Q583038","cliopatria_wikipedia":"Ostrogothic Kingdom","cliopatria_seshat_id":"it_ostrogoth_k"},
"geometry": {"type": "MultiPolygon", "coordinates": [
[
[
[8.4145,45.6278],
[8.5784,45.5623],
[9.9631,45.6278],
[11.5112,45.4968],
[12.0824,45.6278],
[12.7406,46.1521],
[13.2312,46.1521],
[13.9659,46.0865],
[13.9684,46.2177],
[13.7253,46.3489],
[13.6549,47.0058],
[12.8336,47.0716],
[12.8312,46.8743],
[12.9133,46.8743],
[12.828,46.6115],
[12.0905,46.6772],
[11.9251,46.4802],
[11.5151,46.4145],
[10.5323,46.4145],
[10.3679,46.6115],
[10.0399,46.6115],
[10.1231,46.3489],
[9.8779,46.2833],
[9.3851,46.4802],
[9.1427,46.1521],
[8.4895,46.0865],
[8.4145,45.6278]
]
],
[
[
[11.4945,42.3012],
[11.5744,42.3012],
[11.5748,42.3662],
[11.4949,42.3662],
[11.4945,42.3012]
]
],
[
[
[11.5748,42.3662],
[11.6548,42.3662],
[11.7334,42.1712],
[12.1317,42.0413],
[12.1305,41.9114],
[12.6046,41.522],
[12.9222,41.4571],
[13,41.3274],
[13.7145,41.2625],
[13.7918,41.1328],
[13.9506,41.1328],
[14.1046,40.8736],
[14.4219,40.8736],
[14.4205,40.8088],
[15.2135,40.8088],
[15.2896,40.6792],
[16.1574,40.5496],
[16.7138,40.6144],
[16.7847,40.3554],
[16.8638,40.3554],
[16.945,40.4201],
[16.868,40.4849],
[17.0285,40.5496],
[17.3452,40.5496],
[17.4175,40.3554],
[17.8131,40.3554],
[18.1122,39.9023],
[18.3489,39.9023],
[18.3565,40.0964],
[18.4355,40.0964],
[18.3642,40.2906],
[17.9812,40.6144],
[15.9458,41.4571],
[15.8663,41.4571],
[15.3923,41.5869],
[14.1979,41.5869],
[13.9615,41.7167],
[13.8818,41.7167],
[13.8044,41.8465],
[13.4057,41.8465],
[13.1694,42.0413],
[12.8501,42.0413],
[12.0586,42.8213],
[11.6561,42.5612],
[11.5748,42.3662]
]
]
]}
}
