{
"type": "Feature",
"properties": {"id":"cliopatria-burgundian-kingdom-0644","edge_precision":"unknown","cliopatria_name":"Burgundian Kingdom","cliopatria_from_year":644,"cliopatria_to_year":655,"cliopatria_area_km2":491978,"cliopatria_wikidata":"Q13590051","cliopatria_wikipedia":"Kingdom of the Burgundians","cliopatria_seshat_id":"fr_merovingian_emp_2","cliopatria_member_of":"(Merovingian Empire);(Kingdom of the Franks)"},
"geometry": {"type": "MultiPolygon", "coordinates": [
[
[
[-2.8373,47.5982],
[-2.8315,47.5323],
[-2.5784,47.4665],
[-2.5616,47.269],
[-2.2322,47.269],
[-2.1391,47.1374],
[-2.1944,46.8086],
[-2.0249,46.7429],
[-2.0144,46.6115],
[-1.666,46.3489],
[-1.2518,46.2833],
[-1.2227,45.8898],
[-1.1411,45.8898],
[-1.2131,45.7588],
[-1.0453,45.6933],
[-1.0312,45.4968],
[-1.1894,45.4313],
[-1.1706,45.1696],
[-1.2519,45.1696],
[-1.2054,44.516],
[-1.2863,44.516],
[-1.268,44.2548],
[-1.3488,44.2548],
[-1.3214,43.8634],
[-1.402,43.8634],
[-1.4599,43.5375],
[-1.6922,43.4072],
[-1.6876,43.3421],
[-1.4418,43.2769],
[-1.4284,43.0816],
[-1.027,43.0816],
[-0.5288,42.8213],
[-0.2081,42.8213],
[0.0401,42.6912],
[1.0747,42.8213],
[1.4855,42.6262],
[1.7898,42.9515],
[1.9503,42.9515],
[2.095,43.2769],
[2.6338,43.7982],
[2.7951,43.7982],
[3.0255,44.0591],
[3.4292,44.0591],
[3.8146,44.516],
[4.0575,44.516],
[4.6336,44.2548],
[4.2367,44.0591],
[4.0925,43.6027],
[4.173,43.6027],
[4.1778,43.4723],
[5.0631,43.4723],
[5.3869,43.4072],
[5.3908,43.2769],
[5.6319,43.2769],
[5.7962,43.1467],
[6.2782,43.1467],
[6.5965,43.2769],
[6.6726,43.4723],
[7.4715,43.7982],
[7.5521,43.7982],
[7.6259,44.1896],
[7.3039,44.1243],
[6.978,44.2548],
[6.8885,44.6466],
[6.9695,44.6466],
[6.9652,44.8426],
[6.6375,44.9734],
[6.714,45.1696],
[7.1176,45.3004],
[7.1132,45.4968],
[6.7827,45.6933],
[6.7795,45.8243],
[6.9396,45.9554],
[7.838,45.9554],
[8.2432,46.1521],
[9.1427,46.1521],
[9.3851,46.4802],
[9.3833,46.6772],
[9.5457,46.8743],
[8.3948,46.9401],
[8.2272,47.1374],
[7.484,47.269],
[7.3163,47.4006],
[7.5594,47.5982],
[7.551,47.9938],
[7.6338,47.9938],
[7.7058,48.522],
[8.115,48.8527],
[8.1127,48.9851],
[7.4465,48.9851],
[7.4509,48.7865],
[7.2877,48.6542],
[7.2923,48.4559],
[7.2093,48.4559],
[7.214,48.2578],
[7.0531,48.0597],
[7.0547,47.9938],
[7.1406,47.8619],
[6.9769,47.7959],
[6.8082,47.9278],
[6.062,47.9938],
[5.7246,48.1917],
[4.9766,48.2578],
[4.0445,48.7204],
[3.6289,48.7204],
[3.5394,48.8527],
[3.2033,48.9189],
[3.1099,49.1175],
[2.8563,49.1838],
[2.9257,49.4489],
[3.1729,49.5152],
[3.6131,49.0513],
[3.9463,49.0513],
[3.9402,49.1838],
[3.7704,49.25],
[3.8383,49.5816],
[3.5842,49.6479],
[3.5778,49.7807],
[3.4103,49.7807],
[3.568,49.98],
[3.5548,50.246],
[3.7164,50.3791],
[4.302,50.4457],
[4.3714,50.7788],
[5.0486,50.7121],
[4.9429,51.246],
[4.6045,51.246],
[4.3447,51.3797],
[4.0123,51.246],
[3.5046,51.246],
[3.4097,51.4465],
[3.3249,51.4465],
[2.7394,51.3128],
[2.5778,51.1792],
[1.6562,51.0457],
[1.4247,50.7121],
[1.455,50.246],
[1.0528,49.98],
[0.2241,49.8471],
[-0.0124,49.6479],
[0.007,49.3826],
[-1.2508,49.4489],
[-1.3618,49.7807],
[-2.0316,49.7807],
[-1.9133,49.3826],
[-1.6517,49.25],
[-1.635,49.0513],
[-1.7183,49.0513],
[-1.6076,48.7204],
[-1.6022,48.6542],
[-1.5083,48.522],
[-1.6689,48.4559],
[-1.6473,48.1917],
[-1.7967,47.9938],
[-2.4472,47.8619],
[-2.8373,47.5982]
]
]
]}
}
