{
"type": "Feature",
"properties": {"id":"cliopatria-east-franks-0892","edge_precision":"unknown","cliopatria_name":"East Franks","cliopatria_from_year":892,"cliopatria_to_year":895,"cliopatria_area_km2":556608,"cliopatria_wikidata":"Q153080","cliopatria_wikipedia":"East Francia","cliopatria_seshat_id":"de_east_francia","cliopatria_member_of":"(Carolingian Empire)"},
"geometry": {"type": "MultiPolygon", "coordinates": [
[
[
[3.3993,51.6472],
[3.4062,51.5134],
[3.7486,51.4465],
[3.4097,51.4465],
[3.5046,51.246],
[4.2631,51.3128],
[4.0342,50.7788],
[3.5383,50.5789],
[3.5482,50.3791],
[3.6323,50.3791],
[3.6356,50.3125],
[3.8163,50.0465],
[4.5768,49.9136],
[4.6798,49.4489],
[5.0267,49.1175],
[4.8653,48.9851],
[4.8834,48.522],
[5.2179,48.4559],
[5.4738,48.2578],
[5.4807,48.0597],
[5.6462,48.0597],
[5.8181,47.8619],
[6.3102,47.9938],
[6.9753,47.8619],
[7.15,47.4665],
[7.4783,47.5323],
[7.7284,47.4006],
[7.6526,47.0716],
[7.9018,46.9401],
[8.3126,46.9401],
[8.4028,46.4145],
[8.4886,46.1521],
[8.6521,46.1521],
[8.9821,45.8898],
[9.3031,46.4802],
[10.0415,46.2833],
[10.1228,46.4145],
[10.0409,46.4145],
[10.0399,46.6115],
[12.582,46.6115],
[13.6468,46.5459],
[13.7276,46.4802],
[13.6434,46.3489],
[13.9634,45.9554],
[13.9596,45.7588],
[14.2817,45.5623],
[14.279,45.4313],
[14.9303,45.4313],
[15.0897,45.3004],
[15.4151,45.3004],
[15.5721,45.1042],
[15.9783,45.1042],
[16.1366,44.9734],
[16.4613,44.9734],
[16.538,44.8426],
[16.7837,44.908],
[16.8649,44.908],
[18.4971,45.1042],
[18.7378,45.0388],
[18.8095,44.8426],
[19.0561,44.908],
[19.1373,44.908],
[19.2384,45.3004],
[18.9976,45.3659],
[19.0041,45.4968],
[18.9227,45.4968],
[18.9259,45.5623],
[18.7788,45.8898],
[18.8604,45.8898],
[19.0501,46.4145],
[18.8141,46.6115],
[18.837,47.0716],
[19.1729,47.2032],
[19.1868,47.4665],
[19.0253,47.5323],
[18.9531,47.73],
[17.7143,47.73],
[17.0643,47.9938],
[16.6632,48.3238],
[16.0783,48.1917],
[15.4985,48.1917],
[15.171,48.3238],
[14.5062,48.2578],
[14.5094,48.3899],
[14.1806,48.522],
[14.1835,48.6542],
[13.6057,48.8527],
[13.443,49.0513],
[13.2763,49.0513],
[13.113,49.25],
[12.5324,49.5152],
[12.5341,49.6479],
[12.3676,49.7143],
[12.3709,49.98],
[12.0383,50.246],
[12.0398,50.3791],
[11.9557,50.3791],
[11.9571,50.5122],
[12.0412,50.5122],
[12.2112,50.6455],
[12.1319,51.0457],
[11.2889,51.3128],
[11.2902,51.5134],
[11.5458,51.6472],
[11.5476,51.8481],
[11.8049,52.0492],
[11.7198,52.0492],
[11.5508,52.1833],
[11.5522,52.3176],
[11.6374,52.3176],
[11.6411,52.6535],
[11.7266,52.6535],
[11.7306,52.99],
[11.7314,53.0574],
[10.3594,53.4621],
[10.3596,53.5971],
[10.1873,53.6647],
[10.1873,53.8676],
[10.0146,53.9352],
[10.1009,54.3417],
[9.1485,54.2061],
[8.8874,54.3417],
[8.8022,54.2061],
[8.8029,54.1384],
[8.8922,53.8676],
[8.4595,53.9352],
[8.377,53.6647],
[8.2057,53.5971],
[7.9448,53.7323],
[7.0823,53.7323],
[6.9133,53.5971],
[6.9168,53.4621],
[6.2262,53.5296],
[5.5423,53.3946],
[5.2089,53.1248],
[5.3857,52.99],
[5.3908,52.8554],
[5.1366,52.7881],
[5.0564,52.6535],
[4.8797,52.7881],
[4.8713,52.99],
[4.6998,52.99],
[4.4547,52.7208],
[4.4638,52.5191],
[4.2169,52.3176],
[4.2232,52.1833],
[3.974,52.0492],
[3.9805,51.9151],
[3.8104,51.9151],
[3.817,51.7811],
[3.6471,51.7811],
[3.7387,51.6472],
[3.3993,51.6472]
]
]
]}
}
