{
"type": "Feature",
"properties": {"id":"cliopatria-county-of-foix-1453","edge_precision":"unknown","cliopatria_name":"County of Foix","cliopatria_from_year":1453,"cliopatria_to_year":1462,"cliopatria_area_km2":16402,"cliopatria_wikidata":"Q1481436","cliopatria_wikipedia":"County of Foix","cliopatria_seshat_id":"fr_valois_k_2","cliopatria_member_of":"(Kingdom of France)"},
"geometry": {"type": "MultiPolygon", "coordinates": [
[
[
[-1.0443,43.3421],
[-0.8706,43.1467],
[-0.8579,42.9515],
[-0.5288,42.8213],
[-0.2081,42.8213],
[0.0401,42.6912],
[0.9945,42.8213],
[1.0747,42.8213],
[1.4855,42.6262],
[1.7258,42.6262],
[1.8732,42.8864],
[1.305,43.0165],
[1.2773,43.5375],
[0.948,43.6678],
[0.7175,43.4723],
[0.476,43.4723],
[0.4032,43.3421],
[0.0815,43.3421],
[0.0894,43.2118],
[-0.0713,43.2118],
[-0.0793,43.3421],
[-0.3287,43.4723],
[-0.6548,43.5375],
[-1.0443,43.3421]
]
],
[
[
[2.6607,43.2118],
[2.7497,43.0165],
[2.9905,43.0165],
[3.14,43.2769],
[3.3008,43.2769],
[3.2981,43.3421],
[3.1317,43.4723],
[2.8903,43.4723],
[2.6607,43.2118]
]
]
]}
}
