{
"type": "Feature",
"properties": {"id":"cliopatria-kingdom-of-mrauk-u-1588","edge_precision":"unknown","cliopatria_name":"Kingdom of Mrauk U","cliopatria_from_year":1588,"cliopatria_to_year":1669,"cliopatria_area_km2":76861,"cliopatria_wikidata":"Q10791211","cliopatria_wikipedia":"Kingdom of Mrauk U"},
"geometry": {"type": "MultiPolygon", "coordinates": [
[
[
[91.3748,22.4648],
[91.7374,22.4005],
[91.7648,22.0791],
[91.8948,21.9505],
[91.8302,21.5005],
[92.0531,21.5005],
[92.0074,21.1791],
[92.1195,20.922],
[92.3891,20.7291],
[92.371,20.6005],
[92.6313,20.3434],
[92.8537,20.3434],
[92.8265,20.1505],
[93.0579,20.2148],
[93.0215,19.9577],
[93.401,20.022],
[93.3827,19.8934],
[93.605,19.8934],
[93.5774,19.7005],
[93.7996,19.7005],
[93.6795,19.3791],
[93.5315,19.3791],
[93.5132,19.2505],
[93.7633,18.9291],
[93.5414,18.9291],
[93.514,18.7362],
[93.8006,18.6719],
[93.828,18.8648],
[94.1238,18.8648],
[94.2258,18.5434],
[94.3645,18.4791],
[94.5222,18.0291],
[94.5327,17.579],
[94.6065,17.579],
[94.4353,16.8719],
[94.4266,16.8076],
[94.574,16.8076],
[94.848,17.1933],
[95.0674,17.7076],
[95.0391,18.0291],
[95.1589,18.3505],
[94.9187,18.7362],
[94.9559,18.9934],
[94.7897,19.3791],
[94.8363,19.7005],
[94.4477,20.6005],
[94.1046,20.7934],
[94.1418,21.0505],
[93.7799,21.1148],
[93.5201,21.372],
[93.0931,21.5005],
[93.0561,21.7577],
[93.0655,21.822],
[92.9912,21.822],
[93.0194,22.0148],
[92.5922,22.1434],
[92.575,22.5291],
[92.316,22.7863],
[92.1671,22.7863],
[91.9729,22.9791],
[91.526,22.9791],
[91.3748,22.4648]
]
]
]}
}
