{
"type": "Feature",
"properties": {"id":"cliopatria-champa-0546","edge_precision":"unknown","cliopatria_name":"Chámpa","cliopatria_from_year":546,"cliopatria_to_year":554,"cliopatria_area_km2":79258,"cliopatria_wikidata":"Q216786","cliopatria_wikipedia":"Champa"},
"geometry": {"type": "MultiPolygon", "coordinates": [
[
[
[105.7696,17.7076],
[106.4163,17.129],
[106.3962,17.0005],
[106.5437,17.0005],
[106.5678,16.679],
[106.7496,16.4219],
[106.9706,16.4219],
[107.0151,16.229],
[107.5016,16.0361],
[107.2522,15.8433],
[107.224,15.6504],
[107.6283,15.3933],
[107.6654,15.1361],
[107.895,15.2004],
[107.877,15.0718],
[108.015,15.0075],
[107.9884,14.8147],
[108.1091,14.6218],
[108.0495,14.1718],
[108.2777,13.6575],
[108.1648,13.336],
[108.2382,13.336],
[108.354,13.0789],
[108.2511,12.1789],
[108.098,12.115],
[108.077,11.922],
[108.1362,11.7931],
[108.496,11.729],
[108.622,11.536],
[109.0542,11.4717],
[109.2141,11.6003],
[109.2251,12.3717],
[109.3203,12.5646],
[109.4669,12.5646],
[109.5119,12.9503],
[109.3306,13.2718],
[109.3544,14.0432],
[109.1764,14.3646],
[109.1553,14.7504],
[108.9706,15.0075],
[109.0164,15.329],
[108.6767,15.5218],
[108.6955,15.6504],
[108.3657,15.9076],
[108.3308,16.1647],
[108.1393,16.3576],
[107.8447,16.3576],
[107.8644,16.4861],
[107.6532,16.5504],
[107.6731,16.679],
[107.482,16.8719],
[107.3346,16.8719],
[107.1002,17.2576],
[106.7517,17.3862],
[106.5917,17.7719],
[106.2965,17.7719],
[106.2432,17.9005],
[105.874,17.9005],
[105.7797,17.7719],
[105.7696,17.7076]
]
]
]}
}
