{
"type": "Feature",
"properties": {"id":"cliopatria-habsburg-monarchy-1648","edge_precision":"unknown","cliopatria_name":"Habsburg Monarchy","cliopatria_from_year":1648,"cliopatria_to_year":1652,"cliopatria_area_km2":329189,"cliopatria_wikidata":"Q66504140","cliopatria_wikipedia":"Habsburg monarchy","cliopatria_seshat_id":"at_habsburg_1","cliopatria_member_of":"(Habsburg Monarchy)"},
"geometry": {"type": "MultiPolygon", "coordinates": [
[
[
[7.5524,47.9278],
[7.6351,47.9278],
[7.6365,47.8619],
[7.8882,47.6641],
[7.5608,47.5323],
[7.7297,47.3348],
[8.0592,47.3348],
[8.1381,47.5323],
[8.0545,47.5982],
[8.2184,47.6641],
[8.1278,48.1257],
[8.2106,48.1257],
[8.2083,48.2578],
[7.9597,48.2578],
[7.7966,48.1257],
[7.7927,48.3238],
[7.6269,48.3238],
[7.5524,47.9278]
]
],
[
[
[7.7875,48.5881],
[7.7888,48.522],
[7.9548,48.522],
[7.9536,48.5881],
[7.7875,48.5881]
]
],
[
[
[8.2061,48.3899],
[8.2912,48.2578],
[8.2901,48.3238],
[8.4549,48.3899],
[8.2061,48.3899]
]
],
[
[
[8.2106,48.1257],
[8.2128,47.9938],
[8.461,47.9938],
[8.46,48.0597],
[8.3772,48.0597],
[8.3762,48.1257],
[8.2106,48.1257]
]
],
[
[
[8.2858,48.5881],
[8.3709,48.4559],
[8.4529,48.522],
[8.4519,48.5881],
[8.2858,48.5881]
]
],
[
[
[8.5349,48.5881],
[8.6189,48.522],
[8.7019,48.522],
[8.617,48.6542],
[8.5349,48.5881]
]
],
[
[
[8.5388,48.3238],
[8.5398,48.2578],
[8.7064,48.1917],
[8.7875,48.3238],
[8.5388,48.3238]
]
],
[
[
[8.6264,47.9938],
[8.6283,47.8619],
[8.7936,47.8619],
[8.7101,47.9278],
[8.7092,47.9938],
[8.6264,47.9938]
]
],
[
[
[8.8704,48.3238],
[8.8721,48.1917],
[9.0378,48.1917],
[9.037,48.2578],
[8.9541,48.2578],
[8.9533,48.3238],
[8.8704,48.3238]
]
],
[
[
[8.878,47.73],
[9.0431,47.73],
[9.2902,47.7959],
[9.2882,47.9938],
[9.1228,47.9938],
[9.1242,47.8619],
[9.0416,47.8619],
[8.9573,47.9938],
[8.878,47.73]
]
],
[
[
[9.202,48.3238],
[9.2027,48.2578],
[9.3685,48.2578],
[9.3666,48.4559],
[9.202,48.3238]
]
],
[
[
[9.3716,47.9278],
[9.5375,47.8619],
[9.5364,47.9938],
[9.4543,47.9278],
[9.3716,47.9278]
]
],
[
[
[9.4496,48.4559],
[9.4519,48.1917],
[9.7824,48.3238],
[10.0314,48.2578],
[9.9474,48.4559],
[9.4496,48.4559]
]
],
[
[
[9.5414,47.4006],
[9.543,47.2032],
[9.6253,47.2032],
[9.6258,47.1374],
[9.9564,46.8743],
[10.2028,46.8743],
[10.3667,47.0058],
[10.4501,46.5459],
[10.532,46.5459],
[11.1879,46.6115],
[11.1056,46.4145],
[11.2694,46.4145],
[11.5159,46.6115],
[12.0905,46.6772],
[13.5649,46.5459],
[13.5627,46.4145],
[13.3978,46.3489],
[13.4765,46.1521],
[13.312,46.0865],
[13.308,45.8243],
[13.3896,45.8243],
[13.7149,45.7588],
[13.7102,45.4968],
[14.1175,45.4968],
[13.7869,45.235],
[14.027,45.0388],
[14.1894,45.0388],
[14.1962,45.3659],
[14.6031,45.3659],
[14.5985,45.1696],
[14.7595,45.1042],
[14.7564,44.9734],
[14.9187,44.9734],
[14.9089,44.5813],
[15.1484,44.4507],
[15.2293,44.4507],
[15.4777,44.6466],
[15.8038,44.7119],
[15.8198,45.235],
[15.9824,45.235],
[16.2199,45.0388],
[16.4703,45.235],
[16.7956,45.235],
[16.8027,45.4313],
[17.3015,45.6933],
[17.2277,45.8898],
[17.0644,45.8898],
[17.0744,46.1521],
[16.9133,46.2177],
[17.2613,46.7429],
[17.6772,46.8743],
[18.1701,46.8743],
[18.4258,47.0716],
[18.5272,47.4665],
[18.9496,47.6641],
[19.2115,47.9278],
[20.125,47.9938],
[20.4436,47.7959],
[20.6915,47.7959],
[20.6832,47.6641],
[20.8482,47.6641],
[21.0306,47.9278],
[21.4577,48.1257],
[21.4715,48.3238],
[21.642,48.3899],
[21.7441,48.6542],
[22.3358,48.7865],
[22.4398,49.0513],
[21.7983,49.3826],
[20.7129,49.3826],
[20.7038,49.25],
[20.4536,49.25],
[20.5459,49.3826],
[20.2119,49.3826],
[19.8655,49.1838],
[19.4725,49.5816],
[18.8798,49.4489],
[18.8873,49.5816],
[19.2376,49.8471],
[19.0779,49.98],
[19.1861,50.3791],
[19.022,50.4457],
[19.0302,50.5789],
[18.8618,50.5789],
[18.7013,50.7121],
[18.7093,50.8455],
[18.0493,51.1124],
[17.9723,51.246],
[17.5493,51.246],
[17.3197,51.7142],
[16.9801,51.7142],
[16.719,51.5803],
[16.5556,51.7142],
[16.1311,51.7142],
[16.137,51.8481],
[15.8083,52.1163],
[15.814,52.2505],
[15.6462,52.3176],
[15.4703,52.1833],
[15.132,52.2505],
[14.9543,52.0492],
[15.0274,51.7142],
[14.8576,51.7142],
[14.853,51.5803],
[15.2722,51.4465],
[15.2649,51.246],
[15.1803,51.246],
[15.1732,51.0457],
[14.9998,50.9122],
[14.5778,50.9122],
[14.4974,51.0457],
[14.3284,51.0457],
[14.154,50.8455],
[13.3919,50.7121],
[12.7965,50.3791],
[12.3761,50.3791],
[12.2903,50.246],
[12.1223,50.246],
[12.1216,50.1795],
[12.3709,49.98],
[12.3676,49.7143],
[12.5341,49.6479],
[12.5324,49.5152],
[13.113,49.25],
[13.3585,48.9851],
[13.525,48.9851],
[13.5238,48.9189],
[13.607,48.9189],
[14.1005,48.6542],
[13.8472,48.4559],
[13.1773,48.0597],
[13.1752,47.9278],
[13.4189,47.6641],
[13.4125,47.269],
[13.6595,47.269],
[13.7383,47.0716],
[13.0794,47.0058],
[12.8345,47.1374],
[12.7522,47.1374],
[12.1757,47.0716],
[12.1774,47.269],
[12.5081,47.4006],
[12.5109,47.6641],
[11.6026,47.5982],
[11.1896,47.4006],
[10.6124,47.5982],
[10.4474,47.5982],
[10.3657,47.3348],
[10.1185,47.3348],
[9.9527,47.5323],
[9.6228,47.5323],
[9.6238,47.4006],
[9.5414,47.4006]
],
[
[20.4536,49.25],
[20.4492,49.1838],
[20.3658,49.1838],
[20.3615,49.1175],
[20.2781,49.1175],
[20.2867,49.25],
[20.4536,49.25]
]
],
[
[
[10.1134,48.4559],
[10.114,48.3238],
[10.2798,48.3238],
[10.2795,48.3899],
[10.1966,48.3899],
[10.1963,48.4559],
[10.1134,48.4559]
]
],
[
[
[10.1152,48.0597],
[10.3636,47.9938],
[10.5287,48.1917],
[10.5286,48.2578],
[10.1971,48.2578],
[10.1152,48.0597]
]
]
]}
}
