{
"type": "Feature",
"properties": {"id":"cliopatria-greek-city-states-327bce","edge_precision":"unknown","cliopatria_name":"Greek City-States","cliopatria_from_year":-326,"cliopatria_to_year":-324,"cliopatria_area_km2":97525,"cliopatria_wikidata":"Q148837","cliopatria_wikipedia":"Polis"},
"geometry": {"type": "MultiPolygon", "coordinates": [
[
[
[-0.5711,39.5143],
[-0.539,38.9326],
[-0.126,38.5451],
[0.0961,38.8034],
[-0.3137,39.1265],
[-0.3454,39.7083],
[-0.2019,39.967],
[-0.514,39.9023],
[-0.5711,39.5143]
]
],
[
[
[2.6695,43.0165],
[2.7754,42.4312],
[2.6982,42.3662],
[3.0397,41.8465],
[3.1781,42.3662],
[3.0099,42.5612],
[2.9849,43.1467],
[3.8509,43.6027],
[4.173,43.6027],
[4.1778,43.4723],
[5.0631,43.4723],
[5.3869,43.4072],
[5.3908,43.2769],
[5.6319,43.2769],
[5.7962,43.1467],
[6.2782,43.1467],
[6.5965,43.2769],
[6.5936,43.4072],
[5.8696,43.4072],
[4.7279,43.8634],
[3.4455,43.6678],
[2.741,43.2118],
[2.7497,43.0165],
[2.6695,43.0165]
]
],
[
[
[12.7242,37.6417],
[13.192,37.5773],
[13.5784,37.2549],
[14.2779,37.126],
[14.661,36.7393],
[15.0498,36.7393],
[15.2139,37.1904],
[15.0592,37.2549],
[15.0665,37.6417],
[15.3895,38.1578],
[15.6243,38.1578],
[15.6982,37.9643],
[15.9328,37.9643],
[16.4919,38.416],
[16.5024,38.8034],
[17.1383,39.0618],
[17.0697,39.385],
[16.9162,39.5143],
[16.4473,39.6436],
[16.4567,39.967],
[16.6975,40.0964],
[16.6245,40.2906],
[16.8617,40.2906],
[16.945,40.4201],
[16.868,40.4849],
[17.0285,40.5496],
[17.3452,40.5496],
[17.4175,40.3554],
[17.8131,40.3554],
[18.1122,39.9023],
[18.3489,39.9023],
[18.3565,40.0964],
[18.4355,40.0964],
[18.3642,40.2906],
[17.9812,40.6144],
[17.5036,40.5496],
[17.5083,40.6792],
[17.1936,40.744],
[16.8765,40.744],
[16.3872,40.2906],
[16.3853,40.2259],
[16.3062,40.2259],
[16.3796,40.0317],
[16.1409,39.967],
[16.1463,40.1612],
[15.5157,40.2259],
[15.3607,40.3554],
[15.1342,40.8088],
[14.6584,40.8088],
[14.6556,40.6792],
[14.9711,40.6144],
[15.0414,40.2259],
[15.1995,40.2259],
[15.4319,40.0317],
[15.7478,40.0317],
[15.6655,39.9023],
[15.8989,39.7729],
[16.1165,39.0618],
[16.2703,38.9326],
[16.2652,38.7389],
[15.9497,38.6743],
[15.9419,38.3515],
[15.1547,38.1578],
[15.1521,38.0288],
[14.8346,37.7707],
[14.7519,37.5128],
[14.9778,37.0615],
[14.7442,37.0615],
[12.9603,37.8352],
[12.804,37.8352],
[12.7242,37.6417]
]
],
[
[
[19.3338,40.744],
[19.8126,40.8088],
[19.8285,41.1328],
[19.6824,41.3922],
[19.7783,41.7167],
[19.6319,41.9764],
[19.3894,41.9114],
[19.5424,41.7816],
[19.4564,41.6518],
[19.5108,41.1328],
[19.4314,41.1328],
[19.4985,40.8736],
[19.3338,40.744]
]
],
[
[
[22.3563,36.6749],
[22.5118,36.6749],
[22.5994,36.8682],
[22.8328,36.8682],
[23.056,36.6749],
[22.9174,36.9971],
[22.8396,36.9971],
[22.6194,37.2549],
[22.3856,37.2549],
[22.3563,36.6749]
]
],
[
[
[22.874,36.1596],
[23.1068,36.1596],
[23.1168,36.3528],
[22.9649,36.4172],
[22.8872,36.4172],
[22.874,36.1596]
]
],
[
[
[23.6154,35.5158],
[23.6792,35.2584],
[24.4484,35.194],
[24.7574,35.194],
[24.8237,35.001],
[26.1401,35.0653],
[26.2253,35.194],
[25.6806,35.1297],
[25.6923,35.3227],
[24.301,35.3227],
[24.1499,35.3871],
[24.1569,35.5158],
[23.6154,35.5158]
]
],
[
[
[29.0426,41.1328],
[29.1757,40.8736],
[29.3668,41.1977],
[29.2874,41.1977],
[29.0426,41.1328]
]
],
[
[
[29.6143,45.6933],
[29.8589,45.6933],
[30.045,45.8898],
[30.2977,45.9554],
[30.8766,46.6772],
[31.5329,46.6772],
[31.5668,46.9401],
[31.0821,47.0058],
[31.0655,46.8743],
[30.4584,46.6115],
[30.2707,46.4145],
[30.1888,46.4145],
[29.6443,45.9554],
[29.6143,45.6933]
]
],
[
[
[31.3605,41.2625],
[31.5122,41.1977],
[31.5917,41.1977],
[31.6933,41.3922],
[31.3605,41.2625]
]
],
[
[
[32.229,34.9366],
[32.3667,34.7436],
[33.0436,34.5506],
[33.1321,34.6793],
[33.5234,34.7436],
[33.6954,34.9366],
[34.0873,35.001],
[33.9571,35.2584],
[34.5294,35.5802],
[34.5421,35.7089],
[34.3098,35.7089],
[33.7374,35.3871],
[32.8869,35.3871],
[32.8752,35.2584],
[32.5547,35.1297],
[32.2458,35.1297],
[32.229,34.9366]
]
],
[
[
[33.4488,44.516],
[33.9256,44.4507],
[34.3763,44.7773],
[35.1252,44.908],
[35.2351,45.1042],
[35.1538,45.1042],
[35.1826,45.3004],
[34.9863,45.3004],
[33.9169,44.9734],
[33.7796,45.1553],
[33.4589,45.1872],
[33.6101,45.1042],
[33.4488,44.516]
]
],
[
[
[34.7932,41.9764],
[35.015,41.8465],
[35.0063,41.7816],
[35.086,41.7816],
[35.1212,42.0413],
[34.7932,41.9764]
]
],
[
[
[36.4386,41.1977],
[36.8971,41.068],
[36.879,40.9384],
[37.1262,41.0032],
[37.8732,40.6792],
[38.8241,40.6792],
[39.1605,40.8088],
[39.5471,40.744],
[39.6858,40.6144],
[39.8642,40.744],
[40.5674,40.6792],
[40.6084,40.9384],
[40.4703,41.068],
[40.3703,40.9384],
[39.7355,40.9384],
[39.2098,41.1328],
[38.9616,41.068],
[38.9518,41.0032],
[38.2977,40.8736],
[38.1581,41.0032],
[37.8312,40.9384],
[37.7706,41.068],
[37.2147,41.068],
[37.2332,41.1977],
[37.0651,41.1328],
[36.7748,41.3274],
[36.4386,41.1977]
]
],
[
[
[38.3502,47.2032],
[39.1969,47.3348],
[39.1263,47.4006],
[39.1382,47.4665],
[39.0794,47.5982],
[38.6669,47.5982],
[38.3846,47.4006],
[38.3502,47.2032]
]
],
[
[
[39.6305,43.733],
[39.9778,43.4072],
[40.2192,43.4072],
[40.4157,43.1467],
[40.8173,43.1467],
[41.1158,43.0165],
[41.1733,42.8864],
[41.414,42.8864],
[41.4369,43.0165],
[41.2075,43.0816],
[41.15,43.2118],
[40.3801,43.4072],
[40.322,43.5375],
[40.4138,43.6027],
[39.6305,43.733]
]
],
[
[
[39.9529,43.733],
[40.0335,43.733],
[40.0447,43.7982],
[39.964,43.7982],
[39.9529,43.733]
]
]
]}
}
