{
"type": "Feature",
"properties": {"id":"cliopatria-duchy-of-silesia-1236","edge_precision":"unknown","cliopatria_name":"Duchy of Silesia","cliopatria_from_year":1236,"cliopatria_to_year":1240,"cliopatria_area_km2":119974,"cliopatria_wikidata":"Q568638","cliopatria_wikipedia":"Duchy of Silesia","cliopatria_seshat_id":"pl_piast_dyn_2","cliopatria_member_of":"(Duchies of Poland)"},
"geometry": {"type": "MultiPolygon", "coordinates": [
[
[
[14.1251,52.7881],
[14.5486,52.6535],
[14.5374,52.3176],
[14.9566,52.1163],
[14.9519,51.9822],
[14.6072,51.8481],
[14.6007,51.6472],
[14.7638,51.4465],
[14.9333,51.4465],
[15.1947,51.6472],
[15.5342,51.6472],
[15.529,51.5134],
[15.6932,51.3797],
[15.6801,51.0457],
[15.9309,50.9789],
[15.9229,50.7788],
[17.246,50.246],
[17.4338,50.6455],
[17.8586,50.7121],
[17.8068,51.3128],
[17.5564,51.3797],
[17.8329,51.7811],
[17.7555,51.9151],
[17.2524,52.0492],
[16.6534,51.9822],
[16.4075,52.1833],
[15.9845,52.2505],
[16.1065,53.0574],
[15.9411,53.1922],
[15.9503,53.3946],
[15.7844,53.5296],
[15.4399,53.5296],
[15.3454,53.3271],
[14.9964,53.1922],
[14.8173,52.99],
[14.56,52.99],
[14.4811,53.1922],
[14.1334,53.0574],
[14.1251,52.7881]
]
],
[
[
[16.7245,53.3946],
[16.7963,53.1248],
[17.1249,52.8554],
[17.5493,52.7881],
[17.6272,52.6535],
[18.0506,52.5863],
[18.1279,52.4519],
[18.2133,52.4519],
[18.2009,52.2505],
[18.2862,52.2505],
[18.5377,52.1833],
[18.525,51.9822],
[18.6824,51.7811],
[18.7214,51.0457],
[18.5445,50.9122],
[18.5328,50.7121],
[18.7856,50.7121],
[19.1861,50.3791],
[19.1578,49.9136],
[19.397,49.7143],
[19.3889,49.5816],
[19.8655,49.1838],
[20.2119,49.3826],
[20.9587,49.3163],
[21.3857,49.4489],
[21.9911,49.7143],
[21.5143,50.0465],
[21.5246,50.1795],
[21.288,50.3791],
[21.0358,50.3791],
[20.8925,50.7121],
[20.2089,50.5789],
[20.2183,50.7121],
[20.3917,50.7788],
[20.9598,51.5803],
[20.7106,51.6472],
[20.7211,51.7811],
[20.5616,51.9151],
[20.3065,51.9151],
[20.0663,52.1163],
[20.0764,52.2505],
[19.4844,52.3176],
[19.423,52.6535],
[19.0996,52.9227],
[18.9282,52.9227],
[18.5219,53.2596],
[18.5263,53.3271],
[18.9657,53.4621],
[19.0614,53.5971],
[19.4921,53.5971],
[19.4972,53.6647],
[19.411,53.6647],
[19.4211,53.7999],
[19.3348,53.7999],
[19.3398,53.8676],
[19.2685,54.0706],
[19.355,54.0706],
[19.4622,54.3417],
[18.6869,54.4095],
[18.4453,54.6811],
[18.4595,54.8851],
[17.5017,54.8851],
[17.4892,54.6811],
[17.5761,54.6811],
[17.5347,54.0029],
[17.7773,53.7323],
[17.7649,53.5296],
[16.9038,53.5296],
[16.7245,53.3946]
]
]
]}
}
