{
"type": "Feature",
"properties": {"id":"cliopatria-centralist-mexico-1840","edge_precision":"unknown","cliopatria_name":"Centralist Mexico","cliopatria_from_year":1840,"cliopatria_to_year":1841,"cliopatria_area_km2":1452609,"cliopatria_wikidata":"Q5062192","cliopatria_wikipedia":"Centralist Republic of Mexico"},
"geometry": {"type": "MultiPolygon", "coordinates": [
[
[
[-123.7441,38.9972],
[-122.9775,38.2869],
[-123.0536,38.1578],
[-122.9736,38.0288],
[-122.5814,37.8998],
[-122.5026,37.7707],
[-122.5805,37.6417],
[-122.1963,36.9971],
[-121.8097,36.8682],
[-121.9716,36.6105],
[-121.8285,36.224],
[-121.6278,36.4172],
[-121.7014,36.546],
[-121.546,36.546],
[-121.4646,36.6749],
[-121.5359,36.9326],
[-121.3375,37.126],
[-121.5676,37.3838],
[-121.6059,37.4483],
[-121.9168,37.7062],
[-122.2727,38.2869],
[-122.7046,38.3515],
[-123.0279,38.7389],
[-123.7441,38.9972]
]
],
[
[
[-121.8132,38.8034],
[-121.5719,38.5451],
[-121.2987,38.6097],
[-121.5402,38.868],
[-121.6188,38.868],
[-121.8132,38.8034]
]
],
[
[
[-119.3186,34.2933],
[-119.1757,34.1647],
[-119.1429,34.1004],
[-118.5719,34.0361],
[-118.4105,33.7146],
[-118.0585,33.7789],
[-118.2198,34.1004],
[-118.4718,34.2933],
[-119.1977,34.3577],
[-119.1646,34.2933],
[-119.3186,34.2933]
]
],
[
[
[-117.7138,34.1647],
[-117.5078,33.9075],
[-117.3541,33.9075],
[-117.3862,33.9718],
[-117.2324,33.9718],
[-117.4385,34.229],
[-117.5155,34.229],
[-117.7138,34.1647]
]
],
[
[
[-117.3909,33.2002],
[-117.0423,32.3002],
[-116.7135,31.9146],
[-116.5607,31.4005],
[-116.3522,31.2719],
[-116.2622,30.8863],
[-116.0829,30.822],
[-115.7621,29.858],
[-115.5089,29.6009],
[-114.6547,29.1509],
[-114.0394,28.5081],
[-114.0229,28.251],
[-114.2036,28.1224],
[-114.0696,27.7367],
[-114.2645,27.8652],
[-115.0931,27.8652],
[-115.0485,27.7367],
[-113.5802,26.708],
[-113.1297,26.708],
[-112.7096,26.3222],
[-112.2763,26.1294],
[-112.0503,25.615],
[-112.1252,25.615],
[-112.0702,25.4221],
[-112.1657,25.2293],
[-112.0949,24.9721],
[-112.3017,24.9078],
[-112.158,24.6506],
[-111.9508,24.7149],
[-111.842,24.5864],
[-111.9915,24.5864],
[-111.8663,24.3935],
[-111.5842,24.4578],
[-110.691,23.8792],
[-110.6594,23.7506],
[-110.1192,23.3649],
[-109.9397,22.9148],
[-109.6418,22.9148],
[-109.2691,23.2363],
[-109.3296,23.4934],
[-109.5995,23.6863],
[-109.694,24.072],
[-109.934,24.1363],
[-110.1484,24.3935],
[-110.2977,24.3935],
[-110.265,24.2649],
[-110.5801,24.3292],
[-110.6739,24.9721],
[-110.4899,24.8435],
[-110.4843,25.1007],
[-110.7263,25.165],
[-110.6913,25.0364],
[-110.7661,25.0364],
[-111.4976,26.7723],
[-111.6132,26.9009],
[-111.8386,26.9009],
[-111.8457,27.158],
[-111.996,27.158],
[-112.3913,27.6724],
[-112.5636,27.7367],
[-112.832,28.5081],
[-113.006,28.5724],
[-113.2221,28.9581],
[-113.4726,29.0224],
[-113.5934,29.3438],
[-113.8433,29.6009],
[-114.4492,29.9865],
[-114.5785,30.3079],
[-114.5026,30.3079],
[-114.6078,30.565],
[-114.5319,30.565],
[-114.8297,31.2719],
[-114.6846,31.4647],
[-114.7208,31.7218],
[-114.1514,31.4647],
[-113.7221,31.529],
[-113.5356,31.2719],
[-113.1278,31.2076],
[-113.0467,31.0148],
[-113.1452,30.8863],
[-112.3589,29.2795],
[-112.4861,29.2152],
[-112.495,28.8295],
[-112.1696,28.7652],
[-112.1878,29.0224],
[-112.1122,29.0224],
[-111.6774,28.4438],
[-111.2859,28.1867],
[-111.2197,27.9938],
[-110.5735,27.8652],
[-110.4172,27.158],
[-109.9457,27.0938],
[-109.8452,26.7723],
[-109.2606,26.5794],
[-109.1835,26.3222],
[-109.4267,26.1294],
[-109.3904,25.7436],
[-109.0545,25.615],
[-109.0186,25.4864],
[-108.794,25.4864],
[-108.4991,25.2293],
[-108.1076,25.165],
[-107.8653,24.5221],
[-107.7158,24.5221],
[-107.5927,24.3292],
[-106.9757,23.9435],
[-106.4373,23.2363],
[-105.6985,22.5934],
[-105.5344,21.822],
[-105.1315,21.3077],
[-105.3151,21.1148],
[-105.2892,20.9862],
[-105.486,20.8577],
[-105.4603,20.7291],
[-105.2249,20.6648],
[-105.6315,20.472],
[-105.5425,20.022],
[-105.0467,19.3791],
[-103.8264,18.8005],
[-103.5205,18.3505],
[-103.1894,18.1576],
[-102.2565,17.9005],
[-101.8989,17.9648],
[-101.11,17.2576],
[-100.023,16.9362],
[-99.6854,16.679],
[-98.8539,16.5504],
[-98.4341,16.229],
[-98.0559,16.1647],
[-97.7215,15.9076],
[-97.0493,15.8433],
[-96.7261,15.6504],
[-96.211,15.6504],
[-94.9536,16.1004],
[-94.772,16.3576],
[-94.6688,16.1647],
[-94.1534,16.1647],
[-93.4059,15.5861],
[-93.3324,15.5861],
[-92.8544,15.8433],
[-92.6886,15.7147],
[-92.6612,15.5218],
[-92.0547,15.3933],
[-91.8884,15.779],
[-91.6312,16.0361],
[-90.4626,16.1004],
[-90.334,16.229],
[-90.4455,16.4861],
[-90.8721,16.8719],
[-91.2705,17.0647],
[-91.2905,17.1933],
[-91.0693,17.1933],
[-90.9419,17.3219],
[-90.9396,17.7719],
[-89.168,17.7719],
[-89.0509,17.9648],
[-88.7556,17.9648],
[-88.3945,18.4791],
[-88.1728,18.4791],
[-88.13,18.6719],
[-87.9925,18.7362],
[-87.9614,18.5434],
[-88.0353,18.5434],
[-87.9101,18.2219],
[-87.6987,18.2862],
[-87.7294,18.4791],
[-87.453,19.0577],
[-87.495,19.3148],
[-87.368,19.4434],
[-87.3891,19.5719],
[-87.5478,19.6362],
[-87.294,19.8934],
[-87.3474,20.2148],
[-87.041,20.6005],
[-86.8293,20.6648],
[-86.8508,20.7934],
[-86.6607,20.9862],
[-86.7484,21.5005],
[-86.9192,21.6291],
[-87.2164,21.6291],
[-87.3427,21.5005],
[-88.4795,21.6291],
[-89.1771,21.372],
[-89.9827,21.3077],
[-90.1715,21.1148],
[-90.3199,21.1148],
[-90.4194,20.4077],
[-90.4935,20.4077],
[-90.4794,19.8934],
[-90.7427,19.7005],
[-90.8143,19.2505],
[-91.3519,18.9291],
[-91.298,18.6076],
[-91.4459,18.6076],
[-91.4984,18.4791],
[-91.794,18.4791],
[-91.8371,18.7362],
[-92.5024,18.7362],
[-92.6177,18.5434],
[-93.4937,18.4791],
[-94.0413,18.2219],
[-94.4845,18.2219],
[-94.7722,18.6076],
[-95.7668,18.8005],
[-96.2506,19.4434],
[-96.5147,20.0862],
[-97.0775,20.7291],
[-97.371,21.5005],
[-97.5442,21.6291],
[-97.6318,22.0791],
[-98.3138,22.1434],
[-98.5114,22.0148],
[-98.76,22.1434],
[-99.1319,22.1434],
[-99.5076,22.5291],
[-99.7921,22.4648],
[-100.2174,22.722],
[-100.3545,23.3649],
[-100.7272,23.3649],
[-100.7071,23.9435],
[-100.6325,23.9435],
[-100.6917,24.2006],
[-100.617,24.2006],
[-100.7234,24.6506],
[-100.6487,24.6506],
[-101.2828,25.1007],
[-101.914,25.2293],
[-102.205,25.4864],
[-102.5794,25.4864],
[-102.8452,25.3579],
[-102.6294,25.1007],
[-102.5969,24.9721],
[-102.7142,24.8435],
[-103.5367,24.8435],
[-103.6381,24.6506],
[-103.9801,24.5221],
[-103.9457,23.7506],
[-104.3942,23.4291],
[-104.2568,22.4648],
[-104.3313,22.4648],
[-104.3377,22.1434],
[-104.7033,22.4648],
[-104.9872,22.4005],
[-105.0287,22.5934],
[-104.8798,22.5934],
[-104.8472,22.7863],
[-105.2763,23.0434],
[-105.4379,23.4291],
[-105.6763,23.4934],
[-105.721,23.6863],
[-105.602,23.8149],
[-105.7845,24.2649],
[-106.1737,24.3292],
[-106.2215,24.5221],
[-106.6935,24.9078],
[-106.9221,25.4864],
[-106.7112,25.8079],
[-107.1956,26.1937],
[-107.6643,26.258],
[-107.9317,26.9009],
[-108.1968,27.0295],
[-108.5726,27.0295],
[-108.5986,27.3509],
[-108.8111,27.5438],
[-108.8951,27.8009],
[-109.067,27.8652],
[-109.1214,28.251],
[-108.7443,28.251],
[-108.433,28.4438],
[-108.6818,29.1509],
[-108.5483,29.4081],
[-108.7127,30.0508],
[-108.6369,30.0508],
[-109.0134,30.6292],
[-108.8621,30.822],
[-108.4574,30.9506],
[-108.5641,31.4005],
[-108.4649,31.529],
[-108.5451,31.7218],
[-108.4689,31.7218],
[-108.5772,31.9789],
[-108.5009,31.9789],
[-108.583,32.1717],
[-108.5067,32.1717],
[-108.5896,32.3645],
[-108.5132,32.3645],
[-108.6139,32.943],
[-108.6905,32.943],
[-109.3239,33.3288],
[-109.6014,33.2645],
[-109.6673,33.0716],
[-109.8971,33.0716],
[-110.2148,33.2645],
[-110.2914,33.2645],
[-110.7044,33.3288],
[-110.8459,33.1359],
[-110.9991,33.1359],
[-111.1645,33.3288],
[-111.3946,33.3288],
[-111.3648,33.2645],
[-111.9484,33.2002],
[-112.5285,33.4574],
[-112.6216,33.3288],
[-112.8517,33.3288],
[-112.5787,33.0716],
[-112.5666,32.8788],
[-113.0555,32.943],
[-113.0259,32.8788],
[-113.9618,32.7502],
[-113.9323,32.6859],
[-114.5572,32.8788],
[-114.5273,32.8145],
[-114.7569,32.8145],
[-114.6974,32.6859],
[-115.5689,32.7502],
[-115.539,32.6859],
[-116.304,32.6859],
[-116.274,32.6216],
[-116.8094,32.6216],
[-116.9459,33.0716],
[-117.3909,33.2002]
]
],
[
[
[-115.2756,28.3795],
[-115.2361,28.0581],
[-115.1608,28.0581],
[-115.0328,28.1224],
[-115.1248,28.3795],
[-115.2756,28.3795]
]
],
[
[
[-113.6162,29.6009],
[-113.2698,29.0867],
[-113.0192,29.0224],
[-113.043,29.0867],
[-113.389,29.6009],
[-113.6162,29.6009]
]
],
[
[
[-87.0195,20.472],
[-86.9874,20.2791],
[-86.7016,20.3434],
[-86.6702,20.6005],
[-86.7443,20.6005],
[-87.0195,20.472]
]
]
]}
}
