{
"type": "Feature",
"properties": {"id":"cliopatria-papua-new-guinea-1976","edge_precision":"unknown","cliopatria_name":"Papua New Guinea","cliopatria_from_year":1976,"cliopatria_to_year":2023,"cliopatria_area_km2":483568,"cliopatria_wikidata":"Q691","cliopatria_wikipedia":"Papua New Guinea"},
"geometry": {"type": "MultiPolygon", "coordinates": [
[
[
[140.7286,-6.5288],
[140.7531,-6.8503],
[140.9091,-6.9788],
[140.9566,-7.5574],
[140.8836,-7.5574],
[140.958,-8.3932],
[140.885,-8.3932],
[140.887,-9.1646],
[140.8936,-9.2289],
[142.1357,-9.2289],
[142.6605,-9.3575],
[142.9992,-9.1003],
[143.2848,-9.036],
[143.3449,-8.9075],
[143.2464,-8.6503],
[143.5512,-8.7789],
[143.5322,-8.586],
[143.3737,-8.4575],
[142.9356,-8.4575],
[142.9234,-8.3289],
[143.5015,-8.2646],
[143.4836,-8.0717],
[143.7756,-8.0717],
[143.8253,-7.8146],
[144.1902,-7.8146],
[144.3921,-7.6217],
[144.6897,-7.686],
[144.7012,-7.8146],
[144.853,-7.8789],
[145.7407,-8.0074],
[146.1361,-8.3289],
[146.5059,-9.1003],
[146.7318,-9.1646],
[146.8395,-9.4861],
[147.2994,-9.6789],
[147.3286,-9.9361],
[147.5703,-10.1289],
[148.0821,-10.1289],
[148.2436,-10.2575],
[150.1449,-10.2575],
[150.0486,-10.0646],
[149.7486,-10.0004],
[149.7261,-9.8075],
[149.9454,-9.8075],
[149.9233,-9.6146],
[149.178,-9.4861],
[149.2021,-9.036],
[149.1222,-8.9718],
[148.4716,-9.036],
[148.3586,-8.6503],
[148.1265,-8.5217],
[148.0827,-8.0717],
[147.7846,-8.0074],
[146.9856,-7.236],
[146.8753,-6.786],
[147.8183,-6.7217],
[147.7053,-6.2074],
[147.3946,-5.9502],
[146.9572,-5.9502],
[146.7976,-5.7574],
[146.3468,-5.5645],
[145.6821,-5.4359],
[145.718,-4.8573],
[145.327,-4.4073],
[144.9591,-4.343],
[144.8756,-4.1502],
[144.5773,-4.0216],
[144.3454,-3.7645],
[143.9084,-3.7645],
[143.5285,-3.443],
[143.0855,-3.3144],
[143.0126,-3.3144],
[142.4271,-3.2502],
[141.6793,-2.8001],
[140.868,-2.543],
[140.8705,-2.6073],
[140.9648,-3.1216],
[140.892,-3.1216],
[140.9628,-4.5359],
[140.89,-4.5359],
[140.9612,-5.6931],
[140.8883,-5.6931],
[140.9285,-6.2717],
[140.7286,-6.5288]
]
],
[
[
[145.7025,-4.6002],
[145.7869,-4.7931],
[145.8598,-4.7931],
[145.9978,-4.6645],
[145.9173,-4.5359],
[145.7025,-4.6002]
]
],
[
[
[146.3913,-2.2858],
[147.1169,-2.2216],
[147.2553,-2.0287],
[147.0346,-1.9644],
[146.4522,-1.9644],
[146.3913,-2.2858]
]
],
[
[
[146.8398,-5.3074],
[147.0758,-5.5645],
[147.1271,-5.2431],
[146.9771,-5.1788],
[146.9042,-5.1788],
[146.8398,-5.3074]
]
],
[
[
[147.5816,-5.5002],
[147.595,-5.6931],
[147.7453,-5.7574],
[147.7499,-5.8217],
[147.8321,-5.9502],
[147.9732,-5.8859],
[147.9505,-5.5645],
[147.5816,-5.5002]
]
],
[
[
[148.1647,-5.5002],
[148.2602,-5.8217],
[148.707,-5.9502],
[148.9449,-6.2074],
[149.3046,-6.1431],
[149.4652,-6.336],
[150.3403,-6.336],
[150.6852,-6.0788],
[151.1178,-6.0145],
[151.3904,-5.7574],
[151.3765,-5.5645],
[151.9551,-5.5002],
[152.028,-5.5002],
[151.9245,-5.0502],
[152.2804,-4.9216],
[152.3174,-4.343],
[152.0914,-4.2145],
[151.8037,-4.2788],
[151.6506,-4.1502],
[151.3666,-4.2788],
[151.5476,-4.8573],
[151.0457,-4.9859],
[150.9213,-5.3074],
[150.6431,-5.5002],
[150.0599,-5.5002],
[149.9738,-5.3074],
[149.7552,-5.3074],
[149.7684,-5.5002],
[149.4813,-5.5645],
[148.379,-5.4359],
[148.1647,-5.5002]
]
],
[
[
[149.4153,-1.3215],
[149.4214,-1.5144],
[149.5691,-1.5787],
[149.7147,-1.5787],
[149.6356,-1.3858],
[149.4153,-1.3215]
]
],
[
[
[149.8152,-5.1145],
[149.8237,-5.2431],
[149.8966,-5.2431],
[150.1068,-5.1145],
[150.0984,-4.9859],
[149.8152,-5.1145]
]
],
[
[
[149.8236,-2.543],
[150.123,-2.7359],
[150.3415,-2.7359],
[150.3387,-2.6716],
[150.4115,-2.6716],
[150.3279,-2.4144],
[149.8885,-2.3501],
[149.8236,-2.543]
]
],
[
[
[149.9534,-9.2289],
[149.9747,-9.4218],
[150.1353,-9.5503],
[150.3473,-9.4861],
[150.3691,-9.6789],
[150.5884,-9.6789],
[150.6107,-9.8718],
[150.7721,-10.0004],
[150.7798,-10.0646],
[150.8683,-10.1932],
[151.2262,-10.1289],
[151.2031,-9.9361],
[150.757,-9.8718],
[150.7857,-9.4861],
[150.7054,-9.4218],
[150.2598,-9.3575],
[150.1656,-9.1646],
[149.9534,-9.2289]
]
],
[
[
[150.7,-2.6073],
[150.7083,-2.8001],
[151.0025,-2.8644],
[151.3846,-3.2502],
[152.2814,-3.7002],
[152.5247,-4.1502],
[152.5555,-4.6645],
[152.7135,-4.8573],
[152.8592,-4.8573],
[153.0576,-4.5359],
[153.0347,-4.1502],
[152.7253,-3.8287],
[152.434,-3.8287],
[152.4305,-3.7645],
[152.192,-3.3787],
[151.5969,-3.1216],
[151.3666,-2.8644],
[151.1481,-2.8644],
[150.994,-2.6716],
[150.7,-2.6073]
]
],
[
[
[150.835,-8.586],
[151.0541,-8.586],
[151.0345,-8.3932],
[150.8885,-8.3932],
[150.835,-8.586]
]
],
[
[
[152.3949,-3.0573],
[152.401,-3.1859],
[152.6226,-3.2502],
[152.6195,-3.1859],
[152.5405,-3.0573],
[152.3949,-3.0573]
]
],
[
[
[152.4164,-9.036],
[152.5035,-9.1646],
[152.5766,-9.1646],
[152.664,-9.2932],
[152.8101,-9.2932],
[152.8547,-9.036],
[152.4756,-8.9075],
[152.4164,-9.036]
]
],
[
[
[154.4335,-5.5002],
[154.5792,-5.5002],
[154.6175,-6.0145],
[155.0074,-6.336],
[155.1123,-6.7217],
[155.2692,-6.8503],
[155.8527,-6.8503],
[155.8254,-6.5288],
[155.5025,-6.1431],
[155.3566,-6.1431],
[155.1036,-5.6931],
[154.6475,-5.4359],
[154.6209,-5.0502],
[154.4708,-4.9859],
[154.4335,-5.5002]
]
]
]}
}
