{
"type": "Feature",
"properties": {"id":"cliopatria-scandinavian-minor-kingdoms-0870","edge_precision":"unknown","cliopatria_name":"Scandinavian minor kingdoms","cliopatria_from_year":870,"cliopatria_to_year":874,"cliopatria_area_km2":228106,"cliopatria_wikidata":"Q213649","cliopatria_wikipedia":"Viking Age","cliopatria_seshat_id":"sv_scandinavian_minor_k"},
"geometry": {"type": "MultiPolygon", "coordinates": [
[
[
[5.5851,59.0853],
[5.5877,59.0208],
[6.1685,58.8323],
[6.0583,58.894],
[6.1185,58.9565],
[6.617,59.0535],
[6.1636,58.9958],
[6.0364,58.9045],
[5.9217,59.0155],
[5.7685,59.0155],
[5.7658,59.0853],
[5.5851,59.0853]
]
],
[
[
[5.6057,58.5785],
[5.7004,58.4587],
[5.88,58.4587],
[5.975,58.3198],
[6.6948,58.2504],
[6.6947,58.2559],
[6.012,58.3797],
[5.9604,58.4667],
[5.6057,58.5785]
]
],
[
[
[7.9795,56.6623],
[7.9894,56.1136],
[8.0774,56.1136],
[7.998,55.6348],
[8.0856,55.6348],
[8.0879,55.4983],
[8.3504,55.4983],
[8.5273,55.3618],
[8.5291,55.2255],
[8.4418,55.2255],
[8.5345,54.8171],
[8.7977,54.6132],
[8.7992,54.4774],
[8.5398,54.4095],
[8.5415,54.2739],
[8.7156,54.2061],
[8.8022,54.2061],
[8.8874,54.3417],
[9.1485,54.2061],
[10.1009,54.3417],
[10.1009,54.4095],
[10.1876,54.4095],
[10.1877,54.5453],
[9.9272,54.5453],
[10.0136,55.0211],
[9.9264,55.0892],
[10.5367,55.0211],
[10.5357,54.7491],
[10.7096,54.7491],
[10.8849,54.9531],
[10.8862,55.1573],
[10.799,55.1573],
[10.8006,55.43],
[10.626,55.4983],
[10.6266,55.6348],
[9.7506,55.5665],
[9.7502,55.7031],
[9.9255,55.7031],
[10.0131,55.9082],
[10.2767,55.9766],
[10.2771,56.2506],
[10.3652,56.2506],
[10.3649,56.1136],
[10.5408,56.1136],
[10.5411,56.1821],
[10.8052,56.1821],
[10.8957,56.525],
[10.2778,56.5937],
[10.2787,57.0751],
[10.5458,57.2819],
[10.4587,57.7654],
[9.9231,57.6962],
[9.8342,57.558],
[9.656,57.558],
[9.6565,57.4199],
[9.3907,57.2129],
[8.5024,57.2129],
[8.2392,57.0063],
[8.2414,56.8686],
[8.1529,56.8686],
[8.2436,56.7311],
[7.9795,56.6623]
]
],
[
[
[10.364,55.7715],
[10.6272,55.7715],
[10.6282,55.9766],
[10.4524,55.9766],
[10.364,55.7715]
]
],
[
[
[10.8836,54.7491],
[12.1012,54.7491],
[12.108,55.1573],
[12.3711,55.2255],
[12.375,55.43],
[12.2025,55.5665],
[12.5557,55.7031],
[12.5615,55.9766],
[12.908,55.7715],
[12.9031,55.5665],
[12.7264,55.4983],
[12.8108,55.3618],
[14.2969,55.3618],
[14.2287,55.9082],
[14.7584,55.9766],
[14.7667,56.1821],
[15.8197,56.1136],
[16.0907,56.2506],
[16.1934,56.525],
[16.2817,56.525],
[16.2669,56.2506],
[16.4431,56.2506],
[16.7232,56.525],
[16.7392,56.7998],
[17.1232,57.2819],
[17.1318,57.4199],
[16.9539,57.4199],
[16.7554,57.0751],
[16.4775,56.8686],
[16.501,57.2819],
[16.6869,57.4199],
[16.6141,57.6962],
[16.7033,57.6962],
[16.7116,57.8346],
[16.6263,57.9038],
[16.8136,58.0423],
[16.8306,58.3198],
[16.6596,58.4587],
[16.8393,58.4587],
[16.8479,58.5977],
[17.0278,58.5977],
[17.1268,58.7369],
[17.487,58.7369],
[17.4966,58.8761],
[17.9475,58.8761],
[18.1435,59.0853],
[18.4146,59.0853],
[18.3513,59.4345],
[18.6288,59.5045],
[18.8276,59.7145],
[19.0093,59.7145],
[19.0332,59.995],
[18.7773,60.2058],
[18.5034,60.2058],
[18.612,60.4168],
[18.0685,60.4873],
[17.9878,60.6282],
[17.6211,60.6282],
[17.4478,60.7693],
[16.9888,60.7693],
[16.796,60.6282],
[16.3334,60.5577],
[15.8793,60.6282],
[15.8753,60.5577],
[14.6844,60.5577],
[13.5973,60.9105],
[12.9661,61.3351],
[12.7815,61.3351],
[12.7776,61.1935],
[12.4976,61.0519],
[12.448,61.0519],
[12.5872,60.6865],
[12.4918,60.4873],
[12.5756,60.4873],
[12.5721,60.3465],
[12.4807,60.3465],
[12.3829,60.0653],
[12.0155,59.9249],
[11.9676,59.9249],
[12.207,58.4441],
[12.1081,58.3892],
[12.1627,58.181],
[11.8904,57.9731],
[11.7115,57.9731],
[11.7923,57.4199],
[12.058,57.3509],
[12.1418,57.0751],
[12.4052,56.9374],
[12.4023,56.7998],
[12.5763,56.6623],
[12.7531,56.6623],
[12.7499,56.525],
[12.5733,56.525],
[12.657,56.3191],
[12.4807,56.3191],
[12.4778,56.1821],
[11.8606,56.1136],
[11.7686,55.8398],
[11.5957,56.0451],
[11.3319,56.0451],
[11.242,55.8398],
[10.8904,55.7715],
[10.8894,55.6348],
[11.0641,55.5665],
[10.9745,55.2936],
[11.4979,55.2255],
[11.6707,55.0892],
[11.6681,54.8851],
[10.9725,55.0211],
[10.8836,54.7491]
]
],
[
[
[14.6362,55.0892],
[15.0694,55.0211],
[15.0779,55.2255],
[14.9906,55.2255],
[14.644,55.2936],
[14.6362,55.0892]
]
],
[
[
[17.5919,68.5741],
[17.6915,68.5741],
[17.6984,68.6499],
[17.5987,68.6499],
[17.5919,68.5741]
]
],
[
[
[17.6778,68.4227],
[17.8766,68.4227],
[17.8837,68.4984],
[17.6846,68.4984],
[17.6778,68.4227]
]
],
[
[
[17.8907,68.5741],
[18.0755,68.4227],
[18.0827,68.4984],
[18.1969,68.6499],
[17.8907,68.5741]
]
],
[
[
[18.0267,57.4889],
[18.0764,56.9374],
[18.3423,56.9374],
[18.4513,57.2129],
[18.9117,57.4199],
[18.8444,57.6962],
[19.034,57.8346],
[19.0452,57.9731],
[18.598,57.9731],
[18.2301,57.8346],
[18.0316,57.558],
[18.0267,57.4889]
]
],
[
[
[40.3823,57.8346],
[40.4716,57.8346],
[40.4905,57.9038],
[40.4012,57.9038],
[40.3823,57.8346]
]
]
]}
}
