{
"type": "Feature",
"properties": {"id":"cliopatria-new-kingdom-of-egypt-901bce","edge_precision":"unknown","cliopatria_name":"New Kingdom of Egypt","cliopatria_from_year":-900,"cliopatria_to_year":-801,"cliopatria_area_km2":340593,"cliopatria_wikidata":"Q180568","cliopatria_wikipedia":"New Kingdom of Egypt"},
"geometry": {"type": "MultiPolygon", "coordinates": [
[
[
[28.2489,26.0651],
[28.2886,25.165],
[28.6412,24.5864],
[29.6728,24.2006],
[29.9595,23.8792],
[30.1087,23.8792],
[30.104,23.7506],
[30.3952,23.5577],
[30.4627,23.3649],
[30.5372,23.3649],
[31.6705,23.7506],
[32.0409,23.6863],
[33.4636,23.8149],
[33.4664,23.8792],
[33.3228,24.0077],
[33.2742,24.5864],
[33.1995,24.5864],
[33.1973,26.0651],
[33.1223,26.0651],
[33.0783,26.6437],
[32.8636,26.8366],
[32.5276,27.5438],
[32.5973,28.701],
[32.7647,28.9581],
[32.4287,29.6009],
[32.4416,29.7937],
[32.6019,29.9223],
[32.5573,30.3722],
[32.7137,30.4364],
[32.6469,30.565],
[32.8081,30.6935],
[32.7509,30.9506],
[32.8364,31.0791],
[32.5322,31.0791],
[32.3133,31.2076],
[32.2372,31.2076],
[32.3039,31.0791],
[31.9996,31.0791],
[31.9374,31.2719],
[31.7806,31.2076],
[31.8752,31.4647],
[31.2658,31.4647],
[31.118,31.529],
[31.2033,31.6575],
[30.9746,31.6575],
[30.9656,31.529],
[30.8088,31.4647],
[30.3517,31.4647],
[30.2712,31.4005],
[30.3388,31.2719],
[29.882,31.2719],
[29.8018,31.2076],
[29.8696,31.0791],
[29.6332,30.9506],
[29.4851,31.0148],
[29.3971,30.822],
[28.865,30.822],
[28.6447,30.9506],
[28.9143,30.3722],
[28.9568,29.7937],
[29.0326,29.7937],
[28.997,29.1509],
[28.9214,29.1509],
[28.9597,28.4438],
[28.8023,28.3153],
[28.7047,27.8652],
[28.5479,27.7367],
[28.6051,27.3509],
[28.3564,26.8366],
[28.2489,26.0651]
]
]
]}
}
