{
"type": "Feature",
"properties": {"id":"cliopatria-zand-dynasty-1788","edge_precision":"unknown","cliopatria_name":"Zand Dynasty","cliopatria_from_year":1788,"cliopatria_to_year":1790,"cliopatria_area_km2":899495,"cliopatria_wikidata":"Q97629053","cliopatria_wikipedia":"Zand dynasty"},
"geometry": {"type": "MultiPolygon", "coordinates": [
[
[
[49.9131,30.1794],
[49.989,30.1794],
[50.1085,29.9223],
[50.2521,29.858],
[50.2363,29.7294],
[50.6513,29.4081],
[50.6203,29.1509],
[50.915,29.0867],
[50.809,28.8295],
[51.0281,28.7652],
[51.0662,28.4438],
[51.3313,28.1224],
[51.3168,27.9938],
[51.5967,27.8009],
[52.0486,27.8009],
[52.4787,27.6081],
[52.737,27.2223],
[53.4606,26.9652],
[53.6581,26.708],
[54.2589,26.708],
[54.4632,26.5151],
[54.8316,26.4508],
[55.2423,26.7723],
[55.5427,26.7723],
[55.3102,26.708],
[55.2889,26.5151],
[55.439,26.5151],
[55.6034,26.6437],
[56.0612,26.708],
[56.3086,26.9009],
[56.3236,27.0295],
[56.0981,27.0295],
[56.1884,27.158],
[56.7147,27.158],
[57.0524,26.8366],
[57.1148,26.0651],
[57.3795,25.7436],
[57.6792,25.7436],
[57.7402,25.615],
[57.958,25.5507],
[58.7817,25.5507],
[59.0602,25.3579],
[60.6321,25.3579],
[60.6178,25.2293],
[60.9171,25.2293],
[61.1274,25.1007],
[61.5834,25.165],
[61.6582,25.165],
[61.854,26.1937],
[62.4277,26.5794],
[63.1118,26.6437],
[63.2789,26.7723],
[63.3308,27.158],
[62.822,27.2866],
[62.9028,27.8652],
[62.8274,27.8652],
[62.7984,28.1867],
[61.8743,28.5724],
[61.4882,29.0224],
[61.4516,29.2795],
[60.9257,29.7937],
[60.9562,29.9865],
[61.3872,30.3079],
[61.8746,30.9506],
[61.9191,31.2076],
[61.7243,31.4005],
[61.1151,31.4005],
[60.8439,31.5933],
[60.8814,32.236],
[60.6574,32.6859],
[60.693,32.8788],
[60.6164,32.8788],
[60.6884,33.2645],
[60.8906,33.5217],
[60.5959,33.5859],
[60.5684,33.8432],
[60.4915,33.8432],
[60.5664,34.229],
[60.8354,34.422],
[60.3599,34.7436],
[60.2827,34.7436],
[59.4078,35.001],
[58.0059,34.9366],
[57.9533,35.0653],
[57.734,35.1297],
[57.7094,35.001],
[57.5551,35.001],
[57.109,34.6793],
[57.0852,34.5506],
[56.6112,34.4863],
[56.3801,34.4863],
[56.3917,34.5506],
[56.2376,34.5506],
[56.226,34.4863],
[56.149,34.4863],
[56.1374,34.422],
[56.0604,34.422],
[56.0488,34.3577],
[54.5416,34.1004],
[54.355,33.9075],
[53.3346,33.7789],
[52.5916,33.4574],
[51.7061,32.6859],
[51.3243,32.1717],
[51.2872,31.9146],
[50.5117,31.2719],
[50.038,30.565],
[49.9131,30.1794]
]
]
]}
}
