{
"type": "Feature",
"properties": {"id":"cliopatria-kingdom-of-norway-1922","edge_precision":"unknown","cliopatria_name":"Kingdom of Norway","cliopatria_from_year":1922,"cliopatria_to_year":1925,"cliopatria_area_km2":346661,"cliopatria_wikidata":"Q20","cliopatria_wikipedia":"Norway","cliopatria_seshat_id":"no_norway_k_modern"},
"geometry": {"type": "MultiPolygon", "coordinates": [
[
[
[-8.6432,71.109],
[-8.6088,70.9532],
[-8.3015,70.9532],
[-8.1133,71.031],
[-8.1468,71.187],
[-8.6432,71.109]
]
],
[
[
[4.8889,60.4168],
[4.8992,60.2058],
[5.2613,60.2761],
[5.4501,60.1355],
[5.1827,59.995],
[5.1923,59.7846],
[5.2833,59.7846],
[5.2143,59.2947],
[5.848,59.2947],
[5.8426,59.4345],
[6.0265,59.3646],
[5.9491,59.0155],
[5.4976,59.0155],
[5.515,58.5977],
[5.7004,58.4587],
[6.5155,58.2504],
[6.6116,58.0423],
[7.5975,57.9731],
[8.6665,58.3198],
[8.9329,58.5977],
[9.1127,58.5977],
[9.1116,58.7369],
[9.3818,58.7369],
[9.3809,58.8761],
[9.5613,58.8761],
[9.651,59.0155],
[10.0122,58.9458],
[10.193,59.1551],
[10.3738,59.1551],
[10.4663,59.6445],
[10.5571,59.6445],
[10.5556,59.3646],
[10.8258,59.1551],
[11.097,59.1551],
[11.0963,59.0853],
[11.6363,58.9458],
[11.7321,59.2947],
[11.8226,59.2947],
[11.7332,59.3646],
[11.7389,59.7145],
[11.8298,59.7145],
[11.8322,59.8547],
[12.3829,60.0653],
[12.4807,60.3465],
[12.5721,60.3465],
[12.4891,60.6987],
[12.3072,60.7693],
[12.312,60.9812],
[12.7776,61.1935],
[12.7834,61.406],
[12.1444,61.7611],
[12.2515,62.4027],
[12.1582,62.4027],
[12.1629,62.6173],
[12.0695,62.6173],
[12.1757,63.1915],
[12.0817,63.1915],
[12.0895,63.5517],
[12.1839,63.5517],
[12.1889,63.7684],
[12.7647,64.0579],
[14.0958,64.1304],
[14.2004,64.3482],
[13.924,64.5664],
[13.7333,64.5664],
[13.6436,64.7122],
[14.035,64.9311],
[14.0413,65.0773],
[14.5385,65.4436],
[14.5715,66.1063],
[15.2585,66.2541],
[15.7771,66.7732],
[16.3841,67.0711],
[16.4003,67.295],
[16.1162,67.4446],
[16.2252,67.5945],
[16.7294,67.7445],
[17.0499,68.0453],
[18.0471,68.1207],
[18.1677,68.3471],
[18.0684,68.3471],
[18.0899,68.5741],
[19.9648,68.4227],
[20.209,68.8016],
[20.3088,68.8016],
[20.2366,69.0297],
[20.9475,69.1058],
[21.0678,69.2583],
[21.7706,69.2583],
[22.2172,68.8776],
[22.4171,68.8776],
[22.406,68.8016],
[22.7941,68.7257],
[22.7827,68.6499],
[24.4033,68.8016],
[24.3905,68.7257],
[24.8632,68.5741],
[25.4295,68.9536],
[25.6296,68.9536],
[25.6576,69.1058],
[25.7578,69.1058],
[25.8587,69.6407],
[26.5249,69.9477],
[28.1612,70.0247],
[28.1442,69.9477],
[28.5318,69.8709],
[28.5147,69.7941],
[29.2041,69.7173],
[29.2696,69.5641],
[28.7981,69.2583],
[28.7643,69.1058],
[29.1652,69.1058],
[29.3176,69.3347],
[29.9385,69.4111],
[30.1949,69.6407],
[30.6801,69.5641],
[30.92,69.7173],
[30.9586,69.8709],
[30.8575,69.8709],
[30.0672,69.9477],
[30.03,69.7941],
[29.828,69.7941],
[29.8648,69.9477],
[29.6623,69.9477],
[29.6991,70.1016],
[30.9551,70.2558],
[31.1167,70.4876],
[31.0148,70.4876],
[31.0349,70.565],
[30.2386,70.6425],
[30.0733,70.7977],
[29.3576,70.7977],
[29.2929,70.9532],
[28.6783,70.9532],
[28.4374,70.7977],
[28.384,70.565],
[28.1801,70.565],
[28.3174,70.7201],
[28.2152,70.7201],
[28.2507,70.8754],
[28.4554,70.8754],
[28.4073,71.109],
[27.7064,71.187],
[27.2612,71.031],
[27.2442,70.9532],
[27.006,70.7977],
[27.0916,70.7201],
[26.9566,70.565],
[26.5648,70.6425],
[26.683,70.7201],
[26.7485,71.031],
[26.4409,71.031],
[25.8813,70.7977],
[26.0627,71.187],
[25.8572,71.187],
[25.8731,71.2651],
[25.3436,71.187],
[25.2979,70.9532],
[25.2105,71.031],
[24.2735,70.9532],
[24.3336,70.7201],
[23.6319,70.7977],
[23.5032,70.6425],
[23.2991,70.6425],
[23.4407,70.8754],
[22.405,70.7977],
[22.3686,70.565],
[22.4706,70.565],
[22.3328,70.333],
[22.0162,70.2558],
[22.0277,70.333],
[21.4287,70.4103],
[21.3849,70.1016],
[21.7905,70.1016],
[21.7682,69.9477],
[20.7663,70.0247],
[20.8077,70.333],
[20.2893,70.2558],
[20.3611,70.0247],
[20.1585,70.0247],
[20.0381,69.8709],
[19.8359,69.8709],
[19.883,70.2558],
[19.7909,70.333],
[19.5876,70.333],
[19.6612,70.1016],
[18.8587,70.1787],
[18.7487,70.1016],
[18.7236,69.8709],
[18.8163,69.7941],
[18.2024,69.7173],
[18.1869,69.5641],
[18.5899,69.5641],
[18.5819,69.4875],
[17.9779,69.4875],
[17.8921,69.6407],
[16.8706,69.4875],
[16.8577,69.3347],
[16.9582,69.3347],
[17.039,69.1058],
[17.6474,69.1821],
[17.5194,68.8776],
[17.3195,68.8776],
[17.3329,69.0297],
[17.2328,69.0297],
[17.213,68.8016],
[16.6078,68.7257],
[16.6198,68.8776],
[15.9202,68.8776],
[15.9367,69.1058],
[16.1428,69.1821],
[16.1544,69.3347],
[15.7524,69.3347],
[15.4407,69.1821],
[15.5153,68.8016],
[15.3155,68.8016],
[15.3304,69.0297],
[15.0347,69.1058],
[14.9252,68.9536],
[14.4167,68.8016],
[14.4086,68.6499],
[14.9115,68.7257],
[14.9025,68.5741],
[14.4004,68.4984],
[14.1937,68.3471],
[14.1861,68.1961],
[14.984,68.2716],
[15.0925,68.4227],
[15.8827,68.3471],
[15.8774,68.2716],
[15.5796,68.2716],
[15.362,67.9701],
[15.0652,67.9701],
[14.9488,67.6695],
[14.5465,67.5195],
[14.4366,67.295],
[14.1314,67.0711],
[13.6416,67.0711],
[13.5407,66.9965],
[13.6293,66.7732],
[13.2388,66.7732],
[13.2333,66.6246],
[12.9409,66.6246],
[13.1228,66.2541],
[12.9286,66.2541],
[12.8245,66.0324],
[12.633,66.1063],
[12.6374,66.2541],
[12.3461,66.2541],
[12.3422,66.1063],
[12.4391,66.1063],
[12.3364,65.8849],
[12.5298,65.8849],
[12.5256,65.7376],
[12.136,65.5905],
[12.1325,65.4436],
[12.0363,65.4436],
[12.1256,65.1504],
[11.8393,65.2237],
[11.7405,65.0773],
[11.4517,65.0042],
[11.4493,64.8581],
[11.3537,64.8581],
[11.4447,64.5664],
[11.3483,64.4937],
[11.1596,64.6393],
[10.8733,64.6393],
[10.2998,64.4209],
[10.2993,64.2756],
[9.919,64.1304],
[9.919,63.9855],
[9.5402,63.9131],
[9.5414,63.6239],
[9.3525,63.6239],
[9.2596,63.4075],
[8.9762,63.4796],
[9.0686,63.6961],
[8.5015,63.6961],
[8.2218,63.4796],
[7.8431,63.5517],
[7.7536,63.3354],
[8.2244,63.3354],
[8.2269,63.1915],
[7.9448,63.1915],
[7.9478,63.0477],
[6.915,63.0477],
[6.9216,62.8323],
[7.3919,62.7606],
[7.3956,62.6173],
[6.643,62.7606],
[6.5591,62.4742],
[5.9086,62.4027],
[5.9173,62.1885],
[5.7311,62.1885],
[5.7221,62.4027],
[5.4422,62.4027],
[5.4519,62.1885],
[5.0761,62.2599],
[5.1862,61.9034],
[4.9148,61.7611],
[4.9219,61.619],
[5.1995,61.619],
[4.9289,61.477],
[5.035,61.1935],
[5.1272,61.1935],
[4.9497,61.0519],
[5.1602,60.4873],
[4.8889,60.4168]
]
],
[
[
[12.7873,67.8948],
[13.1856,67.9701],
[13.1914,68.1207],
[12.8941,68.1207],
[12.8914,68.0453],
[12.7924,68.0453],
[12.7873,67.8948]
]
],
[
[
[13.3865,68.0453],
[13.5845,68.0453],
[13.5878,68.1207],
[14.0869,68.1961],
[14.0981,68.4227],
[13.7004,68.4227],
[13.3927,68.1961],
[13.3865,68.0453]
]
],
[
[
[21.9608,70.565],
[22.0627,70.565],
[22.0745,70.6425],
[22.0864,70.7201],
[21.9842,70.7201],
[21.9608,70.565]
]
],
[
[
[22.1529,70.4876],
[22.2547,70.4876],
[22.2907,70.7201],
[22.1885,70.7201],
[22.1529,70.4876]
]
],
[
[
[23.9662,70.9532],
[24.0686,70.9532],
[24.0967,71.109],
[23.994,71.109],
[23.9662,70.9532]
]
]
]}
}
