{
"type": "Feature",
"properties": {"id":"cliopatria-lydia-701bce","edge_precision":"unknown","cliopatria_name":"Lydia","cliopatria_from_year":-700,"cliopatria_to_year":-676,"cliopatria_area_km2":24042,"cliopatria_wikidata":"Q620765","cliopatria_wikipedia":"Lydia"},
"geometry": {"type": "MultiPolygon", "coordinates": [
[
[
[27.0113,38.6743],
[27.1632,38.6097],
[27.1433,38.3515],
[27.4219,37.8998],
[27.417,37.8352],
[27.4756,37.5773],
[27.6317,37.5773],
[27.7,37.4483],
[28.2461,37.4483],
[28.631,37.3838],
[28.7973,37.5128],
[28.8025,37.5773],
[28.5996,37.9643],
[28.6155,38.1578],
[28.7828,38.2869],
[28.8611,38.2869],
[28.9782,38.7389],
[28.9053,38.8034],
[28.5968,38.868],
[28.5293,38.9972],
[28.0525,38.9326],
[27.9223,39.2557],
[27.6183,39.385],
[27.3769,39.3203],
[27.4345,39.0618],
[27.0213,38.8034],
[27.0113,38.6743]
]
]
]}
}
