{
"type": "Feature",
"properties": {"id":"cliopatria-taifa-of-almeria-1147","edge_precision":"unknown","cliopatria_name":"Taifa of Almería","cliopatria_from_year":1147,"cliopatria_to_year":1151,"cliopatria_area_km2":8968,"cliopatria_wikidata":"Q2580032","cliopatria_wikipedia":"Taifa of Almería","cliopatria_seshat_id":"es_taifas","cliopatria_member_of":"(Taifas of Iberia)"},
"geometry": {"type": "MultiPolygon", "coordinates": [
[
[
[-3.2812,37.6417],
[-3.273,37.5128],
[-3.1949,37.5128],
[-3.1909,37.4483],
[-2.7969,37.3838],
[-2.5359,36.9326],
[-2.5321,36.8682],
[-2.2209,36.8682],
[-2.2172,36.8037],
[-2.0616,36.8037],
[-2.0653,36.8682],
[-1.9875,36.8682],
[-1.9948,36.9971],
[-1.9169,36.9971],
[-1.8574,37.3193],
[-1.7794,37.3193],
[-1.939,37.3838],
[-2.0358,37.7062],
[-2.2856,37.9643],
[-2.442,37.9643],
[-2.4381,37.8998],
[-2.5944,37.8998],
[-2.5904,37.8352],
[-3.2812,37.6417]
]
],
[
[
[-1.7794,37.3193],
[-1.7757,37.2549],
[-1.6978,37.2549],
[-1.7014,37.3193],
[-1.7794,37.3193]
]
]
]}
}
