{
"type": "Feature",
"properties": {"id":"cliopatria-french-indochina-1860","edge_precision":"unknown","cliopatria_name":"French Indochina","cliopatria_from_year":1860,"cliopatria_to_year":1867,"cliopatria_area_km2":93749,"cliopatria_wikidata":"Q185682","cliopatria_wikipedia":"French Indochina","cliopatria_seshat_id":"fr_france_napoleonic","cliopatria_member_of":"(Second French Empire)"},
"geometry": {"type": "MultiPolygon", "coordinates": [
[
[
[55.0771,-20.9935],
[55.0963,-21.2507],
[55.408,-21.4435],
[55.6308,-21.4435],
[55.7695,-21.3149],
[55.5918,-20.9292],
[55.5869,-20.8649],
[55.2159,-20.8649],
[55.0771,-20.9935]
]
],
[
[
[75.5254,11.4717],
[75.5986,11.4717],
[75.6032,11.536],
[75.6765,11.536],
[75.6811,11.6003],
[75.5347,11.6003],
[75.5254,11.4717]
]
],
[
[
[79.7228,11.7931],
[79.8693,11.7931],
[79.8794,11.9217],
[79.8061,11.9217],
[79.7228,11.7931]
]
],
[
[
[79.7286,10.8931],
[79.8749,10.8931],
[79.8843,11.0217],
[79.8111,11.0217],
[79.7286,10.8931]
]
],
[
[
[82.2581,16.7433],
[82.4055,16.7433],
[82.4205,16.8719],
[82.3468,16.8719],
[82.2581,16.7433]
]
],
[
[
[88.3421,22.5934],
[88.491,22.5934],
[88.5187,22.7863],
[88.4442,22.7863],
[88.3421,22.5934]
]
],
[
[
[104.4111,10.3788],
[104.5399,10.186],
[105.0345,9.9931],
[104.7926,9.7359],
[104.7122,8.7716],
[104.8532,8.7073],
[104.6969,8.5788],
[104.984,8.5145],
[105.3696,8.7716],
[105.6203,9.1574],
[106.1425,9.2859],
[106.2321,9.4788],
[106.603,9.5431],
[106.5525,9.8002],
[106.6987,9.8002],
[106.6429,9.9931],
[106.7949,10.0574],
[106.8066,10.186],
[106.6663,10.2502],
[106.8185,10.3145],
[106.7574,10.4431],
[106.9828,10.5074],
[107.0012,10.7003],
[107.117,10.3788],
[107.3364,10.3788],
[107.3608,10.636],
[107.6783,10.8931],
[107.3105,11.6003],
[107.5398,12.3717],
[107.086,12.2432],
[106.7652,11.986],
[106.5455,11.986],
[106.372,11.7289],
[106.0059,11.7289],
[105.8462,11.6003],
[105.8869,11.2788],
[106.2212,10.9574],
[106.1356,10.8288],
[105.9161,10.8288],
[105.7822,10.9574],
[105.1175,10.8931],
[104.9408,10.5717],
[104.417,10.4431],
[104.4111,10.3788]
]
],
[
[
[107.5398,12.3717],
[107.613,12.3717],
[107.6202,12.436],
[107.5469,12.436],
[107.5398,12.3717]
]
],
[
[
[117.1692,39.3203],
[117.4286,39.5143],
[117.2265,39.5789],
[117.1923,39.5143],
[117.1692,39.3203]
]
],
[
[
[163.885,-20.1578],
[164.0933,-20.6721],
[165.0004,-21.5721],
[165.8489,-21.9578],
[166.087,-22.2792],
[166.8672,-22.4078],
[166.8511,-22.0864],
[166.518,-21.9578],
[166.3904,-21.7649],
[165.8571,-21.4435],
[165.7828,-21.4435],
[165.4167,-21.1864],
[165.1657,-20.8007],
[164.744,-20.6078],
[164.4374,-20.2864],
[163.885,-20.1578]
]
],
[
[
[166.9066,-20.9292],
[167.05,-21.1864],
[167.1243,-21.1864],
[167.3296,-21.1221],
[167.2604,-20.8649],
[167.0604,-20.6721],
[166.912,-20.6721],
[166.9066,-20.9292]
]
],
[
[
[167.6222,-21.3792],
[167.6927,-21.6364],
[168.0076,-21.7007],
[168.0111,-21.4435],
[167.7707,-21.3792],
[167.6222,-21.3792]
]
]
]}
}
