{
"type": "Feature",
"properties": {"id":"cliopatria-kingdom-of-bithynia-78bce","edge_precision":"unknown","cliopatria_name":"Kingdom of Bithynia","cliopatria_from_year":-77,"cliopatria_to_year":-67,"cliopatria_area_km2":30213,"cliopatria_wikidata":"Q3762571","cliopatria_wikipedia":"Kingdom of Bithynia"},
"geometry": {"type": "MultiPolygon", "coordinates": [
[
[
[28.7299,40.3554],
[28.955,40.2259],
[29.3503,40.2259],
[29.4545,40.4849],
[29.936,40.5496],
[29.923,40.4201],
[30.0682,40.2906],
[30.457,40.2259],
[30.6019,40.0964],
[30.5888,39.967],
[31.2993,39.967],
[31.3061,40.0317],
[31.701,40.0317],
[31.7079,40.0964],
[32.11,40.1612],
[32.3043,40.4849],
[32.1033,40.8088],
[32.1404,41.1328],
[32.3068,41.1977],
[32.322,41.3274],
[32.1137,41.5869],
[32.1214,41.6518],
[32.0265,41.522],
[31.5342,41.3922],
[31.1801,41.068],
[30.6242,41.068],
[30.4792,41.1977],
[29.3668,41.1977],
[29.2486,40.8088],
[29.493,40.8736],
[29.4801,40.744],
[28.9127,40.6144],
[28.9004,40.4849],
[29.0463,40.3554],
[28.7299,40.3554]
]
]
]}
}
