{
"type": "Feature",
"properties": {"id":"cliopatria-principality-of-capua-1034","edge_precision":"unknown","cliopatria_name":"Principality of Capua","cliopatria_from_year":1034,"cliopatria_to_year":1039,"cliopatria_area_km2":1008,"cliopatria_wikidata":"Q1280122","cliopatria_wikipedia":"Principality of Capua"},
"geometry": {"type": "MultiPolygon", "coordinates": [
[
[
[13.3966,41.2625],
[13.7145,41.2625],
[13.7134,41.1977],
[13.7929,41.1977],
[13.7918,41.1328],
[13.9506,41.1328],
[13.9494,41.068],
[14.1082,41.068],
[14.112,41.2625],
[13.9542,41.3274],
[13.3976,41.3274],
[13.3966,41.2625]
]
],
[
[
[14.4971,40.6792],
[14.6556,40.6792],
[14.657,40.744],
[14.4985,40.744],
[14.4971,40.6792]
]
]
]}
}
