{
"type": "Feature",
"properties": {"id":"cliopatria-maratha-empire-1814","edge_precision":"unknown","cliopatria_name":"Maratha Empire","cliopatria_from_year":1814,"cliopatria_to_year":1819,"cliopatria_area_km2":854916,"cliopatria_wikidata":"Q83618","cliopatria_wikipedia":"Maratha Empire","cliopatria_seshat_id":"in_maratha_emp"},
"geometry": {"type": "MultiPolygon", "coordinates": [
[
[
[68.9495,22.2077],
[69.3487,21.7577],
[69.4974,21.7577],
[69.9032,21.372],
[69.8899,21.2434],
[70.2955,20.8577],
[70.7206,20.6648],
[71.3208,20.7291],
[72.1916,21.2434],
[72.1985,21.3077],
[71.9084,21.372],
[71.936,21.6291],
[71.8617,21.6291],
[71.8755,21.7577],
[72.1055,21.822],
[72.1125,21.8863],
[72.1868,21.8863],
[72.1938,21.9505],
[72.0451,21.9505],
[71.9848,22.0791],
[71.5387,22.0791],
[71.4924,22.3363],
[71.6625,22.5291],
[71.8114,22.5291],
[71.8257,22.6577],
[72.0563,22.722],
[73.1656,22.6577],
[73.1804,22.7863],
[73.1879,22.8506],
[73.1134,22.8506],
[72.6815,22.9791],
[72.6964,23.1077],
[72.2346,22.9791],
[72.1898,23.2363],
[71.7279,23.1077],
[71.7502,23.3006],
[71.5566,23.5577],
[71.4821,23.5577],
[71.1539,23.3006],
[71.0049,23.3006],
[70.4255,22.7863],
[70.2766,22.7863],
[70.1811,22.5934],
[69.4974,22.4648],
[69.4093,22.3363],
[68.9765,22.4648],
[68.9495,22.2077]
]
],
[
[
[72.6339,19.8291],
[72.7614,19.6362],
[72.7337,19.3791],
[72.8748,19.3148],
[72.8679,19.2505],
[73.0899,19.2505],
[72.9142,18.9934],
[72.9073,18.9291],
[72.9589,18.0291],
[73.3004,17.0647],
[73.2542,16.6147],
[73.5391,15.779],
[73.8085,15.5218],
[73.8023,15.4575],
[74.1028,15.5218],
[74.5194,15.2647],
[74.599,15.329],
[74.8809,15.2004],
[75.1446,14.8789],
[75.1825,14.4932],
[75.0298,14.4289],
[74.8377,13.9146],
[75.1773,13.5932],
[75.792,13.9146],
[76.1934,14.3004],
[76.0523,14.3646],
[76.0699,14.5575],
[75.9965,14.5575],
[76.0265,14.8789],
[76.1919,15.0718],
[75.7447,15.0075],
[75.61,15.1361],
[75.7275,15.5861],
[75.6539,15.5861],
[75.6732,15.779],
[76.1344,15.9718],
[76.0873,16.229],
[76.3284,16.4219],
[76.5376,17.0005],
[76.5656,17.2576],
[76.4393,17.4505],
[76.8224,17.579],
[76.7773,17.8362],
[76.9321,17.9005],
[76.9466,18.0291],
[76.3919,18.3505],
[76.3469,18.6076],
[76.1469,18.8005],
[75.999,18.8005],
[75.7484,18.5434],
[75.7865,18.2219],
[75.5648,18.2219],
[75.5052,18.3505],
[75.0761,18.4791],
[74.971,18.8648],
[75.2,18.9291],
[75.1762,19.3791],
[75.1021,19.3791],
[75.2336,19.8934],
[74.7435,20.1505],
[74.846,20.4077],
[75.0899,20.6005],
[75.6235,20.7291],
[75.8081,21.0505],
[76.1865,21.1148],
[76.7432,21.4363],
[77.2706,21.5005],
[77.849,20.7291],
[78.2124,20.6648],
[78.1974,20.5362],
[78.7681,20.3434],
[78.8861,20.0862],
[79.1901,20.1505],
[79.4408,19.7648],
[79.8034,19.7005],
[80.0024,19.5077],
[79.9053,19.3148],
[79.9332,18.9291],
[80.1397,18.8005],
[80.4355,18.8005],
[80.7588,18.4148],
[81.0389,18.2862],
[81.0897,18.0933],
[81.3113,18.0933],
[81.4745,18.2219],
[81.7586,18.7362],
[81.9065,18.7362],
[82.0859,18.9934],
[82.0408,19.8291],
[81.9006,19.8934],
[81.9164,20.022],
[82.2128,20.022],
[82.3371,19.8291],
[82.4853,19.8291],
[82.4693,19.7005],
[82.6675,19.5077],
[83.1197,19.5719],
[83.727,20.2791],
[84.1637,20.2148],
[84.3534,19.9577],
[84.7484,20.1505],
[84.1881,20.4077],
[84.2044,20.5362],
[84.3609,20.6005],
[84.303,20.7291],
[84.6162,20.8577],
[84.6327,20.9862],
[85.1688,21.1148],
[85.1784,21.7577],
[85.4099,21.822],
[85.5099,22.0148],
[85.9387,21.8863],
[86.6779,22.4005],
[86.5469,22.5291],
[86.5918,22.8506],
[86.294,22.8506],
[85.7435,23.172],
[85.4183,22.9791],
[85.1948,22.9791],
[84.5116,22.3363],
[84.2055,22.272],
[83.9994,22.4005],
[84.2177,22.9148],
[84.0031,22.9791],
[83.9912,23.4291],
[83.655,23.6863],
[83.6734,23.8149],
[83.282,24.2006],
[83.1138,24.072],
[82.8246,24.1363],
[82.6381,23.8792],
[82.0412,23.8792],
[81.9849,24.0077],
[81.2385,24.0077],
[80.6981,23.8792],
[80.1101,23.9435],
[80.137,24.1363],
[80.3701,24.2006],
[80.3884,24.3292],
[80.211,24.6506],
[80.6231,24.9078],
[80.5876,25.165],
[80.7472,25.2293],
[80.8188,25.6793],
[80.4756,25.8722],
[80.1009,25.8722],
[80.1114,25.9365],
[79.9615,25.9365],
[80.0576,26.0651],
[79.9933,26.1294],
[79.5647,26.258],
[79.5113,26.3865],
[79.3612,26.3865],
[79.0295,26.6437],
[78.7933,26.5794],
[78.3005,26.7723],
[78.2896,26.708],
[77.4853,26.3865],
[75.8647,25.1007],
[75.8283,24.8435],
[75.5951,24.7792],
[75.5774,24.6506],
[75.1863,24.5221],
[74.9196,24.2006],
[74.2893,23.9435],
[74.0841,23.4934],
[74.0222,22.9791],
[74.1559,22.8506],
[74.1334,22.6577],
[73.9026,22.5934],
[74.0366,22.4648],
[73.873,22.3363],
[73.9037,21.9505],
[73.8222,21.8863],
[73.9708,21.8863],
[74.0236,21.6934],
[74.2393,21.6291],
[74.2178,21.4363],
[73.7298,21.0505],
[73.5813,21.0505],
[73.4119,20.8577],
[73.289,20.4077],
[72.9183,20.4077],
[72.7631,20.3434],
[72.6339,19.8291]
],
[
[72.8907,20.1505],
[73.1199,20.2148],
[73.1941,20.2148],
[73.1802,20.0862],
[72.8907,20.1505]
],
[
[83.1473,22.1434],
[83.1725,22.3363],
[83.487,22.4648],
[83.7103,22.4648],
[83.7507,22.2077],
[83.6763,22.2077],
[83.6594,22.0791],
[83.5024,22.0148],
[83.2793,22.0148],
[83.1473,22.1434]
]
],
[
[
[75.4391,26.258],
[75.4741,26.0008],
[75.7839,26.0651],
[75.6743,26.3222],
[75.5992,26.3222],
[75.4391,26.258]
]
]
]}
}
