{
"type": "Feature",
"properties": {"id":"cliopatria-kingdom-of-poland-0970","edge_precision":"unknown","cliopatria_name":"Kingdom of Poland","cliopatria_from_year":970,"cliopatria_to_year":979,"cliopatria_area_km2":107588,"cliopatria_wikidata":"Q577867","cliopatria_wikipedia":"Kingdom of Poland","cliopatria_seshat_id":"pl_piast_dyn_1","cliopatria_member_of":"(Kingdom of Poland)"},
"geometry": {"type": "MultiPolygon", "coordinates": [
[
[
[14.5463,52.5863],
[14.6182,52.1833],
[15.2121,52.1163],
[15.2796,51.6472],
[15.5342,51.6472],
[15.529,51.5134],
[15.6137,51.5134],
[16.3828,51.6472],
[16.8038,51.5803],
[16.9801,51.7142],
[17.3197,51.7142],
[17.5493,51.246],
[17.976,51.3128],
[18.5525,51.0457],
[19.3973,51.0457],
[19.6373,50.8455],
[19.6108,50.4457],
[20.111,50.3791],
[20.1155,50.4457],
[20.0314,50.4457],
[20.0731,51.0457],
[20.5005,51.1124],
[20.785,51.5134],
[20.7263,51.8481],
[21.3213,51.8481],
[21.5083,52.0492],
[22.1832,51.9822],
[22.1102,52.1163],
[22.2929,52.2505],
[22.3179,52.5191],
[22.4887,52.5191],
[22.4482,52.99],
[22.6462,53.2596],
[22.3025,53.2596],
[22.5009,53.5296],
[22.1695,53.6647],
[21.9843,53.5296],
[21.8184,53.5971],
[21.7197,53.4621],
[21.3815,53.5296],
[21.0195,53.3271],
[20.5841,53.2596],
[20.4871,53.1248],
[20.1491,53.1922],
[20.0632,53.1922],
[19.9721,53.1248],
[19.9019,53.3271],
[19.563,53.3946],
[19.4921,53.5971],
[19.0614,53.5971],
[18.9848,53.7323],
[17.9498,53.7323],
[17.7649,53.5296],
[17.5105,53.5971],
[17.0649,53.3271],
[16.721,53.3271],
[16.714,53.1922],
[16.4563,53.1922],
[16.5354,53.0574],
[16.3639,53.0574],
[16.2716,52.9227],
[16.0176,52.99],
[16.0115,52.8554],
[15.3209,52.7208],
[14.9712,52.5191],
[14.8028,52.5863],
[14.8075,52.7208],
[14.7196,52.6535],
[14.6341,52.6535],
[14.5463,52.5863]
]
],
[
[
[15.6689,52.8554],
[15.7545,52.8554],
[15.7575,52.9227],
[15.6718,52.9227],
[15.6689,52.8554]
]
],
[
[
[16.1891,52.99],
[16.2749,52.99],
[16.2781,53.0574],
[16.1923,53.0574],
[16.1891,52.99]
]
],
[
[
[16.2781,53.0574],
[16.3639,53.0574],
[16.3672,53.1248],
[16.2813,53.1248],
[16.2781,53.0574]
]
]
]}
}
