{
"type": "Feature",
"properties": {"id":"cliopatria-kingdom-of-georgia-1147","edge_precision":"unknown","cliopatria_name":"Kingdom of Georgia","cliopatria_from_year":1147,"cliopatria_to_year":1168,"cliopatria_area_km2":144640,"cliopatria_wikidata":"Q154667","cliopatria_wikipedia":"Kingdom of Georgia","cliopatria_seshat_id":"ge_georgia_k_2"},
"geometry": {"type": "MultiPolygon", "coordinates": [
[
[
[39.0508,44.1243],
[39.1316,44.1243],
[39.1425,44.1896],
[39.0617,44.1896],
[39.0508,44.1243]
]
],
[
[
[39.1207,44.0591],
[39.2014,44.0591],
[39.2124,44.1243],
[39.1316,44.1243],
[39.1207,44.0591]
]
],
[
[
[39.1905,43.9938],
[39.3519,43.9938],
[39.3629,44.0591],
[39.2014,44.0591],
[39.1905,43.9938]
]
],
[
[
[39.3519,43.9938],
[39.7585,43.5375],
[40.2192,43.4072],
[40.4157,43.1467],
[40.8173,43.1467],
[41.1158,43.0165],
[41.6087,42.6262],
[41.4833,42.3662],
[41.7006,42.2362],
[41.5982,42.1063],
[41.7579,42.1063],
[41.7355,41.9764],
[41.8153,41.9764],
[41.5892,41.5869],
[41.5783,41.522],
[41.7375,41.522],
[41.7951,41.3922],
[41.2537,41.0032],
[41.5182,40.6792],
[41.6767,40.6792],
[41.6557,40.5496],
[41.9513,40.4201],
[42.347,40.4201],
[42.6168,40.6144],
[43.1031,40.6792],
[43.1475,40.9384],
[43.567,41.068],
[43.7709,40.8736],
[43.5911,40.2906],
[43.7163,40.0964],
[44.4051,39.967],
[44.8223,40.0964],
[44.8788,39.967],
[45.1156,39.967],
[45.7918,39.3203],
[45.9492,39.3203],
[46.2192,39.0618],
[46.2646,38.868],
[46.6684,38.9326],
[47.4008,39.5143],
[47.4244,39.6436],
[47.3455,39.6436],
[47.3574,39.7083],
[47.3143,39.9023],
[46.9986,39.9023],
[46.7974,40.0964],
[46.9368,40.4201],
[46.8698,40.4849],
[46.2798,40.2906],
[45.8844,40.2906],
[45.8526,40.5496],
[46.3215,40.9384],
[46.7976,40.9384],
[47.236,40.744],
[47.7243,40.8088],
[47.842,41.0032],
[47.7089,41.1328],
[47.7347,41.2625],
[47.6553,41.2625],
[47.3502,41.3274],
[46.8164,41.8465],
[46.4306,41.9114],
[46.2297,42.1063],
[45.6834,42.1712],
[45.7474,42.4962],
[45.158,42.7563],
[44.7446,42.6912],
[44.6897,42.8213],
[44.369,42.8213],
[44.1838,42.6912],
[43.7832,42.6912],
[43.7399,42.8864],
[43.2027,43.0165],
[42.9178,43.2118],
[41.9536,43.2118],
[41.1156,43.4723],
[41.0351,43.4723],
[40.736,43.6027],
[40.3333,43.6027],
[40.2979,43.8634],
[39.964,43.7982],
[39.3519,43.9938]
]
]
]}
}
