{
"type": "Feature",
"properties": {"id":"cliopatria-empire-of-haiti-1822","edge_precision":"unknown","cliopatria_name":"Empire of Haiti","cliopatria_from_year":1822,"cliopatria_to_year":1845,"cliopatria_area_km2":83656,"cliopatria_wikidata":"Q2006756","cliopatria_wikipedia":"First Empire of Haiti"},
"geometry": {"type": "MultiPolygon", "coordinates": [
[
[
[-74.4448,18.6076],
[-74.4006,18.2862],
[-74.179,18.2862],
[-73.9225,18.0291],
[-73.701,18.0291],
[-73.6531,18.2219],
[-72.1018,18.2219],
[-71.7071,18.0291],
[-71.5916,17.7076],
[-71.2799,17.579],
[-70.9938,18.2219],
[-70.7151,18.3505],
[-70.5673,18.3505],
[-70.5506,18.2219],
[-69.9596,18.2219],
[-69.8368,18.4148],
[-69.0979,18.4148],
[-68.5561,18.2219],
[-68.4328,18.4148],
[-68.285,18.4148],
[-68.244,18.6719],
[-68.5647,18.8648],
[-68.5814,18.9934],
[-69.486,19.1219],
[-69.1246,19.1862],
[-69.0761,19.3791],
[-69.6596,19.3148],
[-69.8595,19.7005],
[-70.2298,19.7005],
[-70.7746,19.8934],
[-70.7834,19.9577],
[-71.6724,19.9577],
[-71.7198,19.7648],
[-72.3953,19.8291],
[-72.6356,19.9577],
[-73.2283,19.9577],
[-73.4323,19.8291],
[-73.405,19.6362],
[-72.7947,19.5077],
[-72.7147,18.9291],
[-72.3012,18.6076],
[-73.1708,18.4791],
[-74.2409,18.7362],
[-74.4448,18.6076]
]
],
[
[
[-73.3152,18.9934],
[-73.2974,18.8648],
[-72.9013,18.6719],
[-72.6796,18.6719],
[-72.7886,18.9291],
[-73.3152,18.9934]
]
]
]}
}
