{
"type": "Feature",
"properties": {"id":"cliopatria-duchy-of-benevento-0876","edge_precision":"unknown","cliopatria_name":"Duchy of Benevento","cliopatria_from_year":876,"cliopatria_to_year":879,"cliopatria_area_km2":23662,"cliopatria_wikidata":"Q267816","cliopatria_wikipedia":"Duchy of Benevento"},
"geometry": {"type": "MultiPolygon", "coordinates": [
[
[
[13.3966,41.2625],
[13.7145,41.2625],
[13.7134,41.1977],
[13.7929,41.1977],
[14.112,41.2625],
[14.1082,41.068],
[13.9494,41.068],
[13.9483,41.0032],
[14.5039,41.0032],
[15.296,40.9384],
[15.4581,41.068],
[16.0139,41.068],
[16.0895,40.9384],
[16.2482,40.9384],
[16.2443,40.8088],
[16.4822,40.8088],
[16.7909,40.5496],
[16.7847,40.3554],
[16.8638,40.3554],
[16.945,40.4201],
[16.868,40.4849],
[17.0285,40.5496],
[17.1077,40.5496],
[17.1913,40.6792],
[17.5059,40.6144],
[17.5852,40.6144],
[17.6692,40.744],
[17.4337,40.8088],
[17.4361,40.8736],
[17.2774,40.8736],
[17.0462,41.068],
[16.6471,41.0032],
[16.4966,41.2625],
[15.9439,41.3922],
[15.8738,41.7167],
[16.1149,41.7816],
[16.1189,41.9114],
[15.2414,41.9114],
[15.165,42.0413],
[14.924,41.9764],
[14.7674,42.1063],
[14.6876,42.1063],
[14.3654,41.9764],
[14.1208,41.7167],
[13.9615,41.7167],
[14.0374,41.522],
[13.8747,41.3274],
[13.3976,41.3274],
[13.3966,41.2625]
]
],
[
[
[13.8677,40.9384],
[13.9471,40.9384],
[13.9483,41.0032],
[13.8689,41.0032],
[13.8677,40.9384]
]
]
]}
}
