{
"type": "Feature",
"properties": {"id":"cliopatria-caucasian-iberia-0402","edge_precision":"unknown","cliopatria_name":"Caucasian Iberia","cliopatria_from_year":402,"cliopatria_to_year":509,"cliopatria_area_km2":35797,"cliopatria_wikidata":"Q19083","cliopatria_wikipedia":"Kingdom of Iberia"},
"geometry": {"type": "MultiPolygon", "coordinates": [
[
[
[42.4922,43.0816],
[42.5725,43.0816],
[42.6052,42.8213],
[42.7536,42.7563],
[42.7181,42.5612],
[42.9346,42.4312],
[42.6244,41.5869],
[42.8633,41.5869],
[43.3402,41.1328],
[43.9756,41.1328],
[44.2373,41.2625],
[44.3523,41.4571],
[44.7743,41.5869],
[45.0745,41.9114],
[45.3138,41.9114],
[45.5363,42.2362],
[45.6961,42.2362],
[45.7089,42.3012],
[45.6802,42.5612],
[45.44,42.5612],
[45.158,42.7563],
[44.8374,42.7563],
[44.8247,42.6912],
[44.6897,42.8213],
[43.7832,42.6912],
[43.7399,42.8864],
[43.2027,43.0165],
[42.9178,43.2118],
[42.5041,43.1467],
[42.4922,43.0816]
]
]
]}
}
