{
"type": "Feature",
"properties": {"id":"cliopatria-british-africa-1905","edge_precision":"unknown","cliopatria_name":"British Africa","cliopatria_from_year":1905,"cliopatria_to_year":1907,"cliopatria_area_km2":9275140,"cliopatria_wikidata":"Q179848","cliopatria_wikipedia":"Scramble for Africa","cliopatria_seshat_id":"gb_british_emp_2","cliopatria_member_of":"(British Empire)"},
"geometry": {"type": "MultiPolygon", "coordinates": [
[
[
[-16.8308,13.4003],
[-16.8229,13.0789],
[-15.8711,13.1432],
[-15.7259,13.2075],
[-15.7289,13.336],
[-15.3621,13.336],
[-15.1466,13.5289],
[-14.9265,13.5289],
[-14.4805,13.2718],
[-14.4071,13.2718],
[-14.039,13.2075],
[-13.7512,13.4646],
[-14.2647,13.4646],
[-14.7828,13.6575],
[-14.8592,13.7861],
[-15.2262,13.7861],
[-15.515,13.5932],
[-15.8803,13.5289],
[-16.5423,13.5932],
[-16.5406,13.5289],
[-16.8308,13.4003]
]
],
[
[
[-13.3193,9.0288],
[-13.3188,8.9645],
[-13.1717,8.8359],
[-13.3173,8.7716],
[-13.3163,8.6431],
[-13.0968,8.5788],
[-13.3154,8.5145],
[-13.3142,8.3216],
[-12.948,8.1288],
[-12.8731,7.743],
[-12.7271,7.743],
[-12.9458,7.6787],
[-12.945,7.4859],
[-12.507,7.4216],
[-12.2144,7.1644],
[-11.6303,6.9716],
[-11.4115,6.9716],
[-11.339,7.2287],
[-10.9021,7.6145],
[-10.7561,7.6145],
[-10.6114,8.0002],
[-10.3928,8.1288],
[-10.2481,8.4502],
[-10.6856,8.3216],
[-10.6138,8.5788],
[-10.5408,8.5788],
[-10.692,9.4145],
[-10.8386,9.4788],
[-10.9137,9.7359],
[-11.2815,9.9931],
[-11.9395,9.9931],
[-12.0844,9.8645],
[-12.4499,9.8645],
[-12.882,9.1574],
[-13.3193,9.0288]
]
],
[
[
[-3.2415,6.843],
[-3.1717,6.1358],
[-3.0266,6.0073],
[-2.9559,5.6215],
[-2.738,5.493],
[-2.7398,5.2358],
[-2.9593,5.1072],
[-2.9603,4.9787],
[-2.8874,4.9787],
[-2.4506,4.9144],
[-2.2336,4.7215],
[-1.8692,4.7215],
[-1.5023,5.0429],
[-0.7725,5.1715],
[0.1062,5.6858],
[0.9086,5.7501],
[1.1293,6.0073],
[1.1298,6.0715],
[0.8405,6.393],
[0.6217,6.393],
[0.3316,6.6501],
[0.3342,7.1002],
[0.1886,7.1644],
[0.1919,7.8716],
[0.1189,7.8716],
[0.1954,9.0288],
[0.0504,10.2502],
[-0.0227,10.2502],
[0.0498,11.0217],
[-0.3162,11.086],
[-0.5353,10.8931],
[-0.8283,11.0217],
[-2.8038,10.9574],
[-2.8764,10.8288],
[-2.8751,10.4431],
[-2.7282,10.186],
[-2.7269,9.3502],
[-2.6538,9.3502],
[-2.7267,8.9645],
[-2.5077,8.6431],
[-2.5082,8.193],
[-2.8741,7.743],
[-2.8745,7.5502],
[-3.0208,7.4216],
[-3.2415,6.843]
]
],
[
[
[2.736,6.3287],
[4.195,6.393],
[4.5585,6.2644],
[4.8478,6.0073],
[4.9898,5.6215],
[5.1349,5.5572],
[5.1329,5.3644],
[5.2787,5.3644],
[5.346,4.8501],
[5.4887,4.5929],
[5.922,4.2715],
[6.432,4.2715],
[6.6521,4.4001],
[6.6537,4.5286],
[6.725,4.4001],
[8.1838,4.5286],
[8.2599,4.7858],
[8.404,4.6572],
[8.4769,4.6572],
[8.8502,5.3644],
[8.8564,5.8787],
[9.666,6.5216],
[9.7419,6.7787],
[10.0351,6.9073],
[10.0366,7.0359],
[10.5524,7.4859],
[10.6984,7.4859],
[12.4681,9.0288],
[12.6142,9.0288],
[12.7633,9.2859],
[13.204,9.4788],
[13.283,9.9931],
[13.58,10.3788],
[13.5829,10.636],
[13.8083,11.1503],
[14.6172,11.4717],
[14.6989,12.1789],
[14.1891,12.436],
[14.123,13.0789],
[13.6165,13.7218],
[12.8801,13.4646],
[12.4364,13.0789],
[12.1431,13.0789],
[11.8514,13.2718],
[11.1922,13.4003],
[10.3849,13.336],
[10.1644,13.2718],
[9.5745,12.7575],
[8.9884,12.8217],
[8.7695,13.0146],
[8.4032,13.0789],
[8.1109,13.336],
[7.7441,13.336],
[7.3032,13.0789],
[7.2298,13.0789],
[6.9363,13.0146],
[6.4244,13.6575],
[6.1309,13.6575],
[5.8376,13.8503],
[4.5899,13.7218],
[4.2231,13.4646],
[4.1499,13.0146],
[3.7101,12.5003],
[3.7098,11.8574],
[3.5632,11.6646],
[3.5627,11.2788],
[3.7819,11.086],
[3.8537,10.5074],
[3.6337,10.3145],
[3.6327,9.9931],
[3.3396,9.8002],
[3.1926,9.5431],
[3.1177,9.0931],
[2.7519,8.9645],
[2.7451,7.6145],
[2.818,7.6145],
[2.736,6.3287]
]
],
[
[
[16.3446,-28.6439],
[16.3457,-28.7082],
[16.5039,-29.0939],
[16.7345,-29.2868],
[17.0614,-30.3794],
[18.0919,-31.9219],
[18.1821,-32.3718],
[18.1057,-32.3718],
[18.1137,-32.6289],
[18.0413,-32.7575],
[17.7332,-32.6932],
[17.6684,-33.0789],
[17.8217,-33.0789],
[17.9065,-33.336],
[18.2219,-33.5932],
[18.1715,-34.3649],
[18.4025,-34.3649],
[18.3956,-34.172],
[18.5472,-34.1077],
[18.6359,-34.4292],
[19.1775,-34.4936],
[19.1851,-34.6866],
[19.3393,-34.6866],
[19.4216,-34.8152],
[19.9616,-34.8152],
[20.2589,-34.5579],
[20.7924,-34.4292],
[21.6428,-34.4936],
[21.7937,-34.4292],
[21.8611,-34.2363],
[22.1625,-34.1077],
[23.2429,-34.172],
[23.3128,-34.0433],
[23.7742,-34.0433],
[24.2469,-34.2363],
[24.5548,-34.2363],
[24.9239,-33.979],
[25.624,-34.1077],
[25.5349,-33.9147],
[25.6805,-33.7861],
[26.6024,-33.7861],
[27.2718,-33.4646],
[28.1429,-32.7575],
[28.296,-32.7575],
[28.5796,-32.4361],
[28.7325,-32.4361],
[28.7955,-32.2432],
[29.0875,-32.0504],
[29.0786,-31.9219],
[30.2352,-31.0221],
[30.2263,-30.8936],
[30.5083,-30.5722],
[30.5039,-30.508],
[30.0027,-29.801],
[29.6918,-29.6724],
[29.2374,-29.6724],
[29.2866,-29.2225],
[28.8149,-28.9011],
[28.8043,-28.7082],
[29.538,-28.3225],
[29.6511,-27.6153],
[29.8769,-27.6153],
[30.0343,-27.7439],
[30.0446,-27.9368],
[30.1989,-28.0011],
[30.3425,-27.8725],
[31.2355,-27.6796],
[31.4433,-27.3582],
[30.985,-27.2296],
[30.9782,-27.101],
[30.8245,-27.0367],
[30.7169,-26.3938],
[31.0641,-25.8152],
[31.7448,-25.9437],
[31.9508,-25.558],
[31.8521,-25.0437],
[31.9016,-24.465],
[31.8269,-24.465],
[31.7285,-23.8864],
[31.4947,-23.6293],
[31.4777,-23.1793],
[31.1545,-22.4721],
[31.5874,-22.0864],
[31.5829,-21.9578],
[32.3057,-21.3792],
[32.4292,-20.6721],
[32.7167,-20.4149],
[32.9228,-19.9649],
[32.9158,-19.7721],
[32.7653,-19.7078],
[32.6609,-18.8721],
[32.8065,-18.8078],
[32.9425,-18.4863],
[32.9882,-17.7149],
[32.9144,-17.7149],
[32.8959,-17.2006],
[32.8222,-17.2006],
[32.8824,-16.8148],
[32.3555,-16.4934],
[31.6884,-16.3648],
[31.312,-16.1077],
[30.3511,-15.9791],
[30.2718,-15.7862],
[30.338,-15.5291],
[30.1872,-15.4005],
[30.103,-15.0148],
[31.9976,-14.4362],
[32.1409,-14.3076],
[32.7982,-14.179],
[32.9414,-14.0505],
[33.3141,-14.2433],
[33.4705,-14.5648],
[34.2746,-14.4362],
[34.5031,-14.6933],
[34.52,-15.2076],
[34.2412,-15.6577],
[34.2593,-16.172],
[34.4182,-16.4934],
[35.0247,-16.9434],
[35.0322,-17.1363],
[35.1796,-17.1363],
[35.2409,-16.8148],
[35.091,-16.7506],
[35.0788,-16.4291],
[35.7934,-15.8505],
[35.761,-14.9505],
[35.8345,-14.9505],
[35.8279,-14.7576],
[35.5171,-14.2433],
[35.14,-13.9219],
[35.1419,-13.9862],
[35.2295,-14.4362],
[35.0092,-14.4362],
[34.8562,-14.2433],
[34.491,-14.3076],
[34.4098,-14.0505],
[34.4736,-13.729],
[34.1746,-13.5362],
[34.1536,-12.7647],
[33.8506,-12.379],
[33.9222,-12.3147],
[33.8442,-12.1218],
[34.1264,-11.6718],
[34.1074,-10.8361],
[34.0343,-10.8361],
[34.0978,-10.3861],
[33.8,-10.1289],
[33.7924,-9.7432],
[33.7911,-9.6789],
[32.9105,-9.4861],
[32.0258,-9.036],
[31.9527,-9.036],
[31.143,-8.6503],
[31.144,-8.7146],
[30.7068,-8.7789],
[30.6308,-8.586],
[30.3386,-8.586],
[30.3339,-8.2646],
[28.9493,-8.4575],
[28.8087,-8.8432],
[28.3028,-9.2289],
[28.6018,-9.6789],
[28.5366,-10.1932],
[28.6159,-10.5789],
[28.4029,-10.9647],
[28.3442,-11.8004],
[29.0157,-12.4433],
[29.3088,-12.4433],
[29.5235,-12.1861],
[29.7445,-12.2504],
[29.6961,-13.4076],
[29.5465,-13.279],
[28.8891,-13.4076],
[28.8103,-13.1504],
[28.5129,-12.9576],
[28.3587,-12.5719],
[28.1351,-12.379],
[27.4733,-12.2504],
[27.3955,-11.9933],
[27.0971,-11.6718],
[26.8785,-11.7361],
[26.7363,-11.9933],
[26.1504,-11.9933],
[25.7811,-11.8004],
[25.3408,-11.7361],
[25.1878,-11.2861],
[24.8218,-11.2861],
[24.3853,-11.479],
[24.3078,-11.1575],
[24.0118,-10.9004],
[23.8662,-10.9647],
[24.015,-11.1575],
[24.0184,-11.4147],
[23.8763,-11.7361],
[23.9594,-12.4433],
[23.8156,-12.6361],
[23.8204,-12.9576],
[21.9148,-13.0219],
[21.851,-13.729],
[21.8914,-16.3005],
[22.0444,-16.622],
[23.2428,-17.5863],
[23.2441,-17.6506],
[23.8317,-17.522],
[24.8647,-17.522],
[25.0183,-17.7792],
[24.7245,-17.8435],
[24.5813,-18.0363],
[24.1368,-17.972],
[23.6308,-18.4863],
[23.4077,-18.422],
[23.4051,-18.2935],
[23.1043,-18.0363],
[20.8942,-18.3578],
[20.9506,-21.8935],
[20.8039,-22.0221],
[19.9117,-22.0221],
[19.9295,-27.1653],
[19.8543,-27.1653],
[19.8119,-28.4511],
[19.5118,-28.5154],
[18.9951,-28.9654],
[18.0883,-28.9654],
[17.3273,-28.7082],
[17.1674,-28.2582],
[17.0142,-28.1297],
[16.788,-28.1297],
[16.643,-28.4511],
[16.3446,-28.6439]
]
],
[
[
[16.3741,23.3006],
[18.2269,22.4648],
[18.2997,22.3363],
[18.8922,22.1434],
[18.9648,22.0148],
[19.7044,21.7577],
[19.7768,21.6291],
[20.7361,21.2434],
[20.8081,21.1148],
[21.2511,20.9862],
[21.6903,20.6648],
[22.866,20.1505],
[22.9372,20.022],
[23.3788,19.8934],
[23.4499,19.7648],
[24.0376,19.5719],
[24.0891,15.8433],
[23.9387,15.7147],
[23.3484,15.6504],
[22.8349,15.7147],
[22.4596,15.3933],
[22.287,14.2361],
[22.2136,14.2361],
[22.2068,13.9146],
[22.2802,13.9146],
[22.1856,12.886],
[22.4735,12.6289],
[22.4657,12.2432],
[22.5351,12.0503],
[22.6803,11.986],
[22.598,11.536],
[22.9589,11.2788],
[22.8793,10.9574],
[22.9486,10.7645],
[23.1655,10.636],
[23.163,10.5074],
[23.4516,10.3145],
[23.7324,9.7359],
[23.7259,9.4145],
[23.5016,9.1574],
[23.567,8.7716],
[24.0769,8.7073],
[24.2204,8.5788],
[24.1461,8.5145],
[24.2139,8.2573],
[24.7236,8.193],
[24.9374,7.9359],
[25.2267,7.8073],
[25.2187,7.4216],
[25.7971,7.1644],
[26.0835,6.9073],
[26.0808,6.7787],
[26.297,6.6501],
[26.2902,6.3287],
[26.505,6.1358],
[26.5023,6.0073],
[27.2232,5.6215],
[27.215,5.2358],
[27.856,4.5286],
[28.2162,4.3358],
[28.4347,4.3358],
[28.5832,4.4644],
[29.1633,4.3358],
[29.5346,4.6572],
[29.8918,4.3358],
[30.0305,4.0143],
[30.3205,3.9501],
[30.6034,3.5643],
[30.8219,3.5643],
[30.7241,2.4072],
[31.0853,2.2786],
[31.2268,2.0857],
[29.8908,0.8643],
[29.8842,0.5428],
[29.6592,0.2214],
[29.53,-0.8715],
[29.4572,-0.8715],
[29.533,-1.3215],
[29.8979,-1.4501],
[30.2591,-1.0644],
[31.6416,-1.0001],
[31.6411,-0.9358],
[31.5684,-0.9358],
[31.5662,-0.6144],
[31.7828,-0.3572],
[31.7808,-0.0358],
[32.1444,0.0285],
[32.3519,0.2214],
[32.8599,0.1571],
[33.0109,0.4142],
[33.3762,0.4785],
[33.3734,0.35],
[33.6645,0.35],
[33.9515,0.1571],
[33.891,0.0285],
[34.1108,-0.2286],
[34.2555,-0.1001],
[34.7653,-0.1643],
[34.7666,-0.3572],
[34.4027,-0.3572],
[34.4041,-0.5501],
[34.0406,-0.6144],
[34.0439,-1.0644],
[36.1647,-2.2216],
[36.2387,-2.3501],
[36.5305,-2.4144],
[36.8243,-2.6716],
[37.336,-2.8644],
[37.63,-3.1216],
[37.5623,-3.5716],
[38.8137,-4.6002],
[39.107,-4.7288],
[39.1798,-4.7288],
[39.3966,-4.6002],
[39.5362,-4.1502],
[39.7514,-3.893],
[39.8193,-3.5073],
[40.1788,-3.1216],
[40.103,-2.8644],
[40.1737,-2.6716],
[40.6091,-2.543],
[41.0418,-2.1573],
[41.0405,-2.0287],
[41.4031,-1.9001],
[41.474,-1.7073],
[41.4734,-1.643],
[40.884,-0.8715],
[40.928,2.8572],
[41.3001,3.1786],
[41.7569,3.9501],
[41.2453,3.8858],
[40.6726,4.2715],
[40.5997,4.2715],
[40.0119,4.0786],
[39.413,3.4358],
[39.1977,3.5643],
[37.8899,3.6929],
[37.0331,4.4001],
[36.0876,4.4644],
[35.7327,4.8501],
[35.8152,5.2358],
[35.096,5.6215],
[34.7576,6.6501],
[34.1144,7.1644],
[34.0481,7.4216],
[33.763,7.6787],
[33.0381,7.8716],
[33.1977,8.3859],
[33.4914,8.4502],
[33.4219,8.5788],
[33.7994,9.0288],
[33.885,9.4788],
[34.1042,9.4788],
[34.181,9.6074],
[34.1903,9.9288],
[34.3402,10.0574],
[34.3555,10.5717],
[34.5096,10.8288],
[34.8695,10.636],
[35.0257,10.9574],
[35.044,11.536],
[35.2051,11.986],
[35.3538,12.0503],
[35.5888,12.5003],
[35.8154,12.6932],
[36.1842,12.7575],
[36.2621,12.886],
[36.281,13.4003],
[36.5157,13.7861],
[36.6092,14.3004],
[36.4964,15.1361],
[36.6517,15.329],
[36.9091,16.1647],
[37.0622,16.2933],
[37.0121,16.8076],
[37.1685,17.0005],
[37.3896,17.0005],
[37.5432,17.129],
[37.7029,17.3862],
[38.5303,17.7076],
[38.6907,17.9648],
[38.6939,18.0291],
[38.5558,18.2219],
[38.1928,18.3505],
[37.8422,18.7362],
[37.5495,18.8005],
[37.5557,18.9291],
[37.4109,18.9934],
[37.3176,20.1505],
[37.2434,20.1505],
[37.3414,20.6648],
[37.2049,20.922],
[37.2138,21.1148],
[37.3622,21.1148],
[37.3682,21.2434],
[36.9432,21.6934],
[36.961,22.0791],
[36.2466,22.722],
[35.8087,22.9148],
[35.5464,23.6863],
[35.5588,23.9435],
[35.8541,23.8792],
[35.8604,24.0077],
[35.1455,24.6506],
[34.6076,25.8079],
[34.4613,25.8722],
[34.1972,26.5151],
[34.0507,26.5794],
[34.0731,26.9652],
[33.9266,27.0295],
[33.7992,27.4152],
[33.5851,27.6081],
[33.6089,27.9938],
[33.1053,28.3795],
[32.8361,28.8938],
[32.6892,28.9581],
[32.4416,29.7937],
[32.6019,29.9223],
[32.5888,29.7294],
[32.8571,29.2152],
[33.1468,29.0224],
[33.1889,28.5081],
[33.403,28.3153],
[33.5538,28.3153],
[33.617,28.1224],
[34.12,27.7367],
[34.3459,27.7367],
[34.3583,27.9295],
[34.5173,28.0581],
[34.5472,28.5081],
[34.7114,28.701],
[34.8372,29.4081],
[34.9129,29.4081],
[34.8094,30.0508],
[34.6676,30.1794],
[34.6824,30.3722],
[34.5405,30.5007],
[34.434,31.0791],
[34.2972,31.2719],
[34.2211,31.2719],
[33.7493,31.0791],
[32.8317,31.0148],
[32.7652,31.1434],
[32.5322,31.0791],
[32.3894,31.2076],
[32.2372,31.2076],
[32.3039,31.0791],
[31.9996,31.0791],
[31.9374,31.2719],
[31.7806,31.2076],
[31.8752,31.4647],
[31.2658,31.4647],
[31.118,31.529],
[31.2033,31.6575],
[30.9746,31.6575],
[30.9656,31.529],
[30.8088,31.4647],
[30.3517,31.4647],
[30.2712,31.4005],
[30.3388,31.2719],
[29.882,31.2719],
[29.8779,31.2076],
[29.7894,31.0148],
[29.4851,31.0148],
[29.3971,30.822],
[28.865,30.822],
[28.4964,31.0148],
[27.5149,31.1434],
[27.2975,31.3362],
[26.8477,31.4647],
[25.248,31.4647],
[25.1783,31.5933],
[25.102,31.5933],
[24.3132,31.0148],
[24.3074,30.8863],
[24.0737,30.7578],
[23.9106,30.5007],
[23.7297,29.7937],
[23.9415,29.4081],
[23.9289,29.0867],
[23.6853,28.6367],
[23.2189,28.251],
[22.913,28.1224],
[22.1612,28.1867],
[21.7185,28.5081],
[21.5059,28.9581],
[21.2812,29.0224],
[21.2773,28.8938],
[21.1262,28.8938],
[20.9694,28.701],
[20.8184,28.701],
[20.6621,28.5081],
[20.5111,28.5081],
[20.3551,28.3153],
[20.2042,28.3153],
[19.9715,28.0581],
[19.8208,28.0581],
[19.6655,27.8652],
[19.5149,27.8652],
[19.2832,27.6081],
[18.9794,27.4795],
[18.8913,26.8366],
[18.9664,26.8366],
[18.926,24.5221],
[16.3753,23.4291],
[16.3741,23.3006]
]
],
[
[
[31.6909,-27.7439],
[32.075,-27.8725],
[32.1581,-28.0011],
[32.2334,-28.0011],
[32.4674,-28.1297],
[32.7749,-26.9724],
[32.7713,-26.9081],
[32.0164,-26.8438],
[31.8697,-26.9081],
[31.8158,-27.2939],
[31.6909,-27.7439]
]
],
[
[
[34.8368,-13.6005],
[34.8387,-13.6647],
[34.9121,-13.6647],
[34.9102,-13.6005],
[34.8368,-13.6005]
]
],
[
[
[34.9121,-13.6647],
[34.914,-13.729],
[34.9874,-13.729],
[34.9855,-13.6647],
[34.9121,-13.6647]
]
],
[
[
[35.0627,-13.7933],
[35.0646,-13.8576],
[35.138,-13.8576],
[35.1361,-13.7933],
[35.0627,-13.7933]
]
],
[
[
[42.7624,10.4431],
[43.0359,9.9288],
[43.2506,9.8002],
[43.3828,9.4145],
[43.5998,9.3502],
[43.8098,9.0931],
[46.6967,8.1288],
[46.8381,8.0002],
[47.8578,7.9359],
[48.2345,8.2573],
[48.2417,8.4502],
[48.6945,8.8359],
[49.0622,8.9002],
[49.4454,9.3502],
[49.4376,10.8931],
[49.2382,11.3431],
[48.3599,11.3431],
[47.9854,11.1503],
[47.2563,11.2146],
[46.5787,10.7645],
[45.7061,10.8931],
[45.2542,10.5717],
[44.959,10.5074],
[44.8859,10.5074],
[44.3714,10.4431],
[44.0838,10.5717],
[43.7331,10.9574],
[43.6701,11.2146],
[43.3169,11.536],
[43.2437,11.536],
[43.082,11.1503],
[42.8575,11.0217],
[42.7624,10.4431]
]
],
[
[
[53.3237,12.5003],
[53.3969,12.5003],
[53.3901,12.3717],
[53.5332,12.3074],
[54.1926,12.3074],
[54.4927,12.436],
[54.5033,12.6289],
[54.2172,12.7575],
[53.4842,12.7575],
[53.3237,12.5003]
]
],
[
[
[55.2077,-4.6002],
[55.4304,-4.7931],
[55.429,-4.7288],
[55.4263,-4.6002],
[55.2077,-4.6002]
]
]
]}
}
