{
"type": "Feature",
"properties": {"id":"cliopatria-champa-1188","edge_precision":"unknown","cliopatria_name":"Chámpa","cliopatria_from_year":1188,"cliopatria_to_year":1205,"cliopatria_area_km2":123378,"cliopatria_wikidata":"Q216786","cliopatria_wikipedia":"Champa"},
"geometry": {"type": "MultiPolygon", "coordinates": [
[
[
[106.6074,16.9362],
[106.6857,16.4861],
[106.9706,16.4219],
[107.1527,16.1647],
[107.5016,16.0361],
[107.2976,15.6504],
[107.6927,15.329],
[107.574,15.0075],
[107.6035,14.6861],
[107.4222,14.4289],
[107.3804,14.1075],
[107.6669,13.4646],
[107.5248,12.886],
[107.5981,12.886],
[107.6274,12.5003],
[106.8454,12.0503],
[106.8779,11.6646],
[107.058,11.2788],
[107.0324,11.0217],
[107.1056,11.0217],
[107.0499,10.4431],
[107.3364,10.3788],
[108.0253,10.7003],
[108.1173,10.8931],
[108.5691,11.0217],
[108.582,11.1503],
[108.7284,11.1503],
[109.2141,11.6003],
[109.2251,12.3717],
[109.3203,12.5646],
[109.4669,12.5646],
[109.5119,12.9503],
[109.3806,13.0789],
[109.3623,13.5289],
[109.2889,13.5289],
[109.3544,14.0432],
[109.1764,14.3646],
[109.1553,14.7504],
[108.9706,15.0075],
[109.0164,15.329],
[108.6767,15.5218],
[108.6955,15.6504],
[108.3754,15.9718],
[108.385,16.0361],
[108.1393,16.3576],
[107.8447,16.3576],
[107.8644,16.4861],
[107.717,16.4861],
[107.6731,16.679],
[107.482,16.8719],
[107.3346,16.8719],
[107.291,17.0647],
[107.0264,17.2576],
[106.9527,17.2576],
[106.6074,16.9362]
]
]
]}
}
