{
"type": "Feature",
"properties": {"id":"cliopatria-armenian-kingdom-of-cilicia-1188","edge_precision":"unknown","cliopatria_name":"Armenian Kingdom of Cilicia","cliopatria_from_year":1188,"cliopatria_to_year":1191,"cliopatria_area_km2":34363,"cliopatria_wikidata":"Q335088","cliopatria_wikipedia":"Armenian Kingdom of Cilicia"},
"geometry": {"type": "MultiPolygon", "coordinates": [
[
[
[33.6098,36.4816],
[33.6624,36.224],
[33.74,36.224],
[33.9791,36.2884],
[34.2507,36.6749],
[34.5816,36.8682],
[34.8929,36.8682],
[34.9504,36.6749],
[35.1127,36.7393],
[35.3323,36.6105],
[35.4877,36.6105],
[35.8336,36.9326],
[36.1449,36.9326],
[36.272,36.6749],
[36.5196,36.8037],
[36.5974,36.8037],
[36.8194,37.3838],
[36.8269,37.4483],
[36.9276,37.6417],
[36.8572,37.7062],
[37.1069,37.8352],
[37.2242,38.1578],
[35.6031,38.3515],
[34.8767,37.4483],
[34.5647,37.4483],
[34.3036,37.1904],
[33.7452,37.0615],
[33.7779,36.6105],
[33.6098,36.4816]
]
]
]}
}
