{
"type": "Feature",
"properties": {"id":"cliopatria-wusun-51bce","edge_precision":"unknown","cliopatria_name":"Wusun","cliopatria_from_year":-50,"cliopatria_to_year":5,"cliopatria_area_km2":194516,"cliopatria_wikidata":"Q854062","cliopatria_wikipedia":"Wusun"},
"geometry": {"type": "MultiPolygon", "coordinates": [
[
[
[73.9429,44.9734],
[74.0241,44.9734],
[73.9746,44.8426],
[74.0875,44.7119],
[74.4433,44.5813],
[74.5627,44.2548],
[74.9983,44.1243],
[74.7948,43.7982],
[75.205,43.6027],
[75.1076,43.3421],
[75.188,43.3421],
[75.1396,43.2118],
[75.252,43.0816],
[75.6293,43.0165],
[75.8776,42.8213],
[75.7015,42.5612],
[75.8139,42.4312],
[76.1578,42.4962],
[76.1423,42.2362],
[76.2784,42.1712],
[76.1276,41.9764],
[76.1604,41.8465],
[76.7983,41.8465],
[76.6153,41.7816],
[76.6247,41.5869],
[76.8635,41.5869],
[76.8168,41.4571],
[77.3738,41.4571],
[77.8749,41.522],
[80.2138,42.4312],
[80.2872,42.8213],
[80.4734,42.8864],
[80.4711,43.0816],
[80.6317,43.0816],
[80.7907,43.2769],
[80.6825,43.4072],
[80.7354,43.5375],
[80.3572,43.9938],
[80.3832,44.4507],
[80.3023,44.4507],
[80.4103,44.7119],
[79.9779,44.8426],
[80.005,44.908],
[79.518,44.908],
[79.5449,44.9734],
[78.5692,45.1696],
[78.3504,45.4313],
[77.9965,45.5623],
[78.0218,45.8243],
[77.8305,45.9554],
[77.8016,46.2833],
[77.7198,46.2833],
[77.6101,46.4145],
[77.3644,46.4145],
[77.3914,46.4802],
[75.5069,46.4802],
[75.5332,46.5459],
[74.8814,46.3489],
[74.7526,46.0209],
[74.3186,45.9554],
[74.117,45.4313],
[74.2547,45.3659],
[74.1301,45.0388],
[73.9429,44.9734]
]
]
]}
}
