{
"type": "Feature",
"properties": {"id":"cliopatria-sunda-kingdom-1572","edge_precision":"unknown","cliopatria_name":"Sunda Kingdom","cliopatria_from_year":1572,"cliopatria_to_year":1578,"cliopatria_area_km2":22146,"cliopatria_wikidata":"Q1469742","cliopatria_wikipedia":"Sunda Kingdom"},
"geometry": {"type": "MultiPolygon", "coordinates": [
[
[
[106.8542,-5.8859],
[106.8575,-5.9502],
[107.0066,-6.0145],
[107.0168,-6.2074],
[107.246,-6.4002],
[107.2677,-6.786],
[107.494,-6.9145],
[107.567,-6.9145],
[107.8012,-7.1717],
[108.1009,-7.3003],
[108.1171,-7.5574],
[107.9877,-7.8146],
[108.0607,-7.8146],
[108.2839,-7.8789],
[108.5632,-7.686],
[108.7822,-7.686],
[109.8211,-7.9432],
[109.8941,-7.9432],
[110.0144,-7.5574],
[109.6454,-7.4931],
[109.4103,-7.236],
[108.6806,-7.236],
[108.0891,-7.1074],
[108.0701,-6.786],
[108.2122,-6.7217],
[108.0518,-6.4645],
[108.1141,-6.2717],
[108.0412,-6.2717],
[107.5272,-6.2074],
[107.3712,-6.0145],
[106.8542,-5.8859]
]
]
]}
}
