{
"type": "Feature",
"properties": {"id":"cliopatria-principality-of-volhynia-1192","edge_precision":"unknown","cliopatria_name":"Principality of Volhynia","cliopatria_from_year":1192,"cliopatria_to_year":1201,"cliopatria_area_km2":82286,"cliopatria_wikidata":"Q680472","cliopatria_wikipedia":"Principality of Volhynia"},
"geometry": {"type": "MultiPolygon", "coordinates": [
[
[
[22.1042,52.0492],
[22.3472,51.9151],
[22.6874,51.9151],
[22.6686,51.7142],
[22.9955,51.5803],
[22.8794,51.246],
[23.0424,51.1792],
[23.0238,50.9789],
[23.1083,50.9789],
[23.0898,50.7788],
[22.9151,50.7121],
[22.8913,50.4457],
[23.3119,50.4457],
[23.3838,50.3125],
[23.8817,50.246],
[24.5536,50.246],
[25.6889,50.6455],
[25.9641,50.8455],
[26.0254,51.3797],
[25.5324,51.5134],
[25.6176,52.2505],
[25.5324,52.2505],
[25.5641,52.5191],
[25.4786,52.5191],
[25.433,52.8554],
[25.4411,52.9227],
[25.7479,53.3271],
[25.281,53.7323],
[25.2976,53.8676],
[25.1414,54.0029],
[24.7253,54.1384],
[24.7415,54.2739],
[24.5843,54.4095],
[24.4976,54.4095],
[24.3083,54.2739],
[23.4199,54.0706],
[23.0385,53.7323],
[22.9246,53.4621],
[22.7457,53.3946],
[22.7322,53.2596],
[22.6462,53.2596],
[22.4288,52.7881],
[22.3432,52.7881],
[22.4224,52.7208],
[22.2929,52.2505],
[22.1042,52.0492]
]
],
[
[
[24.4108,54.4095],
[24.4976,54.4095],
[24.5056,54.4774],
[24.4188,54.4774],
[24.4108,54.4095]
]
]
]}
}
