{
"type": "Feature",
"properties": {"id":"cliopatria-kingdom-of-sarawak-1946","edge_precision":"unknown","cliopatria_name":"Kingdom of Sarawak","cliopatria_from_year":1946,"cliopatria_to_year":1946,"cliopatria_area_km2":128406,"cliopatria_wikidata":"Q1658411","cliopatria_wikipedia":"Raj of Sarawak"},
"geometry": {"type": "MultiPolygon", "coordinates": [
[
[
[109.4748,1.7643],
[109.6179,1.7],
[109.8897,1.1857],
[110.4605,0.8643],
[110.829,0.9928],
[111.7024,0.9928],
[111.9981,1.1214],
[112.0804,1.3786],
[112.379,1.5714],
[112.8157,1.5714],
[112.9539,1.3786],
[113.313,1.25],
[114.4122,1.4428],
[114.7967,1.9571],
[114.7348,2.2143],
[115.1101,2.4714],
[115.058,2.9215],
[115.3555,3.05],
[115.5137,3.3072],
[115.6269,4.0786],
[115.4848,4.1429],
[115.5983,4.8501],
[115.3913,5.0429],
[115.3184,5.0429],
[115.3145,4.9787],
[115.1688,4.9787],
[115.2806,4.4001],
[114.9892,4.4001],
[114.9424,4.8501],
[114.7162,4.7215],
[114.7014,4.4644],
[114.7742,4.4644],
[114.7563,4.1429],
[114.4614,4.0786],
[114.0457,4.4644],
[114.053,4.5929],
[113.9801,4.5929],
[113.8307,4.5286],
[113.6566,4.0143],
[113.2027,3.6929],
[113.1136,3.3715],
[112.8098,3.1143],
[111.7084,2.9215],
[111.2627,2.7286],
[111.2485,2.4072],
[111.1029,2.4072],
[111.1648,2.15],
[111.0138,2.0214],
[110.9207,1.5071],
[110.4864,1.5714],
[110.2781,1.8286],
[109.9818,1.7],
[109.6255,1.8929],
[109.6307,2.0214],
[109.4851,2.0214],
[109.4748,1.7643]
]
]
]}
}
