{
"type": "Feature",
"properties": {"id":"cliopatria-kingdom-of-wurttemberg-1870","edge_precision":"unknown","cliopatria_name":"Kingdom of Württemberg","cliopatria_from_year":1870,"cliopatria_to_year":1870,"cliopatria_area_km2":16779,"cliopatria_wikidata":"Q159631","cliopatria_wikipedia":"Kingdom of Württemberg"},
"geometry": {"type": "MultiPolygon", "coordinates": [
[
[
[8.0426,48.2578],
[8.2083,48.2578],
[8.2117,48.0597],
[8.5418,48.1257],
[8.5437,47.9938],
[8.8746,47.9938],
[8.7893,48.1917],
[9.037,48.2578],
[9.0362,48.3238],
[8.5359,48.522],
[8.9509,48.522],
[9.2849,48.3238],
[9.2863,48.1917],
[9.4525,48.1257],
[9.2882,47.9938],
[9.3747,47.5982],
[9.4572,47.5982],
[9.9508,47.8619],
[9.9496,48.0597],
[10.0324,48.0597],
[9.8657,48.2578],
[9.8644,48.4559],
[10.1125,48.6542],
[10.1111,48.9851],
[9.8597,49.25],
[8.7753,49.25],
[8.6937,49.1175],
[8.4437,49.1175],
[8.4488,48.7865],
[8.1993,48.7865],
[8.205,48.4559],
[8.0426,48.2578]
]
]
]}
}
