{
"type": "Feature",
"properties": {"id":"cliopatria-gupta-empire-0476","edge_precision":"unknown","cliopatria_name":"Gupta Empire","cliopatria_from_year":476,"cliopatria_to_year":489,"cliopatria_area_km2":2060373,"cliopatria_wikidata":"Q11774","cliopatria_wikipedia":"Gupta Empire","cliopatria_seshat_id":"in_gupta_emp"},
"geometry": {"type": "MultiPolygon", "coordinates": [
[
[
[66.632,24.8435],
[67.1477,24.7792],
[67.3261,24.3935],
[67.2891,24.072],
[67.4384,24.072],
[67.4911,23.8792],
[67.6331,23.8149],
[68.1554,23.8149],
[68.1265,23.5577],
[68.3502,23.5577],
[68.3359,23.4291],
[68.4779,23.3649],
[68.5288,23.3649],
[68.4175,23.5715],
[68.7373,23.8393],
[68.791,23.8572],
[69.8924,23.9816],
[70.055,24.1209],
[71.9063,24.0391],
[74.0028,23.5983],
[74.2716,24.3349],
[75.8043,24.6203],
[76.501,24.5841],
[76.7001,24.1988],
[77.9393,23.8534],
[78.7952,23.3518],
[79.6661,23.3518],
[80.1737,22.9858],
[80.8804,22.2093],
[81.4328,22.4303],
[82.1096,23.2238],
[82.443,23.2238],
[82.9457,23.027],
[83.7568,22.306],
[83.7668,21.9511],
[83.1049,20.8018],
[81.1242,20.2285],
[80.806,20.0307],
[80.6454,19.3148],
[80.4896,19.2505],
[80.4684,19.074],
[80.5171,18.7555],
[81.1342,17.9809],
[81.8309,17.5402],
[81.5273,17.1744],
[81.3805,16.7222],
[81.5004,16.3576],
[82.0665,16.3576],
[82.3832,16.5504],
[82.4205,16.8719],
[82.3468,16.8719],
[82.4508,17.129],
[83.153,17.4505],
[83.5612,17.7719],
[83.6667,18.0291],
[84.0519,18.1576],
[84.3796,18.4148],
[84.7487,18.9934],
[85.4149,19.5719],
[85.374,19.8291],
[85.5221,19.8291],
[85.4972,19.6362],
[85.6453,19.6362],
[86.4194,19.8934],
[86.4362,20.022],
[86.8404,20.2791],
[86.7915,20.472],
[87.0309,20.6005],
[86.9589,21.1791],
[86.8847,21.1791],
[86.9846,21.372],
[87.762,21.6291],
[88.1033,21.9505],
[88.1777,21.9505],
[88.1991,21.5648],
[88.5139,21.6934],
[88.6416,22.0791],
[88.716,22.0791],
[88.728,21.6291],
[89.0995,21.6291],
[89.1173,21.7577],
[89.7118,21.7577],
[89.8695,21.822],
[89.8966,22.0148],
[90.232,21.7577],
[90.4263,22.0791],
[90.6494,22.0791],
[90.631,21.9505],
[90.8632,22.0148],
[90.9378,22.5291],
[91.497,22.7863],
[91.3654,22.4005],
[91.7374,22.4005],
[91.7648,22.0791],
[91.8948,21.9505],
[91.8302,21.5005],
[92.0531,21.5005],
[92.0074,21.1791],
[92.1195,20.922],
[92.3331,20.8577],
[92.3318,21.372],
[92.759,21.2434],
[92.7774,21.372],
[92.6566,21.5648],
[92.7314,22.0791],
[92.5922,22.1434],
[92.6302,22.4005],
[92.4649,22.7863],
[92.4943,22.9791],
[92.4198,22.9791],
[92.3611,23.5577],
[92.2222,23.622],
[92.2525,24.2649],
[92.0392,24.3292],
[91.7832,24.1363],
[91.3458,24.2006],
[91.3576,24.7149],
[91.2414,24.9078],
[91.0283,24.9721],
[91.0624,25.165],
[91.7912,25.165],
[91.046,25.3293],
[90.336,25.3413],
[89.8715,25.7783],
[90.1697,26.1294],
[89.5168,26.1294],
[89.2659,26.3865],
[89.0408,26.3865],
[88.9905,26.5151],
[88.5526,26.5794],
[87.9903,26.3865],
[87.2399,26.3865],
[87.1141,26.5151],
[86.6516,26.4508],
[86.3126,26.6437],
[85.787,26.6437],
[85.7362,26.7723],
[85.4479,26.8366],
[85.5476,27.3509],
[85.3346,27.4152],
[85.2485,27.7367],
[84.8591,27.6724],
[84.7474,27.8652],
[84.2825,27.8009],
[83.4797,27.9295],
[83.0664,28.1224],
[83.0171,28.251],
[81.9485,28.1867],
[81.7849,28.1224],
[81.7595,27.9938],
[81.6088,27.9938],
[81.1945,28.1867],
[80.957,28.5081],
[80.1656,28.701],
[79.8666,29.0867],
[79.9609,29.5366],
[79.8852,29.5366],
[79.9544,29.858],
[79.8449,30.0508],
[79.8693,30.5007],
[79.6239,30.7578],
[79.6071,31.0148],
[79.1796,31.4647],
[78.8139,31.529],
[78.8443,31.6575],
[78.448,31.5933],
[76.4634,32.236],
[76.0811,32.5574],
[76.1274,32.7502],
[75.8824,32.6859],
[75.4694,32.8788],
[75.4238,33.0073],
[75.2706,33.0073],
[75.2405,33.2002],
[75.1028,33.2645],
[75.1341,33.3931],
[74.9964,33.4574],
[75.028,33.5859],
[74.6016,34.0361],
[74.6337,34.1647],
[74.2364,34.422],
[74.2526,34.4863],
[73.6401,34.8079],
[73.6076,34.6793],
[73.3442,34.5506],
[73.3712,34.0361],
[73.1706,33.8432],
[72.7709,33.7789],
[72.725,33.9075],
[72.4175,33.9075],
[72.4639,34.1004],
[72.1408,34.0361],
[71.4992,33.2645],
[70.9522,32.8788],
[70.7001,32.4288],
[69.8673,32.1074],
[69.6742,31.9146],
[69.2927,31.9146],
[69.0243,31.7218],
[68.9982,31.5933],
[68.287,31.0791],
[67.9607,30.565],
[67.5217,30.2436],
[67.2135,29.7937],
[66.9313,28.5724],
[67.0067,28.5724],
[66.9655,28.3153],
[67.0409,28.3153],
[67.0457,27.8652],
[67.121,27.8652],
[67.0623,27.4795],
[67.1745,27.2223],
[67.1966,26.3222],
[67.5021,25.8079],
[67.1121,25.1007],
[66.6398,24.9078],
[66.632,24.8435]
]
],
[
[
[91.0304,22.1434],
[91.1885,22.2077],
[91.2628,22.2077],
[91.2816,22.3363],
[91.0584,22.3363],
[91.0304,22.1434]
]
]
]}
}
