{
"type": "Feature",
"properties": {"id":"cliopatria-tuyuhun-0397","edge_precision":"unknown","cliopatria_name":"Tuyuhun","cliopatria_from_year":397,"cliopatria_to_year":401,"cliopatria_area_km2":278493,"cliopatria_wikidata":"Q1196201","cliopatria_wikipedia":"Tuyuhun","cliopatria_seshat_id":"cn_tuyuhun"},
"geometry": {"type": "MultiPolygon", "coordinates": [
[
[
[88.7217,38.8034],
[88.8002,38.8034],
[88.9635,38.6097],
[89.5972,38.416],
[89.7062,38.2869],
[89.9411,38.2869],
[90.0501,38.1578],
[90.2849,38.1578],
[90.3939,38.0288],
[92.5954,37.6417],
[94.6958,36.9971],
[95.5042,36.8682],
[95.8994,36.6749],
[96.2103,36.6749],
[96.3958,36.546],
[100.0115,35.8377],
[101.6912,35.7733],
[102.2616,35.6445],
[102.2372,35.5802],
[102.5713,35.6445],
[102.6175,35.9664],
[102.7975,36.0308],
[102.9235,36.3528],
[102.8191,36.4816],
[102.8703,36.6105],
[102.6106,36.9326],
[102.6889,37.126],
[102.534,37.3193],
[102.2485,37.3838],
[102.094,37.5773],
[102.0961,37.7707],
[101.7037,37.5773],
[101.5492,37.7707],
[101.2634,37.8352],
[101.2387,37.9643],
[100.8745,38.0288],
[100.6964,38.3515],
[100.5398,38.3515],
[100.4138,38.6097],
[100.2264,38.3515],
[99.8104,38.4806],
[99.1984,39.2557],
[98.9068,39.1265],
[98.3841,39.1911],
[98.2231,38.9972],
[97.9088,38.9972],
[97.2078,39.385],
[96.7629,39.4496],
[96.6538,39.1911],
[96.7325,39.1911],
[96.7021,38.7389],
[96.3618,38.6743],
[95.813,38.868],
[95.5528,39.1911],
[95.3955,39.1911],
[95.3185,39.385],
[95.0556,39.3203],
[94.5849,39.5143],
[93.8759,39.5143],
[93.5079,39.385],
[93.2981,39.4496],
[93.0095,39.3203],
[92.2484,39.385],
[91.5418,39.1911],
[90.4943,39.1265],
[88.7217,38.8034]
]
],
[
[
[91.3153,37.7707],
[91.3934,37.7707],
[91.4172,37.8352],
[91.339,37.8352],
[91.3153,37.7707]
]
]
]}
}
