{
"type": "Feature",
"properties": {"id":"cliopatria-samanid-empire-0970","edge_precision":"unknown","cliopatria_name":"Samanid Empire","cliopatria_from_year":970,"cliopatria_to_year":979,"cliopatria_area_km2":2338154,"cliopatria_wikidata":"Q486181","cliopatria_wikipedia":"Samanid Empire","cliopatria_seshat_id":"uz_samanid_emp"},
"geometry": {"type": "MultiPolygon", "coordinates": [
[
[
[52.6994,40.3554],
[52.7785,40.3554],
[52.7877,40.0317],
[53.4985,40.0317],
[53.5449,39.5143],
[53.1375,39.4496],
[53.5176,39.385],
[53.9868,38.9972],
[53.8298,37.8352],
[53.9079,37.8352],
[53.9105,37.4483],
[54.0947,37.1904],
[54.0333,36.8682],
[53.9555,36.8682],
[53.9192,36.6749],
[53.9969,36.6749],
[54.0805,36.2884],
[54.2238,36.224],
[54.1108,36.0308],
[54.1883,36.0308],
[54.2189,35.7733],
[54.4395,35.7089],
[54.2469,35.0653],
[54.3673,34.8723],
[54.3224,34.615],
[54.4978,34.2933],
[54.4537,34.0361],
[54.5306,34.0361],
[54.5638,33.7789],
[54.7065,33.7146],
[54.6849,33.5859],
[54.8276,33.5217],
[54.9719,33.0073],
[55.1911,32.943],
[55.9618,32.0431],
[56.1144,32.0431],
[56.1189,31.5933],
[56.1951,31.5933],
[56.2772,31.1434],
[57.1601,30.9506],
[57.5002,30.6935],
[57.7942,30.6292],
[57.8503,30.5007],
[58.1441,30.4364],
[58.2564,30.1794],
[58.4644,30.0508],
[58.445,29.9223],
[58.5869,29.858],
[58.8707,29.2152],
[58.913,28.4438],
[58.8375,28.4438],
[58.4518,27.2223],
[57.9386,26.708],
[57.7884,26.708],
[57.1362,26.258],
[57.1291,26.1937],
[57.1757,25.9365],
[57.3795,25.7436],
[57.6792,25.7436],
[57.7402,25.615],
[57.958,25.5507],
[58.7817,25.5507],
[59.0602,25.3579],
[60.6321,25.3579],
[60.6178,25.2293],
[60.9171,25.2293],
[61.1274,25.1007],
[61.6582,25.165],
[61.7187,25.0364],
[62.0179,25.0364],
[62.182,25.165],
[62.4739,25.1007],
[62.5634,25.2293],
[63.5362,25.2293],
[63.6262,25.3579],
[64.225,25.3579],
[64.2845,25.2293],
[64.8006,25.165],
[64.8161,25.2936],
[66.0215,25.3579],
[66.3451,25.5507],
[66.6203,25.3579],
[66.6398,24.9078],
[66.632,24.8435],
[66.6616,24.8435],
[66.6714,25.0274],
[67.0343,25.5535],
[67.1566,26.0993],
[67.168,27.448],
[67.502,28.366],
[67.522,29.123],
[67.643,29.277],
[68.1316,29.3902],
[68.693,29.191],
[69.638,29.361],
[70.003,29.812],
[70.2792,29.9543],
[70.5759,29.9488],
[70.846,32.0431],
[71.1728,32.4931],
[71.2297,32.7502],
[71.5938,33.0073],
[71.4845,33.2002],
[71.5288,33.3931],
[71.9563,33.9075],
[72.4639,34.1004],
[72.8978,34.615],
[73.0852,35.0548],
[72.3886,35.4532],
[71.6459,35.4764],
[71.6207,35.0653],
[71.048,34.615],
[71.0171,34.4863],
[71.202,34.2933],
[71.0793,34.1004],
[70.7265,33.9075],
[69.9876,34.0361],
[69.9285,33.7789],
[70.2063,33.6502],
[70.1771,33.5217],
[70.316,33.4574],
[70.258,33.2002],
[69.5398,33.0716],
[69.5462,32.7502],
[69.3379,32.4931],
[69.2927,31.9146],
[69.0874,31.6575],
[68.3373,31.3362],
[67.5634,31.2719],
[67.1658,30.3722],
[66.3425,30.4364],
[65.6297,30.6935],
[64.589,30.822],
[64.46,30.9506],
[64.3256,31.4647],
[64.2494,31.4647],
[64.2817,32.0431],
[64.2054,32.0431],
[64.2156,32.4931],
[64.3552,32.8145],
[64.2786,32.8145],
[64.3298,33.0716],
[64.2532,33.0716],
[64.3574,33.5859],
[64.7448,33.9718],
[65.9326,34.4863],
[66.37,35.0653],
[66.7173,35.902],
[66.9026,36.0308],
[67.0726,36.4172],
[67.8031,36.546],
[68.4863,36.4816],
[68.5961,36.6105],
[69.001,36.6749],
[69.5288,36.6105],
[70.9775,36.8037],
[71.1205,37.3065],
[71.9366,37.7486],
[73.0713,37.7328],
[74.823,37.52],
[75.1118,37.3907],
[74.991,37.5128],
[75.0472,37.7062],
[74.8885,37.9643],
[74.8868,38.2224],
[74.8085,38.2224],
[74.8859,38.4806],
[74.4152,38.7389],
[73.8271,38.6097],
[73.6702,39.385],
[73.6903,39.4496],
[73.3953,39.5143],
[73.5731,39.5789],
[73.8,40.2906],
[73.742,40.3554],
[73.9214,40.4201],
[74.3537,41.0032],
[74.5217,41.2625],
[75.2372,41.7167],
[75.1933,42.0413],
[74.7039,42.2362],
[74.5573,42.4962],
[74.0102,42.7563],
[73.8635,43.0165],
[73.4522,43.2118],
[73.3621,43.4072],
[73.2012,43.4072],
[73.0874,43.5375],
[73.1348,43.6678],
[72.9404,43.7982],
[72.931,43.9938],
[72.4133,44.1243],
[72.2991,44.2548],
[71.5376,44.3854],
[70.0004,44.3854],
[69.5008,43.4072],
[68.273,42.3662],
[68.1096,42.1063],
[66.891,41.2625],
[66.6525,41.2625],
[66.693,41.1328],
[66.2793,40.8088],
[65.6867,40.6792],
[65.3884,40.744],
[65.3511,40.6144],
[63.2647,40.2259],
[62.7387,40.0317],
[62.5018,40.0317],
[62.4742,40.2259],
[62.3333,40.2906],
[62.4027,40.5496],
[62.2969,40.744],
[62.5266,41.0032],
[62.3857,41.068],
[62.4578,41.3274],
[62.151,41.6518],
[62.1877,41.7816],
[61.9423,42.0413],
[61.7827,42.0413],
[61.5556,42.3662],
[61.3957,42.3662],
[61.1683,42.6912],
[61.0081,42.6912],
[60.3919,43.3421],
[60.3677,43.5375],
[59.1235,43.4072],
[58.6329,43.6678],
[58.4175,43.4723],
[58.3371,43.4723],
[58.0515,43.0165],
[57.957,42.3662],
[57.5644,41.7816],
[57.4649,41.3922],
[56.8274,40.744],
[54.3851,40.8088],
[54.3701,40.744],
[53.4044,40.6792],
[53.4482,40.8736],
[53.3397,40.744],
[52.9433,40.744],
[52.9723,40.8736],
[52.893,40.8736],
[52.6994,40.3554]
]
]
]}
}
