{
"type": "Feature",
"properties": {"id":"cliopatria-principality-of-bulgaria-1916","edge_precision":"unknown","cliopatria_name":"Principality of Bulgaria","cliopatria_from_year":1916,"cliopatria_to_year":1916,"cliopatria_area_km2":155061,"cliopatria_wikidata":"Q815731","cliopatria_wikipedia":"Principality of Bulgaria"},
"geometry": {"type": "MultiPolygon", "coordinates": [
[
[
[20.4778,41.3922],
[20.5574,41.3922],
[20.5434,41.1328],
[21.0777,40.744],
[22.0526,41.1328],
[22.5292,41.1328],
[22.8641,41.3922],
[23.0232,41.3922],
[23.2485,41.1977],
[23.959,41.1328],
[24.0291,41.0032],
[24.2625,40.9384],
[25.3785,41.0032],
[26.0822,40.8736],
[26.0769,40.8088],
[26.2354,40.8088],
[26.3419,41.1328],
[26.5969,41.3274],
[26.6139,41.522],
[26.3122,41.7167],
[26.5742,41.9764],
[27.0649,42.1063],
[27.3843,42.1063],
[27.4519,41.9764],
[27.9307,41.9764],
[27.937,42.0413],
[27.4949,42.4312],
[27.5135,42.6262],
[27.8466,42.7563],
[27.8049,43.1467],
[27.8982,43.2769],
[28.2264,43.3421],
[28.1592,43.4723],
[28.4811,43.4723],
[28.5082,43.733],
[27.8898,43.9938],
[27.6476,43.9938],
[27.2993,43.733],
[26.8963,43.733],
[26.3561,43.9938],
[26.114,43.9938],
[25.8486,43.733],
[25.4343,43.6027],
[24.8814,43.733],
[24.1509,43.6678],
[23.6018,43.8634],
[22.9518,43.7982],
[22.8946,44.1243],
[22.6569,44.1896],
[22.4009,43.9938],
[22.289,43.5375],
[21.6366,43.4072],
[21.7597,42.8213],
[21.9117,42.6912],
[21.8109,42.3662],
[21.8068,42.3012],
[21.487,42.3012],
[21.2356,42.1063],
[20.9199,42.1712],
[20.9161,42.1063],
[20.5967,42.1063],
[20.4778,41.3922]
]
]
]}
}
