{
"type": "Feature",
"properties": {"id":"cliopatria-lavo-kingdom-1066","edge_precision":"unknown","cliopatria_name":"Lavo Kingdom","cliopatria_from_year":1066,"cliopatria_to_year":1187,"cliopatria_area_km2":140788,"cliopatria_wikidata":"Q1332305","cliopatria_wikipedia":"Lavo Kingdom","cliopatria_seshat_id":"th_lavo_k_2"},
"geometry": {"type": "MultiPolygon", "coordinates": [
[
[
[98.2303,14.9432],
[98.4844,14.6218],
[98.4688,14.4932],
[98.8052,14.2361],
[98.79,14.1075],
[99.1271,13.8503],
[99.2445,13.5932],
[99.2086,13.2718],
[99.282,13.2718],
[99.1668,12.886],
[99.4262,12.5646],
[99.4665,12.2432],
[99.6605,11.986],
[99.5683,11.7931],
[99.562,11.7289],
[99.3788,11.3431],
[99.1472,11.2146],
[98.8136,10.7645],
[98.6117,10.1217],
[98.9773,10.1217],
[98.9882,10.2502],
[99.2021,10.186],
[99.2862,10.3145],
[99.6044,11.4074],
[99.8549,11.7289],
[99.8802,11.986],
[100.0331,12.0503],
[100.1031,13.4003],
[100.5579,13.5289],
[100.9908,13.4646],
[100.8255,12.6289],
[101.5516,12.5646],
[101.712,12.6932],
[101.7852,12.6932],
[101.8132,12.9503],
[101.6808,13.0789],
[101.7244,13.4646],
[101.9629,14.2361],
[101.6115,14.3646],
[101.6114,14.9432],
[101.4811,15.0718],
[101.5325,15.4575],
[101.6971,15.5861],
[102.2108,16.6147],
[102.2202,16.679],
[102.3223,16.8719],
[102.0015,17.1933],
[101.6136,17.0647],
[101.4019,17.129],
[101.3282,17.129],
[100.8387,16.8076],
[100.8016,16.5504],
[100.5531,16.3576],
[100.4344,16.0361],
[100.2136,16.0361],
[100.0842,16.1647],
[99.9102,15.9718],
[99.0918,15.9076],
[99.0357,16.0361],
[98.8236,16.1004],
[98.6676,16.0361],
[98.6723,15.5218],
[98.2628,15.2004],
[98.2303,14.9432]
]
]
]}
}
