{
"type": "Feature",
"properties": {"id":"cliopatria-shan-states-1529","edge_precision":"unknown","cliopatria_name":"Shan States","cliopatria_from_year":1529,"cliopatria_to_year":1539,"cliopatria_area_km2":387959,"cliopatria_wikidata":"Q4765854","cliopatria_wikipedia":"Shan States"},
"geometry": {"type": "MultiPolygon", "coordinates": [
[
[
[93.4041,24.0077],
[93.4284,23.2363],
[93.4182,23.172],
[94.0686,23.0434],
[94.3263,22.7863],
[94.3272,20.7934],
[94.827,19.6362],
[95.3631,19.2505],
[95.3641,19.7648],
[95.29,19.7648],
[95.3565,20.7291],
[95.849,21.0505],
[96.0644,21.5005],
[96.5101,21.5005],
[96.7685,21.2434],
[96.917,21.2434],
[97.2303,20.8577],
[97.2111,20.7291],
[97.4144,20.6005],
[97.4309,20.2148],
[97.4213,20.1505],
[97.2348,19.8934],
[96.8866,18.5434],
[97.1538,18.3505],
[97.1619,17.9005],
[97.7714,18.0291],
[97.5971,18.3505],
[97.4494,18.3505],
[97.4683,18.4791],
[97.7735,18.5434],
[97.8665,18.6719],
[97.9369,19.6362],
[98.1044,19.7648],
[98.9191,19.7648],
[99.1902,20.0862],
[99.4125,20.0862],
[99.8323,20.4077],
[100.1289,20.4077],
[100.2427,20.6648],
[100.6436,20.8577],
[100.6937,21.1791],
[101.1798,21.4363],
[101.1567,21.7577],
[100.7443,21.5005],
[100.2243,21.5005],
[100.0318,21.6934],
[100.0726,21.9505],
[99.9444,22.0791],
[99.2854,22.1434],
[99.5704,22.9791],
[98.9429,23.2363],
[98.8707,23.6863],
[98.7326,23.7506],
[98.8754,24.1363],
[97.647,23.9435],
[97.79,24.3292],
[97.5891,24.4578],
[97.6482,24.7792],
[97.8218,24.9078],
[97.8709,25.165],
[98.1331,25.3579],
[98.1714,25.5507],
[98.6732,25.8079],
[98.8374,26.5794],
[98.7623,26.5794],
[98.7414,27.4795],
[98.5612,27.6724],
[98.26,27.6724],
[98.1581,28.1867],
[97.9796,28.3795],
[97.5589,28.5081],
[97.4834,28.5081],
[97.3422,27.9295],
[96.9952,27.7367],
[96.9355,27.4795],
[97.1317,27.3509],
[97.1631,27.158],
[96.9376,27.158],
[96.8914,27.2866],
[96.2145,27.2866],
[95.5753,26.7723],
[95.1589,26.5794],
[95.079,26.1937],
[95.1899,26.0008],
[94.8765,25.5507],
[94.7144,25.4864],
[94.7443,24.8435],
[94.3656,24.3935],
[94.1289,23.8792],
[93.8519,24.0077],
[93.4041,24.0077]
]
]
]}
}
