{
"type": "Feature",
"properties": {"id":"cliopatria-dal-riata-0644","edge_precision":"unknown","cliopatria_name":"Dál Riata","cliopatria_from_year":644,"cliopatria_to_year":749,"cliopatria_area_km2":14742,"cliopatria_wikidata":"Q111471","cliopatria_wikipedia":"Dál Riata","cliopatria_seshat_id":"gb_dal_riata"},
"geometry": {"type": "MultiPolygon", "coordinates": [
[
[
[-6.7969,57.3509],
[-6.619,57.3509],
[-6.4109,57.144],
[-5.967,57.144],
[-5.9964,57.3509],
[-6.2042,57.558],
[-6.2143,57.6271],
[-6.3237,57.7654],
[-6.5022,57.7654],
[-6.4715,57.558],
[-6.7388,57.558],
[-6.7969,57.3509]
]
],
[
[
[-6.586,55.9082],
[-6.5568,55.7031],
[-6.3815,55.7031],
[-6.3623,55.5665],
[-6.1872,55.5665],
[-6.1184,55.7031],
[-6.1279,55.7715],
[-5.874,55.8398],
[-5.8927,55.9766],
[-6.586,55.9082]
]
],
[
[
[-6.3414,56.6623],
[-6.1162,56.3191],
[-5.6849,56.3877],
[-5.6569,56.1821],
[-5.8142,56.0451],
[-5.6893,55.7715],
[-5.8554,55.7031],
[-5.8876,55.2936],
[-5.5471,55.3618],
[-5.5742,55.5665],
[-5.3812,55.43],
[-5.1188,55.43],
[-5.1629,55.7715],
[-5.4261,55.7715],
[-5.4442,55.9082],
[-5.3474,55.8398],
[-4.9963,55.8398],
[-4.9349,56.0451],
[-4.847,56.0451],
[-5.0335,56.7998],
[-5.122,56.7998],
[-5.3928,57.4889],
[-5.5902,57.6271],
[-5.9468,57.6271],
[-5.7007,57.144],
[-5.9573,57.0751],
[-5.909,56.7311],
[-5.9878,56.6623],
[-6.3414,56.6623]
]
]
]}
}
