{
"type": "Feature",
"properties": {"id":"cliopatria-yuezhi-111bce","edge_precision":"unknown","cliopatria_name":"Yuezhi","cliopatria_from_year":-110,"cliopatria_to_year":-92,"cliopatria_area_km2":460804,"cliopatria_wikidata":"Q467985","cliopatria_wikipedia":"Yuezhi","cliopatria_seshat_id":"af_tocharian"},
"geometry": {"type": "MultiPolygon", "coordinates": [
[
[
[64.7511,35.7733],
[64.8285,35.7733],
[64.854,35.194],
[65.092,34.8723],
[65.4149,34.9366],
[65.6179,34.8079],
[65.9265,34.8079],
[66.0665,34.7436],
[66.038,34.615],
[66.6887,34.422],
[66.8143,34.2933],
[69.7394,34.2933],
[69.9876,34.0361],
[70.5728,33.9075],
[70.8184,33.9718],
[70.7716,34.1004],
[70.9558,34.229],
[71.4792,34.1647],
[71.4945,34.229],
[71.9431,34.8079],
[71.6048,35.001],
[71.672,35.5802],
[71.2441,36.0308],
[71.2493,36.3528],
[71.6612,36.7393],
[71.825,37.0615],
[72.3982,37.4483],
[72.6625,37.8352],
[73.4942,38.5451],
[73.7479,39.1265],
[73.6303,39.2557],
[73.6903,39.4496],
[73.868,39.5143],
[73.9495,39.7729],
[73.8706,39.7729],
[74.0323,40.0317],
[73.8743,40.0317],
[73.858,40.2259],
[73.684,40.4201],
[73.1353,40.6792],
[73.0986,40.8088],
[73.0193,40.8088],
[71.9607,40.2259],
[71.2091,40.0964],
[71.0705,39.9023],
[70.9127,39.9023],
[70.9522,40.0317],
[70.8141,40.0964],
[70.7548,39.9023],
[70.558,39.7729],
[69.5924,39.7083],
[69.3342,39.9023],
[68.9587,39.967],
[68.997,40.0964],
[69.2729,40.2259],
[69.3316,40.4201],
[68.8567,40.9384],
[68.8985,41.3274],
[68.819,41.3274],
[67.8064,41.6518],
[67.0099,41.3922],
[66.891,41.2625],
[66.6525,41.2625],
[65.9621,40.8088],
[65.8828,40.8088],
[65.5638,39.967],
[65.2912,39.8376],
[65.2031,39.5143],
[65.2819,39.5143],
[65.0655,38.9972],
[65.1441,38.9972],
[65.0767,38.7389],
[65.1551,38.7389],
[65.1384,38.6743],
[64.7511,35.7733]
]
]
]}
}
