{
"type": "Feature",
"properties": {"id":"cliopatria-kingdom-of-hungary-1526","edge_precision":"unknown","cliopatria_name":"Kingdom of Hungary","cliopatria_from_year":1526,"cliopatria_to_year":1528,"cliopatria_area_km2":324832,"cliopatria_wikidata":"Q171150","cliopatria_wikipedia":"Kingdom of Hungary","cliopatria_seshat_id":"hu_later_dyn"},
"geometry": {"type": "MultiPolygon", "coordinates": [
[
[
[14.2776,45.3659],
[14.6031,45.3659],
[14.5985,45.1696],
[14.7595,45.1042],
[14.7564,44.9734],
[14.9187,44.9734],
[14.9089,44.5813],
[15.1484,44.4507],
[15.1466,44.3854],
[15.5474,44.2548],
[15.7032,44.0591],
[16.2641,43.9286],
[16.275,44.2548],
[16.5198,44.3201],
[16.5243,44.4507],
[16.2859,44.5813],
[16.2946,44.8426],
[16.5448,45.0388],
[17.7659,45.1042],
[18.3257,44.908],
[18.4008,44.7773],
[18.7221,44.7119],
[18.9556,44.516],
[19.1985,44.516],
[19.3875,45.0388],
[19.0724,45.235],
[19.079,45.3659],
[18.9227,45.4968],
[18.7598,45.4968],
[18.2103,45.9554],
[18.2162,46.0865],
[18.4676,46.2177],
[18.8733,46.1521],
[19.4148,45.5623],
[19.5777,45.5623],
[20.196,44.9734],
[20.5208,44.9734],
[20.5904,44.7773],
[20.7486,44.7119],
[21.4055,44.8426],
[21.8791,44.6466],
[21.9514,44.516],
[22.2753,44.516],
[22.532,44.7119],
[22.6504,45.235],
[23.1382,45.235],
[23.4735,45.3659],
[23.4836,45.4968],
[25.0423,45.6278],
[25.3453,45.3659],
[25.4382,45.4968],
[25.8455,45.4968],
[25.9389,45.6278],
[26.1019,45.6278],
[26.4404,45.7588],
[26.4779,46.1521],
[25.9421,46.5459],
[25.9668,46.8086],
[25.7266,46.8743],
[25.6689,47.1374],
[25.0166,47.2032],
[25.0343,47.4006],
[24.8813,47.5323],
[24.905,47.7959],
[24.5862,47.9278],
[24.6867,48.1257],
[24.3672,48.2578],
[24.379,48.3899],
[24.053,48.4559],
[23.6663,48.7865],
[22.9287,48.9189],
[22.7784,49.1175],
[22.5231,49.0513],
[21.7983,49.3826],
[20.7129,49.3826],
[20.7038,49.25],
[20.4536,49.25],
[20.5459,49.3826],
[20.2119,49.3826],
[19.8655,49.1838],
[19.4725,49.5816],
[19.1304,49.4489],
[18.8835,49.5152],
[18.3786,49.4489],
[17.9381,48.9851],
[17.4296,48.7865],
[16.8449,48.7204],
[16.9253,48.6542],
[16.829,48.3238],
[16.9119,48.3238],
[16.9842,48.0597],
[16.4852,47.9938],
[16.3151,47.8619],
[16.3035,47.5323],
[16.1386,47.5323],
[16.0324,46.8086],
[15.8641,46.6772],
[16.0176,46.3489],
[15.6045,46.2177],
[15.6785,45.9554],
[15.2648,45.7588],
[15.3391,45.4968],
[14.4461,45.6278],
[14.2776,45.3659]
],
[
[20.4536,49.25],
[20.4492,49.1838],
[20.3658,49.1838],
[20.3615,49.1175],
[20.2781,49.1175],
[20.2867,49.25],
[20.4536,49.25]
]
]
]}
}
