{
"type": "Feature",
"properties": {"id":"cliopatria-kingdom-of-poland-1028","edge_precision":"unknown","cliopatria_name":"Kingdom of Poland","cliopatria_from_year":1028,"cliopatria_to_year":1033,"cliopatria_area_km2":250439,"cliopatria_wikidata":"Q577867","cliopatria_wikipedia":"Kingdom of Poland","cliopatria_seshat_id":"pl_piast_dyn_1","cliopatria_member_of":"(Kingdom of Poland)"},
"geometry": {"type": "MultiPolygon", "coordinates": [
[
[
[13.7556,51.7811],
[14.003,51.5134],
[13.994,51.1792],
[14.4974,51.0457],
[14.5778,50.9122],
[15.2553,50.9789],
[15.417,50.7788],
[16.3388,50.6455],
[16.4173,50.5122],
[17.5787,50.1795],
[17.656,50.0465],
[18.3234,49.98],
[18.3162,49.8471],
[18.7164,49.5152],
[19.0469,49.4489],
[19.0393,49.3163],
[19.2896,49.3163],
[19.6114,49.1175],
[20.1199,49.25],
[20.2119,49.3826],
[21.7983,49.3826],
[22.5231,49.0513],
[22.8617,49.1175],
[22.8672,49.1838],
[22.7058,49.25],
[22.7443,49.7143],
[23.1919,50.0465],
[23.2757,50.0465],
[24.2951,50.1795],
[24.5602,50.3125],
[24.5736,50.4457],
[24.0754,50.5122],
[24.0305,50.9122],
[23.7124,51.1124],
[23.511,51.6472],
[22.1042,52.0492],
[22.2929,52.2505],
[22.4224,52.7208],
[22.3432,52.7881],
[22.4288,52.7881],
[22.6462,53.2596],
[22.3025,53.2596],
[22.5009,53.5296],
[22.1695,53.6647],
[21.9843,53.5296],
[21.8184,53.5971],
[21.7197,53.4621],
[21.3815,53.5296],
[21.0195,53.3271],
[20.5841,53.2596],
[20.4871,53.1248],
[19.9721,53.1248],
[19.9019,53.3271],
[19.563,53.3946],
[19.4211,53.7999],
[19.3348,53.7999],
[19.3398,53.8676],
[19.2685,54.0706],
[19.355,54.0706],
[19.4622,54.3417],
[18.6869,54.4095],
[18.4453,54.6811],
[18.4595,54.8851],
[17.5017,54.8851],
[17.4064,54.7491],
[17.5761,54.6811],
[17.5388,54.0706],
[17.1064,54.0706],
[17.0987,53.9352],
[17.0123,53.9352],
[17.0835,53.6647],
[16.8141,53.4621],
[16.8929,53.3271],
[16.721,53.3271],
[16.714,53.1922],
[16.4563,53.1922],
[16.5354,53.0574],
[16.3639,53.0574],
[16.2716,52.9227],
[16.0176,52.99],
[16.0115,52.8554],
[15.3209,52.7208],
[14.9712,52.5191],
[14.8028,52.5863],
[14.8075,52.7208],
[14.5486,52.6535],
[14.5441,52.5191],
[14.2795,52.2505],
[14.1942,52.2505],
[14.1902,52.1163],
[13.7591,51.9151],
[13.7556,51.7811]
]
],
[
[
[15.6689,52.8554],
[15.7545,52.8554],
[15.7575,52.9227],
[15.6718,52.9227],
[15.6689,52.8554]
]
],
[
[
[16.1891,52.99],
[16.2749,52.99],
[16.2781,53.0574],
[16.1923,53.0574],
[16.1891,52.99]
]
],
[
[
[16.2781,53.0574],
[16.3639,53.0574],
[16.3672,53.1248],
[16.2813,53.1248],
[16.2781,53.0574]
]
]
]}
}
