{
"type": "Feature",
"properties": {"id":"cliopatria-later-zhou-451bce","edge_precision":"unknown","cliopatria_name":"Later Zhou","cliopatria_from_year":-450,"cliopatria_to_year":-405,"cliopatria_area_km2":5476,"cliopatria_wikidata":"Q1154556","cliopatria_wikipedia":"Later Zhou","cliopatria_seshat_id":"cn_eastern_zhou_warring_states","cliopatria_member_of":"(Warring States China)"},
"geometry": {"type": "MultiPolygon", "coordinates": [
[
[
[112.133,35.001],
[113.2642,34.9366],
[113.5301,35.3871],
[112.3199,35.4514],
[112.133,35.001]
]
]
]}
}
