{
"type": "Feature",
"properties": {"id":"cliopatria-fatimid-caliphate-0922","edge_precision":"unknown","cliopatria_name":"Fatimid Caliphate","cliopatria_from_year":922,"cliopatria_to_year":925,"cliopatria_area_km2":582872,"cliopatria_wikidata":"Q160307","cliopatria_wikipedia":"Fatimid Caliphate","cliopatria_seshat_id":"tn_fatimid_cal"},
"geometry": {"type": "MultiPolygon", "coordinates": [
[
[
[-8.0487,31.5933],
[-7.9725,31.5933],
[-7.8879,31.4647],
[-7.7355,31.4647],
[-7.7273,31.3362],
[-6.5929,31.4647],
[-5.6974,31.7861],
[-5.3886,31.7218],
[-5.396,31.8503],
[-4.2691,32.1717],
[-3.9739,32.3645],
[-3.8177,32.3002],
[-3.5985,32.4931],
[-2.544,32.8145],
[-1.8795,33.3288],
[-1.5728,33.3288],
[-1.5788,33.4574],
[-1.2779,33.5859],
[-0.9855,33.9075],
[-0.8317,33.9075],
[-0.4674,34.3577],
[0.3026,34.3577],
[0.4513,34.4863],
[0.685,34.422],
[1.2938,34.615],
[2.4499,34.615],
[2.9205,34.3577],
[3.4557,34.4863],
[3.8427,34.422],
[4.4539,34.615],
[5.149,34.5506],
[5.3774,34.6793],
[6.1484,34.6793],
[6.459,34.5506],
[6.9203,34.615],
[7.1535,34.4863],
[7.6149,34.5506],
[8.0016,34.422],
[8.0808,34.229],
[8.311,34.2933],
[9.159,34.1004],
[9.2395,33.5217],
[9.7017,33.1359],
[9.8561,32.8145],
[10.0856,32.8788],
[11.1569,32.4288],
[11.0803,32.236],
[11.4623,32.3002],
[11.5382,32.1074],
[11.7675,32.1717],
[12.4529,31.8503],
[12.9878,31.9789],
[13.2162,31.9146],
[13.2173,32.0431],
[13.37,32.0431],
[13.9777,31.7861],
[14.3551,31.4647],
[14.8812,30.9506],
[15.1039,30.565],
[16.1594,30.1151],
[17.4433,29.858],
[17.818,29.6652],
[18.0382,29.3438],
[18.713,29.0867],
[18.7145,29.1509],
[18.8703,29.3438],
[18.7236,29.5366],
[18.7298,29.7937],
[18.8056,29.7937],
[18.8944,30.3079],
[18.8961,30.3722],
[18.5925,30.3722],
[18.2223,30.7578],
[17.4695,31.0791],
[16.1786,31.2076],
[15.649,31.4005],
[15.576,31.5933],
[15.4246,31.6575],
[15.2823,32.3002],
[15.0551,32.4288],
[14.7493,32.4288],
[14.6747,32.5574],
[14.4444,32.4931],
[14.0652,32.7502],
[13.7591,32.7502],
[13.7605,32.8788],
[13.4537,32.8145],
[13.3017,32.943],
[12.8418,32.8788],
[12.8408,32.7502],
[12.5347,32.7502],
[12.6121,32.8788],
[12.229,32.8145],
[11.4644,33.2002],
[11.1578,33.2002],
[11.0815,33.5859],
[10.6977,33.5217],
[10.544,33.7146],
[10.2368,33.7146],
[10.0058,33.9075],
[10.0817,34.229],
[10.0045,34.2933],
[10.543,34.5506],
[10.8512,34.8079],
[10.8512,34.9366],
[11.0828,35.001],
[11.0057,35.3871],
[11.083,35.3871],
[11.0832,35.5802],
[10.851,35.6445],
[10.851,35.7089],
[10.4635,35.902],
[10.5403,36.3528],
[10.4625,36.4172],
[11.0062,36.8037],
[11.0063,36.9971],
[10.4618,36.7393],
[10.2284,36.8037],
[10.3054,37.0615],
[10.2276,37.0615],
[10.227,37.2549],
[9.9934,37.1904],
[9.6031,37.3193],
[9.0595,37.0615],
[8.9032,37.126],
[8.5164,36.8682],
[7.7383,36.8682],
[7.502,37.0615],
[7.3463,37.0615],
[7.1937,36.8682],
[6.8047,36.8682],
[6.3339,37.0615],
[6.103,36.9326],
[6.1058,36.8037],
[5.6391,36.8037],
[5.5643,36.6749],
[5.0978,36.6749],
[4.8595,36.8682],
[4.2352,36.9326],
[3.85,36.8037],
[3.459,36.8682],
[3.2299,36.7393],
[2.8411,36.7393],
[2.6902,36.6105],
[2.3769,36.6749],
[1.5296,36.4816],
[1.2162,36.546],
[0.9138,36.3528],
[0.678,36.4172],
[0.6837,36.2884],
[0.3761,36.224],
[0.0835,35.8377],
[-0.4587,35.8377],
[-0.53,35.7089],
[-0.9171,35.7089],
[-1.0655,35.5802],
[-1.2235,35.6445],
[-1.1365,35.4514],
[-1.3587,35.2584],
[-2.1212,35.0653],
[-2.1984,35.0653],
[-2.4231,34.9366],
[-3.1177,34.9366],
[-3.4961,34.8079],
[-4.5069,34.9366],
[-4.4498,35.2584],
[-4.9135,35.2584],
[-5.2398,35.5158],
[-5.3389,35.8377],
[-5.8766,35.7733],
[-5.9999,35.3227],
[-6.1455,35.194],
[-6.132,35.001],
[-6.2909,35.0653],
[-6.2003,34.8723],
[-6.2775,34.8723],
[-6.3324,34.5506],
[-6.4821,34.4863],
[-6.4732,34.3577],
[-6.6997,34.2933],
[-6.6139,34.1647],
[-6.9038,33.9075],
[-7.062,33.9718],
[-7.1299,33.8432],
[-7.7262,33.5859],
[-7.803,33.5859],
[-7.7938,33.4574],
[-7.5592,33.3931],
[-7.3662,32.8145],
[-7.4428,32.8145],
[-7.4212,32.4931],
[-7.6334,32.236],
[-7.6206,32.0431],
[-7.9131,31.8503],
[-8.0487,31.5933]
]
],
[
[
[2.5313,34.4863],
[2.5334,34.422],
[2.6104,34.422],
[2.6083,34.4863],
[2.5313,34.4863]
]
],
[
[
[12.4905,37.7062],
[13.192,37.5773],
[13.5784,37.2549],
[14.2779,37.126],
[14.661,36.7393],
[15.0498,36.7393],
[15.2102,36.9971],
[15.2139,37.1904],
[15.0592,37.2549],
[15.0653,37.5773],
[15.3895,38.1578],
[15.6243,38.1578],
[15.6271,38.2869],
[14.0562,37.9643],
[13.6652,37.9643],
[13.3547,38.1578],
[13.1199,38.1578],
[13.0404,38.0288],
[12.6498,38.0933],
[12.4919,37.8998],
[12.4905,37.7062]
]
],
[
[
[14.3368,35.8377],
[14.5682,35.7733],
[14.5712,35.9664],
[14.4171,36.0308],
[14.3396,36.0308],
[14.3368,35.8377]
]
]
]}
}
