{
"type": "Feature",
"properties": {"id":"cliopatria-county-of-urgell-0896","edge_precision":"unknown","cliopatria_name":"County of Urgell","cliopatria_from_year":896,"cliopatria_to_year":897,"cliopatria_area_km2":15358,"cliopatria_wikidata":"Q1514510","cliopatria_wikipedia":"County of Urgell"},
"geometry": {"type": "MultiPolygon", "coordinates": [
[
[
[1.1091,42.1712],
[1.1226,41.9114],
[1.4481,41.7816],
[1.7916,41.2625],
[1.8711,41.2625],
[2.1066,41.3274],
[2.3336,41.5869],
[2.729,41.6518],
[2.7262,41.7167],
[2.8856,41.7167],
[3.1168,41.9114],
[3.1141,41.9764],
[2.8637,42.2362],
[2.8554,42.4312],
[2.2154,42.4312],
[2.2124,42.4962],
[2.0523,42.4962],
[2.0492,42.5612],
[1.9692,42.5612],
[1.4855,42.6262],
[1.1091,42.1712]
]
]
]}
}
