{
"type": "Feature",
"properties": {"id":"cliopatria-house-of-habsburg-1272","edge_precision":"unknown","cliopatria_name":"House of Habsburg","cliopatria_from_year":1272,"cliopatria_to_year":1278,"cliopatria_area_km2":9369,"cliopatria_wikidata":"Q65968","cliopatria_wikipedia":"House of Habsburg","cliopatria_seshat_id":"de_empire_3","cliopatria_member_of":"(Holy Roman Empire)"},
"geometry": {"type": "MultiPolygon", "coordinates": [
[
[
[6.8909,47.9278],
[6.8993,47.5982],
[7.3973,47.4665],
[7.5594,47.5982],
[7.5524,47.9278],
[7.4698,47.9278],
[7.4683,47.9938],
[7.2186,48.0597],
[7.139,47.9278],
[6.8909,47.9278]
]
],
[
[
[7.5608,47.5323],
[7.8957,47.269],
[7.8146,47.2032],
[7.8258,46.6115],
[7.9898,46.6115],
[7.9863,46.8086],
[8.7226,47.0058],
[8.5525,47.4006],
[8.2228,47.4006],
[8.0603,47.269],
[8.1381,47.5323],
[8.0545,47.5982],
[8.2184,47.6641],
[8.1278,48.1257],
[8.2106,48.1257],
[8.2083,48.2578],
[7.9597,48.2578],
[7.7966,48.1257],
[7.7927,48.3238],
[7.6283,48.2578],
[7.6379,47.7959],
[7.887,47.73],
[7.7257,47.5323],
[7.5608,47.5323]
],
[
[7.978,47.269],
[8.1461,47.0716],
[8.1472,47.0058],
[7.9828,47.0058],
[7.978,47.269]
]
]
]}
}
