{
"type": "Feature",
"properties": {"id":"cliopatria-hafsid-dynasty-1363","edge_precision":"unknown","cliopatria_name":"Hafsid Dynasty","cliopatria_from_year":1363,"cliopatria_to_year":1452,"cliopatria_area_km2":224190,"cliopatria_wikidata":"Q752662","cliopatria_wikipedia":"Hafsid dynasty","cliopatria_seshat_id":"tn_hafsid_dyn"},
"geometry": {"type": "MultiPolygon", "coordinates": [
[
[
[4.3908,36.9326],
[4.4759,36.6749],
[4.6332,36.6105],
[4.6401,36.3528],
[4.5625,36.3528],
[4.6419,36.2884],
[4.6738,35.0653],
[4.6048,34.7436],
[4.4539,34.615],
[6.9203,34.615],
[7.1535,34.4863],
[7.8468,34.4863],
[8.0016,34.422],
[8.0808,34.229],
[8.7734,34.229],
[8.9278,34.1647],
[8.9288,34.0361],
[9.0826,34.0361],
[9.3159,33.5859],
[9.6236,33.4574],
[9.5475,33.3288],
[9.625,33.1359],
[10.0848,33.1359],
[10.0086,33.0073],
[10.3916,33.0073],
[11.1572,32.6859],
[11.3099,32.4931],
[11.4629,32.5574],
[11.539,32.4288],
[11.7684,32.4288],
[11.7679,32.3002],
[12.4559,32.3645],
[13.0667,32.3002],
[13.0657,32.1717],
[13.2953,32.236],
[13.8286,32.1074],
[14.5861,31.6575],
[14.5844,31.529],
[15.1873,31.0791],
[15.1845,30.8863],
[15.4896,30.9506],
[16.7012,30.6935],
[18.2813,30.0508],
[18.8104,29.9865],
[18.8961,30.3722],
[18.5925,30.3722],
[17.9974,30.8863],
[17.4695,31.0791],
[16.1786,31.2076],
[15.649,31.4005],
[15.576,31.5933],
[15.4246,31.6575],
[15.2069,32.3645],
[14.7493,32.4288],
[14.6747,32.5574],
[14.4444,32.4931],
[14.0652,32.7502],
[13.7591,32.7502],
[13.7605,32.8788],
[13.4537,32.8145],
[13.3017,32.943],
[13.072,32.943],
[12.8418,32.8788],
[12.8408,32.7502],
[12.5347,32.7502],
[12.6121,32.8788],
[12.229,32.8145],
[11.4644,33.2002],
[11.1578,33.2002],
[11.0815,33.5859],
[10.6977,33.5217],
[10.544,33.7146],
[10.2368,33.7146],
[10.0058,33.9075],
[10.0817,34.229],
[10.0045,34.2933],
[10.543,34.5506],
[10.8512,34.8079],
[10.8512,34.9366],
[11.0828,35.001],
[11.0057,35.3871],
[11.083,35.3871],
[11.0832,35.5802],
[10.851,35.6445],
[10.851,35.7089],
[10.4635,35.902],
[10.5403,36.3528],
[10.4625,36.4172],
[11.0062,36.8037],
[11.0063,36.9971],
[10.8506,36.9971],
[10.5396,36.7393],
[10.2284,36.8037],
[10.3054,37.0615],
[10.2276,37.0615],
[10.227,37.2549],
[9.9934,37.1904],
[9.6031,37.3193],
[9.0595,37.0615],
[8.9032,37.126],
[8.5164,36.8682],
[7.7383,36.8682],
[7.6587,36.9971],
[7.3463,37.0615],
[7.1937,36.8682],
[6.8047,36.8682],
[6.3339,37.0615],
[6.103,36.9326],
[6.1058,36.8037],
[5.6391,36.8037],
[5.5643,36.6749],
[5.0978,36.6749],
[4.8595,36.8682],
[4.4686,36.9326],
[4.3908,36.9326]
]
]
]}
}
