{
"type": "Feature",
"properties": {"id":"cliopatria-british-empire-1803","edge_precision":"unknown","cliopatria_name":"British Empire","cliopatria_from_year":1803,"cliopatria_to_year":1804,"cliopatria_area_km2":1285713,"cliopatria_wikidata":"Q8680","cliopatria_wikipedia":"British Empire","cliopatria_seshat_id":"gb_british_emp_1","cliopatria_member_of":"(British Empire)"},
"geometry": {"type": "MultiPolygon", "coordinates": [
[
[
[-121.7038,56.6623],
[-121.3012,56.3877],
[-121.0264,56.4563],
[-121.4292,56.7311],
[-121.5176,56.7311],
[-121.7038,56.6623]
]
],
[
[
[-117.3826,63.2634],
[-116.9188,62.9758],
[-116.6353,63.0477],
[-117.0992,63.3354],
[-117.1933,63.3354],
[-117.3826,63.2634]
]
],
[
[
[-117.0786,58.5977],
[-116.6669,58.3198],
[-116.3879,58.3892],
[-116.7996,58.6673],
[-116.8896,58.6673],
[-117.0786,58.5977]
]
],
[
[
[-115.5476,53.7999],
[-115.1883,53.5296],
[-114.9116,53.5971],
[-115.271,53.8676],
[-115.3573,53.8676],
[-115.5476,53.7999]
]
],
[
[
[-114.8968,52.4519],
[-114.5532,52.1833],
[-114.2764,52.2505],
[-114.6203,52.5191],
[-114.7057,52.5191],
[-114.8968,52.4519]
]
],
[
[
[-114.6823,62.6889],
[-114.5037,62.5457],
[-114.3261,62.4027],
[-113.948,62.4742],
[-114.3975,62.7606],
[-114.6823,62.6889]
]
],
[
[
[-111.5543,55.8398],
[-111.1838,55.5665],
[-110.9037,55.6348],
[-111.2742,55.9082],
[-111.362,55.9082],
[-111.5543,55.8398]
]
],
[
[
[-111.2228,52.7208],
[-110.8839,52.4519],
[-110.6052,52.5191],
[-110.9442,52.7881],
[-111.0299,52.7881],
[-111.2228,52.7208]
]
],
[
[
[-111.0672,59.0155],
[-110.6666,58.7369],
[-110.3834,58.8065],
[-110.784,59.0853],
[-110.8744,59.0853],
[-111.0672,59.0155]
]
],
[
[
[-110.2489,54.2061],
[-110.0294,54.0706],
[-109.9632,54.0029],
[-109.4652,53.9352],
[-109.9692,54.2739],
[-110.2489,54.2061]
]
],
[
[
[-110.2008,52.4519],
[-109.8669,52.1833],
[-109.5877,52.2505],
[-109.9218,52.5191],
[-110.0072,52.5191],
[-110.2008,52.4519]
]
],
[
[
[-108.5516,55.9082],
[-108.1874,55.6348],
[-107.9055,55.7031],
[-108.2697,55.9766],
[-108.3576,55.9766],
[-108.5516,55.9082]
]
],
[
[
[-107.1302,51.9822],
[-106.8074,51.7142],
[-106.5268,51.7811],
[-106.8497,52.0492],
[-106.9348,52.0492],
[-107.1302,51.9822]
]
],
[
[
[-102.4248,51.0457],
[-102.1209,50.7788],
[-101.838,50.8455],
[-102.1421,51.1124],
[-102.2266,51.1124],
[-102.4248,51.0457]
]
],
[
[
[-101.5404,53.1922],
[-101.2172,52.9227],
[-100.9333,52.99],
[-101.2565,53.2596],
[-101.3424,53.2596],
[-101.5404,53.1922]
]
],
[
[
[-100.3681,50.3791],
[-100.0749,50.113],
[-99.7911,50.1795],
[-100.0844,50.4457],
[-100.1685,50.4457],
[-100.3681,50.3791]
]
],
[
[
[-99.92,49.9136],
[-99.6324,49.6479],
[-99.3483,49.7143],
[-99.6361,49.98],
[-99.7199,49.98],
[-99.92,49.9136]
]
],
[
[
[-97.0761,48.7865],
[-96.8039,48.522],
[-96.6379,48.522],
[-96.6848,48.5881],
[-96.4357,48.5881],
[-96.5772,48.7865],
[-97.0761,48.7865]
]
],
[
[
[-96.42,50.7121],
[-96.3685,50.6455],
[-96.2843,50.6455],
[-96.3357,50.7121],
[-96.42,50.7121]
]
],
[
[
[-96.2843,50.6455],
[-95.9962,50.3791],
[-95.7104,50.4457],
[-95.9986,50.7121],
[-96.0829,50.7121],
[-96.2843,50.6455]
]
],
[
[
[-93.8793,48.8527],
[-93.6495,48.522],
[-93.5665,48.522],
[-93.2425,48.6542],
[-93.5928,48.9189],
[-93.7593,48.9189],
[-93.7129,48.8527],
[-93.8793,48.8527]
]
],
[
[
[-89.7089,48.5881],
[-89.4511,48.3238],
[-89.2853,48.3238],
[-89.25,48.522],
[-89.0839,48.522],
[-89.1276,48.5881],
[-88.5859,48.522],
[-88.6729,48.6542],
[-89.3426,48.7865],
[-89.4258,48.7865],
[-89.7089,48.5881]
]
],
[
[
[-77.3486,46.4145],
[-77.1245,46.1521],
[-76.8328,46.2177],
[-77.0567,46.4802],
[-77.1386,46.4802],
[-77.3486,46.4145]
]
],
[
[
[71.8617,21.6291],
[71.936,21.6291],
[71.9084,21.372],
[72.1985,21.3077],
[72.2054,21.372],
[72.2797,21.372],
[72.3214,21.7577],
[72.1798,21.822],
[72.1055,21.822],
[71.8755,21.7577],
[71.8617,21.6291]
]
],
[
[
[72.5629,21.2434],
[72.8994,20.922],
[72.8442,20.4077],
[72.9183,20.4077],
[72.9252,20.472],
[72.9994,20.472],
[72.9924,20.4077],
[73.289,20.4077],
[73.4119,20.8577],
[73.5743,20.9862],
[73.5282,21.2434],
[73.6307,21.5005],
[73.369,21.822],
[72.7603,21.6934],
[72.7533,21.6291],
[72.5629,21.2434]
]
],
[
[
[72.8402,18.9934],
[72.9142,18.9934],
[73.0899,19.2505],
[72.8679,19.2505],
[72.861,19.1862],
[72.8402,18.9934]
]
],
[
[
[74.3068,14.5575],
[74.6636,13.5932],
[74.7477,12.8217],
[75.0647,12.1789],
[75.3385,11.9217],
[75.5849,11.2788],
[75.7268,11.2146],
[75.9021,10.5717],
[75.9752,10.5717],
[75.9709,10.5074],
[76.2296,9.9931],
[76.2214,9.8645],
[76.3635,9.8002],
[76.3553,9.6717],
[76.2092,9.6717],
[76.2622,9.3502],
[76.3353,9.3502],
[76.3313,9.2859],
[76.5888,8.7073],
[77.0008,8.2573],
[77.0739,8.2573],
[77.0702,8.193],
[77.2819,8.0645],
[77.5739,8.0645],
[78.1803,8.4502],
[78.2842,8.9645],
[78.5883,9.1574],
[78.9577,9.2216],
[78.9865,9.6717],
[79.2959,9.9288],
[79.3176,10.2502],
[79.9026,10.2502],
[79.8796,10.9574],
[79.8843,11.0217],
[79.6648,11.0217],
[79.679,11.2146],
[79.8985,11.2146],
[79.9033,11.2788],
[79.8301,11.2788],
[79.8844,11.986],
[80.2137,12.436],
[80.4147,13.0789],
[80.3754,13.4646],
[80.161,13.5289],
[80.246,13.6575],
[80.2637,14.6218],
[80.0882,15.0718],
[80.376,15.7147],
[80.6106,15.8433],
[81.1188,15.779],
[81.3227,16.2933],
[82.0665,16.3576],
[82.3832,16.5504],
[82.4205,16.8719],
[82.3468,16.8719],
[82.4508,17.129],
[83.153,17.4505],
[83.5612,17.7719],
[83.6667,18.0291],
[84.0519,18.1576],
[84.3796,18.4148],
[84.7487,18.9934],
[85.4149,19.5719],
[85.374,19.8291],
[85.5221,19.8291],
[85.4972,19.6362],
[85.6453,19.6362],
[86.4194,19.8934],
[86.4362,20.022],
[86.8404,20.2791],
[86.7915,20.472],
[87.0309,20.6005],
[86.9589,21.1791],
[86.8847,21.1791],
[86.9846,21.372],
[87.762,21.6291],
[88.1033,21.9505],
[88.1777,21.9505],
[88.1335,21.6291],
[88.3477,21.5648],
[88.3653,21.6934],
[88.5139,21.6934],
[88.6416,22.0791],
[88.716,22.0791],
[88.728,21.6291],
[89.0995,21.6291],
[89.1173,21.7577],
[89.7118,21.7577],
[89.8695,21.822],
[89.8966,22.0148],
[90.232,21.7577],
[90.4263,22.0791],
[90.6494,22.0791],
[90.631,21.9505],
[90.8632,22.0148],
[90.9378,22.5291],
[91.2449,22.5934],
[91.4225,22.7863],
[91.497,22.7863],
[91.3748,22.4648],
[91.6725,22.4648],
[91.7929,22.272],
[91.7648,22.0791],
[91.8948,21.9505],
[91.8302,21.5005],
[92.1925,21.4363],
[92.378,21.6934],
[92.4719,22.3363],
[92.3614,22.5934],
[92.41,22.9148],
[92.3355,22.9148],
[92.4396,23.1077],
[92.3006,23.172],
[92.3851,23.2363],
[92.3611,23.5577],
[92.1579,23.6863],
[92.2951,24.072],
[92.2205,24.072],
[92.2525,24.2649],
[92.1139,24.3292],
[92.4493,24.9721],
[92.1846,25.165],
[90.3142,25.165],
[89.9628,25.2936],
[90.1192,25.7436],
[90.9433,25.7436],
[91.1801,25.8079],
[91.2917,26.0008],
[90.767,26.0008],
[90.6293,26.0651],
[90.7666,26.3865],
[89.9663,26.5151],
[89.8162,26.5151],
[89.1784,26.708],
[89.1033,26.708],
[89.1161,26.7723],
[88.2401,26.9009],
[88.165,26.9009],
[88.1649,26.5151],
[87.9903,26.3865],
[87.2399,26.3865],
[87.1141,26.5151],
[86.6516,26.4508],
[86.3126,26.6437],
[85.787,26.6437],
[85.7362,26.7723],
[85.2735,26.708],
[84.9972,26.8366],
[84.8836,27.0295],
[84.7333,27.0295],
[84.7579,27.158],
[84.4318,27.4152],
[83.291,27.3509],
[82.9395,27.4795],
[82.6758,27.6724],
[81.5588,27.7367],
[80.6417,28.0581],
[80.1269,28.5081],
[80.1526,28.6367],
[80.0276,28.7652],
[79.65,28.7652],
[79.022,29.0224],
[79.0482,29.1509],
[78.9234,29.2795],
[78.7721,29.2795],
[78.6571,29.0867],
[78.5927,28.3795],
[78.8329,28.0581],
[79.2486,27.8652],
[79.2365,27.8009],
[79.3871,27.8009],
[79.4899,27.5438],
[79.062,27.6724],
[78.8761,27.4795],
[78.9654,26.708],
[78.9544,26.6437],
[79.3079,26.5151],
[79.5647,26.258],
[79.9933,26.1294],
[80.0576,26.0651],
[79.9615,25.9365],
[80.2403,25.8079],
[80.4756,25.8722],
[80.6045,25.7436],
[81.1184,25.6793],
[81.5365,25.4864],
[81.6998,25.1007],
[81.8494,25.1007],
[82.1638,24.7149],
[82.3881,24.7149],
[82.4433,24.5864],
[82.9015,24.6506],
[82.8626,24.3935],
[83.2265,24.3292],
[83.2725,24.1363],
[83.9912,23.4291],
[84.0031,22.9791],
[84.2177,22.9148],
[84.3099,23.0434],
[84.4589,23.0434],
[84.3491,22.7863],
[84.2001,22.7863],
[84.0252,22.5934],
[84.0652,22.3363],
[84.5116,22.3363],
[85.1948,22.9791],
[85.4183,22.9791],
[85.7435,23.172],
[86.294,22.8506],
[86.5918,22.8506],
[86.5469,22.5291],
[86.6779,22.4005],
[86.0303,22.0148],
[85.9216,21.7577],
[86.136,21.6934],
[86.1762,21.4363],
[86.5475,21.4363],
[86.5962,21.2434],
[86.1338,21.1148],
[85.8526,20.6648],
[85.5392,20.5362],
[85.2754,20.2148],
[85.4154,20.1505],
[85.3165,19.9577],
[85.0942,19.9577],
[85.0531,20.2148],
[84.8307,20.2148],
[84.3534,19.9577],
[84.1637,20.2148],
[83.727,20.2791],
[83.1197,19.5719],
[82.6675,19.5077],
[82.4693,19.7005],
[82.4853,19.8291],
[82.3371,19.8291],
[82.2128,20.022],
[81.9164,20.022],
[81.9006,19.8934],
[82.0408,19.8291],
[82.0859,18.9934],
[81.9065,18.7362],
[81.7586,18.7362],
[81.4745,18.2219],
[81.3113,18.0933],
[81.0897,18.0933],
[81.0389,18.2862],
[80.7588,18.4148],
[80.4355,18.8005],
[80.1397,18.8005],
[79.9332,18.9291],
[79.9053,19.3148],
[80.0024,19.5077],
[79.8034,19.7005],
[79.4408,19.7648],
[79.1901,20.1505],
[78.812,20.0862],
[78.7228,19.9577],
[78.2858,20.022],
[78.1525,20.1505],
[77.7005,20.0862],
[77.7522,19.8934],
[78.0485,19.8934],
[78.0336,19.7648],
[77.5892,19.7648],
[77.6112,19.3148],
[77.9662,19.1862],
[77.9439,18.9934],
[77.7071,18.8648],
[77.6849,18.6719],
[77.7588,18.6719],
[77.7366,18.4791],
[78.2242,18.2219],
[78.2094,18.0933],
[77.3984,17.4505],
[77.2749,17.0005],
[77.1204,16.9362],
[76.8169,16.1647],
[76.6496,15.9718],
[76.5024,15.9718],
[76.1561,15.4575],
[76.1919,15.0718],
[76.0265,14.8789],
[75.9965,14.5575],
[76.0699,14.5575],
[76.0523,14.3646],
[76.1934,14.3004],
[75.792,13.9146],
[75.1773,13.5932],
[74.8377,13.9146],
[75.0298,14.4289],
[75.1825,14.4932],
[75.1446,14.8789],
[74.8809,15.2004],
[74.599,15.329],
[74.5194,15.2647],
[74.5506,14.8147],
[74.3126,14.6218],
[74.3068,14.5575]
],
[
[88.3239,22.4648],
[88.4166,22.5934],
[88.491,22.5934],
[88.4727,22.4648],
[88.3239,22.4648]
],
[
[88.3605,22.722],
[88.4535,22.8506],
[88.528,22.8506],
[88.5931,22.7863],
[88.3605,22.722]
]
],
[
[
[79.6069,7.8716],
[79.7419,7.6787],
[79.7594,6.6501],
[79.9521,6.1358],
[80.2311,5.8787],
[80.6686,5.8787],
[81.3375,6.1358],
[81.8779,6.7144],
[81.9167,7.4216],
[81.7744,7.4859],
[81.6544,7.9359],
[81.4468,8.1288],
[81.3971,8.5145],
[81.2511,8.5145],
[81.255,8.5788],
[80.8615,9.2859],
[80.7195,9.3502],
[80.7279,9.4788],
[80.4398,9.5431],
[80.5214,9.6717],
[80.4526,9.7359],
[79.8764,9.8645],
[79.8636,9.6717],
[80.0786,9.6074],
[79.993,9.4145],
[80.0495,9.1574],
[79.8063,8.7716],
[79.764,8.0645],
[79.618,8.0645],
[79.6069,7.8716]
],
[
[79.8807,7.5502],
[80.0136,8.5788],
[80.5248,8.5788],
[80.9018,8.7716],
[80.8743,8.3216],
[81.3008,8.1288],
[81.2052,7.743],
[81.3329,7.4216],
[81.5446,7.293],
[81.5305,7.0359],
[81.6034,7.0359],
[81.666,6.843],
[81.1418,6.5858],
[80.3462,6.7144],
[80.2903,7.0359],
[80.3808,7.3573],
[79.9465,7.4216],
[79.8807,7.5502]
]
],
[
[
[83.1473,22.1434],
[83.2793,22.0148],
[83.5024,22.0148],
[83.7507,22.2077],
[83.7591,22.272],
[83.7103,22.4648],
[83.487,22.4648],
[83.1725,22.3363],
[83.1473,22.1434]
]
],
[
[
[91.0304,22.1434],
[91.2628,22.2077],
[91.2166,22.4005],
[91.0677,22.4005],
[91.0584,22.3363],
[91.0304,22.1434]
]
]
]}
}
