{
"type": "Feature",
"properties": {"id":"cliopatria-albania-1944","edge_precision":"unknown","cliopatria_name":"Albania","cliopatria_from_year":1944,"cliopatria_to_year":1944,"cliopatria_area_km2":27579,"cliopatria_wikidata":"Q222","cliopatria_wikipedia":"Albania"},
"geometry": {"type": "MultiPolygon", "coordinates": [
[
[
[19.2487,40.6144],
[19.4863,40.6144],
[19.4714,40.2906],
[19.6295,40.2906],
[20.0094,39.967],
[19.9184,39.7083],
[20.155,39.7083],
[20.3158,39.7729],
[20.4074,40.0317],
[20.6509,40.1612],
[20.7434,40.4201],
[20.9878,40.5496],
[21.0777,40.744],
[20.5434,41.1328],
[20.4954,41.7167],
[20.5751,41.7167],
[20.5931,42.0413],
[20.5133,42.0413],
[20.5205,42.1712],
[20.4406,42.1712],
[20.4478,42.3012],
[20.2879,42.3012],
[20.062,42.5612],
[19.8985,42.4962],
[19.8184,42.4962],
[19.8219,42.5612],
[19.6651,42.6262],
[19.4983,42.4962],
[19.3223,42.1712],
[19.3191,42.1063],
[19.3989,42.1063],
[19.3862,41.8465],
[19.5424,41.7816],
[19.4376,41.2625],
[19.6728,41.1977],
[19.6665,41.068],
[19.4283,41.068],
[19.4985,40.8736],
[19.2545,40.744],
[19.2487,40.6144]
]
]
]}
}
