{
"type": "Feature",
"properties": {"id":"cliopatria-bolivia-1877","edge_precision":"unknown","cliopatria_name":"Bolivia","cliopatria_from_year":1877,"cliopatria_to_year":1879,"cliopatria_area_km2":1576633,"cliopatria_wikidata":"Q750","cliopatria_wikipedia":"Bolivia","cliopatria_seshat_id":"bo_bolivia_rep"},
"geometry": {"type": "MultiPolygon", "coordinates": [
[
[
[-74.0397,-7.686],
[-73.8278,-7.8146],
[-73.8422,-8.0717],
[-73.4958,-8.3932],
[-73.373,-8.7789],
[-73.0928,-8.9718],
[-73.1949,-9.4218],
[-72.5415,-9.4861],
[-72.2663,-9.7432],
[-72.1422,-10.0646],
[-71.5573,-10.0646],
[-71.256,-9.9361],
[-70.7876,-9.4861],
[-70.6414,-9.4861],
[-70.6715,-10.9647],
[-70.3154,-11.0932],
[-70.1593,-10.9647],
[-69.5739,-10.9647],
[-69.4617,-11.4147],
[-69.3203,-11.479],
[-69.3355,-11.6718],
[-69.1942,-11.7361],
[-68.8863,-12.4433],
[-68.7452,-12.5076],
[-68.8408,-12.7647],
[-68.9931,-12.829],
[-69.0951,-13.9219],
[-68.961,-14.0505],
[-68.9803,-14.2433],
[-69.401,-14.7576],
[-69.4287,-15.0148],
[-69.2958,-15.1434],
[-69.4198,-15.5934],
[-69.3462,-15.5934],
[-68.9493,-15.9791],
[-69.0456,-16.172],
[-68.7587,-16.2363],
[-68.8477,-16.3648],
[-68.995,-16.3648],
[-68.9369,-16.4934],
[-69.0183,-16.5577],
[-69.092,-16.5577],
[-69.6142,-17.2006],
[-69.647,-17.4577],
[-69.4185,-17.972],
[-69.2138,-18.1006],
[-69.2392,-18.2935],
[-68.9727,-19.0649],
[-68.7028,-19.2578],
[-68.5895,-19.5149],
[-69.0301,-20.0292],
[-69.1281,-20.7364],
[-69.3674,-21.3792],
[-70.0081,-21.7007],
[-70.2311,-21.7007],
[-70.3955,-22.7935],
[-70.5102,-23.0507],
[-70.7541,-23.1793],
[-70.8059,-23.5007],
[-70.5286,-23.6293],
[-70.6457,-23.8864],
[-70.6564,-23.9507],
[-67.4578,-24.015],
[-67.2879,-23.8864],
[-67.1677,-23.115],
[-67.0932,-23.115],
[-67.2587,-22.7292],
[-66.5791,-22.1507],
[-66.4304,-22.1507],
[-66.3106,-21.8292],
[-65.8354,-22.1507],
[-64.8686,-22.1507],
[-64.6072,-22.4078],
[-64.5133,-22.7935],
[-64.3552,-22.7292],
[-64.2172,-22.2792],
[-64.0417,-22.0864],
[-62.9919,-22.0221],
[-62.935,-22.1507],
[-62.7206,-22.215],
[-62.7382,-22.3435],
[-62.2051,-22.7935],
[-62.2231,-22.9221],
[-61.8962,-23.2435],
[-61.542,-23.3721],
[-61.1599,-23.8221],
[-59.9385,-24.1436],
[-59.4734,-24.5293],
[-59.1842,-24.5936],
[-59.1291,-24.7222],
[-58.0568,-25.0437],
[-57.8724,-25.3008],
[-57.7227,-25.3008],
[-57.2604,-24.7222],
[-57.2225,-24.465],
[-57.344,-24.2722],
[-57.337,-23.6936],
[-57.4116,-23.6936],
[-57.4994,-23.2435],
[-57.7057,-23.115],
[-57.8205,-22.8578],
[-57.9695,-22.8578],
[-57.7702,-22.4721],
[-57.9769,-22.3435],
[-57.9522,-22.1507],
[-57.8908,-21.0578],
[-58.1918,-20.4792],
[-58.1457,-20.0935],
[-57.9899,-20.0292],
[-57.9746,-19.9006],
[-58.1816,-19.7721],
[-58.1436,-19.4506],
[-57.8026,-19.0649],
[-57.6257,-18.1649],
[-57.797,-17.7149],
[-58.4852,-17.2649],
[-58.4642,-17.072],
[-58.5908,-16.8791],
[-58.4627,-16.3648],
[-59.9357,-16.3648],
[-60.2167,-16.2363],
[-60.2908,-15.5291],
[-60.5656,-15.3362],
[-60.5466,-15.1434],
[-60.3073,-14.9505],
[-60.5412,-14.3076],
[-60.5745,-13.8576],
[-61.1339,-13.5362],
[-61.7997,-13.6005],
[-62.0821,-13.4719],
[-62.0711,-13.3433],
[-62.2749,-13.1504],
[-62.8509,-13.0219],
[-63.191,-12.7004],
[-63.5575,-12.7004],
[-63.6885,-12.5076],
[-64.1334,-12.5719],
[-64.4895,-12.4433],
[-64.8252,-12.0576],
[-65.1132,-11.9933],
[-65.1033,-11.8647],
[-65.2449,-11.8004],
[-65.4356,-11.4147],
[-65.4032,-10.9647],
[-65.5316,-10.7075],
[-65.5099,-10.3861],
[-65.351,-10.1932],
[-65.3995,-9.8075],
[-65.6879,-9.7432],
[-66.5732,-9.8718],
[-66.6463,-9.8718],
[-66.6422,-9.8075],
[-69.2754,-8.6503],
[-69.341,-8.5217],
[-69.6295,-8.4575],
[-70.1921,-8.0717],
[-71.4956,-7.8789],
[-71.5686,-7.8789],
[-72.8685,-7.6217],
[-73.5781,-7.236],
[-73.797,-7.236],
[-73.8037,-7.3646],
[-74.0293,-7.4931],
[-74.0397,-7.686]
]
]
]}
}
