{
"type": "Feature",
"properties": {"id":"cliopatria-house-of-jagiellon-1450","edge_precision":"unknown","cliopatria_name":"House of Jagiellon","cliopatria_from_year":1450,"cliopatria_to_year":1452,"cliopatria_area_km2":1030905,"cliopatria_wikidata":"Q194355","cliopatria_wikipedia":"Jagiellonian dynasty","cliopatria_seshat_id":"pl_jagiellonian_dyn"},
"geometry": {"type": "MultiPolygon", "coordinates": [
[
[
[15.4893,52.6535],
[15.6462,52.3176],
[15.7315,52.3176],
[15.7287,52.2505],
[15.814,52.2505],
[15.8083,52.1163],
[15.8934,52.1163],
[15.9699,51.9151],
[16.137,51.8481],
[16.1311,51.7142],
[16.5556,51.7142],
[16.8038,51.5803],
[16.9801,51.7142],
[17.3197,51.7142],
[17.5493,51.246],
[17.9723,51.246],
[18.0493,51.1124],
[18.7093,50.8455],
[18.7013,50.7121],
[19.0302,50.5789],
[19.022,50.4457],
[19.1861,50.3791],
[19.1739,50.1795],
[19.0899,50.1795],
[19.0819,50.0465],
[19.1658,50.0465],
[19.2376,49.8471],
[18.8835,49.5152],
[19.1304,49.4489],
[19.4725,49.5816],
[19.8655,49.1838],
[20.2119,49.3826],
[20.5459,49.3826],
[20.4536,49.25],
[20.7038,49.25],
[20.7129,49.3826],
[21.7983,49.3826],
[22.5231,49.0513],
[22.7784,49.1175],
[22.9287,48.9189],
[23.6663,48.7865],
[24.053,48.4559],
[24.379,48.3899],
[24.3672,48.2578],
[24.6867,48.1257],
[24.5862,47.9278],
[24.905,47.7959],
[24.9876,47.7959],
[25.0118,48.0597],
[25.5401,48.3899],
[25.5594,48.5881],
[25.2463,48.7865],
[25.3424,48.9189],
[25.5088,48.9189],
[25.9813,48.6542],
[27.3937,48.6542],
[27.5379,48.4559],
[28.42,48.1917],
[28.5704,48.0597],
[28.5553,47.9278],
[29.0282,47.73],
[28.9151,47.4665],
[29.1395,47.269],
[29.5079,47.5982],
[29.5316,47.7959],
[29.6968,47.7959],
[29.82,48.1257],
[30.1511,48.1257],
[30.3828,47.9938],
[31.2187,48.0597],
[31.5676,48.1917],
[31.8525,48.4559],
[32.2862,48.5881],
[32.4809,48.7865],
[33.0094,48.9851],
[33.3425,48.9851],
[33.3627,49.1175],
[34.0609,49.3163],
[34.3947,49.3163],
[35.3299,48.9189],
[35.5796,48.9189],
[35.6018,49.0513],
[35.9463,49.1175],
[36.079,48.9189],
[36.3287,48.9189],
[36.3061,48.7865],
[36.8537,48.5881],
[37.8389,48.9851],
[37.8631,49.1175],
[37.7085,49.1838],
[37.6739,49.4489],
[37.5904,49.4489],
[37.6273,49.6479],
[37.5437,49.6479],
[37.7537,50.3125],
[37.8377,50.3125],
[37.8987,51.0457],
[38.0949,51.1792],
[38.1499,51.4465],
[37.9371,51.6472],
[37.9649,51.7811],
[37.4828,51.9151],
[37.4254,52.0492],
[37.0135,52.1163],
[36.7411,52.4519],
[36.4268,52.5863],
[36.3244,52.9227],
[35.7653,53.1248],
[36.1049,53.9352],
[36.0185,53.9352],
[36.0613,54.1384],
[35.8882,54.1384],
[35.9312,54.3417],
[35.714,54.5453],
[36.0328,54.8171],
[36.0194,55.1573],
[35.9322,55.1573],
[35.9618,55.2936],
[35.7871,55.2936],
[35.6862,55.6348],
[35.5257,55.7031],
[35.4996,56.3877],
[35.0001,56.525],
[34.9566,56.7311],
[34.7945,56.7998],
[33.7011,57.0751],
[33.3572,57.558],
[33.1327,57.7654],
[32.8649,57.7654],
[32.6304,57.4889],
[32.4524,57.4889],
[32.131,57.2129],
[31.6605,57.0751],
[31.1282,57.0751],
[30.8379,56.4563],
[30.3725,56.3191],
[30.1081,56.3191],
[29.9555,56.4563],
[29.9792,56.5937],
[29.5844,56.8686],
[28.3778,57.0751],
[28.267,56.9374],
[27.9018,56.8686],
[27.8803,56.7311],
[28.1906,56.4563],
[28.1477,56.1821],
[27.9716,56.1821],
[27.47,55.7715],
[26.8658,55.8398],
[26.4955,55.7031],
[25.8309,55.9766],
[25.7615,56.1136],
[25.0665,56.1821],
[24.8286,56.3877],
[24.1065,56.2506],
[23.4176,56.3877],
[21.742,56.3877],
[21.3825,56.3191],
[21.1865,56.1136],
[20.9162,56.0451],
[20.9098,55.9766],
[20.9977,55.9766],
[20.9913,55.9082],
[21.2482,55.8398],
[21.2352,55.7031],
[21.6401,55.3618],
[22.4127,55.2255],
[22.3986,55.0892],
[22.573,55.0892],
[22.813,54.8851],
[22.7045,54.6811],
[22.6623,54.2739],
[22.4822,54.2061],
[22.4618,54.0029],
[22.5482,54.0029],
[22.4214,53.5971],
[21.2894,53.4621],
[20.9277,53.2596],
[20.67,53.2596],
[20.3958,53.0574],
[19.7248,53.2596],
[19.3615,52.99],
[18.9282,52.9227],
[18.6892,53.1922],
[18.5174,53.1922],
[18.4493,53.4621],
[17.5066,53.5296],
[17.3266,53.3946],
[17.0798,53.5971],
[16.8213,53.5971],
[16.6596,53.7999],
[16.4007,53.7999],
[16.4767,53.5971],
[16.301,53.5296],
[16.2944,53.3946],
[16.1192,53.3271],
[16.1097,53.1248],
[16.0238,53.1248],
[16.0971,52.8554],
[15.5748,52.6535],
[15.4893,52.6535]
]
],
[
[
[20.2781,49.1175],
[20.3615,49.1175],
[20.3658,49.1838],
[20.4492,49.1838],
[20.4536,49.25],
[20.2867,49.25],
[20.2781,49.1175]
]
]
]}
}
