{
"type": "Feature",
"properties": {"id":"cliopatria-great-moravia-0900","edge_precision":"unknown","cliopatria_name":"Great Moravia","cliopatria_from_year":900,"cliopatria_to_year":910,"cliopatria_area_km2":20901,"cliopatria_wikidata":"Q193152","cliopatria_wikipedia":"Great Moravia","cliopatria_seshat_id":"cz_moravia_k"},
"geometry": {"type": "MultiPolygon", "coordinates": [
[
[
[15.3569,48.9851],
[16.1799,48.7204],
[16.7644,48.7865],
[16.9253,48.6542],
[16.829,48.3238],
[16.9921,48.2578],
[17.0832,48.4559],
[17.2519,48.522],
[17.2605,48.7204],
[17.9381,48.9851],
[18.1146,49.1838],
[18.1179,49.25],
[18.2013,49.25],
[18.2047,49.3163],
[18.2882,49.3163],
[18.2916,49.3826],
[18.3786,49.4489],
[17.9643,49.5152],
[17.807,49.7143],
[17.4723,49.7143],
[17.2273,49.8471],
[16.9731,49.7807],
[16.1462,50.0465],
[16.0623,50.0465],
[16.0572,49.9136],
[15.8872,49.8471],
[15.8727,49.4489],
[15.5277,49.1175],
[15.361,49.1175],
[15.3569,48.9851]
]
]
]}
}
