{
"type": "Feature",
"properties": {"id":"cliopatria-lavo-kingdom-0806","edge_precision":"unknown","cliopatria_name":"Lavo Kingdom","cliopatria_from_year":806,"cliopatria_to_year":1002,"cliopatria_area_km2":126430,"cliopatria_wikidata":"Q1332305","cliopatria_wikipedia":"Lavo Kingdom","cliopatria_seshat_id":"th_lavo_k_1"},
"geometry": {"type": "MultiPolygon", "coordinates": [
[
[
[98.1648,15.0075],
[98.4188,14.6861],
[98.4031,14.5575],
[99.0611,13.9146],
[99.1784,13.6575],
[99.1945,13.1432],
[99.5999,12.8217],
[99.8931,12.8217],
[100.0261,12.6932],
[100.1199,12.886],
[100.1031,13.4003],
[100.6313,13.5289],
[100.9908,13.4646],
[100.8255,12.6289],
[101.5516,12.5646],
[101.712,12.6932],
[101.7852,12.6932],
[101.8132,12.9503],
[101.6808,13.0789],
[101.7244,13.4646],
[101.9629,14.2361],
[101.6115,14.3646],
[101.6114,14.9432],
[101.4811,15.0718],
[101.5325,15.4575],
[101.6971,15.5861],
[102.2108,16.6147],
[102.2202,16.679],
[102.3223,16.8719],
[102.0015,17.1933],
[101.6136,17.0647],
[101.4019,17.129],
[101.3282,17.129],
[100.8387,16.8076],
[100.8016,16.5504],
[100.5531,16.3576],
[100.4344,16.0361],
[100.2136,16.0361],
[100.0842,16.1647],
[99.9102,15.9718],
[99.0918,15.9076],
[98.8325,16.1647],
[98.7588,16.1647],
[98.594,16.0361],
[98.5903,15.4575],
[98.1976,15.2647],
[98.1648,15.0075]
]
]
]}
}
