{
"type": "Feature",
"properties": {"id":"cliopatria-khanate-of-bukhara-1600","edge_precision":"unknown","cliopatria_name":"Khanate of Bukhara","cliopatria_from_year":1600,"cliopatria_to_year":1608,"cliopatria_area_km2":337211,"cliopatria_wikidata":"Q577668","cliopatria_wikipedia":"Khanate of Bukhara","cliopatria_seshat_id":"uz_janid_dyn"},
"geometry": {"type": "MultiPolygon", "coordinates": [
[
[
[62.2969,40.744],
[62.4027,40.5496],
[62.3161,40.2259],
[62.6876,39.8376],
[62.6538,39.7083],
[63.0883,39.2557],
[63.2457,39.2557],
[63.4155,38.9972],
[63.8374,38.8034],
[64.0075,38.5451],
[64.3669,38.416],
[64.6615,38.0288],
[65.2388,37.8352],
[65.6274,37.5128],
[65.9396,37.5128],
[65.9077,37.3838],
[66.1719,37.1904],
[66.2178,36.7393],
[66.3578,36.6749],
[66.3279,36.224],
[66.964,36.2884],
[67.3832,36.0952],
[68.4228,36.224],
[68.624,36.0952],
[68.878,36.8037],
[68.6773,36.9326],
[68.7101,37.0615],
[68.4765,37.0615],
[68.5094,37.1904],
[69.0103,37.3193],
[69.1161,37.126],
[69.3498,37.126],
[69.546,37.5773],
[70.0752,37.5128],
[70.2658,37.6417],
[70.1619,37.8352],
[70.2147,38.0288],
[70.7137,38.416],
[71.1838,38.416],
[71.364,38.2224],
[71.2738,37.8998],
[71.5685,37.8352],
[71.4184,36.9971],
[71.5834,36.7393],
[71.8945,36.7393],
[72.6816,37.0615],
[72.9863,37.3193],
[73.6645,37.5128],
[73.697,37.8998],
[73.6188,37.8998],
[73.7125,38.2224],
[73.6342,38.2224],
[73.7487,38.6097],
[73.6703,38.6097],
[73.7874,38.7389],
[73.787,38.9972],
[73.6104,39.1911],
[73.7104,39.5143],
[73.8882,39.5789],
[73.9533,40.0317],
[73.8162,40.0964],
[73.8485,40.6792],
[73.733,40.8088],
[73.8199,41.068],
[73.6829,41.1328],
[73.2208,40.9384],
[73.0773,40.744],
[72.4595,40.5496],
[71.584,40.0317],
[71.0705,39.9023],
[70.5788,39.5789],
[69.3968,39.5789],
[68.1658,39.1265],
[67.6762,39.0618],
[67.4153,39.2557],
[66.9432,39.2557],
[66.9789,39.385],
[66.7965,39.5789],
[67.2174,40.2259],
[67.5307,40.4849],
[67.5286,40.744],
[66.9717,41.0032],
[66.7336,41.0032],
[66.693,41.1328],
[66.4547,41.1328],
[63.7341,42.4312],
[63.2239,41.7816],
[62.3783,41.3274],
[62.3679,41.0032],
[62.4472,41.0032],
[62.2969,40.744]
]
]
]}
}
