{
"type": "Feature",
"properties": {"id":"cliopatria-electorate-of-brandenburg-1422","edge_precision":"unknown","cliopatria_name":"Electorate of Brandenburg","cliopatria_from_year":1422,"cliopatria_to_year":1430,"cliopatria_area_km2":40944,"cliopatria_wikidata":"Q148499","cliopatria_wikipedia":"Margraviate of Brandenburg","cliopatria_seshat_id":"de_hohenzollern_1","cliopatria_member_of":"(Holy Roman Empire)"},
"geometry": {"type": "MultiPolygon", "coordinates": [
[
[
[10.1087,49.5816],
[10.1095,49.3826],
[10.2765,49.3826],
[10.3602,49.25],
[10.3604,49.1838],
[10.4438,49.1838],
[10.8607,49.25],
[11.028,49.4489],
[11.1951,49.4489],
[11.1958,49.6479],
[10.8613,49.6479],
[10.7778,49.8471],
[10.2754,49.7807],
[10.3593,49.7143],
[10.3594,49.6479],
[10.1087,49.5816]
]
],
[
[
[11.0438,52.8554],
[11.127,52.5191],
[11.8967,52.5863],
[12.3274,52.7881],
[12.3252,52.6535],
[12.5781,52.4519],
[12.4051,52.3176],
[12.4029,52.1833],
[13.4221,52.0492],
[13.4254,52.1833],
[13.9404,52.3176],
[14.3605,52.1163],
[14.616,52.1163],
[14.7794,51.9151],
[14.8691,52.0492],
[15.0394,52.0492],
[15.132,52.2505],
[15.4703,52.1833],
[15.6462,52.3176],
[15.4893,52.6535],
[15.2568,53.2596],
[14.4766,53.0574],
[14.2257,53.2596],
[14.316,53.3946],
[13.896,53.7323],
[13.5492,53.6647],
[13.1962,53.3271],
[12.1656,53.3946],
[11.9104,53.5971],
[11.7381,53.5971],
[11.5635,53.3946],
[11.3061,53.4621],
[11.1329,53.3271],
[11.2178,53.1922],
[11.3895,53.1922],
[11.3882,53.0574],
[11.2167,53.0574],
[11.0438,52.8554]
]
],
[
[
[11.2801,49.7807],
[11.6997,49.9136],
[11.8697,50.1795],
[12.1216,50.1795],
[12.1223,50.246],
[11.8723,50.4457],
[11.7035,50.3791],
[11.7029,50.3125],
[11.6189,50.3125],
[11.7013,50.113],
[11.3656,50.113],
[11.2801,49.7807]
]
]
]}
}
