{
"type": "Feature",
"properties": {"id":"cliopatria-khanates-of-the-caucasus-1748","edge_precision":"unknown","cliopatria_name":"Khanates of the Caucasus","cliopatria_from_year":1748,"cliopatria_to_year":1762,"cliopatria_area_km2":88036,"cliopatria_wikidata":"Q406684","cliopatria_wikipedia":"Khanates of the Caucasus","cliopatria_seshat_id":"az_caucasus_khanates"},
"geometry": {"type": "MultiPolygon", "coordinates": [
[
[
[43.6482,40.1612],
[43.8633,40.0317],
[44.4162,40.0317],
[44.7554,39.7083],
[45.0726,39.2557],
[45.872,38.868],
[46.6684,38.9326],
[47.2199,39.385],
[47.2986,39.385],
[47.4913,39.5789],
[47.8973,39.6436],
[48.0913,39.8376],
[48.7225,39.8376],
[48.7766,39.7083],
[49.0008,39.6436],
[49.0305,39.385],
[49.1757,39.3203],
[49.1879,39.385],
[49.2666,39.385],
[49.5092,40.2259],
[49.6933,40.3554],
[50.2604,40.4201],
[50.0495,40.5496],
[49.5084,40.6144],
[49.2442,40.8736],
[49.2707,41.0032],
[49.0592,41.1328],
[49.086,41.2625],
[48.2787,41.9764],
[48.1192,41.9764],
[48.0923,41.8465],
[48.172,41.8465],
[47.9863,41.3274],
[47.4963,41.2625],
[47.2964,41.4571],
[47.2168,41.4571],
[47.1116,41.3274],
[46.7809,41.2625],
[46.4802,40.9384],
[45.992,40.8736],
[45.6032,40.4849],
[45.2866,40.4849],
[45.1516,40.6144],
[44.7555,40.6144],
[44.6202,40.744],
[44.2917,40.6792],
[44.2354,40.8088],
[43.9975,40.8088],
[43.8732,41.0032],
[43.7144,41.0032],
[43.6482,40.1612]
]
]
]}
}
