{
"type": "Feature",
"properties": {"id":"cliopatria-indo-scythians-88bce","edge_precision":"unknown","cliopatria_name":"Indo-Scythians","cliopatria_from_year":-87,"cliopatria_to_year":-78,"cliopatria_area_km2":354684,"cliopatria_wikidata":"Q240123","cliopatria_wikipedia":"Indo-Scythians"},
"geometry": {"type": "MultiPolygon", "coordinates": [
[
[
[60.9358,29.858],
[62.3037,29.4081],
[64.1197,29.4081],
[64.5298,29.6009],
[65.1247,29.5366],
[65.7631,29.7294],
[66.8122,29.6652],
[66.6832,29.7937],
[66.7057,29.9223],
[66.5655,29.9865],
[66.582,30.5007],
[66.506,30.5007],
[66.6133,31.0791],
[66.8783,31.2719],
[67.9312,31.5933],
[68.1223,31.7861],
[68.3511,31.7861],
[69.6088,32.6859],
[70.4645,32.7502],
[70.9717,32.6216],
[71.0199,32.4931],
[71.8324,32.3645],
[73.0223,32.5574],
[73.6469,32.943],
[74.0023,34.1004],
[73.9253,34.1004],
[73.9572,34.229],
[74.0342,34.229],
[74.0502,34.2933],
[73.8962,34.2933],
[73.9284,34.422],
[72.8501,34.422],
[72.5876,34.2933],
[71.5561,34.1647],
[71.4792,34.1647],
[70.9558,34.229],
[70.7716,34.1004],
[70.8184,33.9718],
[70.5728,33.9075],
[69.9876,34.0361],
[69.7394,34.2933],
[66.8143,34.2933],
[66.6887,34.422],
[66.038,34.615],
[66.0665,34.7436],
[65.9265,34.8079],
[65.6179,34.8079],
[65.4149,34.9366],
[65.092,34.8723],
[64.5735,34.615],
[64.3239,34.1647],
[63.8726,33.8432],
[63.4264,32.3645],
[63.185,32.3002],
[63.1608,32.1717],
[62.8195,31.9789],
[62.4212,31.4647],
[61.9415,31.3362],
[61.8746,30.9506],
[60.9358,29.858]
]
]
]}
}
