{
"type": "Feature",
"properties": {"id":"cliopatria-four-oirats-1440","edge_precision":"unknown","cliopatria_name":"Four Oirats","cliopatria_from_year":1440,"cliopatria_to_year":1449,"cliopatria_area_km2":3419754,"cliopatria_wikidata":"Q4332415","cliopatria_wikipedia":"Oirat Confederation"},
"geometry": {"type": "MultiPolygon", "coordinates": [
[
[
[79.0024,46.4145],
[79.4661,46.3489],
[79.4383,46.2833],
[79.8737,46.1521],
[79.9,46.0209],
[80.199,45.9554],
[80.2252,45.8243],
[80.7945,45.6278],
[80.8204,45.4968],
[81.172,45.3659],
[81.3587,45.0388],
[81.5211,45.0388],
[81.6004,44.8426],
[81.8972,44.7773],
[82.2724,44.516],
[83.188,44.3854],
[83.16,44.3201],
[83.7261,44.3201],
[83.698,44.2548],
[84.0213,44.2548],
[83.9931,44.1896],
[85.281,43.9938],
[85.2525,43.9286],
[86.6986,43.733],
[86.6698,43.6678],
[87.0726,43.6678],
[87.0436,43.6027],
[87.4978,43.5375],
[87.4688,43.4723],
[89.1506,43.2769],
[89.1211,43.2118],
[90.3175,43.0165],
[90.2879,42.9515],
[90.5792,42.8864],
[90.36,42.0413],
[90.4623,41.9114],
[90.3769,41.7167],
[90.4566,41.7167],
[90.4947,41.068],
[90.6502,40.8736],
[91.4775,42.0413],
[91.9233,42.4962],
[92.3333,42.6912],
[94.5029,42.3662],
[96.242,42.8213],
[96.4825,42.8213],
[96.5794,42.6912],
[97.7331,42.7563],
[97.701,42.6912],
[98.1817,42.6912],
[98.1495,42.6262],
[98.9504,42.6262],
[98.918,42.5612],
[100.7924,42.6262],
[100.7593,42.5612],
[101.5599,42.5612],
[101.5266,42.4962],
[103.7673,42.4962],
[107.591,42.7563],
[110.5131,42.8213],
[111.4697,42.9515],
[112.5347,43.5375],
[114.3003,43.9286],
[115.3073,44.3854],
[116.4408,44.516],
[118.7309,45.4313],
[121.9191,45.6933],
[123.6206,46.1521],
[124.193,46.1521],
[124.2386,46.2177],
[124.8072,46.6772],
[125.1834,47.2032],
[125.1011,47.2032],
[125.4851,47.73],
[125.4025,47.73],
[125.5486,47.9278],
[125.4659,47.9278],
[125.7964,48.5881],
[125.7133,48.5881],
[125.9864,49.0513],
[125.9031,49.0513],
[126.048,49.4489],
[125.9645,49.4489],
[126.1149,49.8471],
[126.0009,49.9136],
[126.1331,50.1795],
[126.0197,50.246],
[126.1291,50.3791],
[125.9869,50.5122],
[126.0978,50.6455],
[125.9565,50.7788],
[126.0687,50.9122],
[125.9004,51.1124],
[125.9022,51.3128],
[125.8176,51.3128],
[125.7667,51.6472],
[125.597,51.6472],
[125.6018,51.8481],
[125.2086,51.9822],
[125.2673,52.0492],
[125.0119,52.0492],
[125.0707,52.1163],
[124.8152,52.1163],
[124.874,52.1833],
[124.3628,52.1833],
[124.4215,52.2505],
[123.5743,52.4519],
[123.6333,52.5191],
[123.4625,52.5191],
[123.5215,52.5863],
[123.0677,52.6535],
[123.1269,52.7208],
[122.9558,52.7208],
[123.0151,52.7881],
[122.7583,52.7881],
[122.8176,52.8554],
[122.475,52.8554],
[122.5343,52.9227],
[122.0794,52.99],
[122.1389,53.0574],
[121.5977,53.1248],
[121.631,53.2596],
[121.4591,53.2596],
[121.5787,53.3946],
[121.089,53.3271],
[121.1487,53.3946],
[120.8643,53.4621],
[120.9241,53.5296],
[120.3548,53.6647],
[120.4148,53.7323],
[119.9048,53.9352],
[119.9652,54.0029],
[119.195,54.2061],
[119.2555,54.2739],
[119.0823,54.2739],
[119.1429,54.3417],
[118.8829,54.3417],
[118.9435,54.4095],
[117.3625,54.6811],
[117.4837,54.8171],
[117.0752,54.7491],
[117.1356,54.8171],
[116.4127,54.8851],
[116.473,54.9531],
[114.9371,55.0892],
[114.9971,55.1573],
[114.4735,55.1573],
[114.5332,55.2255],
[113.9816,55.2936],
[114.0414,55.3618],
[113.6043,55.3618],
[113.664,55.43],
[110.6613,55.9082],
[110.7203,55.9766],
[109.988,55.8398],
[109.761,55.1573],
[109.8483,55.1573],
[109.6778,54.9531],
[109.7649,54.9531],
[109.6519,54.8171],
[109.7389,54.8171],
[109.5147,54.5453],
[109.6015,54.5453],
[109.5458,54.4774],
[109.6637,54.4095],
[109.5529,54.2739],
[109.6395,54.2739],
[108.8282,53.2596],
[108.4319,53.1922],
[107.8972,52.7208],
[107.3329,52.6535],
[106.8248,52.3176],
[106.3983,52.3176],
[106.006,51.7811],
[105.7399,51.6472],
[104.8341,51.4465],
[104.0715,51.4465],
[104.1183,51.5134],
[103.5716,51.5803],
[103.8448,51.8481],
[103.2693,52.1163],
[103.3992,52.6535],
[103.2402,52.7881],
[103.3154,53.1248],
[103.1212,53.3271],
[103.2214,53.4621],
[103.0637,53.5971],
[103.1142,53.6647],
[102.9418,53.6647],
[102.9567,53.7999],
[102.7841,53.7999],
[102.7993,53.9352],
[102.6265,53.9352],
[102.6419,54.0706],
[102.3469,54.1384],
[102.398,54.2061],
[102.1382,54.2061],
[102.1893,54.2739],
[102.016,54.2739],
[102.0672,54.3417],
[101.8071,54.3417],
[101.8583,54.4095],
[101.6848,54.4095],
[101.736,54.4774],
[100.8474,54.6811],
[100.8986,54.7491],
[100.6376,54.7491],
[100.6888,54.8171],
[99.4485,55.0211],
[99.4995,55.0892],
[98.5401,55.0892],
[96.5608,54.8851],
[96.463,54.7491],
[96.1536,54.6811],
[94.9282,54.5453],
[91.5187,53.5971],
[91.4307,53.4621],
[90.2704,52.8554],
[88.5655,51.4465],
[88.3961,51.4465],
[88.3646,51.246],
[87.9582,50.9789],
[86.7964,49.7807],
[86.6289,49.7807],
[86.5732,49.5152],
[86.1854,49.25],
[85.67,48.3899],
[85.6375,48.3238],
[85.4323,47.73],
[85.2868,47.5982],
[83.9783,47.269],
[83.3639,47.0058],
[80.8896,46.6115],
[80.7507,46.4802],
[80.0441,46.7429],
[80.0725,46.8086],
[79.6057,46.6772],
[79.3055,46.7429],
[79.2496,46.6115],
[79.0856,46.6115],
[79.0024,46.4145]
]
],
[
[
[108.5244,53.5296],
[108.8688,53.5296],
[109.1059,53.9352],
[108.9331,53.9352],
[108.5986,53.7323],
[108.5244,53.5296]
]
]
]}
}
