{
"type": "Feature",
"properties": {"id":"cliopatria-magna-frisia-0768","edge_precision":"unknown","cliopatria_name":"Magna Frisia","cliopatria_from_year":768,"cliopatria_to_year":771,"cliopatria_area_km2":8793,"cliopatria_wikidata":"Q87791","cliopatria_wikipedia":"Frisian Kingdom"},
"geometry": {"type": "MultiPolygon", "coordinates": [
[
[
[6.1553,53.0574],
[6.6681,53.1248],
[6.8451,52.9227],
[7.1022,52.9227],
[7.1006,52.99],
[7.1863,52.99],
[7.1847,53.0574],
[7.3563,53.0574],
[8.2969,53.2596],
[8.4669,53.3946],
[8.377,53.6647],
[8.2908,53.6647],
[8.1195,53.5971],
[7.9448,53.7323],
[7.0823,53.7323],
[6.9133,53.5971],
[6.9168,53.4621],
[6.2262,53.5296],
[6.2283,53.4621],
[6.1553,53.0574]
]
]
]}
}
