{
"type": "Feature",
"properties": {"id":"cliopatria-western-chalukya-empire-1034","edge_precision":"unknown","cliopatria_name":"Western Chalukya Empire","cliopatria_from_year":1034,"cliopatria_to_year":1039,"cliopatria_area_km2":738007,"cliopatria_wikidata":"Q14624218","cliopatria_wikipedia":"Western Chalukya Empire","cliopatria_seshat_id":"in_kalyani_chalukya_emp"},
"geometry": {"type": "MultiPolygon", "coordinates": [
[
[
[72.6339,19.8291],
[72.7614,19.6362],
[72.7337,19.3791],
[72.8748,19.3148],
[72.9589,18.0291],
[73.3004,17.0647],
[73.2542,16.6147],
[73.5391,15.779],
[73.7474,15.6504],
[73.7901,15.329],
[73.9311,15.2647],
[73.9745,14.9432],
[74.3745,14.4932],
[74.4707,13.9146],
[74.6636,13.5932],
[74.7477,12.8217],
[74.821,12.8217],
[74.8159,12.7575],
[75.0409,12.8217],
[75.2507,12.6932],
[76.1985,12.6289],
[77.4814,13.0789],
[77.9599,13.5289],
[78.1148,14.4289],
[78.4709,15.0718],
[78.6979,15.1361],
[79.1116,15.5861],
[80.3512,16.1647],
[81.2276,16.1004],
[81.2347,16.1647],
[81.4773,16.3576],
[82.2211,16.4219],
[82.3832,16.5504],
[82.4205,16.8719],
[82.3468,16.8719],
[82.3543,16.9362],
[80.7473,17.0647],
[80.3346,17.3219],
[80.4383,17.579],
[81.0591,17.8362],
[81.0667,17.9005],
[81.2297,18.0291],
[81.0235,18.1576],
[81.0389,18.2862],
[80.3616,18.8005],
[80.4896,19.2505],
[80.6454,19.3148],
[80.8361,20.2791],
[81.0233,20.6005],
[80.914,20.922],
[81.1602,21.1148],
[81.1493,21.6291],
[81.2718,22.0148],
[80.478,22.2077],
[80.2873,22.4648],
[79.9315,22.5934],
[79.9478,22.722],
[79.7492,22.9148],
[79.3768,22.9148],
[78.0122,22.722],
[77.2364,22.4648],
[75.9637,22.4005],
[74.1057,22.0791],
[73.9487,21.7351],
[73.9537,21.2025],
[73.4063,20.449],
[72.8467,20.4317],
[72.7631,20.3434],
[72.6339,19.8291]
]
]
]}
}
