{
"type": "Feature",
"properties": {"id":"cliopatria-principality-of-minsk-1305","edge_precision":"unknown","cliopatria_name":"Principality of Minsk","cliopatria_from_year":1305,"cliopatria_to_year":1313,"cliopatria_area_km2":98908,"cliopatria_wikidata":"Q2662372","cliopatria_wikipedia":"Principality of Minsk"},
"geometry": {"type": "MultiPolygon", "coordinates": [
[
[
[25.6599,54.6811],
[25.6772,54.1384],
[25.997,53.9352],
[25.971,53.7323],
[26.0573,53.7323],
[25.9283,53.3946],
[26.5216,53.3271],
[26.8835,53.4621],
[27.4859,53.4621],
[28.241,53.3271],
[28.5652,53.1922],
[29.7675,53.1922],
[29.9604,53.3271],
[30.3919,53.8676],
[30.4818,54.4095],
[30.4064,54.4774],
[30.8116,54.8171],
[30.8588,55.0892],
[30.946,55.0892],
[30.9305,55.4983],
[30.7674,55.5665],
[30.8035,55.7715],
[30.6521,55.9082],
[30.6763,56.0451],
[30.5125,56.1136],
[30.5245,56.1821],
[30.5366,56.2506],
[30.4486,56.2506],
[30.4728,56.3877],
[30.1081,56.3191],
[29.9555,56.4563],
[29.9792,56.5937],
[29.5844,56.8686],
[28.3778,57.0751],
[27.891,56.7998],
[27.8803,56.7311],
[28.1239,56.5937],
[28.1477,56.1821],
[27.9716,56.1821],
[27.47,55.7715],
[26.8658,55.8398],
[26.4955,55.7031],
[26.4575,55.43],
[26.7103,55.3618],
[26.6913,55.2255],
[25.9655,55.0211],
[25.6599,54.6811]
]
]
]}
}
