{
"type": "Feature",
"properties": {"id":"cliopatria-empire-of-trebizond-1206","edge_precision":"unknown","cliopatria_name":"Empire of Trebizond","cliopatria_from_year":1206,"cliopatria_to_year":1209,"cliopatria_area_km2":33147,"cliopatria_wikidata":"Q178913","cliopatria_wikipedia":"Empire of Trebizond","cliopatria_seshat_id":"tr_trebizond_emp"},
"geometry": {"type": "MultiPolygon", "coordinates": [
[
[
[33.173,41.7816],
[33.4836,41.7167],
[33.6981,41.522],
[34.6279,41.3274],
[35.2126,40.9384],
[36.879,40.9384],
[37.169,40.744],
[37.5654,40.744],
[37.8639,40.6144],
[38.6656,40.6792],
[40.5674,40.6792],
[41.1744,41.0032],
[41.1849,41.068],
[41.2643,41.068],
[41.2383,41.3922],
[41.0473,41.1977],
[40.5393,41.0032],
[40.3909,41.068],
[40.3703,40.9384],
[39.7355,40.9384],
[39.2098,41.1328],
[38.5357,40.8736],
[37.9993,41.0032],
[37.4437,41.0032],
[37.2147,41.068],
[37.2332,41.1977],
[37.0651,41.1328],
[36.7748,41.3274],
[36.2092,41.2625],
[35.9538,41.7167],
[35.157,41.7167],
[35.1212,42.0413],
[34.8817,42.0413],
[34.7845,41.9114],
[33.2771,41.9764],
[33.181,41.8465],
[33.173,41.7816]
]
],
[
[
[33.4665,44.6466],
[33.521,44.4507],
[33.9256,44.4507],
[34.1867,44.5813],
[34.1958,44.6466],
[34.2768,44.6466],
[34.286,44.7119],
[34.3671,44.7119],
[34.3763,44.7773],
[34.0337,44.6466],
[33.5564,44.7119],
[33.5476,44.6466],
[33.4665,44.6466]
]
]
]}
}
