{
"type": "Feature",
"properties": {"id":"cliopatria-batavian-republic-1806","edge_precision":"unknown","cliopatria_name":"Batavian Republic","cliopatria_from_year":1806,"cliopatria_to_year":1806,"cliopatria_area_km2":35836,"cliopatria_wikidata":"Q188553","cliopatria_wikipedia":"Batavian Republic","cliopatria_member_of":"(Batavian Republic)"},
"geometry": {"type": "MultiPolygon", "coordinates": [
[
[
[3.3993,51.6472],
[3.4062,51.5134],
[3.5758,51.5134],
[3.4944,51.4465],
[3.4097,51.4465],
[3.5046,51.246],
[4.0123,51.246],
[4.3417,51.4465],
[5.0196,51.4465],
[5.5352,51.246],
[5.8647,51.5134],
[5.7707,51.7811],
[6.0234,51.8481],
[6.0212,51.9151],
[6.5333,51.8481],
[6.7015,51.9151],
[6.6127,52.0492],
[6.7793,52.1833],
[6.9497,52.1833],
[6.9446,52.3847],
[6.6849,52.5191],
[6.6812,52.6535],
[6.936,52.7208],
[7.1038,52.8554],
[7.1799,53.2596],
[7.0939,53.2596],
[6.7429,53.5296],
[5.5423,53.3946],
[5.2089,53.1248],
[5.3857,52.99],
[5.3908,52.8554],
[5.1366,52.7881],
[5.0564,52.6535],
[4.7855,52.99],
[4.8628,53.1922],
[4.691,53.1922],
[4.6081,53.1248],
[4.7027,52.9227],
[4.5343,52.8554],
[4.3845,52.3847],
[3.974,52.0492],
[3.9805,51.9151],
[3.8104,51.9151],
[3.817,51.7811],
[3.6471,51.7811],
[3.7387,51.6472],
[3.3993,51.6472]
]
]
]}
}
