{
"type": "Feature",
"properties": {"id":"cliopatria-saxons-0500","edge_precision":"unknown","cliopatria_name":"Saxons","cliopatria_from_year":500,"cliopatria_to_year":533,"cliopatria_area_km2":82597,"cliopatria_wikidata":"Q101985","cliopatria_wikipedia":"Saxons"},
"geometry": {"type": "MultiPolygon", "coordinates": [
[
[
[6.6978,52.0492],
[6.6996,51.9822],
[7.3013,51.7142],
[7.3921,51.4465],
[7.649,51.3128],
[7.6517,51.1792],
[8.3354,50.7121],
[8.8371,51.0457],
[9.4271,51.246],
[10.1035,51.4465],
[10.2729,51.6472],
[10.5275,51.6472],
[10.868,51.9151],
[11.547,51.7811],
[11.5476,51.8481],
[11.8041,51.9822],
[11.5508,52.1833],
[11.5522,52.3176],
[11.6374,52.3176],
[11.818,53.1248],
[11.4747,53.1248],
[11.4761,53.2596],
[10.961,53.3271],
[10.8773,53.7323],
[11.1377,53.9352],
[11.2241,53.9352],
[11.1388,54.0706],
[9.582,54.0706],
[9.3221,54.1384],
[9.1474,54.3417],
[8.974,54.3417],
[8.9721,54.5453],
[8.7985,54.5453],
[8.5398,54.4095],
[8.5415,54.2739],
[8.8022,54.2061],
[8.8922,53.8676],
[8.3741,53.8676],
[8.3818,53.3271],
[7.4421,53.0574],
[7.0973,53.1248],
[7.1006,52.99],
[7.0148,52.99],
[7.0165,52.9227],
[6.948,52.2505],
[6.6978,52.0492]
]
]
]}
}
