{
"type": "Feature",
"properties": {"id":"cliopatria-rio-de-la-plata-1814","edge_precision":"unknown","cliopatria_name":"Río de la Plata","cliopatria_from_year":1814,"cliopatria_to_year":1814,"cliopatria_area_km2":1221606,"cliopatria_wikidata":"Q35827","cliopatria_wikipedia":"Río de la Plata"},
"geometry": {"type": "MultiPolygon", "coordinates": [
[
[
[-70.7432,-31.472],
[-70.667,-31.472],
[-70.6808,-31.7933],
[-70.4303,-31.9861],
[-70.4461,-32.3075],
[-70.254,-32.4361],
[-70.2904,-32.8217],
[-70.0988,-32.9503],
[-70.1948,-33.2717],
[-69.9267,-33.4003],
[-69.9852,-33.5932],
[-69.9084,-33.5932],
[-70.0467,-34.0433],
[-69.953,-34.2363],
[-70.2446,-34.4292],
[-70.6546,-35.4587],
[-70.5211,-35.5231],
[-70.4999,-35.4587],
[-69.771,-34.8796],
[-68.9791,-34.8152],
[-68.7643,-34.6222],
[-67.857,-34.4292],
[-64.3535,-34.3006],
[-63.5625,-34.4936],
[-63.6,-34.6222],
[-63.0604,-34.6222],
[-62.3703,-34.3649],
[-62.0623,-34.3649],
[-62.103,-34.2363],
[-61.931,-34.172],
[-61.7182,-34.2363],
[-61.6053,-34.1077],
[-61.3746,-34.1077],
[-61.0139,-33.9147],
[-60.6295,-33.9147],
[-60.0669,-34.1077],
[-59.7699,-34.4292],
[-59.07,-34.6866],
[-58.8086,-35.1369],
[-58.5174,-35.2013],
[-58.476,-35.33],
[-57.3458,-35.7162],
[-57.2813,-35.2013],
[-58.3761,-34.6866],
[-58.5973,-34.3649],
[-58.4858,-34.2363],
[-58.4687,-34.172],
[-58.6311,-33.9147],
[-58.4306,-33.1432],
[-58.261,-33.0789],
[-58.2123,-32.886],
[-58.3332,-32.7575],
[-58.2218,-32.3075],
[-58.3275,-32.1147],
[-58.0519,-31.6005],
[-58.1281,-31.6005],
[-57.9396,-30.4437],
[-57.3456,-29.801],
[-57.0022,-29.6081],
[-56.5691,-28.9654],
[-56.0406,-28.5797],
[-55.8166,-28.1939],
[-54.7845,-27.4868],
[-54.3107,-27.3582],
[-53.8908,-27.101],
[-53.7744,-26.3938],
[-53.8495,-26.3938],
[-53.8534,-25.9437],
[-54.0288,-25.6223],
[-54.7128,-25.6866],
[-54.7604,-26.4581],
[-54.9638,-26.7796],
[-55.6309,-27.1653],
[-55.7513,-27.4225],
[-56.116,-27.3582],
[-56.1275,-27.4225],
[-56.2027,-27.4225],
[-56.9032,-27.5511],
[-57.5687,-27.4868],
[-58.1353,-27.2939],
[-58.8122,-27.2939],
[-58.8241,-27.3582],
[-59.0963,-28.0011],
[-59.1223,-28.5154],
[-59.6319,-29.1582],
[-61.0138,-28.9011],
[-61.9011,-28.4511],
[-61.9367,-28.2582],
[-62.1008,-28.3225],
[-62.4873,-28.0011],
[-62.638,-28.0011],
[-63.3624,-27.101],
[-63.439,-26.7153],
[-63.6674,-26.3295],
[-63.6322,-26.1366],
[-63.759,-26.008],
[-63.7132,-25.7509],
[-63.7881,-25.7509],
[-63.7432,-25.4937],
[-63.4437,-25.4937],
[-63.4107,-25.3008],
[-62.6013,-24.465],
[-62.4867,-24.2079],
[-62.4768,-24.1436],
[-62.4105,-22.665],
[-62.7382,-22.3435],
[-62.7206,-22.215],
[-62.935,-22.1507],
[-62.9919,-22.0221],
[-63.6611,-22.0221],
[-64.1249,-22.1507],
[-64.3552,-22.7292],
[-64.5133,-22.7935],
[-64.6072,-22.4078],
[-64.8686,-22.1507],
[-65.8354,-22.1507],
[-66.3106,-21.8292],
[-66.4304,-22.1507],
[-66.5791,-22.1507],
[-67.2587,-22.7292],
[-67.0834,-23.0507],
[-67.2879,-23.8864],
[-67.5534,-24.1436],
[-67.9373,-24.2079],
[-68.514,-24.5293],
[-68.6556,-24.9151],
[-68.5287,-25.0437],
[-68.5632,-25.2365],
[-68.7362,-25.3651],
[-68.4818,-26.008],
[-68.67,-26.5867],
[-68.4214,-26.8438],
[-68.4608,-27.0367],
[-68.952,-27.2296],
[-69.3446,-28.0011],
[-69.7332,-28.3868],
[-69.8991,-29.0939],
[-70.0814,-29.2225],
[-70.1601,-29.5439],
[-70.0844,-29.5439],
[-70.1324,-29.7367],
[-70.0132,-29.8652],
[-70.0621,-30.0581],
[-69.9599,-30.2509],
[-70.3642,-30.6365],
[-70.4088,-31.0864],
[-70.6898,-31.2792],
[-70.7432,-31.472]
]
],
[
[
[-56.9283,-34.7509],
[-56.8512,-34.7509],
[-56.8684,-34.8152],
[-56.5598,-34.8152],
[-56.3797,-35.0082],
[-56.0368,-34.8796],
[-55.4967,-34.8796],
[-55.413,-34.5579],
[-55.49,-34.5579],
[-55.4403,-34.3649],
[-55.5449,-34.172],
[-55.9296,-34.172],
[-56.1333,-34.3649],
[-56.5016,-34.3006],
[-56.9202,-34.4292],
[-56.9283,-34.7509]
]
]
]}
}
