{
"type": "Feature",
"properties": {"id":"cliopatria-pandya-empire-1241","edge_precision":"unknown","cliopatria_name":"Pandya Empire","cliopatria_from_year":1241,"cliopatria_to_year":1249,"cliopatria_area_km2":123872,"cliopatria_wikidata":"Q844910","cliopatria_wikipedia":"Pandya Empire"},
"geometry": {"type": "MultiPolygon", "coordinates": [
[
[
[75.262,12.0149],
[75.7734,11.262],
[76.5232,8.9685],
[76.7712,8.6089],
[77.5177,8.0842],
[78.1206,8.454],
[78.2342,8.9718],
[79.0401,9.3109],
[79.3629,10.3205],
[79.8828,10.2623],
[79.8934,11.1927],
[79.8667,11.22],
[78.468,11.7337],
[77.3815,11.7679],
[77.0338,11.5949],
[76.5653,11.6694],
[75.6539,12.0371],
[75.262,12.0149]
]
]
]}
}
