{
"type": "Feature",
"properties": {"id":"cliopatria-vijayanagara-empire-1556","edge_precision":"unknown","cliopatria_name":"Vijayanagara Empire","cliopatria_from_year":1556,"cliopatria_to_year":1563,"cliopatria_area_km2":338292,"cliopatria_wikidata":"Q167639","cliopatria_wikipedia":"Vijayanagara Empire","cliopatria_seshat_id":"in_vijayanagara_emp"},
"geometry": {"type": "MultiPolygon", "coordinates": [
[
[
[74.5386,13.8503],
[74.6636,13.5932],
[74.7477,12.8217],
[75.0744,12.3074],
[75.0695,12.2432],
[75.2942,12.3074],
[75.4309,12.1789],
[75.3385,11.9217],
[75.3337,11.8574],
[75.594,11.4074],
[75.5895,11.3431],
[75.8822,11.3431],
[75.9284,10.9574],
[75.8552,10.9574],
[75.8508,10.8931],
[75.9021,10.5717],
[76.2296,9.9931],
[76.2255,9.9288],
[76.449,9.9931],
[76.5828,9.8002],
[76.5585,9.4145],
[76.3353,9.3502],
[76.3313,9.2859],
[76.5888,8.7073],
[77.1395,8.1288],
[77.2666,8.1288],
[77.1521,8.2508],
[77.2682,9.3277],
[77.1989,9.9468],
[77.272,10.3708],
[77.6552,11.198],
[78.6105,11.066],
[78.5615,10.9576],
[79.0031,10.9676],
[79.798,11.4695],
[79.8381,11.3854],
[79.8844,11.986],
[80.303,12.6289],
[80.3414,13.0789],
[80.1325,13.2075],
[80.1495,13.4003],
[80.302,13.4646],
[80.3078,13.5289],
[80.161,13.5289],
[80.246,13.6575],
[80.2637,14.6218],
[80.1902,14.6218],
[80.1014,15.2004],
[80.376,15.7147],
[80.8314,15.8433],
[80.905,15.8433],
[80.9402,16.1647],
[80.8001,16.229],
[80.7551,16.4861],
[80.3421,16.7433],
[79.8999,16.7433],
[79.4291,16.4861],
[79.2081,16.4861],
[79.2223,16.6147],
[78.6995,16.5504],
[78.4715,16.4861],
[78.2964,16.229],
[78.4095,15.9076],
[77.446,15.8433],
[77.0517,15.5861],
[76.9588,15.3933],
[75.6412,15.4575],
[74.8197,15.329],
[74.6741,14.5575],
[74.6007,14.5575],
[74.7303,14.3646],
[74.7132,14.1718],
[74.5441,13.9146],
[74.5386,13.8503]
]
],
[
[
[78.5008,10.8232],
[78.7272,10.7478],
[78.704,10.3677],
[78.9823,10.0303],
[78.709,10.3748],
[78.73,10.7493],
[78.5218,10.8406],
[78.5299,10.8877],
[78.5008,10.8232]
]
]
]}
}
