{
"type": "Feature",
"properties": {"id":"cliopatria-caliphate-of-cordoba-1010","edge_precision":"unknown","cliopatria_name":"Caliphate of Córdoba","cliopatria_from_year":1010,"cliopatria_to_year":1014,"cliopatria_area_km2":345912,"cliopatria_wikidata":"Q171740","cliopatria_wikipedia":"Caliphate of Córdoba","cliopatria_seshat_id":"es_cordoba_cal"},
"geometry": {"type": "MultiPolygon", "coordinates": [
[
[
[-8.1387,37.8352],
[-8.0273,37.4483],
[-7.7153,37.4483],
[-7.4653,37.2549],
[-6.8418,37.2549],
[-6.588,36.9971],
[-6.4323,36.9971],
[-6.0638,36.224],
[-5.8311,36.224],
[-5.5848,36.0308],
[-5.5162,36.1596],
[-5.2879,36.224],
[-5.2282,36.4816],
[-4.6888,36.546],
[-4.4686,36.7393],
[-2.6801,36.7393],
[-2.5321,36.8682],
[-2.0616,36.8037],
[-1.8574,37.3193],
[-1.6235,37.3193],
[-1.7087,37.4483],
[-0.7048,37.6417],
[-0.8035,38.0288],
[-0.6539,38.1578],
[-0.6574,38.2224],
[-1.5222,38.2869],
[-1.9767,38.0288],
[-2.2113,38.0288],
[-2.2075,37.9643],
[-2.5242,38.0288],
[-2.5362,38.2224],
[-2.4619,38.2869],
[-2.6308,38.4806],
[-4.3459,38.3515],
[-4.7518,38.5451],
[-5.0605,38.4806],
[-5.281,38.2869],
[-5.4425,38.3515],
[-5.7459,38.2224],
[-6.9931,38.1578],
[-7.5519,38.2869],
[-7.8316,37.8998],
[-8.1387,37.8352]
]
],
[
[
[-8.0487,31.5933],
[-7.9725,31.5933],
[-7.8879,31.4647],
[-7.7355,31.4647],
[-7.7273,31.3362],
[-6.5929,31.4647],
[-5.6974,31.7861],
[-5.3886,31.7218],
[-5.396,31.8503],
[-4.2691,32.1717],
[-3.9739,32.3645],
[-3.8177,32.3002],
[-3.5985,32.4931],
[-2.544,32.8145],
[-1.8795,33.3288],
[-1.5728,33.3288],
[-1.5788,33.4574],
[-1.2779,33.5859],
[-0.9855,33.9075],
[-0.8317,33.9075],
[-0.4674,34.3577],
[-0.3904,34.3577],
[-0.1679,34.5506],
[-0.1996,35.2584],
[-0.0567,35.5158],
[-0.0714,35.8377],
[-0.1489,35.8377],
[-0.9171,35.7089],
[-1.0655,35.5802],
[-1.2235,35.6445],
[-1.1365,35.4514],
[-1.3587,35.2584],
[-2.1212,35.0653],
[-2.1984,35.0653],
[-2.4231,34.9366],
[-3.1177,34.9366],
[-3.419,34.8079],
[-3.6542,34.8723],
[-3.7313,34.8723],
[-4.5069,34.9366],
[-4.4498,35.2584],
[-4.9135,35.2584],
[-5.2398,35.5158],
[-5.3389,35.8377],
[-5.8766,35.7733],
[-5.9999,35.3227],
[-6.1455,35.194],
[-6.132,35.001],
[-6.2909,35.0653],
[-6.2003,34.8723],
[-6.2775,34.8723],
[-6.3324,34.5506],
[-6.4821,34.4863],
[-6.4732,34.3577],
[-6.6997,34.2933],
[-6.6139,34.1647],
[-6.9038,33.9075],
[-7.062,33.9718],
[-7.1299,33.8432],
[-7.7262,33.5859],
[-7.803,33.5859],
[-7.7938,33.4574],
[-7.5592,33.3931],
[-7.3662,32.8145],
[-7.4428,32.8145],
[-7.4212,32.4931],
[-7.6334,32.236],
[-7.6206,32.0431],
[-7.9131,31.8503],
[-8.0487,31.5933]
]
],
[
[
[-3.286,41.1328],
[-2.6323,40.8736],
[-1.9227,40.9384],
[-1.597,40.8088],
[-1.5054,40.6144],
[-1.7347,40.4849],
[-1.7265,40.3554],
[-1.4851,40.2906],
[-0.1443,40.3554],
[0.0789,40.6144],
[0.1439,40.8736],
[0.3749,41.0032],
[0.3714,41.068],
[0.4403,41.2625],
[0.6719,41.3922],
[0.665,41.522],
[1.2057,41.8465],
[1.2023,41.9114],
[0.7237,41.9114],
[0.6369,42.0413],
[0.1617,41.9764],
[0.0744,42.1063],
[-0.4925,42.2362],
[-0.6524,42.2362],
[-0.7486,42.4962],
[-1.0687,42.4962],
[-1.1403,42.3662],
[-1.7845,42.4312],
[-1.7756,42.3012],
[-1.82,41.7816],
[-2.1299,41.6518],
[-2.121,41.522],
[-2.3462,41.3274],
[-3.2161,41.2625],
[-3.286,41.1328]
]
],
[
[
[1.1831,39.0618],
[1.2735,38.8034],
[1.4305,38.8034],
[1.6575,38.9972],
[1.6518,39.1265],
[1.2587,39.1265],
[1.1831,39.0618]
]
],
[
[
[2.3381,39.6436],
[2.3461,39.4496],
[2.6586,39.5143],
[2.8237,39.3203],
[3.2958,39.3203],
[3.5158,39.7729],
[3.1979,39.8376],
[3.193,39.967],
[2.8772,39.967],
[2.3381,39.6436]
]
],
[
[
[3.7411,40.0964],
[3.8268,39.9023],
[4.3024,39.8376],
[4.2151,40.0964],
[3.7411,40.0964]
]
]
]}
}
