{
"type": "Feature",
"properties": {"id":"cliopatria-parthian-empire-0127","edge_precision":"unknown","cliopatria_name":"Parthian Empire","cliopatria_from_year":127,"cliopatria_to_year":153,"cliopatria_area_km2":2920837,"cliopatria_wikidata":"Q1986139","cliopatria_wikipedia":"Parthian Empire","cliopatria_seshat_id":"iq_parthian_emp_2"},
"geometry": {"type": "MultiPolygon", "coordinates": [
[
[
[38.7449,39.5789],
[38.9542,39.385],
[39.2085,39.5143],
[39.7506,39.4496],
[39.848,39.5789],
[40.5476,39.5143],
[40.5097,39.2557],
[40.6576,39.1911],
[40.4686,38.416],
[40.547,38.416],
[40.5716,38.0288],
[41.6666,38.0288],
[41.9702,37.9643],
[42.03,37.8352],
[42.8114,37.8352],
[42.8801,37.7707],
[42.7647,37.5128],
[42.6227,37.0615],
[42.629,36.546],
[41.9816,36.3528],
[41.6711,36.3528],
[41.5413,36.546],
[41.2829,36.3528],
[40.8089,36.2884],
[39.7527,35.902],
[39.4971,35.7089],
[39.9383,35.5158],
[40.0621,35.2584],
[40.2784,35.1297],
[40.263,35.001],
[40.4792,34.8723],
[40.5497,34.1647],
[40.6267,34.1647],
[41.2116,33.9075],
[41.4886,33.6502],
[41.7881,33.5859],
[42.0645,33.3288],
[42.3636,33.2645],
[42.7085,32.943],
[43.1526,32.8145],
[44.459,31.5933],
[44.5814,31.3362],
[44.9546,31.2719],
[45.7705,30.4364],
[46.5906,30.3079],
[46.6151,29.858],
[46.8497,29.9223],
[46.994,29.858],
[46.9794,29.7294],
[47.2897,29.7937],
[47.6538,29.6652],
[47.5347,29.2795],
[47.6717,29.1509],
[47.6505,28.9581],
[47.8087,29.0224],
[48.0143,28.8295],
[48.0003,28.701],
[48.1444,28.6367],
[48.0551,28.5081],
[48.2061,28.5081],
[48.2474,28.1867],
[48.4669,28.1224],
[48.5515,27.4795],
[49.0588,27.2866],
[49.2651,27.0938],
[49.2525,26.9652],
[49.8784,26.4508],
[49.6745,25.8722],
[50.0317,25.6793],
[50.3438,24.9721],
[50.6158,24.6506],
[50.9201,24.7149],
[51.1201,25.2936],
[50.9647,25.2293],
[50.982,25.4221],
[51.2302,25.6793],
[51.1733,25.8722],
[51.3232,25.8722],
[51.3504,25.3579],
[51.2698,25.2936],
[51.4022,25.1007],
[51.3274,25.1007],
[51.2939,24.7149],
[51.1335,24.5864],
[51.2028,24.5221],
[51.1016,24.2006],
[51.1658,24.072],
[51.8219,23.8792],
[51.881,23.6863],
[54.2732,23.7506],
[54.8121,23.9435],
[55.623,24.6506],
[55.8412,24.5864],
[55.8595,24.7792],
[56.09,24.8435],
[56.2895,24.5864],
[56.2713,24.3935],
[56.4894,24.3292],
[56.5402,24.072],
[56.8211,23.8792],
[56.8095,23.7506],
[57.8303,23.4934],
[57.9736,23.4291],
[57.962,23.3006],
[58.3347,23.3006],
[58.6096,23.0434],
[58.9076,23.0434],
[58.8961,22.9148],
[59.2684,22.9148],
[59.2801,23.0434],
[59.0682,23.172],
[59.08,23.3006],
[58.8115,23.622],
[57.4927,23.8792],
[56.7881,24.3292],
[56.5449,24.9078],
[56.4016,24.9721],
[56.4957,25.165],
[56.4208,25.165],
[56.4603,25.5507],
[56.3854,25.5507],
[56.5433,26.3222],
[56.4754,26.3865],
[56.1682,26.3222],
[55.9696,25.8722],
[55.4119,25.5507],
[55.1427,25.1007],
[54.7442,24.8435],
[54.5591,24.4578],
[54.3178,24.2649],
[54.0995,24.3292],
[54.0825,24.1363],
[53.112,24.1363],
[52.6003,24.2649],
[52.2801,24.0077],
[51.907,24.0077],
[51.8535,24.2649],
[51.4108,24.3292],
[51.5236,24.7792],
[51.69,24.9721],
[51.7188,25.2936],
[51.575,25.3579],
[51.6979,25.8722],
[51.4228,26.1294],
[51.1229,26.1294],
[50.9545,25.9365],
[50.9246,25.615],
[50.769,25.5507],
[50.7289,25.1007],
[50.6541,25.1007],
[50.6076,25.4221],
[50.3255,25.615],
[50.211,26.0008],
[50.067,26.0651],
[50.223,26.1294],
[50.2537,26.4508],
[50.116,26.5794],
[50.135,26.7723],
[49.3596,27.2866],
[49.2419,27.6081],
[48.8722,27.6724],
[48.9741,27.9295],
[48.5627,28.3153],
[48.4604,28.7652],
[48.1937,29.0867],
[48.2154,29.2795],
[48.0786,29.4081],
[47.8517,29.4081],
[47.8662,29.5366],
[48.4035,29.6009],
[48.3654,29.9223],
[48.9873,30.0508],
[48.9428,30.3079],
[49.5859,29.9865],
[50.0648,30.1794],
[50.2363,29.7294],
[50.6513,29.4081],
[50.6203,29.1509],
[50.915,29.0867],
[50.809,28.8295],
[51.0281,28.7652],
[51.0662,28.4438],
[51.3313,28.1224],
[51.3168,27.9938],
[51.5967,27.8009],
[52.0486,27.8009],
[52.4787,27.6081],
[52.737,27.2223],
[53.4606,26.9652],
[53.6581,26.708],
[54.2589,26.708],
[54.4632,26.5151],
[54.8316,26.4508],
[55.2423,26.7723],
[55.5427,26.7723],
[55.3102,26.708],
[55.2889,26.5151],
[55.439,26.5151],
[55.6034,26.6437],
[56.0612,26.708],
[56.3086,26.9009],
[56.3236,27.0295],
[56.0981,27.0295],
[56.1884,27.158],
[56.7147,27.158],
[57.0524,26.8366],
[57.1757,25.9365],
[57.3795,25.7436],
[57.6792,25.7436],
[57.7402,25.615],
[57.958,25.5507],
[58.7817,25.5507],
[59.0602,25.3579],
[60.6321,25.3579],
[60.6178,25.2293],
[60.9171,25.2293],
[61.1274,25.1007],
[61.6582,25.165],
[61.7187,25.0364],
[62.0179,25.0364],
[62.182,25.165],
[62.4739,25.1007],
[62.5634,25.2293],
[63.5362,25.2293],
[63.6262,25.3579],
[64.225,25.3579],
[64.2845,25.2293],
[64.8006,25.165],
[64.8161,25.2936],
[66.0215,25.3579],
[66.3451,25.5507],
[66.6203,25.3579],
[66.6475,24.9721],
[66.6398,24.9078],
[67.1121,25.1007],
[67.5021,25.8079],
[67.1966,26.3222],
[67.1745,27.2223],
[67.0623,27.4795],
[67.121,27.8652],
[67.0457,27.8652],
[67.0409,28.3153],
[66.9655,28.3153],
[67.0067,28.5724],
[66.9313,28.5724],
[67.1352,29.3438],
[66.9949,29.4081],
[66.888,29.6652],
[66.4336,29.6652],
[66.0771,29.7937],
[65.1247,29.5366],
[64.5298,29.6009],
[64.1197,29.4081],
[62.3037,29.4081],
[61.0015,29.7937],
[60.9562,29.9865],
[61.3872,30.3079],
[61.8746,30.9506],
[61.9415,31.3362],
[62.4212,31.4647],
[62.8195,31.9789],
[63.1608,32.1717],
[63.185,32.3002],
[63.4264,32.3645],
[63.8726,33.8432],
[64.3239,34.1647],
[64.5735,34.615],
[65.092,34.8723],
[64.854,35.194],
[64.8285,35.7733],
[64.7511,35.7733],
[65.1551,38.7389],
[65.0767,38.7389],
[65.1441,38.9972],
[65.0655,38.9972],
[65.2819,39.5143],
[65.2031,39.5143],
[65.2912,39.8376],
[65.5638,39.967],
[65.8828,40.8088],
[65.8035,40.8088],
[65.5888,40.6144],
[65.4304,40.6144],
[65.449,40.6792],
[65.3697,40.6792],
[65.3511,40.6144],
[65.2719,40.6144],
[65.235,40.4849],
[64.3894,40.2906],
[64.0199,40.0964],
[62.8795,39.967],
[62.5018,40.0317],
[61.202,39.5789],
[60.7131,39.5143],
[60.6826,39.7083],
[60.0518,39.7083],
[60.0839,39.8376],
[59.7683,39.8376],
[59.77,40.1612],
[58.9797,40.1612],
[58.8537,40.2906],
[58.5374,40.2906],
[58.332,40.4201],
[57.3512,40.2906],
[57.1621,40.1612],
[57.1139,40.2906],
[56.9558,40.2906],
[56.9868,40.4201],
[56.6548,40.3554],
[54.5437,40.8088],
[53.4044,40.6792],
[53.4482,40.8736],
[53.3397,40.744],
[52.9433,40.744],
[52.9723,40.8736],
[52.893,40.8736],
[52.7927,40.4201],
[52.7135,40.4201],
[52.7226,40.0964],
[53.4985,40.0317],
[53.5449,39.5143],
[53.1375,39.4496],
[53.5176,39.385],
[53.9868,38.9972],
[53.8298,37.8352],
[53.9079,37.8352],
[53.9105,37.4483],
[54.0947,37.1904],
[54.0333,36.8682],
[53.0877,36.8037],
[52.1859,36.546],
[51.642,36.546],
[50.8207,36.7393],
[50.532,36.8682],
[50.6323,36.9971],
[50.5657,37.0615],
[50.3209,36.9971],
[49.9988,37.3838],
[49.0851,37.5128],
[48.8285,37.8352],
[48.8411,38.3515],
[48.7627,38.3515],
[48.7773,38.868],
[48.9275,39.2557],
[48.7822,39.3203],
[48.8065,39.4496],
[48.6733,39.5789],
[48.2247,39.7083],
[47.1208,39.7083],
[47.0656,39.8376],
[46.7736,39.967],
[46.4578,39.967],
[46.4814,40.0964],
[46.2561,40.1612],
[46.2007,40.2906],
[45.8844,40.2906],
[45.4567,40.5496],
[45.5953,40.8736],
[45.3019,41.0032],
[45.2465,41.1328],
[45.1671,41.1328],
[45.1117,41.2625],
[44.2373,41.2625],
[43.9756,41.1328],
[43.3402,41.1328],
[42.8633,41.5869],
[42.6244,41.5869],
[42.3631,41.4571],
[42.2502,41.2625],
[41.7046,41.3274],
[41.6938,41.2625],
[41.5348,41.2625],
[41.4495,40.744],
[40.9533,40.6144],
[40.3982,40.0964],
[38.7904,39.9023],
[38.9298,39.7729],
[38.7449,39.5789]
]
],
[
[
[50.4299,25.9365],
[50.6487,25.8722],
[50.6852,26.258],
[50.4602,26.258],
[50.4299,25.9365]
]
],
[
[
[51.1317,25.4221],
[51.2066,25.4221],
[51.2124,25.4864],
[51.1375,25.4864],
[51.1317,25.4221]
]
]
]}
}
