{
"type": "Feature",
"properties": {"id":"cliopatria-second-bulgarian-empire-1227","edge_precision":"unknown","cliopatria_name":"Second Bulgarian Empire","cliopatria_from_year":1227,"cliopatria_to_year":1235,"cliopatria_area_km2":228826,"cliopatria_wikidata":"Q420759","cliopatria_wikipedia":"Second Bulgarian Empire"},
"geometry": {"type": "MultiPolygon", "coordinates": [
[
[
[20.5823,41.8465],
[20.8865,41.5869],
[21.205,41.5869],
[21.4323,41.3922],
[21.9851,41.3274],
[22.2115,41.1328],
[22.9263,41.1328],
[23.5754,41.3274],
[25.0219,41.522],
[25.2711,41.6518],
[25.8287,41.6518],
[25.9193,41.7816],
[26.2325,41.7167],
[27.0649,42.1063],
[27.7835,42.1063],
[27.7898,42.1712],
[27.4949,42.4312],
[27.5135,42.6262],
[27.8466,42.7563],
[27.8049,43.1467],
[27.8982,43.2769],
[28.2264,43.3421],
[28.1592,43.4723],
[28.4811,43.4723],
[28.6163,43.9938],
[28.5356,43.9938],
[28.5769,44.3854],
[28.8407,44.5813],
[28.802,44.9734],
[29.0456,44.9734],
[29.0241,44.7773],
[29.5253,44.908],
[29.6584,45.3659],
[29.577,45.3659],
[29.5845,45.4313],
[29.096,45.4313],
[28.6677,45.235],
[28.3494,45.3004],
[28.2819,45.4313],
[27.78,45.3004],
[27.6306,45.4313],
[26.9793,45.4313],
[26.4342,45.6933],
[26.0204,45.6278],
[25.9509,45.7588],
[25.7122,45.8243],
[24.5642,45.7588],
[24.4663,45.5623],
[24.1351,45.4968],
[23.3207,45.4968],
[22.9469,44.8426],
[22.5182,44.516],
[22.5044,44.3201],
[22.6615,44.2548],
[22.6523,44.1243],
[22.4816,43.9938],
[21.666,43.8634],
[21.3311,43.6678],
[21.327,43.6027],
[21.4075,43.6027],
[21.3994,43.4723],
[21.4798,43.4723],
[21.4757,43.4072],
[21.5562,43.4072],
[21.5438,43.2118],
[21.9285,42.9515],
[21.9117,42.6912],
[21.5791,42.4962],
[21.567,42.3012],
[21.3992,42.1712],
[20.8363,42.1063],
[20.7454,41.9114],
[20.5823,41.8465]
]
]
]}
}
