{
"type": "Feature",
"properties": {"id":"cliopatria-kingdom-of-galicia-1111","edge_precision":"unknown","cliopatria_name":"Kingdom of Galicia","cliopatria_from_year":1111,"cliopatria_to_year":1125,"cliopatria_area_km2":90215,"cliopatria_wikidata":"Q303421","cliopatria_wikipedia":"Kingdom of Galicia","cliopatria_seshat_id":"es_galicia_k"},
"geometry": {"type": "MultiPolygon", "coordinates": [
[
[
[-9.3046,43.1467],
[-9.0787,42.5612],
[-8.9185,42.5612],
[-8.9044,42.4312],
[-8.6504,42.3012],
[-8.9561,42.1712],
[-8.727,40.744],
[-8.8723,40.6144],
[-8.8461,40.3554],
[-8.9252,40.3554],
[-8.8993,40.0964],
[-8.9783,40.0964],
[-9.0314,39.8376],
[-9.025,39.7729],
[-8.5332,39.5789],
[-7.1994,39.6436],
[-6.9743,39.7729],
[-6.828,39.9023],
[-6.8395,40.0317],
[-7.0032,40.0964],
[-6.9475,40.3554],
[-6.8684,40.3554],
[-6.9277,41.0032],
[-6.2542,41.4571],
[-6.2779,41.7167],
[-6.1363,41.9114],
[-6.1723,42.3012],
[-6.0923,42.3012],
[-6.1288,42.6912],
[-6.0486,42.6912],
[-6.1658,43.0816],
[-6.0917,43.1467],
[-6.0979,43.2118],
[-6.0486,43.5375],
[-7.1757,43.5375],
[-7.3435,43.6027],
[-7.2765,43.733],
[-8.2436,43.733],
[-8.3904,43.6027],
[-8.369,43.4072],
[-8.8517,43.4072],
[-9.3046,43.1467]
]
]
]}
}
