{
"type": "Feature",
"properties": {"id":"cliopatria-kingdom-of-bavaria-1836","edge_precision":"unknown","cliopatria_name":"Kingdom of Bavaria","cliopatria_from_year":1836,"cliopatria_to_year":1839,"cliopatria_area_km2":76346,"cliopatria_wikidata":"Q154195","cliopatria_wikipedia":"Kingdom of Bavaria"},
"geometry": {"type": "MultiPolygon", "coordinates": [
[
[
[7.2708,49.3826],
[7.2754,49.1838],
[8.1127,48.9851],
[8.2759,49.1838],
[8.2705,49.5152],
[7.8526,49.5152],
[7.6828,49.6479],
[7.5991,49.6479],
[7.6005,49.5816],
[7.5169,49.5816],
[7.2708,49.3826]
]
],
[
[
[8.9328,50.0465],
[9.0226,49.5152],
[9.189,49.5816],
[9.1877,49.7143],
[9.3551,49.7143],
[9.4399,49.5816],
[9.7747,49.5152],
[9.8597,49.25],
[10.1111,48.9851],
[10.1125,48.6542],
[9.8644,48.4559],
[9.8657,48.2578],
[10.0324,48.0597],
[9.9496,48.0597],
[9.9508,47.8619],
[9.4572,47.5982],
[9.5397,47.5982],
[9.5403,47.5323],
[9.9527,47.5323],
[10.1185,47.3348],
[10.3657,47.3348],
[10.4474,47.5982],
[10.8599,47.5323],
[11.0247,47.4006],
[11.9331,47.6641],
[12.7585,47.6641],
[12.8394,47.5323],
[13.0878,47.5982],
[12.9245,47.73],
[12.9272,47.9278],
[12.7626,47.9938],
[12.7651,48.1917],
[13.2642,48.3238],
[13.4346,48.5881],
[13.7681,48.6542],
[13.7708,48.7865],
[12.5324,49.5152],
[12.5341,49.6479],
[12.3676,49.7143],
[12.3709,49.98],
[12.2048,50.113],
[12.2056,50.1795],
[11.8716,50.3791],
[11.8723,50.4457],
[11.3676,50.4457],
[11.2824,50.246],
[10.4424,50.246],
[10.4424,50.3791],
[10.3583,50.3791],
[10.1898,50.5122],
[9.9376,50.4457],
[9.8535,50.4457],
[9.5195,50.113],
[8.9328,50.0465]
]
]
]}
}
