{
"type": "Feature",
"properties": {"id":"cliopatria-kara-khitans-1147","edge_precision":"unknown","cliopatria_name":"Kara-Khitans","cliopatria_from_year":1147,"cliopatria_to_year":1151,"cliopatria_area_km2":2568396,"cliopatria_wikidata":"Q862304","cliopatria_wikipedia":"Qara Khitai","cliopatria_seshat_id":"tm_kara_khitai_khanate"},
"geometry": {"type": "MultiPolygon", "coordinates": [
[
[
[60.3677,43.5375],
[60.3919,43.3421],
[61.0081,42.6912],
[61.1683,42.6912],
[61.3957,42.3662],
[61.5556,42.3662],
[61.7827,42.0413],
[62.065,41.9114],
[62.1327,41.5869],
[62.4397,41.2625],
[62.4116,40.8736],
[62.2969,40.744],
[62.4027,40.5496],
[62.3161,40.2259],
[62.6876,39.8376],
[62.6538,39.7083],
[63.0883,39.2557],
[63.2457,39.2557],
[63.4155,38.9972],
[63.8374,38.8034],
[64.0075,38.5451],
[64.3669,38.416],
[64.6615,38.0288],
[65.2388,37.8352],
[65.6274,37.5128],
[66.5155,37.3193],
[66.9995,37.3838],
[67.123,37.2549],
[67.7465,37.2549],
[67.9152,36.9971],
[68.1487,36.9971],
[68.7764,37.3193],
[69.0103,37.3193],
[69.1161,37.126],
[69.3498,37.126],
[69.546,37.5773],
[70.0752,37.5128],
[70.2658,37.6417],
[70.1619,37.8352],
[70.2147,38.0288],
[70.3733,38.0933],
[70.4238,38.313],
[71.1838,38.416],
[71.3456,38.157],
[72.2551,38.1645],
[72.9618,38.2153],
[73.126,38.1136],
[74.5394,37.9254],
[76.7017,36.9793],
[76.6336,36.4102],
[76.7319,35.7089],
[76.8499,35.8377],
[77.3507,35.9664],
[79.0714,36.2884],
[81.2644,36.6105],
[81.7125,36.8037],
[82.1014,36.8037],
[85.1134,37.4483],
[85.1349,37.5128],
[85.8129,37.8998],
[86.0814,38.2224],
[86.4401,38.3515],
[87.6617,38.4806],
[88.7458,38.868],
[91.5418,39.1911],
[92.9307,39.5143],
[93.2981,39.4496],
[93.351,39.5789],
[93.9814,39.5789],
[94.4793,39.4496],
[94.9787,39.5143],
[94.8462,39.385],
[95.2668,39.4496],
[95.4475,39.1265],
[95.6047,39.1265],
[95.6823,38.9326],
[96.0743,38.7389],
[96.3097,38.7389],
[96.2841,38.868],
[96.4945,38.9972],
[96.5213,39.0618],
[96.2337,39.1265],
[96.2876,39.2557],
[96.2089,39.2557],
[96.5249,40.3554],
[96.4458,40.3554],
[97.4021,41.9114],
[98.1016,42.6912],
[98.1339,42.7563],
[96.531,42.7563],
[96.2889,43.0816],
[95.9512,43.2118],
[95.9348,43.3421],
[95.5813,43.2769],
[95.6132,43.3421],
[95.2111,43.3421],
[95.2429,43.4072],
[94.3091,43.4723],
[94.3407,43.5375],
[92.8059,43.8634],
[92.8372,43.9286],
[92.3843,43.9938],
[92.4156,44.0591],
[92.0926,44.0591],
[92.1238,44.1243],
[91.8815,44.1243],
[91.7822,44.2548],
[91.2785,44.3854],
[91.3096,44.4507],
[91.0668,44.4507],
[90.9671,44.5813],
[90.6431,44.5813],
[90.412,44.7773],
[89.6935,44.9734],
[89.4612,45.1696],
[89.2174,45.1696],
[88.9845,45.3659],
[88.4455,45.4313],
[88.2118,45.6278],
[87.9164,45.6933],
[87.947,45.7588],
[87.5188,45.8898],
[87.5494,45.9554],
[86.7217,46.2833],
[86.5989,46.5459],
[86.435,46.5459],
[86.3634,46.7429],
[86.1993,46.7429],
[86.1278,46.9401],
[85.9635,46.9401],
[85.8921,47.1374],
[85.6764,47.2032],
[85.77,47.4006],
[85.5854,47.5323],
[85.5975,47.73],
[85.3498,47.73],
[85.173,47.5323],
[83.9783,47.269],
[83.3639,47.0058],
[80.8896,46.6115],
[80.7507,46.4802],
[80.0441,46.7429],
[80.0725,46.8086],
[79.6057,46.6772],
[79.3055,46.7429],
[79.2775,46.6772],
[79.0856,46.6115],
[78.9748,46.3489],
[78.4563,46.2833],
[77.8016,46.2833],
[77.8287,46.3489],
[77.3644,46.4145],
[77.3914,46.4802],
[75.4512,46.5459],
[75.3168,46.4145],
[74.8814,46.3489],
[74.7526,46.0209],
[74.3186,45.9554],
[74.117,45.4313],
[74.2547,45.3659],
[74.1301,45.0388],
[73.8617,44.9734],
[73.9112,45.1042],
[73.7416,45.3004],
[73.3276,45.4968],
[73.5019,45.9554],
[73.6401,45.8898],
[73.7157,46.0865],
[73.527,46.0209],
[73.628,46.2833],
[73.8735,46.2833],
[73.9501,46.4802],
[74.3295,46.6115],
[74.3554,46.6772],
[73.8889,46.7429],
[73.9148,46.8086],
[72.4938,46.7429],
[71.5493,46.4145],
[69.6288,46.0865],
[69.5,45.9554],
[68.0299,45.9554],
[67.9941,46.0865],
[67.0724,46.0209],
[66.627,46.1521],
[64.9534,46.2833],
[61.4344,46.2833],
[61.414,46.2177],
[61.2714,46.0209],
[61.2523,45.6933],
[61.3339,45.6933],
[61.3967,45.3659],
[61.7222,45.3659],
[61.5823,44.908],
[61.42,44.908],
[61.3805,44.7773],
[60.8969,44.516],
[60.7808,44.1243],
[60.6001,44.0591],
[60.3865,43.6027],
[60.3677,43.5375]
]
]
]}
}
