{
"type": "Feature",
"properties": {"id":"cliopatria-scandinavian-minor-kingdoms-0980","edge_precision":"unknown","cliopatria_name":"Scandinavian minor kingdoms","cliopatria_from_year":980,"cliopatria_to_year":999,"cliopatria_area_km2":117735,"cliopatria_wikidata":"Q213649","cliopatria_wikipedia":"Viking Age","cliopatria_seshat_id":"sv_scandinavian_minor_k"},
"geometry": {"type": "MultiPolygon", "coordinates": [
[
[
[11.7074,57.6962],
[11.7966,57.6962],
[11.7955,57.6271],
[11.9762,57.7654],
[12.3333,57.7654],
[12.4196,57.6271],
[12.5979,57.6271],
[12.5948,57.4889],
[13.1196,57.144],
[13.1159,57.0063],
[13.2913,56.9374],
[13.4583,56.5937],
[15.9285,56.525],
[16.0979,56.3877],
[16.1861,56.3877],
[16.1934,56.525],
[16.2817,56.525],
[16.2669,56.2506],
[16.627,56.3877],
[16.7392,56.7998],
[17.1232,57.2819],
[17.1318,57.4199],
[16.9539,57.4199],
[16.7554,57.0751],
[16.4775,56.8686],
[16.501,57.2819],
[16.6869,57.4199],
[16.6141,57.6962],
[16.7033,57.6962],
[16.7116,57.8346],
[16.6263,57.9038],
[16.8136,58.0423],
[16.8306,58.3198],
[16.6554,58.3892],
[16.6596,58.4587],
[16.3901,58.4587],
[16.2223,58.6673],
[16.0423,58.6673],
[15.6968,58.9458],
[15.7982,59.1551],
[15.5306,59.2249],
[15.465,59.7145],
[16.5686,59.9249],
[16.7641,60.1355],
[17.1339,60.2058],
[17.6211,60.6282],
[17.6262,60.6987],
[16.9888,60.7693],
[16.796,60.6282],
[15.6005,60.5577],
[15.5089,60.5577],
[14.3209,60.6282],
[13.5973,60.9105],
[13.5102,61.0519],
[13.3261,61.0519],
[12.9661,61.3351],
[12.8738,61.3351],
[12.6836,61.1227],
[12.312,60.9812],
[12.3072,60.7693],
[12.4891,60.6987],
[12.4841,60.4873],
[12.5756,60.4873],
[12.3829,60.0653],
[11.9244,59.9249],
[11.9156,59.4345],
[12.0063,59.4345],
[11.996,58.8761],
[12.0862,58.8761],
[12.1627,58.181],
[11.8904,57.9731],
[11.7115,57.9731],
[11.7074,57.6962]
]
],
[
[
[17.5919,68.5741],
[17.6915,68.5741],
[17.6984,68.6499],
[17.5987,68.6499],
[17.5919,68.5741]
]
],
[
[
[17.6778,68.4227],
[17.8766,68.4227],
[17.8837,68.4984],
[17.6846,68.4984],
[17.6778,68.4227]
]
],
[
[
[17.8907,68.5741],
[18.0755,68.4227],
[18.0827,68.4984],
[18.1969,68.6499],
[17.8907,68.5741]
]
],
[
[
[18.0267,57.4889],
[18.0764,56.9374],
[18.3423,56.9374],
[18.4513,57.2129],
[18.9117,57.4199],
[18.8444,57.6962],
[19.034,57.8346],
[19.0452,57.9731],
[18.598,57.9731],
[18.2301,57.8346],
[18.0316,57.558],
[18.0267,57.4889]
]
]
]}
}
