{
"type": "Feature",
"properties": {"id":"cliopatria-republic-of-genoa-1422","edge_precision":"unknown","cliopatria_name":"Republic of Genoa","cliopatria_from_year":1422,"cliopatria_to_year":1439,"cliopatria_area_km2":9273,"cliopatria_wikidata":"Q174306","cliopatria_wikipedia":"Republic of Genoa","cliopatria_seshat_id":"it_genoa_rep_2"},
"geometry": {"type": "MultiPolygon", "coordinates": [
[
[
[8.863,41.5869],
[8.8641,41.4571],
[9.0233,41.4571],
[9.1038,41.3274],
[9.2624,41.3922],
[9.2611,41.5869],
[8.863,41.5869]
]
],
[
[
[25.7934,39.1911],
[26.1032,39.1265],
[26.0936,38.9972],
[26.2459,38.9326],
[26.6436,38.9972],
[26.5112,39.3203],
[26.1226,39.385],
[26.0439,39.385],
[25.7934,39.1911]
]
],
[
[
[25.8208,38.4806],
[25.8991,38.4806],
[25.8764,38.1578],
[26.1112,38.1578],
[26.2173,38.5451],
[25.9914,38.6743],
[25.913,38.6743],
[25.8208,38.4806]
]
],
[
[
[26.0663,40.6792],
[26.2248,40.6792],
[26.2301,40.744],
[26.0822,40.8736],
[26.0663,40.6792]
]
],
[
[
[26.5574,37.8352],
[26.6217,37.6417],
[27.012,37.6417],
[27.0263,37.8352],
[26.5574,37.8352]
]
],
[
[
[33.4488,44.516],
[33.5298,44.516],
[33.5387,44.5813],
[33.4577,44.5813],
[33.4488,44.516]
]
],
[
[
[33.521,44.4507],
[33.9256,44.4507],
[34.3763,44.7773],
[34.9534,44.8426],
[35.3879,45.0388],
[35.3976,45.1042],
[34.5571,44.908],
[34.4759,44.908],
[34.1239,44.7119],
[34.1148,44.6466],
[34.0337,44.6466],
[33.8537,44.516],
[33.5298,44.516],
[33.521,44.4507]
]
],
[
[
[36.2301,45.235],
[36.3827,45.1696],
[36.4231,45.4313],
[36.2603,45.4313],
[36.2301,45.235]
]
],
[
[
[36.7487,45.4313],
[36.7789,45.1042],
[36.9414,45.1042],
[37.1748,45.0388],
[37.2163,45.3004],
[36.7487,45.4313]
]
],
[
[
[39.1145,47.3348],
[39.1969,47.3348],
[39.1851,47.269],
[39.2674,47.269],
[39.2203,47.0058],
[39.4788,47.0716],
[39.5264,47.3348],
[39.2206,47.4665],
[39.1145,47.3348]
]
]
]}
}
