{
"type": "Feature",
"properties": {"id":"cliopatria-duchy-of-spoleto-0741","edge_precision":"unknown","cliopatria_name":"Duchy of Spoleto","cliopatria_from_year":741,"cliopatria_to_year":749,"cliopatria_area_km2":22756,"cliopatria_wikidata":"Q2829270","cliopatria_wikipedia":"Duchy of Spoleto"},
"geometry": {"type": "MultiPolygon", "coordinates": [
[
[
[12.2133,42.2362],
[12.7735,42.3012],
[13.0097,42.0413],
[13.328,41.9764],
[13.4057,41.8465],
[13.7247,41.8465],
[13.8116,42.2362],
[13.8128,42.3012],
[13.8927,42.3012],
[13.8964,42.4962],
[14.0578,42.5612],
[14.0591,42.6262],
[13.9014,42.7563],
[13.9854,42.9515],
[13.7471,43.0816],
[13.6726,43.4072],
[13.3551,43.6678],
[13.0338,43.733],
[13.0356,43.8634],
[12.8734,43.7982],
[12.6339,43.9938],
[12.5532,43.9938],
[12.3911,43.9286],
[12.3883,43.6678],
[12.2265,43.6027],
[12.3855,43.4072],
[12.3814,43.0165],
[12.3011,43.0165],
[12.3752,42.4312],
[12.2146,42.3662],
[12.2133,42.2362]
]
]
]}
}
