{
"type": "Feature",
"properties": {"id":"cliopatria-almoravid-dynasty-1139","edge_precision":"unknown","cliopatria_name":"Almoravid Dynasty","cliopatria_from_year":1139,"cliopatria_to_year":1151,"cliopatria_area_km2":421286,"cliopatria_wikidata":"Q75613","cliopatria_wikipedia":"Almoravid dynasty","cliopatria_seshat_id":"ma_almoravid_dyn"},
"geometry": {"type": "MultiPolygon", "coordinates": [
[
[
[-9.8815,30.565],
[-9.7297,30.565],
[-9.6451,30.4364],
[-9.6408,30.3722],
[-8.8225,30.6292],
[-8.3155,31.0148],
[-7.8673,31.1434],
[-7.507,31.4647],
[-7.2063,31.529],
[-7.2144,31.6575],
[-7.062,31.6575],
[-6.773,31.9146],
[-6.2506,32.1074],
[-6.1097,32.3002],
[-5.8079,32.3645],
[-4.79,33.2645],
[-4.7976,33.3931],
[-4.502,33.5859],
[-4.3636,33.8432],
[-3.2357,34.2933],
[-3.0924,34.4863],
[-2.7878,34.5506],
[-2.5705,34.8079],
[-2.4162,34.8079],
[-2.1212,35.0653],
[-2.1984,35.0653],
[-2.8198,35.1297],
[-2.8379,35.4514],
[-2.9926,35.4514],
[-2.9816,35.2584],
[-3.2869,35.194],
[-4.7548,35.194],
[-5.2398,35.5158],
[-5.3389,35.8377],
[-5.8766,35.7733],
[-5.9999,35.3227],
[-6.1455,35.194],
[-6.132,35.001],
[-6.2909,35.0653],
[-6.2003,34.8723],
[-6.2775,34.8723],
[-6.3324,34.5506],
[-6.4821,34.4863],
[-6.4732,34.3577],
[-6.6997,34.2933],
[-6.6139,34.1647],
[-6.9038,33.9075],
[-7.062,33.9718],
[-7.1299,33.8432],
[-8.5517,33.3288],
[-9.1985,32.7502],
[-9.3325,32.4931],
[-9.3091,32.1717],
[-9.5242,31.9789],
[-9.515,31.8503],
[-9.7345,31.7218],
[-9.7831,31.3362],
[-9.8593,31.3362],
[-9.8815,30.565]
]
],
[
[
[-9.572,38.9326],
[-9.5531,38.7389],
[-9.3837,38.6097],
[-9.233,38.6743],
[-9.2085,38.416],
[-8.8227,38.4806],
[-8.8188,37.5773],
[-8.8969,37.5773],
[-9.0014,36.9971],
[-8.7011,37.126],
[-7.6779,36.9971],
[-7.4548,37.126],
[-7.4653,37.2549],
[-6.8418,37.2549],
[-6.588,36.9971],
[-6.3495,36.9326],
[-6.3301,36.6749],
[-6.0638,36.224],
[-5.8311,36.224],
[-5.5848,36.0308],
[-5.5162,36.1596],
[-5.2879,36.224],
[-5.2282,36.4816],
[-4.6888,36.546],
[-4.4686,36.7393],
[-2.6801,36.7393],
[-2.5321,36.8682],
[-2.0616,36.8037],
[-1.8574,37.3193],
[-1.6235,37.3193],
[-1.7087,37.4483],
[-0.7048,37.6417],
[-0.8035,38.0288],
[-0.6609,38.2869],
[0.0994,38.7389],
[-0.3137,39.1265],
[-0.3454,39.7083],
[-0.2019,39.967],
[0.107,40.0964],
[0.2478,40.4201],
[0.4784,40.5496],
[0.475,40.6144],
[0.7093,40.6792],
[0.6958,40.9384],
[0.9305,41.0032],
[0.9272,41.068],
[0.8478,41.068],
[0.9206,41.1977],
[0.8343,41.3274],
[1.0729,41.3274],
[1.2254,41.4571],
[1.2189,41.5869],
[1.0563,41.6518],
[0.7377,41.6518],
[0.5713,41.7816],
[0.4916,41.7816],
[0.4951,41.7167],
[0.3466,41.522],
[-0.1273,41.4571],
[-0.2789,41.3274],
[-0.4151,40.9384],
[-0.7286,40.8736],
[-0.7133,40.6144],
[-0.8717,40.6144],
[-1.0184,40.4201],
[-1.2518,40.3554],
[-1.5805,40.5496],
[-1.7347,40.4849],
[-1.8722,40.1612],
[-2.2504,39.9023],
[-2.3912,39.6436],
[-2.9386,39.5789],
[-3.1661,39.4496],
[-4.0418,39.5789],
[-4.2138,39.7729],
[-4.692,39.8376],
[-4.86,39.967],
[-5.4916,39.967],
[-6.7321,39.7083],
[-6.9743,39.7729],
[-7.1994,39.6436],
[-7.9028,39.5789],
[-8.5332,39.5789],
[-9.025,39.7729],
[-9.1039,39.7729],
[-9.1572,39.5143],
[-9.387,39.4496],
[-9.4275,39.0618],
[-9.572,38.9326]
]
],
[
[
[1.1831,39.0618],
[1.2735,38.8034],
[1.4305,38.8034],
[1.6575,38.9972],
[1.6518,39.1265],
[1.2587,39.1265],
[1.1831,39.0618]
]
],
[
[
[2.3381,39.6436],
[2.3461,39.4496],
[2.6586,39.5143],
[2.8237,39.3203],
[3.2958,39.3203],
[3.5158,39.7729],
[3.1979,39.8376],
[3.193,39.967],
[2.8772,39.967],
[2.3381,39.6436]
]
],
[
[
[3.7411,40.0964],
[3.8268,39.9023],
[4.3024,39.8376],
[4.2151,40.0964],
[3.7411,40.0964]
]
]
]}
}
