{
"type": "Feature",
"properties": {"id":"cliopatria-durrani-empire-1752","edge_precision":"unknown","cliopatria_name":"Durrani Empire","cliopatria_from_year":1752,"cliopatria_to_year":1756,"cliopatria_area_km2":970576,"cliopatria_wikidata":"Q467627","cliopatria_wikipedia":"Durrani Empire","cliopatria_seshat_id":"af_durrani_emp"},
"geometry": {"type": "MultiPolygon", "coordinates": [
[
[
[57.734,35.1297],
[57.8112,35.1297],
[57.7989,35.0653],
[57.9533,35.0653],
[58.0059,34.9366],
[59.4078,35.001],
[60.2955,34.8079],
[60.8354,34.422],
[60.5664,34.229],
[60.4915,33.8432],
[60.5684,33.8432],
[60.5959,33.5859],
[60.8906,33.5217],
[60.6884,33.2645],
[60.6164,32.8788],
[60.693,32.8788],
[60.6574,32.6859],
[60.8814,32.236],
[60.8439,31.5933],
[61.1151,31.4005],
[61.7243,31.4005],
[61.9191,31.2076],
[61.8746,30.9506],
[61.4842,30.4364],
[61.5601,30.4364],
[62.3409,30.565],
[63.7838,30.565],
[65.1925,30.3722],
[66.0273,30.3722],
[65.993,30.1794],
[66.122,30.0508],
[66.6944,29.858],
[66.5956,28.8295],
[66.6711,28.8295],
[66.5883,28.3153],
[66.6638,28.3153],
[66.3856,26.9652],
[66.4607,26.9652],
[66.4244,26.708],
[66.5478,26.5151],
[66.2035,25.615],
[66.6203,25.3579],
[66.632,24.8435],
[67.2147,24.7149],
[67.2514,24.3935],
[67.3261,24.3935],
[67.2891,24.072],
[67.3637,24.072],
[67.5352,24.2649],
[67.7614,24.9078],
[68.2173,25.5507],
[68.1938,25.9365],
[68.0614,26.0651],
[67.9922,26.6437],
[67.9171,26.6437],
[68.0865,27.2866],
[68.5219,27.6724],
[69.2302,27.8652],
[70.1658,28.5081],
[70.3949,28.9581],
[70.846,32.0431],
[71.1728,32.4931],
[71.2297,32.7502],
[71.5938,33.0073],
[71.4845,33.2002],
[71.5288,33.3931],
[71.9411,33.8432],
[72.4175,33.9075],
[72.4639,34.1004],
[72.4794,34.1647],
[71.4489,34.6793],
[71.4803,34.8079],
[71.2645,34.8723],
[71.2188,35.001],
[70.4479,35.3227],
[70.2791,35.5802],
[69.9696,35.5802],
[69.5683,35.8377],
[68.624,36.0952],
[68.4228,36.224],
[67.3832,36.0952],
[66.964,36.2884],
[66.3279,36.224],
[66.3578,36.6749],
[66.2178,36.7393],
[66.1719,37.1904],
[65.9077,37.3838],
[65.9396,37.5128],
[65.6274,37.5128],
[65.2388,37.8352],
[64.6615,38.0288],
[64.3669,38.416],
[64.0075,38.5451],
[63.8374,38.8034],
[63.4155,38.9972],
[62.9808,39.4496],
[61.404,38.8034],
[59.7588,38.4806],
[58.9951,38.2224],
[58.6413,37.3193],
[58.5633,37.3193],
[58.0783,35.7089],
[57.7586,35.2584],
[57.734,35.1297]
]
]
]}
}
