{
"type": "Feature",
"properties": {"id":"cliopatria-sabaeans-111bce","edge_precision":"unknown","cliopatria_name":"Sabaeans","cliopatria_from_year":-110,"cliopatria_to_year":-67,"cliopatria_area_km2":35661,"cliopatria_wikidata":"Q940785","cliopatria_wikipedia":"Sabaeans"},
"geometry": {"type": "MultiPolygon", "coordinates": [
[
[
[42.692,15.5218],
[42.7656,15.5218],
[42.8161,15.0718],
[44.2897,15.1361],
[45.025,15.1361],
[45.179,15.2647],
[45.8479,15.3933],
[45.8551,15.5218],
[46.1494,15.5218],
[46.3811,15.7147],
[46.4697,15.9718],
[46.1753,15.9718],
[46.0206,15.8433],
[45.579,15.8433],
[45.3656,15.9718],
[45.2883,15.9076],
[44.3315,15.9076],
[44.1249,16.1647],
[43.3921,16.229],
[43.1081,16.4219],
[42.8135,16.4219],
[42.81,16.3576],
[42.692,15.5218]
]
]
]}
}
