{
"type": "Feature",
"properties": {"id":"cliopatria-eastern-ganga-kingdom-1152","edge_precision":"unknown","cliopatria_name":"Eastern Ganga Kingdom","cliopatria_from_year":1152,"cliopatria_to_year":1259,"cliopatria_area_km2":150813,"cliopatria_wikidata":"Q250515","cliopatria_wikipedia":"Eastern Ganga dynasty","cliopatria_seshat_id":"in_ganga_k"},
"geometry": {"type": "MultiPolygon", "coordinates": [
[
[
[81.9158,20.2498],
[82.5979,19.6529],
[83.7349,18.317],
[83.8397,18.1616],
[84.9963,18.9139],
[85.5647,19.6245],
[86.35,19.8377],
[87.0712,20.5625],
[86.9007,21.131],
[86.986,21.6426],
[86.588,22.1258],
[86.5497,22.445],
[86.2078,22.6091],
[85.5825,22.6943],
[85.0424,22.1827],
[84.5592,21.9553],
[84.0476,22.0406],
[83.337,21.7848],
[82.8538,21.4721],
[82.4558,20.6194],
[81.9158,20.2498]
]
]
]}
}
