{
"type": "Feature",
"properties": {"id":"cliopatria-kingdom-of-bavaria-1811","edge_precision":"unknown","cliopatria_name":"Kingdom of Bavaria","cliopatria_from_year":1811,"cliopatria_to_year":1813,"cliopatria_area_km2":83085,"cliopatria_wikidata":"Q154195","cliopatria_wikipedia":"Kingdom of Bavaria"},
"geometry": {"type": "MultiPolygon", "coordinates": [
[
[
[9.4572,47.5982],
[9.6228,47.5323],
[9.5425,47.269],
[9.543,47.2032],
[9.6253,47.2032],
[9.6258,47.1374],
[9.9564,46.8743],
[10.2028,46.8743],
[10.2845,47.0058],
[10.4492,46.8743],
[10.942,46.7429],
[11.1887,47.0058],
[11.682,47.0058],
[11.7623,46.6772],
[12.0905,46.6772],
[12.1736,46.8086],
[12.1774,47.269],
[12.5081,47.4006],
[12.5109,47.6641],
[12.7585,47.6641],
[12.8394,47.5323],
[13.0878,47.5982],
[12.9245,47.73],
[12.929,48.0597],
[13.26,48.0597],
[13.4289,48.2578],
[13.5946,48.2578],
[13.7642,48.4559],
[14.099,48.5881],
[13.9371,48.7865],
[13.6057,48.8527],
[13.443,49.0513],
[13.1119,49.1838],
[13.113,49.25],
[12.5324,49.5152],
[12.5341,49.6479],
[12.3676,49.7143],
[12.3709,49.98],
[12.204,50.0465],
[12.1223,50.246],
[12.0383,50.246],
[12.0391,50.3125],
[11.955,50.3125],
[11.9557,50.3791],
[11.8716,50.3791],
[11.8723,50.4457],
[11.4517,50.4457],
[11.2824,50.246],
[10.4424,50.246],
[10.4425,50.113],
[10.1071,50.0465],
[10.108,49.7807],
[10.0243,49.7807],
[10.1097,49.3163],
[9.9435,49.1838],
[10.1111,48.9851],
[10.1125,48.6542],
[9.8644,48.4559],
[9.8657,48.2578],
[10.0324,48.0597],
[9.9496,48.0597],
[9.9508,47.8619],
[9.4572,47.5982]
]
]
]}
}
