{
"type": "Feature",
"properties": {"id":"cliopatria-french-mandate-for-syria-and-lebanon-1927","edge_precision":"unknown","cliopatria_name":"French Mandate for Syria and Lebanon","cliopatria_from_year":1927,"cliopatria_to_year":1931,"cliopatria_area_km2":201572,"cliopatria_wikidata":"Q139708","cliopatria_wikipedia":"Mandate for Syria and the Lebanon","cliopatria_seshat_id":"fr_france_modern_1","cliopatria_member_of":"(French Third Republic)"},
"geometry": {"type": "MultiPolygon", "coordinates": [
[
[
[35.2213,33.1359],
[35.4452,33.0716],
[35.7759,33.3288],
[35.911,33.1359],
[35.8163,32.943],
[35.8691,32.6859],
[36.0986,32.6859],
[36.3041,32.4288],
[36.6743,32.3002],
[36.9859,32.3645],
[37.9671,33.0073],
[38.44,33.1359],
[39.0176,33.5217],
[39.4922,33.6502],
[39.5832,33.7789],
[41.042,34.422],
[41.235,34.7436],
[41.4408,35.7733],
[41.3716,35.8377],
[41.3798,35.902],
[41.3355,36.1596],
[41.2579,36.1596],
[41.2913,36.4172],
[42.1113,36.7393],
[42.398,37.126],
[42.2602,37.2549],
[42.0264,37.2549],
[41.6103,37.0615],
[40.7623,37.126],
[39.5371,36.6749],
[38.8374,36.6749],
[38.5498,36.8682],
[38.0051,36.8682],
[37.8344,36.7393],
[37.1975,36.6105],
[36.9085,36.8037],
[36.6752,36.8037],
[36.4635,36.9971],
[36.1449,36.9326],
[36.1378,36.8682],
[36.2862,36.8037],
[36.2649,36.6105],
[35.8417,36.2884],
[35.9901,36.224],
[35.8449,35.5802],
[35.9929,35.5158],
[35.8825,35.194],
[35.9597,35.194],
[35.927,34.8723],
[36.0682,34.7436],
[36.0488,34.5506],
[35.7921,34.2933],
[35.6445,34.3577],
[35.6838,33.9718],
[35.447,33.9075],
[35.4993,33.6502],
[35.3458,33.6502],
[35.3984,33.3931],
[35.2272,33.2002],
[35.2213,33.1359]
]
]
]}
}
