{
"type": "Feature",
"properties": {"id":"cliopatria-halych-volhynia-occupation-1094","edge_precision":"unknown","cliopatria_name":"Halych-Volhynia occupation","cliopatria_from_year":1094,"cliopatria_to_year":1146,"cliopatria_area_km2":407976,"cliopatria_wikidata":"Q239502","cliopatria_wikipedia":"Kingdom of Galicia-Volhynia"},
"geometry": {"type": "MultiPolygon", "coordinates": [
[
[
[22.5044,44.3201],
[22.8946,44.1243],
[22.9518,43.7982],
[23.6018,43.8634],
[24.1509,43.6678],
[24.8814,43.733],
[25.4343,43.6027],
[25.8486,43.733],
[26.2814,44.0591],
[27.4927,44.0591],
[27.8289,44.1896],
[27.943,44.516],
[27.7877,44.5813],
[27.801,44.7119],
[27.9699,44.7773],
[27.9969,45.0388],
[27.8479,45.1696],
[27.8681,45.3659],
[28.2819,45.4313],
[28.3494,45.3004],
[28.6677,45.235],
[29.096,45.4313],
[29.5845,45.4313],
[29.6143,45.6933],
[29.8589,45.6933],
[30.045,45.8898],
[30.2977,45.9554],
[30.8766,46.6772],
[31.6064,46.6115],
[31.7875,46.7429],
[32.0337,46.7429],
[32.1891,46.6772],
[32.1631,46.4802],
[31.8354,46.4802],
[31.8183,46.3489],
[32.064,46.3489],
[32.6837,46.0865],
[32.8471,46.0865],
[32.9467,46.2177],
[33.5919,46.1521],
[33.6103,46.2833],
[34.0194,46.2833],
[34.0825,46.1521],
[34.7367,46.1521],
[34.756,46.2833],
[35.247,46.2833],
[35.6346,46.6772],
[36.8044,46.8086],
[36.9079,46.9401],
[37.2257,46.8743],
[37.1652,47.0058],
[37.5161,47.1374],
[38.6795,47.2032],
[38.9498,47.3348],
[39.0321,47.3348],
[39.2342,47.9938],
[39.1051,48.1917],
[39.1666,48.522],
[38.8839,48.7865],
[38.9088,48.9189],
[38.684,49.0513],
[38.6509,49.3163],
[38.4966,49.3826],
[38.3476,49.9136],
[38.2638,49.9136],
[38.2897,50.0465],
[37.9928,50.246],
[38.0189,50.3791],
[37.7864,50.0465],
[37.606,49.98],
[37.5935,49.9136],
[37.2091,49.6479],
[35.4074,49.3826],
[31.5668,49.3826],
[29.3875,49.3163],
[29.3707,49.1838],
[29.0314,48.4559],
[28.5781,48.1257],
[27.1426,47.8619],
[26.4353,47.4006],
[26.1056,47.4006],
[25.7512,47.1374],
[25.4161,47.0716],
[25.7083,46.6772],
[25.748,46.2177],
[25.9055,46.1521],
[25.8057,45.9554],
[25.5431,45.7588],
[24.5642,45.7588],
[24.4663,45.5623],
[24.1351,45.4968],
[23.3207,45.4968],
[22.9469,44.8426],
[22.5182,44.516],
[22.5044,44.3201]
]
],
[
[
[29.577,45.3659],
[29.6584,45.3659],
[29.6659,45.4313],
[29.5845,45.4313],
[29.577,45.3659]
]
],
[
[
[32.6053,45.4968],
[33.2214,45.235],
[33.4654,45.235],
[33.6011,45.0388],
[34.0884,45.0388],
[34.0793,44.9734],
[34.2416,44.9734],
[34.3763,44.7773],
[34.4574,44.7773],
[35.2971,44.9734],
[35.4073,45.1696],
[35.7324,45.1696],
[35.8753,45.0388],
[36.3726,45.1042],
[36.4231,45.4313],
[35.0199,45.3004],
[34.9864,45.6278],
[34.7419,45.6278],
[34.5446,45.9554],
[34.1549,46.0865],
[33.737,46.0209],
[33.7096,45.8243],
[32.6053,45.4968]
]
]
]}
}
