{
"type": "Feature",
"properties": {"id":"cliopatria-emirate-of-diriyah-1772","edge_precision":"unknown","cliopatria_name":"Emirate of Diriyah","cliopatria_from_year":1772,"cliopatria_to_year":1774,"cliopatria_area_km2":59469,"cliopatria_wikidata":"Q146871","cliopatria_wikipedia":"Emirate of Diriyah"},
"geometry": {"type": "MultiPolygon", "coordinates": [
[
[
[42.8596,25.9365],
[42.9951,25.7436],
[43.7202,25.4221],
[44.0525,24.8435],
[45.2348,24.6506],
[45.6465,24.1363],
[46.2347,24.0077],
[46.3184,24.1363],
[46.4677,24.1363],
[46.7199,24.5221],
[46.395,25.165],
[46.4361,25.6793],
[46.3612,25.6793],
[46.4681,26.0651],
[46.2596,26.258],
[45.9595,26.258],
[44.9897,26.3222],
[44.8291,26.1937],
[44.4541,26.1937],
[44.1644,26.3222],
[43.4142,26.3222],
[42.9541,26.1937],
[42.8596,25.9365]
]
]
]}
}
