{
"type": "Feature",
"properties": {"id":"cliopatria-tibetan-empire-0682","edge_precision":"unknown","cliopatria_name":"Tibetan Empire","cliopatria_from_year":682,"cliopatria_to_year":691,"cliopatria_area_km2":3218239,"cliopatria_wikidata":"Q2431480","cliopatria_wikipedia":"Tibetan Empire","cliopatria_seshat_id":"cn_tibet_k"},
"geometry": {"type": "MultiPolygon", "coordinates": [
[
[
[71.2727,38.9972],
[71.3513,38.9972],
[71.2949,38.8034],
[71.4558,38.5451],
[71.3039,38.2869],
[71.2738,37.8998],
[71.5685,37.8352],
[71.462,36.8682],
[71.5834,36.7393],
[71.8945,36.7393],
[72.3352,36.9326],
[72.2489,36.6105],
[72.2585,36.3528],
[72.5014,36.0952],
[72.4678,35.9664],
[72.7443,35.8377],
[72.711,35.7089],
[73.2142,35.2584],
[73.2096,35.2403],
[73.4075,35.3927],
[73.2151,35.964],
[73.0426,36.3551],
[72.6246,36.8611],
[73.8455,36.9142],
[74.1441,36.6857],
[74.7147,36.6271],
[74.8142,36.2963],
[75.3517,35.8619],
[75.9316,35.5802],
[76.6772,35.7733],
[76.7193,35.6445],
[76.9936,35.5158],
[77.9814,35.4514],
[78.1004,35.3227],
[78.0649,35.194],
[78.2261,34.9366],
[78.0447,34.5506],
[78.1217,34.5506],
[78.0452,33.9718],
[78.1221,33.9718],
[78.1588,33.5217],
[78.367,33.1359],
[78.3183,32.943],
[78.5282,32.5574],
[78.465,32.3002],
[78.7987,31.7861],
[78.7529,31.5933],
[78.8291,31.5933],
[79.1034,31.4647],
[79.455,31.0148],
[79.9724,30.9506],
[80.2636,30.565],
[80.8417,30.4364],
[81.0724,30.1151],
[81.3757,30.1151],
[81.7586,29.7937],
[81.9858,29.7937],
[82.4589,29.5366],
[83.263,29.4081],
[83.5846,29.1509],
[84.2368,29.0224],
[84.4077,28.7652],
[84.6959,28.701],
[84.7438,28.5724],
[85.1967,28.5724],
[85.0938,28.4438],
[85.142,28.3153],
[85.7454,28.3153],
[85.9659,27.9295],
[86.2323,28.1224],
[86.3426,27.9295],
[86.8217,28.0581],
[87.3703,27.8009],
[87.7469,27.8009],
[88.2124,27.8652],
[88.5552,28.0581],
[88.8427,27.9938],
[88.8706,28.1224],
[89.6244,28.1224],
[89.969,28.3153],
[90.1952,28.3153],
[90.3316,28.251],
[90.364,28.0581],
[90.8162,28.0581],
[90.9383,27.9295],
[91.193,28.0581],
[91.6307,27.9938],
[91.6068,27.5438],
[92.0166,27.3509],
[92.2701,27.4795],
[93.2015,27.6081],
[95.8001,29.0224],
[96.1352,29.1509],
[96.27,29.0867],
[96.303,29.2152],
[96.5298,29.2152],
[99.4789,30.3079],
[100.9032,31.0148],
[100.9792,31.0148],
[101.6869,32.7502],
[102.5516,33.2645],
[103.0341,33.3288],
[103.332,33.5217],
[103.4928,33.9718],
[103.3856,34.1004],
[103.5267,34.4863],
[103.4496,34.4863],
[103.7353,35.4514],
[103.63,35.5802],
[103.7298,35.8377],
[103.6523,35.8377],
[103.7278,36.0308],
[103.5967,36.2884],
[103.6479,36.4172],
[103.3886,36.546],
[103.2589,36.8037],
[103.1033,36.8037],
[102.793,37.1904],
[102.5593,37.1904],
[102.534,37.3193],
[102.2485,37.3838],
[102.094,37.5773],
[102.0961,37.7707],
[101.4733,37.9643],
[101.3708,38.0933],
[101.1361,38.0933],
[101.0337,38.2224],
[100.591,38.2869],
[100.2335,38.7389],
[99.5588,38.9972],
[99.5866,39.0618],
[99.3508,39.0618],
[99.1984,39.2557],
[97.6015,39.385],
[97.6292,39.4496],
[96.9717,39.385],
[96.9992,39.4496],
[96.6842,39.4496],
[96.7117,39.5143],
[95.6089,39.5143],
[95.6361,39.5789],
[93.2722,39.5789],
[93.2734,39.7729],
[93.0905,39.9023],
[93.3606,40.3554],
[93.2815,40.3554],
[93.3649,40.5496],
[93.5745,40.4849],
[93.8455,40.744],
[93.7662,40.744],
[92.769,41.0032],
[92.7974,41.068],
[92.321,41.068],
[92.3493,41.1328],
[91.2702,41.3922],
[90.7753,41.7167],
[89.7727,41.9764],
[89.6929,41.9764],
[88.8199,42.1712],
[88.8482,42.2362],
[87.2536,42.4312],
[87.2817,42.4962],
[85.7638,42.6912],
[85.7915,42.7563],
[84.1886,42.7563],
[82.0557,42.2362],
[80.1338,42.4312],
[80.0032,42.3012],
[77.4299,41.3922],
[74.7506,41.0032],
[73.3218,41.0032],
[73.0773,40.744],
[72.0807,40.3554],
[71.643,39.967],
[71.2727,38.9972]
]
],
[
[
[93.8455,40.744],
[93.9247,40.744],
[93.9532,40.8088],
[93.8739,40.8088],
[93.8455,40.744]
]
]
]}
}
