{
"type": "Feature",
"properties": {"id":"cliopatria-sokoto-caliphate-1836","edge_precision":"unknown","cliopatria_name":"Sokoto Caliphate","cliopatria_from_year":1836,"cliopatria_to_year":1839,"cliopatria_area_km2":798855,"cliopatria_wikidata":"Q600524","cliopatria_wikipedia":"Sokoto Caliphate"},
"geometry": {"type": "MultiPolygon", "coordinates": [
[
[
[-0.2567,14.1718],
[-0.1077,13.8503],
[0.1135,13.6575],
[0.0402,13.6575],
[0.0406,13.5932],
[0.114,13.5932],
[0.1144,13.5289],
[0.1877,13.5289],
[0.1874,13.593],
[0.5558,13.2718],
[0.8495,13.2075],
[0.85,13.0789],
[1.9508,12.7575],
[2.171,12.5646],
[2.3175,12.6289],
[2.4643,12.5003],
[2.6841,12.5003],
[3.1972,12.1146],
[3.3436,11.8574],
[3.4901,11.8574],
[3.5632,11.7289],
[3.8563,11.8574],
[4.4413,11.4074],
[4.5863,10.8931],
[4.7327,10.8931],
[4.7318,10.636],
[4.5848,10.4431],
[4.5823,9.8002],
[4.7263,9.3502],
[4.5805,9.4145],
[4.286,8.9645],
[4.0665,8.9002],
[3.9928,8.7716],
[4.0644,8.5145],
[3.4027,7.743],
[3.547,7.4859],
[3.9118,7.4859],
[3.9132,7.6787],
[4.06,7.8073],
[4.2785,7.743],
[4.5722,8.0002],
[5.0098,7.9359],
[4.9381,8.1288],
[5.158,8.2573],
[5.1593,8.4502],
[5.5992,8.7073],
[6.4021,8.6431],
[6.4727,8.3216],
[6.6913,8.2573],
[6.6167,8.0645],
[6.7632,8.1288],
[6.7616,7.9359],
[7.564,7.8716],
[8.5098,7.5502],
[8.8017,7.5502],
[9.2422,7.8073],
[9.6065,7.743],
[9.7538,7.8716],
[10.6304,7.9359],
[11.2895,8.1288],
[11.3596,7.8716],
[11.6508,7.8073],
[11.6485,7.6145],
[11.793,7.4859],
[11.7137,6.9716],
[11.4933,6.843],
[11.4909,6.6501],
[11.9252,6.393],
[12.5815,6.393],
[12.8012,6.4573],
[12.9505,6.7144],
[13.983,7.5502],
[13.9847,7.6787],
[14.4296,8.193],
[14.7216,8.193],
[15.3831,8.5145],
[15.4597,8.7716],
[15.6058,8.7716],
[15.5363,9.0288],
[15.7573,9.1574],
[15.8348,9.4788],
[16.0567,9.6717],
[16.2751,9.6074],
[16.4231,9.7359],
[16.5007,10.0574],
[16.5017,10.1217],
[15.0368,9.9288],
[14.9654,10.0574],
[14.2374,10.3145],
[13.8068,11.0217],
[13.8895,11.8574],
[13.8163,11.8574],
[13.8241,12.5646],
[13.5364,13.0789],
[13.2456,13.336],
[12.8061,13.4003],
[12.5837,13.1432],
[12.1431,13.0789],
[11.8514,13.2718],
[10.7521,13.4003],
[10.6787,13.4003],
[10.091,13.2718],
[9.6482,12.8217],
[9.355,12.8217],
[8.9154,12.886],
[8.8428,13.0146],
[8.4768,13.1432],
[8.2565,13.0789],
[8.1104,13.2075],
[7.8903,13.2075],
[7.8175,13.336],
[7.5972,13.2718],
[6.6441,13.4646],
[6.4978,13.6575],
[6.4244,13.6575],
[6.0576,13.7218],
[5.5441,14.0432],
[5.4705,14.9432],
[5.3232,15.2004],
[5.0292,15.1361],
[4.809,14.8789],
[4.5153,14.7504],
[4.2948,14.7504],
[3.8549,14.3646],
[3.6345,14.3646],
[2.8279,13.9789],
[1.4331,13.9789],
[0.9912,14.2361],
[0.329,14.4289],
[-0.0378,14.3646],
[-0.2567,14.1718]
],
[
[0.114,13.5932],
[0.1136,13.6573],
[0.1872,13.5932],
[0.114,13.5932]
]
]
]}
}
