{
"type": "Feature",
"properties": {"id":"cliopatria-aetolian-league-207bce","edge_precision":"unknown","cliopatria_name":"Aetolian League","cliopatria_from_year":-206,"cliopatria_to_year":-203,"cliopatria_area_km2":11391,"cliopatria_wikidata":"Q245273","cliopatria_wikipedia":"Aetolian League"},
"geometry": {"type": "MultiPolygon", "coordinates": [
[
[
[20.5303,39.3203],
[20.6783,39.1265],
[21.1435,38.9972],
[21.1403,38.9326],
[21.2908,38.8034],
[21.35,38.416],
[22.6001,38.3515],
[22.6784,38.3515],
[22.7749,38.6743],
[22.618,38.6743],
[22.6253,38.8034],
[22.3898,38.8034],
[22.5615,39.0618],
[22.4903,39.1911],
[22.2543,39.1911],
[21.7004,39.1265],
[21.5364,38.9972],
[21.4713,39.2557],
[21.3173,39.3203],
[21.3139,39.2557],
[21.0746,39.1911],
[20.8451,39.3203],
[20.5303,39.3203]
]
]
]}
}
