{
"type": "Feature",
"properties": {"id":"cliopatria-antigonid-macedonia-272bce","edge_precision":"unknown","cliopatria_name":"Antigonid Macedonia","cliopatria_from_year":-271,"cliopatria_to_year":-265,"cliopatria_area_km2":116033,"cliopatria_wikidata":"Q237325","cliopatria_wikipedia":"Antigonid dynasty","cliopatria_seshat_id":"gr_antigonid_emp"},
"geometry": {"type": "MultiPolygon", "coordinates": [
[
[
[20.5399,41.068],
[20.6988,41.068],
[21.002,40.8088],
[20.9914,40.6144],
[20.7469,40.4849],
[20.5686,40.0964],
[20.8056,40.0964],
[20.9434,39.7083],
[21.4713,39.2557],
[21.4611,39.0618],
[21.5397,39.0618],
[21.5364,38.9972],
[21.7004,39.1265],
[22.4903,39.1911],
[22.5578,38.9972],
[22.397,38.9326],
[22.3898,38.8034],
[22.5468,38.8034],
[22.4469,38.416],
[22.5253,38.416],
[22.9881,38.2869],
[23.059,38.1578],
[22.9699,37.9643],
[22.6607,38.0288],
[22.5825,38.0288],
[22.2662,37.9643],
[22.1199,38.1578],
[21.9634,38.1578],
[21.9567,38.0288],
[21.4124,38.0933],
[21.3342,38.0933],
[21.2436,37.8352],
[21.6966,37.5128],
[21.6031,37.1904],
[21.681,37.1904],
[21.7435,36.8682],
[21.8992,36.8682],
[21.9085,37.0615],
[22.22,37.0615],
[22.3563,36.6749],
[22.5118,36.6749],
[22.5994,36.8682],
[22.8328,36.8682],
[23.056,36.6749],
[22.8532,37.2549],
[22.7007,37.3193],
[22.7144,37.5773],
[22.9486,37.5773],
[23.1756,37.4483],
[23.1685,37.3193],
[23.4024,37.3193],
[23.3425,37.6417],
[23.1083,37.6417],
[23.0445,37.8998],
[23.2008,37.8998],
[23.2082,38.0288],
[23.4428,38.0288],
[23.9786,37.8352],
[24.0021,38.2224],
[24.1587,38.2224],
[24.1789,38.5451],
[24.0302,38.6743],
[23.5634,38.7389],
[23.6261,38.4806],
[23.3126,38.4806],
[23.1672,38.6743],
[22.9356,38.7389],
[23.0254,38.9326],
[23.3318,38.8034],
[23.4928,38.868],
[22.9583,39.1265],
[22.7973,39.0618],
[22.8163,39.385],
[23.1352,39.4496],
[22.6109,39.9023],
[22.7017,40.0964],
[22.5437,40.0964],
[22.5716,40.5496],
[22.8925,40.6144],
[22.9592,40.4201],
[23.7374,40.2259],
[23.8386,40.5496],
[23.6846,40.6144],
[23.698,40.8088],
[24.0106,40.744],
[24.3466,41.0032],
[25.8495,40.9384],
[26.0822,40.8736],
[26.0716,40.744],
[26.621,40.6792],
[27.1813,40.744],
[27.5275,41.068],
[28.0773,41.0032],
[28.0833,41.068],
[28.2058,41.522],
[28.2854,41.522],
[28.2917,41.5869],
[28.1387,41.6518],
[27.7282,41.522],
[27.6306,41.3274],
[27.4716,41.3274],
[27.4835,41.4571],
[27.0915,41.522],
[26.9036,41.1977],
[26.1776,41.068],
[26.0295,41.1977],
[24.7632,41.2625],
[24.8526,41.3922],
[24.5542,41.6518],
[24.2356,41.6518],
[24.2308,41.5869],
[23.6688,41.522],
[23.528,41.7816],
[23.0542,41.8465],
[22.7528,42.1063],
[22.5931,42.1063],
[22.442,42.2362],
[22.455,42.4312],
[21.0797,42.1712],
[21.0607,41.8465],
[21.1404,41.8465],
[21.0495,41.6518],
[21.1254,41.5869],
[20.8032,41.522],
[20.8755,41.3922],
[20.5469,41.1977],
[20.5399,41.068]
]
],
[
[
[20.6127,37.7062],
[20.9221,37.6417],
[20.934,37.8998],
[20.6213,37.8998],
[20.6127,37.7062]
]
],
[
[
[22.874,36.1596],
[23.1068,36.1596],
[23.1168,36.3528],
[22.9649,36.4172],
[22.8872,36.4172],
[22.874,36.1596]
]
],
[
[
[23.4849,38.7389],
[23.5634,38.7389],
[23.5673,38.8034],
[23.4888,38.8034],
[23.4849,38.7389]
]
],
[
[
[24.491,40.8088],
[24.5513,40.5496],
[24.7936,40.6144],
[24.8081,40.8088],
[24.491,40.8088]
]
],
[
[
[25.1606,41.2625],
[25.2401,41.2625],
[25.2452,41.3274],
[25.1657,41.3274],
[25.1606,41.2625]
]
]
]}
}
