{
"type": "Feature",
"properties": {"id":"cliopatria-electorate-of-brandenburg-1431","edge_precision":"unknown","cliopatria_name":"Electorate of Brandenburg","cliopatria_from_year":1431,"cliopatria_to_year":1458,"cliopatria_area_km2":40992,"cliopatria_wikidata":"Q148499","cliopatria_wikipedia":"Margraviate of Brandenburg","cliopatria_seshat_id":"de_hohenzollern_1","cliopatria_member_of":"(Holy Roman Empire)"},
"geometry": {"type": "MultiPolygon", "coordinates": [
[
[
[10.1925,49.5152],
[10.1932,49.3163],
[10.3601,49.3163],
[10.4438,49.1838],
[10.4439,49.1175],
[10.5272,49.1175],
[10.944,49.1838],
[11.1114,49.3826],
[11.2783,49.3826],
[11.2792,49.5816],
[10.9448,49.5816],
[10.8615,49.7807],
[10.3593,49.7143],
[10.443,49.6479],
[10.4431,49.5816],
[10.1925,49.5152]
]
],
[
[
[11.0438,52.8554],
[11.127,52.5191],
[11.8967,52.5863],
[12.3274,52.7881],
[12.3252,52.6535],
[12.5781,52.4519],
[12.4051,52.3176],
[12.4029,52.1833],
[13.4221,52.0492],
[13.4254,52.1833],
[13.9404,52.3176],
[14.3605,52.1163],
[14.616,52.1163],
[14.7794,51.9151],
[14.8691,52.0492],
[15.0394,52.0492],
[15.132,52.2505],
[15.4703,52.1833],
[15.6462,52.3176],
[15.4893,52.6535],
[15.2568,53.2596],
[14.4766,53.0574],
[14.2257,53.2596],
[14.316,53.3946],
[13.896,53.7323],
[13.5492,53.6647],
[13.1962,53.3271],
[12.1656,53.3946],
[11.9104,53.5971],
[11.7381,53.5971],
[11.5635,53.3946],
[11.3061,53.4621],
[11.1329,53.3271],
[11.2178,53.1922],
[11.3895,53.1922],
[11.3882,53.0574],
[11.2167,53.0574],
[11.0438,52.8554]
]
],
[
[
[11.3635,49.7143],
[11.783,49.8471],
[11.953,50.113],
[12.2048,50.113],
[12.2056,50.1795],
[11.9557,50.3791],
[11.7876,50.3791],
[11.7864,50.246],
[11.7024,50.246],
[11.7846,50.0465],
[11.4491,50.0465],
[11.3635,49.7143]
]
]
]}
}
