{
"type": "Feature",
"properties": {"id":"cliopatria-duchy-of-bavaria-1632","edge_precision":"unknown","cliopatria_name":"Duchy of Bavaria","cliopatria_from_year":1632,"cliopatria_to_year":1635,"cliopatria_area_km2":25961,"cliopatria_wikidata":"Q47261","cliopatria_wikipedia":"Duchy of Bavaria","cliopatria_seshat_id":"de_bavaria_1"},
"geometry": {"type": "MultiPolygon", "coordinates": [
[
[
[10.4469,47.7959],
[10.6948,47.73],
[10.6124,47.5982],
[11.1896,47.4006],
[11.6026,47.5982],
[12.5109,47.6641],
[13.0044,47.5323],
[13.0887,47.6641],
[12.9245,47.73],
[12.929,48.0597],
[13.1773,48.0597],
[13.8472,48.4559],
[13.7668,48.5881],
[13.2685,48.5881],
[13.1898,48.8527],
[13.3562,48.8527],
[13.3585,48.9851],
[13.0296,49.25],
[12.8608,49.1175],
[12.6108,49.1175],
[12.5242,48.8527],
[12.3571,48.7865],
[12.1095,48.9851],
[11.8597,48.9851],
[11.8587,48.8527],
[11.6087,48.7865],
[11.608,48.6542],
[11.5249,48.6542],
[11.4396,48.1257],
[10.5285,48.3238],
[10.4469,47.7959]
]
]
]}
}
