{
"type": "Feature",
"properties": {"id":"cliopatria-principality-of-turov-1314","edge_precision":"unknown","cliopatria_name":"Principality of Turov","cliopatria_from_year":1314,"cliopatria_to_year":1325,"cliopatria_area_km2":29467,"cliopatria_wikidata":"Q671362","cliopatria_wikipedia":"Principality of Turov"},
"geometry": {"type": "MultiPolygon", "coordinates": [
[
[
[27.211,51.3797],
[27.9148,51.5803],
[28.4122,52.1163],
[29.2638,52.1163],
[29.3005,51.7811],
[29.6767,51.4465],
[30.2698,51.4465],
[30.3347,51.3128],
[30.504,51.3128],
[30.5986,51.3797],
[30.524,51.4465],
[30.585,51.8481],
[30.4355,51.9822],
[30.4561,52.1163],
[30.402,52.3176],
[30.1667,52.4519],
[30.2084,52.7208],
[29.9621,52.7881],
[30.0357,53.2596],
[29.9604,53.3271],
[29.7675,53.1922],
[29.5098,53.1922],
[28.241,53.3271],
[28.2024,53.0574],
[27.6997,52.5191],
[27.6726,52.3176],
[27.4931,52.2505],
[27.211,51.3797]
]
]
]}
}
