{
"type": "Feature",
"properties": {"id":"cliopatria-kara-khitans-1126","edge_precision":"unknown","cliopatria_name":"Kara-Khitans","cliopatria_from_year":1126,"cliopatria_to_year":1138,"cliopatria_area_km2":376585,"cliopatria_wikidata":"Q862304","cliopatria_wikipedia":"Qara Khitai"},
"geometry": {"type": "MultiPolygon", "coordinates": [
[
[
[88.7404,45.3659],
[89.8676,45.1696],
[90.1496,44.908],
[90.393,44.908],
[90.4931,44.7773],
[90.9484,44.7119],
[91.0481,44.5813],
[91.5524,44.4507],
[92.0489,43.7982],
[92.2102,43.7982],
[92.4086,43.5375],
[92.3966,43.3421],
[92.477,43.3421],
[94.2013,43.0816],
[94.1702,43.0165],
[96.4023,42.8213],
[96.4993,42.6912],
[98.1016,42.6912],
[98.9504,42.6262],
[98.918,42.5612],
[99.5584,42.5612],
[99.784,42.6912],
[99.8169,42.7563],
[99.8689,43.0165],
[99.7887,43.0165],
[99.9423,43.4723],
[99.8618,43.4723],
[100.0526,43.9938],
[99.9719,43.9938],
[100.1555,44.1896],
[99.9939,44.1896],
[100.0971,44.3854],
[100.0044,44.516],
[100.1556,45.1042],
[100.0744,45.1042],
[100.215,45.3659],
[100.1228,45.4968],
[101.0341,46.4145],
[101.099,46.6772],
[101.0087,46.8086],
[98.1046,47.2032],
[98.1409,47.269],
[97.8116,47.269],
[97.8018,47.4006],
[97.0601,47.4006],
[96.9675,47.5323],
[96.0602,47.5323],
[96.0961,47.5982],
[93.6783,47.8619],
[93.5836,47.9938],
[93.0521,47.9278],
[91.9168,47.3348],
[91.3555,47.2032],
[91.371,47.0716],
[90.9759,46.9401],
[90.8608,46.8743],
[90.8772,46.7429],
[89.3462,45.9554],
[88.802,45.4968],
[88.7404,45.3659]
]
]
]}
}
