{
"type": "Feature",
"properties": {"id":"cliopatria-seleucid-empire-302bce","edge_precision":"unknown","cliopatria_name":"Seleucid Empire","cliopatria_from_year":-301,"cliopatria_to_year":-292,"cliopatria_area_km2":2975895,"cliopatria_wikidata":"Q705904","cliopatria_wikipedia":"Seleucid dynasty","cliopatria_seshat_id":"ir_seleucid_emp"},
"geometry": {"type": "MultiPolygon", "coordinates": [
[
[
[31.5299,38.3515],
[31.6185,37.6417],
[32.0338,37.8998],
[33.6753,37.8998],
[34.358,37.7062],
[35.6712,37.5773],
[35.9981,37.7062],
[36.3481,38.0288],
[37.1146,37.8998],
[37.764,38.0933],
[39.1722,38.0933],
[39.599,37.7707],
[39.5488,37.3838],
[39.1345,37.1904],
[38.2696,37.126],
[38.1762,36.9971],
[38.0205,36.9971],
[37.9975,36.8037],
[37.2753,36.6105],
[36.1872,36.6105],
[35.8486,36.3528],
[35.9901,36.224],
[35.8717,35.8377],
[35.8449,35.5802],
[35.9929,35.5158],
[35.8957,35.3227],
[35.8891,35.2584],
[36.2688,35.194],
[36.165,34.9366],
[36.3128,34.8723],
[36.293,34.6793],
[36.4406,34.615],
[36.5619,34.2933],
[36.8698,34.2933],
[37.0039,34.1004],
[37.3885,34.1004],
[37.5991,33.9075],
[37.6493,33.6502],
[37.7261,33.6502],
[37.7395,33.7789],
[37.9902,33.9718],
[39.1238,34.4863],
[40.2569,34.2933],
[40.4033,34.229],
[40.3115,34.1004],
[40.7036,34.1647],
[40.9117,33.9718],
[41.2116,33.9075],
[41.2733,33.7789],
[41.427,33.7789],
[41.4886,33.6502],
[42.0031,33.4574],
[42.0645,33.3288],
[42.5783,33.1359],
[42.7085,32.943],
[43.1526,32.8145],
[44.459,31.5933],
[44.5814,31.3362],
[44.9546,31.2719],
[45.7705,30.4364],
[46.5906,30.3079],
[46.6151,29.858],
[46.8497,29.9223],
[46.994,29.858],
[46.9794,29.7294],
[47.2897,29.7937],
[47.6464,29.6009],
[48.0933,29.5366],
[48.4035,29.6009],
[48.3654,29.9223],
[48.9873,30.0508],
[48.9428,30.3079],
[49.5859,29.9865],
[50.0648,30.1794],
[50.2363,29.7294],
[50.6513,29.4081],
[50.6203,29.1509],
[50.915,29.0867],
[50.809,28.8295],
[51.0281,28.7652],
[51.0662,28.4438],
[51.3313,28.1224],
[51.3168,27.9938],
[51.5967,27.8009],
[52.0486,27.8009],
[52.4787,27.6081],
[52.737,27.2223],
[53.4606,26.9652],
[53.6581,26.708],
[54.2589,26.708],
[54.4632,26.5151],
[54.8316,26.4508],
[55.2423,26.7723],
[55.5427,26.7723],
[55.3102,26.708],
[55.2889,26.5151],
[55.439,26.5151],
[55.6034,26.6437],
[56.0612,26.708],
[56.3086,26.9009],
[56.3236,27.0295],
[56.0981,27.0295],
[56.1884,27.158],
[56.7147,27.158],
[57.0524,26.8366],
[57.1757,25.9365],
[57.3795,25.7436],
[57.6792,25.7436],
[57.7402,25.615],
[58.7817,25.5507],
[59.0602,25.3579],
[60.6321,25.3579],
[60.6178,25.2293],
[60.9171,25.2293],
[61.1274,25.1007],
[61.6582,25.165],
[61.7187,25.0364],
[62.5561,25.165],
[62.5634,25.2293],
[63.2038,26.7723],
[63.3625,26.8366],
[63.5919,27.4152],
[64.365,28.5724],
[64.526,28.6367],
[64.738,29.0224],
[65.1683,29.3438],
[65.1897,29.4723],
[65.4275,29.5366],
[65.6226,29.7937],
[66.0462,30.0508],
[66.7508,31.4005],
[67.1056,31.6575],
[68.523,33.3288],
[68.9778,33.6502],
[69.3249,34.1647],
[69.4936,34.229],
[69.5384,34.422],
[69.8918,34.615],
[70.541,35.3871],
[70.5886,35.5802],
[71.6612,36.7393],
[71.825,37.0615],
[72.4161,37.5128],
[72.434,37.5773],
[71.9412,37.7707],
[71.779,38.0288],
[71.364,38.2224],
[71.2021,38.4806],
[70.5933,38.5451],
[70.63,38.6743],
[70.3581,38.5451],
[70.3162,38.6743],
[69.5679,38.8034],
[69.4053,39.0618],
[69.5208,39.1911],
[69.3635,39.1911],
[69.3592,39.4496],
[69.2805,39.4496],
[69.4157,39.6436],
[69.3369,39.6436],
[69.3342,39.9023],
[69.8856,40.1612],
[69.846,40.2906],
[70.7377,40.6144],
[70.7786,40.744],
[70.6405,40.8088],
[70.6817,40.9384],
[70.5643,41.068],
[69.8072,40.6792],
[69.6097,40.8088],
[69.2725,40.744],
[69.1931,40.4849],
[69.2722,40.4849],
[69.2729,40.2259],
[69.0357,40.2259],
[68.997,40.0964],
[68.6239,39.9023],
[68.5301,39.5789],
[66.2199,39.7729],
[65.5638,39.967],
[65.2301,39.9023],
[64.8889,40.0964],
[63.4669,40.0964],
[62.8795,39.967],
[62.5018,40.0317],
[60.9495,39.5143],
[60.6504,39.5789],
[60.6184,39.4496],
[60.2562,39.2557],
[58.627,38.6743],
[57.55,38.416],
[56.6742,38.3515],
[56.2279,38.0933],
[55.2891,38.0933],
[54.8456,37.8352],
[54.7033,37.5128],
[53.976,37.3838],
[54.0947,37.1904],
[54.0333,36.8682],
[53.0877,36.8037],
[52.1859,36.546],
[52.1082,36.546],
[52.0076,36.4172],
[50.8546,36.0308],
[50.4804,35.6445],
[49.6082,35.5158],
[49.4127,35.2584],
[48.7745,35.1297],
[47.9542,35.3227],
[46.031,35.3871],
[45.2171,35.6445],
[45.1952,36.0308],
[45.1177,36.0308],
[45.2509,36.9326],
[44.8713,36.9971],
[44.7446,37.1904],
[44.7738,37.3838],
[44.4131,37.5773],
[43.9448,37.5773],
[42.5082,37.8998],
[41.961,37.8998],
[41.6666,38.0288],
[40.5716,38.0288],
[40.5983,38.2224],
[40.4507,38.2869],
[39.45,38.416],
[38.7525,39.0618],
[38.6739,39.0618],
[38.3768,39.1911],
[38.473,39.3203],
[37.8607,39.4496],
[36.1528,39.6436],
[35.6718,39.5789],
[35.593,39.5789],
[34.9471,39.4496],
[34.688,39.2557],
[34.658,38.9972],
[34.4934,38.9326],
[34.4787,38.8034],
[33.7008,38.868],
[33.6726,38.6097],
[33.5088,38.5451],
[33.2736,38.5451],
[33.001,38.9326],
[32.8439,38.9326],
[32.5029,38.6743],
[31.8817,38.7389],
[31.5299,38.3515]
]
],
[
[
[38.6826,39.1265],
[38.7613,39.1265],
[38.7701,39.1911],
[38.6914,39.1911],
[38.6826,39.1265]
]
],
[
[
[70.3404,40.3554],
[70.4195,40.3554],
[70.4395,40.4201],
[70.3604,40.4201],
[70.3404,40.3554]
]
]
]}
}
