{
"type": "Feature",
"properties": {"id":"cliopatria-first-bulgarian-empire-1000","edge_precision":"unknown","cliopatria_name":"First Bulgarian Empire","cliopatria_from_year":1000,"cliopatria_to_year":1002,"cliopatria_area_km2":281444,"cliopatria_wikidata":"Q203817","cliopatria_wikipedia":"First Bulgarian Empire","cliopatria_seshat_id":"bg_bulgaria_medieval"},
"geometry": {"type": "MultiPolygon", "coordinates": [
[
[
[18.4814,43.0165],
[19.6352,42.0413],
[19.715,42.0413],
[19.7084,41.9114],
[19.4691,41.9114],
[19.5424,41.7816],
[19.4222,40.9384],
[19.4985,40.8736],
[19.2545,40.744],
[19.2487,40.6144],
[19.4863,40.6144],
[19.4714,40.2906],
[19.6295,40.2906],
[20.0094,39.967],
[19.9184,39.7083],
[20.155,39.7083],
[20.2972,39.385],
[20.376,39.385],
[22.4116,39.1911],
[22.8279,39.5789],
[22.6742,39.6436],
[22.682,39.7729],
[22.3857,40.0964],
[22.5045,40.744],
[22.9972,41.0032],
[23.4734,41.0032],
[24.2067,41.2625],
[24.5247,41.2625],
[24.7781,41.4571],
[24.7983,41.7167],
[24.4945,41.9114],
[24.5045,42.0413],
[25.6771,42.6912],
[25.7572,42.6912],
[25.7629,42.7563],
[27.792,43.0165],
[27.7985,43.0816],
[27.9851,43.3421],
[28.2264,43.3421],
[28.1592,43.4723],
[28.4811,43.4723],
[28.6163,43.9938],
[28.5356,43.9938],
[28.5769,44.3854],
[28.8407,44.5813],
[28.802,44.9734],
[29.0456,44.9734],
[29.0241,44.7773],
[29.1935,44.8426],
[29.2746,44.8426],
[29.6213,45.0388],
[29.6659,45.4313],
[29.1847,45.4968],
[28.7561,45.3004],
[28.4307,45.3004],
[28.275,45.3659],
[28.2888,45.4968],
[28.0513,45.5623],
[28.0376,45.4313],
[27.7867,45.3659],
[27.7666,45.1696],
[27.9224,45.1042],
[27.8888,44.7773],
[27.7266,44.7773],
[27.7067,44.5813],
[27.8687,44.5813],
[27.8488,44.3854],
[27.9297,44.3854],
[27.7481,44.1896],
[26.3682,44.1243],
[26.0333,43.9938],
[25.768,43.733],
[25.2788,43.6678],
[24.8062,43.7982],
[24.0754,43.733],
[23.9244,43.8634],
[23.3647,43.9286],
[23.47,44.2548],
[23.3891,44.2548],
[23.3328,44.5813],
[23.4187,44.6466],
[22.9421,44.7773],
[22.8752,44.9734],
[22.88,45.0388],
[22.6363,45.0388],
[22.5412,44.8426],
[22.2979,44.8426],
[22.1267,44.7119],
[22.1178,44.5813],
[21.8748,44.5813],
[21.4055,44.8426],
[21.081,44.8426],
[20.8297,44.7119],
[20.5904,44.7773],
[20.5284,45.1042],
[20.2884,45.1696],
[20.1369,45.3659],
[19.8856,45.235],
[19.2351,45.235],
[19.1406,44.9734],
[19.2996,44.908],
[19.2862,44.6466],
[19.1175,44.516],
[19.1077,44.3201],
[19.2628,44.1896],
[19.0979,44.1243],
[18.8367,43.733],
[18.648,43.1467],
[18.4814,43.0165]
]
],
[
[
[20.0701,39.5789],
[20.1489,39.5789],
[20.1519,39.6436],
[20.0731,39.6436],
[20.0701,39.5789]
]
]
]}
}
