{
"type": "Feature",
"properties": {"id":"cliopatria-aztec-triple-alliance-1450","edge_precision":"unknown","cliopatria_name":"Aztec Triple Alliance","cliopatria_from_year":1450,"cliopatria_to_year":1452,"cliopatria_area_km2":54171,"cliopatria_wikidata":"Q2608489","cliopatria_wikipedia":"Aztec Empire","cliopatria_seshat_id":"mx_aztec_emp"},
"geometry": {"type": "MultiPolygon", "coordinates": [
[
[
[-100.2188,18.4791],
[-100.1841,18.2862],
[-99.6669,18.2862],
[-99.1333,18.6076],
[-98.8657,18.3505],
[-98.7179,18.3505],
[-98.6668,18.4791],
[-98.5076,18.4148],
[-98.1791,19.0577],
[-98.1869,19.5077],
[-98.4325,19.6362],
[-98.308,19.7648],
[-97.8754,19.8291],
[-97.7661,19.6362],
[-97.618,19.6362],
[-97.5946,19.5077],
[-97.1781,19.2505],
[-96.6947,19.4434],
[-96.5073,19.6362],
[-96.2736,19.5719],
[-96.6122,20.2148],
[-96.7487,20.1505],
[-96.9322,20.3434],
[-97.0063,20.3434],
[-98.537,20.6005],
[-98.7095,20.7291],
[-99.3772,20.7291],
[-99.427,20.6005],
[-99.8101,20.6648],
[-99.8356,20.4077],
[-99.7494,20.3434],
[-99.8993,19.9577],
[-99.7773,19.7005],
[-99.2618,19.3148],
[-99.1174,18.9291],
[-100.2188,18.4791]
]
],
[
[
[-96.7722,20.2791],
[-96.7604,20.2148],
[-96.6863,20.2148],
[-96.6981,20.2791],
[-96.7722,20.2791]
]
]
]}
}
