{
"type": "Feature",
"properties": {"id":"cliopatria-qatar-dynasty-1900","edge_precision":"unknown","cliopatria_name":"Qatar Dynasty","cliopatria_from_year":1900,"cliopatria_to_year":1904,"cliopatria_area_km2":5472,"cliopatria_wikidata":"Q846","cliopatria_wikipedia":"Qatar"},
"geometry": {"type": "MultiPolygon", "coordinates": [
[
[
[55.8062,25.7436],
[56.0532,25.2293],
[56.0277,24.9721],
[56.0838,24.7792],
[56.2333,24.7792],
[56.4016,24.9721],
[56.408,25.0364],
[56.4957,25.165],
[56.4208,25.165],
[56.4603,25.5507],
[56.3854,25.5507],
[56.3921,25.615],
[56.249,25.6793],
[56.2831,26.0008],
[56.0651,26.0651],
[56.0582,26.0008],
[55.9833,26.0008],
[55.9696,25.8722],
[55.8947,25.8722],
[55.8879,25.8079],
[55.813,25.8079],
[55.8062,25.7436]
]
]
]}
}
