{
"type": "Feature",
"properties": {"id":"cliopatria-viking-settlements-0800","edge_precision":"unknown","cliopatria_name":"Viking settlements","cliopatria_from_year":800,"cliopatria_to_year":805,"cliopatria_area_km2":13774,"cliopatria_wikidata":"Q12567","cliopatria_wikipedia":"Vikings","cliopatria_seshat_id":"no_viking_settlements"},
"geometry": {"type": "MultiPolygon", "coordinates": [
[
[
[-7.3245,62.3313],
[-7.2756,62.0459],
[-6.7872,61.9034],
[-6.6944,61.9034],
[-6.6602,62.2599],
[-6.7652,62.3313],
[-6.9637,62.4027],
[-7.3245,62.3313]
]
],
[
[
[-7.0181,61.619],
[-6.9945,61.477],
[-6.7056,61.406],
[-6.7404,61.619],
[-7.0181,61.619]
]
],
[
[
[-1.6746,60.2058],
[-1.2032,60.0653],
[-1.1417,60.3465],
[-1.0503,60.3465],
[-1.1642,60.5577],
[-0.8051,60.6282],
[-0.8271,60.8399],
[-1.2787,60.7693],
[-1.2558,60.5577],
[-1.3475,60.5577],
[-1.3628,60.6987],
[-1.6301,60.6282],
[-1.6746,60.2058]
]
],
[
[
[12.0068,54.2739],
[12.1744,53.9352],
[12.2608,53.9352],
[12.6941,54.0029],
[12.7864,54.2739],
[12.6998,54.2739],
[12.7027,54.4095],
[12.7894,54.4095],
[12.4438,54.4774],
[12.0934,54.2739],
[12.0068,54.2739]
]
],
[
[
[30.8375,59.7846],
[31.0826,59.6445],
[31.9,59.6445],
[32.1224,60.2761],
[31.863,60.3465],
[31.8192,60.1355],
[31.4542,60.1355],
[31.4685,60.2058],
[31.3772,60.2058],
[30.998,60.1355],
[30.8375,59.7846]
]
],
[
[
[38.8284,57.3509],
[39.0063,57.3509],
[38.9709,57.2129],
[39.1485,57.2129],
[39.1131,57.0751],
[39.3615,57.0063],
[39.4859,57.144],
[39.7522,57.144],
[39.7178,57.3509],
[39.8956,57.3509],
[40.0399,57.558],
[39.7909,57.6271],
[39.8278,57.7654],
[39.6493,57.7654],
[39.6861,57.9038],
[39.3286,57.9038],
[39.0777,57.6271],
[38.8993,57.6271],
[38.8284,57.3509]
]
]
]}
}
