{
"type": "Feature",
"properties": {"id":"cliopatria-timurid-empire-1402","edge_precision":"unknown","cliopatria_name":"Timurid Empire","cliopatria_from_year":1402,"cliopatria_to_year":1406,"cliopatria_area_km2":5138735,"cliopatria_wikidata":"Q484195","cliopatria_wikipedia":"Timurid Empire","cliopatria_seshat_id":"uz_timurid_emp"},
"geometry": {"type": "MultiPolygon", "coordinates": [
[
[
[32.0609,39.7083],
[32.4411,39.5789],
[32.7777,39.7729],
[33.4014,39.7083],
[34.4418,39.8376],
[35.0571,39.7083],
[37.8521,39.385],
[37.9308,39.385],
[38.2809,39.0618],
[38.4381,39.0618],
[38.7005,38.6743],
[39.3803,38.4806],
[39.3716,38.416],
[39.5024,38.2224],
[39.1638,38.0288],
[39.0605,37.8352],
[38.395,37.5128],
[38.0829,37.5128],
[37.9735,37.2549],
[37.4128,37.126],
[37.0494,36.6749],
[36.9717,36.6749],
[36.7945,36.4816],
[36.8436,36.224],
[36.6813,36.1596],
[36.4002,35.7089],
[36.3527,35.2584],
[36.2755,35.2584],
[36.2669,34.422],
[36.0103,34.1647],
[36.095,33.4574],
[36.5617,33.5217],
[36.8096,35.194],
[36.8868,35.194],
[37.0336,35.8377],
[37.4862,36.4172],
[38.1329,35.9664],
[39.1328,35.902],
[39.8842,35.7089],
[40.3712,35.2584],
[40.3557,35.1297],
[40.5101,35.1297],
[40.5487,34.8079],
[40.7723,34.7436],
[40.965,34.422],
[41.042,34.422],
[41.427,33.7789],
[41.8649,33.5859],
[42.0645,33.3288],
[42.5783,33.1359],
[42.7085,32.943],
[43.1526,32.8145],
[44.459,31.5933],
[44.444,31.4647],
[44.6576,31.3362],
[44.6353,31.1434],
[44.7949,31.2076],
[45.3982,30.5007],
[45.55,30.5007],
[46.099,29.9865],
[46.5322,29.7937],
[46.5865,29.6009],
[46.745,29.6652],
[46.868,29.4081],
[47.1021,29.4723],
[47.3834,29.2795],
[47.459,29.2795],
[47.5707,29.6009],
[48.0699,29.9865],
[48.9037,29.9865],
[48.9873,30.0508],
[48.9428,30.3079],
[49.5859,29.9865],
[50.0648,30.1794],
[50.2363,29.7294],
[50.6513,29.4081],
[50.6203,29.1509],
[50.915,29.0867],
[50.809,28.8295],
[51.0281,28.7652],
[51.0662,28.4438],
[51.3313,28.1224],
[51.3168,27.9938],
[51.5967,27.8009],
[52.0486,27.8009],
[52.4787,27.6081],
[52.737,27.2223],
[53.4606,26.9652],
[53.6581,26.708],
[54.2589,26.708],
[54.4632,26.5151],
[54.8316,26.4508],
[55.2423,26.7723],
[55.5427,26.7723],
[55.3102,26.708],
[55.2889,26.5151],
[55.439,26.5151],
[55.6034,26.6437],
[56.0612,26.708],
[56.3086,26.9009],
[56.3236,27.0295],
[56.0981,27.0295],
[56.1884,27.158],
[56.7147,27.158],
[57.0524,26.8366],
[57.1148,26.0651],
[57.3795,25.7436],
[57.6792,25.7436],
[57.7402,25.615],
[57.958,25.5507],
[58.7817,25.5507],
[59.0602,25.3579],
[60.6321,25.3579],
[60.6178,25.2293],
[60.9171,25.2293],
[61.1274,25.1007],
[61.6582,25.165],
[61.7187,25.0364],
[62.0179,25.0364],
[62.182,25.165],
[62.4739,25.1007],
[62.5634,25.2293],
[63.5362,25.2293],
[63.6262,25.3579],
[64.225,25.3579],
[64.2845,25.2293],
[64.8006,25.165],
[64.8161,25.2936],
[66.0215,25.3579],
[66.3451,25.5507],
[66.4869,26.0651],
[66.9592,26.7723],
[67.7105,27.2866],
[68.3415,27.4795],
[68.5219,27.6724],
[69.0693,27.8009],
[69.4979,28.1224],
[69.6487,28.1224],
[69.756,28.3153],
[70.1658,28.5081],
[70.4177,29.0867],
[72.3016,28.6367],
[72.3771,28.6367],
[72.9997,29.1509],
[73.3022,29.1509],
[76.0519,28.5081],
[76.9331,28.3795],
[77.3225,28.4438],
[77.435,28.6367],
[77.2964,28.701],
[77.3466,28.9581],
[76.9569,29.2795],
[76.466,29.4723],
[76.4163,29.6009],
[76.2649,29.6009],
[76.1395,29.7294],
[76.1658,29.858],
[75.7775,30.1794],
[75.7556,30.4364],
[75.6173,30.5007],
[75.4042,31.2719],
[75.3281,31.2719],
[75.32,31.9146],
[75.2437,31.9146],
[75.3326,32.3002],
[74.7811,32.5574],
[74.3988,32.5574],
[74.2142,32.7502],
[73.77,32.8145],
[73.5088,33.0073],
[73.5694,33.2645],
[73.4927,33.2645],
[73.4167,33.9075],
[73.3398,33.9075],
[73.3442,34.5506],
[74.1688,35.0653],
[74.0916,35.0653],
[73.6613,35.194],
[73.6944,35.3227],
[73.943,35.3871],
[73.8386,35.5802],
[73.253,35.7089],
[73.226,35.902],
[72.6669,35.8377],
[72.6228,35.9664],
[72.6564,36.0952],
[72.734,36.0952],
[72.7509,36.1596],
[72.8285,36.1596],
[72.8455,36.224],
[72.923,36.224],
[72.9572,36.3528],
[73.2246,36.4816],
[73.1816,36.6105],
[73.9764,36.6749],
[73.934,36.8037],
[73.7785,36.8037],
[73.7962,36.8682],
[73.694,37.0615],
[73.7841,37.3838],
[73.6463,37.4483],
[73.7012,37.6417],
[73.6231,37.6417],
[73.697,37.8998],
[73.6188,37.8998],
[73.7487,38.6097],
[73.6703,38.6097],
[73.8068,38.8034],
[73.7283,38.8034],
[73.787,38.9972],
[73.6496,39.0618],
[73.6891,39.1911],
[73.6104,39.1911],
[73.7104,39.5143],
[73.929,39.7083],
[73.8502,39.7083],
[73.9533,40.0317],
[73.8162,40.0964],
[73.858,40.2259],
[73.626,40.4849],
[73.4677,40.4849],
[73.373,40.6792],
[73.2145,40.6792],
[73.1779,40.8088],
[72.94,40.8088],
[72.9249,41.0032],
[72.1006,41.3922],
[71.0508,41.5869],
[71.0356,41.7816],
[70.4989,41.8465],
[70.1858,42.1063],
[70.1923,42.3662],
[70.1123,42.3662],
[70.3235,42.7563],
[70.2073,42.8864],
[70.2961,43.1467],
[71.3524,44.3201],
[71.2715,44.3201],
[70.428,44.4507],
[70.1393,44.3201],
[69.9195,44.3854],
[69.3888,44.2548],
[67.7719,44.2548],
[67.4049,44.1243],
[66.6778,44.1243],
[66.6617,44.3201],
[66.4243,44.5813],
[66.2623,44.5813],
[66.1055,44.8426],
[65.7428,44.9734],
[65.7047,45.1042],
[63.7225,46.0209],
[63.7437,46.0865],
[63.0315,46.4145],
[62.7858,46.4145],
[62.5212,46.6115],
[62.2752,46.6115],
[62.1531,46.7429],
[61.6815,46.8086],
[61.2512,45.9554],
[61.3329,45.9554],
[61.2523,45.6933],
[61.3339,45.6933],
[61.3352,45.4313],
[61.7222,45.3659],
[61.5823,44.908],
[61.42,44.908],
[61.3805,44.7773],
[60.8969,44.516],
[60.7808,44.1243],
[60.6001,44.0591],
[60.3865,43.6027],
[59.6062,43.4072],
[58.9004,43.4723],
[58.7135,43.6678],
[58.3371,43.4723],
[58.1857,43.7982],
[57.9618,43.8634],
[58.0741,44.8426],
[58.4858,45.4313],
[58.5805,45.7588],
[57.0653,45.3004],
[55.049,45.3659],
[54.6942,45.5623],
[54.2868,45.5623],
[54.2181,45.3004],
[54.3636,45.235],
[54.2952,44.9734],
[53.8081,44.9734],
[53.8757,45.235],
[52.0868,45.235],
[51.8752,45.3659],
[51.4683,45.3659],
[51.0635,45.0388],
[51.0162,44.8426],
[51.4712,44.7119],
[51.4237,44.516],
[50.8569,44.516],
[50.645,44.6466],
[50.2245,44.5813],
[50.2595,44.3854],
[50.7295,44.3201],
[51.0716,44.0591],
[51.0407,43.9286],
[51.3169,43.733],
[51.3051,43.3421],
[51.4353,43.2118],
[51.7722,43.2769],
[51.9361,42.9515],
[52.4175,42.9515],
[52.7873,42.8213],
[52.679,42.3662],
[52.4432,42.0413],
[52.523,42.0413],
[52.4929,41.9114],
[52.722,41.522],
[52.8016,41.522],
[52.812,41.9114],
[53.1924,42.1712],
[53.9113,42.1712],
[54.0905,41.5869],
[54.7295,41.2625],
[54.6683,41.0032],
[54.4001,40.8736],
[54.3701,40.744],
[53.4044,40.6792],
[53.4482,40.8736],
[53.3397,40.744],
[52.9433,40.744],
[52.9723,40.8736],
[52.893,40.8736],
[52.6994,40.3554],
[52.7785,40.3554],
[52.7877,40.0317],
[53.4985,40.0317],
[53.5449,39.5143],
[53.1375,39.4496],
[53.5176,39.385],
[53.9868,38.9972],
[53.8298,37.8352],
[53.9079,37.8352],
[53.9105,37.4483],
[54.0947,37.1904],
[54.0333,36.8682],
[53.4887,36.8682],
[52.586,36.6105],
[51.642,36.546],
[50.532,36.8682],
[50.6323,36.9971],
[50.5657,37.0615],
[50.3209,36.9971],
[49.8541,37.4483],
[49.0851,37.5128],
[48.8285,37.8352],
[48.801,38.9972],
[48.9155,39.1911],
[49.1514,39.1911],
[49.2666,39.385],
[49.5092,40.2259],
[49.6933,40.3554],
[50.2604,40.4201],
[50.0495,40.5496],
[49.5084,40.6144],
[49.2442,40.8736],
[49.2707,41.0032],
[49.0592,41.1328],
[49.086,41.2625],
[47.9337,42.2362],
[47.9608,42.3662],
[47.6816,42.5612],
[47.6562,42.8213],
[47.3764,43.0165],
[47.4591,43.4072],
[47.2178,43.4072],
[46.5069,43.0816],
[46.3596,43.1467],
[46.333,43.0165],
[46.1724,43.0165],
[45.5201,42.5612],
[45.44,42.5612],
[45.2167,42.2362],
[44.5897,42.3012],
[44.1293,41.9764],
[43.491,41.9764],
[43.1368,41.7816],
[41.9188,41.6518],
[41.7485,41.5869],
[41.7156,41.3922],
[41.2856,41.1977],
[40.9533,40.6144],
[40.9328,40.4849],
[41.1497,40.3554],
[40.7341,40.2259],
[40.1115,40.2906],
[40.0324,40.2906],
[39.6776,40.0317],
[39.5196,40.0317],
[38.6143,39.7729],
[37.9834,39.7729],
[36.6765,40.0317],
[36.2732,39.967],
[34.4256,40.3554],
[33.9432,40.2906],
[33.7696,40.1612],
[33.1675,40.4201],
[32.7644,40.3554],
[32.2609,40.0964],
[32.0609,39.7083]
]
],
[
[
[44.7572,42.7563],
[44.8374,42.7563],
[44.85,42.8213],
[44.7699,42.8213],
[44.7572,42.7563]
]
],
[
[
[44.8247,42.6912],
[44.9049,42.6912],
[44.9175,42.7563],
[44.8374,42.7563],
[44.8247,42.6912]
]
]
]}
}
