{
"type": "Feature",
"properties": {"id":"cliopatria-sokoto-caliphate-1805","edge_precision":"unknown","cliopatria_name":"Sokoto Caliphate","cliopatria_from_year":1805,"cliopatria_to_year":1808,"cliopatria_area_km2":478781,"cliopatria_wikidata":"Q600524","cliopatria_wikipedia":"Sokoto Caliphate"},
"geometry": {"type": "MultiPolygon", "coordinates": [
[
[
[3.6365,11.7931],
[3.8563,11.8574],
[4.1488,11.6003],
[4.2953,11.6003],
[4.295,11.4717],
[4.5142,11.2788],
[4.5863,10.8931],
[4.7327,10.8931],
[4.7318,10.636],
[4.5848,10.4431],
[4.725,9.0931],
[5.0172,9.0931],
[5.5261,8.7073],
[6.1834,8.7073],
[6.4746,8.5788],
[6.5522,9.2216],
[6.6253,9.2216],
[6.5531,9.3502],
[6.7001,9.4788],
[6.7764,9.9931],
[7.2885,10.0574],
[7.5048,9.6074],
[7.5034,9.4145],
[7.3573,9.4145],
[7.2809,8.9645],
[7.2805,8.9002],
[7.2074,8.9002],
[7.0589,8.5788],
[7.0584,8.5145],
[6.9853,8.5145],
[6.7616,7.9359],
[7.564,7.8716],
[8.2185,7.6145],
[8.8017,7.5502],
[9.2422,7.8073],
[9.6065,7.743],
[9.7538,7.8716],
[10.6304,7.9359],
[11.1435,8.1288],
[12.2386,8.1288],
[12.3154,8.4502],
[12.8304,8.7716],
[12.9087,9.2216],
[13.4948,9.3502],
[13.4955,9.4145],
[13.3539,9.8002],
[13.4315,10.186],
[13.286,10.2502],
[13.2882,10.4431],
[11.9061,11.2146],
[11.6192,11.8574],
[11.4006,11.986],
[10.9668,12.6932],
[10.7521,13.4003],
[10.6787,13.4003],
[10.091,13.2718],
[9.6482,12.8217],
[8.9154,12.886],
[8.6965,13.0789],
[8.1101,13.1432],
[8.1104,13.2075],
[7.8903,13.2075],
[7.8175,13.336],
[7.5972,13.2718],
[7.3042,13.4003],
[6.8641,13.4003],
[6.3512,13.7218],
[5.9109,13.7861],
[5.3968,13.336],
[4.7367,13.336],
[4.3699,13.2075],
[4.1498,13.336],
[4.0766,12.9503],
[3.6368,12.436],
[3.6365,11.7931]
]
],
[
[
[4.8642,8.0002],
[4.9372,8.0002],
[4.9377,8.0645],
[4.8647,8.0645],
[4.8642,8.0002]
]
],
[
[
[4.9368,7.9359],
[5.0098,7.9359],
[5.0102,8.0002],
[4.9372,8.0002],
[4.9368,7.9359]
]
]
]}
}
