{
"type": "Feature",
"properties": {"id":"cliopatria-sultanate-of-muscat-and-oman-1916","edge_precision":"unknown","cliopatria_name":"Sultanate of Muscat and Oman","cliopatria_from_year":1916,"cliopatria_to_year":1919,"cliopatria_area_km2":33851,"cliopatria_wikidata":"Q157734","cliopatria_wikipedia":"Muscat and Oman"},
"geometry": {"type": "MultiPolygon", "coordinates": [
[
[
[47.4449,29.1509],
[47.589,29.0867],
[47.582,29.0224],
[47.8632,28.8295],
[48.3164,28.8295],
[48.2154,29.2795],
[48.0786,29.4081],
[47.8517,29.4081],
[47.9419,29.5366],
[48.0176,29.5366],
[47.7443,29.7937],
[47.7368,29.7294],
[47.4805,29.4723],
[47.4449,29.1509]
]
],
[
[
[47.4994,28.9581],
[47.575,28.9581],
[47.582,29.0224],
[47.5064,29.0224],
[47.4994,28.9581]
]
],
[
[
[50.769,25.5507],
[50.7981,25.0364],
[50.7926,24.9721],
[50.984,24.5864],
[51.3577,24.5864],
[51.5017,24.5221],
[51.7188,25.2936],
[51.575,25.3579],
[51.6979,25.8722],
[51.4228,26.1294],
[51.1229,26.1294],
[50.9545,25.9365],
[50.9246,25.615],
[50.769,25.5507]
]
],
[
[
[53.8947,16.8719],
[54.1989,17.0005],
[54.2727,17.0005],
[54.4986,17.0647],
[54.2916,17.2576],
[54.0704,17.2576],
[53.8947,16.8719]
]
],
[
[
[56.0651,26.0651],
[56.2831,26.0008],
[56.249,25.6793],
[56.3921,25.615],
[56.3988,25.6793],
[56.5291,26.1937],
[56.5361,26.258],
[56.4754,26.3865],
[56.3253,26.3865],
[56.0721,26.1294],
[56.0651,26.0651]
]
],
[
[
[56.2333,24.7792],
[56.3766,24.7149],
[56.4147,24.3292],
[56.5641,24.3292],
[56.5521,24.2006],
[56.827,23.9435],
[57.6183,23.622],
[58.209,23.5577],
[58.3347,23.3006],
[58.6841,23.0434],
[58.9076,23.0434],
[59.045,22.9148],
[59.2742,22.9791],
[59.2801,23.0434],
[59.0682,23.172],
[59.08,23.3006],
[58.8115,23.622],
[58.003,23.7506],
[58.009,23.8149],
[57.7106,23.8149],
[57.0627,24.072],
[56.657,24.5221],
[56.4764,24.9721],
[56.2395,24.8435],
[56.2333,24.7792]
]
],
[
[
[58.6668,20.2148],
[58.815,20.2148],
[58.9794,20.4077],
[59.0008,20.6648],
[58.773,20.6005],
[58.7676,20.5362],
[58.6668,20.2148]
]
]
]}
}
