{
"type": "Feature",
"properties": {"id":"cliopatria-house-of-valois-anjou-1363","edge_precision":"unknown","cliopatria_name":"House of Valois-Anjou","cliopatria_from_year":1363,"cliopatria_to_year":1384,"cliopatria_area_km2":23428,"cliopatria_wikidata":"Q1716871","cliopatria_wikipedia":"House of Valois-Anjou","cliopatria_seshat_id":"fr_valois_k_1","cliopatria_member_of":"(Kingdom of France)"},
"geometry": {"type": "MultiPolygon", "coordinates": [
[
[
[-1.3885,47.0058],
[-1.0499,46.8743],
[0.3421,46.9401],
[0.5844,47.0058],
[0.4893,47.2032],
[0.7193,47.4665],
[1.2964,47.4665],
[1.1977,47.73],
[1.2763,47.7959],
[1.1937,47.7959],
[1.1854,47.9278],
[0.9247,48.1257],
[0.4368,47.9938],
[0.3361,48.2578],
[-0.0001,48.3238],
[-0.0924,48.4559],
[-0.5804,48.3238],
[-1,48.3899],
[-1.0421,47.8619],
[-1.2023,47.7959],
[-1.1618,47.269],
[-1.3214,47.2032],
[-1.3885,47.0058]
]
]
]}
}
