{
"type": "Feature",
"properties": {"id":"cliopatria-galatia-240bce","edge_precision":"unknown","cliopatria_name":"Galatia","cliopatria_from_year":-239,"cliopatria_to_year":-127,"cliopatria_area_km2":50699,"cliopatria_wikidata":"Q26847","cliopatria_wikipedia":"Galatia"},
"geometry": {"type": "MultiPolygon", "coordinates": [
[
[
[31.233,39.3203],
[31.443,39.0618],
[31.4236,38.868],
[31.7377,38.868],
[31.8033,38.7389],
[32.189,38.6743],
[33.5872,38.5451],
[33.6796,38.6743],
[34.4787,38.8034],
[34.7667,39.2557],
[34.7263,39.5789],
[34.8284,39.7729],
[34.5363,39.967],
[34.5679,40.2259],
[33.5554,40.3554],
[33.4125,40.4849],
[32.7644,40.3554],
[32.3043,40.4849],
[32.11,40.1612],
[31.7079,40.0964],
[31.701,40.0317],
[31.3061,40.0317],
[31.2993,39.967],
[31.3783,39.967],
[31.233,39.3203]
]
]
]}
}
