{
"type": "Feature",
"properties": {"id":"cliopatria-emirate-of-jabal-shammar-1842","edge_precision":"unknown","cliopatria_name":"Emirate of Jabal Shammar","cliopatria_from_year":1842,"cliopatria_to_year":1845,"cliopatria_area_km2":459743,"cliopatria_wikidata":"Q5362837","cliopatria_wikipedia":"Emirate of Jabal Shammar"},
"geometry": {"type": "MultiPolygon", "coordinates": [
[
[
[40.0687,27.7367],
[40.2142,27.6724],
[40.2041,27.5438],
[40.7859,27.2866],
[40.8822,26.5794],
[41.2719,25.7436],
[41.1749,25.4221],
[41.2497,25.4221],
[41.224,25.0364],
[40.5345,24.7792],
[40.4597,24.7792],
[40.995,23.7506],
[41.1405,23.6863],
[41.2672,23.3006],
[41.4126,23.2363],
[41.4053,23.1077],
[41.5506,23.0434],
[41.8194,22.5291],
[42.1734,22.2077],
[42.1662,22.0791],
[42.4493,21.822],
[42.7849,21.1791],
[43.1416,20.922],
[43.2719,20.6005],
[43.6948,20.2148],
[43.6985,20.2791],
[43.639,20.5362],
[43.8615,20.5362],
[43.8021,20.7934],
[44.0321,20.922],
[44.047,21.1791],
[44.5114,21.5005],
[44.5228,21.6934],
[44.6752,21.7577],
[44.7766,22.2077],
[44.9372,22.4005],
[44.9531,22.6577],
[45.5113,23.2363],
[46.7211,23.4934],
[47.1865,23.7506],
[47.5549,23.6863],
[48.1704,23.9435],
[48.3895,23.8792],
[48.563,24.2006],
[48.7969,24.3292],
[49.6931,24.3292],
[49.4844,24.5221],
[49.4305,24.7792],
[49.0725,24.9721],
[48.1822,26.7723],
[48.038,26.8366],
[47.7991,27.4795],
[47.5923,27.6724],
[47.5859,27.6081],
[47.4104,27.3509],
[47.1786,27.2866],
[47.01,27.0938],
[45.8073,27.0938],
[45.1422,27.2223],
[44.9397,27.4795],
[44.7892,27.4795],
[44.6561,27.6724],
[44.3666,27.8009],
[44.0654,27.8009],
[43.6717,27.6081],
[43.4859,28.0581],
[43.341,28.1224],
[43.4281,28.251],
[43.3527,28.251],
[43.3069,28.5724],
[42.9178,28.4438],
[42.7209,28.7652],
[42.4307,28.8938],
[42.0471,28.8295],
[41.8381,29.0224],
[41.2918,28.8295],
[40.7744,28.9581],
[40.6064,28.7652],
[40.4553,28.7652],
[40.5088,28.5081],
[40.3258,28.1224],
[40.0892,27.9938],
[40.0687,27.7367]
]
]
]}
}
