{
"type": "Feature",
"properties": {"id":"cliopatria-new-netherland-1662","edge_precision":"unknown","cliopatria_name":"New Netherland","cliopatria_from_year":1662,"cliopatria_to_year":1669,"cliopatria_area_km2":49479,"cliopatria_wikidata":"Q382593","cliopatria_wikipedia":"New Netherland"},
"geometry": {"type": "MultiPolygon", "coordinates": [
[
[
[-75.8587,39.8376],
[-75.479,39.3203],
[-75.137,39.2557],
[-75.3528,39.5789],
[-75.274,39.5789],
[-75.2785,39.7729],
[-74.833,39.8376],
[-74.6801,40.0317],
[-74.5222,40.0317],
[-74.4485,40.2259],
[-74.2396,40.2906],
[-74.2963,40.4201],
[-74.1445,40.6144],
[-73.6408,40.5496],
[-73.4601,40.6792],
[-73.3809,40.6792],
[-73.7415,41.1328],
[-73.4529,41.1977],
[-73.3947,41.068],
[-73.2359,41.068],
[-73.2649,41.1328],
[-73.106,41.1328],
[-73.1351,41.1977],
[-73.3022,41.3922],
[-73.1725,41.4571],
[-73.0929,41.4571],
[-72.825,41.3922],
[-72.7667,41.2625],
[-72.4488,41.2625],
[-72.6423,42.0413],
[-72.7221,42.0413],
[-73.6608,42.1712],
[-73.9022,43.0165],
[-74.3035,43.0165],
[-74.2449,42.5612],
[-74.343,42.4312],
[-74.2506,42.2362],
[-74.3305,42.2362],
[-74.2388,42.0413],
[-74.3186,42.0413],
[-74.1386,41.1328],
[-74.4689,40.8088],
[-74.411,40.6792],
[-74.5118,40.5496],
[-74.9799,40.3554],
[-74.8155,40.1612],
[-74.9735,40.1612],
[-75.1258,39.967],
[-75.8587,39.8376]
]
],
[
[
[-70.0191,12.5646],
[-69.9306,12.3717],
[-69.784,12.3717],
[-69.7891,12.436],
[-69.8725,12.5646],
[-70.0191,12.5646]
]
],
[
[
[-69.1245,12.3717],
[-69.1098,12.1789],
[-68.9584,12.1146],
[-68.9536,12.0503],
[-68.6559,11.986],
[-68.7435,12.1789],
[-69.1245,12.3717]
]
],
[
[
[-68.3869,12.3074],
[-68.382,12.2432],
[-68.2944,12.0503],
[-68.1479,12.0503],
[-68.1622,12.2432],
[-68.3869,12.3074]
]
],
[
[
[-63.1635,18.2219],
[-63.1409,18.0291],
[-62.9194,18.0291],
[-62.9269,18.0933],
[-63.1635,18.2219]
]
],
[
[
[-60.836,11.086],
[-60.6164,11.086],
[-60.5585,11.3431],
[-60.7049,11.3431],
[-60.836,11.086]
]
],
[
[
[-58.74,6.393],
[-58.7288,5.943],
[-58.3643,5.943],
[-57.77,5.4287],
[-57.2598,5.4287],
[-57.261,5.493],
[-57.1248,5.943],
[-57.1263,6.0073],
[-57.2798,6.3287],
[-57.4986,6.3287],
[-57.8005,6.7144],
[-58.2436,6.9073],
[-58.6065,6.843],
[-58.5993,6.5858],
[-58.74,6.393]
]
]
]}
}
