{
"type": "Feature",
"properties": {"id":"cliopatria-former-yugoslav-republic-of-macedonia-2024","edge_precision":"unknown","cliopatria_name":"Former Yugoslav Republic of Macedonia","cliopatria_from_year":2024,"cliopatria_to_year":2024,"cliopatria_area_km2":25126,"cliopatria_wikidata":"Q221","cliopatria_wikipedia":"North Macedonia"},
"geometry": {"type": "MultiPolygon", "coordinates": [
[
[
[20.4919,41.6518],
[20.5434,41.1328],
[21.0777,40.744],
[22.0486,41.068],
[22.0526,41.1328],
[22.5292,41.1328],
[22.9436,41.3922],
[22.8991,41.9114],
[22.4377,42.1712],
[22.3707,42.3662],
[21.7228,42.2362],
[21.567,42.3012],
[21.2356,42.1063],
[20.9161,42.1063],
[20.5823,41.8465],
[20.4919,41.6518]
]
]
]}
}
