{
"type": "Feature",
"properties": {"id":"cliopatria-south-african-republic-1890","edge_precision":"unknown","cliopatria_name":"South African Republic","cliopatria_from_year":1890,"cliopatria_to_year":1894,"cliopatria_area_km2":300571,"cliopatria_wikidata":"Q550374","cliopatria_wikipedia":"South African Republic"},
"geometry": {"type": "MultiPolygon", "coordinates": [
[
[
[24.6277,-28.1297],
[24.7083,-28.2582],
[24.9994,-28.0011],
[25.5188,-27.8082],
[25.8981,-27.8725],
[26.406,-27.4225],
[26.3228,-27.2296],
[26.6129,-26.9724],
[26.9162,-27.0367],
[27.1389,-26.9724],
[27.2811,-26.7796],
[27.5788,-26.7153],
[27.729,-26.7153],
[27.9655,-26.9724],
[28.113,-26.9081],
[28.4223,-27.101],
[28.9485,-27.101],
[29.6544,-27.6796],
[29.8769,-27.6153],
[30.1235,-28.0011],
[31.2355,-27.6796],
[31.4433,-27.3582],
[30.985,-27.2296],
[30.9782,-27.101],
[30.8245,-27.0367],
[30.7169,-26.3938],
[31.0641,-25.8152],
[31.8197,-25.9437],
[31.8166,-25.8795],
[31.9539,-25.6223],
[31.8521,-25.0437],
[31.8989,-24.4007],
[31.8242,-24.4007],
[31.726,-23.8221],
[31.4922,-23.565],
[31.3938,-22.9221],
[31.3914,-22.8578],
[31.2289,-22.4721],
[31.0012,-22.3435],
[30.0341,-22.3435],
[29.8068,-22.215],
[29.1354,-22.1507],
[28.7008,-22.5364],
[28.2561,-22.6007],
[27.6068,-23.3078],
[27.3106,-23.3721],
[26.8019,-23.8221],
[26.8038,-23.8864],
[26.6682,-24.3365],
[26.3046,-24.6579],
[25.7854,-24.7865],
[25.654,-25.3651],
[25.365,-25.6866],
[25.4666,-26.4581],
[25.3916,-26.4581],
[25.3378,-27.0367],
[25.1221,-27.2939],
[25.2073,-27.5511],
[24.836,-27.6796],
[24.8461,-27.9368],
[24.6277,-28.1297]
]
],
[
[
[31.6909,-27.7439],
[32.075,-27.8725],
[32.1581,-28.0011],
[32.2334,-28.0011],
[32.4674,-28.1297],
[32.6431,-27.2939],
[32.7823,-27.101],
[32.7677,-26.8438],
[32.0164,-26.8438],
[31.8697,-26.9081],
[31.8158,-27.2939],
[31.6909,-27.7439]
]
]
]}
}
