{
"type": "Feature",
"properties": {"id":"cliopatria-polyperchon-319bce","edge_precision":"unknown","cliopatria_name":"Polyperchon","cliopatria_from_year":-318,"cliopatria_to_year":-316,"cliopatria_area_km2":69850,"cliopatria_wikidata":"Q312008","cliopatria_wikipedia":"Polyperchon"},
"geometry": {"type": "MultiPolygon", "coordinates": [
[
[
[19.3338,40.744],
[19.7333,40.8088],
[20.1895,40.4201],
[20.4269,40.4201],
[20.4929,40.1612],
[20.8056,40.0964],
[21.0223,39.7083],
[21.1011,39.7083],
[21.2726,39.967],
[21.8253,39.967],
[21.9154,40.1612],
[22.1756,40.5496],
[22.6549,40.6144],
[22.8925,40.6144],
[23.6891,40.6792],
[23.6935,40.744],
[24.0106,40.744],
[24.2578,40.8736],
[24.2625,40.9384],
[23.7344,41.3274],
[23.7484,41.522],
[23.5938,41.5869],
[23.528,41.7816],
[22.8194,41.9114],
[22.6729,42.1063],
[22.4377,42.1712],
[22.3707,42.3662],
[22.5394,42.4962],
[22.4725,42.6912],
[22.3924,42.6912],
[22.3036,42.5612],
[21.815,42.4312],
[21.8068,42.3012],
[21.4071,42.3012],
[21.3193,42.1712],
[21.0036,42.2362],
[20.7527,42.0413],
[20.194,42.0413],
[20.1073,41.9114],
[19.9545,42.0413],
[19.7084,41.9114],
[19.3894,41.9114],
[19.5424,41.7816],
[19.4501,41.522],
[19.5297,41.522],
[19.4438,41.3922],
[19.5233,41.3922],
[19.4376,41.2625],
[19.4985,40.8736],
[19.3338,40.744]
]
]
]}
}
