{
"type": "Feature",
"properties": {"id":"cliopatria-abbasid-caliphate-1216","edge_precision":"unknown","cliopatria_name":"Abbasid Caliphate","cliopatria_from_year":1216,"cliopatria_to_year":1249,"cliopatria_area_km2":168045,"cliopatria_wikidata":"Q12536","cliopatria_wikipedia":"Abbasid Caliphate","cliopatria_seshat_id":"iq_abbasid_cal_2"},
"geometry": {"type": "MultiPolygon", "coordinates": [
[
[
[42.356,33.2002],
[42.5783,33.1359],
[42.7085,32.943],
[43.1526,32.8145],
[44.459,31.5933],
[44.444,31.4647],
[44.6576,31.3362],
[44.6353,31.1434],
[44.7949,31.2076],
[45.3982,30.5007],
[45.55,30.5007],
[46.099,29.9865],
[46.5322,29.7937],
[46.5865,29.6009],
[46.745,29.6652],
[46.868,29.4081],
[47.1021,29.4723],
[47.3834,29.2795],
[47.459,29.2795],
[47.5707,29.6009],
[48.0699,29.9865],
[48.1457,29.9865],
[48.5928,29.9223],
[48.6005,29.9865],
[48.3884,30.1151],
[48.4117,30.3079],
[48.2755,30.4364],
[48.0478,30.4364],
[48.1031,30.8863],
[47.739,31.0148],
[47.7957,31.4647],
[47.9729,31.6575],
[47.9218,31.8503],
[47.7098,31.9789],
[47.7267,32.1074],
[47.5824,32.1717],
[47.4637,32.4288],
[46.9456,32.5574],
[46.6821,32.8788],
[46.1631,33.0073],
[46.1378,33.3931],
[45.5928,33.9075],
[45.439,33.9075],
[45.6453,34.2933],
[45.5002,34.3577],
[45.5356,34.615],
[45.6898,34.615],
[45.8212,35.001],
[45.6759,35.0653],
[45.5715,34.8723],
[45.34,34.8723],
[45.2036,35.001],
[45.1805,35.3871],
[44.9349,35.8377],
[44.8984,35.5802],
[44.4073,35.3871],
[44.1741,34.8079],
[43.9256,34.6793],
[43.8146,34.422],
[43.6606,34.422],
[43.3965,34.1647],
[43.2426,34.1647],
[42.8946,33.8432],
[42.5715,33.7146],
[42.3636,33.2645],
[42.356,33.2002]
]
]
]}
}
