{
"type": "Feature",
"properties": {"id":"cliopatria-beylik-of-karasi-1314","edge_precision":"unknown","cliopatria_name":"Beylik of Karasi","cliopatria_from_year":1314,"cliopatria_to_year":1325,"cliopatria_area_km2":17638,"cliopatria_wikidata":"Q941887","cliopatria_wikipedia":"Karasids"},
"geometry": {"type": "MultiPolygon", "coordinates": [
[
[
[26.1325,39.5143],
[26.8466,39.5789],
[26.7422,39.2557],
[26.8945,39.1911],
[26.8793,38.9972],
[26.9579,38.9972],
[26.9528,38.9326],
[27.1834,38.868],
[27.5079,38.9972],
[28.2936,38.9972],
[28.2881,38.9326],
[28.5238,38.9326],
[28.6191,39.1265],
[28.7763,39.1265],
[28.8049,39.4496],
[28.98,39.6436],
[28.9859,39.7083],
[28.8282,39.7083],
[28.8341,39.7729],
[28.6763,39.7729],
[27.8199,39.9023],
[26.9464,39.8376],
[26.7782,39.7083],
[26.1474,39.7083],
[26.1325,39.5143]
]
]
]}
}
