{
"type": "Feature",
"properties": {"id":"cliopatria-principality-of-rostov-suzdal-1227","edge_precision":"unknown","cliopatria_name":"Principality of Rostov-Suzdal","cliopatria_from_year":1227,"cliopatria_to_year":1235,"cliopatria_area_km2":250637,"cliopatria_wikidata":"Q83546","cliopatria_wikipedia":"Vladimir-Suzdal"},
"geometry": {"type": "MultiPolygon", "coordinates": [
[
[
[34.8677,55.9082],
[34.9556,55.9082],
[35.8914,55.7715],
[36.3719,55.5665],
[36.6455,55.2255],
[37.8125,55.3618],
[37.8445,55.4983],
[38.9955,55.9082],
[39.593,55.8398],
[39.5758,55.7715],
[39.8564,55.8398],
[40.1549,55.9766],
[40.332,56.3191],
[41.7105,56.525],
[41.9754,56.525],
[42.0568,56.1821],
[42.2139,56.1136],
[42.3019,56.1136],
[42.8685,56.2506],
[43.1232,56.525],
[42.986,56.6623],
[43.0257,56.7998],
[42.7997,56.9374],
[42.8394,57.0751],
[42.7507,57.0751],
[42.8306,57.3509],
[43.0287,57.4199],
[43.0006,57.6271],
[43.1994,57.6962],
[43.1926,57.9731],
[43.282,57.9731],
[43.6942,58.7369],
[44.4115,59.2947],
[45.2045,59.5045],
[45.1598,59.6445],
[45.6844,59.8547],
[46.0152,60.5577],
[46.0395,60.6282],
[46.2368,61.1935],
[46.354,61.2643],
[46.2617,61.2643],
[46.3876,61.619],
[46.2531,61.7611],
[44.7261,61.9034],
[44.6333,61.9034],
[44.2827,61.69],
[43.4258,61.619],
[43.0123,60.9105],
[42.1994,60.0653],
[41.6386,59.7145],
[41.5971,59.5745],
[40.7905,59.2947],
[40.6094,59.2947],
[40.2754,59.7145],
[39.8604,59.8547],
[39.7375,60.0653],
[39.3206,60.2058],
[39.2881,60.4168],
[38.3775,60.7693],
[38.3243,60.9105],
[36.7433,60.8399],
[35.8464,60.5577],
[35.7255,60.0653],
[35.8166,60.0653],
[35.7653,59.8547],
[35.9131,59.7145],
[35.9022,59.2947],
[35.9927,59.2947],
[36.0326,59.0853],
[36.4502,58.9458],
[36.4221,58.4587],
[36.512,58.4587],
[36.4618,58.2504],
[36.5515,58.2504],
[36.1064,56.7311],
[35.5299,56.525],
[35.2068,56.6623],
[35.1319,56.3191],
[34.9115,56.1136],
[34.8677,55.9082]
]
]
]}
}
