{
"type": "Feature",
"properties": {"id":"cliopatria-dutch-cape-coast-1670","edge_precision":"unknown","cliopatria_name":"Dutch Cape Coast","cliopatria_from_year":1670,"cliopatria_to_year":1682,"cliopatria_area_km2":32897,"cliopatria_wikidata":"Q221283","cliopatria_wikipedia":"Cape Coast","cliopatria_seshat_id":"nl_dutch_emp_1","cliopatria_member_of":"(Dutch Republic)"},
"geometry": {"type": "MultiPolygon", "coordinates": [
[
[
[-17.4542,14.6861],
[-17.2338,14.6861],
[-17.0076,14.4932],
[-17.0038,14.3646],
[-16.9304,14.3646],
[-16.7709,13.9146],
[-16.6241,13.9146],
[-16.5613,14.3004],
[-16.7082,14.3004],
[-16.7891,14.5575],
[-17.1642,14.8147],
[-17.0947,14.9432],
[-17.3867,14.8789],
[-17.4542,14.6861]
]
],
[
[
[-2.5964,4.9144],
[-2.4506,4.9144],
[-2.4511,4.8501],
[-2.3054,4.8501],
[-2.3034,5.1072],
[-2.5221,5.1072],
[-2.5964,4.9144]
]
],
[
[
[-1.7953,4.8501],
[-1.5023,5.0429],
[-1.4294,5.0429],
[-1.2102,5.1072],
[-1.2083,5.3644],
[-1.5732,5.3001],
[-1.7933,5.1072],
[-1.7953,4.8501]
]
],
[
[
[-1.064,5.1715],
[-0.8453,5.1715],
[-0.9162,5.4287],
[-1.062,5.4287],
[-1.064,5.1715]
]
],
[
[
[-0.406,5.4287],
[-0.1868,5.493],
[-0.2573,5.8144],
[-0.4031,5.8144],
[-0.405,5.5572],
[-0.3321,5.5572],
[-0.406,5.4287]
]
],
[
[
[17.9003,-33.1432],
[17.9065,-33.336],
[18.2219,-33.5932],
[18.1715,-34.3649],
[18.4025,-34.3649],
[18.3956,-34.172],
[18.5472,-34.1077],
[18.6359,-34.4292],
[19.1775,-34.4936],
[19.1851,-34.6866],
[19.3393,-34.6866],
[19.4216,-34.8152],
[19.9616,-34.8152],
[20.4872,-34.4936],
[20.2395,-34.1077],
[20.0829,-34.0433],
[20.0802,-33.979],
[19.6779,-33.5289],
[19.3685,-33.4646],
[19.3637,-33.336],
[19.0522,-33.2074],
[17.9003,-33.1432]
]
]
]}
}
