{
"type": "Feature",
"properties": {"id":"cliopatria-later-qin-0410","edge_precision":"unknown","cliopatria_name":"Later Qin","cliopatria_from_year":410,"cliopatria_to_year":413,"cliopatria_area_km2":460712,"cliopatria_wikidata":"Q1730130","cliopatria_wikipedia":"Later Qin","cliopatria_seshat_id":"cn_later_qin_dyn"},
"geometry": {"type": "MultiPolygon", "coordinates": [
[
[
[100.6964,38.3515],
[100.8745,38.0288],
[101.2387,37.9643],
[101.2634,37.8352],
[101.5492,37.7707],
[101.7037,37.5773],
[102.0961,37.7707],
[102.094,37.5773],
[102.2485,37.3838],
[102.534,37.3193],
[102.6889,37.126],
[102.6106,36.9326],
[102.8703,36.6105],
[104.347,36.6105],
[104.7385,36.9971],
[105.7539,37.1904],
[106.9184,36.9971],
[106.9147,36.8037],
[107.0433,36.7393],
[106.9627,36.546],
[107.1157,36.3528],
[107.3486,36.3528],
[107.322,36.2884],
[107.4507,36.224],
[107.4491,36.0308],
[107.3192,35.902],
[106.9317,35.902],
[106.88,35.5802],
[106.4976,35.001],
[106.2756,34.422],
[106.3526,34.422],
[106.2798,34.229],
[106.3854,34.1004],
[106.1891,33.7789],
[106.3722,33.6502],
[106.025,33.3288],
[107.1286,33.2002],
[107.2521,33.3288],
[107.4822,33.3288],
[107.6652,33.2002],
[107.6485,32.943],
[107.8783,32.943],
[108.1016,33.1359],
[108.2379,32.8788],
[109.1566,32.8788],
[109.3161,32.6859],
[109.4691,32.6859],
[109.4991,32.5574],
[109.8814,32.5574],
[109.9115,32.4288],
[110.1709,32.3002],
[111.2405,32.3002],
[111.6166,32.4931],
[113.4441,32.8788],
[114.4112,34.1647],
[114.5429,34.4863],
[114.442,34.615],
[114.7348,35.1297],
[114.8943,35.3227],
[115.3362,35.4514],
[115.3705,35.7089],
[115.293,35.7089],
[115.5404,36.0952],
[115.4628,36.0952],
[115.5489,36.2884],
[115.4713,36.2884],
[115.558,36.4816],
[115.4803,36.4816],
[115.5972,36.7393],
[115.5005,36.8682],
[115.6795,37.2549],
[116.127,37.7062],
[116.6423,37.9643],
[117.143,38.0288],
[117.6808,38.4806],
[117.6025,38.4806],
[117.6677,38.6097],
[117.5893,38.6097],
[117.6549,38.7389],
[117.5764,38.7389],
[116.5514,38.416],
[115.7678,38.416],
[114.4364,38.0933],
[113.9352,37.1904],
[114.0131,37.1904],
[113.9249,36.9971],
[114.0028,36.9971],
[113.9353,36.6749],
[114.013,36.6749],
[113.6017,36.0952],
[112.9978,35.7733],
[112.0916,35.6445],
[111.3628,35.194],
[110.589,35.001],
[110.6185,35.4514],
[110.5411,35.4514],
[110.7285,35.902],
[111.0199,36.224],
[110.8922,36.2884],
[110.9252,36.546],
[110.7479,36.6749],
[110.8109,36.9971],
[110.7331,36.9971],
[110.876,37.3193],
[110.798,37.3193],
[111.0019,37.7707],
[111.337,38.1578],
[111.2106,38.2224],
[111.2712,38.3515],
[111.5504,38.6097],
[111.0492,38.5451],
[110.5662,38.3515],
[110.3979,38.1578],
[109.5758,37.8998],
[108.3252,37.8998],
[107.6427,37.7707],
[107.2455,37.5773],
[106.2533,37.4483],
[106.0193,37.4483],
[105.9966,37.5773],
[105.7121,37.6417],
[105.7399,37.7062],
[105.3494,37.7062],
[105.3772,37.7707],
[104.4629,37.6417],
[104.3616,37.7707],
[103.764,37.8352],
[103.6626,37.9643],
[103.8799,38.2869],
[103.7514,38.3515],
[103.8361,38.5451],
[104.1075,38.8034],
[103.6079,38.7389],
[103.6653,38.868],
[104.6676,39.5143],
[104.5828,39.8376],
[102.265,39.7729],
[102.0098,39.385],
[101.2874,38.9972],
[100.6964,38.3515]
]
]
]}
}
