{
"type": "Feature",
"properties": {"id":"cliopatria-duchy-of-bavaria-1305","edge_precision":"unknown","cliopatria_name":"Duchy of Bavaria","cliopatria_from_year":1305,"cliopatria_to_year":1325,"cliopatria_area_km2":35188,"cliopatria_wikidata":"Q47261","cliopatria_wikipedia":"Duchy of Bavaria","cliopatria_seshat_id":"de_empire_3","cliopatria_member_of":"(Holy Roman Empire)"},
"geometry": {"type": "MultiPolygon", "coordinates": [
[
[
[7.0153,49.5816],
[7.3573,49.25],
[7.6882,49.3826],
[7.8603,49.1175],
[7.8616,49.0513],
[8.1127,48.9851],
[8.2748,49.25],
[8.7745,49.3163],
[8.6057,49.4489],
[8.3551,49.4489],
[8.2672,49.7143],
[7.8488,49.7143],
[7.7612,49.9136],
[7.5098,49.9136],
[7.6005,49.5816],
[7.0153,49.5816]
]
],
[
[
[10.0272,49.1175],
[10.0278,48.9851],
[10.278,48.8527],
[10.2784,48.7204],
[10.445,48.5881],
[10.5286,48.2578],
[10.5287,48.1917],
[10.4469,47.7959],
[10.6948,47.73],
[10.6124,47.5982],
[10.6949,47.5982],
[11.2723,47.5323],
[11.2721,47.4665],
[11.437,47.4665],
[11.4365,47.3348],
[11.601,47.269],
[11.848,47.269],
[12.0146,47.5323],
[12.2621,47.5323],
[12.3427,47.3348],
[12.5081,47.4006],
[12.5934,47.6641],
[12.5949,47.7959],
[12.4304,47.8619],
[12.4324,48.0597],
[11.9368,48.1917],
[11.8549,48.3238],
[10.8601,48.3238],
[10.9431,48.4559],
[11.2752,48.522],
[11.4427,48.8527],
[11.7759,48.9189],
[11.8592,48.9189],
[12.4433,49.0513],
[12.7802,49.3163],
[12.3676,49.7143],
[12.3709,49.98],
[12.1216,50.1795],
[11.8697,50.1795],
[11.6997,49.9136],
[11.1964,49.7807],
[11.2789,49.5152],
[11.028,49.4489],
[11.0276,49.25],
[11.2778,49.25],
[11.2773,49.1175],
[10.8605,49.0513],
[11.027,48.9851],
[10.9436,48.8527],
[10.6107,48.9189],
[10.3602,49.25],
[10.0272,49.1175]
]
]
]}
}
