{
"type": "Feature",
"properties": {"id":"cliopatria-aquitaine-0629","edge_precision":"unknown","cliopatria_name":"Aquitaine","cliopatria_from_year":629,"cliopatria_to_year":632,"cliopatria_area_km2":82665,"cliopatria_wikidata":"Q1179","cliopatria_wikipedia":"Aquitaine","cliopatria_seshat_id":"fr_aquitaine_duc_1"},
"geometry": {"type": "MultiPolygon", "coordinates": [
[
[
[-1.6922,43.4072],
[-1.6876,43.3421],
[-1.4418,43.2769],
[-1.4284,43.0816],
[-1.027,43.0816],
[-0.5288,42.8213],
[-0.2081,42.8213],
[0.0401,42.6912],
[1.0747,42.8213],
[1.4855,42.6262],
[1.7898,42.9515],
[1.9503,42.9515],
[2.095,43.2769],
[2.6338,43.7982],
[2.7951,43.7982],
[3.0255,44.0591],
[3.4292,44.0591],
[3.8146,44.516],
[3.7229,44.7773],
[3.2305,44.908],
[3.08,44.6466],
[2.5844,44.8426],
[2.516,44.5813],
[2.2762,44.516],
[2.101,44.7773],
[1.3675,44.8426],
[0.9312,45.3659],
[0.5284,45.3004],
[0.2236,44.9734],
[0.0612,44.9734],
[-0.1224,45.3004],
[-1.18,45.3004],
[-1.1753,45.235],
[-1.3214,43.8634],
[-1.402,43.8634],
[-1.4599,43.5375],
[-1.6922,43.4072]
]
]
]}
}
