{
"type": "Feature",
"properties": {"id":"cliopatria-four-oirats-1468","edge_precision":"unknown","cliopatria_name":"Four Oirats","cliopatria_from_year":1468,"cliopatria_to_year":1474,"cliopatria_area_km2":1128030,"cliopatria_wikidata":"Q4332415","cliopatria_wikipedia":"Oirat Confederation"},
"geometry": {"type": "MultiPolygon", "coordinates": [
[
[
[79.0024,46.4145],
[79.4661,46.3489],
[79.4383,46.2833],
[79.8737,46.1521],
[79.9,46.0209],
[80.7945,45.6278],
[80.8204,45.4968],
[80.9833,45.4968],
[81.3587,45.0388],
[81.5211,45.0388],
[81.6004,44.8426],
[81.8972,44.7773],
[82.2724,44.516],
[83.188,44.3854],
[83.16,44.3201],
[83.7261,44.3201],
[83.698,44.2548],
[84.0213,44.2548],
[83.9931,44.1896],
[85.281,43.9938],
[85.2525,43.9286],
[86.6986,43.733],
[86.6698,43.6678],
[87.0726,43.6678],
[87.0436,43.6027],
[87.4978,43.5375],
[87.4688,43.4723],
[89.1506,43.2769],
[89.1211,43.2118],
[90.3175,43.0165],
[91.759,44.7119],
[92.55,45.1696],
[93.7544,45.6278],
[94.4769,46.0865],
[95.4991,46.4802],
[96.552,47.0716],
[96.6231,47.2032],
[98.9784,48.4559],
[99.5832,48.9189],
[99.7497,48.9189],
[99.9923,49.1838],
[100.8621,49.6479],
[102.1749,50.6455],
[103.1941,51.6472],
[103.212,51.9151],
[103.127,51.9151],
[103.3545,52.1163],
[103.2693,52.1163],
[103.365,52.2505],
[103.2797,52.2505],
[103.3759,52.3847],
[103.2906,52.3847],
[103.3992,52.6535],
[103.2402,52.7881],
[103.3154,53.1248],
[103.1212,53.3271],
[103.2214,53.4621],
[103.0637,53.5971],
[103.1142,53.6647],
[102.9418,53.6647],
[102.9567,53.7999],
[102.7841,53.7999],
[102.7993,53.9352],
[102.6265,53.9352],
[102.6419,54.0706],
[102.3469,54.1384],
[102.398,54.2061],
[102.1382,54.2061],
[102.1893,54.2739],
[102.016,54.2739],
[102.0672,54.3417],
[101.8071,54.3417],
[101.8583,54.4095],
[101.6848,54.4095],
[101.736,54.4774],
[101.2307,54.6132],
[101.1438,54.6132],
[100.6376,54.7491],
[100.6888,54.8171],
[99.4485,55.0211],
[99.4995,55.0892],
[97.1326,54.9531],
[96.5608,54.8851],
[96.463,54.7491],
[96.1536,54.6811],
[94.9282,54.5453],
[91.5187,53.5971],
[89.9732,52.6535],
[88.5655,51.4465],
[88.3961,51.4465],
[88.3646,51.246],
[87.9582,50.9789],
[86.7964,49.7807],
[86.6289,49.7807],
[86.5732,49.5152],
[86.1854,49.25],
[85.67,48.3899],
[85.6375,48.3238],
[85.4323,47.73],
[85.2868,47.5982],
[83.9783,47.269],
[83.3639,47.0058],
[80.8896,46.6115],
[80.7507,46.4802],
[80.0441,46.7429],
[80.0725,46.8086],
[79.6057,46.6772],
[79.3055,46.7429],
[79.2496,46.6115],
[79.0856,46.6115],
[79.0024,46.4145]
]
],
[
[
[103.5844,37.9643],
[103.6626,37.9643],
[103.6902,38.0288],
[103.612,38.0288],
[103.5844,37.9643]
]
]
]}
}
