{
"type": "Feature",
"properties": {"id":"cliopatria-principality-of-pinsk-1294","edge_precision":"unknown","cliopatria_name":"Principality of Pinsk","cliopatria_from_year":1294,"cliopatria_to_year":1313,"cliopatria_area_km2":34386,"cliopatria_wikidata":"Q671362","cliopatria_wikipedia":"Principality of Turov"},
"geometry": {"type": "MultiPolygon", "coordinates": [
[
[
[25.4492,52.99],
[25.5324,52.2505],
[25.6176,52.2505],
[25.5324,51.5134],
[26.0254,51.3797],
[25.9868,51.0457],
[26.4937,51.0457],
[26.5941,51.1792],
[27.211,51.3797],
[27.4931,52.2505],
[27.6726,52.3176],
[27.6997,52.5191],
[28.2024,53.0574],
[28.241,53.3271],
[27.4859,53.4621],
[26.8835,53.4621],
[26.5216,53.3271],
[25.9283,53.3946],
[25.4492,52.99]
]
]
]}
}
