{
"type": "Feature",
"properties": {"id":"cliopatria-principality-of-bulgaria-1880","edge_precision":"unknown","cliopatria_name":"Principality of Bulgaria","cliopatria_from_year":1880,"cliopatria_to_year":1884,"cliopatria_area_km2":63416,"cliopatria_wikidata":"Q815731","cliopatria_wikipedia":"Principality of Bulgaria"},
"geometry": {"type": "MultiPolygon", "coordinates": [
[
[
[22.3707,42.3662],
[22.5132,42.1063],
[23.5466,42.0413],
[23.8005,42.2362],
[24.205,42.3012],
[24.1549,42.6912],
[24.4055,42.8213],
[24.8064,42.8213],
[24.876,42.6912],
[25.597,42.6912],
[26.0949,42.8864],
[27.224,42.9515],
[27.699,42.8864],
[27.7665,42.7563],
[27.8466,42.7563],
[27.8049,43.1467],
[27.8982,43.2769],
[28.2264,43.3421],
[28.1592,43.4723],
[28.4811,43.4723],
[28.5014,43.6678],
[28.5082,43.733],
[27.3376,44.1243],
[26.6106,44.1243],
[26.114,43.9938],
[25.8486,43.733],
[25.4343,43.6027],
[24.8814,43.733],
[24.1509,43.6678],
[23.6018,43.8634],
[22.9518,43.7982],
[22.8946,44.1243],
[22.6569,44.1896],
[22.4009,43.9938],
[22.374,43.6027],
[22.9098,43.2118],
[22.9005,43.0816],
[22.3924,42.6912],
[22.5438,42.5612],
[22.3707,42.3662]
]
]
]}
}
