{
"type": "Feature",
"properties": {"id":"cliopatria-british-empire-1842","edge_precision":"unknown","cliopatria_name":"British Empire","cliopatria_from_year":1842,"cliopatria_to_year":1845,"cliopatria_area_km2":3545519,"cliopatria_wikidata":"Q8680","cliopatria_wikipedia":"British Empire","cliopatria_seshat_id":"gb_british_emp_1","cliopatria_member_of":"(British Empire)"},
"geometry": {"type": "MultiPolygon", "coordinates": [
[
[
[60.9814,29.6652],
[61.4516,29.2795],
[61.4882,29.0224],
[61.8743,28.5724],
[62.7984,28.1867],
[62.8274,27.8652],
[62.9028,27.8652],
[62.822,27.2866],
[63.3308,27.158],
[63.2789,26.7723],
[63.1118,26.6437],
[62.4277,26.5794],
[61.854,26.1937],
[61.651,25.1007],
[62.0179,25.0364],
[62.182,25.165],
[62.4739,25.1007],
[62.5634,25.2293],
[63.5362,25.2293],
[63.6262,25.3579],
[64.225,25.3579],
[64.2845,25.2293],
[64.8006,25.165],
[64.8161,25.2936],
[66.0215,25.3579],
[66.3451,25.5507],
[66.6203,25.3579],
[66.6475,24.9721],
[66.6398,24.9078],
[67.1121,25.1007],
[67.4936,25.7436],
[67.4529,26.0008],
[67.2453,26.1294],
[67.1937,26.8366],
[67.1186,26.8366],
[67.2881,27.4795],
[67.4483,27.5438],
[67.563,27.8009],
[68.5934,28.1224],
[68.8404,28.251],
[68.8616,28.3795],
[69.3465,28.5724],
[69.477,28.8938],
[69.6281,28.8938],
[69.8357,29.2152],
[69.7946,29.4081],
[69.6548,29.4723],
[69.7134,29.7937],
[69.8768,29.858],
[70.1011,30.2436],
[69.8857,30.3079],
[69.9352,30.565],
[69.8593,30.565],
[70.1127,31.0791],
[70.0367,31.0791],
[70.1148,31.4647],
[69.9757,31.529],
[69.734,31.4647],
[69.5979,31.9146],
[69.2927,31.9146],
[69.0874,31.6575],
[68.7825,31.6575],
[68.6561,31.7861],
[68.1223,31.7861],
[67.9312,31.5933],
[67.6137,31.529],
[67.6646,31.4005],
[67.817,31.4005],
[67.551,31.2076],
[66.8783,31.2719],
[66.4371,30.9506],
[66.3268,29.9223],
[66.251,29.9223],
[65.9903,29.7294],
[65.1247,29.5366],
[64.5298,29.6009],
[64.1197,29.4081],
[63.8274,29.4723],
[63.7517,29.4723],
[62.3037,29.4081],
[61.0015,29.7937],
[60.9814,29.6652]
]
],
[
[
[68.0014,26.708],
[68.8654,26.4508],
[69.054,26.1937],
[70.0199,26.1294],
[70.2175,25.9365],
[70.1907,25.7436],
[70.6973,25.615],
[70.7862,25.165],
[71.1097,24.7792],
[71.0689,24.4578],
[71.2183,24.4578],
[71.3436,24.2649],
[71.0213,24.072],
[69.76,24.1363],
[69.364,23.9435],
[68.7596,23.8792],
[68.3502,23.5577],
[68.3431,23.4934],
[68.4034,23.3649],
[68.6199,23.3006],
[68.6058,23.172],
[68.8083,22.9791],
[69.2342,22.7863],
[69.7484,22.722],
[70.0674,22.9148],
[70.4326,22.8506],
[70.1811,22.5934],
[69.4974,22.4648],
[69.4093,22.3363],
[68.9765,22.4648],
[68.9495,22.2077],
[69.3487,21.7577],
[69.4974,21.7577],
[69.9032,21.372],
[69.8899,21.2434],
[70.2955,20.8577],
[70.7206,20.6648],
[71.0915,20.6648],
[72.1037,21.1148],
[72.1916,21.2434],
[72.2054,21.372],
[72.2797,21.372],
[72.3214,21.7577],
[72.1798,21.822],
[72.1055,21.822],
[72.1125,21.8863],
[72.1868,21.8863],
[72.1938,21.9505],
[72.3425,21.9505],
[72.378,22.272],
[72.5267,22.272],
[72.5444,21.7577],
[72.686,21.6934],
[72.7603,21.6934],
[72.7533,21.6291],
[72.5629,21.2434],
[72.8994,20.922],
[72.8373,20.3434],
[72.6339,19.8291],
[72.7614,19.6362],
[72.7337,19.3791],
[72.8748,19.3148],
[72.9398,18.5434],
[72.9192,18.3505],
[72.9931,18.3505],
[72.9794,18.2219],
[73.0533,18.2219],
[72.9589,18.0291],
[73.2534,17.3219],
[73.2542,16.6147],
[73.3279,16.6147],
[73.4781,15.9076],
[73.5517,15.9076],
[73.5454,15.8433],
[73.8085,15.5218],
[73.8023,15.4575],
[74.3172,15.4575],
[74.5746,15.0718],
[74.5506,14.8147],
[74.3126,14.6218],
[74.3068,14.5575],
[74.6636,13.5932],
[74.7477,12.8217],
[75.0647,12.1789],
[75.3385,11.9217],
[75.4568,11.536],
[75.6811,11.6003],
[75.5208,11.4074],
[75.8552,10.9574],
[75.9021,10.5717],
[76.2338,10.0574],
[76.2214,9.8645],
[76.3635,9.8002],
[76.3553,9.6717],
[76.2092,9.6717],
[76.2622,9.3502],
[76.3353,9.3502],
[76.3313,9.2859],
[76.5888,8.7073],
[77.0008,8.2573],
[77.0739,8.2573],
[77.0702,8.193],
[77.2819,8.0645],
[77.5739,8.0645],
[77.8733,8.193],
[78.1803,8.4502],
[78.2842,8.9645],
[78.5883,9.1574],
[78.9577,9.2216],
[78.9865,9.6717],
[79.2959,9.9288],
[79.3176,10.2502],
[79.9026,10.2502],
[79.8749,10.8931],
[79.7333,10.9574],
[79.738,11.0217],
[79.679,11.2146],
[79.8985,11.2146],
[79.9033,11.2788],
[79.8301,11.2788],
[79.8693,11.7931],
[79.7228,11.7931],
[79.7329,11.9217],
[79.9577,11.986],
[79.973,12.1789],
[80.303,12.6289],
[80.3414,13.0789],
[80.4147,13.0789],
[80.3754,13.4646],
[80.161,13.5289],
[80.246,13.6575],
[80.2637,14.6218],
[80.0882,15.0718],
[80.376,15.7147],
[80.6106,15.8433],
[81.1188,15.779],
[81.3227,16.2933],
[82.0665,16.3576],
[82.3832,16.5504],
[82.4055,16.7433],
[82.2581,16.7433],
[82.2731,16.8719],
[82.4508,17.129],
[83.153,17.4505],
[83.5612,17.7719],
[83.6667,18.0291],
[84.0519,18.1576],
[84.3796,18.4148],
[84.7487,18.9934],
[85.4149,19.5719],
[85.374,19.8291],
[85.5221,19.8291],
[85.4972,19.6362],
[85.6453,19.6362],
[86.4194,19.8934],
[86.4362,20.022],
[86.8404,20.2791],
[86.7915,20.472],
[87.0309,20.6005],
[86.9589,21.1791],
[86.8847,21.1791],
[86.9846,21.372],
[87.762,21.6291],
[88.1033,21.9505],
[88.1777,21.9505],
[88.1991,21.5648],
[88.5139,21.6934],
[88.6416,22.0791],
[88.716,22.0791],
[88.728,21.6291],
[89.0995,21.6291],
[89.1173,21.7577],
[89.7118,21.7577],
[89.8695,21.822],
[89.8966,22.0148],
[90.232,21.7577],
[90.4263,22.0791],
[90.6494,22.0791],
[90.631,21.9505],
[90.8632,22.0148],
[90.9378,22.5291],
[91.497,22.7863],
[91.3748,22.4648],
[91.7374,22.4005],
[91.7648,22.0791],
[91.8948,21.9505],
[91.8302,21.5005],
[92.0531,21.5005],
[92.0074,21.1791],
[92.1195,20.922],
[92.3891,20.7291],
[92.371,20.6005],
[92.6313,20.3434],
[92.8537,20.3434],
[92.8265,20.1505],
[93.0579,20.2148],
[93.0215,19.9577],
[93.401,20.022],
[93.3827,19.8934],
[93.605,19.8934],
[93.5774,19.7005],
[93.7996,19.7005],
[93.6795,19.3791],
[93.5315,19.3791],
[93.5132,19.2505],
[93.7633,18.9291],
[93.5414,18.9291],
[93.514,18.7362],
[93.8006,18.6719],
[93.828,18.8648],
[94.1238,18.8648],
[94.2258,18.5434],
[94.3645,18.4791],
[94.5222,18.0291],
[94.5327,17.579],
[94.6065,17.579],
[94.4353,16.8719],
[94.4266,16.8076],
[94.574,16.8076],
[94.848,17.1933],
[95.0674,17.7076],
[95.0391,18.0291],
[95.1589,18.3505],
[94.9649,18.5434],
[94.9559,18.9934],
[94.7897,19.3791],
[94.8363,19.7005],
[94.4477,20.6005],
[94.1046,20.7934],
[94.1418,21.0505],
[93.6407,21.1791],
[93.5201,21.372],
[93.0931,21.5005],
[93.0374,21.6291],
[93.0289,22.0791],
[93.1871,22.1434],
[93.2351,22.4648],
[93.1607,22.4648],
[93.1747,23.0434],
[93.4182,23.172],
[93.4796,23.5577],
[93.3512,23.6863],
[93.4363,23.7506],
[93.4041,24.0077],
[93.8519,24.0077],
[93.9797,23.8792],
[94.2143,23.9435],
[94.3656,24.3935],
[94.7443,24.8435],
[94.7021,25.4221],
[95.1899,26.0008],
[95.079,26.1937],
[95.1589,26.5794],
[95.9318,27.0295],
[96.0497,27.2223],
[96.8914,27.2866],
[96.9376,27.158],
[97.1631,27.158],
[97.1317,27.3509],
[96.9355,27.4795],
[96.9952,27.7367],
[97.3422,27.9295],
[97.4199,28.251],
[96.8638,28.4438],
[96.2602,28.4438],
[95.7165,28.3795],
[95.444,28.1867],
[95.0518,28.1224],
[94.751,27.8009],
[94.137,27.4152],
[94.0054,27.158],
[93.4994,26.9009],
[92.147,26.9009],
[91.8199,26.7723],
[90.6933,26.7723],
[90.5692,26.9009],
[90.3438,26.9009],
[90.0045,26.708],
[89.7041,26.708],
[89.5044,26.8366],
[88.9914,26.9009],
[88.8048,27.0938],
[88.8309,27.2223],
[88.7557,27.2223],
[88.3537,27.0938],
[88.1542,27.2223],
[88.079,27.2223],
[88.0402,27.0295],
[88.2148,26.7723],
[88.1649,26.5151],
[87.9903,26.3865],
[87.2399,26.3865],
[87.1141,26.5151],
[86.6516,26.4508],
[86.3126,26.6437],
[85.787,26.6437],
[85.7362,26.7723],
[85.2735,26.708],
[84.9972,26.8366],
[84.8836,27.0295],
[84.7333,27.0295],
[84.7579,27.158],
[84.4318,27.4152],
[83.291,27.3509],
[82.9395,27.4795],
[82.5377,27.7367],
[81.885,27.8652],
[81.1945,28.1867],
[80.957,28.5081],
[80.6811,28.6367],
[80.3036,28.6367],
[80.1031,28.7652],
[80.4707,29.7937],
[81.011,30.1794],
[80.8417,30.4364],
[80.2636,30.565],
[79.9724,30.9506],
[79.5922,30.9506],
[79.1645,31.4005],
[78.9971,31.3362],
[78.7686,31.3362],
[78.7987,31.7861],
[78.5553,32.0431],
[78.4807,32.3645],
[78.1438,32.236],
[78.0986,32.3645],
[77.9458,32.3645],
[77.8228,32.1717],
[77.5327,32.236],
[77.2729,32.1074],
[77.2425,31.9789],
[76.8609,31.9789],
[76.6021,31.8503],
[76.3904,31.5933],
[76.4989,31.4005],
[76.3794,31.2076],
[76.4887,31.0148],
[75.576,31.0148],
[75.39,31.2076],
[74.7812,31.2076],
[73.9469,30.5007],
[73.9205,30.3722],
[72.6171,29.9223],
[72.24,29.5366],
[71.9132,29.4081],
[71.1329,29.2795],
[71.1096,29.1509],
[70.7841,29.0224],
[70.7613,28.8938],
[70.2413,28.5081],
[70.0903,28.5081],
[69.1548,27.8652],
[69.2097,27.7367],
[69.3603,27.7367],
[69.395,27.4795],
[69.6207,27.4795],
[69.7511,27.3509],
[69.6363,27.0938],
[69.4011,27.0295],
[69.3259,27.0295],
[68.6033,27.2223],
[68.5019,27.5438],
[68.2762,27.5438],
[68.021,27.3509],
[68.0017,27.2223],
[68.2081,27.0938],
[68.0014,26.708]
],
[
[72.8976,20.2148],
[73.1871,20.1505],
[73.1802,20.0862],
[72.9579,20.0862],
[72.8976,20.2148]
],
[
[74.3744,23.4291],
[74.3902,23.5577],
[74.9364,23.7506],
[74.9112,24.1363],
[75.5916,24.2006],
[75.758,24.3292],
[75.784,24.5221],
[75.5686,24.5864],
[75.3846,24.3292],
[75.0858,24.3292],
[75.103,24.4578],
[75.2524,24.4578],
[75.2037,24.6506],
[75.5862,24.7149],
[75.6788,24.8435],
[75.8283,24.8435],
[76.0258,24.6506],
[75.9564,24.1363],
[75.724,24.072],
[75.7818,23.9435],
[76.0141,24.0077],
[76.2808,24.3292],
[76.5048,24.3292],
[76.5622,24.2006],
[76.5536,24.1363],
[76.7776,24.1363],
[76.8351,24.0077],
[77.0504,23.9435],
[76.6689,23.8792],
[76.5527,23.5577],
[76.6936,23.4934],
[76.6773,23.3649],
[76.363,23.2363],
[76.214,23.2363],
[76.0971,23.4934],
[75.5007,23.4934],
[75.2373,23.172],
[75.0962,23.2363],
[75.1199,23.4291],
[74.3744,23.4291]
],
[
[74.8935,21.5005],
[74.9007,21.5648],
[74.9896,21.6934],
[75.2125,21.6934],
[75.1906,21.5005],
[75.1163,21.5005],
[75.1091,21.4363],
[74.9605,21.4363],
[74.9678,21.5005],
[74.8935,21.5005]
],
[
[75.4135,21.5005],
[75.4281,21.6291],
[75.5767,21.6291],
[75.5694,21.5648],
[75.6437,21.5648],
[75.629,21.4363],
[75.4805,21.4363],
[75.4878,21.5005],
[75.4135,21.5005]
],
[
[75.8519,21.4363],
[76.0894,21.5648],
[76.186,21.7577],
[76.3346,21.7577],
[76.3495,21.8863],
[76.6848,22.2077],
[76.7899,22.4648],
[76.8289,22.7863],
[76.6957,22.9148],
[76.7196,23.1077],
[77.4145,23.3006],
[77.3897,23.6863],
[77.5388,23.6863],
[77.5883,23.4934],
[77.6217,23.172],
[77.3901,23.1077],
[77.1387,22.272],
[76.9823,22.2077],
[76.9594,22.0148],
[77.0929,21.8863],
[77.0778,21.7577],
[77.1521,21.7577],
[77.122,21.5005],
[76.5872,21.372],
[76.1865,21.1148],
[75.9638,21.1148],
[75.8519,21.4363]
],
[
[76.764,25.615],
[76.8034,25.8722],
[77.304,26.1937],
[77.2062,26.5151],
[77.4635,26.708],
[77.6888,26.708],
[77.7857,26.8366],
[78.2364,26.8366],
[78.5039,26.6437],
[78.9435,26.5794],
[78.9435,26.1294],
[78.7726,26.0008],
[78.7417,25.8079],
[78.4217,25.6793],
[78.4117,25.615],
[78.2519,25.5507],
[78.2127,25.2936],
[78.4275,25.2293],
[78.5483,25.0364],
[79.0528,24.9078],
[78.6695,24.8435],
[78.6508,24.7149],
[78.875,24.7149],
[78.922,24.5221],
[78.2884,24.2649],
[78.1872,24.072],
[77.7568,24.2006],
[77.2829,24.0077],
[77.3001,24.1363],
[77.0102,24.2006],
[77.0631,24.5864],
[77.2216,24.6506],
[77.2397,24.7792],
[77.0246,24.8435],
[77.0805,25.2293],
[77.2302,25.2293],
[77.4087,25.4221],
[76.8943,25.4864],
[76.764,25.615]
],
[
[77.1084,28.5081],
[77.1454,28.701],
[77.3089,28.7652],
[77.435,28.6367],
[77.2593,28.5081],
[77.1084,28.5081]
],
[
[88.3239,22.4648],
[88.3698,22.7863],
[88.5187,22.7863],
[88.4727,22.4648],
[88.3239,22.4648]
]
],
[
[
[79.6069,7.8716],
[79.7419,7.6787],
[79.7594,6.6501],
[79.9521,6.1358],
[80.2311,5.8787],
[80.6686,5.8787],
[81.3375,6.1358],
[81.8779,6.7144],
[81.9167,7.4216],
[81.7744,7.4859],
[81.6544,7.9359],
[81.4468,8.1288],
[81.3971,8.5145],
[81.255,8.5788],
[81.259,8.6431],
[80.987,8.9645],
[80.9952,9.0931],
[80.8532,9.1574],
[80.8615,9.2859],
[80.7195,9.3502],
[80.7279,9.4788],
[80.4398,9.5431],
[80.5214,9.6717],
[80.4526,9.7359],
[79.8764,9.8645],
[79.8636,9.6717],
[80.0786,9.6074],
[79.993,9.4145],
[80.0495,9.1574],
[79.8063,8.7716],
[79.764,8.0645],
[79.618,8.0645],
[79.6069,7.8716]
]
],
[
[
[91.0304,22.1434],
[91.2628,22.2077],
[91.2166,22.4005],
[91.0677,22.4005],
[91.0584,22.3363],
[91.0304,22.1434]
]
]
]}
}
