{
"type": "Feature",
"properties": {"id":"cliopatria-republic-of-venice-1463","edge_precision":"unknown","cliopatria_name":"Republic of Venice","cliopatria_from_year":1463,"cliopatria_to_year":1474,"cliopatria_area_km2":51996,"cliopatria_wikidata":"Q4948","cliopatria_wikipedia":"Republic of Venice","cliopatria_seshat_id":"it_venetian_rep_3"},
"geometry": {"type": "MultiPolygon", "coordinates": [
[
[
[9.3087,45.8898],
[9.3105,45.6933],
[9.4746,45.5623],
[9.719,45.5623],
[9.8834,45.3004],
[10.4531,45.1696],
[10.534,45.4313],
[11.1032,45.1042],
[11.4287,45.235],
[12.1606,45.235],
[12.1611,45.3004],
[12.1628,45.4968],
[12.6522,45.5623],
[12.8168,45.6933],
[13.0605,45.6278],
[13.0614,45.6933],
[13.1429,45.6933],
[13.1448,45.8243],
[13.308,45.8243],
[13.312,46.0865],
[13.4765,46.1521],
[13.3978,46.3489],
[13.5638,46.4802],
[12.0905,46.6772],
[11.8431,46.4802],
[11.8415,46.2177],
[11.6772,46.0865],
[11.3503,46.0865],
[11.0229,45.7588],
[10.6967,45.6933],
[10.4516,45.8898],
[10.4512,46.0865],
[10.5329,46.0865],
[10.5326,46.2833],
[10.3687,46.3489],
[10.1245,46.0209],
[9.6338,46.0865],
[9.3892,46.0209],
[9.3087,45.8898]
]
],
[
[
[13.5441,45.3004],
[13.7056,45.235],
[13.7809,44.908],
[13.9432,44.908],
[13.9457,45.0388],
[14.027,45.0388],
[13.7869,45.235],
[14.1175,45.4968],
[13.5473,45.4968],
[13.5441,45.3004]
]
],
[
[
[14.2609,44.5813],
[14.5024,44.516],
[14.5113,44.908],
[14.3504,44.9734],
[14.2692,44.9734],
[14.2609,44.5813]
]
],
[
[
[14.5158,45.1042],
[14.758,45.0388],
[14.6798,45.1696],
[14.5173,45.1696],
[14.5158,45.1042]
]
],
[
[
[14.9865,44.4507],
[15.0674,44.4507],
[15.0692,44.516],
[14.9882,44.516],
[14.9865,44.4507]
]
],
[
[
[15.0657,44.3854],
[15.1466,44.3854],
[15.1484,44.4507],
[15.0674,44.4507],
[15.0657,44.3854]
]
],
[
[
[15.1449,44.3201],
[15.2187,44.0591],
[15.4591,43.9938],
[15.3747,43.8634],
[15.6186,43.9286],
[15.6954,43.7982],
[15.9352,43.733],
[16.0117,43.6027],
[15.9271,43.4723],
[16.5754,43.6027],
[16.7342,43.5375],
[16.7272,43.3421],
[17.0513,43.4072],
[17.1219,43.1467],
[17.285,43.2118],
[17.3654,43.2118],
[17.1342,43.4723],
[17.0537,43.4723],
[17.0562,43.5375],
[16.9757,43.5375],
[16.8218,43.733],
[16.5016,43.7982],
[16.421,43.7982],
[16.4232,43.8634],
[16.2619,43.8634],
[16.2641,43.9286],
[15.7032,44.0591],
[15.5474,44.2548],
[15.1466,44.3854],
[15.1449,44.3201]
]
],
[
[
[17.3577,43.0165],
[17.5157,42.9515],
[17.5209,43.0816],
[17.3603,43.0816],
[17.3577,43.0165]
]
],
[
[
[17.5079,42.7563],
[17.5881,42.7563],
[17.5907,42.8213],
[17.5105,42.8213],
[17.5079,42.7563]
]
],
[
[
[18.3036,42.6262],
[18.852,42.3662],
[19.1563,42.0413],
[19.2361,42.0413],
[19.5424,41.7816],
[19.5392,41.7167],
[19.6189,41.7167],
[19.6352,42.0413],
[19.3223,42.1712],
[19.1625,42.1712],
[18.7781,42.4962],
[18.7872,42.6912],
[18.7131,42.8213],
[18.3065,42.6912],
[18.3036,42.6262]
]
],
[
[
[19.4283,41.068],
[19.6665,41.068],
[19.7685,41.522],
[19.4532,41.5869],
[19.4501,41.522],
[19.5297,41.522],
[19.4469,41.4571],
[19.5108,41.1328],
[19.4314,41.1328],
[19.4283,41.068]
]
],
[
[
[19.7578,39.6436],
[19.9125,39.5789],
[19.9214,39.7729],
[19.7637,39.7729],
[19.7578,39.6436]
]
],
[
[
[21.7435,36.8682],
[21.9023,36.9326],
[21.9054,36.9971],
[21.7497,36.9971],
[21.7435,36.8682]
]
],
[
[
[22.6364,37.5773],
[22.9486,37.5773],
[22.874,37.6417],
[22.8775,37.7062],
[22.6433,37.7062],
[22.6364,37.5773]
]
],
[
[
[22.874,36.1596],
[23.1068,36.1596],
[23.1168,36.3528],
[22.9649,36.4172],
[22.8872,36.4172],
[22.874,36.1596]
]
],
[
[
[23.0254,38.9326],
[23.3318,38.8034],
[23.4928,38.868],
[23.4142,38.868],
[23.3435,38.9972],
[23.0331,39.0618],
[23.0254,38.9326]
]
],
[
[
[23.4849,38.7389],
[23.5634,38.7389],
[23.5673,38.8034],
[23.4888,38.8034],
[23.4849,38.7389]
]
],
[
[
[23.5634,38.7389],
[23.6261,38.4806],
[24.0884,38.3515],
[24.1587,38.2224],
[24.1789,38.5451],
[23.7988,38.7389],
[23.5634,38.7389]
]
],
[
[
[23.6154,35.5158],
[23.6792,35.2584],
[24.4484,35.194],
[24.7574,35.194],
[24.8237,35.001],
[26.1401,35.0653],
[26.2253,35.194],
[25.6806,35.1297],
[25.6923,35.3227],
[24.301,35.3227],
[24.1499,35.3871],
[24.1569,35.5158],
[23.6154,35.5158]
]
],
[
[
[24.2013,37.6417],
[24.2716,37.5128],
[24.4316,37.5773],
[24.3614,37.7062],
[24.2833,37.7062],
[24.2013,37.6417]
]
],
[
[
[24.3565,38.868],
[24.662,38.7389],
[24.6749,38.9326],
[24.4435,38.9972],
[24.365,38.9972],
[24.3565,38.868]
]
],
[
[
[24.6819,37.8352],
[24.83,37.7062],
[25.0685,37.7707],
[24.7724,38.0288],
[24.6942,38.0288],
[24.6819,37.8352]
]
],
[
[
[24.9862,37.7062],
[25.0519,37.5128],
[25.286,37.5128],
[25.2205,37.7062],
[24.9862,37.7062]
]
],
[
[
[25.3308,36.9971],
[25.5644,36.9971],
[25.5727,37.126],
[25.339,37.126],
[25.3308,36.9971]
]
]
]}
}
