{
"type": "Feature",
"properties": {"id":"cliopatria-kingdom-of-hungary-1066","edge_precision":"unknown","cliopatria_name":"Kingdom of Hungary","cliopatria_from_year":1066,"cliopatria_to_year":1084,"cliopatria_area_km2":271512,"cliopatria_wikidata":"Q171150","cliopatria_wikipedia":"Kingdom of Hungary","cliopatria_seshat_id":"hu_arpad_dyn"},
"geometry": {"type": "MultiPolygon", "coordinates": [
[
[
[15.86,46.5459],
[16.0197,46.4145],
[16.1835,46.4145],
[16.4361,46.6115],
[17.1511,46.0209],
[17.8751,45.7588],
[18.4461,45.7588],
[18.7788,45.8898],
[18.9259,45.5623],
[19.0074,45.5623],
[18.9976,45.3659],
[19.2351,45.235],
[19.8856,45.235],
[20.1369,45.3659],
[20.2884,45.1696],
[20.5284,45.1042],
[20.5169,44.908],
[20.7486,44.7119],
[21.4055,44.8426],
[21.8791,44.6466],
[21.9514,44.516],
[22.6895,44.6466],
[22.9469,44.8426],
[23.3207,45.4968],
[24.4663,45.5623],
[24.5642,45.7588],
[25.5431,45.7588],
[25.8995,46.0865],
[25.748,46.2177],
[25.7721,46.4802],
[25.6902,46.4802],
[25.6384,46.8086],
[25.41,47.0058],
[25.4281,47.2032],
[25.2635,47.2032],
[25.2052,47.4665],
[25.0522,47.5982],
[24.8872,47.5982],
[24.905,47.7959],
[24.5862,47.9278],
[24.6867,48.1257],
[24.3672,48.2578],
[24.379,48.3899],
[24.053,48.4559],
[23.8269,48.7204],
[23.0897,48.8527],
[22.7784,49.1175],
[22.5231,49.0513],
[21.7983,49.3826],
[21.3857,49.4489],
[20.9587,49.3163],
[20.2119,49.3826],
[20.1199,49.25],
[19.6114,49.1175],
[19.2896,49.3163],
[18.4551,49.3163],
[17.4296,48.7865],
[16.928,48.7204],
[16.829,48.3238],
[16.9119,48.3238],
[16.9842,48.0597],
[16.4852,47.9938],
[16.3151,47.8619],
[16.3035,47.5323],
[16.1386,47.5323],
[16.1232,47.0716],
[15.8641,46.6772],
[15.86,46.5459]
]
]
]}
}
