{
"type": "Feature",
"properties": {"id":"cliopatria-republic-of-the-philippines-2024","edge_precision":"unknown","cliopatria_name":"Republic of the Philippines","cliopatria_from_year":2024,"cliopatria_to_year":2024,"cliopatria_area_km2":343637,"cliopatria_wikidata":"Q928","cliopatria_wikipedia":"Philippines","cliopatria_seshat_id":"pi_phililippines_rep"},
"geometry": {"type": "MultiPolygon", "coordinates": [
[
[
[117.0894,8.3216],
[117.2354,8.3216],
[117.3981,8.5145],
[118.0109,8.8359],
[118.0226,8.9645],
[118.7284,9.4788],
[118.7661,9.8645],
[119.0714,9.9931],
[119.1445,9.9931],
[119.3169,10.2502],
[120.002,10.5074],
[120.0157,10.636],
[119.7162,10.5717],
[119.5836,10.7003],
[119.5669,11.2146],
[119.4205,11.2146],
[119.3189,10.9574],
[119.1725,10.9574],
[119.1907,10.4431],
[118.8914,10.3788],
[118.2169,9.4788],
[117.2805,8.8359],
[117.0894,8.3216]
]
],
[
[
[119.691,5.0429],
[120.1364,5.1715],
[120.1489,5.3644],
[119.9261,5.3001],
[119.9219,5.2358],
[119.6991,5.1715],
[119.691,5.0429]
]
],
[
[
[119.7327,16.1004],
[119.8064,16.1004],
[119.7741,15.9076],
[119.9107,15.8433],
[119.858,15.5218],
[120.0272,15.2004],
[120.0406,14.8147],
[120.3149,14.6861],
[120.3498,14.4289],
[120.6436,14.4289],
[120.6187,14.7504],
[120.9664,14.6218],
[120.947,14.4932],
[120.6245,14.3004],
[120.6238,13.7861],
[120.8531,13.8503],
[121.037,13.5932],
[121.4039,13.5932],
[121.5045,13.7861],
[121.8165,13.9146],
[122.0091,13.7218],
[122.1558,13.7218],
[122.4776,13.4003],
[122.5244,13.2075],
[122.7444,13.2075],
[122.5228,13.7218],
[122.5412,13.8503],
[122.688,13.8503],
[122.798,13.5932],
[123.2667,13.2718],
[123.2403,13.0789],
[122.9557,13.1432],
[122.9296,12.9503],
[123.0591,12.8217],
[123.3439,12.7575],
[123.2316,13.0146],
[123.4516,13.0146],
[123.6456,12.8217],
[123.7922,12.8217],
[123.8965,12.5003],
[124.1164,12.5003],
[124.1379,13.2075],
[123.8446,13.2075],
[123.8071,13.4646],
[123.6052,13.5932],
[123.9171,13.7218],
[123.8718,13.9146],
[123.5782,13.9146],
[123.5237,14.0432],
[123.2395,14.1075],
[123.2659,13.7861],
[123.1191,13.7861],
[123.0384,14.2361],
[122.764,14.3646],
[122.3967,14.3646],
[122.1928,13.9789],
[122.0837,14.2361],
[121.8445,14.1075],
[121.6719,14.4289],
[121.7944,14.7504],
[121.5939,14.8789],
[121.4875,15.1361],
[121.6034,15.8433],
[121.8678,16.1004],
[122.2581,16.229],
[122.639,17.129],
[122.5033,17.1933],
[122.5385,17.3862],
[122.2169,17.6433],
[122.2766,17.9648],
[122.435,18.4148],
[122.3854,18.5434],
[122.1636,18.5434],
[122.0534,18.3505],
[121.684,18.3505],
[121.4366,18.6076],
[120.7834,18.6719],
[120.7594,18.5434],
[120.6115,18.5434],
[120.3486,17.5148],
[120.4614,17.3219],
[120.314,16.4861],
[120.3877,16.4861],
[120.3954,16.1004],
[120.1117,16.1647],
[120.0083,16.4219],
[119.7763,16.3576],
[119.7327,16.1004]
]
],
[
[
[119.8183,12.1146],
[119.957,12.0503],
[119.9493,11.986],
[120.3155,11.986],
[120.3389,12.1789],
[119.8419,12.3074],
[119.8183,12.1146]
]
],
[
[
[119.8531,11.7931],
[120.0652,11.7289],
[120.0728,11.7931],
[120.0881,11.9217],
[119.8683,11.9217],
[119.8531,11.7931]
]
],
[
[
[120.101,13.7218],
[120.3122,13.6575],
[120.3212,13.7218],
[120.2659,13.8503],
[120.1191,13.8503],
[120.101,13.7218]
]
],
[
[
[120.3414,13.336],
[120.6737,13.0789],
[120.7049,12.7575],
[120.8432,12.6932],
[120.949,12.3717],
[121.218,12.1789],
[121.2913,12.1789],
[121.5514,12.5003],
[121.5623,13.1432],
[121.4243,13.2075],
[121.4417,13.336],
[121.3127,13.4646],
[120.7435,13.5932],
[120.3678,13.5289],
[120.3414,13.336]
]
],
[
[
[120.8397,5.8787],
[121.3455,5.8144],
[121.359,6.0073],
[120.8532,6.0715],
[120.8397,5.8787]
]
],
[
[
[121.3484,19.3148],
[121.4842,19.2505],
[121.5582,19.2505],
[121.5826,19.3791],
[121.4468,19.4434],
[121.3484,19.3148]
]
],
[
[
[121.744,13.4003],
[121.8643,13.2075],
[122.1577,13.2075],
[122.202,13.5289],
[121.7529,13.4646],
[121.744,13.4003]
]
],
[
[
[121.7563,6.4573],
[121.9703,6.393],
[122.0432,6.393],
[122.1938,6.4573],
[122.2862,6.7144],
[121.8535,6.7787],
[121.7563,6.4573]
]
],
[
[
[121.7955,6.9716],
[122.2332,6.9716],
[122.3423,7.4216],
[122.4935,7.4859],
[122.588,7.743],
[122.7286,7.6787],
[122.7644,7.2287],
[122.9155,7.293],
[122.9314,7.4859],
[123.4315,7.3573],
[123.38,7.6145],
[123.4639,7.743],
[123.6828,7.743],
[124.0936,7.4216],
[123.9009,6.843],
[124.0026,6.2644],
[124.6991,5.8144],
[124.9907,5.8144],
[125.1504,6.0073],
[125.1229,5.6215],
[125.3327,5.493],
[125.6515,5.8787],
[125.6846,6.3287],
[125.4126,6.5858],
[125.5211,7.0359],
[125.8026,6.9073],
[125.8129,7.0359],
[125.6723,7.1002],
[125.6828,7.2287],
[125.8287,7.2287],
[126.0163,6.843],
[125.9861,6.4573],
[126.2,6.393],
[126.2351,6.843],
[126.5477,7.1002],
[126.5911,7.6145],
[126.5181,7.6145],
[126.5349,7.8073],
[126.3946,7.8716],
[126.4964,8.193],
[126.3681,8.3859],
[126.3741,8.4502],
[126.1671,8.5788],
[126.1793,8.7073],
[126.3315,8.7716],
[126.3502,8.9645],
[126.2104,9.0288],
[126.2359,9.2859],
[126.0167,9.2859],
[125.9631,9.4788],
[125.4183,9.8645],
[125.3119,9.5431],
[125.4798,9.0288],
[124.8224,9.0288],
[124.7065,8.5788],
[124.2743,8.6431],
[124.0872,8.193],
[123.8681,8.193],
[123.7631,8.6431],
[123.3369,8.7716],
[123.246,8.5788],
[122.948,8.5145],
[122.9248,8.2573],
[122.7673,8.1288],
[122.0991,8.0002],
[122.061,7.5502],
[121.8159,7.2287],
[121.7955,6.9716]
]
],
[
[
[121.8144,14.8789],
[121.858,14.6861],
[122.0685,14.6218],
[122.1287,15.0075],
[121.8448,15.0718],
[121.8144,14.8789]
]
],
[
[
[121.8226,11.7289],
[122.0346,11.6646],
[121.9458,10.8931],
[121.8727,10.8931],
[121.8967,10.4431],
[122.5027,10.636],
[122.4749,10.3788],
[122.6212,10.3788],
[122.7883,10.5717],
[122.7364,10.7645],
[122.7435,10.8288],
[122.8383,11.0217],
[123.1384,11.086],
[123.1176,11.536],
[122.5395,11.6003],
[122.4161,11.7931],
[121.9269,11.986],
[121.8226,11.7289]
]
],
[
[
[121.8774,12.1789],
[121.9506,12.1789],
[121.9427,12.1146],
[122.0892,12.1146],
[122.1295,12.436],
[121.9015,12.3717],
[121.8774,12.1789]
]
],
[
[
[121.9911,12.5003],
[122.146,12.5646],
[122.2193,12.5646],
[122.2359,12.6932],
[122.016,12.6932],
[121.9911,12.5003]
]
],
[
[
[122.3285,9.6717],
[122.5888,9.3502],
[122.8685,9.2216],
[122.85,9.0288],
[123.2152,9.0288],
[123.3069,9.2216],
[123.3132,9.2859],
[123.1455,9.8002],
[123.3525,10.3788],
[123.5127,10.5074],
[123.5628,10.9574],
[123.0579,11.0217],
[122.897,10.8931],
[122.7883,10.5717],
[122.8133,10.1217],
[122.3612,9.9931],
[122.3285,9.6717]
]
],
[
[
[122.4145,12.3717],
[122.5448,12.2432],
[122.6913,12.2432],
[122.7157,12.436],
[122.5124,12.5646],
[122.4145,12.3717]
]
],
[
[
[123.172,11.986],
[123.5543,12.1146],
[123.75,11.9217],
[123.7421,11.8574],
[124.0926,11.7289],
[124.0671,12.1146],
[123.7252,12.3074],
[123.8316,12.5646],
[123.6201,12.6289],
[123.6034,12.5003],
[123.4568,12.5003],
[123.1804,12.6289],
[123.172,11.986]
]
],
[
[
[123.2592,9.4788],
[123.4785,9.4788],
[123.6041,9.9931],
[123.8506,10.2502],
[123.9969,10.2502],
[124.1121,11.2788],
[123.885,11.2146],
[123.659,10.5074],
[123.4119,10.2502],
[123.2786,9.6717],
[123.2592,9.4788]
]
],
[
[
[123.4406,9.0931],
[123.5805,9.0288],
[123.739,9.1574],
[123.7453,9.2216],
[123.6849,9.3502],
[123.5387,9.3502],
[123.4406,9.0931]
]
],
[
[
[123.5701,11.0217],
[123.7896,11.0217],
[123.8193,11.2788],
[123.6729,11.2788],
[123.6655,11.2146],
[123.5701,11.0217]
]
],
[
[
[123.7369,9.8645],
[123.7772,9.5431],
[124.5942,9.6717],
[124.6209,9.9288],
[124.5019,10.186],
[124.0563,10.1217],
[123.9832,10.1217],
[123.7369,9.8645]
]
],
[
[
[124.1096,13.5289],
[124.2473,13.4646],
[124.4216,13.6575],
[124.4685,13.9789],
[124.1206,14.1075],
[124.1096,13.5289]
]
],
[
[
[124.251,11.2146],
[124.4262,10.8288],
[124.653,10.8931],
[124.7632,10.5717],
[124.7212,10.186],
[124.9201,9.9931],
[125.0663,9.9931],
[125.0206,10.2502],
[125.24,10.2502],
[125.2681,10.5074],
[125.0262,10.9574],
[125.056,11.2146],
[125.1874,11.086],
[125.7654,11.0217],
[125.7804,11.1503],
[125.6415,11.2146],
[125.6491,11.2788],
[125.476,11.6646],
[125.5486,12.2432],
[125.3371,12.3074],
[125.3622,12.5003],
[124.2714,12.5646],
[124.3601,12.1146],
[124.6369,11.986],
[124.8248,11.7289],
[124.9713,11.7289],
[124.7052,11.3431],
[124.42,11.4074],
[124.5741,11.4717],
[124.6052,11.7289],
[124.3123,11.7289],
[124.3699,11.6003],
[124.251,11.2146]
]
],
[
[
[124.549,9.2216],
[124.6825,9.0931],
[124.6763,9.0288],
[124.8224,9.0288],
[124.7746,9.2859],
[124.549,9.2216]
]
],
[
[
[125.4734,10.3788],
[125.4981,9.9288],
[125.5712,9.9288],
[125.7107,9.8645],
[125.6999,10.4431],
[125.4734,10.3788]
]
],
[
[
[125.8301,9.6074],
[125.9697,9.5431],
[125.9098,9.6717],
[125.9165,9.7359],
[125.8301,9.6074]
]
],
[
[
[125.9165,9.7359],
[126.056,9.6717],
[126.1425,9.8002],
[126.1493,9.8645],
[126.0967,10.0574],
[125.9436,9.9931],
[125.9165,9.7359]
]
]
]}
}
