{
"type": "Feature",
"properties": {"id":"cliopatria-cao-wei-0263","edge_precision":"unknown","cliopatria_name":"Cao Wei","cliopatria_from_year":263,"cliopatria_to_year":264,"cliopatria_area_km2":2972966,"cliopatria_wikidata":"Q320930","cliopatria_wikipedia":"Cao Wei","cliopatria_seshat_id":"cn_wei_k"},
"geometry": {"type": "MultiPolygon", "coordinates": [
[
[
[73.0986,40.8088],
[73.1353,40.6792],
[73.2938,40.6792],
[73.3305,40.5496],
[73.4889,40.5496],
[73.5257,40.4201],
[73.8,40.2906],
[73.5731,39.5789],
[73.3953,39.5143],
[73.6903,39.4496],
[73.769,39.4496],
[75.7921,39.1265],
[77.0253,38.8034],
[77.2576,38.5451],
[77.4144,38.5451],
[77.5104,38.3515],
[77.667,38.3515],
[77.8415,38.1578],
[77.8014,38.0288],
[78.0931,37.7062],
[78.3857,37.6417],
[78.4244,37.5128],
[79.1454,37.3193],
[79.3982,37.126],
[80.3713,36.9971],
[81.0312,36.6105],
[85.1134,37.4483],
[85.3562,37.7062],
[85.8129,37.8998],
[86.0814,38.2224],
[86.4401,38.3515],
[87.6617,38.4806],
[88.7458,38.868],
[89.5801,38.9972],
[91.1233,39.1265],
[92.2484,39.385],
[93.0882,39.3203],
[93.9547,39.5143],
[94.5061,39.5143],
[94.9769,39.3203],
[95.3185,39.385],
[95.6823,38.9326],
[96.3097,38.7389],
[96.414,38.6097],
[96.6493,38.6097],
[96.7552,38.868],
[96.6767,38.868],
[96.7571,39.0618],
[96.6785,39.0618],
[96.7596,39.2557],
[96.681,39.2557],
[96.7629,39.4496],
[97.4677,39.2557],
[97.4916,39.1265],
[97.8574,39.0618],
[97.9602,38.9326],
[98.1173,38.9326],
[98.3841,39.1911],
[98.9578,39.0618],
[99.1198,39.2557],
[99.0919,39.1911],
[99.3786,39.1265],
[99.8618,38.416],
[100.1994,38.2869],
[100.4138,38.6097],
[100.6423,38.2224],
[100.7988,38.2224],
[100.7963,38.0288],
[101.2901,37.8998],
[101.3148,37.7707],
[101.6007,37.7062],
[101.7553,37.5128],
[102.0961,37.7707],
[102.0425,37.6417],
[102.172,37.5773],
[102.1705,37.3838],
[102.5856,37.2549],
[102.611,37.126],
[103.0783,37.126],
[103.3627,36.8682],
[103.3107,36.7393],
[103.4402,36.6749],
[103.467,36.3528],
[103.6488,36.224],
[103.63,35.5802],
[103.7353,35.4514],
[103.4496,34.4863],
[103.5267,34.4863],
[103.3554,34.229],
[103.4928,33.9718],
[103.332,33.5217],
[103.0341,33.3288],
[102.5516,33.2645],
[101.6869,32.7502],
[100.9792,31.0148],
[101.0553,31.0148],
[100.9393,30.6292],
[101.0153,30.6292],
[100.9019,30.2436],
[100.9778,30.2436],
[100.8854,29.9223],
[100.9612,29.9223],
[100.8886,29.6652],
[100.9643,29.6652],
[100.8753,29.3438],
[100.9509,29.3438],
[100.8811,29.0867],
[101.022,28.7652],
[100.9547,28.5081],
[101.0302,28.5081],
[100.9641,28.251],
[101.0395,28.251],
[100.9153,28.0581],
[101.0499,27.9938],
[101.0143,27.5438],
[101.0896,27.5438],
[101.1965,26.3865],
[101.3981,25.9365],
[101.4623,25.165],
[101.8109,24.2649],
[102.0855,24.1363],
[102.3249,23.8149],
[102.4742,23.8149],
[102.8521,23.4291],
[103.4256,23.3006],
[104.9046,23.2363],
[104.9561,23.1077],
[105.3634,23.3006],
[105.6151,23.0434],
[105.6896,23.0434],
[106.1561,23.5577],
[106.4664,23.622],
[106.9877,24.0077],
[107.386,24.1363],
[109.2167,24.3292],
[109.243,24.4578],
[109.4057,24.5221],
[109.4539,25.1007],
[109.3467,25.2936],
[109.3897,25.4864],
[109.3149,25.4864],
[109.3586,25.6793],
[109.2235,25.7436],
[109.1193,26.258],
[109.0443,26.258],
[109.1109,26.8366],
[109.0357,26.8366],
[109.1504,27.2866],
[109.5358,27.6081],
[109.6864,27.6081],
[109.831,27.8652],
[109.5605,28.251],
[109.6329,28.5081],
[109.4616,28.701],
[109.5366,29.2152],
[109.3674,29.4081],
[109.3698,29.6652],
[109.2579,29.7937],
[109.0306,29.7937],
[109.0346,30.0508],
[108.6604,30.3079],
[108.8531,30.4364],
[108.8599,30.6935],
[108.784,30.6935],
[108.8892,31.0148],
[108.8132,31.0148],
[108.9534,31.2076],
[109.4534,31.3362],
[109.8123,31.2719],
[110.1606,31.4005],
[110.4779,31.6575],
[110.6366,32.1074],
[111.3006,32.0431],
[112.1243,31.7861],
[113.855,31.7218],
[114.0676,31.4647],
[114.5548,31.3362],
[115.3272,31.7861],
[116.616,32.1717],
[116.9188,32.3645],
[117.4021,32.4288],
[117.5789,32.6859],
[117.9612,32.8788],
[119.059,32.943],
[119.4666,32.8145],
[120.1555,32.8145],
[120.8969,32.943],
[120.9233,33.0073],
[120.9263,33.2002],
[120.5505,33.5859],
[120.4894,34.1647],
[120.3418,34.3577],
[119.7323,34.5506],
[119.7113,34.6793],
[119.4309,34.7436],
[119.459,34.8079],
[119.2276,34.8079],
[119.6187,35.5158],
[119.9865,35.6445],
[120.3185,36.0308],
[120.6585,36.0952],
[120.7318,36.4172],
[120.9648,36.4172],
[120.9789,36.6105],
[121.2121,36.6105],
[121.9121,36.9326],
[122.3939,36.8037],
[122.5664,36.9971],
[122.4742,37.126],
[122.7129,37.4483],
[122.1211,37.5128],
[122.1535,37.5773],
[121.4969,37.5128],
[121.4833,37.6417],
[121.171,37.6417],
[121.112,37.8352],
[120.7538,37.8998],
[120.1881,37.7062],
[120.2022,37.5773],
[119.8266,37.4483],
[119.7011,37.1904],
[119.1557,37.1904],
[119.14,37.3193],
[118.984,37.3193],
[119.2366,37.8352],
[119.3928,37.8352],
[119.4571,37.9643],
[118.7718,38.1578],
[118.8042,38.2224],
[118.6476,38.2224],
[118.583,38.0933],
[118.0674,38.1578],
[118.0536,38.2869],
[117.7727,38.3515],
[117.7592,38.4806],
[117.6025,38.4806],
[117.6549,38.7389],
[117.5764,38.7389],
[117.776,39.1265],
[118.0457,39.1911],
[118.0569,39.0618],
[118.4498,39.0618],
[118.9894,39.1911],
[119.2153,39.3203],
[119.3804,39.7729],
[120.5003,40.2259],
[120.6473,40.4849],
[120.9967,40.6792],
[121.1098,40.8736],
[121.8237,40.8736],
[121.827,40.744],
[122.1061,40.6792],
[122.2306,40.4849],
[121.7765,39.967],
[121.5033,39.9023],
[121.4383,39.6436],
[121.2807,39.6436],
[121.2096,39.5143],
[121.2965,39.385],
[121.6901,39.385],
[121.5151,39.0618],
[121.2007,39.0618],
[121.0293,38.7389],
[121.4217,38.7389],
[121.7162,38.9972],
[121.9519,38.9972],
[122.1704,39.2557],
[122.936,39.6436],
[123.5974,39.8376],
[124.034,39.7729],
[124.3446,39.9023],
[124.5124,39.6436],
[124.8646,39.7083],
[124.8697,39.5789],
[125.3057,39.5143],
[125.39,39.385],
[125.0316,38.7389],
[125.1885,38.7389],
[125.1533,38.6743],
[124.9614,38.6097],
[124.7881,38.2869],
[124.8664,38.2869],
[124.7637,38.0933],
[125.0767,38.0933],
[124.8967,37.8998],
[125.2093,37.8998],
[125.2981,37.7707],
[125.231,37.6417],
[125.3871,37.6417],
[125.6783,37.8998],
[125.8347,37.8998],
[125.8449,37.7707],
[126.2695,37.8352],
[126.3477,37.8352],
[126.9374,38.3515],
[127.0229,38.9326],
[126.8541,39.1911],
[126.9645,39.385],
[126.7283,39.385],
[126.8323,39.8376],
[126.7095,40.0317],
[126.4317,40.0964],
[126.2693,40.3554],
[126.4251,40.6144],
[126.6228,40.6792],
[126.7421,41.0032],
[126.187,41.1328],
[126.1084,41.2625],
[125.7904,41.2625],
[125.8307,41.3274],
[124.6778,41.1328],
[124.7174,41.1977],
[124.4392,41.2625],
[124.4789,41.3274],
[124.2404,41.3274],
[124.2802,41.3922],
[124.0018,41.4571],
[124.0417,41.522],
[123.5643,41.6518],
[123.6044,41.7167],
[123.3654,41.7167],
[123.4055,41.7816],
[123.1268,41.8465],
[123.167,41.9114],
[123.0872,41.9114],
[121.0213,41.2625],
[118.8713,41.3922],
[118.9093,41.4571],
[118.3903,41.522],
[118.4283,41.5869],
[117.9923,41.522],
[118.0302,41.5869],
[117.8709,41.5869],
[117.746,41.7816],
[117.861,41.9764],
[117.7399,42.0413],
[117.7761,42.2362],
[117.4564,42.2362],
[117.2994,42.1063],
[115.9924,41.7816],
[114.8433,40.8736],
[113.8651,40.6792],
[113.8396,40.4849],
[112.6977,39.1911],
[111.8506,37.5773],
[111.509,37.5128],
[111.5384,37.5773],
[111.0212,37.6417],
[111.08,37.7707],
[110.7382,37.7062],
[110.7675,37.7707],
[110.455,37.7707],
[110.4844,37.8352],
[109.4977,37.8998],
[109.5269,37.9643],
[108.7942,37.8998],
[108.6959,38.0288],
[108.4613,38.0288],
[108.4904,38.0933],
[107.3586,37.8352],
[106.0583,37.8998],
[106.0366,38.0288],
[105.8802,38.0288],
[105.0647,37.7707],
[104.4122,37.7062],
[104.311,37.8352],
[103.7133,37.8998],
[103.7684,38.0288],
[103.6902,38.0288],
[103.9582,38.2869],
[103.7514,38.3515],
[103.8078,38.4806],
[104.215,38.868],
[103.6079,38.7389],
[103.9386,39.1265],
[104.4801,39.4496],
[104.6076,39.385],
[104.728,39.6436],
[104.6007,39.7083],
[104.6135,39.9023],
[100.8949,39.7083],
[100.9241,39.7729],
[100.559,39.8376],
[100.5388,39.967],
[100.0945,40.0317],
[100.124,40.0964],
[99.3837,40.0317],
[99.2842,40.1612],
[99.0471,40.1612],
[98.9478,40.2906],
[98.2449,40.4849],
[98.2249,40.6144],
[98.0369,40.5496],
[97.6305,40.8736],
[96.8966,41.0032],
[96.9264,41.068],
[95.2297,41.0032],
[93.6869,40.744],
[93.7153,40.8088],
[93.2678,40.8736],
[93.2962,40.9384],
[92.321,41.068],
[92.3493,41.1328],
[91.2702,41.3922],
[90.7753,41.7167],
[90.5362,41.7167],
[90.4337,41.8465],
[90.1945,41.8465],
[90.223,41.9114],
[89.6132,41.9764],
[89.6416,42.0413],
[88.8199,42.1712],
[88.8482,42.2362],
[87.2536,42.4312],
[87.2817,42.4962],
[87.2016,42.4962],
[85.7638,42.6912],
[85.7915,42.7563],
[84.1085,42.7563],
[82.0557,42.2362],
[80.5083,42.3662],
[80.2392,42.4962],
[80.1085,42.3662],
[80.0285,42.3662],
[77.8749,41.522],
[77.3738,41.4571],
[77.3504,41.3922],
[74.7506,41.0032],
[73.3435,41.068],
[73.12,40.8736],
[73.0986,40.8088]
]
]
]}
}
