{
"type": "Feature",
"properties": {"id":"cliopatria-kingdom-of-gwent-0806","edge_precision":"unknown","cliopatria_name":"Kingdom of Gwent","cliopatria_from_year":806,"cliopatria_to_year":829,"cliopatria_area_km2":1420,"cliopatria_wikidata":"Q2594661","cliopatria_wikipedia":"Kingdom of Gwent","cliopatria_seshat_id":"gb_brythonic_k","cliopatria_member_of":"(Brythonic Kingdoms)"},
"geometry": {"type": "MultiPolygon", "coordinates": [
[
[
[-3.3184,51.7811],
[-3.3047,51.6472],
[-3.2198,51.6472],
[-3.213,51.5803],
[-3.1282,51.5803],
[-3.1214,51.5134],
[-2.8671,51.5134],
[-2.8737,51.5803],
[-2.7041,51.5803],
[-2.6388,51.7811],
[-2.822,51.9151],
[-3.3184,51.7811]
]
]
]}
}
