{
"type": "Feature",
"properties": {"id":"cliopatria-second-bulgarian-empire-1236","edge_precision":"unknown","cliopatria_name":"Second Bulgarian Empire","cliopatria_from_year":1236,"cliopatria_to_year":1240,"cliopatria_area_km2":312296,"cliopatria_wikidata":"Q420759","cliopatria_wikipedia":"Second Bulgarian Empire"},
"geometry": {"type": "MultiPolygon", "coordinates": [
[
[
[19.1077,44.3201],
[19.4244,44.1896],
[20.7174,44.1896],
[20.9401,43.8634],
[20.9126,43.4072],
[20.8322,43.4072],
[20.8971,43.1467],
[20.9774,43.1467],
[21.5111,42.6912],
[21.6713,42.6912],
[21.567,42.3012],
[21.2356,42.1063],
[20.8363,42.1063],
[20.662,41.8465],
[20.5169,42.1063],
[20.2773,42.1063],
[19.7882,41.9114],
[19.6319,41.9764],
[19.4659,41.8465],
[19.4627,41.7816],
[19.5424,41.7816],
[19.4501,41.522],
[19.5297,41.522],
[19.5265,41.4571],
[20.4709,41.2625],
[21.0777,40.744],
[21.3586,40.0964],
[21.9982,40.2259],
[22.1875,40.744],
[22.5961,40.9384],
[23.698,40.8088],
[23.7773,40.8088],
[24.0106,40.744],
[24.3466,41.0032],
[25.3785,41.0032],
[26.0822,40.8736],
[26.0769,40.8088],
[26.2354,40.8088],
[26.3364,41.068],
[27.0177,41.5869],
[27.4954,41.5869],
[28.1077,41.3274],
[28.3525,41.3922],
[28.3588,41.4571],
[28.2183,41.6518],
[27.9794,41.6518],
[28.0043,41.9114],
[27.7835,42.1063],
[27.796,42.2362],
[27.4949,42.4312],
[27.5135,42.6262],
[27.8466,42.7563],
[27.8049,43.1467],
[27.8982,43.2769],
[28.2264,43.3421],
[28.1592,43.4723],
[28.4811,43.4723],
[28.6163,43.9938],
[28.5356,43.9938],
[28.5769,44.3854],
[28.8407,44.5813],
[28.802,44.9734],
[29.0456,44.9734],
[29.0241,44.7773],
[29.5253,44.908],
[29.6584,45.3659],
[29.577,45.3659],
[29.5845,45.4313],
[29.096,45.4313],
[28.6677,45.235],
[28.3494,45.3004],
[28.2819,45.4313],
[27.78,45.3004],
[27.6306,45.4313],
[26.9793,45.4313],
[26.4342,45.6933],
[26.0204,45.6278],
[25.9509,45.7588],
[25.7122,45.8243],
[24.5642,45.7588],
[24.4663,45.5623],
[24.1351,45.4968],
[23.3207,45.4968],
[22.9469,44.8426],
[22.6895,44.6466],
[22.3653,44.6466],
[22.2753,44.516],
[21.9514,44.516],
[21.8791,44.6466],
[21.4055,44.8426],
[20.7486,44.7119],
[20.5169,44.908],
[20.5284,45.1042],
[20.2884,45.1696],
[20.1369,45.3659],
[19.8856,45.235],
[19.2351,45.235],
[19.1406,44.9734],
[19.2996,44.908],
[19.1077,44.3201]
]
]
]}
}
