{
"type": "Feature",
"properties": {"id":"cliopatria-crimean-khanate-1775","edge_precision":"unknown","cliopatria_name":"Crimean Khanate","cliopatria_from_year":1775,"cliopatria_to_year":1780,"cliopatria_area_km2":123400,"cliopatria_wikidata":"Q160440","cliopatria_wikipedia":"Crimean Khanate","cliopatria_seshat_id":"ru_crimean_khanate"},
"geometry": {"type": "MultiPolygon", "coordinates": [
[
[
[31.8183,46.3489],
[32.064,46.3489],
[32.6837,46.0865],
[32.8471,46.0865],
[32.9467,46.2177],
[33.5919,46.1521],
[33.6103,46.2833],
[34.0194,46.2833],
[34.0825,46.1521],
[34.7367,46.1521],
[34.756,46.2833],
[35.247,46.2833],
[35.6346,46.6772],
[36.8044,46.8086],
[36.9079,46.9401],
[37.2257,46.8743],
[37.1652,47.0058],
[37.5161,47.1374],
[38.6795,47.2032],
[39.0321,47.3348],
[39.1145,47.3348],
[39.2206,47.4665],
[38.6669,47.5982],
[37.8418,47.5982],
[37.5717,47.4665],
[37.4559,47.269],
[36.951,47.2032],
[36.7256,47.3348],
[35.9948,47.4006],
[35.9439,47.5982],
[35.0465,47.6641],
[35.0261,47.5323],
[34.2013,47.5323],
[33.9784,47.1374],
[33.8043,47.0716],
[33.7949,47.0058],
[33.6938,46.8743],
[32.9185,46.6115],
[32.3532,46.6772],
[32.1631,46.4802],
[31.8354,46.4802],
[31.8183,46.3489]
]
],
[
[
[32.5967,45.4313],
[32.9224,45.4313],
[33.6101,45.1042],
[33.5476,44.6466],
[33.4665,44.6466],
[33.521,44.4507],
[33.9256,44.4507],
[34.3763,44.7773],
[35.2971,44.9734],
[35.4073,45.1696],
[35.7324,45.1696],
[35.8753,45.0388],
[36.3726,45.1042],
[36.2301,45.235],
[36.2603,45.4313],
[35.7521,45.3004],
[35.0199,45.3004],
[34.9864,45.6278],
[34.7419,45.6278],
[34.5446,45.9554],
[34.1549,46.0865],
[33.737,46.0209],
[33.7096,45.8243],
[33.039,45.6933],
[32.5967,45.4313]
]
],
[
[
[36.7487,45.4313],
[36.7789,45.1042],
[37.1039,45.1042],
[37.2456,44.9734],
[39.1942,44.9734],
[39.808,45.235],
[40.6447,45.3659],
[40.772,45.1696],
[40.7367,44.9734],
[40.8873,44.908],
[40.9685,44.908],
[41.0734,45.0388],
[41.654,45.1042],
[41.6783,45.235],
[41.4013,45.4968],
[41.4295,46.0865],
[41.3028,46.2833],
[41.288,47.0716],
[40.7371,47.2032],
[40.5973,47.3348],
[39.3855,47.4665],
[39.5264,47.3348],
[39.4788,47.0716],
[39.2203,47.0058],
[39.1381,47.0058],
[38.622,46.8743],
[38.4946,46.6115],
[37.8386,46.6115],
[37.8986,46.4802],
[38.3679,46.3489],
[38.3346,46.1521],
[37.8931,45.9554],
[37.7577,45.6278],
[37.5947,45.6278],
[37.747,45.5623],
[37.7044,45.3004],
[36.9723,45.3004],
[36.9116,45.4313],
[36.7487,45.4313]
]
]
]}
}
