{
"type": "Feature",
"properties": {"id":"cliopatria-portuguese-republic-1918","edge_precision":"unknown","cliopatria_name":"Portuguese Republic","cliopatria_from_year":1918,"cliopatria_to_year":1918,"cliopatria_area_km2":1959182,"cliopatria_wikidata":"Q45","cliopatria_wikipedia":"Portugal"},
"geometry": {"type": "MultiPolygon", "coordinates": [
[
[
[73,20.0862],
[73.1802,20.0862],
[73.1871,20.1505],
[73,20.1921],
[73,20.0862]
]
],
[
[
[73.7901,15.329],
[73.8636,15.329],
[73.8575,15.2647],
[73.9311,15.2647],
[73.919,15.1361],
[74.2391,14.6218],
[74.3126,14.6218],
[74.5506,14.8147],
[74.5194,15.2647],
[74.1028,15.5218],
[73.8023,15.4575],
[73.7901,15.329]
]
],
[
[
[113.4156,22.1434],
[113.6387,22.1434],
[113.6866,22.4005],
[113.5378,22.4005],
[113.5258,22.3363],
[113.4156,22.1434]
]
]
]}
}
