{
"type": "Feature",
"properties": {"id":"cliopatria-portuguese-empire-1512","edge_precision":"unknown","cliopatria_name":"Portuguese Empire","cliopatria_from_year":1512,"cliopatria_to_year":1515,"cliopatria_area_km2":129552,"cliopatria_wikidata":"Q200464","cliopatria_wikipedia":"Portuguese Empire","cliopatria_seshat_id":"pt_portuguese_emp_1","cliopatria_member_of":"(Portuguese Empire)"},
"geometry": {"type": "MultiPolygon", "coordinates": [
[
[
[-42.2306,-22.6007],
[-42.1627,-22.665],
[-41.9265,-22.5364],
[-41.8328,-22.3435],
[-41.1445,-22.1507],
[-41.0393,-21.8292],
[-41.0712,-21.3792],
[-40.9048,-21.1864],
[-40.8811,-20.9292],
[-40.4068,-20.6078],
[-40.1956,-19.9006],
[-39.7972,-19.5792],
[-39.7669,-18.3578],
[-39.5924,-18.0363],
[-39.2761,-17.7792],
[-39.2885,-17.0077],
[-39.0231,-16.4291],
[-38.9532,-15.4648],
[-39.1385,-14.9505],
[-39.011,-14.1148],
[-39.0343,-13.279],
[-38.8766,-13.0862],
[-38.3597,-13.0219],
[-38.1292,-12.829],
[-37.7291,-12.1861],
[-37.6368,-11.8004],
[-37.4842,-11.6718],
[-37.4721,-11.4147],
[-37.2465,-11.2861],
[-37.2378,-11.0932],
[-36.7792,-10.6432],
[-36.2565,-10.3861],
[-35.7124,-9.5503],
[-35.4131,-9.3575],
[-35.1718,-8.7146],
[-35.0215,-8.586],
[-35.0073,-8.136],
[-34.9343,-8.136],
[-34.8337,-7.1717],
[-34.9678,-6.7217],
[-34.9662,-6.6574],
[-35.0313,-6.336],
[-35.1757,-6.2717],
[-35.1654,-5.8217],
[-35.3733,-5.3074],
[-35.5881,-5.1145],
[-36.097,-5.0502],
[-35.9563,-5.3074],
[-35.6661,-5.3716],
[-35.5959,-5.5002],
[-35.4658,-6.2074],
[-35.3929,-6.2074],
[-35.4704,-6.4002],
[-35.3246,-6.4002],
[-35.268,-7.0431],
[-35.122,-7.0431],
[-35.2954,-8.0074],
[-35.4494,-8.2646],
[-35.3825,-8.4575],
[-35.4639,-8.7146],
[-35.6143,-8.8432],
[-35.7007,-9.2289],
[-36.2263,-9.6146],
[-36.4681,-10.1932],
[-37.3672,-10.7075],
[-37.7679,-11.479],
[-37.9173,-11.5433],
[-37.8503,-11.6718],
[-37.9361,-11.929],
[-38.2553,-12.4433],
[-38.5518,-12.5076],
[-38.6882,-12.3147],
[-39.1346,-12.4433],
[-39.3314,-13.3433],
[-39.4048,-13.3433],
[-39.4845,-14.6291],
[-39.4111,-14.6291],
[-39.3945,-15.4648],
[-39.2611,-15.6577],
[-39.3081,-16.3005],
[-39.5784,-16.9434],
[-39.5661,-17.7149],
[-40.0516,-18.2292],
[-40.1581,-18.6149],
[-40.0842,-18.6149],
[-40.1338,-19.1935],
[-40.0598,-19.1935],
[-40.1674,-19.5792],
[-40.4806,-19.7721],
[-40.6977,-20.5435],
[-41.172,-20.8649],
[-41.2641,-21.0578],
[-41.294,-21.3792],
[-41.4669,-21.6364],
[-41.349,-21.9578],
[-42.124,-22.2792],
[-42.2306,-22.6007]
]
],
[
[
[73.7901,15.329],
[73.8636,15.329],
[73.8575,15.2647],
[73.9311,15.2647],
[73.919,15.1361],
[74.2391,14.6218],
[74.3126,14.6218],
[74.5506,14.8147],
[74.5194,15.2647],
[74.1028,15.5218],
[73.8023,15.4575],
[73.7901,15.329]
]
],
[
[
[75.0647,12.1789],
[75.2063,12.1146],
[75.2652,11.9217],
[75.3385,11.9217],
[75.4309,12.1789],
[75.2942,12.3074],
[75.0695,12.2432],
[75.0647,12.1789]
]
],
[
[
[75.5849,11.2788],
[75.6581,11.2788],
[75.6536,11.2146],
[75.7268,11.2146],
[75.7178,11.086],
[75.7909,11.086],
[75.782,10.9574],
[75.9284,10.9574],
[75.8822,11.3431],
[75.5895,11.3431],
[75.5849,11.2788]
]
],
[
[
[76.2092,9.6717],
[76.2622,9.3502],
[76.3353,9.3502],
[76.5585,9.4145],
[76.5828,9.8002],
[76.449,9.9931],
[76.2255,9.9288],
[76.2214,9.8645],
[76.3635,9.8002],
[76.3553,9.6717],
[76.2092,9.6717]
]
],
[
[
[79.6069,7.8716],
[79.7419,7.6787],
[79.7067,7.0359],
[79.7796,7.0359],
[79.7594,6.6501],
[79.8856,6.2644],
[80.2311,5.8787],
[80.8904,5.943],
[80.8936,6.0073],
[80.8271,6.1358],
[80.3199,6.2001],
[80.3264,6.3287],
[80.1838,6.393],
[80.187,6.4573],
[80.0511,6.6501],
[80.075,8.3859],
[80.0097,8.5145],
[79.7906,8.5145],
[79.764,8.0645],
[79.618,8.0645],
[79.6069,7.8716]
]
],
[
[
[80.1325,13.2075],
[80.3414,13.0789],
[80.4147,13.0789],
[80.3754,13.4646],
[80.302,13.4646],
[80.1495,13.4003],
[80.1325,13.2075]
]
],
[
[
[101.7134,2.4714],
[101.9917,2.15],
[102.3532,2.0857],
[102.632,1.7643],
[103.064,1.6357],
[103.2753,1.4428],
[103.2707,1.3143],
[103.4913,1.3786],
[104.2192,1.3786],
[104.2311,1.7],
[103.8924,2.3429],
[103.895,2.4072],
[103.8222,2.4072],
[103.8276,2.5357],
[103.7547,2.5357],
[103.7574,2.6],
[103.6846,2.6],
[103.531,2.4072],
[103.3854,2.4072],
[103.3179,2.5357],
[102.8109,2.6],
[102.3906,2.9857],
[102.1021,3.05],
[102.0181,2.7929],
[101.7161,2.5357],
[101.7134,2.4714]
]
]
]}
}
