{
"type": "Feature",
"properties": {"id":"cliopatria-french-india-1677","edge_precision":"unknown","cliopatria_name":"French India","cliopatria_from_year":1677,"cliopatria_to_year":1720,"cliopatria_area_km2":17790,"cliopatria_wikidata":"Q646374","cliopatria_wikipedia":"French India","cliopatria_seshat_id":"fr_bourbon_k_2","cliopatria_member_of":"(Kingdom of France)"},
"geometry": {"type": "MultiPolygon", "coordinates": [
[
[
[43.0573,-11.6075],
[43.139,-11.8647],
[43.2122,-11.8647],
[43.3608,-11.929],
[43.3419,-11.3504],
[43.1223,-11.3504],
[43.1305,-11.6075],
[43.0573,-11.6075]
]
],
[
[
[43.5183,-12.2504],
[43.5228,-12.379],
[43.745,-12.4433],
[43.7381,-12.2504],
[43.5183,-12.2504]
]
],
[
[
[44.1754,-12.1861],
[44.3312,-12.4433],
[44.4778,-12.4433],
[44.4685,-12.1861],
[44.1754,-12.1861]
]
],
[
[
[44.9271,-12.7004],
[44.9394,-13.0219],
[45.0861,-13.0219],
[45.1494,-12.7647],
[44.9271,-12.7004]
]
],
[
[
[49.0906,-17.9077],
[49.2545,-18.1649],
[49.3982,-18.1006],
[49.3819,-17.8435],
[49.4557,-17.8435],
[49.4275,-17.3934],
[49.3537,-17.3934],
[49.4077,-17.072],
[49.7566,-16.7506],
[49.6295,-15.8505],
[49.5559,-15.8505],
[49.5449,-15.6577],
[49.6812,-15.4648],
[49.8392,-15.6577],
[49.8541,-15.9148],
[50.1522,-15.9791],
[49.8176,-15.2719],
[49.5235,-15.2719],
[49.3206,-15.5934],
[49.5316,-16.6863],
[49.1786,-16.9434],
[49.1904,-17.1363],
[49.1166,-17.1363],
[49.2222,-17.6506],
[49.0906,-17.9077]
]
],
[
[
[49.7026,-17.072],
[49.7763,-17.072],
[49.9158,-16.9434],
[49.904,-16.7506],
[49.7566,-16.7506],
[49.7026,-17.072]
]
],
[
[
[49.8141,-15.2076],
[49.8176,-15.2719],
[49.8911,-15.2719],
[49.8876,-15.2076],
[49.8141,-15.2076]
]
],
[
[
[55.0771,-20.9935],
[55.0963,-21.2507],
[55.408,-21.4435],
[55.6308,-21.4435],
[55.7695,-21.3149],
[55.5918,-20.9292],
[55.5869,-20.8649],
[55.2159,-20.8649],
[55.0771,-20.9935]
]
],
[
[
[79.7228,11.7931],
[79.8693,11.7931],
[79.8794,11.9217],
[79.8061,11.9217],
[79.7228,11.7931]
]
],
[
[
[88.3421,22.5934],
[88.491,22.5934],
[88.5187,22.7863],
[88.4442,22.7863],
[88.3421,22.5934]
]
]
]}
}
