{
"type": "Feature",
"properties": {"id":"cliopatria-republic-of-genoa-1040","edge_precision":"unknown","cliopatria_name":"Republic of Genoa","cliopatria_from_year":1040,"cliopatria_to_year":1098,"cliopatria_area_km2":4188,"cliopatria_wikidata":"Q174306","cliopatria_wikipedia":"Republic of Genoa"},
"geometry": {"type": "MultiPolygon", "coordinates": [
[
[
[7.5486,43.9938],
[7.5521,43.7982],
[7.6327,43.7982],
[7.6316,43.8634],
[7.8736,43.8634],
[7.8725,43.9286],
[8.0339,43.9286],
[8.0329,43.9938],
[8.1136,43.9938],
[8.1127,44.0591],
[8.1934,44.0591],
[8.1925,44.1243],
[7.7078,44.1243],
[7.5486,43.9938]
]
],
[
[
[8.3497,44.4507],
[8.3515,44.3201],
[8.4323,44.3201],
[8.5925,44.4507],
[9.1591,44.4507],
[9.5654,44.1896],
[9.8889,44.1243],
[9.9697,44.1243],
[9.6455,44.3201],
[9.6443,44.516],
[9.4815,44.6466],
[9.1573,44.6466],
[9.1568,44.7119],
[8.9946,44.7119],
[8.9149,44.5813],
[8.5901,44.6466],
[8.3497,44.4507]
]
],
[
[
[9.8892,44.0591],
[9.8895,43.9938],
[9.9702,43.9938],
[9.9699,44.0591],
[9.8892,44.0591]
]
]
]}
}
