{
"type": "Feature",
"properties": {"id":"cliopatria-sikh-empire-1803","edge_precision":"unknown","cliopatria_name":"Sikh Empire","cliopatria_from_year":1803,"cliopatria_to_year":1806,"cliopatria_area_km2":60117,"cliopatria_wikidata":"Q83572","cliopatria_wikipedia":"Sikh Empire"},
"geometry": {"type": "MultiPolygon", "coordinates": [
[
[
[71.751,32.6859],
[71.8752,32.5574],
[71.8182,32.3002],
[72.005,32.1074],
[72.3104,32.1074],
[72.6979,31.7861],
[73.1896,31.5933],
[73.5011,31.2719],
[73.4737,31.1434],
[73.862,30.822],
[73.9925,31.0791],
[74.3385,31.2719],
[74.5669,31.2719],
[74.6011,31.0791],
[74.7812,31.2076],
[75.39,31.2076],
[75.576,31.0148],
[76.4887,31.0148],
[76.3938,31.2719],
[76.4083,31.3362],
[76.4844,31.3362],
[76.4373,31.4647],
[76.1181,31.4005],
[76.1472,31.529],
[75.7163,31.9789],
[75.5021,32.0431],
[75.7146,32.3002],
[75.7297,32.3645],
[75.3326,32.3002],
[75.2098,32.4288],
[74.5517,32.5574],
[74.4752,32.5574],
[73.5088,33.0073],
[72.8493,33.1359],
[72.1595,33.1359],
[71.7799,32.8145],
[71.751,32.6859]
]
]
]}
}
