{
"type": "Feature",
"properties": {"id":"cliopatria-lebanon-1987","edge_precision":"unknown","cliopatria_name":"Lebanon","cliopatria_from_year":1987,"cliopatria_to_year":2005,"cliopatria_area_km2":9784,"cliopatria_wikidata":"Q139708","cliopatria_wikipedia":"Lebanon"},
"geometry": {"type": "MultiPolygon", "coordinates": [
[
[
[35.2213,33.1359],
[35.4452,33.0716],
[35.5338,33.2002],
[35.6104,33.2002],
[35.6165,33.2645],
[35.6931,33.2645],
[35.6992,33.3288],
[35.7759,33.3288],
[36.0244,33.5217],
[36.0493,33.7789],
[36.2861,33.8432],
[36.6258,34.1647],
[36.3701,34.6793],
[36.0552,34.615],
[36.0488,34.5506],
[35.7921,34.2933],
[35.6445,34.3577],
[35.6838,33.9718],
[35.447,33.9075],
[35.4993,33.6502],
[35.3458,33.6502],
[35.3984,33.3931],
[35.2272,33.2002],
[35.2213,33.1359]
],
[
[35.5177,33.8432],
[35.5239,33.9075],
[35.6007,33.9075],
[35.5946,33.8432],
[35.5177,33.8432]
]
]
]}
}
