{
"type": "Feature",
"properties": {"id":"cliopatria-lu-451bce","edge_precision":"unknown","cliopatria_name":"Lu","cliopatria_from_year":-450,"cliopatria_to_year":-405,"cliopatria_area_km2":39094,"cliopatria_wikidata":"Q555994","cliopatria_wikipedia":"Lu (state)","cliopatria_member_of":"(Warring States China)"},
"geometry": {"type": "MultiPolygon", "coordinates": [
[
[
[115.9616,35.6445],
[116.0602,35.5158],
[116.2149,35.5158],
[116.2856,35.3227],
[116.5948,35.3227],
[117.0659,35.5158],
[117.1432,35.5158],
[117.8967,35.6445],
[117.868,35.5802],
[118.3036,35.5158],
[118.056,35.1297],
[117.6633,34.9366],
[117.6077,34.8079],
[117.8392,34.8079],
[117.8115,34.7436],
[118.1199,34.7436],
[118.2807,34.9366],
[118.435,34.9366],
[118.4284,34.7436],
[119.2276,34.8079],
[119.2557,34.8723],
[119.6187,35.5158],
[119.9865,35.6445],
[120.3185,36.0308],
[120.6585,36.0952],
[120.7015,36.3528],
[120.7318,36.4172],
[120.5293,36.4816],
[119.8951,36.2884],
[117.3531,36.1596],
[116.0465,35.8377],
[115.9616,35.6445]
]
]
]}
}
