{
"type": "Feature",
"properties": {"id":"cliopatria-grand-duchy-of-saxe-weimar-eisenach-1866","edge_precision":"unknown","cliopatria_name":"Grand Duchy of Saxe-Weimar-Eisenach","cliopatria_from_year":1866,"cliopatria_to_year":1869,"cliopatria_area_km2":3603,"cliopatria_wikidata":"Q155570","cliopatria_wikipedia":"Saxe-Weimar-Eisenach"},
"geometry": {"type": "MultiPolygon", "coordinates": [
[
[
[9.8515,50.9122],
[9.852,50.7788],
[10.105,50.7788],
[10.1047,50.9122],
[10.3578,50.9789],
[10.3578,51.1124],
[10.1041,51.1792],
[9.9354,51.0457],
[9.9359,50.9122],
[9.8515,50.9122]
]
],
[
[
[10.8643,50.9122],
[11.0328,50.8455],
[11.1171,50.8455],
[11.2862,50.9122],
[11.2854,50.7788],
[11.5389,50.8455],
[11.792,50.8455],
[11.875,50.7121],
[12.2138,50.8455],
[12.2146,50.9122],
[11.877,50.9122],
[11.4561,51.0457],
[11.3994,51.0012],
[11.2871,51.0457],
[11.2038,51.246],
[10.8651,51.1792],
[10.8643,50.9122]
]
],
[
[
[12.299,50.9122],
[12.5522,50.9122],
[12.5554,51.1124],
[12.3027,51.1792],
[12.299,50.9122]
]
]
]}
}
