{
"type": "Feature",
"properties": {"id":"cliopatria-goryeo-1139","edge_precision":"unknown","cliopatria_name":"Goryeo","cliopatria_from_year":1139,"cliopatria_to_year":1215,"cliopatria_area_km2":142632,"cliopatria_wikidata":"Q28208","cliopatria_wikipedia":"Goryeo","cliopatria_seshat_id":"kr_goryeo_k"},
"geometry": {"type": "MultiPolygon", "coordinates": [
[
[
[124.7637,38.0933],
[125.0767,38.0933],
[124.8967,37.8998],
[125.2093,37.8998],
[125.2981,37.7707],
[125.231,37.6417],
[125.3871,37.6417],
[125.6783,37.8998],
[125.8347,37.8998],
[125.8449,37.7707],
[126.3477,37.8352],
[126.2459,37.6417],
[126.6025,37.5773],
[126.5352,37.4483],
[126.7023,37.3193],
[126.6475,37.0615],
[126.3032,36.9971],
[126.0498,36.8037],
[126.2638,36.6105],
[126.4516,36.6749],
[126.4286,36.1596],
[126.5206,36.0308],
[126.6757,36.0308],
[126.6128,35.902],
[126.7678,35.902],
[126.5192,35.7089],
[126.1998,34.8723],
[126.4784,34.8079],
[126.1166,34.3577],
[126.3476,34.3577],
[126.4837,34.4863],
[126.4722,34.2933],
[126.9162,34.422],
[127.2196,34.7436],
[127.2968,34.7436],
[127.1297,34.5506],
[127.2243,34.422],
[127.3783,34.422],
[127.7595,34.7436],
[128.0679,34.7436],
[128.0821,34.9366],
[128.3136,34.9366],
[128.3297,34.8079],
[128.6849,34.7436],
[128.8074,35.001],
[128.5451,34.9366],
[128.5294,35.0653],
[129.1471,35.0653],
[129.6161,35.7089],
[129.5387,35.7089],
[129.6669,35.9664],
[129.5765,36.0952],
[129.4214,36.0952],
[129.474,36.3528],
[129.3964,36.3528],
[129.5393,36.9326],
[129.4069,37.126],
[129.4748,37.2549],
[129.2563,37.5773],
[129.1002,37.5773],
[128.3638,38.8034],
[128.2068,38.8034],
[128.2432,38.868],
[127.9234,38.9972],
[127.7978,39.1911],
[127.4414,39.2557],
[127.4784,39.3203],
[126.7283,39.385],
[126.7653,39.4496],
[125.3536,39.3203],
[125.0316,38.7389],
[125.1885,38.7389],
[125.1533,38.6743],
[124.9614,38.6097],
[124.7881,38.2869],
[124.8664,38.2869],
[124.7637,38.0933]
]
]
]}
}
