{
"type": "Feature",
"properties": {"id":"cliopatria-kushan-empire-0051","edge_precision":"unknown","cliopatria_name":"Kushan Empire","cliopatria_from_year":51,"cliopatria_to_year":90,"cliopatria_area_km2":638996,"cliopatria_wikidata":"Q25979","cliopatria_wikipedia":"Kushan Empire","cliopatria_seshat_id":"af_kushan_emp"},
"geometry": {"type": "MultiPolygon", "coordinates": [
[
[
[63.4264,32.3645],
[63.5548,32.236],
[64.3826,32.1717],
[65.682,31.7861],
[65.7582,31.7861],
[66.1022,31.5933],
[66.4833,31.5933],
[66.4491,31.0148],
[66.5252,31.0148],
[66.9545,31.2719],
[67.0674,31.8503],
[67.656,32.4931],
[67.7096,32.7502],
[68.3556,33.2645],
[69.0599,33.3288],
[69.4821,33.8432],
[69.8811,33.9075],
[69.9876,34.0361],
[70.7265,33.9075],
[71.0945,34.1647],
[71.4792,34.1647],
[71.4945,34.229],
[71.9431,34.8079],
[71.6048,35.001],
[71.672,35.5802],
[71.2441,36.0308],
[71.2493,36.3528],
[71.6612,36.7393],
[71.825,37.0615],
[72.3982,37.4483],
[72.6625,37.8352],
[73.4942,38.5451],
[73.7479,39.1265],
[73.6303,39.2557],
[73.6903,39.4496],
[73.3953,39.5143],
[73.5731,39.5789],
[73.8,40.2906],
[73.5257,40.4201],
[73.4889,40.5496],
[73.3305,40.5496],
[73.2938,40.6792],
[73.1353,40.6792],
[73.0407,40.8736],
[72.7234,40.8736],
[72.47,41.068],
[72.2318,41.068],
[72.1371,41.2625],
[71.9781,41.2625],
[71.9995,41.3274],
[71.8405,41.3274],
[71.6298,41.6518],
[70.0157,41.5869],
[69.5798,41.7167],
[68.978,41.3274],
[68.2233,41.4571],
[68.0251,41.5869],
[67.5473,41.5869],
[66.891,41.2625],
[66.6525,41.2625],
[65.9621,40.8088],
[65.8828,40.8088],
[65.5638,39.967],
[65.2912,39.8376],
[65.2031,39.5143],
[65.2819,39.5143],
[65.0655,38.9972],
[65.1441,38.9972],
[65.0767,38.7389],
[65.1551,38.7389],
[64.7511,35.7733],
[64.8285,35.7733],
[64.854,35.194],
[65.092,34.8723],
[64.5735,34.615],
[64.3239,34.1647],
[63.8726,33.8432],
[63.4264,32.3645]
]
]
]}
}
