{
"type": "Feature",
"properties": {"id":"cliopatria-kingdom-of-wurttemberg-1806","edge_precision":"unknown","cliopatria_name":"Kingdom of Württemberg","cliopatria_from_year":1806,"cliopatria_to_year":1810,"cliopatria_area_km2":16895,"cliopatria_wikidata":"Q159631","cliopatria_wikipedia":"Kingdom of Württemberg"},
"geometry": {"type": "MultiPolygon", "coordinates": [
[
[
[8.0426,48.2578],
[8.2083,48.2578],
[8.2117,48.0597],
[8.5418,48.1257],
[8.5437,47.9938],
[8.7919,47.9938],
[8.7119,47.7959],
[8.7945,47.7959],
[8.7954,47.73],
[8.878,47.73],
[8.8771,47.7959],
[8.9597,47.7959],
[8.9573,47.9938],
[8.791,48.0597],
[8.7893,48.1917],
[8.9549,48.1917],
[8.9541,48.2578],
[9.037,48.2578],
[8.8688,48.4559],
[8.6198,48.4559],
[8.5359,48.522],
[9.1177,48.4559],
[9.4525,48.1257],
[9.2882,47.9938],
[9.2915,47.6641],
[9.3741,47.6641],
[9.3747,47.5982],
[9.4572,47.5982],
[9.9508,47.8619],
[9.9496,48.0597],
[10.0324,48.0597],
[9.9485,48.2578],
[9.699,48.3899],
[9.616,48.3899],
[9.5315,48.5881],
[9.9471,48.522],
[10.1125,48.6542],
[10.1111,48.9851],
[9.9435,49.1838],
[9.8601,49.1838],
[9.8597,49.25],
[8.7753,49.25],
[8.6937,49.1175],
[8.4437,49.1175],
[8.4488,48.7865],
[8.1993,48.7865],
[8.205,48.4559],
[8.0426,48.2578]
]
]
]}
}
