{
"type": "Feature",
"properties": {"id":"cliopatria-caucasian-albania-0060","edge_precision":"unknown","cliopatria_name":"Caucasian Albania","cliopatria_from_year":60,"cliopatria_to_year":67,"cliopatria_area_km2":49921,"cliopatria_wikidata":"Q177076","cliopatria_wikipedia":"Caucasian Albania"},
"geometry": {"type": "MultiPolygon", "coordinates": [
[
[
[44.2373,41.2625],
[45.0322,41.2625],
[45.5953,40.8736],
[45.4567,40.5496],
[45.5915,40.4201],
[46.2007,40.2906],
[46.2561,40.1612],
[46.4814,40.0964],
[46.4578,39.967],
[46.7736,39.967],
[47.0656,39.8376],
[47.1208,39.7083],
[48.1459,39.7083],
[48.158,39.7729],
[48.1903,40.3554],
[48.1112,40.3554],
[48.2001,40.8088],
[48.3846,40.9384],
[48.3443,41.1328],
[47.9602,41.1977],
[47.9863,41.3274],
[47.4963,41.2625],
[47.5092,41.3274],
[47.3502,41.3274],
[46.8164,41.8465],
[46.4306,41.9114],
[46.2297,42.1063],
[45.6834,42.1712],
[45.6961,42.2362],
[45.5363,42.2362],
[45.3138,41.9114],
[45.0745,41.9114],
[44.7743,41.5869],
[44.3523,41.4571],
[44.2373,41.2625]
]
]
]}
}
