{
"type": "Feature",
"properties": {"id":"cliopatria-sabaeans-676bce","edge_precision":"unknown","cliopatria_name":"Sabaeans","cliopatria_from_year":-675,"cliopatria_to_year":-551,"cliopatria_area_km2":55243,"cliopatria_wikidata":"Q940785","cliopatria_wikipedia":"Sabaeans","cliopatria_seshat_id":"ye_sabaean_commonwealth"},
"geometry": {"type": "MultiPolygon", "coordinates": [
[
[
[42.4767,17.0005],
[42.824,16.6147],
[42.692,15.5218],
[42.7656,15.5218],
[42.8161,15.0718],
[45.025,15.1361],
[45.179,15.2647],
[45.3225,15.2004],
[45.4031,15.329],
[45.8479,15.3933],
[45.8551,15.5218],
[46.1494,15.5218],
[46.3811,15.7147],
[46.4697,15.9718],
[46.3961,15.9718],
[45.579,15.8433],
[45.3656,15.9718],
[45.0675,15.9076],
[44.9275,16.0361],
[44.3279,15.8433],
[44.1878,15.9718],
[44.2686,16.1004],
[44.0477,16.1004],
[43.9112,16.2933],
[44.0029,16.6147],
[43.8738,16.9362],
[43.8922,17.2576],
[43.8184,17.2576],
[43.8996,17.3862],
[43.5529,17.7719],
[43.2503,17.6433],
[43.0326,17.7076],
[43.0216,17.5148],
[42.6348,17.1933],
[42.4873,17.1933],
[42.4767,17.0005]
]
],
[
[
[45.8444,15.329],
[45.9179,15.329],
[45.9215,15.3933],
[45.8479,15.3933],
[45.8444,15.329]
]
]
]}
}
