{
"type": "Feature",
"properties": {"id":"cliopatria-samtskhe-saatabago-1468","edge_precision":"unknown","cliopatria_name":"Samtskhe-Saatabago","cliopatria_from_year":1468,"cliopatria_to_year":1501,"cliopatria_area_km2":42625,"cliopatria_wikidata":"Q2029317","cliopatria_wikipedia":"Samtskhe-Saatabago"},
"geometry": {"type": "MultiPolygon", "coordinates": [
[
[
[40.3806,41.0032],
[40.46,41.0032],
[40.4703,41.068],
[40.3909,41.068],
[40.3806,41.0032]
]
],
[
[
[40.46,41.0032],
[40.4983,40.744],
[41.074,40.8736],
[40.9328,40.4849],
[41.3666,40.2259],
[41.2371,39.9023],
[41.5528,39.9023],
[42.0746,39.7083],
[42.4688,39.7083],
[42.8367,40.0317],
[43.174,40.1612],
[43.4793,40.0964],
[43.8173,40.2259],
[43.8729,40.5496],
[43.737,40.6792],
[43.7709,40.8736],
[43.9296,40.8736],
[43.772,41.3274],
[43.6925,41.3274],
[43.7274,41.522],
[43.2049,41.7167],
[42.6244,41.5869],
[42.067,41.5869],
[41.9652,41.4571],
[41.5783,41.522],
[41.5674,41.4571],
[41.4082,41.4571],
[41.3071,41.3274],
[41.1588,41.3922],
[41.0473,41.1977],
[40.5393,41.0032],
[40.46,41.0032]
]
]
]}
}
