{
"type": "Feature",
"properties": {"id":"cliopatria-caliphate-of-cordoba-1015","edge_precision":"unknown","cliopatria_name":"Caliphate of Córdoba","cliopatria_from_year":1015,"cliopatria_to_year":1017,"cliopatria_area_km2":70799,"cliopatria_wikidata":"Q171740","cliopatria_wikipedia":"Caliphate of Córdoba","cliopatria_seshat_id":"es_cordoba_cal"},
"geometry": {"type": "MultiPolygon", "coordinates": [
[
[
[-8.1387,37.8352],
[-8.0273,37.4483],
[-7.7153,37.4483],
[-7.7315,37.6417],
[-7.5862,37.7707],
[-6.9508,37.6417],
[-6.9613,37.7707],
[-6.5758,37.8352],
[-6.3992,37.5773],
[-6.6232,37.4483],
[-6.6181,37.3838],
[-6.7538,37.126],
[-6.3495,36.9326],
[-6.3447,36.8682],
[-5.8095,36.9971],
[-5.6585,37.0615],
[-5.7507,37.2549],
[-5.8874,38.0288],
[-5.8142,38.0933],
[-5.2665,38.0933],
[-5.0911,37.8352],
[-4.7739,37.7707],
[-4.7601,37.5773],
[-4.6821,37.5773],
[-4.673,37.4483],
[-4.517,37.4483],
[-4.5125,37.3838],
[-4.4345,37.3838],
[-3.9709,37.4483],
[-3.9839,37.6417],
[-4.1489,37.7707],
[-4.1622,37.9643],
[-4.4242,38.3515],
[-4.7518,38.5451],
[-5.0605,38.4806],
[-5.281,38.2869],
[-5.4425,38.3515],
[-5.7459,38.2224],
[-6.9931,38.1578],
[-7.5519,38.2869],
[-7.8316,37.8998],
[-8.1387,37.8352]
]
],
[
[
[-6.0685,36.2884],
[-6.0638,36.224],
[-5.8311,36.224],
[-5.5848,36.0308],
[-5.5162,36.1596],
[-5.2879,36.224],
[-5.2282,36.4816],
[-4.6888,36.546],
[-4.4686,36.7393],
[-3.9243,36.7393],
[-3.859,36.9326],
[-4.2611,37.126],
[-4.793,36.9326],
[-5.2645,36.9971],
[-5.3424,36.9971],
[-5.3332,36.8682],
[-5.411,36.8682],
[-5.4018,36.7393],
[-5.3972,36.6749],
[-5.3104,36.546],
[-5.5389,36.4816],
[-5.6805,36.2884],
[-6.0685,36.2884]
]
],
[
[
[-3.286,41.1328],
[-2.6323,40.8736],
[-1.9227,40.9384],
[-1.5136,40.744],
[-0.8991,41.068],
[-0.5021,41.068],
[-0.4113,40.8736],
[0.0753,40.6792],
[0.1439,40.8736],
[0.3749,41.0032],
[0.4403,41.2625],
[0.6719,41.3922],
[0.665,41.522],
[1.2057,41.8465],
[1.2023,41.9114],
[0.7237,41.9114],
[0.6369,42.0413],
[0.1617,41.9764],
[0.0744,42.1063],
[-0.4925,42.2362],
[-0.6524,42.2362],
[-0.7486,42.4962],
[-1.0687,42.4962],
[-1.1403,42.3662],
[-1.7845,42.4312],
[-1.7756,42.3012],
[-1.82,41.7816],
[-2.1299,41.6518],
[-2.121,41.522],
[-2.3462,41.3274],
[-3.2161,41.2625],
[-3.286,41.1328]
]
]
]}
}
