{
"type": "Feature",
"properties": {"id":"cliopatria-mamluk-dynasty-1250","edge_precision":"unknown","cliopatria_name":"Mamluk Dynasty","cliopatria_from_year":1250,"cliopatria_to_year":1259,"cliopatria_area_km2":1337756,"cliopatria_wikidata":"Q847420","cliopatria_wikipedia":"Mamluk dynasty (Delhi)","cliopatria_seshat_id":"in_delhi_sultanate","cliopatria_member_of":"(Delhi Sultanate)"},
"geometry": {"type": "MultiPolygon", "coordinates": [
[
[
[67.3637,24.072],
[67.4384,24.072],
[67.4911,23.8792],
[68.1554,23.8149],
[68.1265,23.5577],
[68.4248,23.5577],
[68.6776,23.8149],
[69.0507,23.8149],
[70.589,24.2006],
[70.7621,24.3935],
[71.4587,24.5864],
[71.9747,25.1007],
[72.1022,26.5151],
[72.3119,26.9009],
[72.8038,27.158],
[73.6308,27.158],
[74.2007,26.9652],
[74.3095,26.708],
[74.229,26.1937],
[74.304,26.1937],
[74.2554,25.8722],
[74.3304,25.8722],
[74.0236,24.2006],
[74.0983,24.2006],
[74.0919,23.5577],
[74.1665,23.5577],
[74.2021,23.2379],
[74.5254,22.8649],
[75.0939,22.7796],
[75.2645,22.9786],
[75.7192,23.1491],
[76.6573,23.3481],
[76.4583,23.6323],
[77.4531,23.6323],
[77.5256,22.5934],
[77.5497,22.5934],
[79.3768,22.9148],
[79.534,22.9791],
[79.6504,23.3006],
[79.8165,23.4291],
[79.8251,23.4934],
[79.8996,23.4934],
[79.9049,23.5325],
[79.5324,23.4084],
[79.3101,23.2972],
[78.821,24.3864],
[78.821,25.0978],
[79.5324,25.6313],
[79.5546,25.9425],
[80.0436,26.1425],
[80.7549,25.7646],
[81.0439,25.7202],
[81.3996,25.3645],
[82.4666,24.831],
[83.0223,24.7866],
[83.578,24.3864],
[82.9334,24.2975],
[82.5555,23.8752],
[80.7549,23.7418],
[80.6801,23.7493],
[80.8952,23.6863],
[80.8776,23.5577],
[81.0838,23.4291],
[81.2557,23.0434],
[81.743,22.7863],
[81.9327,22.5291],
[82.3625,22.4005],
[82.4202,22.272],
[82.8415,22.0791],
[83.6427,21.9505],
[83.6351,21.8921],
[84.0476,22.0406],
[84.5592,21.9553],
[85.0424,22.1827],
[85.5825,22.6943],
[86.2078,22.6091],
[86.5497,22.445],
[86.588,22.1258],
[86.986,21.6426],
[86.9301,21.3077],
[87.2246,21.5005],
[87.762,21.6291],
[88.1033,21.9505],
[88.1777,21.9505],
[88.1335,21.6291],
[88.3477,21.5648],
[88.3653,21.6934],
[88.5139,21.6934],
[88.6416,22.0791],
[88.716,22.0791],
[88.728,21.6291],
[89.0995,21.6291],
[89.1173,21.7577],
[89.7118,21.7577],
[89.8695,21.822],
[89.8966,22.0148],
[90.232,21.7577],
[90.4263,22.0791],
[90.6494,22.0791],
[90.631,21.9505],
[90.8632,22.0148],
[90.9378,22.5291],
[90.7983,22.5934],
[90.6875,22.8506],
[90.5386,22.8506],
[90.6419,23.0434],
[90.6762,23.7506],
[90.1304,24.072],
[89.9692,24.4578],
[89.9702,24.9078],
[90.337,25.2936],
[90.3951,25.615],
[90.293,25.8722],
[90.0295,26.0651],
[88.7429,26.0008],
[87.429,26.1937],
[86.304,26.1937],
[84.487,26.5151],
[84.1589,26.7723],
[82.8663,27.0938],
[81.9735,27.5438],
[80.4031,27.9938],
[80.2773,28.1224],
[79.8374,28.1867],
[78.9321,28.5724],
[78.882,28.701],
[78.5927,28.7652],
[78.5427,28.8938],
[77.8515,29.2152],
[77.2266,29.858],
[77.6151,30.9506],
[77.9016,31.2076],
[78.2208,31.2719],
[78.4329,31.529],
[78.448,31.5933],
[78.0361,31.7861],
[77.3037,31.9146],
[77.0439,32.1074],
[76.5246,32.1717],
[76.4022,32.3002],
[75.3326,32.3002],
[75.2098,32.4288],
[74.904,32.4288],
[74.7047,32.5574],
[74.6734,32.7502],
[74.3824,32.8145],
[74.0294,33.2645],
[73.1549,33.4574],
[73.201,33.6502],
[73.0782,33.7789],
[72.4175,33.9075],
[72.4639,34.1004],
[72.1408,34.0361],
[71.5288,33.3931],
[71.4845,33.2002],
[71.5938,33.0073],
[71.2297,32.7502],
[71.1728,32.4931],
[70.846,32.0431],
[70.3949,28.9581],
[70.1658,28.5081],
[69.756,28.3153],
[69.7347,28.1867],
[69.4979,28.1224],
[69.2302,27.8652],
[68.5219,27.6724],
[68.0865,27.2866],
[67.9171,26.6437],
[67.9922,26.6437],
[68.0614,26.0651],
[68.1938,25.9365],
[68.2173,25.5507],
[67.7614,24.9078],
[67.5352,24.2649],
[67.3637,24.072]
]
]
]}
}
