{
"type": "Feature",
"properties": {"id":"cliopatria-mahdids-1236","edge_precision":"unknown","cliopatria_name":"Mahdids","cliopatria_from_year":1236,"cliopatria_to_year":1259,"cliopatria_area_km2":84195,"cliopatria_wikidata":"Q1884830","cliopatria_wikipedia":"Mahdids"},
"geometry": {"type": "MultiPolygon", "coordinates": [
[
[
[55.5303,24.4578],
[55.6503,24.1363],
[55.5583,23.9435],
[55.7076,23.9435],
[55.8862,23.4291],
[56.1733,23.3006],
[56.2258,23.0434],
[56.4384,22.9148],
[56.6293,22.5291],
[56.8472,22.4648],
[56.8312,22.272],
[56.9853,22.3363],
[57.1924,22.1434],
[57.4845,22.0791],
[58.2445,22.272],
[58.8754,21.822],
[58.8645,21.6934],
[59.2141,21.4363],
[59.2032,21.3077],
[59.437,21.4363],
[59.864,22.0791],
[59.9039,22.5291],
[59.5432,22.6577],
[59.2684,22.9148],
[59.2801,23.0434],
[59.0682,23.172],
[59.08,23.3006],
[58.8115,23.622],
[57.4927,23.8792],
[57.0627,24.072],
[56.7256,24.4578],
[56.7317,24.5221],
[56.5449,24.9078],
[56.4016,24.9721],
[56.4957,25.165],
[56.4208,25.165],
[56.3988,25.6793],
[56.5433,26.3222],
[56.1682,26.3222],
[55.9696,25.8722],
[55.813,25.8079],
[55.8062,25.7436],
[56.0532,25.2293],
[56.0152,24.8435],
[55.5363,24.5221],
[55.5303,24.4578]
]
]
]}
}
