{
"type": "Feature",
"properties": {"id":"cliopatria-principality-of-vladimir-suzdal-1375","edge_precision":"unknown","cliopatria_name":"Principality of Vladimir-Suzdal","cliopatria_from_year":1375,"cliopatria_to_year":1394,"cliopatria_area_km2":112862,"cliopatria_wikidata":"Q83546","cliopatria_wikipedia":"Vladimir-Suzdal"},
"geometry": {"type": "MultiPolygon", "coordinates": [
[
[
[36.4221,58.4587],
[36.512,58.4587],
[36.4618,58.2504],
[36.5515,58.2504],
[36.5015,58.0423],
[36.591,58.0423],
[36.5485,57.4889],
[37.2054,57.6271],
[37.2559,57.8346],
[37.7746,57.7654],
[37.6426,58.6673],
[38.0205,58.7369],
[38.0747,58.5977],
[38.2546,58.5977],
[38.3984,58.4587],
[38.4348,57.9038],
[38.5242,57.9038],
[38.4888,57.7654],
[37.8467,57.6962],
[37.7992,57.144],
[38.0484,57.0751],
[38.4552,57.2819],
[39.1485,57.2129],
[39.1308,57.144],
[39.6815,57.2129],
[39.8229,57.0751],
[39.7868,56.9374],
[40.3185,56.9374],
[40.332,56.3191],
[41.9754,56.525],
[42.102,56.6623],
[42.0328,56.7311],
[42.3371,56.8686],
[42.4155,57.144],
[42.8105,57.2819],
[42.8306,57.3509],
[43.0287,57.4199],
[43.0006,57.6271],
[43.1994,57.6962],
[43.1926,57.9731],
[43.282,57.9731],
[43.5399,58.5282],
[43.9395,58.9458],
[43.9613,59.0155],
[43.6002,59.0155],
[43.0426,58.6673],
[42.6073,58.1116],
[41.9206,57.9038],
[41.5828,57.9731],
[41.6025,58.0423],
[41.2445,58.0423],
[41.1862,57.8346],
[40.7015,57.6962],
[40.7461,58.181],
[40.9136,58.4587],
[40.8433,58.5282],
[40.8629,58.5977],
[40.773,58.5977],
[40.832,58.8065],
[40.0918,58.7369],
[39.5562,59.0853],
[38.9424,59.1551],
[38.7989,59.2947],
[38.4368,59.2947],
[38.3633,59.0155],
[37.8939,58.9458],
[37.6779,58.8065],
[36.7767,58.8065],
[36.7209,58.9458],
[36.4502,58.9458],
[36.4221,58.4587]
]
],
[
[
[40.7905,59.2947],
[41.0218,59.1551],
[41.2634,59.3646],
[41.5352,59.3646],
[42.0719,59.6445],
[42.6168,59.6445],
[42.5954,59.5745],
[43.9791,59.6445],
[43.9569,59.5745],
[45.0231,59.5045],
[45.6844,59.8547],
[45.8466,60.0653],
[45.9426,60.3465],
[46.3876,61.619],
[46.2531,61.7611],
[46.0677,61.7611],
[46.093,61.8322],
[44.5405,61.9034],
[44.4921,61.7611],
[44.2827,61.69],
[43.5417,61.69],
[43.2869,61.477],
[43.0123,60.9105],
[42.1994,60.0653],
[41.6386,59.7145],
[41.5971,59.5745],
[40.7905,59.2947]
]
],
[
[
[43.9613,59.0155],
[44.0516,59.0155],
[44.0736,59.0853],
[43.9832,59.0853],
[43.9613,59.0155]
]
]
]}
}
