{
"type": "Feature",
"properties": {"id":"cliopatria-magadha-haryanka-dynasty-451bce","edge_precision":"unknown","cliopatria_name":"Magadha - Haryanka dynasty","cliopatria_from_year":-450,"cliopatria_to_year":-405,"cliopatria_area_km2":335215,"cliopatria_wikidata":"Q12459974","cliopatria_wikipedia":"Haryanka dynasty","cliopatria_seshat_id":"in_mahajanapada","cliopatria_member_of":"(Mahajanapadas)"},
"geometry": {"type": "MultiPolygon", "coordinates": [
[
[
[80.9041,25.7436],
[81.0331,25.615],
[81.0021,25.4221],
[81.261,25.165],
[81.4106,25.165],
[81.4555,24.9721],
[81.7251,24.7792],
[81.7057,24.6506],
[82.2274,24.1363],
[82.3767,24.1363],
[82.5727,23.9435],
[82.5543,23.8149],
[82.7036,23.8149],
[82.891,23.5577],
[83.0401,23.5577],
[83.5082,23.172],
[84.0119,23.0434],
[84.2089,22.8506],
[84.3667,22.9148],
[84.4235,22.7863],
[84.787,22.722],
[84.9183,22.5934],
[86.1571,22.4005],
[86.2708,22.1434],
[86.4283,22.2077],
[86.6908,21.9505],
[86.976,21.3077],
[87.2246,21.5005],
[87.762,21.6291],
[88.1777,21.9505],
[88.2133,22.2077],
[88.0172,22.4005],
[88.1842,22.5291],
[88.2394,22.9148],
[88.445,23.3006],
[88.573,24.1363],
[88.4984,24.1363],
[88.6141,24.3935],
[88.4647,24.3935],
[88.3036,24.7792],
[88.4107,24.9721],
[88.1334,25.1007],
[88.1029,25.3579],
[87.7624,25.5507],
[87.7333,25.8079],
[87.5435,26.0008],
[87.3935,26.0008],
[87.279,26.1937],
[86.8647,26.3865],
[86.9639,26.5151],
[86.7388,26.5151],
[86.6252,26.708],
[86.475,26.708],
[86.4369,26.9009],
[86.1991,26.8366],
[86.0986,27.0938],
[85.7228,27.0938],
[85.5098,27.158],
[85.5349,27.2866],
[85.2967,27.2223],
[85.021,27.3509],
[84.9458,27.3509],
[84.3692,27.4795],
[83.3157,27.4795],
[82.7009,27.8009],
[82.1364,27.6081],
[81.76,27.6081],
[81.5609,27.3509],
[81.4104,27.3509],
[81.0795,26.7723],
[80.9041,25.7436]
]
],
[
[
[80.9818,25.2936],
[81.0566,25.2936],
[81.0668,25.3579],
[80.9919,25.3579],
[80.9818,25.2936]
]
],
[
[
[82.4143,23.8792],
[82.4889,23.8792],
[82.4981,23.9435],
[82.4235,23.9435],
[82.4143,23.8792]
]
]
]}
}
