{
"type": "Feature",
"properties": {"id":"cliopatria-principality-of-chernigov-1236","edge_precision":"unknown","cliopatria_name":"Principality of Chernigov","cliopatria_from_year":1236,"cliopatria_to_year":1240,"cliopatria_area_km2":200686,"cliopatria_wikidata":"Q1322662","cliopatria_wikipedia":"Principality of Chernigov"},
"geometry": {"type": "MultiPolygon", "coordinates": [
[
[
[29.9621,52.7881],
[30.2084,52.7208],
[30.1667,52.4519],
[30.4664,52.1833],
[30.4355,51.9822],
[30.585,51.8481],
[30.5886,51.3128],
[31.4351,51.3128],
[31.8477,51.246],
[31.9956,51.1124],
[32.4399,51.246],
[33.0322,51.246],
[33.0944,51.1124],
[33.5675,50.9122],
[34.2427,50.9122],
[35.2197,51.1792],
[35.8962,51.1792],
[36.4498,50.9789],
[37.7126,51.3797],
[38.0514,51.3797],
[38.1931,51.246],
[38.6023,51.1792],
[38.7714,51.1792],
[38.9698,51.7142],
[38.9429,51.9822],
[38.8578,51.9822],
[38.9018,52.1833],
[38.8166,52.1833],
[38.8608,52.3847],
[38.7755,52.3847],
[38.835,52.6535],
[38.7495,52.6535],
[38.7294,53.3271],
[38.6434,53.3271],
[38.681,53.8676],
[38.5946,53.8676],
[38.9372,54.9531],
[39.1944,55.2936],
[39.4734,55.3618],
[39.612,55.5665],
[39.9093,55.7031],
[39.8564,55.8398],
[39.5758,55.7715],
[39.593,55.8398],
[38.9955,55.9082],
[37.8445,55.4983],
[37.8125,55.3618],
[36.6455,55.2255],
[36.4979,54.9531],
[35.9458,54.8171],
[35.9167,54.6811],
[35.3244,54.3417],
[35.2964,54.2061],
[35.0092,54.0706],
[34.782,53.7999],
[33.9111,54.2061],
[33.4653,54.1384],
[33.4524,54.0706],
[33.3659,54.0706],
[33.0311,53.6647],
[32.8464,53.5971],
[32.8218,53.4621],
[32.1603,53.1248],
[31.2387,53.2596],
[30.0357,53.2596],
[29.9621,52.7881]
]
]
]}
}
