{
"type": "Feature",
"properties": {"id":"cliopatria-chu-334bce","edge_precision":"unknown","cliopatria_name":"Chu","cliopatria_from_year":-333,"cliopatria_to_year":-316,"cliopatria_area_km2":563297,"cliopatria_wikidata":"Q504759","cliopatria_wikipedia":"Chu (state)","cliopatria_seshat_id":"cn_chu_k_warring_states","cliopatria_member_of":"(Warring States China)"},
"geometry": {"type": "MultiPolygon", "coordinates": [
[
[
[109.3125,31.5933],
[109.4752,31.4005],
[109.3555,31.2719],
[109.4861,31.2076],
[109.4763,30.9506],
[109.9158,30.4364],
[110.4056,30.3079],
[110.2273,29.9865],
[110.6618,29.9223],
[111.2987,29.5366],
[111.8086,29.4723],
[111.9959,29.3438],
[112.9037,29.3438],
[113.2668,29.5366],
[113.5836,30.0508],
[113.9506,30.2436],
[114.1127,30.5007],
[114.8719,30.5007],
[115.2078,30.3722],
[115.6851,30.4364],
[116.1186,30.3722],
[116.1506,30.2436],
[116.1289,30.1794],
[116.27,29.9223],
[116.7364,29.7294],
[118.3597,29.6009],
[119.7026,29.9865],
[120.5205,30.3722],
[120.7253,30.3079],
[120.8012,30.3079],
[121.5192,30.822],
[121.8993,30.822],
[121.9953,31.0791],
[121.7366,31.4005],
[121.5843,31.4005],
[121.6335,31.529],
[121.4811,31.529],
[121.4544,31.6575],
[120.9191,31.8503],
[121.3005,31.8503],
[121.8356,31.6575],
[121.9368,31.7218],
[121.9613,31.9789],
[121.5033,32.1717],
[121.4026,32.4931],
[120.9192,32.6216],
[120.9263,33.2002],
[120.5505,33.5859],
[120.4894,34.1647],
[120.3418,34.3577],
[119.9847,34.422],
[119.8864,34.5506],
[119.8094,34.5506],
[119.459,34.8079],
[119.2276,34.8079],
[119.6187,35.5158],
[120.0158,35.7089],
[120.0451,35.7733],
[119.5323,35.8377],
[119.0093,35.7089],
[117.9657,34.7436],
[117.7239,34.3577],
[117.5157,34.229],
[117.2311,34.1004],
[116.6157,34.1004],
[116.107,34.3577],
[115.5947,34.422],
[115.4942,34.5506],
[114.6466,34.5506],
[114.3412,34.7436],
[114.4721,34.8723],
[113.6738,34.8079],
[113.44,34.615],
[111.5902,34.615],
[110.2798,34.8079],
[109.5862,34.615],
[109.5608,34.5506],
[109.7149,34.5506],
[109.6643,34.422],
[110.0241,34.3577],
[110.2314,34.1004],
[110.514,34.0361],
[110.3872,33.9075],
[110.5409,33.9075],
[110.4912,33.7789],
[110.2115,33.6502],
[110.2149,33.4574],
[109.7829,33.3288],
[109.7109,33.1359],
[109.8165,33.0073],
[109.5524,32.4931],
[109.6288,32.4931],
[109.3125,31.5933]
]
]
]}
}
