{
"type": "Feature",
"properties": {"id":"cliopatria-natalia-republic-1908","edge_precision":"unknown","cliopatria_name":"Natalia Republic","cliopatria_from_year":1908,"cliopatria_to_year":1910,"cliopatria_area_km2":61921,"cliopatria_wikidata":"Q1029847","cliopatria_wikipedia":"Natalia Republic"},
"geometry": {"type": "MultiPolygon", "coordinates": [
[
[
[28.8149,-28.9011],
[29.2866,-29.2225],
[29.2374,-29.6724],
[29.6918,-29.6724],
[30.0027,-29.801],
[30.5039,-30.508],
[30.5799,-30.508],
[30.71,-30.1866],
[30.9289,-30.0581],
[31.0507,-29.6081],
[31.4796,-29.2225],
[31.4714,-29.0939],
[32.0594,-28.8368],
[32.1349,-28.8368],
[32.198,-28.6439],
[32.3449,-28.5797],
[32.396,-28.1939],
[32.392,-28.1297],
[32.3088,-28.0011],
[31.6909,-27.7439],
[31.8158,-27.2939],
[31.4433,-27.3582],
[31.2355,-27.6796],
[30.3425,-27.8725],
[30.1989,-28.0011],
[30.0446,-27.9368],
[30.0343,-27.7439],
[29.8769,-27.6153],
[29.6511,-27.6153],
[29.538,-28.3225],
[29.3152,-28.3868],
[29.1748,-28.5797],
[28.8764,-28.6439],
[28.8149,-28.9011]
]
]
]}
}
