{
"type": "Feature",
"properties": {"id":"cliopatria-papal-states-0806","edge_precision":"unknown","cliopatria_name":"Papal States","cliopatria_from_year":806,"cliopatria_to_year":849,"cliopatria_area_km2":15062,"cliopatria_wikidata":"Q170174","cliopatria_wikipedia":"Papal States","cliopatria_seshat_id":"it_st_peter_rep_1"},
"geometry": {"type": "MultiPolygon", "coordinates": [
[
[
[10.5353,43.0816],
[10.6156,43.0816],
[10.6156,43.0165],
[10.6958,43.0165],
[10.6958,42.9515],
[10.8562,42.9515],
[10.8561,42.8864],
[10.9363,42.8864],
[11.1772,42.9515],
[11.1777,43.0816],
[10.5353,43.1467],
[10.5353,43.0816]
]
],
[
[
[11.7334,42.1712],
[12.1317,42.0413],
[12.1305,41.9114],
[12.6046,41.522],
[12.9222,41.4571],
[13,41.3274],
[13.8747,41.3274],
[14.0374,41.522],
[13.9615,41.7167],
[13.8044,41.8465],
[13.4057,41.8465],
[13.328,41.9764],
[13.0097,42.0413],
[12.6152,42.4312],
[12.3752,42.4312],
[12.3018,43.0816],
[12.1412,43.0816],
[12.2246,43.4072],
[11.8219,43.3421],
[12.0598,42.9515],
[11.9763,42.5612],
[12.1358,42.4962],
[12.1346,42.3662],
[12.0535,42.2362],
[11.7339,42.2362],
[11.7334,42.1712]
]
]
]}
}
