{
"type": "Feature",
"properties": {"id":"cliopatria-sur-empire-1564","edge_precision":"unknown","cliopatria_name":"Sur Empire","cliopatria_from_year":1564,"cliopatria_to_year":1571,"cliopatria_area_km2":331194,"cliopatria_wikidata":"Q373650","cliopatria_wikipedia":"Sur Empire"},
"geometry": {"type": "MultiPolygon", "coordinates": [
[
[
[83.8787,23.6863],
[83.9533,23.6863],
[84.0031,22.9791],
[84.1521,22.9791],
[84.2834,22.8506],
[84.2571,22.6577],
[84.8578,22.1434],
[85.0065,22.1434],
[84.9894,22.0148],
[85.327,21.7577],
[85.334,21.2434],
[85.5233,20.9862],
[86.2739,21.0505],
[86.7533,21.3077],
[86.9675,21.2434],
[87.0675,21.4363],
[87.762,21.6291],
[88.1033,21.9505],
[88.1777,21.9505],
[88.1335,21.6291],
[88.3477,21.5648],
[88.3653,21.6934],
[88.5139,21.6934],
[88.6416,22.0791],
[88.716,22.0791],
[88.728,21.6291],
[89.0995,21.6291],
[89.1173,21.7577],
[89.7118,21.7577],
[89.8695,21.822],
[89.8966,22.0148],
[90.232,21.7577],
[90.4263,22.0791],
[90.6494,22.0791],
[90.631,21.9505],
[90.8632,22.0148],
[90.9378,22.5291],
[90.7983,22.5934],
[90.6875,22.8506],
[90.5386,22.8506],
[90.6419,23.0434],
[90.6864,23.8149],
[90.6118,23.8149],
[90.5463,24.7792],
[90.4716,24.7792],
[90.516,25.0364],
[90.36,25.4221],
[90.3921,26.0008],
[90.0173,26.0008],
[89.604,26.1937],
[89.154,26.1937],
[88.8784,26.3222],
[88.3532,26.3222],
[88.2276,26.4508],
[87.2399,26.3865],
[87.252,26.4508],
[86.6516,26.4508],
[86.3126,26.6437],
[85.787,26.6437],
[85.7362,26.7723],
[85.2735,26.708],
[85.0723,26.8366],
[84.9972,26.8366],
[84.8842,25.3579],
[84.6508,24.8435],
[83.9906,23.9435],
[83.9812,23.8792],
[83.8787,23.6863]
]
]
]}
}
