{
"type": "Feature",
"properties": {"id":"cliopatria-roman-empire-0378","edge_precision":"unknown","cliopatria_name":"Roman Empire","cliopatria_from_year":378,"cliopatria_to_year":382,"cliopatria_area_km2":3999056,"cliopatria_wikidata":"Q12544","cliopatria_wikipedia":"Roman Empire","cliopatria_seshat_id":"tr_roman_dominate"},
"geometry": {"type": "MultiPolygon", "coordinates": [
[
[
[-9.572,38.9326],
[-9.5531,38.7389],
[-9.3837,38.6097],
[-9.233,38.6743],
[-9.2085,38.416],
[-8.8227,38.4806],
[-8.8188,37.5773],
[-8.8969,37.5773],
[-9.0014,36.9971],
[-8.7011,37.126],
[-7.6779,36.9971],
[-7.4548,37.126],
[-7.4653,37.2549],
[-6.8418,37.2549],
[-6.588,36.9971],
[-6.3495,36.9326],
[-6.3301,36.6749],
[-6.0638,36.224],
[-5.8311,36.224],
[-5.6623,36.0308],
[-5.2879,36.224],
[-5.2282,36.4816],
[-4.6888,36.546],
[-4.4686,36.7393],
[-2.6801,36.7393],
[-2.5321,36.8682],
[-2.0616,36.8037],
[-1.8574,37.3193],
[-1.6235,37.3193],
[-1.7087,37.4483],
[-0.7048,37.6417],
[-0.8035,38.0288],
[-0.6609,38.2869],
[0.0994,38.7389],
[-0.3137,39.1265],
[-0.3454,39.7083],
[-0.1265,40.0317],
[0.1825,40.1612],
[0.2478,40.4201],
[0.7093,40.6792],
[0.6958,40.9384],
[1.2384,41.1977],
[2.1066,41.3274],
[2.3336,41.5869],
[2.5725,41.5869],
[3.1168,41.9114],
[3.1781,42.3662],
[3.0099,42.5612],
[2.9849,43.1467],
[3.14,43.2769],
[3.6171,43.4072],
[3.8509,43.6027],
[4.173,43.6027],
[4.1778,43.4723],
[5.0631,43.4723],
[5.3869,43.4072],
[5.3908,43.2769],
[5.6319,43.2769],
[5.7962,43.1467],
[6.2782,43.1467],
[6.5176,43.2118],
[6.6726,43.4723],
[6.9931,43.5375],
[7.1502,43.733],
[8.0339,43.9286],
[8.4315,44.3854],
[9.1591,44.4507],
[9.7274,44.1243],
[9.9697,44.1243],
[9.8895,43.9938],
[10.2123,43.9938],
[10.5353,43.0816],
[11.0163,42.8213],
[11.0158,42.6262],
[11.176,42.6262],
[11.2552,42.4312],
[11.4152,42.4312],
[11.4945,42.3012],
[11.6548,42.3662],
[11.8128,42.1063],
[12.1317,42.0413],
[12.1305,41.9114],
[12.6046,41.522],
[12.9222,41.4571],
[13,41.3274],
[13.7145,41.2625],
[13.7918,41.1328],
[13.9506,41.1328],
[14.1046,40.8736],
[14.4219,40.8736],
[14.4179,40.6792],
[14.8934,40.6792],
[15.0414,40.2259],
[15.1995,40.2259],
[15.4319,40.0317],
[15.7478,40.0317],
[15.6655,39.9023],
[15.8989,39.7729],
[16.1165,39.0618],
[16.2703,38.9326],
[16.2652,38.7389],
[15.9497,38.6743],
[15.8621,38.2869],
[14.0562,37.9643],
[13.6652,37.9643],
[13.3547,38.1578],
[13.1199,38.1578],
[13.0404,38.0288],
[12.6498,38.0933],
[12.4919,37.8998],
[12.4905,37.7062],
[13.192,37.5773],
[13.5784,37.2549],
[14.2779,37.126],
[14.661,36.7393],
[15.0498,36.7393],
[15.2139,37.1904],
[15.0592,37.2549],
[15.0665,37.6417],
[15.3895,38.1578],
[15.6243,38.1578],
[15.6982,37.9643],
[15.9328,37.9643],
[16.4919,38.416],
[16.5024,38.8034],
[17.1383,39.0618],
[17.0697,39.385],
[16.9162,39.5143],
[16.4473,39.6436],
[16.4567,39.967],
[16.6975,40.0964],
[16.6245,40.2906],
[16.8617,40.2906],
[16.945,40.4201],
[16.868,40.4849],
[17.0285,40.5496],
[17.3452,40.5496],
[17.4175,40.3554],
[17.8131,40.3554],
[18.1122,39.9023],
[18.3489,39.9023],
[18.4381,40.1612],
[17.9812,40.6144],
[17.5107,40.744],
[17.2027,41.0032],
[15.9439,41.3922],
[15.8738,41.7167],
[16.1149,41.7816],
[16.1189,41.9114],
[15.2414,41.9114],
[15.165,42.0413],
[14.924,41.9764],
[14.7659,42.0413],
[14.769,42.1712],
[14.6077,42.1063],
[14.5308,42.2362],
[14.3709,42.2362],
[14.0565,42.4962],
[13.9014,42.7563],
[13.9854,42.9515],
[13.7471,43.0816],
[13.6726,43.4072],
[13.3551,43.6678],
[13.0338,43.733],
[13.0356,43.8634],
[12.8734,43.7982],
[12.313,44.1896],
[12.1537,44.4507],
[12.1572,44.8426],
[12.3999,44.7773],
[12.4026,45.0388],
[12.16,45.1696],
[12.1628,45.4968],
[12.6522,45.5623],
[12.8168,45.6933],
[13.0605,45.6278],
[13.1448,45.8243],
[13.7149,45.7588],
[13.7102,45.4968],
[13.5473,45.4968],
[13.5441,45.3004],
[13.7056,45.235],
[13.7809,44.908],
[13.9432,44.908],
[13.9457,45.0388],
[14.1894,45.0388],
[14.1962,45.3659],
[14.6031,45.3659],
[14.5158,45.1042],
[14.9187,44.9734],
[14.9089,44.5813],
[15.1466,44.3854],
[15.2187,44.0591],
[15.4591,43.9938],
[15.3747,43.8634],
[15.6186,43.9286],
[15.6954,43.7982],
[15.8566,43.7982],
[16.0117,43.6027],
[15.9271,43.4723],
[16.5754,43.6027],
[16.7342,43.5375],
[16.7272,43.3421],
[17.0513,43.4072],
[17.1219,43.1467],
[17.3654,43.2118],
[17.3552,42.9515],
[17.5157,42.9515],
[17.5079,42.7563],
[17.5933,42.8864],
[17.9915,42.8213],
[18.1435,42.6262],
[18.852,42.3662],
[19.3862,41.8465],
[19.4659,41.8465],
[19.4627,41.7816],
[19.5424,41.7816],
[19.4501,41.522],
[19.5297,41.522],
[19.4438,41.3922],
[19.5233,41.3922],
[19.4376,41.2625],
[19.4985,40.8736],
[19.2545,40.744],
[19.2487,40.6144],
[19.4863,40.6144],
[19.4714,40.2906],
[19.6295,40.2906],
[20.0094,39.967],
[20.0003,39.7729],
[19.7637,39.7729],
[19.7578,39.6436],
[19.9125,39.5789],
[19.9184,39.7083],
[20.155,39.7083],
[20.2972,39.385],
[20.911,39.0618],
[20.7414,38.8034],
[20.9737,38.7389],
[21.1933,38.416],
[21.7384,38.3515],
[21.7286,38.1578],
[21.4156,38.1578],
[21.2436,37.8352],
[21.6966,37.5128],
[21.6031,37.1904],
[21.681,37.1904],
[21.7435,36.8682],
[21.8992,36.8682],
[21.9085,37.0615],
[22.22,37.0615],
[22.3563,36.6749],
[22.5118,36.6749],
[22.5994,36.8682],
[22.8328,36.8682],
[23.056,36.6749],
[22.8532,37.2549],
[22.7007,37.3193],
[22.7144,37.5773],
[22.9486,37.5773],
[23.1756,37.4483],
[23.1685,37.3193],
[23.4024,37.3193],
[23.3425,37.6417],
[23.1083,37.6417],
[23.0445,37.8998],
[23.2008,37.8998],
[23.2082,38.0288],
[23.4428,38.0288],
[23.9786,37.8352],
[24.0021,38.2224],
[24.1587,38.2224],
[24.1789,38.5451],
[24.0302,38.6743],
[23.5634,38.7389],
[23.6261,38.4806],
[23.3126,38.4806],
[23.1672,38.6743],
[22.9356,38.7389],
[23.0254,38.9326],
[23.3318,38.8034],
[23.4928,38.868],
[22.9583,39.1265],
[22.7973,39.0618],
[22.8163,39.385],
[23.1352,39.4496],
[22.6109,39.9023],
[22.7017,40.0964],
[22.5437,40.0964],
[22.5716,40.5496],
[22.8925,40.6144],
[22.9592,40.4201],
[23.7374,40.2259],
[23.8386,40.5496],
[23.6846,40.6144],
[23.698,40.8088],
[24.0106,40.744],
[24.4259,41.0032],
[24.5053,41.0032],
[24.4501,41.3274],
[24.2211,41.4571],
[23.5004,41.3922],
[23.2753,41.5869],
[22.9568,41.5869],
[22.8991,41.9114],
[22.6729,42.1063],
[22.5132,42.1063],
[22.3664,42.3012],
[22.5394,42.4962],
[22.4813,42.8213],
[22.9005,43.0816],
[22.9098,43.2118],
[22.7536,43.2769],
[22.7674,43.4723],
[22.9377,43.6027],
[22.8946,44.1243],
[22.5044,44.3201],
[22.5182,44.516],
[22.6895,44.6466],
[21.9514,44.516],
[21.8791,44.6466],
[21.4055,44.8426],
[20.7486,44.7119],
[20.5169,44.908],
[20.5284,45.1042],
[20.0556,45.3659],
[19.8856,45.235],
[19.2351,45.235],
[18.9976,45.3659],
[19.0041,45.4968],
[18.9227,45.4968],
[18.9259,45.5623],
[18.7788,45.8898],
[18.8604,45.8898],
[19.0501,46.4145],
[18.8141,46.6115],
[18.837,47.0716],
[19.1729,47.2032],
[19.1868,47.4665],
[19.0253,47.5323],
[19.0322,47.6641],
[18.8739,47.7959],
[17.7143,47.73],
[17.0643,47.9938],
[16.6632,48.3238],
[16.0783,48.1917],
[15.4985,48.1917],
[15.171,48.3238],
[14.2576,48.2578],
[13.7642,48.4559],
[13.6838,48.5881],
[13.6007,48.5881],
[12.9383,48.7204],
[12.6091,48.9851],
[11.8612,49.1838],
[11.1929,48.7865],
[9.1206,48.1917],
[8.9565,48.0597],
[8.8771,47.7959],
[8.5476,47.73],
[8.467,47.5982],
[7.6433,47.5323],
[7.551,47.9938],
[7.6338,47.9938],
[7.6269,48.3238],
[7.7098,48.3238],
[7.7862,48.6542],
[8.115,48.8527],
[8.1115,49.0513],
[8.2759,49.1838],
[8.2716,49.4489],
[8.3551,49.4489],
[8.3519,49.6479],
[8.1824,49.7807],
[8.1813,49.8471],
[7.6774,49.9136],
[7.7533,50.3125],
[7.6693,50.3125],
[7.6665,50.4457],
[7.4127,50.5122],
[6.8854,51.3797],
[6.5391,51.6472],
[6.3693,51.6472],
[5.934,51.9822],
[4.5698,52.0492],
[4.5728,51.9822],
[4.2325,51.9822],
[4.056,52.1163],
[3.9805,51.9151],
[3.6471,51.7811],
[3.7387,51.6472],
[3.3993,51.6472],
[3.4097,51.4465],
[2.7394,51.3128],
[2.5778,51.1792],
[1.6562,51.0457],
[1.4247,50.7121],
[1.455,50.246],
[1.0528,49.98],
[0.2241,49.8471],
[-0.0124,49.6479],
[0.007,49.3826],
[-1.2508,49.4489],
[-1.3618,49.7807],
[-2.0316,49.7807],
[-1.9133,49.3826],
[-1.6517,49.25],
[-1.635,49.0513],
[-1.7183,49.0513],
[-1.6022,48.6542],
[-2.5219,48.7204],
[-2.7594,48.5881],
[-3.1222,48.9189],
[-3.4551,48.9189],
[-3.8518,48.7204],
[-4.5999,48.7204],
[-4.9117,48.522],
[-4.8913,48.3238],
[-4.6426,48.3238],
[-4.5464,48.1917],
[-4.7054,48.1257],
[-4.6921,47.9938],
[-4.4244,47.7959],
[-3.9349,47.8619],
[-3.7572,47.73],
[-3.3443,47.73],
[-3.1555,47.4665],
[-2.8373,47.5982],
[-2.8258,47.4665],
[-2.5784,47.4665],
[-2.5616,47.269],
[-2.2322,47.269],
[-2.1391,47.1374],
[-2.1944,46.8086],
[-2.0249,46.7429],
[-2.0144,46.6115],
[-1.666,46.3489],
[-1.2518,46.2833],
[-1.2227,45.8898],
[-1.1411,45.8898],
[-1.2131,45.7588],
[-1.0453,45.6933],
[-1.0312,45.4968],
[-1.1894,45.4313],
[-1.1706,45.1696],
[-1.2519,45.1696],
[-1.2054,44.516],
[-1.2863,44.516],
[-1.268,44.2548],
[-1.3488,44.2548],
[-1.3884,43.6678],
[-1.6876,43.3421],
[-3.2959,43.3421],
[-3.4672,43.4723],
[-4.9904,43.4072],
[-5.7328,43.6027],
[-7.1757,43.5375],
[-7.3435,43.6027],
[-7.2765,43.733],
[-8.2436,43.733],
[-8.3904,43.6027],
[-8.369,43.4072],
[-8.8517,43.4072],
[-9.1587,43.2769],
[-9.3046,43.1467],
[-9.2752,42.8864],
[-9.1003,42.7563],
[-9.0787,42.5612],
[-8.6574,42.3662],
[-8.9561,42.1712],
[-8.727,40.744],
[-8.8723,40.6144],
[-8.8461,40.3554],
[-8.9252,40.3554],
[-9.025,39.7729],
[-9.1039,39.7729],
[-9.1572,39.5143],
[-9.387,39.4496],
[-9.4275,39.0618],
[-9.572,38.9326]
],
[
[4.2691,51.1792],
[4.3297,51.7142],
[5.5159,51.7811],
[5.8624,51.5803],
[5.7845,51.3797],
[5.5328,51.3128],
[5.5376,51.1792],
[5.2044,51.0457],
[4.6975,51.0457],
[4.2691,51.1792]
]
],
[
[
[-7.8752,33.5217],
[-7.4735,33.2645],
[-7.1844,33.5217],
[-6.7283,33.5859],
[-6.8138,33.7146],
[-6.592,33.8432],
[-6.6007,33.9718],
[-6.3105,34.229],
[-6.1566,34.229],
[-6.2422,34.3577],
[-6.1056,34.615],
[-5.8102,34.8079],
[-5.2787,34.9366],
[-2.809,34.9366],
[-1.8763,34.8079],
[-1.8057,34.9366],
[-1.3459,35.001],
[-1.1978,35.1297],
[-1.0402,35.0653],
[-0.2917,35.5802],
[0.4793,35.6445],
[0.7724,36.0308],
[1.005,36.0308],
[1.1547,36.1596],
[2.008,36.1596],
[2.0031,36.2884],
[2.3159,36.224],
[2.7747,36.4172],
[5.6494,36.3528],
[5.8795,36.4816],
[6.3468,36.4172],
[6.422,36.546],
[6.8893,36.4816],
[6.9647,36.6105],
[7.5865,36.6105],
[7.9024,36.224],
[7.8282,35.9664],
[7.9057,35.9664],
[7.9114,35.5158],
[7.9888,35.5158],
[7.9942,35.0653],
[8.2286,34.8079],
[8.4594,34.8723],
[8.8462,34.7436],
[8.9263,34.3577],
[9.0033,34.3577],
[8.9288,34.0361],
[9.0826,34.0361],
[9.3159,33.5859],
[9.6236,33.4574],
[9.5475,33.3288],
[9.625,33.1359],
[10.0848,33.1359],
[10.0086,33.0073],
[10.3916,33.0073],
[11.1572,32.6859],
[11.3099,32.4931],
[11.4629,32.5574],
[11.539,32.4288],
[11.7684,32.4288],
[11.7679,32.3002],
[12.4559,32.3645],
[13.0667,32.3002],
[13.0657,32.1717],
[13.2953,32.236],
[13.8286,32.1074],
[14.5861,31.6575],
[14.5844,31.529],
[15.1873,31.0791],
[15.1845,30.8863],
[15.4896,30.9506],
[16.7012,30.6935],
[18.2813,30.0508],
[18.8104,29.9865],
[18.8249,30.052],
[19.4961,30.1151],
[19.6514,30.2436],
[20.9516,30.565],
[21.9388,30.565],
[22.7667,30.3722],
[22.7618,30.2436],
[22.916,30.3079],
[23.5101,29.9865],
[23.9622,29.9223],
[24.3304,29.6652],
[24.7792,29.5366],
[24.8467,29.3438],
[25.0008,29.4081],
[25.1465,29.2795],
[25.3735,29.2795],
[25.5863,28.9581],
[27.1401,28.251],
[27.285,28.1224],
[27.2763,27.9295],
[27.4299,27.9938],
[27.792,27.6724],
[27.7109,27.5438],
[27.9367,27.5438],
[28.1537,27.3509],
[28.2702,26.5794],
[28.3453,26.5794],
[28.2437,25.9365],
[28.2886,25.165],
[28.5688,24.6506],
[29.6728,24.2006],
[29.9595,23.8792],
[30.1087,23.8792],
[30.104,23.7506],
[30.3952,23.5577],
[30.4627,23.3649],
[30.5372,23.3649],
[31.6705,23.7506],
[32.0409,23.6863],
[33.389,23.8149],
[33.6818,23.6863],
[33.7564,23.6863],
[35.108,23.8792],
[35.5526,23.8149],
[35.5588,23.9435],
[35.8541,23.8792],
[35.8604,24.0077],
[35.1455,24.6506],
[34.6076,25.8079],
[34.4613,25.8722],
[34.1972,26.5151],
[34.0507,26.5794],
[34.0731,26.9652],
[33.9266,27.0295],
[33.7992,27.4152],
[33.5851,27.6081],
[33.6089,27.9938],
[33.1053,28.3795],
[32.8361,28.8938],
[32.6892,28.9581],
[32.4416,29.7937],
[32.6019,29.9223],
[32.5888,29.7294],
[32.8571,29.2152],
[33.1468,29.0224],
[33.1889,28.5081],
[33.403,28.3153],
[33.5538,28.3153],
[33.617,28.1224],
[34.12,27.7367],
[34.3459,27.7367],
[34.3583,27.9295],
[34.5173,28.0581],
[34.7523,29.2795],
[34.9129,29.4081],
[34.8535,28.5724],
[34.6054,28.251],
[34.5927,28.0581],
[35.1956,28.0581],
[35.4803,28.8938],
[35.6408,29.0224],
[35.6551,29.2152],
[35.8063,29.2152],
[35.7699,29.7294],
[35.8456,29.7294],
[36.1564,30.7578],
[36.4009,30.9506],
[36.2709,31.2076],
[36.4231,31.2076],
[36.3866,31.6575],
[36.6623,32.1717],
[36.5155,32.236],
[36.7507,32.3002],
[36.7168,32.7502],
[36.901,33.0716],
[37.0542,33.0716],
[37.0732,33.2645],
[37.5726,33.6502],
[37.7261,33.6502],
[37.7395,33.7789],
[37.9902,33.9718],
[39.1238,34.4863],
[39.509,34.4863],
[40.0259,34.2933],
[40.1029,34.2933],
[40.6181,34.7436],
[40.7723,34.7436],
[41.1122,35.001],
[41.0863,36.0308],
[41.5766,36.224],
[41.6796,36.4172],
[41.5328,36.4816],
[41.5498,36.6105],
[41.2124,36.9971],
[41.1191,38.0288],
[40.5716,38.0288],
[40.547,38.416],
[40.4686,38.416],
[40.6576,39.1911],
[40.5097,39.2557],
[40.5476,39.5143],
[39.848,39.5789],
[39.7506,39.4496],
[39.2085,39.5143],
[38.9542,39.385],
[38.7449,39.5789],
[38.9298,39.7729],
[38.7904,39.9023],
[40.3982,40.0964],
[40.9533,40.6144],
[41.4495,40.744],
[41.5348,41.2625],
[41.8061,41.4571],
[41.8392,41.6518],
[41.6909,41.7167],
[41.6799,41.6518],
[41.5674,41.4571],
[41.4082,41.4571],
[41.3071,41.3274],
[41.1588,41.3922],
[41.0473,41.1977],
[40.5393,41.0032],
[40.3909,41.068],
[40.3703,40.9384],
[39.7355,40.9384],
[39.2098,41.1328],
[38.5357,40.8736],
[38.0787,41.0032],
[37.4437,41.0032],
[37.2147,41.068],
[37.2332,41.1977],
[37.0651,41.1328],
[36.7748,41.3274],
[36.2092,41.2625],
[35.9538,41.7167],
[35.157,41.7167],
[35.1212,42.0413],
[34.8817,42.0413],
[34.7845,41.9114],
[32.6308,41.9114],
[32.6947,41.7816],
[32.1934,41.5869],
[32.0417,41.6518],
[32.0265,41.522],
[31.5342,41.3922],
[31.1801,41.068],
[30.6242,41.068],
[30.4792,41.1977],
[28.9631,41.1328],
[28.9759,41.2625],
[28.2792,41.4571],
[28.2854,41.522],
[28.2058,41.522],
[28.0833,41.068],
[29.1156,41.068],
[29.1028,40.9384],
[29.2486,40.8088],
[29.493,40.8736],
[29.4801,40.744],
[28.9127,40.6144],
[28.9004,40.4849],
[29.0463,40.3554],
[27.9388,40.3554],
[27.9505,40.4849],
[27.7921,40.4849],
[27.6958,40.2906],
[27.5376,40.2906],
[27.4698,40.4201],
[26.7522,40.3554],
[26.6731,40.3554],
[26.2568,40.0964],
[26.2516,40.0317],
[26.1325,39.5143],
[26.8466,39.5789],
[26.7422,39.2557],
[26.8945,39.1911],
[26.8793,38.9972],
[26.9579,38.9972],
[26.8495,38.6097],
[27.0798,38.5451],
[27.065,38.3515],
[26.595,38.3515],
[26.5358,38.6097],
[26.3837,38.6743],
[26.4289,38.2224],
[26.8203,38.2224],
[26.889,38.0933],
[27.2753,38.0288],
[27.1777,37.7707],
[27.2559,37.7707],
[27.1634,37.5773],
[27.31,37.4483],
[27.2225,37.3193],
[27.5392,37.3838],
[27.598,37.126],
[28.0653,37.126],
[28.1383,37.0615],
[28.0314,36.6749],
[28.1869,36.6749],
[28.3571,36.8682],
[29.1249,36.7393],
[29.2397,36.224],
[29.938,36.224],
[30.0261,36.3528],
[30.4919,36.3528],
[30.6191,36.9326],
[31.3916,36.8682],
[32.0681,36.6105],
[32.4985,36.224],
[32.5583,36.0308],
[33.9791,36.2884],
[34.2507,36.6749],
[34.5816,36.8682],
[34.8929,36.8682],
[34.9504,36.6749],
[35.1127,36.7393],
[35.3323,36.6105],
[35.4877,36.6105],
[35.8336,36.9326],
[36.1449,36.9326],
[36.2862,36.8037],
[36.2649,36.6105],
[35.8417,36.2884],
[35.9901,36.224],
[35.8449,35.5802],
[35.9929,35.5158],
[35.8825,35.194],
[35.9597,35.194],
[35.927,34.8723],
[36.0682,34.7436],
[36.0488,34.5506],
[35.7921,34.2933],
[35.6445,34.3577],
[35.6838,33.9718],
[35.447,33.9075],
[35.4993,33.6502],
[35.3458,33.6502],
[35.3984,33.3931],
[35.2154,33.0716],
[35.0563,33.0073],
[35.0218,32.6216],
[34.7698,32.3645],
[34.813,31.9789],
[34.5733,31.8503],
[34.6388,31.7218],
[34.5466,31.529],
[34.3076,31.4005],
[34.2972,31.2719],
[33.9826,31.1434],
[32.8317,31.0148],
[32.7652,31.1434],
[32.5322,31.0791],
[32.3894,31.2076],
[32.2372,31.2076],
[32.3039,31.0791],
[31.9996,31.0791],
[31.9374,31.2719],
[31.7806,31.2076],
[31.8752,31.4647],
[31.2658,31.4647],
[31.118,31.529],
[31.2033,31.6575],
[30.9746,31.6575],
[30.9656,31.529],
[30.8088,31.4647],
[30.3517,31.4647],
[30.2712,31.4005],
[30.3388,31.2719],
[29.882,31.2719],
[29.8018,31.2076],
[29.8696,31.0791],
[29.6332,30.9506],
[29.4851,31.0148],
[29.3971,30.822],
[28.865,30.822],
[28.4964,31.0148],
[27.5149,31.1434],
[27.2975,31.3362],
[26.8477,31.4647],
[25.248,31.4647],
[25.102,31.5933],
[25.1117,31.7861],
[24.8925,31.9789],
[24.1294,31.9789],
[23.6803,32.1717],
[23.2985,32.1717],
[23.0779,32.3645],
[23.0894,32.6216],
[21.8787,32.943],
[21.4117,32.7502],
[21.108,32.8145],
[20.8712,32.6216],
[20.6441,32.6859],
[20.7159,32.5574],
[20.563,32.5574],
[20.482,32.4288],
[20.3313,32.4931],
[20.2461,32.236],
[20.017,32.236],
[20.0891,32.1074],
[19.9961,31.5933],
[20.2143,31.2719],
[20.1341,31.1434],
[20.2021,30.8863],
[19.9682,30.6935],
[19.9643,30.565],
[19.655,30.3722],
[19.272,30.2436],
[18.8944,30.3079],
[18.8533,30.1796],
[18.8961,30.3722],
[18.5925,30.3722],
[17.9974,30.8863],
[17.4695,31.0791],
[16.1786,31.2076],
[15.649,31.4005],
[15.576,31.5933],
[15.4246,31.6575],
[15.2069,32.3645],
[14.7493,32.4288],
[14.6747,32.5574],
[14.4444,32.4931],
[14.0652,32.7502],
[13.7591,32.7502],
[13.7605,32.8788],
[13.4537,32.8145],
[13.3017,32.943],
[13.072,32.943],
[12.8418,32.8788],
[12.8408,32.7502],
[12.5347,32.7502],
[12.6121,32.8788],
[12.229,32.8145],
[11.4644,33.2002],
[11.1578,33.2002],
[11.0815,33.5859],
[10.6977,33.5217],
[10.544,33.7146],
[10.2368,33.7146],
[10.0058,33.9075],
[10.0817,34.229],
[10.0045,34.2933],
[10.543,34.5506],
[10.8512,34.8079],
[10.8512,34.9366],
[11.0828,35.001],
[11.0057,35.3871],
[11.083,35.3871],
[11.0832,35.5802],
[10.9284,35.6445],
[10.851,35.6445],
[10.851,35.7733],
[10.6962,35.7089],
[10.4635,35.902],
[10.5403,36.3528],
[10.4625,36.4172],
[11.0062,36.8037],
[11.0063,36.9971],
[10.8506,36.9971],
[10.5396,36.7393],
[10.2284,36.8037],
[10.3054,37.0615],
[10.2276,37.0615],
[10.227,37.2549],
[9.9934,37.1904],
[9.6031,37.3193],
[9.0595,37.0615],
[8.9032,37.126],
[8.5164,36.8682],
[7.7383,36.8682],
[7.502,37.0615],
[7.3463,37.0615],
[7.1937,36.8682],
[6.8047,36.8682],
[6.3339,37.0615],
[6.103,36.9326],
[6.1058,36.8037],
[5.6391,36.8037],
[5.5643,36.6749],
[5.0978,36.6749],
[4.8595,36.8682],
[4.4686,36.9326],
[3.85,36.8037],
[3.459,36.8682],
[3.2299,36.7393],
[2.8411,36.7393],
[2.6902,36.6105],
[2.3769,36.6749],
[1.5296,36.4816],
[1.2162,36.546],
[0.9138,36.3528],
[0.678,36.4172],
[0.6837,36.2884],
[0.3761,36.224],
[0.0835,35.8377],
[-0.4587,35.8377],
[-0.53,35.7089],
[-0.9171,35.7089],
[-1.0655,35.5802],
[-1.2235,35.6445],
[-1.1365,35.4514],
[-1.3587,35.2584],
[-1.5906,35.2584],
[-1.8896,35.0653],
[-2.6617,35.0653],
[-2.8198,35.1297],
[-2.8379,35.4514],
[-2.9926,35.4514],
[-2.9816,35.2584],
[-3.1324,35.194],
[-4.7548,35.194],
[-5.2398,35.5158],
[-5.3389,35.8377],
[-5.8766,35.7733],
[-5.9999,35.3227],
[-6.1455,35.194],
[-6.132,35.001],
[-6.2909,35.0653],
[-6.2003,34.8723],
[-6.2775,34.8723],
[-6.3324,34.5506],
[-6.4821,34.4863],
[-6.4732,34.3577],
[-6.6997,34.2933],
[-6.6139,34.1647],
[-6.9038,33.9075],
[-7.062,33.9718],
[-7.1299,33.8432],
[-7.8752,33.5217]
]
],
[
[
[-5.7686,50.246],
[-5.7456,50.0465],
[-5.1511,49.98],
[-4.9287,50.246],
[-4.3548,50.3791],
[-4.1866,50.3791],
[-4.0887,50.246],
[-3.5847,50.246],
[-3.4566,50.6455],
[-3.1262,50.7121],
[-2.7891,50.7121],
[-2.608,50.5789],
[-1.525,50.7121],
[-1.5134,50.5789],
[-1.1766,50.5789],
[-1.1092,50.7788],
[-1.3678,50.8455],
[0.4929,50.7788],
[1.3138,51.1124],
[1.3806,51.3797],
[0.5239,51.5134],
[0.863,51.5134],
[0.8439,51.7811],
[1.1837,51.7811],
[1.1698,51.9822],
[1.425,51.9822],
[1.5863,52.1163],
[1.6537,52.3847],
[1.739,52.3847],
[1.7168,52.7208],
[1.532,52.9227],
[1.0938,53.0574],
[0.4933,53.0574],
[0.3375,52.8554],
[0.1662,52.8554],
[0.0698,52.99],
[0.3165,53.1248],
[0.2953,53.3946],
[0.1179,53.4621],
[0.0098,53.7323],
[0.0043,53.7999],
[-0.1796,53.9352],
[-0.2024,54.2061],
[-0.6714,54.6132],
[-1.286,54.6811],
[-1.6133,55.3618],
[-2.3785,55.1573],
[-2.8223,55.2255],
[-2.8947,55.0892],
[-3.5691,54.8851],
[-3.7198,54.6811],
[-3.5868,54.2739],
[-3.3194,54.2061],
[-3.3045,54.0706],
[-2.9658,54.1384],
[-3.196,53.8676],
[-3.0952,53.7323],
[-3.1525,53.4621],
[-4.0762,53.2596],
[-4.2713,53.4621],
[-4.7017,53.4621],
[-4.6697,53.1922],
[-4.4901,53.1248],
[-4.8095,52.9227],
[-4.7937,52.7881],
[-4.2953,52.9227],
[-4.1567,52.4519],
[-4.553,52.1833],
[-5.2187,52.0492],
[-5.2643,51.7142],
[-5.079,51.5803],
[-4.4152,51.7142],
[-4.3083,51.5134],
[-3.8915,51.5803],
[-3.7008,51.3797],
[-3.2774,51.3797],
[-3.1214,51.5134],
[-2.9452,51.4465],
[-3.108,51.3797],
[-3.0946,51.246],
[-4.2017,51.3128],
[-4.4264,51.0457],
[-4.6799,51.0457],
[-4.6578,50.8455],
[-4.8191,50.7788],
[-4.8812,50.5789],
[-5.1338,50.5789],
[-5.2796,50.3791],
[-5.7686,50.246]
]
],
[
[
[1.1831,39.0618],
[1.2735,38.8034],
[1.4305,38.8034],
[1.6575,38.9972],
[1.6518,39.1265],
[1.2587,39.1265],
[1.1831,39.0618]
]
],
[
[
[2.3381,39.6436],
[2.3461,39.4496],
[2.6586,39.5143],
[2.8237,39.3203],
[3.2958,39.3203],
[3.5158,39.7729],
[3.1979,39.8376],
[3.193,39.967],
[2.8772,39.967],
[2.3381,39.6436]
]
],
[
[
[3.7411,40.0964],
[3.8268,39.9023],
[4.3024,39.8376],
[4.2151,40.0964],
[3.7411,40.0964]
]
],
[
[
[7.1502,43.733],
[7.1515,43.6678],
[7.1528,43.6027],
[7.2334,43.6027],
[7.2308,43.733],
[7.1502,43.733]
]
],
[
[
[8.1546,40.9384],
[8.1595,40.5496],
[8.3187,40.4849],
[8.3209,40.2906],
[8.4,40.2906],
[8.3248,39.967],
[8.4834,39.9023],
[8.4089,39.5143],
[8.3301,39.5143],
[8.3332,39.2557],
[8.4118,39.2557],
[8.3362,38.9972],
[8.7303,38.868],
[8.9659,38.868],
[9.1204,39.1911],
[9.5926,39.1265],
[9.6686,39.6436],
[9.7474,39.6436],
[9.6653,40.2906],
[9.8232,40.3554],
[9.8217,40.744],
[9.5021,41.1977],
[9.1043,41.2625],
[9.0248,41.2625],
[8.552,40.8736],
[8.1546,40.9384]
]
],
[
[
[8.5346,42.4962],
[8.5388,42.1063],
[8.7005,41.9114],
[8.6227,41.7167],
[8.7821,41.7167],
[8.7839,41.522],
[9.1038,41.3274],
[9.2624,41.3922],
[9.4989,41.7816],
[9.4978,41.9764],
[9.5776,41.9764],
[9.5736,42.7563],
[9.4934,42.7563],
[9.4919,43.0165],
[9.2511,43.0165],
[9.1728,42.7563],
[8.7727,42.6912],
[8.5346,42.4962]
]
],
[
[
[10.1343,42.8864],
[10.2148,42.6912],
[10.4552,42.6912],
[10.4551,42.8864],
[10.1343,42.8864]
]
],
[
[
[14.2609,44.5813],
[14.5024,44.516],
[14.5113,44.908],
[14.3504,44.9734],
[14.2692,44.9734],
[14.2609,44.5813]
]
],
[
[
[14.3368,35.8377],
[14.5682,35.7733],
[14.5712,35.9664],
[14.4171,36.0308],
[14.3396,36.0308],
[14.3368,35.8377]
]
],
[
[
[20.0701,39.5789],
[20.1489,39.5789],
[20.1519,39.6436],
[20.0731,39.6436],
[20.0701,39.5789]
]
],
[
[
[20.3199,38.1578],
[20.7865,38.0933],
[20.7954,38.2869],
[20.5664,38.416],
[20.4881,38.416],
[20.3285,38.3515],
[20.3199,38.1578]
]
],
[
[
[20.6127,37.7062],
[20.9221,37.6417],
[20.934,37.8998],
[20.6213,37.8998],
[20.6127,37.7062]
]
],
[
[
[22.874,36.1596],
[23.1068,36.1596],
[23.1168,36.3528],
[22.9649,36.4172],
[22.8872,36.4172],
[22.874,36.1596]
]
],
[
[
[23.4849,38.7389],
[23.5634,38.7389],
[23.5673,38.8034],
[23.4888,38.8034],
[23.4849,38.7389]
]
],
[
[
[23.6154,35.5158],
[23.6792,35.2584],
[24.4484,35.194],
[24.7574,35.194],
[24.8237,35.001],
[26.1401,35.0653],
[26.2253,35.194],
[25.6806,35.1297],
[25.6923,35.3227],
[24.301,35.3227],
[24.1499,35.3871],
[24.1569,35.5158],
[23.6154,35.5158]
]
],
[
[
[24.2013,37.6417],
[24.2716,37.5128],
[24.4316,37.5773],
[24.3614,37.7062],
[24.2833,37.7062],
[24.2013,37.6417]
]
],
[
[
[24.3565,38.868],
[24.662,38.7389],
[24.6749,38.9326],
[24.4435,38.9972],
[24.365,38.9972],
[24.3565,38.868]
]
],
[
[
[24.491,40.8088],
[24.5513,40.5496],
[24.7936,40.6144],
[24.8081,40.8088],
[24.491,40.8088]
]
],
[
[
[24.6819,37.8352],
[24.83,37.7062],
[25.0685,37.7707],
[24.7724,38.0288],
[24.6942,38.0288],
[24.6819,37.8352]
]
],
[
[
[24.9739,39.8376],
[25.4473,39.8376],
[25.4619,40.0317],
[25.067,40.0317],
[24.9739,39.8376]
]
],
[
[
[24.9862,37.7062],
[25.0519,37.5128],
[25.286,37.5128],
[25.2205,37.7062],
[24.9862,37.7062]
]
],
[
[
[25.3308,36.9971],
[25.5644,36.9971],
[25.5727,37.126],
[25.339,37.126],
[25.3308,36.9971]
]
],
[
[
[25.7038,40.0964],
[26.0249,40.1612],
[26.0351,40.2906],
[25.7188,40.2906],
[25.7038,40.0964]
]
],
[
[
[25.7934,39.1911],
[26.1032,39.1265],
[26.0936,38.9972],
[26.2459,38.9326],
[26.6436,38.9972],
[26.5112,39.3203],
[26.1226,39.385],
[26.0439,39.385],
[25.7934,39.1911]
]
],
[
[
[25.8208,38.4806],
[25.8991,38.4806],
[25.8764,38.1578],
[26.1112,38.1578],
[26.2173,38.5451],
[25.9914,38.6743],
[25.913,38.6743],
[25.8208,38.4806]
]
],
[
[
[25.9882,37.5128],
[26.3049,37.5773],
[26.3139,37.7062],
[26.0796,37.7062],
[25.9882,37.5128]
]
],
[
[
[26.8653,36.6749],
[27.1854,36.8037],
[27.1168,36.9326],
[27.0389,36.9326],
[26.8653,36.6749]
]
],
[
[
[27.6925,36.2884],
[27.7426,35.902],
[28.1393,36.0308],
[28.2502,36.4816],
[28.0171,36.4816],
[27.6925,36.2884]
]
],
[
[
[32.229,34.9366],
[32.3667,34.7436],
[33.0436,34.5506],
[33.1321,34.6793],
[33.5234,34.7436],
[33.6954,34.9366],
[34.0873,35.001],
[33.9571,35.2584],
[34.5294,35.5802],
[34.5421,35.7089],
[34.3098,35.7089],
[33.7374,35.3871],
[32.8869,35.3871],
[32.8752,35.2584],
[32.5547,35.1297],
[32.2458,35.1297],
[32.229,34.9366]
]
]
]}
}
