{
"type": "Feature",
"properties": {"id":"cliopatria-taifa-of-cordoba-1241","edge_precision":"unknown","cliopatria_name":"Taifa of Córdoba","cliopatria_from_year":1241,"cliopatria_to_year":1249,"cliopatria_area_km2":2664,"cliopatria_wikidata":"Q2285679","cliopatria_wikipedia":"Taifa of Córdoba","cliopatria_seshat_id":"es_taifas","cliopatria_member_of":"(Taifas of Iberia)"},
"geometry": {"type": "MultiPolygon", "coordinates": [
[
[
[-4.2006,37.3838],
[-3.5851,37.5128],
[-3.5155,37.6417],
[-3.0429,37.5773],
[-2.903,37.8352],
[-3.602,37.7707],
[-3.5978,37.7062],
[-4.1445,37.7062],
[-4.2006,37.3838]
]
]
]}
}
