{
"type": "Feature",
"properties": {"id":"cliopatria-county-of-nevers-1482","edge_precision":"unknown","cliopatria_name":"County of Nevers","cliopatria_from_year":1482,"cliopatria_to_year":1518,"cliopatria_area_km2":13561,"cliopatria_wikidata":"Q2070440","cliopatria_wikipedia":"County of Nevers","cliopatria_seshat_id":"fr_valois_k_2","cliopatria_member_of":"(Kingdom of France)"},
"geometry": {"type": "MultiPolygon", "coordinates": [
[
[
[2.3682,47.4665],
[2.7048,47.3348],
[2.896,46.8086],
[3.0697,46.6115],
[3.7286,46.5459],
[3.802,46.7429],
[3.9633,46.8086],
[3.8668,47.1374],
[3.9491,47.1374],
[3.9404,47.3348],
[3.6079,47.4006],
[3.6018,47.5323],
[3.7668,47.5323],
[3.7548,47.7959],
[3.5834,47.9278],
[3.084,47.9938],
[3.0079,47.8619],
[2.7634,47.7959],
[2.4293,47.8619],
[2.3682,47.4665]
]
],
[
[
[4.1697,49.6479],
[4.1757,49.5152],
[4.6743,49.5816],
[4.6689,49.7143],
[4.5852,49.7143],
[4.5768,49.9136],
[4.493,49.9136],
[4.3283,49.8471],
[4.2534,49.6479],
[4.1697,49.6479]
]
]
]}
}
