{
"type": "Feature",
"properties": {"id":"cliopatria-qajar-dynasty-1791","edge_precision":"unknown","cliopatria_name":"Qajar Dynasty","cliopatria_from_year":1791,"cliopatria_to_year":1793,"cliopatria_area_km2":964650,"cliopatria_wikidata":"Q189326","cliopatria_wikipedia":"Qajar dynasty"},
"geometry": {"type": "MultiPolygon", "coordinates": [
[
[
[44.071,39.385],
[44.1652,38.9972],
[44.3119,38.9326],
[44.308,38.416],
[44.4545,38.3515],
[44.306,37.8998],
[44.5889,37.7062],
[44.6276,37.4483],
[44.7738,37.3838],
[44.8521,36.8682],
[45.0567,36.6749],
[45.0964,36.4172],
[45.3785,36.224],
[45.3502,36.0308],
[45.787,35.8377],
[46.2518,35.8377],
[46.0591,35.5802],
[46.1484,35.1297],
[45.8121,34.9366],
[45.6898,34.615],
[45.5356,34.615],
[45.5002,34.3577],
[45.6453,34.2933],
[45.439,33.9075],
[45.5928,33.9075],
[46.1378,33.3931],
[46.2312,32.943],
[46.6821,32.8788],
[46.9456,32.5574],
[47.3194,32.4931],
[47.5994,32.3002],
[47.5824,32.1717],
[47.9813,31.7218],
[47.7957,31.4647],
[47.739,31.0148],
[48.1031,30.8863],
[48.0478,30.4364],
[48.2755,30.4364],
[48.4117,30.3079],
[48.3884,30.1151],
[48.6005,29.9865],
[48.6763,29.9865],
[48.9873,30.0508],
[48.9428,30.3079],
[49.5859,29.9865],
[50.0648,30.1794],
[50.3041,29.6652],
[50.3799,29.6652],
[51.5059,30.1794],
[51.6157,30.4364],
[51.9628,30.7578],
[52.1653,31.6575],
[52.67,31.9789],
[52.6892,32.1074],
[53.3294,32.3002],
[54.6181,32.236],
[55.6565,32.0431],
[56.5308,31.7861],
[56.5864,31.6575],
[56.9779,31.7218],
[57.1096,31.5933],
[57.3383,31.5933],
[57.4492,31.3362],
[57.8751,31.1434],
[59.8427,31.0791],
[60.9739,31.4647],
[60.8439,31.5933],
[60.8399,32.4288],
[60.6164,32.8788],
[60.6884,33.2645],
[60.8906,33.5217],
[60.5959,33.5859],
[60.5684,33.8432],
[60.4915,33.8432],
[60.5664,34.229],
[60.8354,34.422],
[60.2955,34.8079],
[59.4078,35.001],
[58.0059,34.9366],
[57.9533,35.0653],
[57.734,35.1297],
[58.0783,35.7089],
[58.7107,37.6417],
[58.7387,37.7707],
[58.5466,37.9643],
[57.8709,38.0933],
[56.8728,38.5451],
[56.0104,38.5451],
[54.8328,38.1578],
[53.9196,38.2869],
[53.8298,37.8352],
[53.9079,37.8352],
[53.9105,37.4483],
[54.0947,37.1904],
[54.0333,36.8682],
[53.4887,36.8682],
[52.586,36.6105],
[51.642,36.546],
[50.532,36.8682],
[50.6323,36.9971],
[50.5657,37.0615],
[50.3209,36.9971],
[49.8541,37.4483],
[49.0851,37.5128],
[48.8285,37.8352],
[48.8411,38.3515],
[48.7627,38.3515],
[48.7742,38.416],
[48.801,38.9972],
[48.9155,39.1911],
[49.1635,39.2557],
[49.1757,39.3203],
[49.0305,39.385],
[49.0008,39.6436],
[48.7766,39.7083],
[48.7225,39.8376],
[48.0913,39.8376],
[47.8973,39.6436],
[47.4913,39.5789],
[47.2986,39.385],
[47.2199,39.385],
[46.6684,38.9326],
[45.872,38.868],
[45.0726,39.2557],
[44.7554,39.7083],
[44.5189,39.7083],
[44.3967,39.4496],
[44.071,39.385]
]
]
]}
}
