{
"type": "Feature",
"properties": {"id":"cliopatria-etruscans-601bce","edge_precision":"unknown","cliopatria_name":"Etruscans","cliopatria_from_year":-600,"cliopatria_to_year":-551,"cliopatria_area_km2":48186,"cliopatria_wikidata":"Q17161","cliopatria_wikipedia":"Etruscan civilization"},
"geometry": {"type": "MultiPolygon", "coordinates": [
[
[
[10.1343,42.8864],
[10.2148,42.6912],
[10.4552,42.6912],
[10.4551,42.8864],
[10.1343,42.8864]
]
],
[
[
[10.2934,43.7982],
[10.2936,43.6678],
[10.4548,43.4723],
[10.5353,43.0816],
[11.0163,42.8213],
[11.0158,42.6262],
[11.176,42.6262],
[11.2552,42.4312],
[11.4152,42.4312],
[11.4945,42.3012],
[11.6548,42.3662],
[11.7334,42.1712],
[11.8927,42.1063],
[12.4517,42.1063],
[12.3678,41.7167],
[13,41.3274],
[13.7145,41.2625],
[13.7918,41.1328],
[13.9506,41.1328],
[13.9483,41.0032],
[14.5039,41.0032],
[14.5066,41.1328],
[14.2683,41.1328],
[14.1953,41.4571],
[14.0362,41.4571],
[14.0411,41.7167],
[13.8056,41.9114],
[13.5652,41.8465],
[13.327,41.9114],
[13.329,42.0413],
[13.0106,42.1063],
[13.0924,42.2362],
[13.3311,42.1712],
[13.2572,42.5612],
[13.4173,42.5612],
[13.4996,42.6912],
[13.1811,42.8213],
[13.0291,43.4072],
[12.5464,43.4072],
[12.4674,43.5375],
[12.146,43.6027],
[11.9866,43.7982],
[11.7451,43.8634],
[11.8277,44.1243],
[11.5049,44.1896],
[11.5059,44.3854],
[11.1827,44.516],
[11.0203,44.3201],
[11.0199,44.1243],
[10.8583,44.1243],
[10.9388,43.9938],
[10.6965,43.7982],
[10.2934,43.7982]
]
]
]}
}
