{
"type": "Feature",
"properties": {"id":"cliopatria-xiongnu-171bce","edge_precision":"unknown","cliopatria_name":"Xiongnu","cliopatria_from_year":-170,"cliopatria_to_year":-165,"cliopatria_area_km2":5131618,"cliopatria_wikidata":"Q188836","cliopatria_wikipedia":"Xiongnu","cliopatria_seshat_id":"mn_hunnu_emp"},
"geometry": {"type": "MultiPolygon", "coordinates": [
[
[
[77.7198,46.2833],
[77.8016,46.2833],
[77.8287,46.3489],
[77.7468,46.3489],
[77.7198,46.2833]
]
],
[
[
[77.8016,46.2833],
[77.8305,45.9554],
[78.0218,45.8243],
[77.9965,45.5623],
[78.3504,45.4313],
[78.5692,45.1696],
[79.5449,44.9734],
[79.518,44.908],
[80.005,44.908],
[79.9779,44.8426],
[80.4103,44.7119],
[80.3023,44.4507],
[80.3832,44.4507],
[80.3572,43.9938],
[80.7354,43.5375],
[80.6825,43.4072],
[80.7907,43.2769],
[80.6317,43.0816],
[80.4711,43.0816],
[80.4734,42.8864],
[80.2872,42.8213],
[80.1424,42.0413],
[80.2222,42.0413],
[80.1723,41.9114],
[80.4467,41.5869],
[80.606,41.5869],
[80.6362,41.4571],
[81.174,41.1977],
[81.4123,41.1977],
[81.6563,41.0032],
[82.3214,40.8736],
[82.4309,40.744],
[82.748,40.744],
[83.3628,40.4849],
[84.2633,40.3554],
[84.743,40.1612],
[85.1381,40.1612],
[85.6961,39.967],
[87.5448,39.6436],
[90.4125,39.3203],
[92.5901,39.2557],
[93.9547,39.5143],
[94.5061,39.5143],
[94.9769,39.3203],
[95.3185,39.385],
[95.6823,38.9326],
[96.3097,38.7389],
[96.414,38.6097],
[96.6493,38.6097],
[96.7552,38.868],
[96.6767,38.868],
[96.7571,39.0618],
[96.6785,39.0618],
[96.7596,39.2557],
[96.681,39.2557],
[96.7629,39.4496],
[97.4677,39.2557],
[97.4916,39.1265],
[97.8574,39.0618],
[97.9602,38.9326],
[98.1173,38.9326],
[98.3841,39.1911],
[98.9578,39.0618],
[99.1198,39.2557],
[99.0919,39.1911],
[99.3786,39.1265],
[99.8618,38.416],
[100.1994,38.2869],
[100.4138,38.6097],
[100.6423,38.2224],
[100.7988,38.2224],
[100.7963,38.0288],
[101.2901,37.8998],
[101.3148,37.7707],
[101.6007,37.7062],
[101.7553,37.5128],
[102.0961,37.7707],
[102.119,37.4483],
[102.5856,37.2549],
[102.611,37.126],
[102.871,37.1904],
[104.166,36.7393],
[106.0289,36.3528],
[106.0802,36.2884],
[105.847,35.902],
[105.9506,35.7733],
[105.2844,35.2584],
[105.2595,35.194],
[106.1848,35.3871],
[106.4931,35.5802],
[106.6997,35.5158],
[107.2671,35.7733],
[108.3019,36.0308],
[108.7541,36.7393],
[110.1334,38.0933],
[111.4865,38.8034],
[112.0782,39.8376],
[112.6288,40.2906],
[113.4883,40.4201],
[114.0423,40.4201],
[114.0076,40.3554],
[114.4823,40.3554],
[114.4476,40.2906],
[114.7987,40.3554],
[114.764,40.2906],
[115.2827,40.2259],
[115.5498,39.8376],
[116.1021,39.8376],
[117.1095,40.0964],
[117.4527,40.2906],
[118.979,40.6144],
[122.9277,41.9114],
[123.167,41.9114],
[123.1268,41.8465],
[123.4055,41.7816],
[123.3654,41.7167],
[123.6044,41.7167],
[123.5643,41.6518],
[123.8429,41.5869],
[123.8029,41.522],
[124.0417,41.522],
[124.0018,41.4571],
[124.2802,41.3922],
[124.2404,41.3274],
[124.4789,41.3274],
[124.4392,41.2625],
[124.8366,41.1328],
[125.5126,41.3274],
[125.5528,41.3922],
[125.6762,41.7167],
[127.9905,44.1243],
[128.2424,44.2548],
[128.4344,44.6466],
[129.6313,45.7588],
[129.8213,46.0209],
[129.7395,46.0209],
[129.8636,46.4145],
[129.7817,46.4145],
[129.8934,46.6772],
[129.5318,46.7429],
[129.5804,46.8086],
[129.3006,46.8743],
[129.3494,46.9401],
[129.1029,46.9401],
[129.1516,47.0058],
[128.9872,47.0058],
[129.036,47.0716],
[128.7893,47.0716],
[128.8382,47.1374],
[128.6736,47.1374],
[128.7226,47.2032],
[128.4756,47.2032],
[128.5246,47.269],
[128.3599,47.269],
[128.4089,47.3348],
[128.1618,47.3348],
[128.2108,47.4006],
[128.046,47.4006],
[128.0951,47.4665],
[127.8478,47.4665],
[127.8969,47.5323],
[127.7319,47.5323],
[127.7811,47.5982],
[127.5336,47.5982],
[127.5828,47.6641],
[127.3019,47.73],
[127.3513,47.7959],
[126.7889,47.9278],
[126.8385,47.9938],
[126.673,47.9938],
[126.7226,48.0597],
[126.4744,48.0597],
[126.524,48.1257],
[126.3584,48.1257],
[126.4082,48.1917],
[126.1597,48.1917],
[126.2095,48.2578],
[126.0437,48.2578],
[126.0936,48.3238],
[125.8449,48.3238],
[125.8948,48.3899],
[125.7289,48.3899],
[125.7789,48.4559],
[125.53,48.4559],
[125.5801,48.522],
[125.2981,48.5881],
[125.3483,48.6542],
[124.9831,48.7204],
[125.0335,48.7865],
[124.784,48.7865],
[124.8345,48.8527],
[124.6354,48.9189],
[124.686,48.9851],
[124.5195,48.9851],
[124.5703,49.0513],
[124.1864,48.9851],
[124.2371,49.0513],
[123.6718,49.1838],
[123.7226,49.25],
[122.6743,49.5152],
[122.7255,49.5816],
[122.5582,49.5816],
[122.6095,49.6479],
[121.5596,49.9136],
[121.6113,49.98],
[121.4436,49.98],
[121.4954,50.0465],
[121.2438,50.0465],
[121.2956,50.113],
[121.0439,50.113],
[121.0958,50.1795],
[119.8995,49.7143],
[119.6484,49.7143],
[119.6987,49.7807],
[119.5313,49.7807],
[119.5817,49.8471],
[119.0962,49.98],
[119.1468,50.0465],
[118.7781,50.113],
[118.829,50.1795],
[118.4932,50.1795],
[118.5441,50.246],
[118.2921,50.246],
[118.3431,50.3125],
[116.7476,50.6455],
[116.7988,50.7121],
[116.546,50.7121],
[116.5973,50.7788],
[116.0583,50.8455],
[116.1096,50.9122],
[115.772,50.9122],
[115.8234,50.9789],
[113.8646,51.1792],
[113.9156,51.246],
[110.4613,51.3797],
[110.5112,51.4465],
[109.9678,51.5134],
[110.0176,51.5803],
[109.6784,51.5803],
[109.7783,51.7142],
[109.3888,51.6472],
[109.4038,51.7811],
[109.184,51.7142],
[109.2339,51.7811],
[108.0235,51.9822],
[108.0734,52.0492],
[107.9032,52.0492],
[107.9532,52.1163],
[107.5773,52.1833],
[107.6274,52.2505],
[107.1659,52.3176],
[107.2161,52.3847],
[107.0454,52.3847],
[107.0956,52.4519],
[106.9249,52.4519],
[106.8248,52.3176],
[106.3983,52.3176],
[106.006,51.7811],
[105.7399,51.6472],
[104.8341,51.4465],
[104.0715,51.4465],
[104.1183,51.5134],
[103.5716,51.5803],
[103.8448,51.8481],
[104.4397,51.8481],
[105.2645,52.0492],
[105.9146,52.5863],
[106.4076,52.7881],
[105.032,53.1248],
[105.0827,53.1922],
[104.9109,53.1922],
[104.9616,53.2596],
[104.2894,53.3946],
[104.3402,53.4621],
[101.7123,53.8676],
[101.7626,53.9352],
[100.4299,54.0029],
[100.4797,54.0706],
[95.377,54.0706],
[93.9414,53.8676],
[91.4374,53.8676],
[89.451,53.5971],
[89.0631,53.6647],
[88.9775,53.5296],
[87.9463,53.3946],
[85.3092,52.7208],
[83.4699,51.5803],
[82.6877,50.9122],
[82.7019,50.7788],
[82.3947,50.5122],
[81.1271,48.7865],
[80.2153,47.1374],
[79.3617,46.8743],
[79.3876,46.7429],
[79.0856,46.6115],
[78.9748,46.3489],
[77.8016,46.2833]
]
],
[
[
[109.4387,51.7142],
[109.5236,51.7142],
[109.5737,51.7811],
[109.4888,51.7811],
[109.4387,51.7142]
]
]
]}
}
