{
"type": "Feature",
"properties": {"id":"cliopatria-ceylon-1314","edge_precision":"unknown","cliopatria_name":"Ceylon","cliopatria_from_year":1314,"cliopatria_to_year":1351,"cliopatria_area_km2":50708,"cliopatria_wikidata":"Q918153","cliopatria_wikipedia":"Sri Lanka"},
"geometry": {"type": "MultiPolygon", "coordinates": [
[
[
[79.6069,7.8716],
[79.7419,7.6787],
[79.7067,7.0359],
[79.7796,7.0359],
[79.7594,6.6501],
[79.9521,6.1358],
[80.2311,5.8787],
[80.8904,5.943],
[81.3375,6.1358],
[81.8779,6.7144],
[81.9167,7.4216],
[81.7744,7.4859],
[81.7854,7.6787],
[81.6432,7.743],
[81.6544,7.9359],
[81.5122,8.0002],
[81.3971,8.5145],
[81.2511,8.5145],
[81.259,8.6431],
[81.2253,8.6431],
[81.2396,8.459],
[80.763,8.0288],
[80.353,7.9356],
[79.7577,7.9837],
[79.7244,8.0645],
[79.618,8.0645],
[79.6069,7.8716]
]
]
]}
}
