{
"type": "Feature",
"properties": {"id":"cliopatria-kingdom-of-wessex-0755","edge_precision":"unknown","cliopatria_name":"Kingdom of Wessex","cliopatria_from_year":755,"cliopatria_to_year":762,"cliopatria_area_km2":26194,"cliopatria_wikidata":"Q105313","cliopatria_wikipedia":"Wessex","cliopatria_seshat_id":"gb_anglo_saxon_1","cliopatria_member_of":"(Anglo-Saxon England)"},
"geometry": {"type": "MultiPolygon", "coordinates": [
[
[
[-4.6799,51.0457],
[-4.6578,50.8455],
[-4.3061,50.7121],
[-4.2707,50.3791],
[-4.1866,50.3791],
[-4.0887,50.246],
[-3.5847,50.246],
[-3.4566,50.6455],
[-3.1262,50.7121],
[-2.7891,50.7121],
[-2.608,50.5789],
[-2.1028,50.5789],
[-2.0306,50.7121],
[-1.525,50.7121],
[-1.5134,50.5789],
[-1.098,50.6455],
[-1.1092,50.7788],
[-1.3621,50.7788],
[-1.3678,50.8455],
[-1.4696,51.0457],
[-1.1487,51.246],
[0.046,51.1124],
[-0.0643,51.4465],
[0.0204,51.4465],
[-0.0748,51.5803],
[-1.2622,51.5803],
[-1.3647,51.7811],
[-2.1229,51.7142],
[-2.1104,51.5803],
[-2.3458,51.3797],
[-2.7041,51.5803],
[-2.7889,51.5803],
[-3.108,51.3797],
[-3.0946,51.246],
[-4.2017,51.3128],
[-4.4264,51.0457],
[-4.6799,51.0457]
]
]
]}
}
