{
"type": "Feature",
"properties": {"id":"cliopatria-gran-colombia-1830","edge_precision":"unknown","cliopatria_name":"Gran Colombia","cliopatria_from_year":1830,"cliopatria_to_year":1833,"cliopatria_area_km2":2846241,"cliopatria_wikidata":"Q199821","cliopatria_wikipedia":"Gran Colombia","cliopatria_seshat_id":"co_colombia_rep_1"},
"geometry": {"type": "MultiPolygon", "coordinates": [
[
[
[-83.0428,8.3216],
[-83.0393,8.2573],
[-82.8167,8.193],
[-82.3857,8.3216],
[-82.2327,8.193],
[-81.9406,8.193],
[-81.4732,7.6145],
[-81.1812,7.6145],
[-81.0479,7.8716],
[-80.9414,7.1644],
[-80.5766,7.1644],
[-80.3664,7.3573],
[-80.0045,7.4216],
[-80.0197,7.743],
[-80.3213,7.9359],
[-80.4109,8.2573],
[-79.9762,8.3216],
[-79.7676,8.5145],
[-79.6432,8.9002],
[-79.0625,8.9645],
[-78.5296,8.5788],
[-78.5227,8.4502],
[-78.2306,8.4502],
[-78.287,8.1288],
[-78.506,8.1288],
[-78.4964,7.9359],
[-78.3321,7.5502],
[-77.7258,7.0359],
[-77.4137,6.5216],
[-77.5434,6.0715],
[-77.3162,5.8144],
[-77.5308,5.6858],
[-77.421,4.2715],
[-77.5667,4.2715],
[-77.5628,4.0786],
[-77.4123,3.8215],
[-77.2667,3.8215],
[-77.2634,3.6286],
[-77.7656,3.1143],
[-77.9055,2.6],
[-78.4874,2.5357],
[-78.777,2.3429],
[-78.701,1.8286],
[-79.1375,1.7643],
[-79.1369,1.5714],
[-78.9911,1.5071],
[-79.0636,1.25],
[-80.2284,0.8643],
[-80.1581,0.2214],
[-80.3045,0.0928],
[-80.2899,-0.0358],
[-80.5825,-0.2286],
[-80.6613,-0.8072],
[-81.0268,-0.9358],
[-81.0304,-1.193],
[-80.8867,-1.3215],
[-80.9605,-1.3858],
[-80.9004,-2.093],
[-81.1202,-2.1573],
[-81.1229,-2.2858],
[-80.5491,-2.6716],
[-80.3307,-2.6716],
[-80.4132,-3.0573],
[-80.1947,-3.0573],
[-80.1898,-2.8644],
[-80.0441,-2.8644],
[-80.1271,-3.2502],
[-80.4201,-3.3144],
[-80.4219,-3.3787],
[-80.28,-3.5073],
[-80.2169,-3.8287],
[-80.5144,-4.0216],
[-80.5298,-4.4716],
[-80.0881,-4.343],
[-79.5873,-4.6002],
[-79.5239,-4.8573],
[-79.3806,-4.9216],
[-79.4908,-5.8217],
[-79.138,-6.0788],
[-78.9133,-5.9502],
[-78.8992,-5.6288],
[-78.5239,-5.3716],
[-78.5187,-5.2431],
[-78.2925,-5.0502],
[-78.1983,-4.4716],
[-77.9776,-4.4073],
[-77.8254,-4.2145],
[-77.3175,-4.2788],
[-77.1077,-4.5359],
[-75.9487,-4.7288],
[-75.9442,-4.6002],
[-75.7234,-4.5359],
[-75.719,-4.4073],
[-75.5004,-4.4073],
[-75.053,-4.0859],
[-74.8405,-4.2788],
[-74.6948,-4.2788],
[-74.6179,-4.1502],
[-74.3265,-4.1502],
[-74.2577,-4.2788],
[-73.9643,-4.2145],
[-73.736,-3.893],
[-73.5194,-3.9573],
[-73.4391,-3.7002],
[-73.5049,-3.443],
[-73.3593,-3.443],
[-73.2831,-3.3144],
[-72.8478,-3.3787],
[-72.7055,-3.5073],
[-72.2685,-3.5073],
[-71.9738,-3.3787],
[-71.9772,-3.5073],
[-71.7639,-3.7002],
[-71.2558,-3.7645],
[-71.1884,-3.9573],
[-70.3835,-3.8287],
[-70.1722,-4.0859],
[-70.0266,-4.0859],
[-69.7315,-3.9573],
[-69.799,-3.7645],
[-69.5754,-3.5716],
[-68.6253,-3.443],
[-68.5494,-3.3144],
[-68.6191,-3.1859],
[-68.0294,-2.8644],
[-66.6459,-2.8644],
[-65.9139,-2.6716],
[-65.9784,-2.2216],
[-66.3362,-1.8358],
[-66.3975,-0.9358],
[-66.4703,-0.9358],
[-66.4656,-0.4215],
[-66.1731,-0.2286],
[-66.1116,0.35],
[-65.966,0.35],
[-65.892,0.5428],
[-65.6005,0.6071],
[-65.0886,1.1857],
[-64.6515,1.3786],
[-64.3603,1.3786],
[-64.2145,1.7643],
[-63.4148,2.2786],
[-63.4881,2.4072],
[-64.0708,2.4714],
[-64.2988,3.6286],
[-64.6662,3.8858],
[-64.8176,4.2715],
[-64.6699,4.1429],
[-64.2328,4.1429],
[-64.0844,3.9501],
[-63.3551,3.8858],
[-63.1334,3.6286],
[-62.9142,3.5643],
[-62.77,3.6929],
[-62.7021,4.0786],
[-62.0465,4.0786],
[-61.9026,4.2072],
[-61.684,4.2072],
[-61.3965,4.4644],
[-60.8885,4.5929],
[-60.6743,4.8501],
[-60.6754,4.9144],
[-60.6049,5.0429],
[-60.6816,5.2358],
[-61.2759,5.7501],
[-61.3551,6.0073],
[-61.0701,6.2644],
[-61.1519,6.5858],
[-61.0098,6.7144],
[-60.3591,6.9073],
[-60.2921,7.1002],
[-60.588,7.2287],
[-60.674,7.6145],
[-60.2477,7.9359],
[-60.1017,7.9359],
[-59.9629,8.1288],
[-60.1163,8.3216],
[-60.6326,8.4502],
[-60.7109,8.5788],
[-60.6405,8.6431],
[-61.4384,8.5145],
[-61.149,8.5788],
[-61.1544,8.7073],
[-61.0111,8.7716],
[-61.0252,9.0931],
[-60.7418,9.2859],
[-60.8269,9.5431],
[-61.3448,9.6717],
[-61.4275,9.8645],
[-61.7897,9.8002],
[-61.9458,9.9931],
[-62.2349,9.9288],
[-62.3014,9.8002],
[-62.4713,10.2502],
[-62.6175,10.2502],
[-62.6246,10.3788],
[-62.844,10.3788],
[-62.8512,10.5074],
[-61.9771,10.5717],
[-61.9148,10.7645],
[-64.0326,10.7003],
[-64.0946,10.5074],
[-64.3834,10.4431],
[-64.3761,10.3145],
[-64.5955,10.3145],
[-64.8041,10.1217],
[-65.093,10.0574],
[-65.2464,10.186],
[-65.8387,10.3145],
[-66.1502,10.636],
[-66.3736,10.7003],
[-67.1743,10.636],
[-67.4591,10.5074],
[-68.1905,10.5074],
[-68.3088,11.2146],
[-68.4639,11.3431],
[-68.9897,11.536],
[-69.5708,11.4717],
[-69.6577,11.6646],
[-69.7996,11.6003],
[-69.7904,11.4717],
[-70.0878,11.536],
[-70.1519,11.4074],
[-71.1588,11.1503],
[-71.5028,10.8288],
[-71.6491,10.8288],
[-71.5934,11.086],
[-71.8219,11.2146],
[-71.8264,11.2788],
[-71.9228,11.6003],
[-71.8544,11.6646],
[-71.5615,11.6646],
[-71.0729,11.986],
[-71.1762,12.3717],
[-71.8409,12.436],
[-71.9038,12.3074],
[-72.1236,12.3074],
[-72.2399,11.9217],
[-72.8111,11.7289],
[-73.1532,11.4074],
[-74.1733,11.3431],
[-74.3606,10.8931],
[-74.5206,11.086],
[-74.9643,11.1503],
[-75.2386,10.8931],
[-75.2296,10.7645],
[-75.4446,10.7003],
[-75.5777,10.5074],
[-75.496,10.3788],
[-75.638,10.3145],
[-75.6587,9.4788],
[-76.0933,9.4145],
[-76.2903,9.0288],
[-76.9264,8.6431],
[-76.8301,8.193],
[-77.132,8.3859],
[-77.2951,8.7073],
[-77.5142,8.7073],
[-77.744,8.9002],
[-77.9855,9.2859],
[-78.5087,9.4788],
[-78.9472,9.4788],
[-78.9552,9.6074],
[-79.6861,9.6074],
[-79.9583,9.2859],
[-80.535,9.1574],
[-81.0273,8.8359],
[-81.4655,8.8359],
[-81.777,9.1574],
[-81.9231,9.1574],
[-81.8383,8.9645],
[-82.2075,9.0288],
[-82.3088,9.4788],
[-82.5364,9.6074],
[-82.6095,9.6074],
[-82.8892,9.4145],
[-82.788,8.9645],
[-82.8309,8.4502],
[-83.0428,8.3216]
]
],
[
[
[-81.911,7.6145],
[-81.8988,7.3573],
[-81.6069,7.3573],
[-81.6129,7.4859],
[-81.6859,7.4859],
[-81.6952,7.6787],
[-81.911,7.6145]
]
],
[
[
[-79.027,8.3216],
[-78.8776,8.2573],
[-78.8046,8.2573],
[-78.8148,8.4502],
[-78.9608,8.4502],
[-79.027,8.3216]
]
],
[
[
[-70.277,12.1146],
[-70.2389,11.6003],
[-69.7309,11.6646],
[-69.7642,12.1146],
[-69.8473,12.2432],
[-70.1404,12.2432],
[-70.277,12.1146]
]
],
[
[
[-64.3486,11.086],
[-64.2636,10.8931],
[-64.0403,10.8288],
[-63.9671,10.8288],
[-63.7553,10.9574],
[-63.8443,11.2146],
[-64.0519,11.0217],
[-64.3486,11.086]
]
]
]}
}
