{
"type": "Feature",
"properties": {"id":"cliopatria-hotaki-dynasty-1713","edge_precision":"unknown","cliopatria_name":"Hotaki Dynasty","cliopatria_from_year":1713,"cliopatria_to_year":1717,"cliopatria_area_km2":149398,"cliopatria_wikidata":"Q627449","cliopatria_wikipedia":"Hotak dynasty"},
"geometry": {"type": "MultiPolygon", "coordinates": [
[
[
[60.9423,30.3722],
[61.0182,30.3722],
[62.3409,30.565],
[63.7838,30.565],
[65.8755,30.3722],
[65.9514,30.3722],
[66.0213,30.7578],
[65.5934,31.7218],
[65.6298,32.3002],
[65.5534,32.3002],
[65.7704,32.6216],
[65.746,32.8788],
[65.8622,33.0716],
[65.9388,33.0716],
[65.9654,33.2002],
[66.1321,33.2645],
[66.2272,33.7146],
[66.1504,33.7146],
[66.2895,34.3577],
[66.2125,34.3577],
[66.3845,35.1297],
[66.2592,35.2584],
[66.0901,35.194],
[65.9265,34.8079],
[65.5195,34.3577],
[64.1835,34.229],
[63.014,33.3931],
[62.607,32.8788],
[62.1997,32.7502],
[61.4197,31.4005],
[61.2452,31.2719],
[60.9423,30.3722]
]
]
]}
}
