{
"type": "Feature",
"properties": {"id":"cliopatria-gurjara-pratihara-dynasty-0732","edge_precision":"unknown","cliopatria_name":"Gurjara-Pratihara Dynasty","cliopatria_from_year":732,"cliopatria_to_year":740,"cliopatria_area_km2":301999,"cliopatria_wikidata":"Q5324","cliopatria_wikipedia":"Gurjara-Pratihara dynasty","cliopatria_seshat_id":"in_gurjara_pratihara_dyn"},
"geometry": {"type": "MultiPolygon", "coordinates": [
[
[
[70.179,26.1937],
[70.1907,25.7436],
[70.6973,25.615],
[70.7862,25.165],
[71.1097,24.7792],
[71.0689,24.4578],
[71.3043,23.9435],
[71.4458,23.8792],
[71.4897,23.622],
[71.8247,23.3006],
[71.8098,23.172],
[72.0185,23.0434],
[72.0037,22.9148],
[72.2125,22.7863],
[72.1979,22.6577],
[72.3395,22.5934],
[72.378,22.272],
[72.5267,22.272],
[72.5444,21.7577],
[72.686,21.6934],
[72.7603,21.6934],
[73.5177,21.822],
[74.2973,22.1434],
[74.3047,22.2077],
[74.7658,22.3363],
[76.081,23.3649],
[76.0971,23.4934],
[76.3372,23.622],
[76.9617,24.3935],
[77.2036,24.5221],
[77.2306,24.7149],
[77.6507,25.0364],
[77.9524,25.5507],
[77.9894,25.5507],
[78.4185,26.1294],
[78.4501,26.3222],
[78.3321,26.5151],
[76.1554,26.5151],
[75.2857,26.708],
[74.9521,26.9652],
[74.8018,26.9652],
[74.7479,27.0938],
[74.2429,27.2223],
[74.1677,27.2223],
[73.2341,27.0295],
[73.1046,27.158],
[72.2334,27.3509],
[71.7069,27.3509],
[71.4607,27.2223],
[71.4404,27.0938],
[71.5156,27.0938],
[71.5962,26.6437],
[71.7464,26.6437],
[71.604,26.1937],
[71.0884,26.258],
[70.8355,26.0651],
[70.179,26.1937]
]
]
]}
}
