{
"type": "Feature",
"properties": {"id":"cliopatria-hittites-1241bce","edge_precision":"unknown","cliopatria_name":"Hittites","cliopatria_from_year":-1240,"cliopatria_to_year":-1221,"cliopatria_area_km2":320455,"cliopatria_wikidata":"Q5406","cliopatria_wikipedia":"Hittites","cliopatria_seshat_id":"tr_hatti_new_k"},
"geometry": {"type": "MultiPolygon", "coordinates": [
[
[
[26.3837,38.6743],
[26.4289,38.2224],
[26.8203,38.2224],
[26.889,38.0933],
[27.2753,38.0288],
[27.1777,37.7707],
[27.5782,37.8998],
[27.8027,37.7707],
[28.662,37.7707],
[28.7297,37.6417],
[30.2302,37.8352],
[30.2969,37.7062],
[30.6035,37.6417],
[30.8088,37.3193],
[31.1323,37.4483],
[31.4444,37.4483],
[31.5825,37.2549],
[31.8223,37.3193],
[31.8882,37.1904],
[32.044,37.1904],
[32.0978,36.9326],
[32.3192,36.8037],
[32.373,36.546],
[32.5223,36.4816],
[32.5583,36.0308],
[33.9791,36.2884],
[34.2507,36.6749],
[34.5816,36.8682],
[34.8929,36.8682],
[34.9504,36.6749],
[35.1127,36.7393],
[35.4877,36.6105],
[35.8336,36.9326],
[36.1449,36.9326],
[36.2862,36.8037],
[36.2649,36.6105],
[35.8417,36.2884],
[35.9901,36.224],
[35.8449,35.5802],
[35.9929,35.5158],
[35.8825,35.194],
[35.9597,35.194],
[35.927,34.8723],
[36.0617,34.6793],
[36.0552,34.615],
[36.3701,34.6793],
[36.4275,34.4863],
[36.575,34.422],
[36.5816,34.4863],
[36.769,34.8079],
[37.1547,34.8079],
[37.2455,34.9366],
[37.4701,34.8723],
[37.5681,35.0653],
[37.7226,35.0653],
[37.926,34.8079],
[38.1716,34.9366],
[38.1787,35.001],
[38.1518,35.4514],
[37.6104,35.4514],
[37.2589,35.7733],
[37.5158,36.6749],
[38.1607,36.8682],
[38.1762,36.9971],
[37.958,37.126],
[38.0829,37.5128],
[38.395,37.5128],
[38.8096,37.7062],
[38.9015,38.416],
[38.8231,38.416],
[38.7789,38.6743],
[38.622,38.6743],
[38.7613,39.1265],
[38.5429,39.2557],
[38.5517,39.3203],
[38.3509,39.5789],
[38.414,40.0317],
[38.2651,40.0964],
[38.609,40.2906],
[38.6183,40.3554],
[38.1437,40.3554],
[38.0317,40.6792],
[37.7939,40.6792],
[37.6963,40.5496],
[37.4588,40.5496],
[37.3437,40.2906],
[37.045,40.4201],
[36.7988,40.3554],
[36.6233,40.2259],
[36.5975,40.0317],
[35.9574,39.967],
[35.9824,40.1612],
[35.579,40.0964],
[35.5248,40.2906],
[35.1294,40.2906],
[35.097,40.0317],
[34.789,40.0964],
[34.3629,39.8376],
[34.078,40.0964],
[33.7544,40.0317],
[33.1374,40.1612],
[32.9646,40.0317],
[32.0029,39.9023],
[31.7524,39.7729],
[31.4436,39.8376],
[31.509,39.7083],
[30.8331,39.2557],
[30.506,39.1265],
[30.2763,39.1911],
[30.264,39.0618],
[28.9782,38.7389],
[28.8046,38.5451],
[28.564,38.4806],
[27.54,38.416],
[27.3934,38.5451],
[27.1582,38.5451],
[27.1682,38.6743],
[26.9428,38.8034],
[26.8495,38.6097],
[27.0798,38.5451],
[27.065,38.3515],
[26.595,38.3515],
[26.5358,38.6097],
[26.3837,38.6743]
]
],
[
[
[26.8643,38.8034],
[26.9428,38.8034],
[26.9478,38.868],
[26.8693,38.868],
[26.8643,38.8034]
]
]
]}
}
