{
"type": "Feature",
"properties": {"id":"cliopatria-despotate-of-epirus-1220","edge_precision":"unknown","cliopatria_name":"Despotate of Epirus","cliopatria_from_year":1220,"cliopatria_to_year":1226,"cliopatria_area_km2":82729,"cliopatria_wikidata":"Q187684","cliopatria_wikipedia":"Despotate of Epirus","cliopatria_seshat_id":"gr_epirus_despot"},
"geometry": {"type": "MultiPolygon", "coordinates": [
[
[
[19.2487,40.6144],
[19.4863,40.6144],
[19.4714,40.2906],
[19.6295,40.2906],
[20.0094,39.967],
[20.0003,39.7729],
[19.7637,39.7729],
[19.7578,39.6436],
[19.9125,39.5789],
[19.9184,39.7083],
[20.155,39.7083],
[20.2972,39.385],
[20.8355,39.1265],
[20.9078,38.9972],
[20.7475,38.9326],
[20.7414,38.8034],
[20.9737,38.7389],
[21.1933,38.416],
[22.5253,38.416],
[22.3934,38.868],
[23.0216,38.868],
[22.9583,39.1265],
[22.7973,39.0618],
[22.8163,39.385],
[23.1352,39.4496],
[22.6109,39.9023],
[22.7017,40.0964],
[22.5437,40.0964],
[22.5716,40.5496],
[22.8133,40.6144],
[22.8925,40.6144],
[22.7465,40.8088],
[22.3581,40.9384],
[22.2787,40.9384],
[22.2868,41.068],
[22.2074,41.068],
[22.2115,41.1328],
[22.2155,41.1977],
[20.6548,41.7167],
[20.5205,42.1712],
[20.1386,42.4962],
[19.725,42.2362],
[19.4659,41.8465],
[19.4627,41.7816],
[19.5424,41.7816],
[19.4501,41.522],
[19.5297,41.522],
[19.4438,41.3922],
[19.5233,41.3922],
[19.4376,41.2625],
[19.4985,40.8736],
[19.2545,40.744],
[19.2487,40.6144]
]
],
[
[
[20.0701,39.5789],
[20.1489,39.5789],
[20.1519,39.6436],
[20.0731,39.6436],
[20.0701,39.5789]
]
]
]}
}
