{
"type": "Feature",
"properties": {"id":"cliopatria-kingdom-of-gordyene-0247","edge_precision":"unknown","cliopatria_name":"Kingdom of Gordyene","cliopatria_from_year":247,"cliopatria_to_year":259,"cliopatria_area_km2":13928,"cliopatria_wikidata":"Q29237","cliopatria_wikipedia":"Corduene"},
"geometry": {"type": "MultiPolygon", "coordinates": [
[
[
[40.0937,37.9643],
[40.1117,37.5128],
[41.1778,37.3193],
[41.9844,37.5128],
[42.7647,37.5128],
[42.774,37.5773],
[42.852,37.5773],
[42.8614,37.6417],
[42.8801,37.7707],
[42.5082,37.8998],
[42.03,37.8352],
[41.9702,37.9643],
[41.6666,38.0288],
[40.5716,38.0288],
[40.0937,37.9643]
]
]
]}
}
