{
"type": "Feature",
"properties": {"id":"cliopatria-teutonic-order-1422","edge_precision":"unknown","cliopatria_name":"Teutonic Order","cliopatria_from_year":1422,"cliopatria_to_year":1458,"cliopatria_area_km2":68833,"cliopatria_wikidata":"Q48189","cliopatria_wikipedia":"Teutonic Order","cliopatria_seshat_id":"de_empire_3","cliopatria_member_of":"(Holy Roman Empire)"},
"geometry": {"type": "MultiPolygon", "coordinates": [
[
[
[15.2568,53.2596],
[15.4893,52.6535],
[15.5748,52.6535],
[16.0971,52.8554],
[16.0238,53.1248],
[16.1097,53.1248],
[16.1192,53.3271],
[16.2944,53.3946],
[16.301,53.5296],
[16.4767,53.5971],
[16.4007,53.7999],
[16.3144,53.7999],
[16.411,54.0029],
[15.982,54.0706],
[16.0491,53.6647],
[15.7935,53.7323],
[15.7043,53.6647],
[15.7813,53.4621],
[15.4399,53.5296],
[15.2568,53.2596]
]
],
[
[
[17.0798,53.5971],
[17.3266,53.3946],
[17.5066,53.5296],
[18.4493,53.4621],
[18.5174,53.1922],
[18.6892,53.1922],
[18.9282,52.9227],
[19.3615,52.99],
[19.7248,53.2596],
[20.3958,53.0574],
[20.67,53.2596],
[20.9277,53.2596],
[21.2894,53.4621],
[22.4214,53.5971],
[22.5482,54.0029],
[22.4618,54.0029],
[22.4822,54.2061],
[22.6623,54.2739],
[22.6974,54.6132],
[22.7045,54.6811],
[22.813,54.8851],
[22.573,55.0892],
[22.3986,55.0892],
[22.4127,55.2255],
[21.6401,55.3618],
[21.2352,55.7031],
[21.2482,55.8398],
[20.9913,55.9082],
[20.9659,55.6348],
[21.203,55.3618],
[20.9907,54.9531],
[20.7293,54.9531],
[20.6542,55.0892],
[19.9509,55.0211],
[19.8361,54.6811],
[20.0044,54.6132],
[19.8306,54.6132],
[19.8197,54.4774],
[19.5594,54.4774],
[19.4622,54.3417],
[18.6869,54.4095],
[18.4453,54.6811],
[18.4595,54.8851],
[17.5017,54.8851],
[17.4975,54.8171],
[17.5594,54.4095],
[17.3859,54.4095],
[17.3779,54.2739],
[17.1102,54.1384],
[17.0911,53.7999],
[17.1774,53.7999],
[17.0798,53.5971]
]
]
]}
}
