{
"type": "Feature",
"properties": {"id":"cliopatria-house-of-bourbon-1540","edge_precision":"unknown","cliopatria_name":"House of Bourbon","cliopatria_from_year":1540,"cliopatria_to_year":1555,"cliopatria_area_km2":43563,"cliopatria_wikidata":"Q58389","cliopatria_wikipedia":"House of Bourbon","cliopatria_seshat_id":"fr_valois_k_2","cliopatria_member_of":"(Kingdom of France)"},
"geometry": {"type": "MultiPolygon", "coordinates": [
[
[
[0.8999,45.8898],
[0.9038,45.8243],
[2.0568,45.6278],
[2.3928,45.4313],
[2.4027,45.235],
[2.1688,45.0388],
[2.101,44.7773],
[2.1043,44.7119],
[2.3572,44.516],
[2.516,44.5813],
[2.5844,44.8426],
[3.08,44.6466],
[3.2305,44.908],
[3.474,44.908],
[3.5607,44.7773],
[3.9662,44.7773],
[3.9609,44.908],
[4.1232,44.908],
[4.3567,45.1696],
[4.5242,45.0388],
[4.8468,45.1042],
[4.8398,45.3004],
[4.5933,45.3659],
[4.5811,45.6933],
[5.0703,45.6933],
[5.0635,45.8898],
[4.4844,46.0865],
[4.4026,46.0865],
[4.3261,45.9554],
[4.0811,45.9554],
[4.073,46.1521],
[3.7286,46.5459],
[3.0697,46.6115],
[2.9781,46.8086],
[2.4033,46.8086],
[2.3455,46.3489],
[1.5155,46.5459],
[0.9417,46.5459],
[0.9538,46.3489],
[1.2072,46.2177],
[1.2149,46.0865],
[0.9736,46.0209],
[0.8999,45.8898]
]
]
]}
}
