{
"type": "Feature",
"properties": {"id":"cliopatria-jalayirid-sultanate-1363","edge_precision":"unknown","cliopatria_name":"Jalayirid Sultanate","cliopatria_from_year":1363,"cliopatria_to_year":1374,"cliopatria_area_km2":711752,"cliopatria_wikidata":"Q866716","cliopatria_wikipedia":"Jalayirid Sultanate","cliopatria_seshat_id":"ir_jayarid_khanate"},
"geometry": {"type": "MultiPolygon", "coordinates": [
[
[
[40.5101,35.1297],
[40.5487,34.8079],
[40.7723,34.7436],
[40.965,34.422],
[41.042,34.422],
[41.427,33.7789],
[41.8649,33.5859],
[42.0645,33.3288],
[42.5783,33.1359],
[42.7085,32.943],
[43.1526,32.8145],
[44.459,31.5933],
[44.444,31.4647],
[44.6576,31.3362],
[44.6353,31.1434],
[44.7949,31.2076],
[45.3982,30.5007],
[45.55,30.5007],
[46.099,29.9865],
[46.5322,29.7937],
[46.5865,29.6009],
[46.745,29.6652],
[46.868,29.4081],
[47.1021,29.4723],
[47.3834,29.2795],
[47.459,29.2795],
[47.5707,29.6009],
[48.0699,29.9865],
[48.9037,29.9865],
[49.0347,30.4364],
[49.0427,30.5007],
[49.3445,31.0791],
[49.6914,31.4005],
[49.9902,31.9146],
[50.7691,32.5574],
[50.9122,33.0073],
[51.588,33.9075],
[52.5176,34.422],
[52.6374,34.6793],
[52.1298,34.8723],
[52.1513,35.001],
[52.0077,35.0653],
[52.0728,35.4514],
[51.94,35.5802],
[51.973,35.7733],
[51.2979,35.902],
[51.0114,35.5802],
[50.79,35.6445],
[50.532,36.8682],
[50.5432,36.9326],
[50.6323,36.9971],
[50.5657,37.0615],
[50.3209,36.9971],
[49.9988,37.3838],
[49.0851,37.5128],
[48.8843,37.7062],
[48.8411,38.3515],
[48.7627,38.3515],
[48.8206,38.6743],
[48.7422,38.6743],
[48.9155,39.1911],
[49.1635,39.2557],
[49.1757,39.3203],
[49.0305,39.385],
[49.0008,39.6436],
[48.7766,39.7083],
[48.7225,39.8376],
[48.0913,39.8376],
[47.8973,39.6436],
[47.4008,39.5143],
[46.6684,38.9326],
[46.1861,38.868],
[46.051,38.9972],
[46.0842,39.1911],
[45.8705,39.3203],
[45.8928,39.4496],
[45.7578,39.5789],
[45.5102,39.5143],
[45.3186,39.7729],
[44.9465,39.9023],
[44.8223,40.0964],
[44.5063,40.0964],
[43.688,39.4496],
[43.4889,39.1911],
[43.5163,38.868],
[43.5948,38.868],
[43.5745,38.7389],
[43.9465,38.6097],
[44.1994,38.2224],
[44.2777,38.2224],
[44.306,37.8998],
[44.5889,37.7062],
[44.8713,36.9971],
[44.2109,36.7393],
[43.7814,36.9971],
[42.8472,36.9971],
[41.4551,36.4816],
[41.3082,36.546],
[41.2137,36.4172],
[41.0584,36.4172],
[40.5101,35.1297]
]
]
]}
}
