{
"type": "Feature",
"properties": {"id":"cliopatria-sukhothai-kingdom-1363","edge_precision":"unknown","cliopatria_name":"Sukhothai Kingdom","cliopatria_from_year":1363,"cliopatria_to_year":1374,"cliopatria_area_km2":277519,"cliopatria_wikidata":"Q863279","cliopatria_wikipedia":"Sukhothai Kingdom","cliopatria_seshat_id":"th_sukhotai"},
"geometry": {"type": "MultiPolygon", "coordinates": [
[
[
[97.7729,15.3933],
[97.7733,14.8147],
[97.9859,14.7504],
[97.8811,14.4932],
[98.0709,14.2361],
[98.0409,13.9789],
[98.2463,13.8503],
[98.2834,13.5289],
[98.423,13.4646],
[98.6468,12.8217],
[98.6101,11.7289],
[98.7565,11.7289],
[98.6528,11.4074],
[98.6963,11.086],
[98.5999,10.8288],
[98.4479,10.7645],
[98.5119,9.8002],
[98.134,8.7073],
[98.2109,7.743],
[98.4343,7.8073],
[98.3839,8.1288],
[98.4707,8.3216],
[98.6168,8.3216],
[98.6713,8.0645],
[98.9542,7.9359],
[98.9363,7.6787],
[99.1552,7.6787],
[99.275,7.293],
[99.4939,7.293],
[99.4811,7.1002],
[99.6228,7.0359],
[100.5025,7.1002],
[100.5285,7.4859],
[100.3826,7.4859],
[100.4689,7.6787],
[100.3365,7.8716],
[100.3008,8.3859],
[100.0866,8.4502],
[99.9599,8.7073],
[99.9319,9.2859],
[99.6447,9.3502],
[99.3423,9.2216],
[99.2949,9.5431],
[99.1592,9.6717],
[99.3143,10.636],
[99.4778,10.8288],
[99.6044,11.4074],
[99.8549,11.7289],
[99.8802,11.986],
[100.0331,12.0503],
[100.0959,13.336],
[99.9564,13.4003],
[99.9782,13.5932],
[99.7802,13.7861],
[99.6207,14.3004],
[100.1426,14.3646],
[100.2397,14.5575],
[100.3867,14.5575],
[100.5089,14.9432],
[101.3174,14.9432],
[101.5297,15.9718],
[102.2014,16.5504],
[102.1654,16.8076],
[101.7326,16.8719],
[101.6136,17.0647],
[101.4662,17.0647],
[101.312,17.5148],
[101.0168,17.5148],
[101.2717,18.2219],
[101.1338,18.2862],
[101.1832,18.6076],
[101.351,18.7362],
[101.4009,19.0577],
[101.1849,19.5719],
[100.6567,19.5077],
[100.6269,19.3148],
[100.755,19.1862],
[100.5772,18.9934],
[100.5673,18.9291],
[100.1877,18.8648],
[99.7593,18.4791],
[99.6115,18.4791],
[99.5824,18.2862],
[98.6411,18.4148],
[98.2883,18.0291],
[97.8358,17.9648],
[97.7983,17.7076],
[97.9365,17.6433],
[97.9179,17.5148],
[98.6276,16.8076],
[98.6004,16.6147],
[98.6741,16.6147],
[98.6382,16.3576],
[98.9328,16.3576],
[98.9061,16.1647],
[98.4943,15.8433],
[98.1914,15.779],
[98.0838,15.5218],
[97.7812,15.4575],
[97.7729,15.3933]
]
]
]}
}
