{
"type": "Feature",
"properties": {"id":"cliopatria-huns-0397","edge_precision":"unknown","cliopatria_name":"Huns","cliopatria_from_year":397,"cliopatria_to_year":406,"cliopatria_area_km2":1444959,"cliopatria_wikidata":"Q45813","cliopatria_wikipedia":"Huns"},
"geometry": {"type": "MultiPolygon", "coordinates": [
[
[
[19.9997,45.8243],
[20.0556,45.3659],
[20.1369,45.3659],
[20.1332,45.3004],
[20.2146,45.3004],
[20.2109,45.235],
[20.2922,45.235],
[20.2884,45.1696],
[20.5284,45.1042],
[20.5169,44.908],
[20.7486,44.7119],
[21.4055,44.8426],
[21.8791,44.6466],
[21.9514,44.516],
[22.6895,44.6466],
[22.5182,44.516],
[22.5044,44.3201],
[22.8946,44.1243],
[22.9518,43.7982],
[23.6018,43.8634],
[24.1509,43.6678],
[24.8814,43.733],
[25.4343,43.6027],
[25.8486,43.733],
[26.2814,44.0591],
[27.4927,44.0591],
[27.8289,44.1896],
[27.943,44.516],
[27.7877,44.5813],
[27.801,44.7119],
[27.9699,44.7773],
[27.9969,45.0388],
[27.8479,45.1696],
[27.8681,45.3659],
[28.2819,45.4313],
[28.3494,45.3004],
[28.6677,45.235],
[29.096,45.4313],
[29.5845,45.4313],
[29.6143,45.6933],
[29.8589,45.6933],
[30.045,45.8898],
[30.2977,45.9554],
[30.8766,46.6772],
[31.6064,46.6115],
[31.7875,46.7429],
[32.0337,46.7429],
[32.1891,46.6772],
[32.1631,46.4802],
[31.8354,46.4802],
[31.8183,46.3489],
[32.064,46.3489],
[32.6837,46.0865],
[32.8471,46.0865],
[32.9467,46.2177],
[33.5919,46.1521],
[33.6103,46.2833],
[34.0194,46.2833],
[34.0825,46.1521],
[34.7367,46.1521],
[34.756,46.2833],
[35.247,46.2833],
[35.6346,46.6772],
[36.8044,46.8086],
[36.9079,46.9401],
[37.2257,46.8743],
[37.1652,47.0058],
[37.5161,47.1374],
[38.6795,47.2032],
[39.1969,47.3348],
[39.2674,47.269],
[39.1265,46.9401],
[38.8915,47.0058],
[38.7863,46.8743],
[38.622,46.8743],
[38.4946,46.6115],
[37.8386,46.6115],
[37.8986,46.4802],
[38.3679,46.3489],
[38.3346,46.1521],
[37.8931,45.9554],
[37.7577,45.6278],
[37.5947,45.6278],
[37.747,45.5623],
[37.7044,45.3004],
[36.9723,45.3004],
[36.9116,45.4313],
[36.7487,45.4313],
[36.7789,45.1042],
[37.256,45.0388],
[37.5285,44.7119],
[38.0149,44.7119],
[38.2153,44.4507],
[38.6092,44.3854],
[38.7493,44.2548],
[39.6024,44.516],
[40.3196,44.4507],
[41.0142,44.7119],
[41.3265,44.6466],
[42.5667,44.7773],
[43.1524,44.4507],
[43.1273,44.3201],
[43.4004,44.0591],
[43.3753,43.9286],
[44.076,43.7982],
[44.1311,43.6678],
[44.7886,43.733],
[45.0849,43.6027],
[45.6079,43.7982],
[45.9304,43.7982],
[46.2937,43.9938],
[46.2665,43.8634],
[46.7505,43.8634],
[46.9509,43.6678],
[46.9234,43.5375],
[47.4065,43.5375],
[47.3431,43.9938],
[47.0093,44.3201],
[46.6327,44.4507],
[46.6885,44.7119],
[47.0411,44.8426],
[47.0979,45.1042],
[47.2891,45.235],
[47.3323,45.4313],
[47.4807,45.3659],
[47.5388,45.6278],
[47.4573,45.6278],
[47.568,45.7588],
[48.0574,45.7588],
[48.3471,45.9554],
[48.5921,45.9554],
[48.6376,46.1521],
[49.0618,46.2177],
[49.3032,46.5459],
[49.9908,46.6772],
[50.3016,46.9401],
[50.8442,47.1374],
[51.5846,47.1374],
[51.8145,47.0716],
[51.8629,46.9401],
[53.1128,47.0058],
[53.2423,46.8743],
[53.1902,46.6772],
[53.2723,46.6772],
[53.268,46.3489],
[53.3499,46.3489],
[53.2474,45.9554],
[53.0671,45.8898],
[53.0646,45.5623],
[53.4214,45.3659],
[53.6656,45.3659],
[53.8794,45.5623],
[54.2868,45.5623],
[54.5602,46.2833],
[54.4784,46.2833],
[54.5207,46.7429],
[53.6843,47.5982],
[53.243,47.7959],
[52.0212,47.8619],
[49.9712,47.5982],
[49.5761,47.3348],
[49.4114,47.3348],
[48.7093,46.8086],
[48.3808,46.8086],
[47.7009,46.3489],
[47.4553,46.3489],
[46.9326,46.9401],
[46.7683,46.9401],
[46.431,47.269],
[46.4608,47.4006],
[46.6406,47.4665],
[46.5882,47.5982],
[46.3406,47.5982],
[45.7316,48.1917],
[44.9624,48.4559],
[43.2199,48.4559],
[42.9991,48.5881],
[42.4178,48.5881],
[42.4456,48.7204],
[39.5112,48.5881],
[38.7673,49.0513],
[38.7925,49.1838],
[38.4966,49.3826],
[38.3476,49.9136],
[38.2638,49.9136],
[38.3866,50.113],
[38.1348,50.113],
[37.7346,50.6455],
[37.4106,50.7121],
[37.0539,51.0457],
[36.8849,51.0457],
[36.9955,51.1792],
[36.8264,51.1792],
[36.7679,51.3128],
[35.68,51.3797],
[35.3042,51.1792],
[34.8089,51.246],
[34.8694,51.1124],
[34.5195,51.0457],
[34.3155,50.8455],
[33.9553,50.7121],
[33.6294,50.7788],
[33.4497,50.7121],
[33.5228,50.6455],
[33.4166,50.5122],
[32.1972,50.246],
[31.4412,50.246],
[30.4157,50.7121],
[29.7602,50.8455],
[29.2449,50.7788],
[27.9128,50.9122],
[27.5075,51.0457],
[25.48,51.0457],
[24.3613,50.8455],
[24.0107,50.7121],
[23.9912,50.5122],
[23.6483,50.4457],
[22.6606,49.7143],
[22.6224,49.25],
[22.7838,49.1838],
[22.6897,49.0513],
[22.8509,48.9851],
[22.8348,48.7865],
[22.9903,48.6542],
[22.9532,48.1917],
[22.5967,47.8619],
[22.6693,47.73],
[22.4845,47.4665],
[22.3148,47.4006],
[22.3005,47.2032],
[22.2182,47.2032],
[22.291,47.0716],
[22.0259,46.8086],
[22.0076,46.5459],
[21.7353,46.1521],
[21.4857,46.0865],
[21.4943,46.2177],
[21.3307,46.2177],
[21.2405,46.0865],
[20.75,46.0865],
[20.5944,46.2177],
[20.1854,46.2177],
[20.0813,45.8243],
[19.9997,45.8243]
]
],
[
[
[29.577,45.3659],
[29.6584,45.3659],
[29.6659,45.4313],
[29.5845,45.4313],
[29.577,45.3659]
]
],
[
[
[32.4699,50.3791],
[32.554,50.3791],
[32.5645,50.4457],
[32.4804,50.4457],
[32.4699,50.3791]
]
],
[
[
[32.5967,45.4313],
[32.9224,45.4313],
[33.6101,45.1042],
[33.5476,44.6466],
[33.4665,44.6466],
[33.521,44.4507],
[33.9256,44.4507],
[34.3763,44.7773],
[35.2971,44.9734],
[35.4073,45.1696],
[35.7324,45.1696],
[35.8753,45.0388],
[36.3726,45.1042],
[36.4231,45.4313],
[35.0199,45.3004],
[34.9864,45.6278],
[34.7419,45.6278],
[34.5446,45.9554],
[34.1549,46.0865],
[33.737,46.0209],
[33.7096,45.8243],
[33.039,45.6933],
[32.5967,45.4313]
]
],
[
[
[35.8486,36.3528],
[35.9901,36.224],
[35.9559,35.902],
[36.2659,35.902],
[36.4556,36.224],
[36.865,36.4172],
[38.5188,36.6105],
[38.612,36.7393],
[39.5371,36.6749],
[40.4422,37.0615],
[41.2296,37.126],
[41.1191,38.0288],
[41.6666,38.0288],
[41.9702,37.9643],
[42.03,37.8352],
[42.5082,37.8998],
[42.802,37.7707],
[44.0325,37.6417],
[44.0519,37.7707],
[44.306,37.8998],
[44.356,38.2224],
[44.6998,38.416],
[44.7152,38.9972],
[44.994,39.2557],
[45.23,39.2557],
[45.2869,39.1265],
[45.872,38.868],
[46.3431,38.868],
[46.5113,38.9326],
[46.5561,39.1911],
[47.1208,39.7083],
[47.042,39.7083],
[47.0538,39.7729],
[46.7736,39.967],
[46.4578,39.967],
[46.4814,40.0964],
[46.2561,40.1612],
[46.2007,40.2906],
[45.5915,40.4201],
[45.4567,40.5496],
[45.5953,40.8736],
[45.3019,41.0032],
[45.1117,41.2625],
[44.1578,41.2625],
[44.1461,41.1977],
[43.9872,41.1977],
[43.3402,41.1328],
[42.8633,41.5869],
[42.6244,41.5869],
[42.4426,41.4571],
[41.9652,41.4571],
[41.9077,41.5869],
[41.5892,41.5869],
[41.5783,41.522],
[41.3071,41.3274],
[41.1588,41.3922],
[41.0473,41.1977],
[40.5393,41.0032],
[40.3909,41.068],
[40.291,40.9384],
[40.2116,40.9384],
[40.102,40.744],
[39.7849,40.744],
[38.9253,40.2906],
[38.2743,40.1612],
[36.9158,39.4496],
[36.7957,39.1265],
[36.8743,39.1265],
[36.7794,38.9972],
[36.8257,38.7389],
[36.5508,38.416],
[36.4969,37.9643],
[36.3254,37.8352],
[36.3662,37.5128],
[36.0178,37.1904],
[36.0885,37.126],
[35.9822,36.8682],
[36.06,36.8682],
[36.1449,36.9326],
[36.2862,36.8037],
[36.2649,36.6105],
[35.8486,36.3528]
],
[
[36.0539,36.0952],
[36.0746,36.2884],
[36.3074,36.2884],
[36.2865,36.0952],
[36.0539,36.0952]
],
[
[38.6512,37.0615],
[38.675,37.2549],
[38.9088,37.2549],
[38.8848,37.0615],
[38.6512,37.0615]
]
],
[
[
[44.6822,43.6027],
[44.7627,43.6027],
[44.7757,43.6678],
[44.6951,43.6678],
[44.6822,43.6027]
]
],
[
[
[53.084,45.9554],
[53.1657,45.9554],
[53.1827,46.0209],
[53.101,46.0209],
[53.084,45.9554]
]
]
]}
}
