{
"type": "Feature",
"properties": {"id":"cliopatria-sultanate-of-banten-1556","edge_precision":"unknown","cliopatria_name":"Sultanate of Banten","cliopatria_from_year":1556,"cliopatria_to_year":1571,"cliopatria_area_km2":62964,"cliopatria_wikidata":"Q734867","cliopatria_wikipedia":"Banten Sultanate"},
"geometry": {"type": "MultiPolygon", "coordinates": [
[
[
[102.0219,-3.6359],
[102.1814,-4.0216],
[103.0862,-4.7931],
[103.2319,-4.7931],
[103.7588,-5.1788],
[103.9193,-5.5002],
[104.141,-5.5645],
[104.1472,-5.6931],
[104.4515,-5.9502],
[104.5973,-5.9502],
[104.5055,-5.5645],
[104.8064,-5.7574],
[105.171,-5.7574],
[105.2345,-5.5645],
[105.3929,-5.8217],
[105.7574,-5.8217],
[105.7295,-5.2431],
[105.8024,-5.2431],
[105.7795,-4.7288],
[105.8524,-4.7288],
[105.7583,-4.2145],
[105.7558,-4.1502],
[105.229,-3.7002],
[104.9447,-3.893],
[104.9495,-4.0216],
[104.3717,-4.1502],
[104.2988,-4.1502],
[104.3013,-4.2145],
[104.2285,-4.2145],
[104.231,-4.2788],
[104.0853,-4.2788],
[104.0878,-4.343],
[103.5804,-4.4073],
[102.9851,-4.0859],
[102.6797,-3.7002],
[102.0219,-3.6359]
]
],
[
[
[105.3749,-6.8503],
[105.8855,-6.8503],
[105.8892,-6.9145],
[106.0351,-6.9145],
[106.0388,-6.9788],
[106.1847,-6.9788],
[106.3158,-6.7217],
[106.2251,-6.4002],
[106.5897,-6.4002],
[106.5725,-6.0788],
[106.6454,-6.0788],
[106.6421,-6.0145],
[105.9064,-5.8859],
[105.6976,-6.0788],
[105.7111,-6.336],
[105.4298,-6.5288],
[105.3749,-6.8503]
]
]
]}
}
