{
"type": "Feature",
"properties": {"id":"cliopatria-later-liang-0397","edge_precision":"unknown","cliopatria_name":"Later Liang","cliopatria_from_year":397,"cliopatria_to_year":401,"cliopatria_area_km2":86087,"cliopatria_wikidata":"Q2314869","cliopatria_wikipedia":"Later Liang (Sixteen Kingdoms)"},
"geometry": {"type": "MultiPolygon", "coordinates": [
[
[
[100.6964,38.3515],
[100.8745,38.0288],
[101.2387,37.9643],
[101.2634,37.8352],
[101.5492,37.7707],
[101.7037,37.5773],
[102.0961,37.7707],
[102.094,37.5773],
[102.2485,37.3838],
[102.534,37.3193],
[102.6889,37.126],
[102.6106,36.9326],
[102.8703,36.6105],
[104.347,36.6105],
[104.7385,36.9971],
[105.5981,37.1904],
[105.6799,37.3838],
[106.0193,37.4483],
[106.047,37.5128],
[105.7399,37.7062],
[105.3494,37.7062],
[105.3269,37.8352],
[104.4122,37.7062],
[104.311,37.8352],
[103.7133,37.8998],
[103.7457,38.1578],
[103.9582,38.2869],
[103.7795,38.416],
[104.215,38.868],
[104.1075,38.8034],
[104.029,38.8034],
[103.6079,38.7389],
[103.9386,39.1265],
[104.4801,39.4496],
[104.6076,39.385],
[104.728,39.6436],
[104.6007,39.7083],
[104.6135,39.9023],
[102.265,39.7729],
[102.0098,39.385],
[101.2874,38.9972],
[100.6964,38.3515]
]
]
]}
}
