{
"type": "Feature",
"properties": {"id":"cliopatria-sultanate-of-kedah-1588","edge_precision":"unknown","cliopatria_name":"Sultanate of Kedah","cliopatria_from_year":1588,"cliopatria_to_year":1690,"cliopatria_area_km2":13112,"cliopatria_wikidata":"Q1317579","cliopatria_wikipedia":"Kedah Sultanate"},
"geometry": {"type": "MultiPolygon", "coordinates": [
[
[
[99.582,6.393],
[99.651,6.3287],
[99.6471,6.2644],
[99.8659,6.2644],
[99.8817,6.5216],
[99.582,6.393]
]
],
[
[
[100.0236,6.4573],
[100.284,5.943],
[100.2365,5.1072],
[100.3753,4.9787],
[100.6044,5.1715],
[100.6773,5.1715],
[100.9067,5.3644],
[100.998,5.6858],
[101.0938,6.0715],
[100.8868,6.2644],
[100.3274,6.6501],
[100.0276,6.5216],
[100.0236,6.4573]
]
]
]}
}
