{
"type": "Feature",
"properties": {"id":"cliopatria-swiss-confederation-1463","edge_precision":"unknown","cliopatria_name":"Swiss Confederation","cliopatria_from_year":1463,"cliopatria_to_year":1474,"cliopatria_area_km2":17104,"cliopatria_wikidata":"Q39","cliopatria_wikipedia":"Switzerland","cliopatria_seshat_id":"ch_swiss_conf_1"},
"geometry": {"type": "MultiPolygon", "coordinates": [
[
[
[6.8269,47.2032],
[6.8286,47.1374],
[6.9109,47.1374],
[6.9125,47.0716],
[7.077,47.0716],
[7.2429,47.0058],
[7.1623,46.9401],
[7.1743,46.4145],
[7.4214,46.3489],
[7.7451,46.5459],
[8.155,46.5459],
[8.3168,46.6772],
[8.3989,46.6772],
[8.4019,46.4802],
[8.6477,46.4802],
[8.8958,46.2833],
[8.8099,46.6115],
[8.645,46.6772],
[8.7235,46.9401],
[9.3809,46.9401],
[9.2124,47.3348],
[9.6233,47.4665],
[9.5397,47.5982],
[9.0431,47.73],
[8.5476,47.73],
[8.467,47.5982],
[8.2184,47.6641],
[8.0545,47.5982],
[8.1381,47.5323],
[8.0592,47.3348],
[7.7297,47.3348],
[7.569,47.1374],
[7.3222,47.1374],
[7.3178,47.3348],
[6.9899,47.269],
[6.9076,47.269],
[6.9092,47.2032],
[6.8269,47.2032]
]
]
]}
}
