{
"type": "Feature",
"properties": {"id":"cliopatria-english-colonial-empire-1619","edge_precision":"unknown","cliopatria_name":"English Colonial Empire","cliopatria_from_year":1619,"cliopatria_to_year":1621,"cliopatria_area_km2":7389,"cliopatria_wikidata":"Q617219","cliopatria_wikipedia":"English overseas possessions","cliopatria_seshat_id":"gb_tudor_stuart","cliopatria_member_of":"(Kingdom of England)"},
"geometry": {"type": "MultiPolygon", "coordinates": [
[
[
[-77.6355,37.5128],
[-77.4807,37.3193],
[-77.3248,37.3193],
[-77.3502,37.3838],
[-77.6355,37.5128]
]
],
[
[
[-77.1688,37.3193],
[-76.8317,37.2549],
[-76.4732,36.9326],
[-76.1618,36.9326],
[-76.3892,37.3193],
[-76.8552,37.5128],
[-76.9332,37.5128],
[-77.1688,37.3193]
]
],
[
[
[-64.8612,32.3002],
[-64.6734,32.1717],
[-64.6909,32.236],
[-64.6495,32.3645],
[-64.8612,32.3002]
]
],
[
[
[-53.6373,47.73],
[-53.3657,47.269],
[-53.0098,47.2032],
[-53.0609,47.5323],
[-53.2528,47.5982],
[-53.0026,47.9938],
[-53.2508,47.9938],
[-53.2783,48.0597],
[-53.361,48.0597],
[-53.3335,47.9938],
[-53.499,47.9938],
[-53.5547,47.73],
[-53.6373,47.73]
]
],
[
[
[-53.4559,46.6772],
[-53.0197,46.6115],
[-52.8518,46.8086],
[-52.9042,46.9401],
[-52.822,46.9401],
[-52.8187,47.1374],
[-53.3415,47.0058],
[-53.4559,46.6772]
]
]
]}
}
