{
"type": "Feature",
"properties": {"id":"cliopatria-kingdom-of-castile-1099","edge_precision":"unknown","cliopatria_name":"Kingdom of Castile","cliopatria_from_year":1099,"cliopatria_to_year":1110,"cliopatria_area_km2":257218,"cliopatria_wikidata":"Q179293","cliopatria_wikipedia":"Kingdom of Castile","cliopatria_seshat_id":"es_castile_k"},
"geometry": {"type": "MultiPolygon", "coordinates": [
[
[
[-9.3046,43.1467],
[-9.0787,42.5612],
[-8.9185,42.5612],
[-8.9044,42.4312],
[-8.6504,42.3012],
[-8.9561,42.1712],
[-8.727,40.744],
[-8.8723,40.6144],
[-8.8461,40.3554],
[-8.9252,40.3554],
[-8.8993,40.0964],
[-8.9783,40.0964],
[-9.0314,39.8376],
[-9.025,39.7729],
[-8.5332,39.5789],
[-7.9028,39.5789],
[-5.4916,39.967],
[-4.86,39.967],
[-4.692,39.8376],
[-4.2138,39.7729],
[-4.0418,39.5789],
[-3.1661,39.4496],
[-2.9386,39.5789],
[-2.3912,39.6436],
[-2.2504,39.9023],
[-1.7265,40.3554],
[-1.5136,40.744],
[-2.0989,41.1977],
[-2.1165,41.4571],
[-1.8822,41.522],
[-1.9795,41.7816],
[-1.82,41.7816],
[-1.7756,42.3012],
[-2.0199,42.3662],
[-2.2031,42.6912],
[-1.8391,43.2118],
[-1.8531,43.4072],
[-3.2959,43.3421],
[-3.4672,43.4723],
[-4.9904,43.4072],
[-5.6461,43.5375],
[-7.1757,43.5375],
[-7.3435,43.6027],
[-7.2765,43.733],
[-8.2436,43.733],
[-8.3904,43.6027],
[-8.369,43.4072],
[-8.8517,43.4072],
[-9.3046,43.1467]
]
],
[
[
[-1.3704,39.7083],
[-1.3549,39.4496],
[-1.1974,39.4496],
[-1.1112,39.3203],
[-1.0925,38.9972],
[-0.9317,38.9326],
[-0.4604,38.9326],
[-0.2316,39.0618],
[-0.2351,39.1265],
[-0.3137,39.1265],
[-0.3454,39.7083],
[-0.2019,39.967],
[0.107,40.0964],
[0.2478,40.4201],
[0.4026,40.4849],
[0.3923,40.6792],
[0.1546,40.6792],
[-0.1443,40.3554],
[-0.3707,40.1612],
[-0.6077,40.1612],
[-0.6756,39.967],
[-1.1532,40.0317],
[-1.2166,39.7729],
[-1.3704,39.7083]
]
]
]}
}
