{
"type": "Feature",
"properties": {"id":"cliopatria-golden-horde-1352","edge_precision":"unknown","cliopatria_name":"Golden Horde","cliopatria_from_year":1352,"cliopatria_to_year":1362,"cliopatria_area_km2":4891354,"cliopatria_wikidata":"Q79965","cliopatria_wikipedia":"Golden Horde","cliopatria_seshat_id":"ru_golden_horde"},
"geometry": {"type": "MultiPolygon", "coordinates": [
[
[
[24.8872,47.5982],
[25.2052,47.4665],
[25.2635,47.2032],
[25.4281,47.2032],
[25.41,47.0058],
[25.7083,46.6772],
[25.748,46.2177],
[25.9055,46.1521],
[25.7122,45.8243],
[25.9509,45.7588],
[26.0204,45.6278],
[26.1773,45.5623],
[26.2404,45.3659],
[26.4156,45.4968],
[26.6599,45.4968],
[27.6306,45.4313],
[27.8613,45.3004],
[28.0376,45.4313],
[28.2819,45.4313],
[28.3494,45.3004],
[28.6677,45.235],
[29.096,45.4313],
[29.5845,45.4313],
[29.6143,45.6933],
[29.8589,45.6933],
[30.045,45.8898],
[30.2977,45.9554],
[30.8766,46.6772],
[31.6064,46.6115],
[31.7875,46.7429],
[32.0337,46.7429],
[32.1891,46.6772],
[32.1631,46.4802],
[31.8354,46.4802],
[31.8183,46.3489],
[32.064,46.3489],
[32.6837,46.0865],
[32.8471,46.0865],
[32.9467,46.2177],
[33.5919,46.1521],
[33.6103,46.2833],
[34.0194,46.2833],
[34.0825,46.1521],
[34.7367,46.1521],
[34.756,46.2833],
[35.247,46.2833],
[35.6346,46.6772],
[36.8044,46.8086],
[36.9079,46.9401],
[37.2257,46.8743],
[37.1652,47.0058],
[37.5161,47.1374],
[38.6795,47.2032],
[39.0321,47.3348],
[39.1145,47.3348],
[39.2206,47.4665],
[39.5264,47.3348],
[39.4788,47.0716],
[39.2203,47.0058],
[39.1381,47.0058],
[38.622,46.8743],
[38.4946,46.6115],
[37.8386,46.6115],
[37.8986,46.4802],
[38.3679,46.3489],
[38.3346,46.1521],
[37.8931,45.9554],
[37.7577,45.6278],
[37.5947,45.6278],
[37.747,45.5623],
[37.7044,45.3004],
[37.2163,45.3004],
[37.1748,45.0388],
[37.5285,44.7119],
[38.0149,44.7119],
[38.2153,44.4507],
[39.3629,44.0591],
[39.3519,43.9938],
[40.0335,43.733],
[40.2865,43.7982],
[40.264,43.6678],
[40.4025,43.5375],
[41.1156,43.4723],
[41.7125,43.2118],
[42.9861,43.1467],
[43.4191,42.8864],
[43.6597,42.8864],
[43.8511,42.6262],
[44.3565,42.7563],
[44.7446,42.6912],
[44.7572,42.7563],
[44.8374,42.7563],
[44.8247,42.6912],
[45.2253,42.6912],
[45.6673,42.4962],
[45.7506,42.1063],
[46.2967,42.0413],
[46.3508,41.9114],
[46.7367,41.8465],
[47.1373,41.4571],
[47.7218,41.1977],
[48.0789,41.3922],
[48.1982,41.5869],
[48.1186,41.5869],
[48.172,41.8465],
[48.0923,41.8465],
[48.1989,41.9764],
[48.2125,42.0413],
[47.6816,42.5612],
[47.6562,42.8213],
[47.3764,43.0165],
[47.4591,43.4072],
[47.3398,43.6027],
[47.3431,43.9938],
[47.0093,44.3201],
[46.6327,44.4507],
[46.6885,44.7119],
[47.0411,44.8426],
[47.0979,45.1042],
[47.2891,45.235],
[47.3323,45.4313],
[47.4807,45.3659],
[47.5242,45.5623],
[47.4718,45.6933],
[47.568,45.7588],
[48.0574,45.7588],
[48.3471,45.9554],
[48.5921,45.9554],
[48.6376,46.1521],
[49.0618,46.2177],
[49.3032,46.5459],
[49.9908,46.6772],
[50.3016,46.9401],
[50.8442,47.1374],
[51.5846,47.1374],
[51.8145,47.0716],
[51.8629,46.9401],
[53.1128,47.0058],
[53.2423,46.8743],
[53.1902,46.6772],
[53.2723,46.6772],
[53.268,46.3489],
[53.3499,46.3489],
[53.2474,45.9554],
[53.0671,45.8898],
[53.0646,45.5623],
[53.4214,45.3659],
[53.6656,45.3659],
[53.8794,45.5623],
[54.2868,45.5623],
[54.2181,45.3004],
[54.3636,45.235],
[54.2952,44.9734],
[53.8081,44.9734],
[53.8757,45.235],
[52.0868,45.235],
[51.8752,45.3659],
[51.4683,45.3659],
[51.0635,45.0388],
[51.0162,44.8426],
[51.4712,44.7119],
[51.4237,44.516],
[50.8569,44.516],
[50.4019,44.6466],
[50.2245,44.5813],
[50.1939,44.4507],
[50.8757,44.2548],
[51.0716,44.0591],
[51.0407,43.9286],
[51.3169,43.733],
[51.3051,43.3421],
[51.4353,43.2118],
[51.7722,43.2769],
[51.9361,42.9515],
[52.4175,42.9515],
[52.7873,42.8213],
[52.679,42.3662],
[52.4432,42.0413],
[52.523,42.0413],
[52.4929,41.9114],
[52.722,41.522],
[52.8016,41.522],
[52.812,41.9114],
[53.1924,42.1712],
[53.9113,42.1712],
[54.0905,41.5869],
[54.7295,41.2625],
[54.6683,41.0032],
[54.4001,40.8736],
[54.3701,40.744],
[53.4044,40.6792],
[53.4482,40.8736],
[53.3397,40.744],
[52.9433,40.744],
[52.9723,40.8736],
[52.893,40.8736],
[52.7927,40.4201],
[52.7135,40.4201],
[52.7877,40.0317],
[53.4985,40.0317],
[53.5449,39.5143],
[53.1375,39.4496],
[53.7265,39.2557],
[53.9868,38.9972],
[53.9465,38.8034],
[54.9534,38.7389],
[55.4518,38.868],
[55.8936,39.4496],
[55.9518,39.7083],
[56.139,39.8376],
[56.3537,40.4201],
[58.8256,40.8088],
[59.4987,41.2625],
[59.5158,41.3274],
[59.8684,41.4571],
[60.7812,42.1712],
[61.1312,42.5612],
[61.2057,42.8213],
[61.5218,43.0816],
[61.7556,43.6027],
[61.9556,43.733],
[66.5971,44.1243],
[69.9775,44.3201],
[70.9557,45.6933],
[72.0334,46.6115],
[73.1759,46.8086],
[73.9148,46.8086],
[73.8889,46.7429],
[74.3554,46.6772],
[74.4374,46.6772],
[74.5978,46.8743],
[76.3226,46.8743],
[76.351,46.7429],
[76.7614,46.7429],
[76.7344,46.6772],
[77.9103,46.7429],
[78.1016,46.6115],
[78.7046,46.8743],
[79.3336,46.8086],
[79.3055,46.7429],
[79.6057,46.6772],
[80.0725,46.8086],
[80.0441,46.7429],
[80.7507,46.4802],
[80.8896,46.6115],
[83.3639,47.0058],
[83.9783,47.269],
[85.173,47.5323],
[85.3498,47.73],
[85.5149,47.73],
[85.5594,47.9938],
[85.4767,47.9938],
[85.67,48.3899],
[85.5692,48.522],
[85.6347,48.6542],
[85.5517,48.6542],
[85.6176,48.7865],
[85.4843,48.8527],
[85.5507,48.9851],
[85.2518,49.3826],
[85.3043,49.6479],
[85.1371,49.6479],
[85.0234,49.9136],
[84.7227,49.98],
[84.7574,50.0465],
[83.9035,50.1795],
[83.9381,50.246],
[83.4192,50.3791],
[83.2218,50.6455],
[83.2921,50.7788],
[83.1097,50.9122],
[83.1677,51.1792],
[83.0831,51.1792],
[83.1911,51.3797],
[83.0942,51.5134],
[83.2563,52.1163],
[83.1609,52.2505],
[83.2363,52.3847],
[83.1034,52.4519],
[83.1793,52.5863],
[83.0465,52.6535],
[83.123,52.7881],
[82.9901,52.8554],
[83.0672,52.99],
[82.8873,53.1248],
[82.965,53.2596],
[82.7853,53.3946],
[82.8244,53.4621],
[82.6523,53.4621],
[82.5978,53.6647],
[82.4254,53.6647],
[82.2777,54.0029],
[81.7913,54.2061],
[81.7843,54.3417],
[81.6109,54.3417],
[81.604,54.4774],
[81.2968,54.5453],
[81.2899,54.6811],
[80.9822,54.7491],
[81.0223,54.8171],
[80.9352,54.8171],
[80.7142,54.8851],
[80.7543,54.9531],
[80.4929,54.9531],
[80.533,55.0211],
[80.2715,55.0211],
[80.3115,55.0892],
[79.828,55.1573],
[79.868,55.2255],
[78.5495,55.3618],
[78.589,55.43],
[77.1407,55.4983],
[77.1796,55.5665],
[76.7417,55.5665],
[76.7804,55.6348],
[75.4661,55.6348],
[75.5041,55.7031],
[74.7651,55.6348],
[74.8027,55.7031],
[70.4896,55.8398],
[70.5604,55.9766],
[70.0858,55.9082],
[70.121,55.9766],
[68.7495,56.0451],
[68.7841,56.1136],
[67.7623,56.1821],
[67.7965,56.2506],
[67.1256,56.3191],
[67.1595,56.3877],
[66.8612,56.3191],
[66.8406,56.4563],
[66.3994,56.4563],
[66.433,56.525],
[64.3934,56.3191],
[63.1787,55.9766],
[62.9462,56.0451],
[62.6777,55.8398],
[61.9725,55.6348],
[61.1839,55.6348],
[60.5996,55.4983],
[60.512,55.4983],
[60.5705,55.6348],
[59.6655,55.5665],
[59.4049,55.3618],
[58.1855,55.1573],
[58.0435,55.0211],
[57.259,55.0211],
[57.0313,54.8851],
[55.3617,54.6132],
[53.9717,54.6132],
[53.9964,54.6811],
[53.3254,54.7491],
[52.6491,55.2936],
[52.6982,55.43],
[52.5232,55.43],
[52.4848,55.5665],
[52.3097,55.5665],
[52.2711,55.7031],
[51.7937,55.8398],
[51.8181,55.9082],
[51.0517,55.9766],
[51.0758,56.0451],
[50.5721,56.1136],
[50.2915,56.3191],
[49.9626,56.3877],
[49.9864,56.4563],
[49.2156,56.525],
[49.239,56.5937],
[48.2672,56.5937],
[47.9568,56.4563],
[47.538,56.525],
[46.8541,56.3191],
[45.8846,56.3191],
[45.7542,56.1821],
[45.2932,56.1136],
[42.314,55.8398],
[42.2263,55.8398],
[42.195,56.0451],
[42.2139,56.1136],
[42.0568,56.1821],
[42.0446,56.4563],
[41.9564,56.4563],
[41.9754,56.525],
[40.332,56.3191],
[40.1549,55.9766],
[39.9441,55.8398],
[39.3297,55.8398],
[39.2956,55.7031],
[39.1203,55.7031],
[38.8664,55.0211],
[38.4534,54.7491],
[37.8046,54.9531],
[37.1794,54.8851],
[36.6455,55.2255],
[36.4979,54.9531],
[35.9458,54.8171],
[35.9167,54.6811],
[35.0092,54.0706],
[34.9818,53.9352],
[34.001,53.3271],
[31.9028,53.1248],
[31.5142,52.8554],
[31.4807,52.6535],
[31.2986,52.5863],
[30.9565,52.0492],
[30.4561,52.1163],
[30.4355,51.9822],
[30.585,51.8481],
[30.524,51.4465],
[30.5986,51.3797],
[30.504,51.3128],
[30.3347,51.3128],
[30.2698,51.4465],
[29.6767,51.4465],
[29.3005,51.7811],
[29.2638,52.1163],
[28.4122,52.1163],
[28.1023,51.7142],
[27.6431,51.4465],
[26.9487,51.3128],
[26.4937,51.0457],
[26.0713,51.0457],
[25.9641,50.8455],
[25.6963,50.7121],
[25.7367,50.3125],
[25.8208,50.3125],
[25.7992,50.113],
[25.967,50.113],
[26.0293,49.9136],
[26.1896,49.8471],
[26.1681,49.6479],
[26.3354,49.6479],
[26.321,49.5152],
[26.6626,49.5816],
[26.9527,49.1838],
[27.635,49.3163],
[27.6197,49.1838],
[27.8469,48.9851],
[27.8241,48.7865],
[27.643,48.6542],
[27.8772,48.522],
[27.8624,48.3899],
[27.5379,48.4559],
[27.3937,48.6542],
[26.4729,48.5881],
[25.9813,48.6542],
[25.3424,48.9189],
[25.2463,48.7865],
[25.5594,48.5881],
[25.5401,48.3899],
[25.0118,48.0597],
[24.9876,47.7959],
[24.905,47.7959],
[24.8872,47.5982]
]
],
[
[
[29.577,45.3659],
[29.6584,45.3659],
[29.6659,45.4313],
[29.5845,45.4313],
[29.577,45.3659]
]
],
[
[
[32.6053,45.4968],
[33.2214,45.235],
[33.4654,45.235],
[33.6101,45.1042],
[33.5564,44.7119],
[34.0337,44.6466],
[34.3763,44.7773],
[34.3948,44.908],
[34.5664,44.9734],
[34.9723,44.9734],
[35.1538,45.1042],
[35.3976,45.1042],
[35.4073,45.1696],
[36.2001,45.0388],
[36.3726,45.1042],
[36.4231,45.4313],
[35.0199,45.3004],
[34.9864,45.6278],
[34.7419,45.6278],
[34.5446,45.9554],
[34.1549,46.0865],
[33.737,46.0209],
[33.7096,45.8243],
[32.6053,45.4968]
]
],
[
[
[51.0758,56.0451],
[51.1637,56.0451],
[51.1879,56.1136],
[51.0999,56.1136],
[51.0758,56.0451]
]
],
[
[
[53.084,45.9554],
[53.1657,45.9554],
[53.1827,46.0209],
[53.101,46.0209],
[53.084,45.9554]
]
]
]}
}
