{
"type": "Feature",
"properties": {"id":"cliopatria-kingdom-of-mercia-0878","edge_precision":"unknown","cliopatria_name":"Kingdom of Mercia","cliopatria_from_year":878,"cliopatria_to_year":879,"cliopatria_area_km2":31036,"cliopatria_wikidata":"Q105092","cliopatria_wikipedia":"Mercia","cliopatria_seshat_id":"gb_anglo_saxon_1","cliopatria_member_of":"(Anglo-Saxon England)"},
"geometry": {"type": "MultiPolygon", "coordinates": [
[
[
[-3.4894,53.3946],
[-3.2741,52.99],
[-3.0746,52.7208],
[-3.1391,52.5191],
[-3.0399,52.3847],
[-2.8692,52.3847],
[-2.9273,52.1163],
[-2.9138,51.9822],
[-2.8287,51.9822],
[-2.822,51.9151],
[-2.6388,51.7811],
[-2.7041,51.5803],
[-2.6193,51.5803],
[-2.5216,51.4465],
[-2.2737,51.5134],
[-2.1889,51.5134],
[-2.1229,51.7142],
[-1.6195,51.7811],
[-1.2739,51.7142],
[-1.2622,51.5803],
[-0.8437,51.6472],
[-0.7477,51.5134],
[0.0101,51.5803],
[0.0049,51.6472],
[-0.2819,52.0492],
[-0.2873,52.1163],
[-1.2043,52.8554],
[-1.4188,53.3271],
[-1.7627,53.3271],
[-1.7691,53.3946],
[-1.9542,53.5296],
[-2.2919,53.4621],
[-2.2852,53.3946],
[-2.8803,53.3271],
[-3.1525,53.4621],
[-3.3247,53.4621],
[-3.3174,53.3946],
[-3.4894,53.3946]
]
]
]}
}
