{
"type": "Feature",
"properties": {"id":"cliopatria-sultanate-of-brunei-1582","edge_precision":"unknown","cliopatria_name":"Sultanate of Brunei","cliopatria_from_year":1582,"cliopatria_to_year":1587,"cliopatria_area_km2":117121,"cliopatria_wikidata":"Q887803","cliopatria_wikipedia":"Bruneian Sultanate (1368-1888)"},
"geometry": {"type": "MultiPolygon", "coordinates": [
[
[
[109.1058,1.6357],
[109.3995,1.7],
[109.6154,1.6357],
[109.6104,1.5071],
[109.8313,1.5714],
[110.0423,1.3786],
[110.3335,1.3786],
[110.9063,1.1214],
[111.4886,1.1214],
[111.3752,1.9571],
[111.5989,2.0857],
[111.6182,2.5357],
[112.6462,2.7286],
[114.7289,3.6286],
[114.9575,3.8215],
[115.2041,4.3358],
[115.3534,4.4001],
[115.6021,4.9144],
[115.7518,4.9787],
[115.8445,5.3001],
[115.9943,5.3644],
[116.4055,6.0715],
[116.7657,6.0073],
[116.8212,5.7501],
[116.9628,5.6858],
[117.6775,4.2715],
[118.4789,4.2715],
[118.5666,4.5286],
[118.4324,4.7215],
[118.1448,4.7858],
[118.1566,4.9787],
[119.0311,4.9787],
[119.2619,5.1715],
[119.2743,5.3644],
[119.1369,5.493],
[118.5623,5.6215],
[118.3609,5.8787],
[118.0649,5.8144],
[118.0096,6.0715],
[117.7135,6.0073],
[117.7091,5.943],
[117.6362,5.943],
[117.654,6.2001],
[117.7452,6.4573],
[117.2534,6.7144],
[117.1996,6.9716],
[116.8982,6.843],
[116.8887,6.7144],
[116.8158,6.7144],
[116.8349,6.9716],
[116.689,6.9716],
[116.4325,6.4573],
[116.0498,6.2001],
[115.7922,5.6215],
[115.5006,5.6215],
[115.3465,5.493],
[115.2614,5.3001],
[115.4681,5.1072],
[115.3145,4.9787],
[114.7354,5.0429],
[114.2753,4.6572],
[113.9073,4.5929],
[113.6566,4.0143],
[113.2027,3.6929],
[113.1136,3.3715],
[112.8098,3.1143],
[111.7084,2.9215],
[111.2627,2.7286],
[111.2485,2.4072],
[111.1029,2.4072],
[111.1648,2.15],
[111.0138,2.0214],
[110.9207,1.5071],
[110.4864,1.5714],
[110.2781,1.8286],
[109.9818,1.7],
[109.6255,1.8929],
[109.6307,2.0214],
[109.3395,2.0214],
[109.1058,1.6357]
]
],
[
[
[115.43,4.4644],
[115.5028,4.4644],
[115.5065,4.5286],
[115.4337,4.5286],
[115.43,4.4644]
]
],
[
[
[115.5102,4.5929],
[115.5831,4.5929],
[115.5868,4.6572],
[115.514,4.6572],
[115.5102,4.5929]
]
],
[
[
[116.9905,7.1002],
[117.1315,7.0359],
[117.2243,7.293],
[117.0054,7.293],
[116.9905,7.1002]
]
],
[
[
[117.0894,8.3216],
[117.2354,8.3216],
[117.3981,8.5145],
[118.0109,8.8359],
[118.0226,8.9645],
[118.7284,9.4788],
[118.7661,9.8645],
[118.9982,9.9931],
[119.2176,9.9931],
[119.3169,10.2502],
[120.002,10.5074],
[119.7094,10.5074],
[119.5768,10.636],
[119.5597,11.1503],
[119.4133,11.1503],
[119.3118,10.8931],
[119.1655,10.8931],
[119.184,10.3788],
[118.8848,10.3145],
[118.2107,9.4145],
[117.2748,8.7716],
[117.0894,8.3216]
]
]
]}
}
