{
"type": "Feature",
"properties": {"id":"cliopatria-kingdom-of-lunda-1885","edge_precision":"unknown","cliopatria_name":"Kingdom of Lunda","cliopatria_from_year":1885,"cliopatria_to_year":1889,"cliopatria_area_km2":109197,"cliopatria_wikidata":"Q1796223","cliopatria_wikipedia":"Kingdom of Lunda","cliopatria_seshat_id":"cg_lunda_k"},
"geometry": {"type": "MultiPolygon", "coordinates": [
[
[
[12.2224,-6.0145],
[12.2234,-6.4645],
[12.7353,-7.0431],
[12.8829,-7.7503],
[12.9559,-7.7503],
[13.3207,-7.686],
[13.6143,-8.2646],
[13.9065,-8.3289],
[14.3433,-7.9432],
[14.2688,-7.4931],
[14.4143,-7.3646],
[14.7064,-7.4288],
[15.0725,-7.7503],
[15.3642,-7.686],
[15.2907,-7.5574],
[15.3629,-7.3646],
[15.9472,-7.4931],
[16.1638,-6.9788],
[16.1624,-6.6574],
[15.9414,-6.1431],
[16.013,-5.8217],
[15.9401,-5.8217],
[16.1558,-5.1145],
[15.7911,-5.0502],
[15.7901,-4.7931],
[15.4978,-4.6002],
[14.9885,-4.7931],
[14.6968,-4.7288],
[14.5515,-4.8573],
[14.6249,-4.9859],
[13.8239,-5.1788],
[13.7514,-5.3074],
[13.6785,-5.3074],
[13.6064,-5.5645],
[12.8783,-5.8859],
[12.8054,-5.8859],
[12.6599,-6.0145],
[12.2224,-6.0145]
]
]
]}
}
