{
"type": "Feature",
"properties": {"id":"cliopatria-shunga-empire-171bce","edge_precision":"unknown","cliopatria_name":"Shunga Empire","cliopatria_from_year":-170,"cliopatria_to_year":-165,"cliopatria_area_km2":425056,"cliopatria_wikidata":"Q651377","cliopatria_wikipedia":"Shunga Empire","cliopatria_seshat_id":"in_sunga_emp"},
"geometry": {"type": "MultiPolygon", "coordinates": [
[
[
[77.8548,29.6009],
[77.9305,29.6009],
[77.8776,29.3438],
[77.9897,29.1509],
[77.9634,28.6367],
[78.0894,28.5081],
[78.0647,28.3795],
[78.2664,28.251],
[78.242,28.1224],
[78.3928,28.1224],
[78.5116,27.5438],
[78.8414,27.2866],
[78.8597,26.9652],
[79.6933,26.1294],
[79.9826,26.0651],
[80.0364,25.9365],
[80.4546,25.7436],
[80.9686,25.6793],
[81.1725,25.5507],
[82.0606,25.4864],
[85.0556,25.4864],
[86.5092,25.2293],
[87.2575,25.2293],
[87.6097,25.1007],
[88.2303,25.2293],
[89.2779,25.2293],
[89.5436,25.0364],
[89.8428,25.0364],
[89.854,25.1007],
[89.9183,25.8722],
[89.8433,25.8722],
[89.8795,26.0651],
[89.7417,26.1294],
[89.9422,26.7723],
[89.0666,26.9009],
[88.8178,27.158],
[88.8441,27.2866],
[88.2915,27.158],
[88.092,27.2866],
[88.1183,27.4152],
[87.9547,27.3509],
[87.5428,27.5438],
[87.5694,27.6724],
[87.4055,27.6081],
[87.3569,27.7367],
[87.2063,27.7367],
[87.1578,27.8652],
[87.2467,27.9295],
[87.1096,27.9938],
[86.7812,27.8652],
[86.5686,27.9295],
[86.2274,27.7367],
[85.8509,27.7367],
[85.2125,27.9295],
[84.8134,28.1867],
[84.792,28.4438],
[84.7165,28.4438],
[84.8331,28.6367],
[84.4832,28.7652],
[84.2509,29.0867],
[84.0101,29.0224],
[83.7499,29.2152],
[83.5231,29.2152],
[83.49,29.4081],
[83.2488,29.3438],
[83.0502,29.4723],
[82.4589,29.5366],
[82.3359,29.6652],
[81.6971,29.858],
[81.3902,30.1794],
[81.0868,30.1794],
[80.9176,30.4364],
[80.3395,30.565],
[80.0484,30.9506],
[79.531,31.0148],
[79.4848,31.1434],
[79.4087,31.1434],
[77.9358,29.9865],
[77.8548,29.6009]
]
]
]}
}
