{
"type": "Feature",
"properties": {"id":"cliopatria-western-satraps-0306","edge_precision":"unknown","cliopatria_name":"Western Satraps","cliopatria_from_year":306,"cliopatria_to_year":346,"cliopatria_area_km2":782279,"cliopatria_wikidata":"Q2086608","cliopatria_wikipedia":"Western Satraps","cliopatria_seshat_id":"pk_western_satraps"},
"geometry": {"type": "MultiPolygon", "coordinates": [
[
[
[66.632,24.8435],
[67.1477,24.7792],
[67.3261,24.3935],
[67.2891,24.072],
[67.4384,24.072],
[67.4911,23.8792],
[67.6331,23.8149],
[68.1554,23.8149],
[68.1265,23.5577],
[68.3502,23.5577],
[68.3359,23.4291],
[68.5525,23.3649],
[68.8083,22.9791],
[69.4506,22.722],
[70.3653,22.9148],
[70.2625,22.6577],
[69.8695,22.4648],
[69.4974,22.4648],
[69.4093,22.3363],
[69.2605,22.3363],
[69.1998,22.4648],
[68.9765,22.4648],
[68.9495,22.2077],
[69.3487,21.7577],
[69.4974,21.7577],
[69.9032,21.372],
[69.8899,21.2434],
[70.2955,20.8577],
[70.7206,20.6648],
[71.3208,20.7291],
[71.4085,20.8577],
[72.1848,21.1791],
[72.3214,21.7577],
[72.1728,21.7577],
[72.1125,21.8863],
[72.3425,21.9505],
[72.378,22.272],
[72.5267,22.272],
[72.5444,21.7577],
[72.7603,21.6934],
[72.5629,21.2434],
[72.8994,20.922],
[72.8373,20.3434],
[72.6615,20.0862],
[72.7337,19.3791],
[73.0159,19.2505],
[74.0342,19.7648],
[74.0413,19.8291],
[74.111,19.8291],
[73.9133,20.6028],
[74.177,20.8448],
[74.3835,21.6681],
[74.3114,22.2243],
[75.3689,22.4682],
[75.8939,22.4774],
[77.2127,22.9457],
[78.0587,22.5969],
[80.761,22.1367],
[80.9961,22.187],
[81.1885,22.5291],
[81.3075,23.4291],
[81.1671,23.4934],
[81.1847,23.622],
[80.585,24.1363],
[80.1644,24.3292],
[78.875,24.7149],
[78.576,24.7149],
[78.3144,24.9721],
[78.2519,25.5507],
[77.9823,25.7436],
[77.7749,26.3222],
[77.3133,26.708],
[77.2813,26.708],
[76.7683,26.2672],
[75.7996,26.7185],
[74.1872,27.2389],
[73.4905,27.2448],
[73.2649,27.9065],
[72.9364,28.3074],
[72.5847,28.4563],
[72.2895,28.8348],
[72.1203,29.1685],
[72.1516,29.4081],
[71.8375,29.4081],
[71.8495,29.4723],
[71.6982,29.4723],
[71.0224,29.0867],
[70.6519,28.701],
[69.9285,28.4438],
[69.8315,28.3153],
[68.6896,28.251],
[68.5076,28.0581],
[67.563,27.8009],
[67.1745,27.2223],
[67.1966,26.3222],
[67.2716,26.3222],
[67.2453,26.1294],
[67.4529,26.0008],
[67.4936,25.7436],
[67.1121,25.1007],
[66.6398,24.9078],
[66.632,24.8435]
]
]
]}
}
