{
"type": "Feature",
"properties": {"id":"cliopatria-phoenicia-651bce","edge_precision":"unknown","cliopatria_name":"Phoenicia","cliopatria_from_year":-650,"cliopatria_to_year":-616,"cliopatria_area_km2":14867,"cliopatria_wikidata":"Q41642","cliopatria_wikipedia":"Phoenicia","cliopatria_seshat_id":"lb_phoenician_emp","cliopatria_member_of":"(Phoenician Empire)"},
"geometry": {"type": "MultiPolygon", "coordinates": [
[
[
[-7.8752,33.5217],
[-7.4735,33.2645],
[-7.3335,33.4574],
[-6.805,33.5859],
[-6.9674,33.7146],
[-6.9851,33.9718],
[-7.4327,33.7789],
[-7.4282,33.7146],
[-7.8752,33.5217]
]
],
[
[
[7.2715,36.8682],
[7.6651,36.546],
[7.9709,36.9326],
[7.6596,36.9326],
[7.6587,36.9971],
[7.3463,37.0615],
[7.2715,36.8682]
]
],
[
[
[8.8265,36.9971],
[8.9827,36.9326],
[8.9833,36.8682],
[9.2954,36.7393],
[9.6828,36.9971],
[9.9945,36.9326],
[10.0716,37.126],
[10.2276,37.0615],
[10.227,37.2549],
[9.9934,37.1904],
[9.6031,37.3193],
[9.0595,37.0615],
[8.9032,37.126],
[8.8265,36.9971]
]
],
[
[
[10.5416,35.5158],
[10.6192,35.3227],
[11.0058,35.4514],
[11.0057,35.3871],
[11.083,35.3871],
[11.0832,35.5802],
[10.851,35.6445],
[10.851,35.7733],
[10.5416,35.5158]
]
],
[
[
[12.8418,32.8788],
[12.9164,32.6216],
[13.7577,32.6216],
[14.4419,32.3002],
[14.5183,32.3002],
[14.593,32.1717],
[14.9022,32.4288],
[14.7493,32.4288],
[14.6747,32.5574],
[14.4444,32.4931],
[14.0652,32.7502],
[13.7591,32.7502],
[13.7605,32.8788],
[12.8418,32.8788]
]
]
]}
}
