{
"type": "Feature",
"properties": {"id":"cliopatria-kingdom-of-england-0936","edge_precision":"unknown","cliopatria_name":"Kingdom of England","cliopatria_from_year":936,"cliopatria_to_year":946,"cliopatria_area_km2":118504,"cliopatria_wikidata":"Q179876","cliopatria_wikipedia":"Kingdom of England","cliopatria_seshat_id":"gb_anglo_saxon_2","cliopatria_member_of":"(Kingdom of England)"},
"geometry": {"type": "MultiPolygon", "coordinates": [
[
[
[-4.6799,51.0457],
[-4.6578,50.8455],
[-4.3061,50.7121],
[-4.2707,50.3791],
[-4.1866,50.3791],
[-4.0887,50.246],
[-3.5847,50.246],
[-3.4566,50.6455],
[-3.1262,50.7121],
[-2.1028,50.5789],
[-2.0306,50.7121],
[-1.525,50.7121],
[-1.5134,50.5789],
[-1.1766,50.5789],
[-1.1092,50.7788],
[-1.3678,50.8455],
[0.4929,50.7788],
[1.3138,51.1124],
[1.3806,51.3797],
[0.5239,51.5134],
[0.863,51.5134],
[0.8439,51.7811],
[1.1837,51.7811],
[1.1698,51.9822],
[1.425,51.9822],
[1.5863,52.1163],
[1.6537,52.3847],
[1.739,52.3847],
[1.7168,52.7208],
[1.532,52.9227],
[1.0938,53.0574],
[0.4933,53.0574],
[0.3375,52.8554],
[0.1662,52.8554],
[0.0698,52.99],
[0.3165,53.1248],
[0.2953,53.3946],
[0.0208,53.5971],
[0.0153,53.6647],
[-0.7665,53.7323],
[-0.9269,53.5971],
[-0.9889,53.3271],
[-1.4126,53.2596],
[-1.8681,53.5296],
[-1.9939,53.9352],
[-2.5543,54.3417],
[-2.9658,54.1384],
[-2.9586,54.0706],
[-3.196,53.8676],
[-3.0952,53.7323],
[-3.1525,53.4621],
[-3.4034,53.3946],
[-3.4894,53.3946],
[-3.2741,52.99],
[-3.0746,52.7208],
[-3.1391,52.5191],
[-3.0399,52.3847],
[-2.8692,52.3847],
[-2.9273,52.1163],
[-2.9138,51.9822],
[-2.8287,51.9822],
[-2.822,51.9151],
[-2.6258,51.6472],
[-2.9519,51.5134],
[-2.9452,51.4465],
[-3.108,51.3797],
[-3.0946,51.246],
[-4.2017,51.3128],
[-4.4264,51.0457],
[-4.6799,51.0457]
]
],
[
[
[-3.7837,55.9766],
[-3.385,55.5665],
[-3.3616,55.3618],
[-3.1868,55.3618],
[-3.0616,55.0211],
[-2.7928,54.9531],
[-2.6767,54.6811],
[-1.286,54.6811],
[-1.2924,54.7491],
[-1.486,54.9531],
[-1.6336,55.5665],
[-2.019,55.9082],
[-2.6563,56.1136],
[-3.1763,56.0451],
[-3.2643,56.0451],
[-3.7837,55.9766]
]
]
]}
}
