{
"type": "Feature",
"properties": {"id":"cliopatria-kingdom-of-bohemia-1487","edge_precision":"unknown","cliopatria_name":"Kingdom of Bohemia","cliopatria_from_year":1487,"cliopatria_to_year":1491,"cliopatria_area_km2":52816,"cliopatria_wikidata":"Q42585","cliopatria_wikipedia":"Kingdom of Bohemia","cliopatria_seshat_id":"cz_bohemian_k_2","cliopatria_member_of":"(Kingdom of Bohemia)"},
"geometry": {"type": "MultiPolygon", "coordinates": [
[
[
[12.1216,50.1795],
[12.3709,49.98],
[12.3676,49.7143],
[12.5341,49.6479],
[12.5324,49.5152],
[13.0296,49.25],
[13.3585,48.9851],
[13.525,48.9851],
[13.5238,48.9189],
[13.607,48.9189],
[14.1005,48.6542],
[14.7651,48.6542],
[14.9405,48.9851],
[15.1071,48.9851],
[15.1963,49.1838],
[15.708,49.5152],
[15.801,49.7807],
[16.2145,49.6479],
[16.3924,49.9136],
[16.8172,50.0465],
[16.8261,50.246],
[16.9101,50.246],
[16.8351,50.4457],
[16.4173,50.5122],
[16.3388,50.6455],
[15.417,50.7788],
[15.2553,50.9789],
[14.5778,50.9122],
[14.4974,51.0457],
[14.3284,51.0457],
[14.154,50.8455],
[13.0523,50.5789],
[12.7965,50.3791],
[12.3761,50.3791],
[12.2903,50.246],
[12.1223,50.246],
[12.1216,50.1795]
]
]
]}
}
