{
"type": "Feature",
"properties": {"id":"cliopatria-former-qin-0383","edge_precision":"unknown","cliopatria_name":"Former Qin","cliopatria_from_year":383,"cliopatria_to_year":386,"cliopatria_area_km2":1277818,"cliopatria_wikidata":"Q1471995","cliopatria_wikipedia":"Former Qin"},
"geometry": {"type": "MultiPolygon", "coordinates": [
[
[
[93.0905,39.9023],
[93.2734,39.7729],
[93.2981,39.4496],
[93.5079,39.385],
[93.8759,39.5143],
[94.5849,39.5143],
[95.0556,39.3203],
[95.3185,39.385],
[95.3955,39.1911],
[95.5528,39.1911],
[95.6302,38.9972],
[95.8915,38.868],
[95.97,38.868],
[96.3618,38.6743],
[96.7021,38.7389],
[96.7325,39.1911],
[96.6538,39.1911],
[96.7629,39.4496],
[97.2078,39.385],
[97.9088,38.9972],
[98.2231,38.9972],
[98.3841,39.1911],
[98.9068,39.1265],
[99.1984,39.2557],
[99.8104,38.4806],
[100.2264,38.3515],
[100.4138,38.6097],
[100.8745,38.0288],
[101.2387,37.9643],
[101.2634,37.8352],
[101.5492,37.7707],
[101.7037,37.5773],
[102.0961,37.7707],
[102.094,37.5773],
[102.2485,37.3838],
[102.534,37.3193],
[102.6889,37.126],
[102.7151,37.1904],
[103.2078,37.0615],
[103.3627,36.8682],
[103.3107,36.7393],
[103.4402,36.6749],
[103.3886,36.546],
[103.5182,36.4816],
[103.467,36.3528],
[103.6488,36.224],
[103.63,35.5802],
[103.7353,35.4514],
[103.4496,34.4863],
[103.5267,34.4863],
[103.3554,34.229],
[103.4928,33.9718],
[103.21,33.3931],
[102.5516,33.2645],
[101.6869,32.7502],
[101.3986,32.1074],
[101.3778,32.0431],
[102.3018,32.3002],
[103.5457,32.3645],
[103.7533,32.3002],
[103.9305,31.9146],
[104.4433,31.8503],
[104.6385,31.9789],
[105.1943,32.0431],
[106.2108,32.5574],
[106.7148,32.6859],
[107.5353,33.2645],
[107.6652,33.2002],
[107.6485,32.943],
[107.8783,32.943],
[108.1016,33.1359],
[108.2379,32.8788],
[109.1566,32.8788],
[109.3161,32.6859],
[109.4691,32.6859],
[109.4991,32.5574],
[109.8814,32.5574],
[109.9115,32.4288],
[110.1709,32.3002],
[111.2405,32.3002],
[111.6166,32.4931],
[113.4441,32.8788],
[114.4112,34.1647],
[114.5429,34.4863],
[114.442,34.615],
[114.7348,35.1297],
[114.8943,35.3227],
[115.3362,35.4514],
[115.3705,35.7089],
[115.293,35.7089],
[115.5404,36.0952],
[115.4628,36.0952],
[115.5489,36.2884],
[115.4713,36.2884],
[115.558,36.4816],
[115.4803,36.4816],
[115.5972,36.7393],
[115.5005,36.8682],
[115.6795,37.2549],
[116.127,37.7062],
[116.6423,37.9643],
[117.143,38.0288],
[117.6808,38.4806],
[117.6025,38.4806],
[117.6549,38.7389],
[117.5764,38.7389],
[117.776,39.1265],
[118.0457,39.1911],
[118.0569,39.0618],
[118.4498,39.0618],
[118.9894,39.1911],
[119.2153,39.3203],
[119.3804,39.7729],
[120.5003,40.2259],
[120.6473,40.4849],
[120.9967,40.6792],
[121.1098,40.8736],
[121.8237,40.8736],
[121.827,40.744],
[122.1061,40.6792],
[122.2306,40.4849],
[121.7765,39.967],
[121.5033,39.9023],
[121.4383,39.6436],
[121.2807,39.6436],
[121.2096,39.5143],
[121.2965,39.385],
[121.6901,39.385],
[121.5151,39.0618],
[121.2007,39.0618],
[121.0293,38.7389],
[121.4217,38.7389],
[121.7162,38.9972],
[121.9519,38.9972],
[122.1704,39.2557],
[122.936,39.6436],
[123.5974,39.8376],
[124.2286,39.8376],
[124.2657,39.9023],
[124.57,40.2906],
[124.8836,40.4201],
[125.0769,40.744],
[124.9965,40.8736],
[125.0752,41.0032],
[124.4392,41.2625],
[124.4789,41.3274],
[124.2404,41.3274],
[124.2802,41.3922],
[124.0018,41.4571],
[124.0417,41.522],
[123.8029,41.522],
[123.8429,41.5869],
[123.5643,41.6518],
[123.6044,41.7167],
[123.3654,41.7167],
[123.4055,41.7816],
[123.1268,41.8465],
[123.167,41.9114],
[123.0872,41.9114],
[121.0213,41.2625],
[118.8713,41.3922],
[118.9093,41.4571],
[118.3903,41.522],
[118.4283,41.5869],
[117.8709,41.5869],
[117.746,41.7816],
[117.861,41.9764],
[117.7399,42.0413],
[117.7761,42.2362],
[117.4564,42.2362],
[117.2994,42.1063],
[114.576,41.3922],
[113.0033,40.5496],
[110.1773,40.2906],
[109.4462,40.0964],
[106.9498,39.8376],
[104.3767,39.9023],
[100.8949,39.7083],
[100.9241,39.7729],
[100.559,39.8376],
[100.5388,39.967],
[100.0945,40.0317],
[100.124,40.0964],
[99.3837,40.0317],
[99.2842,40.1612],
[99.0471,40.1612],
[98.9478,40.2906],
[98.2449,40.4849],
[98.2249,40.6144],
[98.0369,40.5496],
[97.6305,40.8736],
[96.8966,41.0032],
[96.9264,41.068],
[95.2297,41.0032],
[93.9247,40.744],
[93.8455,40.744],
[93.5745,40.4849],
[93.3649,40.5496],
[93.2781,40.1612],
[93.199,40.1612],
[93.0905,39.9023]
]
]
]}
}
