{
"type": "Feature",
"properties": {"id":"cliopatria-italian-africa-1912","edge_precision":"unknown","cliopatria_name":"Italian Africa","cliopatria_from_year":1912,"cliopatria_to_year":1919,"cliopatria_area_km2":1467309,"cliopatria_wikidata":"Q926295","cliopatria_wikipedia":"Italian Empire"},
"geometry": {"type": "MultiPolygon", "coordinates": [
[
[
[9.41,30.1794],
[9.4109,29.9865],
[12.0602,28.8295],
[12.3614,28.5724],
[12.889,28.4438],
[12.9635,28.251],
[13.1889,28.1224],
[13.1882,27.9938],
[12.3569,27.2223],
[12.3565,27.0938],
[11.9802,26.8366],
[11.8295,26.5151],
[10.8549,25.6793],
[10.8551,25.5507],
[10.2577,24.9721],
[10.1837,24.7149],
[10.4833,24.4578],
[11.0062,24.5221],
[11.2304,24.3935],
[11.9776,24.6506],
[13.2487,24.8435],
[14.1452,24.7149],
[14.2936,24.5221],
[14.285,22.8506],
[14.5077,22.722],
[15.03,22.9148],
[15.8534,23.4291],
[16.1516,23.4291],
[16.3741,23.3006],
[16.3753,23.4291],
[18.926,24.5221],
[18.9664,26.8366],
[18.8913,26.8366],
[18.9794,27.4795],
[19.2832,27.6081],
[19.5149,27.8652],
[19.6655,27.8652],
[19.8208,28.0581],
[19.9715,28.0581],
[20.2042,28.3153],
[20.3551,28.3153],
[20.5111,28.5081],
[20.6621,28.5081],
[20.8184,28.701],
[20.9694,28.701],
[21.1262,28.8938],
[21.2773,28.8938],
[21.2812,29.0224],
[21.5059,28.9581],
[21.7185,28.5081],
[22.1612,28.1867],
[22.913,28.1224],
[23.2189,28.251],
[23.6853,28.6367],
[23.9289,29.0867],
[23.9415,29.4081],
[23.7297,29.7937],
[23.9106,30.5007],
[24.0737,30.7578],
[24.3074,30.8863],
[24.3132,31.0148],
[25.102,31.5933],
[25.1117,31.7861],
[24.8925,31.9789],
[24.1294,31.9789],
[23.6803,32.1717],
[23.1486,32.236],
[23.0894,32.6216],
[22.7098,32.6859],
[22.5623,32.8145],
[22.1085,32.943],
[21.5698,32.8788],
[21.4117,32.7502],
[21.108,32.8145],
[20.8712,32.6216],
[20.6441,32.6859],
[20.7159,32.5574],
[20.563,32.5574],
[20.482,32.4288],
[20.3313,32.4931],
[20.2461,32.236],
[20.017,32.236],
[20.0891,32.1074],
[19.9961,31.5933],
[20.2143,31.2719],
[20.1341,31.1434],
[20.2021,30.8863],
[19.9682,30.6935],
[19.9643,30.565],
[19.5014,30.3079],
[18.9686,30.2436],
[18.8961,30.3722],
[18.5925,30.3722],
[18.2223,30.7578],
[17.8468,30.9506],
[16.8635,31.2076],
[16.1786,31.2076],
[15.649,31.4005],
[15.576,31.5933],
[15.4246,31.6575],
[15.2069,32.3645],
[14.7493,32.4288],
[14.6747,32.5574],
[14.4444,32.4931],
[14.2175,32.6859],
[13.8357,32.7502],
[13.7591,32.7502],
[13.7605,32.8788],
[13.4537,32.8145],
[13.3017,32.943],
[12.8418,32.8788],
[12.8408,32.7502],
[12.5347,32.7502],
[12.6121,32.8788],
[12.229,32.8145],
[11.6176,33.1359],
[11.5409,33.1359],
[11.5394,32.5574],
[11.6159,32.5574],
[11.5389,32.3645],
[11.0039,32.236],
[10.4698,31.7218],
[10.1652,31.5933],
[10.319,30.822],
[9.9403,30.3722],
[9.41,30.1794]
]
],
[
[
[36.4964,15.1361],
[36.6092,14.3004],
[37.0499,14.3004],
[37.3489,14.4289],
[37.4144,14.2361],
[37.6321,14.1718],
[37.9529,14.8147],
[38.5241,14.4289],
[38.7445,14.4289],
[39.0467,14.6218],
[39.188,14.4932],
[40.287,14.4289],
[41.2805,13.6575],
[41.2749,13.5289],
[42.1952,12.7575],
[42.1898,12.6289],
[42.4016,12.436],
[42.7653,12.3717],
[42.996,12.6289],
[43.2187,12.6932],
[43.2215,12.7575],
[43.1538,12.886],
[42.8605,12.886],
[42.5841,13.2718],
[42.4374,13.2718],
[42.3784,13.5932],
[41.6648,14.0432],
[41.6706,14.1718],
[41.5267,14.2361],
[41.3243,14.6218],
[40.816,14.7504],
[40.6811,15.0075],
[40.3105,14.9432],
[39.9702,15.5218],
[39.8231,15.5218],
[39.8079,15.2004],
[39.7344,15.2004],
[39.7434,15.3933],
[39.5319,15.5861],
[39.4032,15.9718],
[39.4063,16.0361],
[38.7646,17.9648],
[38.6907,17.9648],
[38.5303,17.7076],
[37.7029,17.3862],
[37.5432,17.129],
[37.3896,17.0005],
[37.1685,17.0005],
[37.0121,16.8076],
[37.0622,16.2933],
[36.9091,16.1647],
[36.6517,15.329],
[36.4964,15.1361]
]
],
[
[
[39.9733,15.5861],
[40.338,15.5218],
[40.1361,15.9076],
[39.9889,15.9076],
[39.9733,15.5861]
]
],
[
[
[40.884,-0.8715],
[41.4734,-1.643],
[41.5462,-1.643],
[41.8336,-1.2572],
[41.8313,-1.0001],
[42.1213,-0.8715],
[42.1202,-0.7429],
[42.9149,0.0285],
[42.9028,0.1571],
[43.2724,0.4142],
[43.2754,0.5428],
[44.3897,1.5071],
[45.4958,2.0857],
[45.7207,2.3429],
[45.8663,2.3429],
[46.6856,3.05],
[46.6891,3.1786],
[47.0602,3.4358],
[47.0637,3.5643],
[47.8868,4.3358],
[48.1206,4.8501],
[48.6486,5.4287],
[48.7296,5.6858],
[48.8775,5.7501],
[49.2034,6.7787],
[49.8144,7.5502],
[49.8286,7.9359],
[50.2033,8.193],
[50.3719,8.7716],
[50.8311,9.2859],
[50.9481,10.3145],
[51.0212,10.3145],
[51.176,10.5074],
[51.1353,11.2146],
[51.3032,11.6646],
[51.2426,11.9217],
[50.5865,11.986],
[50.2751,11.6003],
[49.6863,11.536],
[49.3114,11.3431],
[49.2382,11.3431],
[49.4376,10.8931],
[49.4454,9.3502],
[49.0622,8.9002],
[48.6945,8.8359],
[48.2417,8.4502],
[48.2345,8.2573],
[47.8578,7.9359],
[47.8532,7.8073],
[47.3287,7.4216],
[47.3243,7.293],
[46.1983,6.3287],
[46.1942,6.2001],
[45.595,5.6858],
[45.5911,5.5572],
[45.3686,5.4287],
[45.0638,4.9787],
[44.7686,4.8501],
[43.457,4.8501],
[42.7853,4.2715],
[42.1279,4.2072],
[41.7569,3.9501],
[41.3001,3.1786],
[40.928,2.8572],
[40.884,-0.8715]
]
]
]}
}
