{
"type": "Feature",
"properties": {"id":"cliopatria-taifa-of-badajoz-1040","edge_precision":"unknown","cliopatria_name":"Taifa of Badajoz","cliopatria_from_year":1040,"cliopatria_to_year":1055,"cliopatria_area_km2":100751,"cliopatria_wikidata":"Q276841","cliopatria_wikipedia":"Taifa of Badajoz","cliopatria_seshat_id":"es_taifas","cliopatria_member_of":"(Taifas of Iberia)"},
"geometry": {"type": "MultiPolygon", "coordinates": [
[
[
[-9.572,38.9326],
[-9.5531,38.7389],
[-9.3053,38.6097],
[-9.3114,38.6743],
[-9.233,38.6743],
[-9.2085,38.416],
[-8.8227,38.4806],
[-8.8595,38.0288],
[-8.8537,37.9643],
[-8.1331,37.7707],
[-8.1164,37.5773],
[-8.0383,37.5773],
[-8.0218,37.3838],
[-7.9438,37.3838],
[-7.9493,37.4483],
[-7.7153,37.4483],
[-7.7315,37.6417],
[-7.5862,37.7707],
[-7.0341,37.7062],
[-6.9042,38.0288],
[-7.155,38.2224],
[-5.8241,38.2224],
[-5.4425,38.3515],
[-5.281,38.2869],
[-5.0605,38.4806],
[-4.7518,38.5451],
[-4.6379,39.1265],
[-5.036,39.1911],
[-5.2186,39.5143],
[-5.4497,39.4496],
[-5.4758,39.7729],
[-5.3337,39.967],
[-5.6027,40.3554],
[-5.9136,40.2906],
[-6.0942,40.5496],
[-6.4052,40.4849],
[-6.4729,40.3554],
[-6.7893,40.3554],
[-6.886,40.5496],
[-7.2209,40.744],
[-7.233,40.8736],
[-7.8739,40.9384],
[-8.2578,40.8088],
[-8.7335,40.8088],
[-8.727,40.744],
[-8.8723,40.6144],
[-8.8461,40.3554],
[-8.9252,40.3554],
[-9.025,39.7729],
[-9.1039,39.7729],
[-9.1572,39.5143],
[-9.387,39.4496],
[-9.4275,39.0618],
[-9.572,38.9326]
],
[
[-9.0884,38.8034],
[-9.0099,38.8034],
[-9.0037,38.7389],
[-9.0802,38.7173],
[-9.0822,38.7389],
[-9.0884,38.8034]
]
]
]}
}
