{
"type": "Feature",
"properties": {"id":"cliopatria-khanate-of-kokand-1868","edge_precision":"unknown","cliopatria_name":"Khanate of Kokand","cliopatria_from_year":1868,"cliopatria_to_year":1872,"cliopatria_area_km2":71110,"cliopatria_wikidata":"Q696241","cliopatria_wikipedia":"Khanate of Kokand"},
"geometry": {"type": "MultiPolygon", "coordinates": [
[
[
[69.9455,40.6144],
[70.104,40.6144],
[70.2221,40.4849],
[70.1822,40.3554],
[70.4587,40.2259],
[70.4191,40.0964],
[70.8535,39.967],
[71.0322,39.5143],
[71.2685,39.5143],
[71.5833,39.7729],
[72.1944,39.7083],
[72.3921,39.8376],
[72.7866,39.8376],
[73.521,40.1612],
[73.9533,40.0317],
[74.0323,40.0317],
[74.871,40.4201],
[74.8926,40.4849],
[74.54,40.6144],
[74.4466,40.8088],
[74.2881,40.8088],
[74.0006,41.1328],
[74.0448,41.2625],
[73.7932,41.4571],
[73.8378,41.5869],
[73.3227,42.1712],
[72.7411,42.1063],
[72.5463,42.2362],
[72.3066,42.2362],
[71.2897,41.5869],
[71.1305,41.5869],
[70.8279,41.3922],
[70.8234,41.1328],
[70.0854,40.8088],
[69.9455,40.6144]
]
]
]}
}
