{
"type": "Feature",
"properties": {"id":"cliopatria-new-france-1670","edge_precision":"unknown","cliopatria_name":"New France","cliopatria_from_year":1670,"cliopatria_to_year":1672,"cliopatria_area_km2":69711,"cliopatria_wikidata":"Q170604","cliopatria_wikipedia":"New France","cliopatria_seshat_id":"fr_bourbon_k_2","cliopatria_member_of":"(Kingdom of France)"},
"geometry": {"type": "MultiPolygon", "coordinates": [
[
[
[-85.0044,46.4802],
[-84.8062,46.2833],
[-84.5607,46.2833],
[-84.4741,46.4145],
[-84.7586,46.4802],
[-85.0044,46.4802]
]
],
[
[
[-74.4802,45.6278],
[-74.3454,45.3659],
[-74.1971,45.235],
[-74.0345,45.235],
[-74.0199,45.3659],
[-73.6944,45.3659],
[-73.4652,45.235],
[-73.3026,45.235],
[-73.4353,45.4968],
[-73.6316,45.5623],
[-73.8476,45.8243],
[-73.6084,46.1521],
[-72.8101,46.3489],
[-72.7141,46.4802],
[-72.1743,46.5459],
[-71.1087,46.5459],
[-71.0115,46.6772],
[-70.8474,46.6772],
[-70.8809,46.7429],
[-70.7167,46.7429],
[-70.7501,46.8086],
[-70.5859,46.8086],
[-70.6866,47.0058],
[-70.9816,46.9401],
[-71.33,47.1374],
[-71.5768,47.1374],
[-71.6872,46.8743],
[-71.9336,46.8743],
[-71.8996,46.8086],
[-73.0967,46.7429],
[-73.0624,46.6772],
[-73.5202,46.6115],
[-73.663,46.4145],
[-73.8268,46.4145],
[-74.2217,45.7588],
[-74.3849,45.7588],
[-74.4802,45.6278]
]
],
[
[
[-74.4448,18.6076],
[-74.4006,18.2862],
[-74.179,18.2862],
[-73.9225,18.0291],
[-73.701,18.0291],
[-73.6531,18.2219],
[-72.1757,18.2219],
[-72.1361,18.4791],
[-71.9969,18.5434],
[-72.1795,18.8005],
[-72.1882,18.8648],
[-72.4453,19.1219],
[-72.5075,19.5719],
[-72.0633,19.5719],
[-72.099,19.8291],
[-72.1731,19.8291],
[-72.6356,19.9577],
[-73.2283,19.9577],
[-73.4323,19.8291],
[-73.405,19.6362],
[-72.7947,19.5077],
[-72.7147,18.9291],
[-72.3012,18.6076],
[-73.1708,18.4791],
[-73.4839,18.6076],
[-73.9274,18.6076],
[-74.093,18.7362],
[-74.4448,18.6076]
]
],
[
[
[-66.3497,45.4968],
[-66.1771,45.3004],
[-65.8819,45.3659],
[-65.8913,45.5623],
[-66.0033,45.6278],
[-66.2987,45.5623],
[-66.2682,45.4968],
[-66.3497,45.4968]
]
],
[
[
[-65.7744,44.7773],
[-65.6853,44.5813],
[-65.2803,44.5813],
[-65.5094,44.908],
[-65.7231,44.8426],
[-65.6933,44.7773],
[-65.7744,44.7773]
]
],
[
[
[-64.8902,17.8362],
[-64.875,17.7076],
[-64.8012,17.7076],
[-64.8088,17.7719],
[-64.735,17.7719],
[-64.7426,17.8362],
[-64.8902,17.8362]
]
],
[
[
[-64.735,17.7719],
[-64.7274,17.7076],
[-64.6536,17.7076],
[-64.6612,17.7719],
[-64.735,17.7719]
]
],
[
[
[-63.0821,18.1576],
[-62.9269,18.0933],
[-62.9495,18.2862],
[-63.0234,18.2862],
[-63.0821,18.1576]
]
],
[
[
[-61.7751,12.0503],
[-61.5511,11.986],
[-61.5684,12.2432],
[-61.715,12.2432],
[-61.7106,12.1789],
[-61.7751,12.0503]
]
],
[
[
[-61.7692,16.2933],
[-61.7363,15.9718],
[-61.5827,15.9076],
[-61.4614,16.1647],
[-61.1735,16.229],
[-61.18,16.2933],
[-61.3473,16.4861],
[-61.4946,16.4861],
[-61.4813,16.3576],
[-61.7692,16.2933]
]
],
[
[
[-61.1902,14.8789],
[-61.0881,14.5575],
[-61.0825,14.4932],
[-60.7831,14.4289],
[-60.8112,14.7504],
[-60.9697,14.8789],
[-61.1902,14.8789]
]
],
[
[
[-61.0443,14.0432],
[-60.9396,13.6575],
[-60.798,13.7218],
[-60.8241,14.0432],
[-61.0443,14.0432]
]
],
[
[
[-60.836,11.086],
[-60.6164,11.086],
[-60.5585,11.3431],
[-60.7049,11.3431],
[-60.836,11.086]
]
],
[
[
[-54.2679,5.2358],
[-54.195,5.2358],
[-53.6088,5.0429],
[-53.534,4.9144],
[-53.3892,4.9787],
[-53.0958,4.8501],
[-52.2856,4.1429],
[-51.7738,3.9501],
[-51.7071,4.5286],
[-52.0747,4.7858],
[-52.1476,4.7858],
[-52.5885,5.0429],
[-52.8875,5.493],
[-53.9858,5.7501],
[-54.0587,5.7501],
[-54.0538,5.493],
[-54.2679,5.2358]
]
],
[
[
[-54.0798,47.2032],
[-53.806,47.1374],
[-53.8328,47.2032],
[-53.6682,47.2032],
[-53.7207,47.5323],
[-54.0228,47.6641],
[-53.9138,47.4006],
[-54.0798,47.2032]
]
],
[
[
[-53.7479,47.5982],
[-53.7207,47.5323],
[-53.6382,47.5323],
[-53.6654,47.5982],
[-53.7479,47.5982]
]
],
[
[
[-16.6028,15.6504],
[-16.3842,15.7147],
[-16.3863,15.779],
[-16.2392,15.779],
[-16.1699,15.9076],
[-16.25,16.1004],
[-16.4731,16.1647],
[-16.6028,15.6504]
]
],
[
[
[46.5279,-25.2365],
[46.8919,-25.1079],
[46.9667,-25.1079],
[47.0912,-24.7865],
[46.7922,-24.7865],
[46.5777,-24.9151],
[46.5279,-25.2365]
]
],
[
[
[55.0771,-20.9935],
[55.0963,-21.2507],
[55.408,-21.4435],
[55.6308,-21.4435],
[55.7695,-21.3149],
[55.5918,-20.9292],
[55.5869,-20.8649],
[55.2159,-20.8649],
[55.0771,-20.9935]
]
]
]}
}
