{
"type": "Feature",
"properties": {"id":"cliopatria-qing-dynasty-1683","edge_precision":"unknown","cliopatria_name":"Qing Dynasty","cliopatria_from_year":1683,"cliopatria_to_year":1686,"cliopatria_area_km2":6269317,"cliopatria_wikidata":"Q8733","cliopatria_wikipedia":"Qing dynasty","cliopatria_seshat_id":"cn_qing_dyn_1"},
"geometry": {"type": "MultiPolygon", "coordinates": [
[
[
[96.9966,42.5612],
[97.125,42.4962],
[97.0619,42.3662],
[97.3534,41.9764],
[97.2115,41.8465],
[97.2913,41.8465],
[97.2604,41.7816],
[97.3401,41.7816],
[98.9684,41.522],
[98.9373,41.4571],
[99.2556,41.4571],
[99.2244,41.3922],
[99.7812,41.3922],
[99.75,41.3274],
[101.0724,40.9384],
[101.0281,40.6792],
[101.1073,40.6792],
[100.9738,40.2259],
[100.0638,39.2557],
[99.8962,38.868],
[100.3354,38.6097],
[100.591,38.2869],
[100.7476,38.2869],
[100.8745,38.0288],
[101.2387,37.9643],
[101.2634,37.8352],
[101.5492,37.7707],
[101.7037,37.5773],
[102.0961,37.7707],
[102.094,37.5773],
[102.2485,37.3838],
[102.534,37.3193],
[102.6889,37.126],
[102.6106,36.9326],
[102.8441,36.7393],
[102.7926,36.6105],
[102.9235,36.3528],
[102.7975,36.0308],
[102.6175,35.9664],
[102.5713,35.6445],
[102.2372,35.5802],
[102.0869,35.3871],
[102.0919,35.194],
[101.7114,35.001],
[101.7413,34.8723],
[102.1034,34.8079],
[102.0327,34.615],
[101.7548,34.4863],
[101.2315,34.7436],
[100.923,34.7436],
[100.8534,34.5506],
[101.0695,34.2933],
[101.5313,34.2933],
[101.6933,34.1004],
[101.5255,33.8432],
[101.1956,33.7789],
[101.8738,33.5217],
[101.1784,31.6575],
[101.1022,31.6575],
[100.6794,29.7294],
[99.9815,28.8295],
[99.7382,28.7652],
[99.6983,28.3153],
[99.6067,28.251],
[99.4291,28.4438],
[99.4864,28.9581],
[99.4109,28.9581],
[99.531,29.4081],
[99.3971,29.4723],
[99.2351,29.1509],
[99.0253,29.2152],
[98.8687,28.3153],
[98.5351,28.1867],
[98.567,28.3153],
[98.3728,28.4438],
[98.1581,28.1867],
[98.26,27.6724],
[98.5612,27.6724],
[98.7414,27.4795],
[98.7623,26.5794],
[98.8374,26.5794],
[98.6732,25.8079],
[98.1714,25.5507],
[98.1331,25.3579],
[97.8709,25.165],
[97.8218,24.9078],
[97.6482,24.7792],
[97.5891,24.4578],
[97.79,24.3292],
[97.647,23.9435],
[98.8754,24.1363],
[98.7326,23.7506],
[98.8707,23.6863],
[98.9429,23.2363],
[99.5704,22.9791],
[99.2854,22.1434],
[99.9444,22.0791],
[100.0726,21.9505],
[100.0318,21.6934],
[100.2243,21.5005],
[100.7443,21.5005],
[101.1567,21.7577],
[101.1798,21.4363],
[101.3182,21.372],
[101.3619,21.1791],
[101.8074,21.1791],
[101.8792,21.6291],
[101.6443,22.0148],
[101.7182,22.4648],
[102.154,22.4005],
[102.5802,22.722],
[102.867,22.6577],
[102.9197,22.5291],
[103.2173,22.5291],
[103.3247,22.722],
[103.7713,22.722],
[103.9616,22.5291],
[104.1547,22.7863],
[104.5158,22.722],
[104.8361,22.8506],
[104.9561,23.1077],
[105.2143,23.3006],
[105.4379,23.3006],
[105.7526,22.9791],
[106.1995,22.9791],
[106.3254,22.8506],
[106.7093,22.9148],
[106.7722,22.8506],
[106.607,22.3363],
[106.7113,22.0791],
[107.2398,21.6934],
[107.4627,21.6934],
[107.5894,21.5648],
[107.9719,21.6291],
[108.0984,21.5005],
[108.1727,21.5005],
[108.5552,21.5648],
[108.6517,21.6934],
[109.0864,21.6291],
[109.1162,21.372],
[109.807,21.5005],
[109.8701,21.4363],
[109.696,20.8577],
[109.7702,20.8577],
[109.7895,20.5362],
[109.9268,20.472],
[109.8829,20.2148],
[110.0311,20.2148],
[110.572,20.3434],
[110.6163,20.6005],
[110.3638,20.8577],
[110.4825,21.1148],
[110.4194,21.1791],
[110.7164,21.1791],
[110.7389,21.3077],
[110.9842,21.4363],
[111.6641,21.5005],
[111.8585,21.7577],
[112.4415,21.6934],
[112.7736,21.8863],
[113.071,21.8863],
[113.1063,22.0791],
[113.4037,22.0791],
[113.4514,22.3363],
[113.6866,22.4005],
[113.6987,22.4648],
[113.5985,22.722],
[113.7474,22.722],
[113.7852,22.5291],
[113.9963,22.4648],
[113.9986,22.0791],
[114.3704,22.0791],
[114.5311,22.1434],
[114.6408,22.722],
[114.7527,22.5291],
[114.9016,22.5291],
[115.1744,22.7863],
[115.3729,22.6577],
[115.6706,22.6577],
[115.6956,22.7863],
[116.54,22.9148],
[116.5914,23.172],
[116.815,23.172],
[116.7796,23.3649],
[116.8939,23.5577],
[117.1788,23.4934],
[117.47,23.8149],
[117.6938,23.8149],
[117.7213,23.9435],
[118.0757,24.2006],
[118.1474,24.5221],
[118.7597,24.5864],
[118.8191,24.8435],
[119.0737,24.9721],
[119.0295,25.1007],
[119.3442,25.165],
[119.3911,25.3579],
[119.2731,25.4864],
[119.4229,25.4864],
[119.466,25.3579],
[119.8721,25.4864],
[119.9044,25.615],
[119.5299,25.615],
[119.7784,26.0008],
[119.587,26.1294],
[119.9381,26.3222],
[119.8399,26.5151],
[120.1577,26.5794],
[120.2108,26.7723],
[120.0606,26.7723],
[120.0964,26.9009],
[120.2467,26.9009],
[120.3947,27.158],
[120.545,27.158],
[120.7325,27.5438],
[120.6573,27.5438],
[120.7146,27.7367],
[120.8677,27.9938],
[121.0382,28.0581],
[121.118,28.3153],
[121.1934,28.3153],
[121.1533,28.1867],
[121.6459,28.3153],
[121.6521,28.5724],
[121.5218,28.6367],
[121.7143,28.7652],
[121.7443,29.0867],
[121.5389,29.1509],
[121.5932,29.5366],
[121.7984,29.4723],
[121.7116,29.2152],
[121.9384,29.2152],
[122.0035,29.4081],
[121.9279,29.4081],
[122.016,29.6652],
[121.8645,29.6652],
[122.0298,29.9223],
[121.6202,30.0508],
[121.4841,30.3079],
[121.1047,30.3079],
[120.8088,30.1151],
[120.6798,30.1794],
[121.0453,30.565],
[121.1972,30.565],
[121.5192,30.822],
[121.8993,30.822],
[121.9953,31.0791],
[121.7366,31.4005],
[121.5843,31.4005],
[121.9135,31.4647],
[121.9631,31.5933],
[121.8356,31.6575],
[121.9368,31.7218],
[121.9613,31.9789],
[121.5033,32.1717],
[121.4026,32.4931],
[120.9192,32.6216],
[120.9263,33.2002],
[120.5505,33.5859],
[120.4894,34.1647],
[120.3418,34.3577],
[119.7323,34.5506],
[119.7113,34.6793],
[119.4309,34.7436],
[119.459,34.8079],
[119.2276,34.8079],
[119.6187,35.5158],
[119.9865,35.6445],
[120.3185,36.0308],
[120.6585,36.0952],
[120.7318,36.4172],
[120.9648,36.4172],
[120.9789,36.6105],
[121.2121,36.6105],
[121.9121,36.9326],
[122.3939,36.8037],
[122.5664,36.9971],
[122.4742,37.126],
[122.7129,37.4483],
[122.1211,37.5128],
[122.1535,37.5773],
[121.4969,37.5128],
[121.4833,37.6417],
[121.171,37.6417],
[121.112,37.8352],
[120.7538,37.8998],
[120.1881,37.7062],
[120.2022,37.5773],
[119.8266,37.4483],
[119.7011,37.1904],
[119.1557,37.1904],
[119.14,37.3193],
[118.984,37.3193],
[119.2366,37.8352],
[119.3928,37.8352],
[119.4571,37.9643],
[118.7718,38.1578],
[118.8042,38.2224],
[118.6476,38.2224],
[118.583,38.0933],
[118.0674,38.1578],
[118.0536,38.2869],
[117.7727,38.3515],
[117.7592,38.4806],
[117.6025,38.4806],
[117.6549,38.7389],
[117.5764,38.7389],
[117.776,39.1265],
[118.0457,39.1911],
[118.0569,39.0618],
[118.4498,39.0618],
[118.9894,39.1911],
[119.2153,39.3203],
[119.3804,39.7729],
[120.5003,40.2259],
[120.6473,40.4849],
[120.9967,40.6792],
[121.1098,40.8736],
[121.8237,40.8736],
[121.827,40.744],
[122.1061,40.6792],
[122.2306,40.4849],
[121.7765,39.967],
[121.5033,39.9023],
[121.4383,39.6436],
[121.2807,39.6436],
[121.2096,39.5143],
[121.2965,39.385],
[121.6901,39.385],
[121.5151,39.0618],
[121.2007,39.0618],
[121.0293,38.7389],
[121.4217,38.7389],
[121.7162,38.9972],
[121.9519,38.9972],
[122.1704,39.2557],
[122.936,39.6436],
[123.5974,39.8376],
[124.2286,39.8376],
[124.2657,39.9023],
[124.57,40.2906],
[126.1071,41.0032],
[126.833,41.7816],
[127.0722,41.7816],
[127.1075,41.5869],
[127.3848,41.522],
[127.3437,41.4571],
[128.0982,41.3922],
[128.3436,41.6518],
[128.2678,41.7816],
[128.1084,41.7816],
[128.1503,41.8465],
[127.9908,41.8465],
[128.0749,41.9764],
[128.8355,42.0413],
[129.1664,42.3012],
[129.6963,42.4962],
[129.8433,42.9515],
[130.2001,42.8864],
[130.3002,42.5612],
[130.5404,42.5612],
[130.4965,42.4962],
[130.6927,42.4312],
[130.7728,42.4312],
[130.9048,42.6262],
[131.2251,42.6262],
[131.7539,43.2769],
[131.9147,43.2769],
[131.7787,43.0816],
[132.0999,43.0816],
[132.271,43.2118],
[132.2052,42.8864],
[132.6062,42.8864],
[132.5611,42.8213],
[132.997,42.7563],
[132.9519,42.6912],
[133.2723,42.6912],
[134.2218,43.0165],
[135.2842,43.6027],
[135.9866,44.4507],
[136.1484,44.4507],
[136.7191,45.1042],
[137.8591,45.9554],
[138.4251,46.6772],
[138.3431,46.6772],
[138.4999,46.8743],
[138.4178,46.8743],
[138.6286,47.1374],
[138.8995,47.269],
[139.3576,47.9278],
[140.0211,48.3238],
[140.2464,48.5881],
[140.1634,48.5881],
[140.2771,48.7204],
[140.194,48.7204],
[140.3658,48.9189],
[140.2825,48.9189],
[140.4644,49.3163],
[140.3809,49.3163],
[140.593,49.6479],
[140.4378,49.8471],
[140.7414,50.1795],
[140.4895,50.1795],
[140.5059,50.3791],
[140.4218,50.3791],
[140.5457,50.5122],
[140.4396,50.5789],
[140.5647,50.7121],
[140.4805,50.7121],
[140.7764,51.1124],
[140.6512,51.246],
[140.93,51.4465],
[140.8257,51.5134],
[140.9566,51.6472],
[141.4579,51.9822],
[141.3546,52.0492],
[141.5566,52.2505],
[141.1979,52.3176],
[141.2311,52.5191],
[141.1457,52.5191],
[141.3512,52.7208],
[141.2324,52.8554],
[141.3017,52.9227],
[141.114,52.99],
[141.464,53.3271],
[140.917,53.4621],
[140.9877,53.5296],
[140.8001,53.5971],
[139.8109,53.0574],
[138.8287,52.2505],
[138.1599,51.9151],
[135.3121,51.7811],
[132.8487,51.7811],
[132.9107,51.8481],
[131.9759,51.8481],
[132.0377,51.9151],
[127.8711,51.9151],
[127.931,51.9822],
[127.2849,52.1163],
[127.2457,52.4519],
[127.1604,52.4519],
[127.2212,52.5191],
[127.0504,52.5191],
[127.0385,52.7881],
[126.8673,52.7881],
[126.9048,52.9227],
[126.7334,52.9227],
[126.7714,53.0574],
[126.6856,53.0574],
[126.7476,53.1248],
[126.3568,53.2596],
[126.4191,53.3271],
[126.1612,53.3271],
[126.2236,53.3946],
[126.0281,53.4621],
[126.0674,53.5971],
[125.8951,53.5971],
[125.958,53.6647],
[124.3201,53.6647],
[123.1019,53.4621],
[121.897,53.4621],
[120.6267,53.1922],
[119.9036,52.6535],
[120.5301,52.5863],
[120.5006,52.4519],
[120.6706,52.2505],
[120.5571,52.1163],
[120.6709,52.0492],
[120.1919,51.7811],
[119.6457,51.1124],
[119.7303,51.1124],
[119.1509,50.3791],
[119.235,50.3791],
[119.2816,50.113],
[118.5429,49.9136],
[117.8274,49.5152],
[116.6848,49.7807],
[115.4226,47.9938],
[115.5881,47.9938],
[115.5814,47.8619],
[115.8674,47.7959],
[115.8229,47.73],
[116.16,47.8619],
[116.9865,47.8619],
[116.9414,47.7959],
[117.3093,47.73],
[117.7389,47.9938],
[118.4834,47.9938],
[118.4374,47.9278],
[118.6855,47.9278],
[118.6396,47.8619],
[119.0436,47.73],
[119.0347,47.5982],
[119.3191,47.5323],
[119.2736,47.4665],
[119.4754,47.4006],
[119.4671,47.269],
[119.7512,47.2032],
[119.7431,47.0716],
[119.9371,46.8743],
[119.6766,46.6115],
[118.6166,46.7429],
[117.4191,46.5459],
[117.1258,46.3489],
[116.7164,46.3489],
[116.4673,46.2177],
[116.1297,45.6933],
[115.8832,45.5623],
[115.1889,45.3659],
[114.7417,45.4313],
[114.1313,44.9734],
[113.4437,44.6466],
[112.0711,44.3854],
[111.7569,43.9938],
[111.9637,43.7982],
[111.8868,43.6678],
[110.8166,43.2118],
[110.2792,42.6912],
[109.3332,42.4312],
[107.8132,42.4312],
[106.8631,42.3012],
[104.8123,41.5869],
[104.8456,41.6518],
[104.527,41.6518],
[104.4678,41.8465],
[103.7169,41.7816],
[103.7502,41.8465],
[103.2251,41.9114],
[103.2583,41.9764],
[102.2869,42.1063],
[102.32,42.1712],
[101.8269,42.3012],
[101.8133,42.4312],
[101.5266,42.4962],
[101.5599,42.5612],
[98.918,42.5612],
[98.9504,42.6262],
[97.092,42.7563],
[96.9966,42.5612]
]
],
[
[
[108.6382,18.5434],
[108.7646,18.4148],
[109.1233,18.3505],
[109.2497,18.2219],
[109.8406,18.2219],
[109.8622,18.3505],
[110.1794,18.4791],
[110.1903,18.5434],
[110.5078,18.6719],
[110.6806,19.2505],
[110.8507,19.3791],
[110.8839,19.5719],
[111.0319,19.5719],
[111.0874,19.8934],
[110.9095,20.1505],
[110.613,20.1505],
[110.591,20.022],
[110.1574,20.0862],
[109.2464,19.9577],
[109.2028,19.7005],
[108.7043,19.3791],
[108.6382,18.5434]
]
],
[
[
[120.0056,23.1077],
[120.1413,23.0434],
[120.1984,22.5934],
[120.4446,22.3363],
[120.5933,22.3363],
[120.6657,21.9505],
[120.8888,21.9505],
[121.0042,22.5291],
[121.381,22.9148],
[121.5365,23.3006],
[122.0061,25.0364],
[121.7703,25.2936],
[121.471,25.2936],
[120.9589,25.0364],
[120.9126,24.8435],
[120.5234,24.4578],
[120.3473,24.0077],
[120.1698,23.8792],
[120.1204,23.3006],
[120.0056,23.1077]
]
],
[
[
[121.9766,29.9865],
[122.2798,29.9865],
[122.2726,30.1794],
[122.045,30.1794],
[121.9766,29.9865]
]
]
]}
}
