{
"type": "Feature",
"properties": {"id":"cliopatria-sikh-empire-1836","edge_precision":"unknown","cliopatria_name":"Sikh Empire","cliopatria_from_year":1836,"cliopatria_to_year":1839,"cliopatria_area_km2":349342,"cliopatria_wikidata":"Q83572","cliopatria_wikipedia":"Sikh Empire"},
"geometry": {"type": "MultiPolygon", "coordinates": [
[
[
[68.5727,27.9938],
[68.768,27.8009],
[69.0693,27.8009],
[69.4979,28.1224],
[69.6487,28.1224],
[70.7613,28.8938],
[70.8712,29.0867],
[71.1096,29.1509],
[71.1329,29.2795],
[71.9132,29.4081],
[72.24,29.5366],
[72.6171,29.9223],
[73.9205,30.3722],
[73.9469,30.5007],
[74.7812,31.2076],
[75.39,31.2076],
[75.576,31.0148],
[76.4887,31.0148],
[76.3794,31.2076],
[76.4989,31.4005],
[76.3904,31.5933],
[76.6021,31.8503],
[76.8609,31.9789],
[77.2425,31.9789],
[77.2729,32.1074],
[77.5327,32.236],
[77.8228,32.1717],
[77.9458,32.3645],
[78.0986,32.3645],
[78.1438,32.236],
[78.4807,32.3645],
[78.6628,33.3931],
[78.5861,33.3931],
[78.7202,33.9075],
[78.9251,34.1004],
[78.9423,34.1647],
[79.0192,34.1647],
[79.0115,34.422],
[78.1737,34.7436],
[78.2437,35.001],
[78.1665,35.001],
[78.0587,35.4514],
[77.5593,35.3227],
[76.8798,34.8079],
[76.8027,34.8079],
[75.5623,34.4863],
[75.3038,34.6793],
[75.2767,34.8723],
[74.8743,34.8079],
[74.5823,34.8723],
[74.4777,35.0653],
[74.1688,35.0653],
[73.965,34.8723],
[73.6401,34.8079],
[73.4212,34.5506],
[73.0519,34.615],
[72.7715,34.1004],
[71.2174,34.3577],
[71.0793,34.1004],
[70.8034,33.9075],
[71.3731,33.7146],
[71.3432,33.5859],
[71.6353,33.5217],
[71.8207,33.3288],
[71.7911,33.2002],
[71.2297,32.7502],
[71.0682,32.3645],
[70.4569,32.3645],
[70.3528,32.236],
[70.0336,32.1717],
[69.9165,31.9789],
[69.9929,31.9789],
[69.9757,31.529],
[70.1148,31.4647],
[70.0367,31.0791],
[70.1127,31.0791],
[69.8593,30.565],
[69.9352,30.565],
[69.8857,30.3079],
[70.1011,30.2436],
[69.8768,29.858],
[69.7134,29.7937],
[69.6548,29.4723],
[69.7946,29.4081],
[69.8357,29.2152],
[69.6281,28.8938],
[69.477,28.8938],
[69.3465,28.5724],
[68.6038,28.1867],
[68.5727,27.9938]
]
]
]}
}
