{
"type": "Feature",
"properties": {"id":"cliopatria-duchy-of-silesia-1139","edge_precision":"unknown","cliopatria_name":"Duchy of Silesia","cliopatria_from_year":1139,"cliopatria_to_year":1146,"cliopatria_area_km2":121774,"cliopatria_wikidata":"Q568638","cliopatria_wikipedia":"Duchy of Silesia","cliopatria_seshat_id":"pl_piast_dyn_2","cliopatria_member_of":"(Duchies of Poland)"},
"geometry": {"type": "MultiPolygon", "coordinates": [
[
[
[14.0415,52.8554],
[14.5486,52.6535],
[14.4565,52.4519],
[14.4543,52.3847],
[14.9566,52.1163],
[14.9519,51.9822],
[14.6072,51.8481],
[14.6007,51.6472],
[14.7638,51.4465],
[14.9333,51.4465],
[15.1947,51.6472],
[15.5342,51.6472],
[15.529,51.5134],
[15.6932,51.3797],
[15.6801,51.0457],
[15.9309,50.9789],
[15.9202,50.7121],
[17.0843,50.3791],
[17.162,50.246],
[17.5787,50.1795],
[17.656,50.0465],
[18.3234,49.98],
[18.3162,49.8471],
[18.7164,49.5152],
[19.1304,49.4489],
[19.4725,49.5816],
[19.8655,49.1838],
[20.2119,49.3826],
[20.9587,49.3163],
[21.3857,49.4489],
[21.9911,49.7143],
[21.5143,50.0465],
[21.5246,50.1795],
[21.288,50.3791],
[21.0358,50.3791],
[20.8925,50.7121],
[20.2089,50.5789],
[20.585,51.1124],
[20.172,51.246],
[19.6923,51.6472],
[19.3574,51.7142],
[19.2056,51.9822],
[19.0355,51.9822],
[19.1433,52.3176],
[19.4039,52.3847],
[19.423,52.6535],
[19.0996,52.9227],
[18.9282,52.9227],
[18.6892,53.1922],
[18.5174,53.1922],
[18.5263,53.3271],
[18.9657,53.4621],
[19.0614,53.5971],
[19.4921,53.5971],
[19.4972,53.6647],
[19.411,53.6647],
[19.4211,53.7999],
[19.3348,53.7999],
[19.3398,53.8676],
[19.2685,54.0706],
[19.355,54.0706],
[19.4622,54.3417],
[18.6869,54.4095],
[18.4453,54.6811],
[18.4595,54.8851],
[17.5017,54.8851],
[17.4892,54.6811],
[17.5761,54.6811],
[17.5347,54.0029],
[17.7773,53.7323],
[17.7649,53.5296],
[16.9038,53.5296],
[16.7245,53.3946],
[16.7963,53.1248],
[17.0465,52.99],
[16.8645,52.7881],
[17.3484,52.2505],
[17.5189,52.2505],
[17.5152,52.1833],
[17.6818,52.1163],
[17.6743,51.9822],
[17.8367,51.8481],
[17.7405,51.6472],
[17.9026,51.5134],
[17.8914,51.3128],
[17.0516,51.4465],
[16.9768,51.6472],
[16.719,51.5803],
[16.219,51.7811],
[16.0608,52.0492],
[15.4676,52.1163],
[15.3904,52.3176],
[14.9688,52.4519],
[15.0642,52.7208],
[14.7315,52.99],
[14.4766,53.0574],
[14.4811,53.1922],
[14.2235,53.1922],
[14.0476,53.0574],
[14.0415,52.8554]
]
]
]}
}
