{
"type": "Feature",
"properties": {"id":"cliopatria-jibei-207bce","edge_precision":"unknown","cliopatria_name":"Jibei","cliopatria_from_year":-206,"cliopatria_to_year":-204,"cliopatria_area_km2":44560,"cliopatria_wikidata":"Q5349053","cliopatria_wikipedia":"Eighteen Kingdoms","cliopatria_member_of":"(Eighteen Kingdoms)"},
"geometry": {"type": "MultiPolygon", "coordinates": [
[
[
[115.4713,36.2884],
[115.6265,36.2884],
[115.5977,36.224],
[115.6753,36.224],
[117.2123,36.8682],
[118.0379,36.8037],
[119.1088,37.2549],
[119.14,37.3193],
[118.984,37.3193],
[119.2366,37.8352],
[119.3147,37.8352],
[119.4571,37.9643],
[119.1766,38.0288],
[119.2089,38.0933],
[118.7718,38.1578],
[118.8042,38.2224],
[118.6476,38.2224],
[118.583,38.0933],
[118.0674,38.1578],
[118.0536,38.2869],
[117.7727,38.3515],
[117.7592,38.4806],
[117.6808,38.4806],
[117.2848,38.1578],
[117.253,38.0933],
[116.6423,37.9643],
[116.127,37.7062],
[115.5117,37.0615],
[115.5194,36.7393],
[115.5972,36.7393],
[115.4713,36.2884]
]
]
]}
}
