{
"type": "Feature",
"properties": {"id":"cliopatria-eastern-chagatai-khanate-1492","edge_precision":"unknown","cliopatria_name":"Eastern Chagatai Khanate","cliopatria_from_year":1492,"cliopatria_to_year":1501,"cliopatria_area_km2":302997,"cliopatria_wikidata":"Q1191125","cliopatria_wikipedia":"Moghulistan"},
"geometry": {"type": "MultiPolygon", "coordinates": [
[
[
[71.3909,41.6518],
[71.7675,41.5869],
[71.7244,41.4571],
[72.1006,41.3922],
[72.7662,41.0032],
[72.8455,41.0032],
[72.9828,40.9384],
[72.94,40.8088],
[73.1779,40.8088],
[73.2145,40.6792],
[73.373,40.6792],
[73.4677,40.4849],
[73.626,40.4849],
[73.858,40.2259],
[73.8162,40.0964],
[73.9533,40.0317],
[73.8502,39.7083],
[73.929,39.7083],
[73.6903,39.4496],
[73.6104,39.1911],
[73.6891,39.1911],
[73.6496,39.0618],
[73.787,38.9972],
[73.7283,38.8034],
[73.8068,38.8034],
[73.7874,38.7389],
[73.9647,38.5451],
[75.3001,39.0618],
[76.1733,39.5789],
[77.3124,40.6144],
[78.7746,41.5869],
[80.1424,42.0413],
[80.2872,42.8213],
[80.4734,42.8864],
[80.4711,43.0816],
[80.6317,43.0816],
[80.7907,43.2769],
[80.6825,43.4072],
[80.7354,43.5375],
[80.3572,43.9938],
[80.3832,44.4507],
[80.3023,44.4507],
[80.4103,44.7119],
[79.9238,44.908],
[80.2488,45.1042],
[80.9264,45.1696],
[81.1443,45.3004],
[80.9833,45.4968],
[80.8204,45.4968],
[80.7945,45.6278],
[79.9,46.0209],
[79.8737,46.1521],
[79.4383,46.2833],
[79.4661,46.3489],
[79.0024,46.4145],
[78.9748,46.3489],
[77.8016,46.2833],
[77.8287,46.3489],
[77.3644,46.4145],
[77.3914,46.4802],
[75.5069,46.4802],
[75.5332,46.5459],
[75.3168,46.4145],
[75.2349,46.4145],
[75.5437,45.9554],
[75.707,45.9554],
[76.1523,45.4313],
[76.1007,45.3004],
[76.4341,44.908],
[76.4128,44.6466],
[76.4938,44.6466],
[76.4428,44.516],
[76.5237,44.516],
[76.4728,44.3854],
[76.5537,44.3854],
[76.5029,44.2548],
[76.6139,44.1243],
[76.3325,43.6027],
[75.2925,42.7563],
[74.3972,42.4962],
[74.2707,42.3662],
[73.9508,42.3662],
[73.9048,42.2362],
[73.6651,42.2362],
[73.0954,41.9764],
[71.5935,41.7816],
[71.3909,41.6518]
]
]
]}
}
