{
"type": "Feature",
"properties": {"id":"cliopatria-huns-0371","edge_precision":"unknown","cliopatria_name":"Huns","cliopatria_from_year":371,"cliopatria_to_year":372,"cliopatria_area_km2":325550,"cliopatria_wikidata":"Q45813","cliopatria_wikipedia":"Huns"},
"geometry": {"type": "MultiPolygon", "coordinates": [
[
[
[37.9338,44.7119],
[38.0149,44.7119],
[38.2153,44.4507],
[38.8301,44.2548],
[39.1865,44.4507],
[39.6024,44.516],
[40.3196,44.4507],
[41.0142,44.7119],
[41.3265,44.6466],
[42.5667,44.7773],
[43.1524,44.4507],
[43.1273,44.3201],
[43.4004,44.0591],
[43.3753,43.9286],
[44.076,43.7982],
[44.1311,43.6678],
[44.7886,43.733],
[45.0849,43.6027],
[45.6079,43.7982],
[45.9304,43.7982],
[46.2937,43.9938],
[46.2665,43.8634],
[46.7505,43.8634],
[47.0569,43.4072],
[47.4453,43.3421],
[47.3431,43.9938],
[47.0093,44.3201],
[46.6327,44.4507],
[46.6885,44.7119],
[47.0411,44.8426],
[47.0979,45.1042],
[47.2891,45.235],
[47.3323,45.4313],
[47.4807,45.3659],
[47.5388,45.6278],
[47.4573,45.6278],
[47.568,45.7588],
[48.0574,45.7588],
[48.3471,45.9554],
[48.5921,45.9554],
[48.6376,46.1521],
[49.0618,46.2177],
[49.3032,46.5459],
[49.9908,46.6772],
[50.3016,46.9401],
[50.8442,47.1374],
[51.5846,47.1374],
[51.8145,47.0716],
[51.8629,46.9401],
[53.1128,47.0058],
[53.2423,46.8743],
[53.1902,46.6772],
[53.2723,46.6772],
[53.268,46.3489],
[53.3499,46.3489],
[53.2474,45.9554],
[53.0671,45.8898],
[53.0646,45.5623],
[53.4214,45.3659],
[53.6656,45.3659],
[53.8794,45.5623],
[54.2868,45.5623],
[54.5602,46.2833],
[54.4784,46.2833],
[54.5207,46.7429],
[53.6843,47.5982],
[53.243,47.7959],
[52.0212,47.8619],
[49.9712,47.5982],
[49.5761,47.3348],
[49.4114,47.3348],
[48.7093,46.8086],
[48.3808,46.8086],
[47.7009,46.3489],
[47.4553,46.3489],
[46.9326,46.9401],
[46.7683,46.9401],
[46.431,47.269],
[46.6556,47.5323],
[46.3406,47.5982],
[45.7316,48.1917],
[44.9624,48.4559],
[43.8693,48.3899],
[43.2199,48.4559],
[42.9991,48.5881],
[42.833,48.5881],
[42.1429,48.0597],
[41.9774,48.0597],
[42.0335,47.9278],
[41.7722,47.8619],
[41.5678,47.6641],
[39.7977,47.4665],
[39.7153,47.4665],
[39.7374,47.1374],
[39.5492,47.0058],
[39.5138,46.8086],
[39.3379,46.7429],
[39.2915,46.4802],
[39.0819,46.2177],
[39.0705,46.1521],
[38.3879,45.4968],
[38.1173,44.8426],
[37.9338,44.7119]
]
],
[
[
[44.6822,43.6027],
[44.7627,43.6027],
[44.7757,43.6678],
[44.6951,43.6678],
[44.6822,43.6027]
]
],
[
[
[53.084,45.9554],
[53.1657,45.9554],
[53.1827,46.0209],
[53.101,46.0209],
[53.084,45.9554]
]
]
]}
}
