{
"type": "Feature",
"properties": {"id":"cliopatria-sumerian-city-states-2001bce","edge_precision":"unknown","cliopatria_name":"Sumerian City-States","cliopatria_from_year":-2000,"cliopatria_to_year":-1801,"cliopatria_area_km2":53983,"cliopatria_wikidata":"Q2345840","cliopatria_wikipedia":"History of Sumer"},
"geometry": {"type": "MultiPolygon", "coordinates": [
[
[
[44.1636,32.943],
[44.1926,32.5574],
[44.3377,32.4931],
[44.322,32.3645],
[44.712,32.4288],
[44.8333,32.1717],
[45.0624,32.1717],
[45.1836,31.9146],
[45.3968,31.7861],
[45.305,31.6575],
[45.4497,31.5933],
[45.3812,31.0148],
[45.7705,30.4364],
[46.5906,30.3079],
[46.6965,30.565],
[47.2358,30.6292],
[47.2513,30.7578],
[47.9511,30.8863],
[48.0271,30.8863],
[47.807,30.9506],
[47.6951,31.2719],
[47.2625,31.4647],
[47.1345,31.6575],
[46.982,31.6575],
[46.8539,31.8503],
[46.4806,31.9146],
[46.4452,32.236],
[46.3688,32.236],
[46.5375,32.943],
[46.3844,32.943],
[46.1631,33.0073],
[46.1292,33.3288],
[45.8991,33.3288],
[45.4654,32.943],
[44.9457,33.0716],
[44.7487,33.3288],
[44.5871,33.2645],
[44.579,33.2002],
[44.4256,33.2002],
[44.1636,32.943]
]
],
[
[
[48.0191,30.822],
[48.0951,30.822],
[48.1031,30.8863],
[48.0271,30.8863],
[48.0191,30.822]
]
]
]}
}
