{
"type": "Feature",
"properties": {"id":"cliopatria-dutch-republic-1595","edge_precision":"unknown","cliopatria_name":"Dutch Republic","cliopatria_from_year":1595,"cliopatria_to_year":1599,"cliopatria_area_km2":32527,"cliopatria_wikidata":"Q170072","cliopatria_wikipedia":"Dutch Republic","cliopatria_member_of":"(Dutch Republic)"},
"geometry": {"type": "MultiPolygon", "coordinates": [
[
[
[2.9087,51.3128],
[2.9161,51.1792],
[3.3424,51.1124],
[3.42,51.246],
[4.0123,51.246],
[4.3417,51.4465],
[5.1043,51.4465],
[5.1813,51.6472],
[5.5135,51.8481],
[5.5889,52.1163],
[6.3553,52.1163],
[6.6051,52.3176],
[6.6033,52.3847],
[6.6886,52.3847],
[6.6867,52.4519],
[6.8575,52.4519],
[6.8593,52.3847],
[6.9446,52.3847],
[7.1974,52.5191],
[7.0182,52.8554],
[7.1847,53.0574],
[7.1799,53.2596],
[7.0939,53.2596],
[6.7429,53.5296],
[5.5423,53.3946],
[5.2089,53.1248],
[5.3857,52.99],
[5.3908,52.8554],
[5.1366,52.7881],
[5.0564,52.6535],
[4.7855,52.99],
[4.8628,53.1922],
[4.691,53.1922],
[4.6081,53.1248],
[4.7027,52.9227],
[4.5343,52.8554],
[4.4638,52.5191],
[4.2169,52.3176],
[4.2232,52.1833],
[3.974,52.0492],
[3.9805,51.9151],
[3.8104,51.9151],
[3.817,51.7811],
[3.6471,51.7811],
[3.7387,51.6472],
[3.3993,51.6472],
[3.4062,51.5134],
[3.7486,51.4465],
[3.1555,51.4465],
[2.9934,51.3128],
[2.9087,51.3128]
]
],
[
[
[4.7997,44.1243],
[5.0399,44.1896],
[4.9569,44.2548],
[4.8761,44.2548],
[4.7997,44.1243]
]
]
]}
}
