{
"type": "Feature",
"properties": {"id":"cliopatria-grand-duchy-of-saxe-weimar-eisenach-1806","edge_precision":"unknown","cliopatria_name":"Grand Duchy of Saxe-Weimar-Eisenach","cliopatria_from_year":1806,"cliopatria_to_year":1806,"cliopatria_area_km2":2289,"cliopatria_wikidata":"Q155570","cliopatria_wikipedia":"Saxe-Weimar-Eisenach"},
"geometry": {"type": "MultiPolygon", "coordinates": [
[
[
[9.7674,50.8455],
[9.7677,50.7788],
[10.0207,50.7788],
[10.4423,50.9122],
[10.4423,50.9789],
[10.3578,50.9789],
[10.3578,51.1124],
[10.1041,51.1792],
[10.0195,51.1792],
[9.9359,50.9122],
[9.7674,50.8455]
]
],
[
[
[10.8643,50.9122],
[11.3706,50.9122],
[11.3711,50.9789],
[11.4555,50.9789],
[11.4561,51.0457],
[11.2871,51.0457],
[11.2038,51.246],
[10.8651,51.1792],
[10.8647,51.0457],
[10.8643,50.9122]
]
]
]}
}
