{
"type": "Feature",
"properties": {"id":"cliopatria-republic-of-nicaragua-2024","edge_precision":"unknown","cliopatria_name":"Republic of Nicaragua","cliopatria_from_year":2024,"cliopatria_to_year":2024,"cliopatria_area_km2":132580,"cliopatria_wikidata":"Q811","cliopatria_wikipedia":"Nicaragua"},
"geometry": {"type": "MultiPolygon", "coordinates": [
[
[
[-87.6611,13.0789],
[-87.5482,12.6932],
[-86.924,12.3074],
[-86.5833,11.7931],
[-85.8796,11.2788],
[-85.7903,11.086],
[-85.7171,11.086],
[-85.3565,11.1503],
[-85.1213,10.9574],
[-84.4679,11.0217],
[-83.9305,10.7003],
[-83.5746,10.8288],
[-83.5796,10.8931],
[-83.8301,11.2788],
[-83.5697,11.6646],
[-83.5864,11.8574],
[-83.7386,11.9217],
[-83.6035,12.0503],
[-83.651,12.5646],
[-83.5105,12.6289],
[-83.3951,12.9503],
[-83.434,13.336],
[-83.4677,13.6575],
[-83.0906,14.2361],
[-83.3048,14.8147],
[-83.092,14.8789],
[-83.0997,14.9432],
[-83.5408,14.9432],
[-84.3105,14.6218],
[-84.9137,14.7504],
[-85.111,14.5575],
[-85.0958,14.4289],
[-85.6904,13.8503],
[-86.1453,13.9789],
[-86.2704,13.7861],
[-86.6374,13.7861],
[-86.6615,13.336],
[-86.8083,13.336],
[-86.9945,13.0146],
[-87.2811,12.9503],
[-87.3544,12.9503],
[-87.4411,13.0789],
[-87.6611,13.0789]
]
]
]}
}
