{
"type": "Feature",
"properties": {"id":"cliopatria-kingdom-of-great-britain-1905","edge_precision":"unknown","cliopatria_name":"Kingdom of Great Britain","cliopatria_from_year":1905,"cliopatria_to_year":1912,"cliopatria_area_km2":745445,"cliopatria_wikidata":"Q23666","cliopatria_wikipedia":"Great Britain","cliopatria_seshat_id":"gb_british_emp_2","cliopatria_member_of":"(British Empire)"},
"geometry": {"type": "MultiPolygon", "coordinates": [
[
[
[-10.5281,52.2505],
[-10.5067,52.1163],
[-10.2512,52.1163],
[-10.4854,51.9822],
[-10.4538,51.7811],
[-10.1886,51.7142],
[-10.168,51.5803],
[-9.9237,51.6472],
[-9.8085,51.4465],
[-9.6391,51.4465],
[-8.4811,51.6472],
[-8.4151,51.7811],
[-8.0753,51.7811],
[-7.6112,52.1163],
[-6.4275,52.1833],
[-6.2317,52.6535],
[-6.1461,52.6535],
[-6.172,52.8554],
[-6.0863,52.8554],
[-6.1471,53.3271],
[-6.2419,53.3946],
[-6.0875,53.5296],
[-6.2865,53.7323],
[-6.3316,54.0706],
[-5.8991,54.0706],
[-5.588,54.3417],
[-5.5013,54.3417],
[-5.4407,54.5453],
[-5.5275,54.5453],
[-5.554,54.7491],
[-5.7279,54.7491],
[-6.1497,55.2936],
[-7.0135,55.2255],
[-7.1206,55.3618],
[-7.82,55.3618],
[-7.8867,55.2255],
[-8.4106,55.2255],
[-8.5639,55.0892],
[-8.5321,54.8851],
[-8.8696,54.8171],
[-8.8375,54.6132],
[-8.3163,54.6132],
[-8.6427,54.4774],
[-8.698,54.2739],
[-9.4995,54.4095],
[-10.0841,54.2739],
[-9.8336,53.7999],
[-10.0062,53.7999],
[-9.9842,53.6647],
[-10.2318,53.5971],
[-10.2097,53.4621],
[-9.3826,53.1248],
[-9.4684,53.1248],
[-9.4371,52.9227],
[-9.7483,52.7208],
[-9.7273,52.5863],
[-9.9732,52.5191],
[-9.9418,52.3176],
[-10.5281,52.2505]
]
],
[
[
[-7.5973,57.3509],
[-7.4655,57.0751],
[-7.2881,57.0751],
[-7.3198,57.2819],
[-7.231,57.2819],
[-7.2522,57.4199],
[-7.5973,57.3509]
]
],
[
[
[-7.5625,57.6962],
[-7.4409,57.4889],
[-7.1058,57.6271],
[-7.1165,57.6962],
[-7.5625,57.6962]
]
],
[
[
[-7.2812,58.181],
[-7.0698,57.9731],
[-7.1271,57.7654],
[-6.5228,57.9038],
[-6.3851,58.181],
[-6.2059,58.181],
[-6.2573,58.5282],
[-6.786,58.4587],
[-6.7647,58.3198],
[-6.8544,58.3198],
[-7.2812,58.181]
]
],
[
[
[-6.8176,57.4889],
[-6.7969,57.3509],
[-6.619,57.3509],
[-6.4109,57.144],
[-6.0558,57.144],
[-5.9476,57.0063],
[-5.909,56.7311],
[-6.3414,56.6623],
[-6.2334,56.525],
[-6.2925,56.3191],
[-5.6849,56.3877],
[-5.6569,56.1821],
[-5.921,56.1821],
[-6.0685,55.9766],
[-6.5079,55.9766],
[-6.6347,55.6348],
[-6.3815,55.7031],
[-6.3623,55.5665],
[-6.1872,55.5665],
[-6.1279,55.7715],
[-5.9524,55.7715],
[-5.8927,55.9766],
[-5.8049,55.9766],
[-5.6893,55.7715],
[-5.9152,55.4983],
[-5.8876,55.2936],
[-5.6255,55.2936],
[-5.5742,55.5665],
[-5.3812,55.43],
[-5.1188,55.43],
[-5.1629,55.7715],
[-5.4261,55.7715],
[-5.4442,55.9082],
[-4.9963,55.8398],
[-4.9787,55.7031],
[-4.7947,55.6348],
[-4.7689,55.43],
[-5.1711,55.1573],
[-5.1537,55.0211],
[-5.328,55.0211],
[-5.2061,54.7491],
[-4.9367,54.6811],
[-4.9537,54.8171],
[-4.4233,54.7491],
[-3.5691,54.8851],
[-3.7198,54.6811],
[-3.5868,54.2739],
[-3.3194,54.2061],
[-3.3045,54.0706],
[-2.9658,54.1384],
[-3.196,53.8676],
[-3.0952,53.7323],
[-3.1525,53.4621],
[-3.3174,53.3946],
[-4.1621,53.2596],
[-4.2713,53.4621],
[-4.7017,53.4621],
[-4.6697,53.1922],
[-4.4901,53.1248],
[-4.8095,52.9227],
[-4.7937,52.7881],
[-4.2953,52.9227],
[-4.1567,52.4519],
[-4.3901,52.2505],
[-4.8938,52.1833],
[-5.2959,51.9822],
[-5.2643,51.7142],
[-5.079,51.5803],
[-4.4152,51.7142],
[-4.3083,51.5134],
[-3.8915,51.5803],
[-3.7008,51.3797],
[-3.2774,51.3797],
[-3.1214,51.5134],
[-2.9452,51.4465],
[-3.108,51.3797],
[-3.0946,51.246],
[-4.2017,51.3128],
[-4.4264,51.0457],
[-4.6799,51.0457],
[-4.6578,50.8455],
[-4.8191,50.7788],
[-4.8812,50.5789],
[-5.1338,50.5789],
[-5.2796,50.3791],
[-5.7686,50.246],
[-5.7456,50.0465],
[-5.1511,49.98],
[-4.9287,50.246],
[-4.3548,50.3791],
[-4.1866,50.3791],
[-4.0887,50.246],
[-3.5847,50.246],
[-3.4566,50.6455],
[-3.1262,50.7121],
[-2.7891,50.7121],
[-2.608,50.5789],
[-1.525,50.7121],
[-1.5134,50.5789],
[-1.1766,50.5789],
[-1.1092,50.7788],
[-1.3678,50.8455],
[0.4929,50.7788],
[1.3138,51.1124],
[1.3806,51.3797],
[0.5239,51.5134],
[0.863,51.5134],
[0.8439,51.7811],
[1.1837,51.7811],
[1.1698,51.9822],
[1.425,51.9822],
[1.5863,52.1163],
[1.6537,52.3847],
[1.739,52.3847],
[1.6222,52.8554],
[1.0938,53.0574],
[0.4933,53.0574],
[0.3375,52.8554],
[0.1662,52.8554],
[0.0698,52.99],
[0.3165,53.1248],
[0.2953,53.3946],
[0.0208,53.5971],
[0.0043,53.7999],
[-0.1796,53.9352],
[-0.2024,54.2061],
[-0.6714,54.6132],
[-1.286,54.6811],
[-1.3989,54.9531],
[-1.486,54.9531],
[-1.5192,55.2936],
[-1.6065,55.2936],
[-1.7348,55.7031],
[-2.019,55.9082],
[-2.6563,56.1136],
[-3.2643,56.0451],
[-3.1039,56.1821],
[-2.6713,56.2506],
[-2.79,56.525],
[-2.5326,56.5937],
[-2.2087,56.8686],
[-2.0757,57.2819],
[-1.8236,57.4199],
[-1.8529,57.6962],
[-3.7349,57.7654],
[-3.7264,57.6962],
[-3.994,57.6962],
[-3.9308,57.9038],
[-4.1184,57.9731],
[-3.4282,58.181],
[-3.0214,58.5282],
[-3.1364,58.7369],
[-3.6768,58.7369],
[-4.0191,58.5977],
[-5.198,58.6673],
[-5.169,58.4587],
[-5.2588,58.4587],
[-5.2395,58.3198],
[-5.4189,58.3198],
[-5.4599,57.9731],
[-5.7282,57.9731],
[-5.8872,57.8346],
[-5.9173,57.4199],
[-5.7296,57.3509],
[-5.7007,57.144],
[-5.8088,57.2819],
[-6.0853,57.3509],
[-6.1151,57.558],
[-6.3237,57.7654],
[-6.5022,57.7654],
[-6.4715,57.558],
[-6.8176,57.4889]
]
],
[
[
[-5.5162,36.1596],
[-5.3611,36.1596],
[-5.2924,36.2884],
[-5.2969,36.3528],
[-5.5162,36.1596]
]
],
[
[
[-4.8613,54.0706],
[-4.3584,54.2061],
[-4.3826,54.4095],
[-4.8079,54.3417],
[-4.7996,54.2739],
[-4.8613,54.0706]
]
],
[
[
[-3.5314,59.0155],
[-3.4152,58.8065],
[-3.0631,58.8761],
[-2.7926,58.8761],
[-2.8091,59.0155],
[-3.0884,59.0853],
[-3.1959,59.2249],
[-3.3768,59.2249],
[-3.4411,59.0155],
[-3.5314,59.0155]
]
],
[
[
[-2.8423,59.2947],
[-2.8257,59.1551],
[-2.6449,59.1551],
[-2.6531,59.2249],
[-2.5626,59.2249],
[-2.579,59.3646],
[-2.8423,59.2947]
]
],
[
[
[-1.6746,60.2058],
[-1.2032,60.0653],
[-1.1417,60.3465],
[-1.0503,60.3465],
[-1.1642,60.5577],
[-0.8051,60.6282],
[-0.8271,60.8399],
[-1.2787,60.7693],
[-1.2558,60.5577],
[-1.3475,60.5577],
[-1.3628,60.6987],
[-1.6301,60.6282],
[-1.6746,60.2058]
]
],
[
[
[14.3368,35.8377],
[14.5682,35.7733],
[14.5712,35.9664],
[14.4171,36.0308],
[14.3396,36.0308],
[14.3368,35.8377]
]
],
[
[
[32.229,34.9366],
[32.3667,34.7436],
[33.0436,34.5506],
[33.1321,34.6793],
[33.5234,34.7436],
[33.6954,34.9366],
[34.0873,35.001],
[33.9571,35.2584],
[34.5294,35.5802],
[34.5421,35.7089],
[34.3098,35.7089],
[33.7374,35.3871],
[32.8869,35.3871],
[32.8752,35.2584],
[32.5547,35.1297],
[32.2458,35.1297],
[32.229,34.9366]
]
],
[
[
[43.5852,12.6932],
[43.6585,12.6932],
[44.3886,12.6289],
[44.6143,12.7575],
[45.0541,12.7575],
[45.7411,13.336],
[47.0679,13.4646],
[47.668,13.7218],
[47.7515,13.9146],
[48.7861,14.0432],
[49.4098,14.6861],
[50.2256,14.8147],
[50.7557,15.0718],
[51.2743,15.1361],
[51.883,15.4575],
[52.1037,15.4575],
[52.2592,15.5861],
[52.3803,16.2933],
[53.213,16.6147],
[53.2267,16.8076],
[53.0332,17.1933],
[52.8258,17.3862],
[52.8304,17.4505],
[52.13,18.9934],
[51.6862,18.9934],
[51.3811,18.8648],
[49.0757,18.6719],
[48.3152,18.3505],
[48.007,18.1576],
[47.5143,17.3862],
[47.5021,17.1933],
[47.3546,17.1933],
[47.3465,17.0647],
[47.0516,17.0647],
[46.9501,16.6147],
[46.6245,16.1004],
[46.4735,16.0361],
[46.3811,15.7147],
[45.6131,15.1361],
[45.5958,14.8147],
[46.1598,14.3646],
[45.9963,14.0432],
[45.7696,13.9146],
[45.5558,14.0432],
[45.1823,13.9146],
[45.023,13.6575],
[44.4268,13.4646],
[44.3445,13.2718],
[43.8252,13.1432],
[43.5937,12.886],
[43.5852,12.6932]
]
],
[
[
[50.4299,25.9365],
[50.6487,25.8722],
[50.6852,26.258],
[50.4602,26.258],
[50.4299,25.9365]
]
],
[
[
[51.6778,23.9435],
[52.6352,22.8506],
[54.8432,22.5291],
[55.1409,22.5291],
[55.2257,22.6577],
[55.3002,22.6577],
[55.3535,23.3006],
[55.6103,23.6863],
[55.5583,23.9435],
[56.0177,24.072],
[55.8232,24.3935],
[55.8595,24.7792],
[55.9529,24.9721],
[56.0962,24.9078],
[56.0838,24.7792],
[56.2333,24.7792],
[56.4016,24.9721],
[56.408,25.0364],
[56.4957,25.165],
[56.4208,25.165],
[56.4603,25.5507],
[56.3854,25.5507],
[56.3921,25.615],
[56.249,25.6793],
[56.2831,26.0008],
[56.0651,26.0651],
[56.0582,26.0008],
[55.6431,25.615],
[55.4119,25.5507],
[55.1427,25.1007],
[54.7442,24.8435],
[54.5591,24.4578],
[54.3178,24.2649],
[54.0995,24.3292],
[54.0825,24.1363],
[53.112,24.1363],
[52.6003,24.2649],
[52.2801,24.0077],
[51.907,24.0077],
[51.8535,24.2649],
[51.7042,24.2649],
[51.6778,23.9435]
]
]
]}
}
