{
"type": "Feature",
"properties": {"id":"cliopatria-abbasid-caliphate-0884","edge_precision":"unknown","cliopatria_name":"Abbasid Caliphate","cliopatria_from_year":884,"cliopatria_to_year":885,"cliopatria_area_km2":5035248,"cliopatria_wikidata":"Q12536","cliopatria_wikipedia":"Abbasid Caliphate","cliopatria_seshat_id":"iq_abbasid_cal_1"},
"geometry": {"type": "MultiPolygon", "coordinates": [
[
[
[34.6594,36.8682],
[34.8929,36.8682],
[34.9504,36.6749],
[35.1127,36.7393],
[35.3323,36.6105],
[35.4877,36.6105],
[35.8336,36.9326],
[36.1449,36.9326],
[36.2084,36.8037],
[36.9085,36.8037],
[37.1975,36.6105],
[38.1302,36.6105],
[39.6986,36.0952],
[40.0157,35.5158],
[40.0391,35.0653],
[39.3956,34.1647],
[38.5503,33.4574],
[38.3567,33.0716],
[37.1908,32.1074],
[36.9202,31.6575],
[36.762,31.5933],
[36.3899,30.822],
[35.79,29.9865],
[35.4803,28.8938],
[35.0492,28.1224],
[35.0449,28.0581],
[35.1956,28.0581],
[35.4087,27.8652],
[35.4669,27.6081],
[35.6132,27.5438],
[35.6717,27.2866],
[36.1649,26.7723],
[36.4291,26.1937],
[36.7173,26.0008],
[36.773,25.6793],
[37.2707,25.2293],
[37.3308,24.9721],
[37.1776,24.9078],
[37.1705,24.7792],
[37.3876,24.6506],
[37.4448,24.3292],
[38.0318,24.1363],
[38.6011,23.622],
[38.8688,23.0434],
[38.8589,22.8506],
[39.1402,22.5291],
[39.0271,21.7577],
[39.1693,21.6291],
[39.147,21.1791],
[39.3506,20.7934],
[39.8439,20.2791],
[40.1404,20.2791],
[40.5616,19.8291],
[40.851,19.7005],
[40.8408,19.5077],
[40.9854,19.4434],
[41.0421,19.1219],
[41.2501,18.8648],
[41.2361,18.6076],
[41.4508,18.4791],
[41.5775,18.0933],
[42.1362,17.5148],
[42.21,17.5148],
[42.6635,17.7076],
[42.977,18.0291],
[43.5051,18.2219],
[43.8934,18.5434],
[44.0923,18.1576],
[44.081,17.9648],
[44.3536,17.579],
[44.3385,17.3219],
[44.5485,17.129],
[44.6697,16.679],
[45.2257,16.1004],
[45.2147,15.9076],
[46.0206,15.8433],
[46.1753,15.9718],
[46.3961,15.9718],
[46.3811,15.7147],
[46.1494,15.5218],
[46.5062,15.329],
[47.5284,15.2004],
[47.5945,15.0718],
[48.0283,14.9432],
[49.1233,14.8147],
[49.4098,14.6861],
[49.4832,14.6861],
[50.45,14.8789],
[50.7557,15.0718],
[51.2743,15.1361],
[51.883,15.4575],
[52.1037,15.4575],
[52.2592,15.5861],
[52.3803,16.2933],
[53.1348,16.5504],
[53.2175,16.679],
[53.586,16.679],
[54.1989,17.0005],
[55.1574,17.0005],
[55.3145,17.129],
[55.3487,17.579],
[55.5899,17.8362],
[56.407,17.9005],
[56.6438,18.0933],
[56.7536,18.5434],
[56.9961,18.8005],
[57.82,18.9291],
[57.9204,19.2505],
[57.7936,19.5077],
[57.9308,20.2791],
[58.1002,20.5362],
[58.2485,20.5362],
[58.3068,20.3434],
[58.6086,20.4077],
[58.7997,20.922],
[59.437,21.4363],
[59.864,22.0791],
[59.9039,22.5291],
[59.5432,22.6577],
[59.2684,22.9148],
[59.2801,23.0434],
[59.0682,23.172],
[59.08,23.3006],
[58.8115,23.622],
[57.4927,23.8792],
[56.7881,24.3292],
[56.5449,24.9078],
[56.4016,24.9721],
[56.4957,25.165],
[56.4208,25.165],
[56.4603,25.5507],
[56.3854,25.5507],
[56.5433,26.3222],
[56.4754,26.3865],
[56.1682,26.3222],
[55.9696,25.8722],
[55.4119,25.5507],
[55.1427,25.1007],
[54.7442,24.8435],
[54.5591,24.4578],
[54.3178,24.2649],
[54.0995,24.3292],
[54.0825,24.1363],
[53.112,24.1363],
[52.6003,24.2649],
[52.2801,24.0077],
[51.907,24.0077],
[51.8535,24.2649],
[51.4108,24.3292],
[51.5236,24.7792],
[51.69,24.9721],
[51.7188,25.2936],
[51.575,25.3579],
[51.6979,25.8722],
[51.4228,26.1294],
[51.1229,26.1294],
[50.9545,25.9365],
[50.9246,25.615],
[50.769,25.5507],
[50.7289,25.1007],
[50.6541,25.1007],
[50.6076,25.4221],
[50.3255,25.615],
[50.211,26.0008],
[50.067,26.0651],
[50.223,26.1294],
[50.2537,26.4508],
[50.116,26.5794],
[50.135,26.7723],
[49.3596,27.2866],
[49.2419,27.6081],
[48.8722,27.6724],
[48.9741,27.9295],
[48.5627,28.3153],
[48.4604,28.7652],
[48.1937,29.0867],
[48.2154,29.2795],
[48.0786,29.4081],
[47.8517,29.4081],
[47.8662,29.5366],
[48.4035,29.6009],
[48.3654,29.9223],
[48.9873,30.0508],
[48.9428,30.3079],
[49.0187,30.3079],
[49.0347,30.4364],
[48.8908,30.5007],
[48.6516,31.0148],
[48.676,31.7861],
[48.5998,31.7861],
[48.6342,32.0431],
[48.9746,32.3002],
[50.0994,32.6859],
[53.7464,33.0073],
[54.4779,33.2645],
[55.9489,34.229],
[59.5014,34.2933],
[61.9388,34.1647],
[62.8246,34.3577],
[63.4309,34.6793],
[64.0745,35.5158],
[64.2435,35.5802],
[64.3297,35.9664],
[64.6952,36.546],
[64.8318,37.126],
[65.5642,37.2549],
[65.7055,37.5128],
[66.5155,37.3193],
[66.9995,37.3838],
[67.123,37.2549],
[67.7465,37.2549],
[67.9152,36.9971],
[68.1487,36.9971],
[68.7764,37.3193],
[69.0103,37.3193],
[69.1161,37.126],
[69.3498,37.126],
[69.546,37.5773],
[70.0752,37.5128],
[70.2658,37.6417],
[70.1619,37.8352],
[70.2147,38.0288],
[70.7137,38.416],
[71.1838,38.416],
[71.364,38.2224],
[71.2738,37.8998],
[71.5865,37.8998],
[71.6045,37.9643],
[72.0233,38.6097],
[73.0009,39.2557],
[73.1583,39.2557],
[73.1979,39.385],
[73.3553,39.385],
[73.4155,39.5789],
[73.5731,39.5789],
[73.8,40.2906],
[73.5257,40.4201],
[73.4889,40.5496],
[73.3305,40.5496],
[73.2938,40.6792],
[72.9768,40.6792],
[72.998,40.744],
[71.761,41.3274],
[71.6448,41.4571],
[71.6879,41.5869],
[71.3761,41.8465],
[71.4196,41.9764],
[71.2458,42.1712],
[70.4178,42.5612],
[70.1132,43.0816],
[69.5369,43.2769],
[69.5812,43.4072],
[69.4204,43.4072],
[68.1096,42.1063],
[66.891,41.2625],
[66.6525,41.2625],
[66.693,41.1328],
[66.2793,40.8088],
[65.6867,40.6792],
[65.3884,40.744],
[65.3511,40.6144],
[63.2647,40.2259],
[62.7387,40.0317],
[62.5018,40.0317],
[62.4742,40.2259],
[62.3333,40.2906],
[62.4027,40.5496],
[62.2969,40.744],
[62.5266,41.0032],
[62.3857,41.068],
[62.4578,41.3274],
[62.151,41.6518],
[62.1877,41.7816],
[60.7618,42.9515],
[60.7805,43.0165],
[60.3919,43.3421],
[60.3677,43.5375],
[59.1235,43.4072],
[58.6329,43.6678],
[58.4175,43.4723],
[58.3371,43.4723],
[58.0515,43.0165],
[57.957,42.3662],
[57.5644,41.7816],
[57.4649,41.3922],
[56.8274,40.744],
[54.3851,40.8088],
[54.3701,40.744],
[53.4044,40.6792],
[53.4482,40.8736],
[53.3397,40.744],
[52.9433,40.744],
[52.9723,40.8736],
[52.893,40.8736],
[52.6994,40.3554],
[52.7785,40.3554],
[52.7877,40.0317],
[53.4985,40.0317],
[53.5449,39.5143],
[53.1375,39.4496],
[53.5176,39.385],
[53.9868,38.9972],
[53.8298,37.8352],
[53.9079,37.8352],
[53.9105,37.4483],
[54.0947,37.1904],
[54.0333,36.8682],
[53.9555,36.8682],
[53.9192,36.6749],
[53.9969,36.6749],
[54.0805,36.2884],
[54.2238,36.224],
[54.0098,35.902],
[52.8136,35.7089],
[52.5264,35.8377],
[52.338,35.6445],
[52.0284,35.6445],
[51.973,35.7733],
[51.3753,35.902],
[51.1757,36.0952],
[50.9431,36.0952],
[50.8098,36.224],
[50.411,36.1596],
[50.3551,36.2884],
[49.1877,36.7393],
[49.164,37.0615],
[49.4641,37.4483],
[49.386,37.4483],
[49.0851,37.5128],
[48.8843,37.7062],
[48.8411,38.3515],
[48.7627,38.3515],
[48.801,38.9972],
[48.9155,39.1911],
[49.1635,39.2557],
[49.1757,39.3203],
[49.0305,39.385],
[49.0008,39.6436],
[48.7766,39.7083],
[48.7225,39.8376],
[48.0913,39.8376],
[47.8973,39.6436],
[47.4125,39.5789],
[47.3143,39.9023],
[46.9986,39.9023],
[46.7974,40.0964],
[46.9368,40.4201],
[46.8698,40.4849],
[46.2798,40.2906],
[45.8171,40.3554],
[46.0591,40.8088],
[46.3215,40.9384],
[46.7976,40.9384],
[47.236,40.744],
[47.7243,40.8088],
[47.842,41.0032],
[47.7218,41.1977],
[47.2706,41.3274],
[46.7367,41.8465],
[46.3508,41.9114],
[46.2967,42.0413],
[45.7506,42.1063],
[45.6673,42.4962],
[45.2253,42.6912],
[44.7446,42.6912],
[44.3565,42.7563],
[43.8511,42.6262],
[43.6597,42.8864],
[43.4191,42.8864],
[42.9792,42.2362],
[43.0006,41.9114],
[42.67,41.8465],
[42.6244,41.5869],
[42.8633,41.5869],
[43.1926,41.1977],
[43.567,41.068],
[43.1475,40.9384],
[43.1031,40.6792],
[42.6168,40.6144],
[41.8305,40.1612],
[40.586,40.2906],
[40.5269,40.4201],
[40.3686,40.4201],
[40.3887,40.5496],
[39.5891,39.967],
[38.8418,39.7083],
[38.2989,39.7729],
[38.159,39.9023],
[38.15,39.8376],
[37.6775,39.2557],
[37.4331,39.1911],
[37.3129,38.868],
[37.0692,38.8034],
[37.1315,38.6743],
[36.7938,38.4806],
[36.6058,38.2224],
[36.457,38.2869],
[36.1543,37.7062],
[35.82,37.5128],
[35.3518,37.5128],
[35.0327,37.4483],
[34.778,37.2549],
[34.6594,36.8682]
]
],
[
[
[36.9746,38.6743],
[37.053,38.6743],
[37.0611,38.7389],
[36.9826,38.7389],
[36.9746,38.6743]
]
],
[
[
[48.0923,41.8465],
[48.172,41.8465],
[48.1186,41.5869],
[48.2778,41.5869],
[48.4774,41.7816],
[48.345,41.9114],
[48.2652,41.9114],
[48.2787,41.9764],
[48.1989,41.9764],
[48.0923,41.8465]
]
],
[
[
[50.4299,25.9365],
[50.6487,25.8722],
[50.6852,26.258],
[50.4602,26.258],
[50.4299,25.9365]
]
],
[
[
[58.6668,20.2148],
[58.815,20.2148],
[58.9794,20.4077],
[59.0008,20.6648],
[58.773,20.6005],
[58.7676,20.5362],
[58.6668,20.2148]
]
]
]}
}
