{
"type": "Feature",
"properties": {"id":"cliopatria-tver-1463","edge_precision":"unknown","cliopatria_name":"Tver","cliopatria_from_year":1463,"cliopatria_to_year":1481,"cliopatria_area_km2":7184,"cliopatria_wikidata":"Q2288","cliopatria_wikipedia":"Tver"},
"geometry": {"type": "MultiPolygon", "coordinates": [
[
[
[35.8566,56.7998],
[36.1064,56.7311],
[36.315,56.8686],
[36.6692,56.8686],
[36.8064,57.0751],
[37.0725,57.0751],
[37.2831,57.2129],
[37.7992,57.144],
[37.8161,57.2129],
[37.8467,57.6962],
[37.4346,57.8346],
[37.2559,57.8346],
[37.2054,57.6271],
[36.5485,57.4889],
[36.1602,57.3509],
[35.9191,57.0751],
[35.8566,56.7998]
]
]
]}
}
