{
"type": "Feature",
"properties": {"id":"cliopatria-kingdom-of-england-1642","edge_precision":"unknown","cliopatria_name":"Kingdom of England","cliopatria_from_year":1642,"cliopatria_to_year":1644,"cliopatria_area_km2":183309,"cliopatria_wikidata":"Q179876","cliopatria_wikipedia":"Kingdom of England","cliopatria_seshat_id":"gb_tudor_stuart","cliopatria_member_of":"(Kingdom of England)"},
"geometry": {"type": "MultiPolygon", "coordinates": [
[
[
[-9.9732,52.5191],
[-9.9522,52.3847],
[-9.9418,52.3176],
[-8.7476,52.3176],
[-8.6064,52.5191],
[-8.3404,52.4519],
[-8.1889,52.5863],
[-8.3132,52.8554],
[-8.2276,52.8554],
[-8.2471,52.99],
[-8.8473,52.99],
[-8.9636,53.1922],
[-9.393,53.1922],
[-9.3826,53.1248],
[-9.4684,53.1248],
[-9.4371,52.9227],
[-9.7483,52.7208],
[-9.7273,52.5863],
[-9.9732,52.5191]
]
],
[
[
[-8.6796,51.8481],
[-8.4906,51.7142],
[-8.4057,51.7142],
[-8.4151,51.7811],
[-8.0753,51.7811],
[-8.0846,51.8481],
[-7.9997,51.8481],
[-8.009,51.9151],
[-8.1222,52.1163],
[-8.6331,52.1163],
[-8.6796,51.8481]
]
],
[
[
[-7.5037,53.1922],
[-7.3897,52.99],
[-6.7038,52.99],
[-6.8124,52.5191],
[-7.3159,52.4519],
[-7.2977,52.3176],
[-7.0239,52.1833],
[-6.5127,52.1833],
[-6.3509,52.2505],
[-6.2317,52.6535],
[-6.1461,52.6535],
[-6.172,52.8554],
[-6.0863,52.8554],
[-6.1471,53.3271],
[-6.2419,53.3946],
[-6.0875,53.5296],
[-6.2865,53.7323],
[-6.3316,54.0706],
[-6.4181,54.0706],
[-6.9182,53.9352],
[-6.8995,53.7999],
[-7.4462,53.3946],
[-7.4178,53.1922],
[-7.5037,53.1922]
]
],
[
[
[-5.7686,50.246],
[-5.7456,50.0465],
[-5.1511,49.98],
[-4.9287,50.246],
[-4.3548,50.3791],
[-4.1866,50.3791],
[-4.0887,50.246],
[-3.5847,50.246],
[-3.4566,50.6455],
[-3.1262,50.7121],
[-2.1028,50.5789],
[-2.0306,50.7121],
[-1.525,50.7121],
[-1.5134,50.5789],
[-1.1766,50.5789],
[-1.1092,50.7788],
[-1.3678,50.8455],
[0.4929,50.7788],
[1.3138,51.1124],
[1.3806,51.3797],
[0.5239,51.5134],
[0.863,51.5134],
[0.8439,51.7811],
[1.1837,51.7811],
[1.1698,51.9822],
[1.425,51.9822],
[1.5863,52.1163],
[1.6537,52.3847],
[1.739,52.3847],
[1.7168,52.7208],
[1.532,52.9227],
[1.0938,53.0574],
[0.4933,53.0574],
[0.3375,52.8554],
[0.1662,52.8554],
[0.0698,52.99],
[0.3165,53.1248],
[0.2953,53.3946],
[0.0208,53.5971],
[0.0098,53.7323],
[-0.1796,53.9352],
[-0.2024,54.2061],
[-0.3814,54.2739],
[-0.3873,54.3417],
[-0.6714,54.6132],
[-1.286,54.6811],
[-1.3989,54.9531],
[-1.486,54.9531],
[-1.6336,55.5665],
[-2.1069,55.9082],
[-2.2681,55.7715],
[-2.2394,55.4983],
[-2.5603,55.2255],
[-2.7349,55.2255],
[-2.8075,55.0892],
[-3.1413,54.9531],
[-3.5691,54.8851],
[-3.7198,54.6811],
[-3.5868,54.2739],
[-3.3194,54.2061],
[-3.3045,54.0706],
[-2.9658,54.1384],
[-3.196,53.8676],
[-3.0952,53.7323],
[-3.1525,53.4621],
[-4.0762,53.2596],
[-4.2713,53.4621],
[-4.7017,53.4621],
[-4.6697,53.1922],
[-4.4901,53.1248],
[-4.8095,52.9227],
[-4.7937,52.7881],
[-4.5368,52.7881],
[-4.381,52.9227],
[-4.1944,52.7881],
[-4.1567,52.4519],
[-4.3977,52.3176],
[-4.3901,52.2505],
[-4.5606,52.2505],
[-4.553,52.1833],
[-4.7234,52.1833],
[-5.2187,52.0492],
[-5.2643,51.7142],
[-4.9093,51.5803],
[-4.5001,51.7142],
[-4.4152,51.7142],
[-4.4078,51.6472],
[-4.3083,51.5134],
[-3.8915,51.5803],
[-3.7008,51.3797],
[-3.2774,51.3797],
[-3.0367,51.5134],
[-2.9519,51.5134],
[-2.9452,51.4465],
[-3.108,51.3797],
[-3.0946,51.246],
[-4.2017,51.3128],
[-4.4264,51.0457],
[-4.6799,51.0457],
[-4.6578,50.8455],
[-4.7422,50.8455],
[-4.8812,50.5789],
[-5.1338,50.5789],
[-5.2796,50.3791],
[-5.6006,50.246],
[-5.7686,50.246]
]
],
[
[
[-4.8613,54.0706],
[-4.3584,54.2061],
[-4.3826,54.4095],
[-4.8079,54.3417],
[-4.7996,54.2739],
[-4.8613,54.0706]
]
]
]}
}
