{
"type": "Feature",
"properties": {"id":"cliopatria-serbia-1918","edge_precision":"unknown","cliopatria_name":"Serbia","cliopatria_from_year":1918,"cliopatria_to_year":1918,"cliopatria_area_km2":18379,"cliopatria_wikidata":"Q1311990","cliopatria_wikipedia":"Serbia"},
"geometry": {"type": "MultiPolygon", "coordinates": [
[
[
[20.4954,41.7167],
[20.5434,41.1328],
[20.6953,41.0032],
[21.0777,40.744],
[21.5608,40.8736],
[21.5646,40.9384],
[22.0526,41.1328],
[21.9932,41.4571],
[22.2443,41.6518],
[22.2484,41.7167],
[22.1687,41.7167],
[22.1223,42.2362],
[21.8068,42.3012],
[21.487,42.3012],
[21.2356,42.1063],
[20.9199,42.1712],
[20.9161,42.1063],
[20.5967,42.1063],
[20.5751,41.7167],
[20.4954,41.7167]
]
]
]}
}
