{
"type": "Feature",
"properties": {"id":"cliopatria-british-empire-1794","edge_precision":"unknown","cliopatria_name":"British Empire","cliopatria_from_year":1794,"cliopatria_to_year":1795,"cliopatria_area_km2":594851,"cliopatria_wikidata":"Q8680","cliopatria_wikipedia":"British Empire","cliopatria_seshat_id":"gb_british_emp_1","cliopatria_member_of":"(British Empire)"},
"geometry": {"type": "MultiPolygon", "coordinates": [
[
[
[-121.7038,56.6623],
[-121.3012,56.3877],
[-121.0264,56.4563],
[-121.4292,56.7311],
[-121.5176,56.7311],
[-121.7038,56.6623]
]
],
[
[
[-117.3826,63.2634],
[-116.9188,62.9758],
[-116.6353,63.0477],
[-117.0992,63.3354],
[-117.1933,63.3354],
[-117.3826,63.2634]
]
],
[
[
[-117.0786,58.5977],
[-116.6669,58.3198],
[-116.3879,58.3892],
[-116.7996,58.6673],
[-116.8896,58.6673],
[-117.0786,58.5977]
]
],
[
[
[-114.6823,62.6889],
[-114.5037,62.5457],
[-114.3261,62.4027],
[-113.948,62.4742],
[-114.3975,62.7606],
[-114.6823,62.6889]
]
],
[
[
[-111.5543,55.8398],
[-111.1838,55.5665],
[-110.9037,55.6348],
[-111.2742,55.9082],
[-111.362,55.9082],
[-111.5543,55.8398]
]
],
[
[
[-111.54,54.5453],
[-111.1821,54.2739],
[-110.9029,54.3417],
[-111.2609,54.6132],
[-111.3477,54.6132],
[-111.54,54.5453]
]
],
[
[
[-111.0672,59.0155],
[-110.6666,58.7369],
[-110.3834,58.8065],
[-110.784,59.0853],
[-110.8744,59.0853],
[-111.0672,59.0155]
]
],
[
[
[-110.2489,54.2061],
[-110.0294,54.0706],
[-109.9632,54.0029],
[-109.4652,53.9352],
[-109.9692,54.2739],
[-110.2489,54.2061]
]
],
[
[
[-108.5516,55.9082],
[-108.1874,55.6348],
[-107.9055,55.7031],
[-108.2697,55.9766],
[-108.3576,55.9766],
[-108.5516,55.9082]
]
],
[
[
[-107.1302,51.9822],
[-106.8074,51.7142],
[-106.5268,51.7811],
[-106.8497,52.0492],
[-106.9348,52.0492],
[-107.1302,51.9822]
]
],
[
[
[-105.922,52.2505],
[-105.5989,51.9822],
[-105.3176,52.0492],
[-105.6408,52.3176],
[-105.7261,52.3176],
[-105.922,52.2505]
]
],
[
[
[-103.5765,53.2596],
[-103.2483,52.99],
[-102.9654,53.0574],
[-103.2936,53.3271],
[-103.3796,53.3271],
[-103.5765,53.2596]
]
],
[
[
[-102.4248,51.0457],
[-102.1209,50.7788],
[-101.838,50.8455],
[-102.1421,51.1124],
[-102.2266,51.1124],
[-102.4248,51.0457]
]
],
[
[
[-101.6019,52.1833],
[-101.5153,51.9822],
[-101.3452,51.9822],
[-101.2883,51.9151],
[-100.9482,51.9151],
[-101.2611,52.1833],
[-101.6019,52.1833]
]
],
[
[
[-101.5404,53.1922],
[-101.2172,52.9227],
[-100.9333,52.99],
[-101.2565,53.2596],
[-101.3424,53.2596],
[-101.5404,53.1922]
]
],
[
[
[-100.3681,50.3791],
[-100.0749,50.113],
[-99.7911,50.1795],
[-100.0844,50.4457],
[-100.1685,50.4457],
[-100.3681,50.3791]
]
],
[
[
[-99.92,49.9136],
[-99.6324,49.6479],
[-99.3483,49.7143],
[-99.6361,49.98],
[-99.7199,49.98],
[-99.92,49.9136]
]
],
[
[
[-97.0761,48.7865],
[-96.8039,48.522],
[-96.6379,48.522],
[-96.6848,48.5881],
[-96.4357,48.5881],
[-96.5772,48.7865],
[-97.0761,48.7865]
]
],
[
[
[-96.42,50.7121],
[-96.3685,50.6455],
[-96.2843,50.6455],
[-96.3357,50.7121],
[-96.42,50.7121]
]
],
[
[
[-96.2843,50.6455],
[-95.9962,50.3791],
[-95.7104,50.4457],
[-95.9986,50.7121],
[-96.0829,50.7121],
[-96.2843,50.6455]
]
],
[
[
[-93.8793,48.8527],
[-93.6495,48.522],
[-93.5665,48.522],
[-93.2425,48.6542],
[-93.5928,48.9189],
[-93.7593,48.9189],
[-93.7129,48.8527],
[-93.8793,48.8527]
]
],
[
[
[-90.5241,48.1917],
[-90.2678,47.9278],
[-89.937,47.9278],
[-89.9801,47.9938],
[-89.8146,47.9938],
[-90.0272,48.1917],
[-90.5241,48.1917]
]
],
[
[
[72.6233,21.1148],
[72.7718,21.1148],
[72.7648,21.0505],
[72.8391,21.0505],
[72.8321,20.9862],
[72.9875,21.0505],
[72.9411,21.3077],
[72.6302,21.1791],
[72.6233,21.1148]
]
],
[
[
[72.8402,18.9934],
[72.9142,18.9934],
[73.0899,19.2505],
[72.8679,19.2505],
[72.861,19.1862],
[72.8402,18.9934]
]
],
[
[
[75.0158,12.5003],
[75.0647,12.1789],
[75.3385,11.9217],
[75.5849,11.2788],
[75.8552,10.9574],
[75.9021,10.5717],
[75.9752,10.5717],
[75.9709,10.5074],
[76.2296,9.9931],
[76.2255,9.9288],
[76.449,9.9931],
[76.5869,9.8645],
[76.66,9.8645],
[77.1718,9.8647],
[77.1552,9.6074],
[77.3786,9.6717],
[77.4313,9.6717],
[77.4156,10.2383],
[77.2427,10.0582],
[77.2013,10.3145],
[76.9045,10.2502],
[76.7668,10.3788],
[76.7755,10.5074],
[76.7243,10.8288],
[76.5824,10.8931],
[76.5959,11.086],
[76.4541,11.1503],
[76.4587,11.2146],
[75.9647,11.4717],
[75.9834,11.7289],
[76.0566,11.7289],
[76.2078,11.7931],
[76.2174,11.9217],
[76.0854,12.1146],
[75.9389,12.1146],
[76.0418,12.5003],
[75.9786,12.6289],
[75.6855,12.6289],
[75.6754,12.5003],
[75.4456,12.3717],
[75.5091,12.2432],
[75.2357,12.5003],
[75.0158,12.5003]
]
],
[
[
[77.6237,12.1146],
[77.9019,11.9217],
[77.814,11.7289],
[78.0288,11.6646],
[78.0257,11.6227],
[78.4556,12.1939],
[78.5081,13.0789],
[78.1147,12.7575],
[77.6237,12.1146]
]
],
[
[
[79.7228,11.7931],
[79.8693,11.7931],
[79.8794,11.9217],
[79.8061,11.9217],
[79.7228,11.7931]
]
],
[
[
[79.8497,11.0217],
[79.8599,10.6837],
[79.8843,11.0217],
[79.8497,11.0217]
]
],
[
[
[79.9412,12.4907],
[80.1156,12.3384],
[80.0935,12.3074],
[80.13,12.3074],
[80.1405,12.436],
[79.9992,12.5003],
[80.0152,12.6932],
[80.3138,12.7575],
[80.3469,13.1432],
[80.1325,13.2075],
[80.0818,13.2075],
[79.9412,12.4907]
]
],
[
[
[80.234,16.6147],
[80.4242,16.5983],
[80.8422,16.1801],
[80.916,15.779],
[81.1188,15.779],
[81.3227,16.2933],
[82.2211,16.4219],
[82.3832,16.5504],
[82.4205,16.8719],
[82.3468,16.8719],
[82.4508,17.129],
[83.153,17.4505],
[83.5612,17.7719],
[83.6667,18.0291],
[84.0519,18.1576],
[84.3796,18.4148],
[84.7487,18.9934],
[85.4149,19.5719],
[85.3657,19.7648],
[85.374,19.8291],
[85.0942,19.9577],
[85.0531,20.2148],
[84.8307,20.2148],
[84.3534,19.9577],
[84.1637,20.2148],
[83.727,20.2791],
[83.1197,19.5719],
[82.6675,19.5077],
[82.4693,19.7005],
[82.4853,19.8291],
[82.3371,19.8291],
[82.2128,20.022],
[81.9164,20.022],
[81.9006,19.8934],
[82.0408,19.8291],
[82.0859,18.9934],
[81.9065,18.7362],
[81.7586,18.7362],
[81.4745,18.2219],
[81.2374,18.0933],
[81.502,17.8362],
[81.3976,17.579],
[81.0722,17.3219],
[80.9463,16.8719],
[80.4967,16.8076],
[80.4012,16.6147],
[80.234,16.6147]
]
],
[
[
[81.6554,25.2936],
[81.6998,25.1007],
[81.8494,25.1007],
[82.1638,24.7149],
[82.3881,24.7149],
[82.4433,24.5864],
[82.9015,24.6506],
[82.8626,24.3935],
[83.2265,24.3292],
[83.2725,24.1363],
[83.9912,23.4291],
[84.0031,22.9791],
[84.2177,22.9148],
[84.3099,23.0434],
[84.4589,23.0434],
[84.3491,22.7863],
[84.2001,22.7863],
[84.0252,22.5934],
[84.0652,22.3363],
[84.5116,22.3363],
[85.1948,22.9791],
[85.818,23.172],
[86.294,22.8506],
[86.5918,22.8506],
[86.5469,22.5291],
[86.8178,22.3363],
[86.8395,21.9505],
[86.9882,21.9505],
[87.0364,21.7577],
[87.2593,21.7577],
[87.4562,21.5648],
[87.5304,21.5648],
[88.1777,21.9505],
[88.1335,21.6291],
[88.3477,21.5648],
[88.3653,21.6934],
[88.5139,21.6934],
[88.6416,22.0791],
[88.716,22.0791],
[88.728,21.6291],
[89.0995,21.6291],
[89.1173,21.7577],
[89.7118,21.7577],
[89.8695,21.822],
[89.8966,22.0148],
[90.232,21.7577],
[90.4263,22.0791],
[90.6494,22.0791],
[90.631,21.9505],
[90.8632,22.0148],
[90.9378,22.5291],
[91.2449,22.5934],
[91.4225,22.7863],
[91.497,22.7863],
[91.3748,22.4648],
[91.6725,22.4648],
[91.7929,22.272],
[91.7648,22.0791],
[91.8948,21.9505],
[91.8302,21.5005],
[92.1925,21.4363],
[92.378,21.6934],
[92.4719,22.3363],
[92.3614,22.5934],
[92.41,22.9148],
[92.3355,22.9148],
[92.4396,23.1077],
[92.3006,23.172],
[92.3851,23.2363],
[92.3611,23.5577],
[92.1579,23.6863],
[92.2951,24.072],
[92.2205,24.072],
[92.2525,24.2649],
[92.1139,24.3292],
[92.4493,24.9721],
[92.1846,25.165],
[90.3142,25.165],
[89.9628,25.2936],
[90.1192,25.7436],
[90.9433,25.7436],
[91.1801,25.8079],
[91.2917,26.0008],
[90.767,26.0008],
[90.6293,26.0651],
[90.7666,26.3865],
[89.9663,26.5151],
[89.8162,26.5151],
[89.1784,26.708],
[89.1033,26.708],
[89.1161,26.7723],
[88.2401,26.9009],
[88.165,26.9009],
[88.1649,26.5151],
[87.9903,26.3865],
[87.2399,26.3865],
[87.1141,26.5151],
[86.6516,26.4508],
[86.3126,26.6437],
[85.787,26.6437],
[85.7362,26.7723],
[85.2735,26.708],
[84.9972,26.8366],
[84.8836,27.0295],
[84.7333,27.0295],
[84.7579,27.158],
[84.5697,27.3509],
[83.9804,27.4152],
[84.1078,26.9009],
[84.3842,26.7723],
[84.1813,26.0651],
[83.6153,26.258],
[83.2816,26.0651],
[83.1735,25.8722],
[82.7879,25.8079],
[82.4568,26.0651],
[82.0494,25.8722],
[81.9213,25.5507],
[81.6554,25.2936]
],
[
[88.3239,22.4648],
[88.4166,22.5934],
[88.491,22.5934],
[88.4727,22.4648],
[88.3239,22.4648]
],
[
[88.3698,22.7863],
[88.4628,22.9148],
[88.5373,22.9148],
[88.6024,22.8506],
[88.3698,22.7863]
]
],
[
[
[91.0304,22.1434],
[91.2628,22.2077],
[91.2166,22.4005],
[91.0677,22.4005],
[91.0584,22.3363],
[91.0304,22.1434]
]
],
[
[
[92.2867,10.5717],
[92.574,10.5074],
[92.606,10.8931],
[92.3865,10.8931],
[92.3811,10.8288],
[92.2867,10.5717]
]
],
[
[
[92.5208,11.6003],
[92.7348,11.536],
[92.8252,11.7289],
[92.8311,11.7931],
[92.7874,12.1146],
[93.0376,12.436],
[93.0626,12.6932],
[92.9286,12.8217],
[93.101,13.0789],
[93.0809,13.5932],
[92.854,13.5289],
[92.7151,12.886],
[92.7202,12.1789],
[92.5676,12.1146],
[92.5208,11.6003]
]
]
]}
}
