{
"type": "Feature",
"properties": {"id":"cliopatria-house-of-bourbon-1363","edge_precision":"unknown","cliopatria_name":"House of Bourbon","cliopatria_from_year":1363,"cliopatria_to_year":1374,"cliopatria_area_km2":8482,"cliopatria_wikidata":"Q58389","cliopatria_wikipedia":"House of Bourbon","cliopatria_seshat_id":"fr_valois_k_1","cliopatria_member_of":"(Kingdom of France)"},
"geometry": {"type": "MultiPolygon", "coordinates": [
[
[
[2.3455,46.3489],
[2.4274,46.3489],
[2.4308,46.2833],
[2.5126,46.2833],
[2.516,46.2177],
[2.5978,46.2177],
[2.6011,46.1521],
[2.7711,46.0209],
[3.0131,46.0865],
[3.2674,45.8898],
[3.349,45.8898],
[3.3431,46.0209],
[3.6699,46.0209],
[3.6756,45.8898],
[3.8389,45.8898],
[4.0784,46.0209],
[4.073,46.1521],
[3.7286,46.5459],
[3.0697,46.6115],
[2.896,46.8086],
[2.4033,46.8086],
[2.3455,46.3489]
]
]
]}
}
