{
"type": "Feature",
"properties": {"id":"cliopatria-argentine-confederation-1885","edge_precision":"unknown","cliopatria_name":"Argentine Confederation","cliopatria_from_year":1885,"cliopatria_to_year":1904,"cliopatria_area_km2":2793357,"cliopatria_wikidata":"Q832554","cliopatria_wikipedia":"Argentine Confederation"},
"geometry": {"type": "MultiPolygon", "coordinates": [
[
[
[-73.5789,-50.187],
[-73.2682,-50.5198],
[-73.3407,-50.7863],
[-73.1271,-50.853],
[-72.8799,-50.7197],
[-72.3743,-50.7197],
[-72.2382,-50.9197],
[-72.3958,-51.1868],
[-72.3112,-51.1868],
[-72.3459,-51.3872],
[-72.2612,-51.3872],
[-72.3816,-51.5879],
[-72.1633,-51.7887],
[-72.2039,-51.8557],
[-72.0339,-51.8557],
[-72.0302,-51.9897],
[-71.7306,-52.0568],
[-71.7714,-52.1238],
[-69.4719,-52.1238],
[-69.5117,-52.1909],
[-69.256,-52.1909],
[-69.2958,-52.258],
[-69.2105,-52.258],
[-68.4369,-52.3923],
[-68.358,-52.258],
[-68.4432,-52.258],
[-68.5881,-51.9227],
[-68.7581,-51.9227],
[-68.8576,-51.6548],
[-69.1122,-51.6548],
[-68.9501,-51.521],
[-69.0349,-51.521],
[-68.9664,-51.2536],
[-69.1062,-51.0532],
[-69.2752,-51.0532],
[-69.0972,-50.5864],
[-68.3734,-50.187],
[-67.9178,-50.1205],
[-67.6359,-49.5891],
[-67.7195,-49.5891],
[-67.6157,-49.3901],
[-67.6992,-49.3901],
[-67.4943,-48.9925],
[-66.383,-48.2652],
[-65.8725,-48.0672],
[-65.8089,-47.9353],
[-65.9426,-47.8693],
[-65.6919,-47.3422],
[-65.7743,-47.3422],
[-65.7638,-47.1448],
[-66.7199,-47.079],
[-66.6888,-47.0133],
[-66.9865,-46.9475],
[-67.1087,-46.6846],
[-67.4568,-46.5533],
[-67.661,-46.2907],
[-67.5689,-46.0939],
[-67.6507,-46.0939],
[-67.3564,-45.6352],
[-66.9624,-45.3078],
[-66.6075,-45.2424],
[-66.5484,-45.1116],
[-65.6256,-45.0462],
[-65.5676,-44.9154],
[-65.7531,-44.7847],
[-65.4523,-44.654],
[-65.2809,-44.2622],
[-65.3618,-44.2622],
[-65.273,-43.8708],
[-65.4062,-43.8056],
[-65.3221,-43.61],
[-64.8344,-43.2192],
[-64.4857,-43.1541],
[-64.4043,-42.9588],
[-64.8055,-42.9588],
[-64.9918,-42.8287],
[-64.9376,-42.6986],
[-64.6436,-42.5685],
[-64.5904,-42.2435],
[-65.15,-42.0487],
[-65.0201,-41.5293],
[-65.235,-41.2699],
[-65.1614,-40.8809],
[-64.8983,-40.8161],
[-64.79,-40.9457],
[-64.5519,-40.9457],
[-64.0174,-41.205],
[-63.1433,-41.205],
[-62.6966,-41.0753],
[-62.385,-40.8809],
[-62.2883,-40.6217],
[-62.5884,-40.3627],
[-62.1278,-39.5216],
[-62.4084,-39.1984],
[-62.319,-38.9399],
[-61.9705,-39.0691],
[-61.0273,-39.0691],
[-58.7005,-38.6816],
[-57.6954,-38.2297],
[-57.5762,-37.8425],
[-56.7805,-37.0043],
[-56.7512,-36.3601],
[-57.2763,-36.2957],
[-57.4772,-35.9093],
[-57.31,-35.5874],
[-57.2813,-35.2013],
[-58.3761,-34.6866],
[-58.5973,-34.3649],
[-58.4858,-34.2363],
[-58.4687,-34.172],
[-58.6311,-33.9147],
[-58.4306,-33.1432],
[-58.261,-33.0789],
[-58.2123,-32.886],
[-58.3332,-32.7575],
[-58.2218,-32.3075],
[-58.3275,-32.1147],
[-58.0519,-31.6005],
[-58.1281,-31.6005],
[-57.9396,-30.4437],
[-57.7595,-30.3152],
[-57.3456,-29.801],
[-57.0022,-29.6081],
[-56.38,-28.7725],
[-56.0406,-28.5797],
[-55.8166,-28.1939],
[-54.7845,-27.4868],
[-53.8908,-27.101],
[-53.7744,-26.3938],
[-53.8495,-26.3938],
[-53.8086,-26.1366],
[-53.8836,-26.1366],
[-53.9637,-25.6866],
[-54.7128,-25.6866],
[-54.7604,-26.4581],
[-54.9638,-26.7796],
[-55.6309,-27.1653],
[-55.7513,-27.4225],
[-56.116,-27.3582],
[-56.1275,-27.4225],
[-56.2027,-27.4225],
[-56.9032,-27.5511],
[-57.5687,-27.4868],
[-58.1353,-27.2939],
[-58.737,-27.2939],
[-58.7018,-27.101],
[-58.3324,-26.7153],
[-58.2547,-26.2652],
[-58.0938,-26.2009],
[-57.6885,-25.558],
[-57.7227,-25.3008],
[-57.8724,-25.3008],
[-58.0568,-25.0437],
[-59.1291,-24.7222],
[-59.1842,-24.5936],
[-59.4734,-24.5293],
[-59.9385,-24.1436],
[-61.1599,-23.8221],
[-61.542,-23.3721],
[-61.8962,-23.2435],
[-62.2231,-22.9221],
[-62.2051,-22.7935],
[-62.7382,-22.3435],
[-62.7206,-22.215],
[-62.935,-22.1507],
[-62.9919,-22.0221],
[-64.0417,-22.0864],
[-64.2172,-22.2792],
[-64.3552,-22.7292],
[-64.5133,-22.7935],
[-64.6072,-22.4078],
[-64.8686,-22.1507],
[-65.8354,-22.1507],
[-66.3106,-21.8292],
[-66.4304,-22.1507],
[-66.5791,-22.1507],
[-67.2587,-22.7292],
[-67.0932,-23.115],
[-67.1677,-23.115],
[-67.2879,-23.8864],
[-67.7133,-24.2079],
[-68.2574,-24.3365],
[-68.6108,-24.6579],
[-68.6556,-24.9151],
[-68.5287,-25.0437],
[-68.6968,-25.558],
[-68.4818,-26.008],
[-68.67,-26.5867],
[-68.4214,-26.8438],
[-68.4608,-27.0367],
[-68.952,-27.2296],
[-69.3446,-28.0011],
[-69.7332,-28.3868],
[-69.8991,-29.0939],
[-70.0814,-29.2225],
[-70.1601,-29.5439],
[-70.0844,-29.5439],
[-70.1324,-29.7367],
[-70.0132,-29.8652],
[-70.0621,-30.0581],
[-69.9599,-30.2509],
[-70.3642,-30.6365],
[-70.4088,-31.0864],
[-70.6898,-31.2792],
[-70.7432,-31.472],
[-70.667,-31.472],
[-70.6808,-31.7933],
[-70.4303,-31.9861],
[-70.4461,-32.3075],
[-70.254,-32.4361],
[-70.2904,-32.8217],
[-70.0988,-32.9503],
[-70.1948,-33.2717],
[-69.9267,-33.4003],
[-70.0467,-34.0433],
[-69.9329,-34.172],
[-70.2446,-34.4292],
[-70.6546,-35.4587],
[-70.5079,-35.7162],
[-70.5509,-35.8449],
[-70.4734,-35.8449],
[-70.4826,-36.1025],
[-71.1806,-36.5533],
[-71.3162,-36.9399],
[-71.2384,-36.9399],
[-71.3071,-37.1332],
[-71.2292,-37.1332],
[-71.2984,-37.3266],
[-71.2205,-37.3266],
[-71.3063,-37.778],
[-71.167,-38.0361],
[-71.2149,-38.1651],
[-71.0825,-38.2297],
[-71.1011,-38.4879],
[-70.9687,-38.5524],
[-71.0423,-38.7461],
[-71.4309,-38.9399],
[-71.5808,-39.5216],
[-71.7901,-39.6509],
[-71.8685,-39.8449],
[-71.7108,-40.039],
[-71.9235,-40.3627],
[-71.7922,-40.4274],
[-72.0351,-40.8161],
[-71.9317,-40.9457],
[-71.9916,-41.2699],
[-71.9121,-41.2699],
[-72.0308,-41.724],
[-71.8267,-41.9837],
[-71.8845,-42.1136],
[-72.1823,-42.2435],
[-72.2703,-42.4385],
[-72.1397,-42.5035],
[-72.2473,-43.089],
[-71.9561,-43.1541],
[-71.8555,-43.2843],
[-71.9764,-43.5449],
[-71.8458,-43.61],
[-71.8872,-43.8708],
[-71.7564,-43.936],
[-71.9413,-44.3275],
[-71.7296,-44.3928],
[-71.7606,-44.458],
[-71.3559,-44.458],
[-71.2558,-44.5887],
[-71.3488,-44.7847],
[-71.9793,-44.9154],
[-71.5549,-45.0462],
[-71.4053,-45.2424],
[-71.4683,-45.3733],
[-71.3869,-45.3733],
[-71.7581,-45.6352],
[-71.854,-45.8317],
[-71.755,-45.9628],
[-71.9166,-46.2907],
[-71.6701,-46.6189],
[-71.9328,-46.816],
[-72.035,-47.3422],
[-72.2336,-47.4081],
[-72.5416,-48.0012],
[-72.3147,-48.1992],
[-72.6799,-48.7278],
[-72.5968,-48.7278],
[-72.7043,-48.9263],
[-73.0265,-49.0588],
[-73.5722,-49.5891],
[-73.48,-49.7218],
[-73.5556,-49.8546],
[-73.4718,-49.8546],
[-73.5789,-50.187]
]
],
[
[
[-68.7123,-52.9976],
[-68.6265,-52.9976],
[-68.708,-53.1324],
[-68.6221,-53.1324],
[-68.7039,-53.2673],
[-68.618,-53.2673],
[-68.6968,-53.5372],
[-68.6107,-53.5372],
[-68.6883,-53.9429],
[-68.6019,-53.9429],
[-68.68,-54.6209],
[-68.5931,-54.6209],
[-68.6792,-54.7568],
[-68.5922,-54.7568],
[-68.6787,-54.8927],
[-68.1562,-54.8927],
[-68.1993,-54.9608],
[-66.8477,-55.0288],
[-66.2797,-55.0969],
[-66.0212,-54.9608],
[-65.2371,-54.9608],
[-65.0721,-54.6888],
[-66.0736,-54.6209],
[-66.0322,-54.553],
[-66.2059,-54.553],
[-66.1644,-54.4851],
[-66.4248,-54.4851],
[-66.3833,-54.4172],
[-66.6887,-54.3494],
[-66.6473,-54.2816],
[-66.9072,-54.2816],
[-66.8658,-54.2138],
[-67.4337,-54.0106],
[-67.3924,-53.9429],
[-67.4788,-53.9429],
[-67.4826,-53.8076],
[-67.9178,-53.6723],
[-67.8767,-53.6048],
[-68.053,-53.4697],
[-67.9713,-53.3347],
[-68.4462,-53.2673],
[-68.1978,-52.9976],
[-68.2836,-52.9976],
[-68.3341,-52.7957],
[-68.5909,-52.7957],
[-68.7123,-52.9976]
]
],
[
[
[-64.8015,-54.9608],
[-64.2378,-54.8927],
[-64.0694,-54.7568],
[-64.4173,-54.7568],
[-64.7192,-54.8247],
[-64.8015,-54.9608]
]
],
[
[
[-64.5368,-42.5035],
[-64.3235,-42.7636],
[-64.324,-42.9588],
[-63.7356,-42.8937],
[-63.6028,-42.5685],
[-63.6828,-42.5685],
[-63.6039,-42.3735],
[-63.6838,-42.3735],
[-63.6315,-42.2435],
[-63.7391,-42.1136],
[-64.3244,-42.1786],
[-64.3771,-42.3085],
[-64.1901,-42.4385],
[-64.5101,-42.4385],
[-64.5368,-42.5035]
]
]
]}
}
