{
"type": "Feature",
"properties": {"id":"cliopatria-greco-bactrian-kingdom-165bce","edge_precision":"unknown","cliopatria_name":"Greco-Bactrian Kingdom","cliopatria_from_year":-164,"cliopatria_to_year":-145,"cliopatria_area_km2":1194248,"cliopatria_wikidata":"Q488880","cliopatria_wikipedia":"Greco-Bactrian Kingdom","cliopatria_seshat_id":"af_greco_bactrian_k"},
"geometry": {"type": "MultiPolygon", "coordinates": [
[
[
[63.9409,40.0964],
[63.9673,39.9023],
[64.1692,39.7729],
[64.1346,39.6436],
[64.3366,39.5143],
[64.3024,39.385],
[64.6109,39.0618],
[64.5606,38.868],
[64.7009,38.8034],
[64.6677,38.6743],
[65.7214,37.5773],
[65.4239,36.9971],
[65.3931,36.8682],
[65.5804,36.6749],
[65.3968,36.224],
[65.4744,36.224],
[65.4445,36.0952],
[65.5996,36.0952],
[65.5402,35.8377],
[65.6177,35.8377],
[65.6363,35.5802],
[66.3365,35.2584],
[66.3266,34.8723],
[66.703,34.4863],
[66.78,34.4863],
[66.7515,34.3577],
[66.9682,34.2933],
[66.9884,34.0361],
[67.3872,34.1004],
[67.4984,33.9075],
[67.6663,33.9718],
[67.7916,33.8432],
[68.5171,33.6502],
[68.4745,33.4574],
[68.5512,33.4574],
[68.3905,33.0716],
[67.9391,32.7502],
[67.7955,32.4288],
[67.6294,32.3645],
[67.5005,32.1074],
[67.3478,32.1074],
[67.3983,31.9789],
[67.042,31.7218],
[66.5373,31.0791],
[66.5655,29.9865],
[67.0171,29.5366],
[67.1243,29.2795],
[68.7215,28.8938],
[69.2495,28.4438],
[69.5298,28.3153],
[69.9069,28.3153],
[70.0692,27.9295],
[70.5425,28.0581],
[70.7367,27.8652],
[70.7157,27.7367],
[73.3536,28.1867],
[74.8167,28.7652],
[75.0042,28.9581],
[75.4947,29.1509],
[75.723,28.7652],
[75.7381,28.4438],
[76.2068,28.1224],
[76.2011,27.6724],
[76.1145,27.6081],
[76.3065,27.4152],
[76.2843,27.2866],
[76.4878,27.158],
[76.4659,27.0295],
[76.6588,26.8366],
[77.1524,26.6437],
[77.6888,26.708],
[78.022,26.9009],
[78.0433,27.8652],
[78.0552,27.9295],
[78.0402,28.251],
[77.9648,28.251],
[77.9897,29.1509],
[77.8776,29.3438],
[77.9305,29.6009],
[77.8548,29.6009],
[77.9358,29.9865],
[79.4087,31.1434],
[79.4237,31.2076],
[79.1796,31.4647],
[78.8448,31.3362],
[78.8443,31.6575],
[78.448,31.5933],
[76.4634,32.236],
[76.0811,32.5574],
[76.1429,32.8145],
[76.0663,32.8145],
[76.0975,32.943],
[75.9443,32.943],
[75.8245,33.3931],
[75.687,33.4574],
[75.5406,34.1004],
[74.0342,34.229],
[73.8962,34.2933],
[73.9284,34.422],
[73.4663,34.422],
[73.2832,34.615],
[72.9909,34.6793],
[72.9459,34.8079],
[72.7916,34.8079],
[72.7466,34.9366],
[72.1161,35.194],
[71.9939,35.3227],
[72.0263,35.4514],
[71.8267,35.5802],
[71.8594,35.7089],
[71.7209,35.7733],
[71.7093,36.0308],
[71.6318,36.0308],
[71.6983,36.2884],
[71.6207,36.2884],
[71.7487,36.4816],
[71.6711,36.4816],
[71.7049,36.6105],
[71.8945,36.7393],
[71.8855,36.9971],
[72.9893,38.1578],
[73.4942,38.5451],
[73.7479,39.1265],
[73.6303,39.2557],
[73.6903,39.4496],
[73.868,39.5143],
[73.9118,39.9023],
[73.9325,39.967],
[73.684,40.4201],
[73.5257,40.4201],
[73.4889,40.5496],
[73.3305,40.5496],
[73.2938,40.6792],
[73.0193,40.8088],
[72.7815,40.8088],
[72.7662,41.0032],
[72.5924,41.1977],
[72.5129,41.1977],
[71.8764,41.9114],
[71.3257,42.1712],
[71.086,42.1712],
[71.0499,42.3012],
[70.7084,42.2362],
[70.6284,42.2362],
[68.6857,41.9114],
[67.5473,41.5869],
[66.891,41.2625],
[66.6525,41.2625],
[66.6135,41.1328],
[65.8035,40.8088],
[65.5888,40.6144],
[65.4304,40.6144],
[65.449,40.6792],
[65.3697,40.6792],
[65.3511,40.6144],
[65.2719,40.6144],
[65.235,40.4849],
[64.3894,40.2906],
[64.0199,40.0964],
[63.9409,40.0964]
]
],
[
[
[67.5611,33.8432],
[67.6379,33.8432],
[67.6521,33.9075],
[67.5752,33.9075],
[67.5611,33.8432]
]
]
]}
}
