{
"type": "Feature",
"properties": {"id":"cliopatria-tay-son-dynasty-1788","edge_precision":"unknown","cliopatria_name":"Tây Sơn dynasty","cliopatria_from_year":1788,"cliopatria_to_year":1790,"cliopatria_area_km2":149997,"cliopatria_wikidata":"Q1034173","cliopatria_wikipedia":"Tây Sơn dynasty"},
"geometry": {"type": "MultiPolygon", "coordinates": [
[
[
[103.9571,19.3148],
[104.3065,19.1862],
[104.561,18.9291],
[105.2487,18.6076],
[105.2074,18.3505],
[106.6074,16.9362],
[106.6857,16.4861],
[106.9706,16.4219],
[107.0248,16.2933],
[107.5016,16.0361],
[107.2976,15.6504],
[107.6927,15.329],
[107.5127,14.5575],
[107.3804,14.1075],
[107.6669,13.4646],
[107.5248,12.886],
[107.6419,12.6289],
[107.7885,12.6289],
[108.1188,12.3074],
[108.1046,12.1789],
[108.3244,12.1789],
[108.4852,12.3074],
[108.705,12.3074],
[108.764,12.1789],
[109.0882,11.7931],
[109.2347,11.7931],
[109.2416,11.8574],
[109.2251,12.3717],
[109.3203,12.5646],
[109.4669,12.5646],
[109.5119,12.9503],
[109.3306,13.2718],
[109.3544,14.0432],
[109.1764,14.3646],
[109.1553,14.7504],
[108.9706,15.0075],
[109.0164,15.329],
[108.6767,15.5218],
[108.6955,15.6504],
[108.3657,15.9076],
[108.3308,16.1647],
[108.1393,16.3576],
[107.8447,16.3576],
[107.8644,16.4861],
[107.6532,16.5504],
[107.6731,16.679],
[107.482,16.8719],
[107.3346,16.8719],
[107.1002,17.2576],
[106.7517,17.3862],
[106.7721,17.5148],
[106.5179,17.7719],
[106.5696,18.0933],
[106.2949,18.2219],
[106.1783,18.4148],
[106.0305,18.4148],
[106.0513,18.5434],
[105.7339,18.8648],
[105.9655,19.8291],
[106.5369,20.1505],
[106.6854,20.6005],
[106.8337,20.6005],
[106.8657,20.7934],
[106.7494,20.9862],
[106.601,20.9862],
[106.4735,20.6648],
[105.7212,20.6005],
[105.5725,21.0505],
[105.1272,21.0505],
[104.8724,21.3077],
[104.7239,21.3077],
[104.7883,20.7934],
[104.5033,20.4077],
[104.8532,20.2791],
[104.9806,20.1505],
[104.9493,19.9577],
[104.527,19.6362],
[104.0827,19.6362],
[103.9571,19.3148]
]
],
[
[
[104.2466,22.0148],
[104.3209,22.0148],
[104.3317,22.0791],
[104.2573,22.0791],
[104.2466,22.0148]
]
],
[
[
[104.4111,10.3788],
[104.5399,10.186],
[105.0345,9.9931],
[105.0288,9.9288],
[105.2424,9.8645],
[105.2653,10.1217],
[104.7886,10.5074],
[104.496,10.5074],
[104.4901,10.4431],
[104.417,10.4431],
[104.4111,10.3788]
]
],
[
[
[105.8329,9.9288],
[106.187,9.8002],
[106.3447,9.9288],
[106.2217,10.186],
[106.3797,10.3145],
[105.9469,10.3788],
[105.9292,10.186],
[106.1427,10.1217],
[105.9234,10.1217],
[105.8329,9.9288]
]
],
[
[
[106.4345,10.8931],
[106.6354,10.7003],
[106.8549,10.7003],
[106.8798,10.9574],
[106.4597,11.1503],
[106.4345,10.8931]
]
],
[
[
[106.9529,10.9574],
[107.1724,10.9574],
[107.1915,11.1503],
[107.0452,11.1503],
[106.9529,10.9574]
]
],
[
[
[107.0012,10.7003],
[107.0743,10.7003],
[107.0499,10.4431],
[107.2022,10.5074],
[107.2331,10.8288],
[107.0136,10.8288],
[107.0012,10.7003]
]
]
]}
}
