{
"type": "Feature",
"properties": {"id":"cliopatria-kingdom-of-spain-1885","edge_precision":"unknown","cliopatria_name":"Kingdom of Spain","cliopatria_from_year":1885,"cliopatria_to_year":1889,"cliopatria_area_km2":1044232,"cliopatria_wikidata":"Q29","cliopatria_wikipedia":"Spain","cliopatria_seshat_id":"es_spanish_emp_3","cliopatria_member_of":"(Spanish Empire)"},
"geometry": {"type": "MultiPolygon", "coordinates": [
[
[
[-84.7974,21.822],
[-84.4368,21.8863],
[-84.4148,21.7577],
[-84.2662,21.7577],
[-84.0761,21.9505],
[-83.9164,21.8863],
[-83.8118,22.1434],
[-83.2279,22.2077],
[-83.1756,22.3363],
[-83.0269,22.3363],
[-82.9115,22.5291],
[-82.6363,22.6577],
[-81.743,22.6577],
[-81.6353,22.4648],
[-82.0818,22.4648],
[-82.0487,22.272],
[-80.89,22.0148],
[-80.3695,22.0148],
[-79.9453,21.6934],
[-79.6481,21.6934],
[-79.2457,21.5005],
[-78.6616,21.5648],
[-78.2445,20.7934],
[-77.9281,20.6648],
[-77.1864,20.6648],
[-77.1381,20.3434],
[-77.554,20.1505],
[-77.683,20.022],
[-77.6543,19.8291],
[-76.9136,19.8291],
[-76.4881,19.9577],
[-75.7472,19.9577],
[-75.21,19.8291],
[-74.0708,20.1505],
[-74.0986,20.3434],
[-74.321,20.3434],
[-74.748,20.7291],
[-75.4994,20.7934],
[-75.6313,21.1791],
[-75.9928,21.1148],
[-76.2448,21.3077],
[-76.7745,21.372],
[-76.7943,21.5005],
[-77.0272,21.5648],
[-77.0574,21.7577],
[-77.6621,21.822],
[-77.5236,21.8863],
[-77.6391,22.1434],
[-78.0006,22.0791],
[-78.5737,22.4005],
[-79.2541,22.4648],
[-79.7772,22.9148],
[-79.8517,22.9148],
[-80.4699,23.0434],
[-80.5671,23.172],
[-81.0772,23.1077],
[-81.1001,23.2363],
[-82.2925,23.2363],
[-82.7792,23.0434],
[-83.2262,23.0434],
[-83.9991,22.7863],
[-84.3773,22.4005],
[-84.3212,22.0791],
[-84.7563,22.0148],
[-84.7974,21.822]
]
],
[
[
[-83.0879,21.822],
[-82.9493,21.4363],
[-82.5036,21.4363],
[-82.4826,21.7577],
[-82.4933,21.822],
[-82.6636,21.9505],
[-83.0353,21.9505],
[-83.0879,21.822]
]
],
[
[
[-78.5951,22.5291],
[-78.4249,22.4005],
[-78.2017,22.4005],
[-78.2336,22.5934],
[-78.5951,22.5291]
]
],
[
[
[-67.2586,18.4791],
[-67.1207,17.9648],
[-66.2268,17.9005],
[-66.153,17.9005],
[-65.7178,17.9648],
[-65.5196,18.1576],
[-65.551,18.4148],
[-66.1581,18.5434],
[-67.2586,18.4791]
]
],
[
[
[-18.0575,27.6724],
[-17.9018,27.6081],
[-17.8469,27.8652],
[-17.9976,27.8652],
[-17.9924,27.8009],
[-18.0575,27.6724]
]
],
[
[
[-18.0022,28.8295],
[-17.9858,28.6367],
[-17.8995,28.5081],
[-17.6732,28.5081],
[-17.7056,28.8938],
[-17.8567,28.8938],
[-18.0022,28.8295]
]
],
[
[
[-17.3452,28.1867],
[-17.2545,27.9938],
[-17.1791,27.9938],
[-17.0335,28.0581],
[-17.1242,28.251],
[-17.3452,28.1867]
]
],
[
[
[-16.9894,21.372],
[-16.912,21.3077],
[-16.4665,21.3077],
[-16.5532,21.5648],
[-16.2717,21.8863],
[-16.2781,22.0148],
[-15.9158,22.2077],
[-15.7316,22.9791],
[-15.5961,23.2363],
[-15.3081,23.4291],
[-15.2576,23.8792],
[-14.8309,24.2649],
[-14.4645,24.3935],
[-14.5463,24.5221],
[-14.4716,24.5221],
[-14.4222,24.9721],
[-14.28,25.1007],
[-14.0933,25.7436],
[-13.023,26.6437],
[-12.8296,27.158],
[-12.5451,27.4152],
[-12.4698,27.4152],
[-11.9593,27.6724],
[-11.5828,27.6724],
[-11.6662,27.8009],
[-11.5195,27.8652],
[-11.5276,27.9938],
[-11.0875,28.1867],
[-11.0956,28.3153],
[-11.4056,28.4438],
[-11.9881,28.1224],
[-12.9593,27.9938],
[-13.3727,27.4152],
[-13.4897,26.9009],
[-14.4958,26.1937],
[-14.8228,25.4221],
[-14.9309,24.7149],
[-15.8581,23.9435],
[-15.7693,23.6863],
[-15.9045,23.4291],
[-16.1212,23.3006],
[-16.1785,22.9791],
[-16.3241,22.9148],
[-16.3751,22.4648],
[-16.5951,22.4005],
[-16.944,21.9505],
[-16.9894,21.372]
]
],
[
[
[-16.9082,28.3795],
[-16.6467,27.9295],
[-16.3552,28.0581],
[-16.3651,28.1867],
[-16.0834,28.4438],
[-16.0935,28.5724],
[-16.3954,28.5724],
[-16.3903,28.5081],
[-16.9082,28.3795]
]
],
[
[
[-15.8276,28.0581],
[-15.7283,27.7367],
[-15.4318,27.8009],
[-15.3565,27.8009],
[-15.3048,28.1224],
[-15.7619,28.1867],
[-15.8276,28.0581]
]
],
[
[
[-14.3203,28.0581],
[-13.8062,28.251],
[-13.763,28.701],
[-13.7677,28.7652],
[-14.065,28.701],
[-14.1171,28.3795],
[-14.2633,28.3153],
[-14.3203,28.0581]
]
],
[
[
[-13.8621,29.0224],
[-13.8574,28.9581],
[-13.8479,28.8295],
[-13.4749,28.8938],
[-13.4228,29.2152],
[-13.6497,29.2152],
[-13.8621,29.0224]
]
],
[
[
[-9.8385,29.9223],
[-9.8343,29.858],
[-9.3879,29.9865],
[-9.4046,30.2436],
[-9.6322,30.2436],
[-9.628,30.1794],
[-9.7038,30.1794],
[-9.6953,30.0508],
[-9.7711,30.0508],
[-9.7627,29.9223],
[-9.8385,29.9223]
]
],
[
[
[-9.3046,43.1467],
[-9.0787,42.5612],
[-8.6574,42.3662],
[-8.9561,42.1712],
[-8.9281,41.9114],
[-8.47,42.1063],
[-8.1505,42.1063],
[-8.1371,41.9764],
[-8.2169,41.9764],
[-8.1172,41.7816],
[-6.7008,41.9764],
[-6.5169,41.7167],
[-6.2719,41.6518],
[-6.2542,41.4571],
[-6.9277,41.0032],
[-6.8684,40.3554],
[-7.0149,40.2259],
[-7.0032,40.0964],
[-6.8395,40.0317],
[-6.8955,39.7729],
[-7.4358,39.6436],
[-7.4184,39.4496],
[-7.2552,39.385],
[-6.9854,38.9972],
[-7.1203,38.7389],
[-7.2717,38.6743],
[-7.2442,38.3515],
[-6.9984,38.2224],
[-6.9877,38.0933],
[-7.1442,38.0933],
[-7.2791,37.8352],
[-7.5027,37.7062],
[-7.3874,37.2549],
[-6.8418,37.2549],
[-6.588,36.9971],
[-6.4323,36.9971],
[-6.0638,36.224],
[-5.8311,36.224],
[-5.6623,36.0308],
[-5.3745,36.3528],
[-5.2193,36.3528],
[-5.2282,36.4816],
[-4.6888,36.546],
[-4.4686,36.7393],
[-2.6801,36.7393],
[-2.5321,36.8682],
[-2.0616,36.8037],
[-1.8574,37.3193],
[-1.6235,37.3193],
[-1.7087,37.4483],
[-0.7048,37.6417],
[-0.8035,38.0288],
[-0.6609,38.2869],
[0.0994,38.7389],
[-0.3137,39.1265],
[-0.3454,39.7083],
[-0.2019,39.967],
[0.1825,40.1612],
[0.2478,40.4201],
[0.475,40.6144],
[0.7093,40.6792],
[0.6958,40.9384],
[1.2384,41.1977],
[2.1066,41.3274],
[2.3336,41.5869],
[2.8856,41.7167],
[3.1168,41.9114],
[3.1781,42.3662],
[3.0954,42.4312],
[3.0927,42.4962],
[2.4583,42.3662],
[1.8091,42.5612],
[1.5754,42.4312],
[1.4888,42.5612],
[1.4855,42.6262],
[1.0747,42.8213],
[0.0401,42.6912],
[-0.2081,42.8213],
[-0.5288,42.8213],
[-1.027,43.0816],
[-1.4284,43.0816],
[-1.4418,43.2769],
[-1.6876,43.3421],
[-3.2959,43.3421],
[-3.4672,43.4723],
[-4.9904,43.4072],
[-5.5656,43.5375],
[-7.1757,43.5375],
[-7.3435,43.6027],
[-7.2765,43.733],
[-8.2436,43.733],
[-8.3904,43.6027],
[-8.369,43.4072],
[-8.8517,43.4072],
[-9.3046,43.1467]
]
],
[
[
[-5.5713,35.8377],
[-5.485,35.7089],
[-5.3345,35.7733],
[-5.3389,35.8377],
[-5.5713,35.8377]
]
],
[
[
[-2.9926,35.4514],
[-2.9816,35.2584],
[-2.827,35.2584],
[-2.8306,35.3227],
[-2.8379,35.4514],
[-2.9926,35.4514]
]
],
[
[
[1.1831,39.0618],
[1.2735,38.8034],
[1.4305,38.8034],
[1.6575,38.9972],
[1.6518,39.1265],
[1.2587,39.1265],
[1.1831,39.0618]
]
],
[
[
[2.3381,39.6436],
[2.3461,39.4496],
[2.6586,39.5143],
[2.8237,39.3203],
[3.2958,39.3203],
[3.5158,39.7729],
[3.1979,39.8376],
[3.193,39.967],
[2.8772,39.967],
[2.3381,39.6436]
]
],
[
[
[3.7411,40.0964],
[3.8268,39.9023],
[4.3024,39.8376],
[4.2151,40.0964],
[3.7411,40.0964]
]
],
[
[
[8.3119,3.2429],
[8.6751,3.1786],
[8.8992,3.5643],
[8.9001,3.6286],
[8.83,3.8215],
[8.5377,3.7572],
[8.4613,3.5],
[8.3147,3.4358],
[8.3119,3.2429]
]
],
[
[
[117.0894,8.3216],
[117.2354,8.3216],
[117.3981,8.5145],
[118.0109,8.8359],
[118.0226,8.9645],
[118.7284,9.4788],
[118.7661,9.8645],
[119.0714,9.9931],
[119.1445,9.9931],
[119.3169,10.2502],
[120.002,10.5074],
[120.0157,10.636],
[119.7162,10.5717],
[119.5836,10.7003],
[119.5669,11.2146],
[119.3401,11.1503],
[119.1907,10.4431],
[118.8914,10.3788],
[118.2169,9.4788],
[117.2805,8.8359],
[117.0894,8.3216]
]
],
[
[
[119.691,5.0429],
[120.1364,5.1715],
[120.1489,5.3644],
[119.9261,5.3001],
[119.9219,5.2358],
[119.6991,5.1715],
[119.691,5.0429]
]
],
[
[
[119.7327,16.1004],
[119.8064,16.1004],
[119.7741,15.9076],
[119.9107,15.8433],
[119.858,15.5218],
[120.0272,15.2004],
[120.0406,14.8147],
[120.3149,14.6861],
[120.3498,14.4289],
[120.6436,14.4289],
[120.6187,14.7504],
[120.9664,14.6218],
[120.947,14.4932],
[120.6245,14.3004],
[120.6238,13.7861],
[120.8531,13.8503],
[121.037,13.5932],
[121.4039,13.5932],
[121.5045,13.7861],
[121.8165,13.9146],
[122.0091,13.7218],
[122.1558,13.7218],
[122.4776,13.4003],
[122.5244,13.2075],
[122.7444,13.2075],
[122.5228,13.7218],
[122.5412,13.8503],
[122.688,13.8503],
[122.798,13.5932],
[123.2667,13.2718],
[123.2403,13.0789],
[122.9557,13.1432],
[122.9296,12.9503],
[123.0591,12.8217],
[123.3439,12.7575],
[123.2316,13.0146],
[123.4516,13.0146],
[123.6456,12.8217],
[123.7922,12.8217],
[123.8965,12.5003],
[124.1164,12.5003],
[124.1379,13.2075],
[123.8446,13.2075],
[123.8071,13.4646],
[123.6052,13.5932],
[123.9171,13.7218],
[123.8718,13.9146],
[123.5782,13.9146],
[123.5237,14.0432],
[123.2395,14.1075],
[123.2659,13.7861],
[123.1191,13.7861],
[123.0384,14.2361],
[122.764,14.3646],
[122.3967,14.3646],
[122.1928,13.9789],
[122.0837,14.2361],
[121.8445,14.1075],
[121.6719,14.4289],
[121.7944,14.7504],
[121.5939,14.8789],
[121.4875,15.1361],
[121.6034,15.8433],
[121.8678,16.1004],
[122.2581,16.229],
[122.639,17.129],
[122.5033,17.1933],
[122.5385,17.3862],
[122.2169,17.6433],
[122.2886,18.0291],
[122.435,18.4148],
[122.3854,18.5434],
[122.1636,18.5434],
[122.0534,18.3505],
[121.684,18.3505],
[121.4366,18.6076],
[120.6115,18.5434],
[120.3486,17.5148],
[120.4614,17.3219],
[120.314,16.4861],
[120.3877,16.4861],
[120.3954,16.1004],
[120.1117,16.1647],
[120.0083,16.4219],
[119.7763,16.3576],
[119.7327,16.1004]
]
],
[
[
[119.8183,12.1146],
[119.957,12.0503],
[119.9493,11.986],
[120.3155,11.986],
[120.3389,12.1789],
[119.8419,12.3074],
[119.8183,12.1146]
]
],
[
[
[119.8531,11.7931],
[120.0652,11.7289],
[120.0881,11.9217],
[119.8683,11.9217],
[119.8531,11.7931]
]
],
[
[
[120.101,13.7218],
[120.3122,13.6575],
[120.3212,13.7218],
[120.2659,13.8503],
[120.1191,13.8503],
[120.101,13.7218]
]
],
[
[
[120.3414,13.336],
[120.6737,13.0789],
[120.7049,12.7575],
[120.8432,12.6932],
[120.949,12.3717],
[121.218,12.1789],
[121.2913,12.1789],
[121.5514,12.5003],
[121.5623,13.1432],
[121.4243,13.2075],
[121.4417,13.336],
[121.3127,13.4646],
[120.7435,13.5932],
[120.3678,13.5289],
[120.3414,13.336]
]
],
[
[
[120.8397,5.8787],
[121.3455,5.8144],
[121.359,6.0073],
[120.8532,6.0715],
[120.8442,5.943],
[120.8397,5.8787]
]
],
[
[
[121.3484,19.3148],
[121.4842,19.2505],
[121.5582,19.2505],
[121.5826,19.3791],
[121.4468,19.4434],
[121.3484,19.3148]
]
],
[
[
[121.744,13.4003],
[121.8643,13.2075],
[122.1577,13.2075],
[122.202,13.5289],
[121.7529,13.4646],
[121.744,13.4003]
]
],
[
[
[121.7563,6.4573],
[121.9703,6.393],
[122.0432,6.393],
[122.1938,6.4573],
[122.2862,6.7144],
[121.8535,6.7787],
[121.7563,6.4573]
]
],
[
[
[121.7955,6.9716],
[122.2332,6.9716],
[122.3423,7.4216],
[122.4935,7.4859],
[122.588,7.743],
[122.7286,7.6787],
[122.7644,7.2287],
[122.9155,7.293],
[122.9314,7.4859],
[123.4315,7.3573],
[123.38,7.6145],
[123.4639,7.743],
[123.6828,7.743],
[124.0936,7.4216],
[123.9009,6.843],
[124.0026,6.2644],
[124.6991,5.8144],
[124.9907,5.8144],
[125.1504,6.0073],
[125.1229,5.6215],
[125.3327,5.493],
[125.6515,5.8787],
[125.6846,6.3287],
[125.4126,6.5858],
[125.5211,7.0359],
[125.8026,6.9073],
[125.8129,7.0359],
[125.6723,7.1002],
[125.6828,7.2287],
[125.8287,7.2287],
[126.0163,6.843],
[125.9861,6.4573],
[126.2,6.393],
[126.2351,6.843],
[126.5477,7.1002],
[126.5911,7.6145],
[126.5181,7.6145],
[126.5349,7.8073],
[126.3946,7.8716],
[126.4964,8.193],
[126.3681,8.3859],
[126.3741,8.4502],
[126.1671,8.5788],
[126.1793,8.7073],
[126.3315,8.7716],
[126.3502,8.9645],
[126.2104,9.0288],
[126.2359,9.2859],
[126.0167,9.2859],
[125.9631,9.4788],
[125.4183,9.8645],
[125.3119,9.5431],
[125.4798,9.0288],
[124.8224,9.0288],
[124.7065,8.5788],
[124.2743,8.6431],
[124.0872,8.193],
[123.8681,8.193],
[123.7631,8.6431],
[123.3369,8.7716],
[123.246,8.5788],
[122.948,8.5145],
[122.9248,8.2573],
[122.7673,8.1288],
[122.0991,8.0002],
[122.061,7.5502],
[121.8159,7.2287],
[121.7955,6.9716]
]
],
[
[
[121.8144,14.8789],
[121.858,14.6861],
[122.0685,14.6218],
[122.1287,15.0075],
[121.8448,15.0718],
[121.8144,14.8789]
]
],
[
[
[121.8226,11.7289],
[122.0346,11.6646],
[121.9458,10.8931],
[121.8727,10.8931],
[121.8967,10.4431],
[122.5027,10.636],
[122.4749,10.3788],
[122.6212,10.3788],
[122.7883,10.5717],
[122.7364,10.7645],
[122.7435,10.8288],
[122.8383,11.0217],
[123.1384,11.086],
[123.1176,11.536],
[122.5395,11.6003],
[122.4161,11.7931],
[121.9269,11.986],
[121.8226,11.7289]
]
],
[
[
[121.8774,12.1789],
[121.9506,12.1789],
[121.9427,12.1146],
[122.0892,12.1146],
[122.1295,12.436],
[121.9015,12.3717],
[121.8774,12.1789]
]
],
[
[
[121.9911,12.5003],
[122.146,12.5646],
[122.2193,12.5646],
[122.2359,12.6932],
[122.016,12.6932],
[121.9911,12.5003]
]
],
[
[
[122.3285,9.6717],
[122.5888,9.3502],
[122.8685,9.2216],
[122.85,9.0288],
[123.2152,9.0288],
[123.3069,9.2216],
[123.3132,9.2859],
[123.1455,9.8002],
[123.3525,10.3788],
[123.5127,10.5074],
[123.5628,10.9574],
[123.0579,11.0217],
[122.897,10.8931],
[122.7883,10.5717],
[122.8133,10.1217],
[122.3612,9.9931],
[122.3285,9.6717]
]
],
[
[
[122.4145,12.3717],
[122.5448,12.2432],
[122.6913,12.2432],
[122.7157,12.436],
[122.5124,12.5646],
[122.4145,12.3717]
]
],
[
[
[123.172,11.986],
[123.3265,12.0503],
[123.3997,12.0503],
[123.5543,12.1146],
[123.8075,11.7931],
[124.0926,11.7289],
[124.0671,12.1146],
[123.7252,12.3074],
[123.8316,12.5646],
[123.7667,12.6289],
[123.6201,12.6289],
[123.6034,12.5003],
[123.237,12.5003],
[123.172,11.986]
]
],
[
[
[123.2592,9.4788],
[123.4785,9.4788],
[123.6041,9.9931],
[123.8506,10.2502],
[123.9969,10.2502],
[124.1121,11.2788],
[123.885,11.2146],
[123.659,10.5074],
[123.4119,10.2502],
[123.2786,9.6717],
[123.2592,9.4788]
]
],
[
[
[123.4406,9.0931],
[123.5805,9.0288],
[123.739,9.1574],
[123.7453,9.2216],
[123.6849,9.3502],
[123.5387,9.3502],
[123.4406,9.0931]
]
],
[
[
[123.7369,9.8645],
[123.7772,9.5431],
[124.5942,9.6717],
[124.6209,9.9288],
[124.5019,10.186],
[124.0563,10.1217],
[123.9832,10.1217],
[123.7369,9.8645]
]
],
[
[
[124.1096,13.5289],
[124.2473,13.4646],
[124.4216,13.6575],
[124.4308,13.7218],
[124.4685,13.9789],
[124.1206,14.1075],
[124.1096,13.5289]
]
],
[
[
[124.251,11.2146],
[124.4262,10.8288],
[124.653,10.8931],
[124.7632,10.5717],
[124.7212,10.186],
[124.9201,9.9931],
[125.0663,9.9931],
[125.0206,10.2502],
[125.24,10.2502],
[125.2681,10.5074],
[125.0262,10.9574],
[125.056,11.2146],
[125.1874,11.086],
[125.7654,11.0217],
[125.7804,11.1503],
[125.6415,11.2146],
[125.6491,11.2788],
[125.476,11.6646],
[125.5486,12.2432],
[125.3371,12.3074],
[125.3622,12.5003],
[124.2714,12.5646],
[124.3601,12.1146],
[124.6369,11.986],
[124.8248,11.7289],
[124.9713,11.7289],
[124.7052,11.3431],
[124.42,11.4074],
[124.5741,11.4717],
[124.6052,11.7289],
[124.3123,11.7289],
[124.3699,11.6003],
[124.251,11.2146]
]
],
[
[
[124.549,9.2216],
[124.6825,9.0931],
[124.6763,9.0288],
[124.8224,9.0288],
[124.7746,9.2859],
[124.549,9.2216]
]
],
[
[
[125.4734,10.3788],
[125.4981,9.9288],
[125.5712,9.9288],
[125.7107,9.8645],
[125.6999,10.4431],
[125.4734,10.3788]
]
],
[
[
[125.8301,9.6074],
[125.9697,9.5431],
[125.9098,9.6717],
[125.9165,9.7359],
[125.8301,9.6074]
]
],
[
[
[125.9165,9.7359],
[126.056,9.6717],
[126.1425,9.8002],
[126.1493,9.8645],
[126.0967,10.0574],
[125.9436,9.9931],
[125.9165,9.7359]
]
],
[
[
[134.3766,7.3573],
[134.4496,7.3573],
[134.4439,7.293],
[134.5955,7.3573],
[134.6188,7.6145],
[134.394,7.5502],
[134.3766,7.3573]
]
],
[
[
[144.6109,13.2718],
[144.8414,13.336],
[144.9683,13.6575],
[144.8949,13.6575],
[144.6532,13.5289],
[144.6109,13.2718]
]
],
[
[
[158.0389,6.843],
[158.2641,6.9073],
[158.1976,6.9716],
[158.1246,6.9716],
[158.0389,6.843]
]
],
[
[
[158.0993,6.7144],
[158.2452,6.7144],
[158.1785,6.7787],
[158.1848,6.843],
[158.0993,6.7144]
]
],
[
[
[158.2514,6.7787],
[158.3244,6.7787],
[158.3371,6.9073],
[158.2641,6.9073],
[158.2578,6.843],
[158.2514,6.7787]
]
]
]}
}
