{
"type": "Feature",
"properties": {"id":"cliopatria-french-indochina-1950","edge_precision":"unknown","cliopatria_name":"French Indochina","cliopatria_from_year":1950,"cliopatria_to_year":1952,"cliopatria_area_km2":787367,"cliopatria_wikidata":"Q185682","cliopatria_wikipedia":"French Indochina","cliopatria_seshat_id":"fr_france_modern_2","cliopatria_member_of":"(French Fourth Republic)"},
"geometry": {"type": "MultiPolygon", "coordinates": [
[
[
[75.5254,11.4717],
[75.5986,11.4717],
[75.6032,11.536],
[75.6765,11.536],
[75.6811,11.6003],
[75.5347,11.6003],
[75.5254,11.4717]
]
],
[
[
[79.7228,11.7931],
[79.8693,11.7931],
[79.8794,11.9217],
[79.8061,11.9217],
[79.7228,11.7931]
]
],
[
[
[79.7286,10.8931],
[79.8749,10.8931],
[79.8843,11.0217],
[79.8111,11.0217],
[79.7286,10.8931]
]
],
[
[
[82.2581,16.7433],
[82.4055,16.7433],
[82.4205,16.8719],
[82.3468,16.8719],
[82.2581,16.7433]
]
],
[
[
[88.3421,22.5934],
[88.4166,22.5934],
[88.5187,22.7863],
[88.3698,22.7863],
[88.3421,22.5934]
]
],
[
[
[100.1289,20.4077],
[100.5439,20.2148],
[100.5186,19.5719],
[101.1849,19.5719],
[101.313,19.4434],
[101.2829,19.2505],
[101.4009,19.0577],
[101.351,18.7362],
[101.1832,18.6076],
[101.1338,18.2862],
[101.2717,18.2219],
[101.0652,17.8362],
[101.081,17.4505],
[101.312,17.5148],
[102.0743,18.1576],
[102.4976,18.0291],
[102.5516,17.9005],
[102.9208,17.9005],
[103.3602,18.3505],
[104.015,18.2862],
[104.4611,17.8362],
[104.441,17.7076],
[104.8337,17.3862],
[104.78,16.5504],
[104.8891,16.2933],
[105.3025,16.1004],
[105.431,15.9718],
[105.4031,15.779],
[105.6789,15.6504],
[105.5157,15.0075],
[105.654,14.9432],
[105.6111,14.6218],
[105.4307,14.3646],
[104.9818,14.3004],
[104.9248,14.4289],
[103.4558,14.4289],
[102.9016,14.1075],
[102.7083,13.7218],
[102.3921,13.5289],
[102.407,13.0146],
[102.8434,12.3074],
[102.7434,12.0503],
[102.7368,11.986],
[102.8701,11.8574],
[102.8443,11.6003],
[103.0512,11.4717],
[103.0628,10.8288],
[103.3554,10.8288],
[103.5993,11.086],
[103.6421,10.7645],
[103.4898,10.7003],
[103.5452,10.5074],
[103.9168,10.5717],
[104.1244,10.4431],
[104.417,10.4431],
[104.5399,10.186],
[105.0168,10],
[106.6592,10],
[106.7949,10.0574],
[106.8066,10.186],
[106.6663,10.2502],
[106.8185,10.3145],
[106.7574,10.4431],
[106.9828,10.5074],
[107.0012,10.7003],
[107.0743,10.7003],
[107.0499,10.4431],
[107.3364,10.3788],
[108.0253,10.7003],
[108.1173,10.8931],
[108.5691,11.0217],
[108.582,11.1503],
[108.7284,11.1503],
[109.2141,11.6003],
[109.2251,12.3717],
[109.3203,12.5646],
[109.4669,12.5646],
[109.5119,12.9503],
[109.3306,13.2718],
[109.3544,14.0432],
[109.1764,14.3646],
[109.1553,14.7504],
[108.9706,15.0075],
[109.0164,15.329],
[108.6767,15.5218],
[108.6955,15.6504],
[108.3657,15.9076],
[108.3308,16.1647],
[108.1393,16.3576],
[107.8447,16.3576],
[107.8644,16.4861],
[107.6532,16.5504],
[107.6731,16.679],
[107.482,16.8719],
[107.3346,16.8719],
[107.1002,17.2576],
[106.7517,17.3862],
[106.7721,17.5148],
[106.5179,17.7719],
[106.5696,18.0933],
[106.2949,18.2219],
[106.1783,18.4148],
[106.0305,18.4148],
[106.0513,18.5434],
[105.7339,18.8648],
[105.9655,19.8291],
[106.5369,20.1505],
[106.6854,20.6005],
[106.8337,20.6005],
[106.8764,20.8577],
[107.4174,20.9862],
[107.7903,21.4363],
[108.0874,21.4363],
[108.0984,21.5005],
[107.9719,21.6291],
[107.5894,21.5648],
[107.4627,21.6934],
[107.1022,21.7577],
[106.6591,22.2077],
[106.6702,22.272],
[106.7093,22.9148],
[106.3254,22.8506],
[106.1995,22.9791],
[105.7526,22.9791],
[105.4379,23.3006],
[105.2143,23.3006],
[104.9561,23.1077],
[104.8361,22.8506],
[104.5158,22.722],
[104.1547,22.7863],
[104.036,22.5291],
[103.8871,22.5291],
[103.7713,22.722],
[103.3247,22.722],
[103.2173,22.5291],
[102.9197,22.5291],
[102.867,22.6577],
[102.5802,22.722],
[102.154,22.4005],
[101.7182,22.4648],
[101.6443,22.0148],
[101.8792,21.6291],
[101.8074,21.1791],
[101.3619,21.1791],
[101.3182,21.372],
[101.1798,21.4363],
[100.6937,21.1791],
[100.6436,20.8577],
[100.2427,20.6648],
[100.1289,20.4077]
]
],
[
[
[103.8144,10.2502],
[103.9435,10.0574],
[104.0897,10.0574],
[104.1244,10.4431],
[103.905,10.4431],
[103.8144,10.2502]
]
]
]}
}
