{
"type": "Feature",
"properties": {"id":"cliopatria-kingdom-of-northumbria-0926","edge_precision":"unknown","cliopatria_name":"Kingdom of Northumbria","cliopatria_from_year":926,"cliopatria_to_year":935,"cliopatria_area_km2":15698,"cliopatria_wikidata":"Q107299","cliopatria_wikipedia":"Northumbria","cliopatria_seshat_id":"gb_anglo_saxon_1","cliopatria_member_of":"(Anglo-Saxon England)"},
"geometry": {"type": "MultiPolygon", "coordinates": [
[
[
[-3.7837,55.9766],
[-3.385,55.5665],
[-3.3616,55.3618],
[-3.1868,55.3618],
[-3.0616,55.0211],
[-2.7928,54.9531],
[-2.6767,54.6811],
[-2.5029,54.6811],
[-2.4958,54.6132],
[-1.8877,54.6132],
[-1.8944,54.6811],
[-1.286,54.6811],
[-1.2988,54.8171],
[-1.486,54.9531],
[-1.5192,55.2936],
[-1.6065,55.2936],
[-1.7348,55.7031],
[-2.019,55.9082],
[-2.6563,56.1136],
[-3.1763,56.0451],
[-3.2643,56.0451],
[-3.7837,55.9766]
]
]
]}
}
