{
"type": "Feature",
"properties": {"id":"cliopatria-kingdom-of-khotan-0900","edge_precision":"unknown","cliopatria_name":"Kingdom of Khotan","cliopatria_from_year":900,"cliopatria_to_year":999,"cliopatria_area_km2":298344,"cliopatria_wikidata":"Q914898","cliopatria_wikipedia":"Kingdom of Khotan","cliopatria_seshat_id":"cn_khotan_k"},
"geometry": {"type": "MultiPolygon", "coordinates": [
[
[
[73.3953,39.5143],
[73.6903,39.4496],
[73.769,39.4496],
[75.7921,39.1265],
[77.0253,38.8034],
[77.2576,38.5451],
[77.4144,38.5451],
[77.5104,38.3515],
[77.667,38.3515],
[77.8415,38.1578],
[77.8014,38.0288],
[78.0931,37.7062],
[78.3857,37.6417],
[78.4244,37.5128],
[79.1454,37.3193],
[79.3982,37.126],
[80.3713,36.9971],
[81.0508,36.6749],
[81.0312,36.6105],
[85.1134,37.4483],
[85.1349,37.5128],
[85.8129,37.8998],
[86.0814,38.2224],
[86.4173,38.2869],
[86.4401,38.3515],
[86.6257,38.868],
[86.2964,39.2557],
[85.9817,39.2557],
[84.7739,38.7389],
[83.9218,38.5451],
[82.4322,38.5451],
[80.8586,38.9972],
[80.4625,39.4496],
[80.5072,39.5789],
[80.3157,39.7083],
[80.3609,39.8376],
[80.2258,39.9023],
[80.2384,40.1612],
[80.1593,40.1612],
[80.2521,40.4201],
[80.173,40.4201],
[80.6116,41.3922],
[81.1337,41.7167],
[81.184,41.8465],
[81.9758,42.2362],
[80.1338,42.4312],
[80.0032,42.3012],
[77.4299,41.3922],
[74.3537,41.0032],
[73.9214,40.4201],
[73.742,40.3554],
[73.8,40.2906],
[73.5731,39.5789],
[73.3953,39.5143]
]
]
]}
}
