{
"type": "Feature",
"properties": {"id":"cliopatria-principality-of-galicia-volhynia-1236","edge_precision":"unknown","cliopatria_name":"Principality of Galicia-Volhynia","cliopatria_from_year":1236,"cliopatria_to_year":1240,"cliopatria_area_km2":188586,"cliopatria_wikidata":"Q239502","cliopatria_wikipedia":"Kingdom of Galicia-Volhynia","cliopatria_seshat_id":"ua_galicia_volhynia_principality"},
"geometry": {"type": "MultiPolygon", "coordinates": [
[
[
[21.3857,49.4489],
[21.7983,49.3826],
[22.5231,49.0513],
[22.7784,49.1175],
[23.0897,48.8527],
[23.8269,48.7204],
[24.053,48.4559],
[24.379,48.3899],
[24.3672,48.2578],
[24.6867,48.1257],
[24.5862,47.9278],
[24.905,47.7959],
[24.8872,47.5982],
[25.2052,47.4665],
[25.2635,47.2032],
[25.4281,47.2032],
[25.4161,47.0716],
[25.7512,47.1374],
[26.1056,47.4006],
[26.4353,47.4006],
[27.1426,47.8619],
[28.5781,48.1257],
[29.0314,48.4559],
[29.1628,48.8527],
[29.354,49.0513],
[29.3875,49.3163],
[27.2327,49.4489],
[26.1131,49.9136],
[25.967,50.113],
[25.7992,50.113],
[25.8208,50.3125],
[25.6599,50.3791],
[25.6963,50.7121],
[25.9641,50.8455],
[26.0254,51.3797],
[25.5324,51.5134],
[25.6176,52.2505],
[25.5324,52.2505],
[25.5641,52.5191],
[25.4786,52.5191],
[25.5106,52.7881],
[25.425,52.7881],
[25.4492,52.99],
[25.6288,53.0574],
[25.7479,53.3271],
[25.281,53.7323],
[25.2976,53.8676],
[25.1414,54.0029],
[24.7253,54.1384],
[24.7415,54.2739],
[24.5843,54.4095],
[24.4976,54.4095],
[23.3262,54.0029],
[23.3189,53.9352],
[23.0385,53.7323],
[22.7322,53.2596],
[22.6462,53.2596],
[22.4288,52.7881],
[22.3432,52.7881],
[22.4224,52.7208],
[22.2929,52.2505],
[22.1042,52.0492],
[22.3472,51.9151],
[22.6874,51.9151],
[22.6686,51.7142],
[22.9955,51.5803],
[22.8794,51.246],
[23.0424,51.1792],
[23.0238,50.9789],
[23.1083,50.9789],
[22.8972,50.5122],
[22.8913,50.4457],
[22.9754,50.4457],
[22.946,50.113],
[22.2583,49.9136],
[22.1585,49.7143],
[21.9911,49.7143],
[21.3857,49.4489]
]
]
]}
}
