{
"type": "Feature",
"properties": {"id":"cliopatria-gurjara-pratihara-dynasty-0947","edge_precision":"unknown","cliopatria_name":"Gurjara-Pratihara Dynasty","cliopatria_from_year":947,"cliopatria_to_year":959,"cliopatria_area_km2":323733,"cliopatria_wikidata":"Q5324","cliopatria_wikipedia":"Gurjara-Pratihara dynasty","cliopatria_seshat_id":"in_gurjara_pratihara_dyn"},
"geometry": {"type": "MultiPolygon", "coordinates": [
[
[
[70.2772,25.7436],
[70.6973,25.615],
[70.7862,25.165],
[71.1097,24.7792],
[71.0846,24.5827],
[71.3709,24.6079],
[72.2318,25.913],
[72.4508,25.5229],
[73.0629,24.8881],
[73.1475,24.2272],
[74.3668,24.0092],
[74.4663,23.7134],
[74.4165,23.0053],
[74.1057,22.0791],
[74.1413,22.0791],
[74.3717,22.1434],
[74.6885,23.5577],
[75.2845,24.1363],
[75.8327,24.3292],
[78.8948,24.3292],
[79.445,24.5221],
[79.4636,24.6506],
[79.7067,24.7792],
[80.0189,25.3579],
[79.9948,25.6793],
[79.9199,25.6793],
[80.0393,26.8366],
[79.9641,26.8366],
[79.906,27.3509],
[79.7556,27.3509],
[79.6404,27.5438],
[77.7185,27.7367],
[77.4407,27.8652],
[74.729,27.8652],
[71.7069,27.3509],
[71.4607,27.2223],
[71.4303,27.0295],
[70.8917,26.4508],
[70.8822,26.3865],
[70.2772,25.7436]
]
]
]}
}
