{
"type": "Feature",
"properties": {"id":"cliopatria-mauritania-2024","edge_precision":"unknown","cliopatria_name":"Mauritania","cliopatria_from_year":2024,"cliopatria_to_year":2024,"cliopatria_area_km2":1053247,"cliopatria_wikidata":"Q1025","cliopatria_wikipedia":"Mauritania"},
"geometry": {"type": "MultiPolygon", "coordinates": [
[
[
[-17.0605,21.3077],
[-17.0449,20.9862],
[-16.8254,21.0505],
[-16.6557,20.6005],
[-16.3561,20.5362],
[-16.1961,20.2791],
[-16.1846,20.022],
[-16.2587,20.022],
[-16.2502,19.8291],
[-16.4695,19.7648],
[-16.3813,19.4434],
[-16.5294,19.4434],
[-16.5237,19.3148],
[-16.1373,18.9291],
[-16.0115,17.6433],
[-16.2774,16.8719],
[-16.4201,16.7433],
[-16.5467,16.1647],
[-16.5445,16.1004],
[-16.3281,16.229],
[-16.1898,16.4861],
[-15.3795,16.4861],
[-15.0177,16.679],
[-14.2787,16.6147],
[-13.898,16.229],
[-13.3012,15.9718],
[-13.2184,15.6504],
[-12.8434,15.3933],
[-12.7631,15.1361],
[-12.616,15.1361],
[-12.0904,14.6861],
[-11.801,14.8789],
[-11.7386,15.329],
[-11.5245,15.5861],
[-11.2286,15.5218],
[-10.925,15.1361],
[-10.6385,15.4575],
[-9.6794,15.329],
[-9.391,15.5861],
[-9.0939,15.4575],
[-5.5632,15.4575],
[-5.4183,15.5861],
[-5.2836,16.2933],
[-5.507,16.4219],
[-5.5119,16.679],
[-5.5856,16.679],
[-5.9979,21.372],
[-6.0722,21.372],
[-6.1,22.272],
[-6.1743,22.272],
[-6.202,23.1077],
[-6.2765,23.1077],
[-6.4948,24.9721],
[-4.9266,25.0364],
[-5.0833,25.2293],
[-5.4624,25.3579],
[-6.7737,26.258],
[-7.617,26.6437],
[-7.7765,26.8366],
[-7.9267,26.8366],
[-8.4723,27.2223],
[-8.6979,27.2223],
[-8.6396,26.0651],
[-12.0135,26.0651],
[-11.9563,23.4934],
[-12.5467,23.3649],
[-13.0532,23.0434],
[-13.0442,22.8506],
[-13.1187,22.8506],
[-12.979,21.372],
[-17.0605,21.3077]
]
]
]}
}
