{
"type": "Feature",
"properties": {"id":"cliopatria-qi-223bce","edge_precision":"unknown","cliopatria_name":"Qi","cliopatria_from_year":-222,"cliopatria_to_year":-219,"cliopatria_area_km2":109211,"cliopatria_wikidata":"Q1143524","cliopatria_wikipedia":"Qi (state)","cliopatria_seshat_id":"cn_qi_warring_states","cliopatria_member_of":"(Warring States China)"},
"geometry": {"type": "MultiPolygon", "coordinates": [
[
[
[115.5977,36.224],
[116.7523,36.0308],
[116.8986,35.8377],
[117.6931,35.7089],
[117.6645,35.6445],
[118.2639,35.7733],
[120.0451,35.7733],
[120.0746,35.8377],
[120.3185,36.0308],
[120.6585,36.0952],
[120.7318,36.4172],
[120.9648,36.4172],
[120.9789,36.6105],
[121.2121,36.6105],
[121.9121,36.9326],
[122.1456,36.9326],
[122.1605,36.8037],
[122.5031,36.8682],
[122.5664,36.9971],
[122.4424,37.0615],
[122.7129,37.4483],
[122.1211,37.5128],
[122.1535,37.5773],
[121.4969,37.5128],
[121.4833,37.6417],
[121.171,37.6417],
[121.112,37.8352],
[120.7538,37.8998],
[120.1881,37.7062],
[120.2022,37.5773],
[119.8266,37.4483],
[119.7011,37.1904],
[119.1557,37.1904],
[119.14,37.3193],
[118.984,37.3193],
[119.2366,37.8352],
[119.3928,37.8352],
[119.4571,37.9643],
[119.1766,38.0288],
[119.2089,38.0933],
[118.7718,38.1578],
[118.8042,38.2224],
[118.6476,38.2224],
[118.583,38.0933],
[118.0674,38.1578],
[118.0536,38.2869],
[117.6025,38.4806],
[117.6677,38.6097],
[117.5893,38.6097],
[117.622,38.6743],
[117.1971,38.6097],
[116.6147,37.2549],
[115.6067,36.4172],
[115.5977,36.224]
]
]
]}
}
