{
"type": "Feature",
"properties": {"id":"cliopatria-kingdom-of-belgium-1900","edge_precision":"unknown","cliopatria_name":"Kingdom of Belgium","cliopatria_from_year":1900,"cliopatria_to_year":1918,"cliopatria_area_km2":30939,"cliopatria_wikidata":"Q31","cliopatria_wikipedia":"Belgium"},
"geometry": {"type": "MultiPolygon", "coordinates": [
[
[
[2.4933,51.1792],
[2.6008,50.7788],
[3.1067,50.7788],
[3.5482,50.3791],
[3.9686,50.3791],
[4.1428,50.246],
[4.1548,49.98],
[4.4902,49.98],
[4.7362,50.113],
[4.8309,49.8471],
[4.9984,49.8471],
[5.5128,49.5152],
[5.7635,49.5152],
[5.7612,49.5816],
[5.8448,49.5816],
[5.7455,50.0465],
[6.0768,50.1795],
[5.9756,50.7121],
[5.7205,50.7788],
[5.7067,51.1792],
[5.6198,51.246],
[5.366,51.246],
[5.0196,51.4465],
[4.3417,51.4465],
[4.0123,51.246],
[3.5046,51.246],
[3.4097,51.4465],
[3.3249,51.4465],
[2.7394,51.3128],
[2.5778,51.1792],
[2.4933,51.1792]
]
],
[
[
[117.4615,39.1265],
[117.5519,38.9972],
[117.709,38.9972],
[117.7425,39.0618],
[117.6188,39.1265],
[117.8775,39.3203],
[117.7201,39.3203],
[117.6862,39.2557],
[117.6075,39.2557],
[117.5738,39.1911],
[117.4615,39.1265]
]
]
]}
}
