{
"type": "Feature",
"properties": {"id":"cliopatria-corsican-republic-1763","edge_precision":"unknown","cliopatria_name":"Corsican Republic","cliopatria_from_year":1763,"cliopatria_to_year":1768,"cliopatria_area_km2":11217,"cliopatria_wikidata":"Q71234","cliopatria_wikipedia":"Corsican Republic"},
"geometry": {"type": "MultiPolygon", "coordinates": [
[
[
[8.5346,42.4962],
[8.5388,42.1063],
[8.7005,41.9114],
[8.6227,41.7167],
[8.7821,41.7167],
[8.7839,41.522],
[9.1038,41.3274],
[9.2624,41.3922],
[9.4989,41.7816],
[9.4978,41.9764],
[9.5776,41.9764],
[9.5736,42.7563],
[9.4934,42.7563],
[9.4919,43.0165],
[9.2511,43.0165],
[9.1728,42.7563],
[8.7727,42.6912],
[8.5346,42.4962]
]
]
]}
}
