{
"type": "Feature",
"properties": {"id":"cliopatria-almoravid-dynasty-1152","edge_precision":"unknown","cliopatria_name":"Almoravid Dynasty","cliopatria_from_year":1152,"cliopatria_to_year":1201,"cliopatria_area_km2":6926,"cliopatria_wikidata":"Q75613","cliopatria_wikipedia":"Almoravid dynasty"},
"geometry": {"type": "MultiPolygon", "coordinates": [
[
[
[1.1831,39.0618],
[1.2735,38.8034],
[1.4305,38.8034],
[1.6575,38.9972],
[1.6518,39.1265],
[1.2587,39.1265],
[1.1831,39.0618]
]
],
[
[
[2.3381,39.6436],
[2.3461,39.4496],
[2.6586,39.5143],
[2.8237,39.3203],
[3.2958,39.3203],
[3.5158,39.7729],
[3.1979,39.8376],
[3.193,39.967],
[2.8772,39.967],
[2.3381,39.6436]
]
],
[
[
[3.7411,40.0964],
[3.8268,39.9023],
[4.3024,39.8376],
[4.2151,40.0964],
[3.7411,40.0964]
]
]
]}
}
