{
"type": "Feature",
"properties": {"id":"cliopatria-great-seljuk-empire-1147","edge_precision":"unknown","cliopatria_name":"Great Seljuk Empire","cliopatria_from_year":1147,"cliopatria_to_year":1151,"cliopatria_area_km2":2478394,"cliopatria_wikidata":"Q3708094","cliopatria_wikipedia":"Seljuk Empire","cliopatria_seshat_id":"ir_seljuk_sultanate"},
"geometry": {"type": "MultiPolygon", "coordinates": [
[
[
[38.6656,40.6792],
[38.8049,40.5496],
[38.8275,40.1612],
[38.8181,40.0964],
[38.851,39.7729],
[39.2177,39.5789],
[39.0669,39.0618],
[39.7471,38.868],
[39.9918,38.9326],
[40.2644,39.1911],
[41.07,39.3203],
[41.513,39.1265],
[43.017,39.1911],
[43.2122,38.9326],
[44.223,38.868],
[44.3593,38.7389],
[44.308,38.416],
[44.4545,38.3515],
[44.306,37.8998],
[44.4426,37.7707],
[44.0422,37.7062],
[43.8957,37.7707],
[43.564,37.6417],
[43.3203,37.5773],
[43.4107,37.126],
[44.3571,36.6749],
[44.3384,36.546],
[44.6119,36.2884],
[44.5934,36.1596],
[44.9534,35.9664],
[44.8984,35.5802],
[44.4073,35.3871],
[44.1741,34.8079],
[43.9256,34.6793],
[43.8146,34.422],
[43.6606,34.422],
[43.3965,34.1647],
[43.2426,34.1647],
[42.8946,33.8432],
[42.5715,33.7146],
[42.3636,33.2645],
[42.356,33.2002],
[42.5783,33.1359],
[42.7085,32.943],
[43.1526,32.8145],
[44.459,31.5933],
[44.444,31.4647],
[44.6576,31.3362],
[44.6353,31.1434],
[44.7949,31.2076],
[45.3982,30.5007],
[45.55,30.5007],
[46.099,29.9865],
[46.5322,29.7937],
[46.5865,29.6009],
[46.745,29.6652],
[46.868,29.4081],
[47.1021,29.4723],
[47.3834,29.2795],
[47.459,29.2795],
[47.5707,29.6009],
[48.0699,29.9865],
[48.9037,29.9865],
[48.9873,30.0508],
[48.9428,30.3079],
[49.5859,29.9865],
[50.0648,30.1794],
[50.2363,29.7294],
[50.6513,29.4081],
[50.6203,29.1509],
[50.915,29.0867],
[50.809,28.8295],
[51.0281,28.7652],
[51.0662,28.4438],
[51.3313,28.1224],
[51.3168,27.9938],
[51.5967,27.8009],
[52.0486,27.8009],
[52.4787,27.6081],
[52.737,27.2223],
[53.4606,26.9652],
[53.6581,26.708],
[54.2589,26.708],
[54.4632,26.5151],
[54.8316,26.4508],
[55.2423,26.7723],
[55.5427,26.7723],
[55.3102,26.708],
[55.2889,26.5151],
[55.439,26.5151],
[55.6034,26.6437],
[56.0612,26.708],
[56.3086,26.9009],
[56.3236,27.0295],
[56.0981,27.0295],
[56.1884,27.158],
[56.7147,27.158],
[57.0524,26.8366],
[57.0449,26.7723],
[57.5031,26.8366],
[58.0007,27.2223],
[58.2912,27.7367],
[58.9884,28.4438],
[59.2301,29.0867],
[59.6086,29.6009],
[60.0266,29.858],
[60.0465,29.9865],
[61.7446,31.0791],
[62.7144,31.4005],
[63.1418,31.6575],
[63.43,31.9789],
[63.4784,32.236],
[63.9614,32.3645],
[64.3171,32.6216],
[64.3552,32.8145],
[64.7,33.0073],
[65.5273,34.0361],
[66.4377,34.6793],
[66.4664,34.8079],
[66.9252,35.1297],
[67.7726,35.4514],
[68.0657,35.7089],
[69.5252,36.2884],
[69.5575,36.4172],
[70.5725,36.7393],
[70.6247,36.7393],
[70.2885,37.0999],
[70.3283,37.8975],
[70.3733,38.0933],
[70.2147,38.0288],
[70.1619,37.8352],
[70.2658,37.6417],
[70.0752,37.5128],
[69.546,37.5773],
[69.3498,37.126],
[69.1161,37.126],
[69.0103,37.3193],
[68.7764,37.3193],
[68.1487,36.9971],
[67.9152,36.9971],
[67.7465,37.2549],
[67.123,37.2549],
[66.9995,37.3838],
[66.5155,37.3193],
[65.6274,37.5128],
[65.2388,37.8352],
[64.6615,38.0288],
[64.3669,38.416],
[64.0075,38.5451],
[63.8374,38.8034],
[63.4155,38.9972],
[63.2457,39.2557],
[63.0883,39.2557],
[62.6538,39.7083],
[62.6876,39.8376],
[62.3161,40.2259],
[62.4027,40.5496],
[62.2969,40.744],
[62.4116,40.8736],
[62.4397,41.2625],
[62.1327,41.5869],
[62.065,41.9114],
[61.7827,42.0413],
[61.5556,42.3662],
[61.3957,42.3662],
[61.1683,42.6912],
[61.0081,42.6912],
[60.3919,43.3421],
[60.3677,43.5375],
[60.2872,43.5375],
[59.1235,43.4072],
[58.6329,43.6678],
[58.4175,43.4723],
[58.3371,43.4723],
[58.0515,43.0165],
[57.957,42.3662],
[57.5644,41.7816],
[57.4649,41.3922],
[56.8274,40.744],
[54.3851,40.8088],
[54.3701,40.744],
[53.4044,40.6792],
[53.4482,40.8736],
[53.3397,40.744],
[52.9433,40.744],
[52.9723,40.8736],
[52.893,40.8736],
[52.6994,40.3554],
[52.7785,40.3554],
[52.7877,40.0317],
[53.4985,40.0317],
[53.5449,39.5143],
[53.1375,39.4496],
[53.5176,39.385],
[53.9868,38.9972],
[53.8298,37.8352],
[53.9079,37.8352],
[53.9105,37.4483],
[54.0947,37.1904],
[54.0333,36.8682],
[53.4887,36.8682],
[52.586,36.6105],
[51.642,36.546],
[50.532,36.8682],
[50.6323,36.9971],
[50.5657,37.0615],
[50.3209,36.9971],
[49.8541,37.4483],
[49.0851,37.5128],
[48.8285,37.8352],
[48.8206,38.6743],
[48.7422,38.6743],
[48.9155,39.1911],
[49.1635,39.2557],
[49.1757,39.3203],
[49.0305,39.385],
[49.0008,39.6436],
[48.7766,39.7083],
[48.7225,39.8376],
[48.0913,39.8376],
[47.8973,39.6436],
[47.4008,39.5143],
[46.6684,38.9326],
[46.2646,38.868],
[46.2192,39.0618],
[45.9492,39.3203],
[45.7918,39.3203],
[45.1156,39.967],
[44.8788,39.967],
[44.8223,40.0964],
[44.4051,39.967],
[43.7163,40.0964],
[43.5911,40.2906],
[43.7709,40.8736],
[43.567,41.068],
[43.1475,40.9384],
[43.1031,40.6792],
[42.6168,40.6144],
[42.347,40.4201],
[41.9513,40.4201],
[41.6557,40.5496],
[41.6767,40.6792],
[41.5182,40.6792],
[41.2537,41.0032],
[40.5674,40.6792],
[38.6656,40.6792]
]
],
[
[
[55.8062,25.7436],
[56.0532,25.2293],
[56.09,24.8435],
[56.0838,24.7792],
[56.2271,24.7149],
[56.2713,24.3935],
[56.4207,24.3935],
[56.5402,24.072],
[56.8211,23.8792],
[56.8095,23.7506],
[57.8303,23.4934],
[57.9736,23.4291],
[57.962,23.3006],
[58.3347,23.3006],
[58.6096,23.0434],
[58.9076,23.0434],
[58.8961,22.9148],
[59.2684,22.9148],
[59.2801,23.0434],
[59.0682,23.172],
[59.08,23.3006],
[58.8115,23.622],
[57.4927,23.8792],
[57.0627,24.072],
[56.7256,24.4578],
[56.7317,24.5221],
[56.5449,24.9078],
[56.4016,24.9721],
[56.4957,25.165],
[56.4208,25.165],
[56.3988,25.6793],
[56.5433,26.3222],
[56.1682,26.3222],
[55.9696,25.8722],
[55.813,25.8079],
[55.8062,25.7436]
]
]
]}
}
