{
"type": "Feature",
"properties": {"id":"cliopatria-vakataka-kingdom-0476","edge_precision":"unknown","cliopatria_name":"Vakataka Kingdom","cliopatria_from_year":476,"cliopatria_to_year":489,"cliopatria_area_km2":670855,"cliopatria_wikidata":"Q1501306","cliopatria_wikipedia":"Vakataka dynasty","cliopatria_seshat_id":"in_vakataka_k"},
"geometry": {"type": "MultiPolygon", "coordinates": [
[
[
[72.6678,19.831],
[72.7879,19.363],
[72.9872,19.2774],
[72.8116,19.2989],
[72.803,19.0793],
[72.8347,18.9756],
[72.9721,19.1533],
[73.0056,19.0211],
[72.8755,18.6428],
[73.2796,16.8955],
[73.6719,16.8961],
[73.8251,16.9966],
[73.777,17.1254],
[73.6748,17.8985],
[74.0377,18.4101],
[74.505,18.8009],
[75.8238,18.7198],
[77.0616,17.8516],
[77.5019,17.0251],
[77.4879,16.1461],
[77.4968,15.511],
[77.5934,15.4959],
[78.3896,15.2879],
[78.5568,15.8656],
[79.2287,15.9155],
[79.6835,15.5055],
[80.115,15.3517],
[80.3849,15.7928],
[80.6466,15.895],
[80.9787,15.7583],
[81.2861,16.3371],
[81.5011,16.3554],
[81.3805,16.7222],
[81.5273,17.1744],
[81.8309,17.5402],
[81.1342,17.9809],
[80.5171,18.7555],
[80.4624,19.1132],
[80.4524,19.4327],
[80.5619,19.7983],
[80.7709,20.0089],
[81.1242,20.2285],
[83.1049,20.8018],
[83.7668,21.9511],
[83.7568,22.306],
[82.9457,23.027],
[82.443,23.2238],
[82.1096,23.2238],
[81.4328,22.4303],
[80.8804,22.2093],
[80.1737,22.9858],
[79.6661,23.3518],
[78.7952,23.3518],
[77.9393,23.8534],
[76.7001,24.1988],
[76.501,24.5841],
[75.8043,24.6203],
[74.2716,24.3349],
[74.0028,23.5983],
[74.0327,21.6507],
[73.3061,21.3266],
[72.6704,21.2399],
[72.6924,21.1776],
[72.8139,21.1172],
[72.8938,20.6728],
[72.6678,19.831]
]
]
]}
}
