{
"type": "Feature",
"properties": {"id":"cliopatria-sultanate-of-brunei-1673","edge_precision":"unknown","cliopatria_name":"Sultanate of Brunei","cliopatria_from_year":1673,"cliopatria_to_year":1841,"cliopatria_area_km2":68550,"cliopatria_wikidata":"Q887803","cliopatria_wikipedia":"Bruneian Sultanate (1368-1888)"},
"geometry": {"type": "MultiPolygon", "coordinates": [
[
[
[109.4825,1.9571],
[109.6129,1.5714],
[109.6857,1.5714],
[110.0423,1.3786],
[110.7655,1.25],
[110.9063,1.1214],
[111.4886,1.1214],
[111.3752,1.9571],
[111.5989,2.0857],
[111.6182,2.5357],
[112.6462,2.7286],
[114.7289,3.6286],
[115.514,4.6572],
[115.5178,4.7215],
[116.4055,6.0715],
[116.4784,6.0715],
[116.4918,6.2644],
[116.2775,6.3287],
[116.2046,6.3287],
[115.968,6.0715],
[115.7922,5.6215],
[115.5006,5.6215],
[115.2655,5.3644],
[115.4681,5.1072],
[115.3145,4.9787],
[114.7354,5.0429],
[114.2753,4.6572],
[113.9073,4.5929],
[113.6566,4.0143],
[113.2027,3.6929],
[113.1136,3.3715],
[112.8098,3.1143],
[111.7084,2.9215],
[111.2627,2.7286],
[111.2485,2.4072],
[111.1029,2.4072],
[111.1648,2.15],
[111.0138,2.0214],
[110.9207,1.5071],
[110.4864,1.5714],
[110.2781,1.8286],
[109.9818,1.7],
[109.6255,1.8929],
[109.6307,2.0214],
[109.4851,2.0214],
[109.4825,1.9571]
]
],
[
[
[115.43,4.4644],
[115.5028,4.4644],
[115.5065,4.5286],
[115.4337,4.5286],
[115.43,4.4644]
]
],
[
[
[115.5102,4.5929],
[115.5831,4.5929],
[115.5868,4.6572],
[115.514,4.6572],
[115.5102,4.5929]
]
],
[
[
[117.0894,8.3216],
[117.6228,8.5788],
[117.6285,8.6431],
[117.8533,8.7073],
[118.0226,8.9645],
[118.7284,9.4788],
[118.852,9.9931],
[118.7188,10.1217],
[118.2169,9.4788],
[117.2805,8.8359],
[117.0894,8.3216]
]
]
]}
}
