{
"type": "Feature",
"properties": {"id":"cliopatria-principality-of-salerno-0990","edge_precision":"unknown","cliopatria_name":"Principality of Salerno","cliopatria_from_year":990,"cliopatria_to_year":1045,"cliopatria_area_km2":5352,"cliopatria_wikidata":"Q1065299","cliopatria_wikipedia":"Principality of Salerno"},
"geometry": {"type": "MultiPolygon", "coordinates": [
[
[
[14.5039,41.0032],
[14.5791,40.8088],
[14.7377,40.8088],
[14.7349,40.6792],
[14.8141,40.6792],
[14.9711,40.6144],
[14.9638,40.2906],
[15.1204,40.2259],
[15.1995,40.2259],
[15.5108,40.0317],
[15.5898,40.0317],
[15.5206,40.4201],
[15.4415,40.4201],
[15.5358,41.0032],
[14.5039,41.0032]
]
]
]}
}
