{
"type": "Feature",
"properties": {"id":"cliopatria-montenegro-1912","edge_precision":"unknown","cliopatria_name":"Montenegro","cliopatria_from_year":1912,"cliopatria_to_year":1912,"cliopatria_area_km2":17190,"cliopatria_wikidata":"Q236","cliopatria_wikipedia":"Montenegro"},
"geometry": {"type": "MultiPolygon", "coordinates": [
[
[
[18.4726,42.8213],
[18.7131,42.8213],
[18.852,42.3662],
[18.849,42.3012],
[19.3862,41.8465],
[19.4659,41.8465],
[19.7084,41.9114],
[19.8916,42.3662],
[20.215,42.4312],
[20.2186,42.4962],
[20.5497,42.6912],
[20.0903,43.0816],
[19.3808,43.3421],
[19.3103,43.5375],
[18.9078,43.5375],
[18.9788,43.3421],
[18.7375,43.3421],
[18.4814,43.0165],
[18.4726,42.8213]
]
]
]}
}
