{
"type": "Feature",
"properties": {"id":"cliopatria-english-colonial-empire-1612","edge_precision":"unknown","cliopatria_name":"English Colonial Empire","cliopatria_from_year":1612,"cliopatria_to_year":1618,"cliopatria_area_km2":4059,"cliopatria_wikidata":"Q617219","cliopatria_wikipedia":"English overseas possessions","cliopatria_seshat_id":"gb_tudor_stuart","cliopatria_member_of":"(Kingdom of England)"},
"geometry": {"type": "MultiPolygon", "coordinates": [
[
[
[-77.6355,37.5128],
[-77.4807,37.3193],
[-77.3248,37.3193],
[-77.3502,37.3838],
[-77.6355,37.5128]
]
],
[
[
[-77.1688,37.3193],
[-76.8317,37.2549],
[-76.4732,36.9326],
[-76.1618,36.9326],
[-76.3892,37.3193],
[-76.8552,37.5128],
[-76.9332,37.5128],
[-77.1688,37.3193]
]
],
[
[
[-64.8612,32.3002],
[-64.6734,32.1717],
[-64.6909,32.236],
[-64.6495,32.3645],
[-64.8612,32.3002]
]
],
[
[
[-53.5829,47.5982],
[-53.5558,47.5323],
[-53.4733,47.5323],
[-53.5004,47.5982],
[-53.5829,47.5982]
]
],
[
[
[-53.4733,47.5323],
[-53.3925,47.3348],
[-53.2567,47.2032],
[-52.954,47.269],
[-53.0609,47.5323],
[-53.2259,47.5323],
[-53.2799,47.6641],
[-53.4733,47.5323]
]
]
]}
}
