{
"type": "Feature",
"properties": {"id":"cliopatria-haudenosaunee-1450","edge_precision":"unknown","cliopatria_name":"Haudenosaunee","cliopatria_from_year":1450,"cliopatria_to_year":1571,"cliopatria_area_km2":72218,"cliopatria_wikidata":"Q68518","cliopatria_wikipedia":"Iroquois"},
"geometry": {"type": "MultiPolygon", "coordinates": [
[
[
[-78.2328,42.6912],
[-77.9107,42.3662],
[-76.1199,42.3012],
[-75.3074,42.1063],
[-75.223,42.4312],
[-75.063,42.4312],
[-74.8192,42.7563],
[-74.272,42.9515],
[-74.3035,43.0165],
[-74.0627,43.0165],
[-73.6726,43.5375],
[-73.7197,43.7982],
[-73.5265,43.733],
[-73.6547,43.9938],
[-73.574,43.9938],
[-73.6062,44.0591],
[-73.7199,44.4507],
[-73.5749,44.6466],
[-73.6251,44.908],
[-73.3333,44.9734],
[-73.3662,45.0388],
[-73.4474,45.0388],
[-73.4984,45.3004],
[-74.2976,45.4313],
[-74.264,45.3659],
[-74.9766,45.1696],
[-75.0383,44.9734],
[-75.5392,44.8426],
[-75.7292,44.5813],
[-76.0671,44.4507],
[-76.1619,44.3201],
[-76.0952,44.1896],
[-76.2568,44.1896],
[-76.0102,43.8634],
[-76.1862,43.733],
[-76.1682,43.5375],
[-76.5379,43.4723],
[-76.5051,43.4072],
[-76.666,43.4072],
[-76.7613,43.2769],
[-78.0807,43.3421],
[-78.0904,42.8864],
[-78.1706,42.8864],
[-78.1052,42.7563],
[-78.2328,42.6912]
]
]
]}
}
