{
"type": "Feature",
"properties": {"id":"cliopatria-wadai-empire-1895","edge_precision":"unknown","cliopatria_name":"Wadai Empire","cliopatria_from_year":1895,"cliopatria_to_year":1904,"cliopatria_area_km2":279125,"cliopatria_wikidata":"Q1132786","cliopatria_wikipedia":"Wadai Empire"},
"geometry": {"type": "MultiPolygon", "coordinates": [
[
[
[14.9452,14.3646],
[16.3238,13.1432],
[16.3221,13.0146],
[16.4678,12.9503],
[16.3927,12.8217],
[16.5394,12.8217],
[16.6064,12.3717],
[17.0414,12.0503],
[17.0395,11.9217],
[17.4019,11.6646],
[17.4,11.536],
[17.5474,11.6003],
[17.8315,11.0217],
[17.8276,10.7645],
[19.1486,11.0217],
[19.5855,10.8931],
[19.7318,10.8931],
[19.8072,11.0217],
[22.2939,10.9574],
[22.2927,10.8931],
[22.8793,10.9574],
[22.9589,11.2788],
[22.598,11.536],
[22.6803,11.986],
[22.5351,12.0503],
[22.4657,12.2432],
[22.4735,12.6289],
[22.1856,12.886],
[22.2802,13.9146],
[22.2068,13.9146],
[22.2136,14.2361],
[22.287,14.2361],
[22.2884,14.3004],
[22.4596,15.3933],
[20.9165,15.4575],
[20.3242,15.2647],
[20.1049,15.329],
[20.0276,15.1361],
[19.2866,14.8147],
[19.2108,14.6861],
[18.0299,14.3646],
[14.9452,14.3646]
]
]
]}
}
