{
"type": "Feature",
"properties": {"id":"cliopatria-ottoman-empire-1880","edge_precision":"unknown","cliopatria_name":"Ottoman Empire","cliopatria_from_year":1880,"cliopatria_to_year":1884,"cliopatria_area_km2":2236715,"cliopatria_wikidata":"Q12560","cliopatria_wikipedia":"Ottoman Empire","cliopatria_seshat_id":"tr_ottoman_emp_4"},
"geometry": {"type": "MultiPolygon", "coordinates": [
[
[
[18.849,42.3012],
[19.5424,41.7816],
[19.4501,41.522],
[19.5297,41.522],
[19.4438,41.3922],
[19.5233,41.3922],
[19.4376,41.2625],
[19.4985,40.8736],
[19.2545,40.744],
[19.2487,40.6144],
[19.4863,40.6144],
[19.4714,40.2906],
[19.6295,40.2906],
[20.0094,39.967],
[19.9184,39.7083],
[20.155,39.7083],
[20.4485,39.2557],
[20.9896,39.0618],
[21.0682,39.0618],
[21.1566,39.2557],
[21.5533,39.3203],
[21.7859,39.2557],
[21.9292,38.9972],
[22.7973,39.0618],
[22.8163,39.385],
[23.1352,39.4496],
[22.6109,39.9023],
[22.7017,40.0964],
[22.5437,40.0964],
[22.5595,40.3554],
[22.6549,40.6144],
[22.8925,40.6144],
[22.8842,40.4849],
[23.2673,40.2906],
[23.7374,40.2259],
[23.8386,40.5496],
[23.6846,40.6144],
[23.698,40.8088],
[24.0106,40.744],
[24.3466,41.0032],
[25.8495,40.9384],
[26.0822,40.8736],
[26.1403,40.6144],
[26.6264,40.744],
[26.9214,40.4849],
[27.0172,40.6792],
[27.5275,41.068],
[29.1156,41.068],
[29.1028,40.9384],
[29.2486,40.8088],
[29.493,40.8736],
[29.3944,40.6792],
[28.9127,40.6144],
[28.9004,40.4849],
[29.0463,40.3554],
[27.9388,40.3554],
[27.9505,40.4849],
[27.7921,40.4849],
[27.6958,40.2906],
[27.5376,40.2906],
[27.4698,40.4201],
[26.6731,40.3554],
[26.6839,40.4849],
[26.6047,40.4849],
[26.2723,40.2906],
[26.2465,39.967],
[26.1675,39.967],
[26.1325,39.5143],
[26.8466,39.5789],
[26.7422,39.2557],
[26.8945,39.1911],
[26.8793,38.9972],
[26.9579,38.9972],
[26.8495,38.6097],
[27.0798,38.5451],
[27.065,38.3515],
[26.595,38.3515],
[26.5358,38.6097],
[26.3837,38.6743],
[26.4289,38.2224],
[26.8203,38.2224],
[26.889,38.0933],
[27.2753,38.0288],
[27.1777,37.7707],
[27.2559,37.7707],
[27.1634,37.5773],
[27.31,37.4483],
[27.2225,37.3193],
[27.5392,37.3838],
[27.598,37.126],
[28.0653,37.126],
[28.1383,37.0615],
[28.0314,36.6749],
[28.1869,36.6749],
[28.3571,36.8682],
[28.5905,36.8682],
[28.7361,36.7393],
[29.1249,36.7393],
[29.2397,36.224],
[29.938,36.224],
[30.0261,36.3528],
[30.4919,36.3528],
[30.6191,36.9326],
[31.086,36.9326],
[32.0681,36.6105],
[32.4985,36.224],
[32.5583,36.0308],
[32.7134,36.0308],
[33.2744,36.224],
[33.9791,36.2884],
[34.2507,36.6749],
[34.5816,36.8682],
[34.8929,36.8682],
[34.9504,36.6749],
[35.1127,36.7393],
[35.4877,36.6105],
[35.8336,36.9326],
[36.1449,36.9326],
[36.2862,36.8037],
[36.2649,36.6105],
[35.8417,36.2884],
[35.9901,36.224],
[35.8449,35.5802],
[35.9929,35.5158],
[35.8825,35.194],
[35.9597,35.194],
[35.927,34.8723],
[36.0682,34.7436],
[36.0488,34.5506],
[35.7921,34.2933],
[35.6445,34.3577],
[35.6838,33.9718],
[35.447,33.9075],
[35.4993,33.6502],
[35.3458,33.6502],
[35.3984,33.3931],
[35.2154,33.0716],
[35.0563,33.0073],
[35.0218,32.6216],
[34.7698,32.3645],
[34.813,31.9789],
[34.5733,31.8503],
[34.6334,31.6575],
[34.3024,31.3362],
[34.2972,31.2719],
[34.434,31.0791],
[34.5405,30.5007],
[34.6824,30.3722],
[34.6676,30.1794],
[34.8094,30.0508],
[34.9129,29.4081],
[34.8535,28.5724],
[34.6054,28.251],
[34.5927,28.0581],
[35.0492,28.1224],
[35.4087,27.8652],
[35.4669,27.6081],
[35.6132,27.5438],
[35.6717,27.2866],
[36.1649,26.7723],
[36.4291,26.1937],
[36.7173,26.0008],
[36.773,25.6793],
[37.2707,25.2293],
[37.3308,24.9721],
[37.1776,24.9078],
[37.1705,24.7792],
[37.3876,24.6506],
[37.4448,24.3292],
[38.0318,24.1363],
[38.6011,23.622],
[38.8688,23.0434],
[38.8589,22.8506],
[39.1402,22.5291],
[39.0271,21.7577],
[39.1693,21.6291],
[39.147,21.1791],
[39.3506,20.7934],
[39.8439,20.2791],
[40.1404,20.2791],
[40.5616,19.8291],
[40.851,19.7005],
[40.8408,19.5077],
[40.9854,19.4434],
[41.0421,19.1219],
[41.2501,18.8648],
[41.2361,18.6076],
[41.4508,18.4791],
[41.7849,17.8362],
[42.2802,17.4505],
[42.3363,17.129],
[42.4837,17.129],
[42.4767,17.0005],
[42.824,16.6147],
[42.7824,15.8433],
[42.7088,15.8433],
[42.7458,15.1361],
[42.8896,15.0718],
[43.0566,13.9789],
[43.2648,13.7218],
[43.2356,13.0789],
[43.5119,12.6932],
[43.5852,12.6932],
[43.5937,12.886],
[43.8252,13.1432],
[44.3445,13.2718],
[44.4268,13.4646],
[45.023,13.6575],
[45.1823,13.9146],
[45.5558,14.0432],
[45.7696,13.9146],
[45.9963,14.0432],
[46.1598,14.3646],
[45.5958,14.8147],
[45.6131,15.1361],
[46.3811,15.7147],
[46.4735,16.0361],
[46.6245,16.1004],
[46.9501,16.6147],
[47.0516,17.0647],
[46.9779,17.0647],
[46.7807,17.4505],
[46.4198,17.579],
[46.1445,17.9005],
[45.9968,17.9005],
[45.5775,18.2862],
[45.4297,18.2862],
[44.3789,19.2505],
[44.4644,19.4434],
[44.3125,19.3791],
[44.2499,19.5719],
[44.1056,19.6362],
[44.1872,19.7648],
[43.9726,19.8934],
[43.98,20.022],
[43.8281,19.9577],
[43.8356,20.0862],
[43.6911,20.1505],
[43.6948,20.2148],
[43.2719,20.6005],
[43.1416,20.922],
[42.7849,21.1791],
[42.4493,21.822],
[42.1662,22.0791],
[42.1734,22.2077],
[41.8194,22.5291],
[41.5506,23.0434],
[41.4053,23.1077],
[41.4126,23.2363],
[41.2672,23.3006],
[41.1405,23.6863],
[40.995,23.7506],
[40.4597,24.7792],
[40.385,24.7792],
[39.9234,25.7436],
[39.7778,25.8079],
[39.5835,26.258],
[39.4379,26.3222],
[39.3763,26.5151],
[39.4559,26.5794],
[39.3057,26.5794],
[39.042,27.0938],
[38.8963,27.158],
[38.9057,27.2866],
[38.7599,27.3509],
[38.7037,27.6081],
[38.4217,27.8652],
[38.361,28.0581],
[38.4462,28.1867],
[38.2201,28.1867],
[38.2299,28.3153],
[38.0136,28.4438],
[37.9683,28.8295],
[37.8122,28.7652],
[37.8223,28.8938],
[37.6763,28.9581],
[37.2195,29.858],
[37.306,29.9865],
[37.1598,30.0508],
[37.3076,30.8863],
[37.3951,31.0148],
[37.5472,31.0148],
[37.4828,31.1434],
[37.8349,31.6575],
[38.0697,31.7218],
[38.0119,31.9146],
[38.266,32.1717],
[38.285,32.3645],
[38.6431,32.8788],
[38.893,33.0716],
[38.9134,33.2645],
[39.2478,33.5217],
[39.4013,33.5217],
[39.4154,33.6502],
[39.8065,33.7146],
[39.905,33.9075],
[40.9268,34.1004],
[41.5806,33.7789],
[42.0645,33.3288],
[42.5783,33.1359],
[42.7085,32.943],
[43.1526,32.8145],
[44.459,31.5933],
[44.444,31.4647],
[44.6576,31.3362],
[44.6353,31.1434],
[44.7949,31.2076],
[45.3982,30.5007],
[45.55,30.5007],
[45.68,30.3079],
[45.8318,30.3079],
[46.3878,29.858],
[46.5393,29.858],
[46.5865,29.6009],
[46.745,29.6652],
[46.7308,29.5366],
[46.8751,29.4723],
[46.7783,29.2795],
[46.9226,29.2152],
[46.8331,29.0867],
[47.0529,29.0224],
[47.5987,27.7367],
[47.5923,27.6724],
[47.7991,27.4795],
[48.038,26.8366],
[48.1822,26.7723],
[49.0725,24.9721],
[49.4305,24.7792],
[49.4844,24.5221],
[49.6931,24.3292],
[49.7678,24.3292],
[51.1762,24.2006],
[51.1658,24.072],
[51.6032,23.9435],
[51.7042,24.2649],
[51.4108,24.3292],
[51.5236,24.7792],
[51.69,24.9721],
[51.7188,25.2936],
[51.575,25.3579],
[51.6979,25.8722],
[51.4228,26.1294],
[51.1229,26.1294],
[50.9545,25.9365],
[50.9246,25.615],
[50.769,25.5507],
[50.7289,25.1007],
[50.6541,25.1007],
[50.6076,25.4221],
[50.3255,25.615],
[50.211,26.0008],
[50.067,26.0651],
[50.223,26.1294],
[50.2537,26.4508],
[50.116,26.5794],
[50.135,26.7723],
[49.3596,27.2866],
[49.2419,27.6081],
[48.8722,27.6724],
[48.9741,27.9295],
[48.5627,28.3153],
[48.4604,28.7652],
[48.1937,29.0867],
[48.2154,29.2795],
[48.0786,29.4081],
[47.8517,29.4081],
[47.8662,29.5366],
[48.4035,29.6009],
[48.3654,29.9223],
[48.5928,29.9223],
[48.6005,29.9865],
[48.3884,30.1151],
[48.4117,30.3079],
[48.2755,30.4364],
[48.0478,30.4364],
[48.1031,30.8863],
[47.739,31.0148],
[47.7957,31.4647],
[47.9813,31.7218],
[47.5824,32.1717],
[47.5994,32.3002],
[47.3194,32.4931],
[46.9456,32.5574],
[46.6821,32.8788],
[46.2312,32.943],
[46.1378,33.3931],
[45.5928,33.9075],
[45.439,33.9075],
[45.6453,34.2933],
[45.5002,34.3577],
[45.5356,34.615],
[45.6898,34.615],
[45.8121,34.9366],
[46.1484,35.1297],
[46.0591,35.5802],
[46.2518,35.8377],
[45.787,35.8377],
[45.3502,36.0308],
[45.3785,36.224],
[45.0964,36.4172],
[45.0567,36.6749],
[44.8521,36.8682],
[44.7738,37.3838],
[44.6276,37.4483],
[44.5889,37.7062],
[44.306,37.8998],
[44.4545,38.3515],
[44.308,38.416],
[44.3119,38.9326],
[44.1652,38.9972],
[44.1286,39.2557],
[44.0499,39.2557],
[44.071,39.385],
[44.3967,39.4496],
[44.5079,39.6436],
[43.7197,39.6436],
[43.3361,39.7083],
[43.3574,39.8376],
[43.2102,39.9023],
[42.6577,39.9023],
[42.4522,40.0964],
[42.4733,40.2259],
[42.1887,40.4201],
[42.1522,40.6792],
[41.7086,40.8736],
[41.7516,41.1328],
[41.5348,41.2625],
[41.5674,41.4571],
[41.4878,41.4571],
[41.3071,41.3274],
[41.1588,41.3922],
[41.0473,41.1977],
[40.5393,41.0032],
[40.3909,41.068],
[40.3703,40.9384],
[39.7355,40.9384],
[39.0509,41.1328],
[38.7834,40.9384],
[38.2977,40.8736],
[38.1581,41.0032],
[37.8312,40.9384],
[37.7706,41.068],
[37.2147,41.068],
[37.2332,41.1977],
[37.0651,41.1328],
[36.7748,41.3274],
[36.2092,41.2625],
[35.9538,41.7167],
[35.3075,41.6518],
[35.086,41.7816],
[35.1212,42.0413],
[34.8817,42.0413],
[34.7845,41.9114],
[32.6308,41.9114],
[32.6947,41.7816],
[32.1934,41.5869],
[32.0417,41.6518],
[32.0265,41.522],
[31.5342,41.3922],
[31.1801,41.068],
[30.6242,41.068],
[30.4792,41.1977],
[28.9631,41.1328],
[28.9759,41.2625],
[28.5053,41.3274],
[28.2792,41.4571],
[28.2183,41.6518],
[27.9794,41.6518],
[27.937,42.0413],
[27.4949,42.4312],
[27.5135,42.6262],
[27.6737,42.6262],
[27.6863,42.7563],
[27.7665,42.7563],
[27.699,42.8864],
[27.224,42.9515],
[26.0949,42.8864],
[25.597,42.6912],
[24.876,42.6912],
[24.8064,42.8213],
[24.4055,42.8213],
[24.1549,42.6912],
[24.205,42.3012],
[23.8005,42.2362],
[23.5466,42.0413],
[22.5132,42.1063],
[22.3707,42.3662],
[22.5438,42.5612],
[22.3924,42.6912],
[22.1392,42.4962],
[21.8992,42.4962],
[21.8274,42.6262],
[21.5111,42.6912],
[21.1341,43.0816],
[20.9735,43.0816],
[20.8244,43.2769],
[20.101,43.2769],
[19.9297,43.0816],
[19.6854,43.0165],
[19.6718,42.7563],
[19.3512,42.7563],
[19.0951,42.4312],
[18.852,42.3662],
[18.849,42.3012]
]
],
[
[
[20.0701,39.5789],
[20.1489,39.5789],
[20.1519,39.6436],
[20.0731,39.6436],
[20.0701,39.5789]
]
],
[
[
[23.6154,35.5158],
[23.6792,35.2584],
[24.4484,35.194],
[24.7574,35.194],
[24.8237,35.001],
[26.1401,35.0653],
[26.2253,35.194],
[25.6806,35.1297],
[25.6923,35.3227],
[24.301,35.3227],
[24.1499,35.3871],
[24.1569,35.5158],
[23.6154,35.5158]
]
],
[
[
[24.491,40.8088],
[24.5513,40.5496],
[24.7936,40.6144],
[24.8081,40.8088],
[24.491,40.8088]
]
],
[
[
[24.9739,39.8376],
[25.4473,39.8376],
[25.4619,40.0317],
[25.067,40.0317],
[24.9739,39.8376]
]
],
[
[
[25.7038,40.0964],
[26.0249,40.1612],
[26.0351,40.2906],
[25.7188,40.2906],
[25.7038,40.0964]
]
],
[
[
[25.7934,39.1911],
[26.1032,39.1265],
[26.0936,38.9972],
[26.2459,38.9326],
[26.6436,38.9972],
[26.5112,39.3203],
[26.1226,39.385],
[26.0439,39.385],
[25.7934,39.1911]
]
],
[
[
[25.8208,38.4806],
[25.8991,38.4806],
[25.8764,38.1578],
[26.1112,38.1578],
[26.2173,38.5451],
[25.9914,38.6743],
[25.913,38.6743],
[25.8208,38.4806]
]
],
[
[
[25.9882,37.5128],
[26.3049,37.5773],
[26.3139,37.7062],
[26.0796,37.7062],
[25.9882,37.5128]
]
],
[
[
[26.8653,36.6749],
[27.1854,36.8037],
[27.1168,36.9326],
[27.0389,36.9326],
[26.8653,36.6749]
]
],
[
[
[27.6925,36.2884],
[27.7426,35.902],
[28.1393,36.0308],
[28.2502,36.4816],
[28.0171,36.4816],
[27.6925,36.2884]
]
],
[
[
[40.0561,25.4864],
[40.131,25.4864],
[40.1353,25.5507],
[40.0604,25.5507],
[40.0561,25.4864]
]
],
[
[
[42.0135,16.6147],
[42.2345,16.6147],
[42.238,16.679],
[42.1713,16.8076],
[42.0239,16.8076],
[42.0135,16.6147]
]
],
[
[
[44.1797,19.6362],
[44.2537,19.6362],
[44.2575,19.7005],
[44.1835,19.7005],
[44.1797,19.6362]
]
],
[
[
[44.2499,19.5719],
[44.324,19.5719],
[44.3278,19.6362],
[44.2537,19.6362],
[44.2499,19.5719]
]
]
]}
}
