{
"type": "Feature",
"properties": {"id":"cliopatria-yuezhi-145bce","edge_precision":"unknown","cliopatria_name":"Yuezhi","cliopatria_from_year":-144,"cliopatria_to_year":-127,"cliopatria_area_km2":233962,"cliopatria_wikidata":"Q467985","cliopatria_wikipedia":"Yuezhi"},
"geometry": {"type": "MultiPolygon", "coordinates": [
[
[
[66.8115,41.2625],
[66.8714,41.1977],
[66.8518,41.1328],
[67.9838,41.1977],
[68.1425,40.9384],
[68.0835,40.744],
[68.7377,40.5496],
[69.0954,40.1612],
[69.8066,40.1612],
[70.2813,40.4201],
[70.4395,40.4201],
[70.6168,40.2259],
[71.5067,40.2906],
[71.7823,40.1612],
[72.4595,40.5496],
[73.1566,40.744],
[73.3305,40.5496],
[73.4889,40.5496],
[73.5257,40.4201],
[73.684,40.4201],
[73.9325,39.967],
[74.0115,39.967],
[74.749,40.2906],
[74.8926,40.4849],
[75.2667,40.4201],
[75.8517,40.744],
[77.1319,41.0032],
[77.2112,41.0032],
[77.3738,41.4571],
[76.976,41.4571],
[76.7043,41.5869],
[76.6715,41.7167],
[76.7983,41.8465],
[76.2402,41.8465],
[76.2074,41.9764],
[76.3345,42.1063],
[76.1985,42.1712],
[76.2139,42.4312],
[75.7577,42.4962],
[75.8776,42.8213],
[75.7095,43.0165],
[75.1958,43.1467],
[75.2611,43.5375],
[74.8754,43.7982],
[75.0544,44.0591],
[74.5064,44.3201],
[74.5558,44.4507],
[74.387,44.6466],
[74.0311,44.7773],
[74.0489,45.0388],
[73.9676,45.0388],
[73.8617,44.9734],
[73.9112,45.1042],
[73.7416,45.3004],
[73.2461,45.4968],
[72.2086,44.4507],
[71.731,43.7982],
[71.1828,42.6912],
[70.7084,42.2362],
[68.4257,41.8465],
[67.0099,41.3922],
[66.8115,41.2625]
]
]
]}
}
