{
"type": "Feature",
"properties": {"id":"cliopatria-county-of-barcelona-0898","edge_precision":"unknown","cliopatria_name":"County of Barcelona","cliopatria_from_year":898,"cliopatria_to_year":959,"cliopatria_area_km2":5762,"cliopatria_wikidata":"Q7038","cliopatria_wikipedia":"Girona"},
"geometry": {"type": "MultiPolygon", "coordinates": [
[
[
[1.4513,41.7167],
[1.7916,41.2625],
[1.8711,41.2625],
[2.1066,41.3274],
[2.3336,41.5869],
[2.5725,41.5869],
[3.1168,41.9114],
[3.1141,41.9764],
[2.8637,42.2362],
[2.4786,41.9114],
[1.6872,41.7816],
[1.6904,41.7167],
[1.4513,41.7167]
]
]
]}
}
