{
"type": "Feature",
"properties": {"id":"cliopatria-livonian-brothers-of-the-sword-1220","edge_precision":"unknown","cliopatria_name":"Livonian Brothers of the Sword","cliopatria_from_year":1220,"cliopatria_to_year":1226,"cliopatria_area_km2":53487,"cliopatria_wikidata":"Q157605","cliopatria_wikipedia":"Livonian Brothers of the Sword"},
"geometry": {"type": "MultiPolygon", "coordinates": [
[
[
[22.3004,56.6623],
[22.5506,56.525],
[22.5431,56.4563],
[24.1065,56.2506],
[24.8286,56.3877],
[25.0665,56.1821],
[25.7615,56.1136],
[25.8309,55.9766],
[26.4955,55.7031],
[26.8658,55.8398],
[27.2946,55.7715],
[27.47,55.7715],
[27.9716,56.1821],
[28.1477,56.1821],
[28.1239,56.5937],
[27.8803,56.7311],
[27.7918,56.7311],
[27.1624,56.6623],
[27.183,56.7998],
[26.8289,56.7998],
[26.4552,56.6623],
[26.5924,56.3877],
[26.867,56.4563],
[26.9252,56.2506],
[27.0913,56.1821],
[26.8074,56.0451],
[26.3678,56.0451],
[26.3182,56.3191],
[26.0728,56.4563],
[26.1803,56.5937],
[25.9439,56.7998],
[25.7668,56.7998],
[25.6972,56.9374],
[25.5013,56.7998],
[25.0588,56.7998],
[25.0678,56.8686],
[24.8729,56.7311],
[23.8114,56.7311],
[23.7394,56.8686],
[23.4819,56.9374],
[22.4185,56.9374],
[22.3004,56.6623]
]
],
[
[
[23.9502,57.144],
[24.022,57.0063],
[24.4479,56.8686],
[25.3613,57.0751],
[25.4877,57.3509],
[25.3286,57.4889],
[25.4271,57.558],
[25.9617,57.558],
[25.9421,57.4199],
[26.6439,57.3509],
[26.8901,57.2129],
[27.2559,57.2819],
[27.1986,57.4889],
[27.398,57.6271],
[27.4304,57.8346],
[27.2517,57.8346],
[27.2732,57.9731],
[27.105,58.0423],
[26.7366,57.9731],
[26.768,58.181],
[26.6784,58.181],
[26.7311,58.5282],
[26.8317,58.5977],
[26.7524,58.6673],
[26.9324,58.6673],
[26.8747,58.8761],
[26.9649,58.8761],
[27.4046,58.8065],
[27.3591,59.0853],
[27.3703,59.1551],
[27.1102,59.2249],
[26.5353,59.0155],
[26.4239,58.8761],
[26.1534,58.8761],
[26.136,59.3646],
[25.9548,59.3646],
[25.7328,59.0853],
[25.1809,59.0155],
[24.6824,58.6673],
[24.673,58.5977],
[24.385,58.4587],
[24.2324,57.9731],
[24.5993,58.0423],
[25.028,57.9038],
[25.0093,57.7654],
[24.9201,57.7654],
[24.9908,57.6271],
[24.7233,57.6271],
[24.7852,57.4199],
[24.6072,57.4199],
[24.4028,57.2129],
[24.145,57.2819],
[23.9502,57.144]
]
]
]}
}
