{
"type": "Feature",
"properties": {"id":"cliopatria-duchy-of-greater-poland-1220","edge_precision":"unknown","cliopatria_name":"Duchy of Greater Poland","cliopatria_from_year":1220,"cliopatria_to_year":1226,"cliopatria_area_km2":33974,"cliopatria_wikidata":"Q1515009","cliopatria_wikipedia":"Duchy of Greater Poland","cliopatria_seshat_id":"pl_piast_dyn_2","cliopatria_member_of":"(Duchies of Poland)"},
"geometry": {"type": "MultiPolygon", "coordinates": [
[
[
[14.7315,52.99],
[15.0642,52.7208],
[14.9688,52.4519],
[15.3904,52.3176],
[15.4676,52.1163],
[16.0608,52.0492],
[16.219,51.7811],
[16.719,51.5803],
[16.9768,51.6472],
[17.0516,51.4465],
[17.4752,51.4465],
[17.9723,51.246],
[18.08,51.6472],
[18.3508,51.9151],
[18.2133,52.4519],
[18.1279,52.4519],
[18.0506,52.5863],
[17.6272,52.6535],
[17.5493,52.7881],
[17.1249,52.8554],
[16.7963,53.1248],
[16.7245,53.3946],
[16.9038,53.5296],
[16.4767,53.5971],
[16.2084,53.3946],
[15.8643,53.3946],
[15.7844,53.5296],
[15.4399,53.5296],
[15.3454,53.3271],
[14.7315,52.99]
]
]
]}
}
