{
"type": "Feature",
"properties": {"id":"cliopatria-taifa-of-murcia-1236","edge_precision":"unknown","cliopatria_name":"Taifa of Murcia","cliopatria_from_year":1236,"cliopatria_to_year":1240,"cliopatria_area_km2":7999,"cliopatria_wikidata":"Q921067","cliopatria_wikipedia":"Taifa of Murcia","cliopatria_seshat_id":"es_taifas","cliopatria_member_of":"(Taifas of Iberia)"},
"geometry": {"type": "MultiPolygon", "coordinates": [
[
[
[-2.2192,38.1578],
[-2.2113,38.0288],
[-1.7161,37.5773],
[-1.7124,37.5128],
[-1.5527,37.4483],
[-1.4038,37.5773],
[-1.0136,37.5773],
[-0.7081,37.7062],
[-0.7116,37.7707],
[-0.9494,37.8352],
[-0.9634,38.0933],
[-1.3693,38.3515],
[-1.9921,38.2869],
[-2.2192,38.1578]
]
]
]}
}
