{
"type": "Feature",
"properties": {"id":"cliopatria-new-netherland-1632","edge_precision":"unknown","cliopatria_name":"New Netherland","cliopatria_from_year":1632,"cliopatria_to_year":1635,"cliopatria_area_km2":47251,"cliopatria_wikidata":"Q382593","cliopatria_wikipedia":"New Netherland"},
"geometry": {"type": "MultiPolygon", "coordinates": [
[
[
[-75.1766,39.9023],
[-74.7031,39.9023],
[-74.6801,40.0317],
[-74.4712,40.0964],
[-74.5559,40.2906],
[-74.404,40.4849],
[-74.1665,40.4849],
[-74.1445,40.6144],
[-73.6408,40.5496],
[-73.6693,40.6144],
[-73.3016,40.6792],
[-73.5749,40.9384],
[-73.4741,41.068],
[-72.8172,41.1977],
[-72.8462,41.2625],
[-72.2898,41.2625],
[-72.5944,41.5869],
[-72.674,41.5869],
[-73.0221,41.6518],
[-72.9926,41.5869],
[-73.5203,41.522],
[-73.7688,41.7167],
[-73.8892,41.9764],
[-73.8094,41.9764],
[-73.943,42.4312],
[-73.863,42.4312],
[-73.9866,42.6912],
[-74.2582,42.7563],
[-74.263,42.4312],
[-74.343,42.4312],
[-74.2388,42.0413],
[-74.3186,42.0413],
[-74.1386,41.1328],
[-74.4689,40.8088],
[-74.411,40.6792],
[-74.5118,40.5496],
[-74.9799,40.3554],
[-74.8155,40.1612],
[-74.9735,40.1612],
[-75.1766,39.9023]
]
],
[
[
[-63.1635,18.2219],
[-63.1409,18.0291],
[-62.9194,18.0291],
[-62.9269,18.0933],
[-63.1635,18.2219]
]
],
[
[
[-60.836,11.086],
[-60.6164,11.086],
[-60.5585,11.3431],
[-60.7049,11.3431],
[-60.836,11.086]
]
],
[
[
[-58.8946,6.7144],
[-58.8793,6.1358],
[-58.7319,6.0715],
[-58.7288,5.943],
[-58.3643,5.943],
[-57.77,5.4287],
[-57.2598,5.4287],
[-57.1908,5.6215],
[-57.1921,5.6858],
[-57.1248,5.943],
[-57.2037,6.2001],
[-57.2798,6.3287],
[-57.4986,6.3287],
[-57.8005,6.7144],
[-58.4624,6.9073],
[-58.4663,7.0359],
[-58.6832,6.9716],
[-58.7505,6.7787],
[-58.8946,6.7144]
]
],
[
[
[-35.5124,-7.9432],
[-35.3704,-8.0717],
[-35.0093,-8.2003],
[-35.0073,-8.136],
[-34.9343,-8.136],
[-34.9154,-7.4931],
[-34.8425,-7.4931],
[-34.8337,-7.1717],
[-34.9066,-7.1717],
[-34.9049,-7.1074],
[-35.3409,-7.0431],
[-35.3444,-7.1717],
[-35.492,-7.236],
[-35.4263,-7.4931],
[-35.5048,-7.686],
[-35.5124,-7.9432]
]
]
]}
}
