{
"type": "Feature",
"properties": {"id":"cliopatria-kashmir-0850","edge_precision":"unknown","cliopatria_name":"Kashmir","cliopatria_from_year":850,"cliopatria_to_year":859,"cliopatria_area_km2":79809,"cliopatria_wikidata":"Q43100","cliopatria_wikipedia":"Kashmir"},
"geometry": {"type": "MultiPolygon", "coordinates": [
[
[
[74.7189,32.6182],
[74.7661,32.4931],
[75.2098,32.4288],
[75.3326,32.3002],
[76.4022,32.3002],
[76.5246,32.1717],
[77.0439,32.1074],
[77.3037,31.9146],
[78.6767,31.5933],
[78.7529,31.5933],
[78.7987,31.7861],
[78.465,32.3002],
[78.5282,32.5574],
[78.3183,32.943],
[78.367,33.1359],
[78.1588,33.5217],
[78.1221,33.9718],
[78.0452,33.9718],
[78.1217,34.5506],
[78.0447,34.5506],
[78.4221,35.6445],
[79.0714,36.2884],
[78.9938,36.2884],
[76.8321,35.7733],
[76.5401,35.8377],
[76.5047,35.7089],
[76.1001,35.6445],
[76.0859,35.5921],
[76.6916,35.2462],
[76.7978,33.8416],
[76.5586,32.611],
[76.2452,32.403],
[75.6553,33.0651],
[75.3198,33.0328],
[74.7189,32.6182]
]
]
]}
}
