{
"type": "Feature",
"properties": {"id":"cliopatria-kingdom-of-italy-0898","edge_precision":"unknown","cliopatria_name":"Kingdom of Italy","cliopatria_from_year":898,"cliopatria_to_year":898,"cliopatria_area_km2":51803,"cliopatria_wikidata":"Q172579","cliopatria_wikipedia":"Kingdom of Italy"},
"geometry": {"type": "MultiPolygon", "coordinates": [
[
[
[9.1434,46.0865],
[9.3093,45.8243],
[9.3128,45.4313],
[9.6402,45.1696],
[9.9654,45.1696],
[10.1284,45.0388],
[11.3467,45.0388],
[11.5085,44.908],
[12.2395,44.9734],
[12.2377,44.7773],
[12.3999,44.7773],
[12.4026,45.0388],
[12.16,45.1696],
[12.1617,45.3659],
[11.9989,45.3659],
[12.0004,45.5623],
[12.1644,45.6933],
[12.7367,45.8243],
[12.9816,45.8243],
[13.0614,45.6933],
[13.1448,45.8243],
[13.7149,45.7588],
[13.7102,45.4968],
[13.6288,45.4968],
[13.9457,45.0388],
[14.1894,45.0388],
[14.1962,45.3659],
[14.2776,45.3659],
[14.2817,45.5623],
[13.9596,45.7588],
[13.9634,45.9554],
[13.6434,46.3489],
[13.7276,46.4802],
[13.6468,46.5459],
[13.0731,46.5459],
[12.5827,46.6772],
[11.5982,46.6772],
[10.8599,46.5459],
[10.0399,46.6115],
[10.0409,46.4145],
[10.1228,46.4145],
[10.0415,46.2833],
[9.3031,46.4802],
[9.1434,46.0865]
]
]
]}
}
