{
"type": "Feature",
"properties": {"id":"cliopatria-electorate-of-saxony-1502","edge_precision":"unknown","cliopatria_name":"Electorate of Saxony","cliopatria_from_year":1502,"cliopatria_to_year":1528,"cliopatria_area_km2":34072,"cliopatria_wikidata":"Q156199","cliopatria_wikipedia":"Electorate of Saxony"},
"geometry": {"type": "MultiPolygon", "coordinates": [
[
[
[9.9359,50.9122],
[10.3579,50.8455],
[10.358,50.6455],
[10.5265,50.6455],
[10.7797,50.8455],
[10.6112,51.0457],
[10.3578,51.1124],
[10.5269,51.246],
[10.8654,51.246],
[10.8651,51.1792],
[10.696,51.1792],
[10.6959,51.1124],
[10.8649,51.1124],
[11.1181,51.0457],
[11.2854,50.7788],
[11.0322,50.7121],
[10.8631,50.5122],
[10.3582,50.5122],
[10.3585,50.1795],
[10.6942,50.0465],
[11.1139,50.113],
[11.1144,50.246],
[11.2824,50.246],
[11.1997,50.5122],
[11.2842,50.5789],
[11.5363,50.5122],
[11.7064,50.7121],
[11.9592,50.7121],
[12.0451,50.8455],
[12.2129,50.7788],
[12.2112,50.6455],
[11.9578,50.5789],
[11.955,50.3125],
[12.1223,50.246],
[12.2903,50.246],
[12.3761,50.3791],
[12.7965,50.3791],
[13.0523,50.5789],
[14.154,50.8455],
[14.1558,50.9122],
[14.3265,50.9789],
[14.3342,51.246],
[13.9923,51.1124],
[14.0822,51.3128],
[13.9129,51.3128],
[14.003,51.5134],
[14.2593,51.5803],
[14.2633,51.7142],
[14.0973,51.8481],
[13.7573,51.8481],
[13.5907,51.9822],
[13.5056,51.9822],
[13.5072,52.0492],
[13.4221,52.0492],
[12.4029,52.1833],
[12.1463,52.1163],
[12.2285,51.9151],
[12.3975,51.8481],
[12.3954,51.7142],
[12.3105,51.7142],
[12.3085,51.5803],
[11.9692,51.5803],
[12.0515,51.3797],
[11.8814,51.3128],
[11.1196,51.3128],
[10.6118,51.3797],
[10.1041,51.1792],
[10.0195,51.1792],
[9.9359,50.9122]
],
[
[10.3578,51.1124],
[10.1887,51.1124],
[10.1886,51.1792],
[10.3578,51.1124]
],
[
[11.8792,51.1124],
[12.0507,51.3128],
[12.22,51.3128],
[12.2164,51.0457],
[11.8792,51.1124]
],
[
[12.5502,50.7788],
[12.5522,50.9122],
[12.7221,50.9789],
[12.8066,50.9789],
[12.8031,50.7788],
[12.7188,50.7788],
[12.802,50.7121],
[12.6324,50.6455],
[12.6345,50.7788],
[12.5502,50.7788]
],
[
[12.6455,51.4465],
[12.8997,51.4465],
[12.8972,51.3128],
[12.7279,51.3128],
[12.6455,51.4465]
],
[
[13.2444,51.7142],
[13.2474,51.8481],
[13.5024,51.8481],
[13.6706,51.7811],
[13.6673,51.6472],
[13.5824,51.6472],
[13.2444,51.7142]
],
[
[13.5024,51.8481],
[13.504,51.9151],
[13.589,51.9151],
[13.5024,51.8481]
]
],
[
[
[10.8661,51.4465],
[11.2055,51.5134],
[11.1196,51.3128],
[11.4587,51.3797],
[11.4592,51.4465],
[11.5452,51.5803],
[11.3753,51.5469],
[11.3755,51.5803],
[11.4603,51.5803],
[11.3766,51.7142],
[10.8669,51.6472],
[10.8661,51.4465]
]
]
]}
}
