{
"type": "Feature",
"properties": {"id":"cliopatria-kingdom-of-pergamon-145bce","edge_precision":"unknown","cliopatria_name":"Kingdom of Pergamon","cliopatria_from_year":-144,"cliopatria_to_year":-127,"cliopatria_area_km2":176006,"cliopatria_wikidata":"Q2022162","cliopatria_wikipedia":"Kingdom of Pergamon","cliopatria_seshat_id":"tr_pergamon_k"},
"geometry": {"type": "MultiPolygon", "coordinates": [
[
[
[25.9882,37.5128],
[26.3049,37.5773],
[26.3139,37.7062],
[26.0796,37.7062],
[25.9882,37.5128]
]
],
[
[
[26.0663,40.6792],
[26.5417,40.6792],
[26.3094,40.744],
[26.2301,40.744],
[26.0663,40.6792]
]
],
[
[
[26.1325,39.5143],
[26.8466,39.5789],
[26.7422,39.2557],
[26.8945,39.1911],
[26.8793,38.9972],
[26.9579,38.9972],
[26.8495,38.6097],
[27.0798,38.5451],
[27.065,38.3515],
[26.595,38.3515],
[26.5358,38.6097],
[26.3837,38.6743],
[26.4289,38.2224],
[26.8203,38.2224],
[26.889,38.0933],
[27.2753,38.0288],
[27.1874,37.8998],
[27.1825,37.8352],
[27.7296,37.8352],
[27.969,37.8998],
[28.1408,38.0933],
[28.4537,38.0933],
[28.6778,37.9643],
[28.7245,37.5773],
[29.2602,37.4483],
[29.4002,37.2549],
[29.7011,37.126],
[29.602,36.8682],
[29.5707,36.4816],
[29.7208,36.4172],
[30.5137,36.6105],
[30.5192,36.6749],
[30.6191,36.9326],
[31.086,36.9326],
[31.6911,36.7393],
[31.7689,36.7393],
[32.5526,36.8037],
[32.7204,36.9326],
[32.8637,36.8037],
[33.0971,36.8037],
[33.4337,37.0615],
[33.9854,37.126],
[33.9406,37.4483],
[33.7846,37.4483],
[33.6484,37.6417],
[33.6956,38.0933],
[33.6174,38.0933],
[33.5872,38.5451],
[32.189,38.6743],
[31.8033,38.7389],
[31.7377,38.868],
[31.4236,38.868],
[31.443,39.0618],
[31.233,39.3203],
[31.3783,39.967],
[30.5888,39.967],
[30.6019,40.0964],
[30.457,40.2259],
[30.0682,40.2906],
[29.923,40.4201],
[29.936,40.5496],
[29.4545,40.4849],
[29.3503,40.2259],
[28.955,40.2259],
[28.7299,40.3554],
[28.3344,40.3554],
[28.3403,40.4201],
[28.182,40.4201],
[28.1703,40.2906],
[27.6167,40.2906],
[27.4698,40.4201],
[26.6731,40.3554],
[26.6839,40.4849],
[26.6047,40.4849],
[26.2723,40.2906],
[26.2465,39.967],
[26.1675,39.967],
[26.1325,39.5143]
]
],
[
[
[26.5574,37.8352],
[26.6217,37.6417],
[27.012,37.6417],
[27.0263,37.8352],
[26.5574,37.8352]
]
],
[
[
[26.7685,40.5496],
[26.9214,40.4849],
[27.102,40.744],
[26.785,40.744],
[26.7685,40.5496]
]
]
]}
}
