{
"type": "Feature",
"properties": {"id":"cliopatria-duchy-of-bavaria-1741","edge_precision":"unknown","cliopatria_name":"Duchy of Bavaria","cliopatria_from_year":1741,"cliopatria_to_year":1743,"cliopatria_area_km2":53771,"cliopatria_wikidata":"Q47261","cliopatria_wikipedia":"Duchy of Bavaria","cliopatria_seshat_id":"de_bavaria_1"},
"geometry": {"type": "MultiPolygon", "coordinates": [
[
[
[10.0272,49.1175],
[10.0278,48.9851],
[10.2782,48.7865],
[10.2784,48.7204],
[10.445,48.5881],
[10.4456,48.3238],
[10.5285,48.3238],
[10.4467,47.8619],
[10.4469,47.7959],
[10.6948,47.73],
[10.6124,47.5982],
[11.1896,47.4006],
[11.6026,47.5982],
[12.5109,47.6641],
[13.0044,47.5323],
[13.0887,47.6641],
[12.9245,47.73],
[12.929,48.0597],
[13.1773,48.0597],
[13.4289,48.2578],
[13.7566,48.0597],
[14.1732,48.1917],
[14.1762,48.3238],
[13.9288,48.3899],
[13.9315,48.522],
[14.2651,48.5881],
[14.436,48.7865],
[14.7722,48.9189],
[14.6364,50.0465],
[14.2137,49.9136],
[14.212,49.8471],
[14.3593,49.0513],
[13.7708,48.7865],
[13.6838,48.5881],
[13.3516,48.5881],
[13.1876,48.7204],
[13.1898,48.8527],
[13.3562,48.8527],
[13.3596,49.0513],
[13.0296,49.25],
[13.0306,49.3163],
[12.6977,49.3826],
[12.6169,49.5816],
[12.3676,49.7143],
[12.3709,49.98],
[12.1216,50.1795],
[11.8697,50.1795],
[11.6997,49.9136],
[11.1964,49.7807],
[11.2789,49.5152],
[11.028,49.4489],
[11.0276,49.25],
[11.2778,49.25],
[11.2773,49.1175],
[10.8605,49.0513],
[11.027,48.9851],
[10.9436,48.8527],
[10.6107,48.9189],
[10.4438,49.1838],
[10.1934,49.25],
[10.0272,49.1175]
]
]
]}
}
