{
"type": "Feature",
"properties": {"id":"cliopatria-sagaing-kingdom-1326","edge_precision":"unknown","cliopatria_name":"Sagaing Kingdom","cliopatria_from_year":1326,"cliopatria_to_year":1362,"cliopatria_area_km2":98300,"cliopatria_wikidata":"Q3446223","cliopatria_wikipedia":"Sagaing Kingdom"},
"geometry": {"type": "MultiPolygon", "coordinates": [
[
[
[94.2642,21.8863],
[94.3386,21.8863],
[94.3272,20.7934],
[94.8363,19.7005],
[94.725,19.4434],
[94.799,19.4434],
[94.8726,18.9291],
[94.8633,18.8648],
[95.1131,19.0577],
[95.6239,20.022],
[95.6615,20.2791],
[95.9216,20.5362],
[95.9689,20.8577],
[96.9863,22.6577],
[96.9965,22.722],
[97.4209,23.4934],
[97.0389,23.8792],
[96.688,24.0077],
[95.6213,23.8792],
[94.8964,23.5577],
[94.2966,22.5934],
[94.2867,22.5291],
[94.3612,22.5291],
[94.2642,21.8863]
]
]
]}
}
