{
"type": "Feature",
"properties": {"id":"cliopatria-chagatai-khanate-1352","edge_precision":"unknown","cliopatria_name":"Chagatai Khanate","cliopatria_from_year":1352,"cliopatria_to_year":1362,"cliopatria_area_km2":1664676,"cliopatria_wikidata":"Q487829","cliopatria_wikipedia":"Chagatai Khanate","cliopatria_seshat_id":"uz_chagatai_khanate"},
"geometry": {"type": "MultiPolygon", "coordinates": [
[
[
[66.6564,44.0591],
[66.8805,43.0165],
[67.0201,42.9515],
[67.0941,42.4312],
[67.3521,42.2362],
[67.311,42.1063],
[67.7862,41.5869],
[68.3621,41.3922],
[68.4605,41.1977],
[68.7582,41.1328],
[68.7973,41.0032],
[70.0291,41.1328],
[70.3507,41.3922],
[70.6899,41.4571],
[70.7323,41.5869],
[71.2897,41.5869],
[72.1006,41.3922],
[72.9249,41.0032],
[72.94,40.8088],
[73.1779,40.8088],
[73.4677,40.4849],
[73.626,40.4849],
[73.858,40.2259],
[73.8162,40.0964],
[73.9533,40.0317],
[73.8882,39.5789],
[73.7104,39.5143],
[73.6104,39.1911],
[73.6891,39.1911],
[73.6496,39.0618],
[73.787,38.9972],
[73.7283,38.8034],
[73.8068,38.8034],
[73.6703,38.6097],
[73.7487,38.6097],
[73.6188,37.8998],
[73.697,37.8998],
[73.6231,37.6417],
[73.7012,37.6417],
[73.6463,37.4483],
[73.7841,37.3838],
[73.694,37.0615],
[73.7962,36.8682],
[75.2331,36.9971],
[75.4716,36.7393],
[75.9017,36.6105],
[75.9135,36.0952],
[76.1527,35.8377],
[76.5578,35.902],
[76.5821,35.7089],
[77.208,35.4514],
[77.9814,35.4514],
[78.0945,35.5802],
[78.4221,35.6445],
[78.4766,35.8377],
[79.3658,35.9664],
[79.4433,35.9664],
[79.4994,36.1596],
[79.6923,36.2884],
[80.3901,36.546],
[81.2644,36.6105],
[81.7125,36.8037],
[82.1014,36.8037],
[85.1134,37.4483],
[85.3562,37.7062],
[85.8129,37.8998],
[86.0814,38.2224],
[86.7765,38.416],
[87.6617,38.4806],
[88.7458,38.868],
[89.1384,38.868],
[90.5659,39.7083],
[90.8292,40.3554],
[90.7247,40.4849],
[90.7788,40.6144],
[90.6475,40.6792],
[90.7021,40.8088],
[90.5708,40.8736],
[90.6258,41.0032],
[90.4947,41.068],
[90.4566,41.7167],
[90.3769,41.7167],
[90.4623,41.9114],
[90.36,42.0413],
[90.4175,42.1712],
[90.3376,42.1712],
[90.3955,42.3012],
[90.3155,42.3012],
[90.4027,42.4962],
[90.3011,42.6262],
[90.3598,42.7563],
[90.2796,42.7563],
[90.3386,42.8864],
[90.2584,42.8864],
[90.2759,43.2769],
[90.1955,43.2769],
[90.2854,43.4723],
[90.2049,43.4723],
[90.2952,43.6678],
[90.2147,43.6678],
[90.3309,44.7773],
[89.9061,44.908],
[89.937,44.9734],
[89.6935,44.9734],
[89.4612,45.1696],
[89.2174,45.1696],
[88.9845,45.3659],
[88.4455,45.4313],
[88.2118,45.6278],
[87.9164,45.6933],
[87.947,45.7588],
[87.5188,45.8898],
[87.5494,45.9554],
[86.7217,46.2833],
[86.5989,46.5459],
[86.435,46.5459],
[86.3634,46.7429],
[86.1993,46.7429],
[86.1278,46.9401],
[85.9635,46.9401],
[85.8921,47.1374],
[85.7276,47.1374],
[85.7387,47.3348],
[85.5541,47.4665],
[85.6169,47.5982],
[85.5149,47.73],
[85.3498,47.73],
[85.173,47.5323],
[83.9783,47.269],
[83.3639,47.0058],
[80.8896,46.6115],
[80.7507,46.4802],
[80.0441,46.7429],
[80.0725,46.8086],
[79.6057,46.6772],
[79.3055,46.7429],
[79.2775,46.6772],
[79.0856,46.6115],
[78.9748,46.3489],
[78.4563,46.2833],
[77.8016,46.2833],
[77.8287,46.3489],
[77.3644,46.4145],
[77.3914,46.4802],
[75.4512,46.5459],
[75.3168,46.4145],
[74.8814,46.3489],
[74.7526,46.0209],
[74.3186,45.9554],
[74.117,45.4313],
[74.2547,45.3659],
[74.1301,45.0388],
[73.8617,44.9734],
[73.9112,45.1042],
[73.7416,45.3004],
[73.3276,45.4968],
[73.5019,45.9554],
[73.6401,45.8898],
[73.7157,46.0865],
[73.527,46.0209],
[73.628,46.2833],
[73.8735,46.2833],
[73.9501,46.4802],
[74.3295,46.6115],
[74.3554,46.6772],
[73.8889,46.7429],
[73.9148,46.8086],
[73.1759,46.8086],
[72.0334,46.6115],
[70.9557,45.6933],
[69.9775,44.3201],
[66.6778,44.1243],
[66.6564,44.0591]
]
]
]}
}
