{
"type": "Feature",
"properties": {"id":"cliopatria-judea-145bce","edge_precision":"unknown","cliopatria_name":"Judea","cliopatria_from_year":-144,"cliopatria_to_year":-127,"cliopatria_area_km2":5733,"cliopatria_wikidata":"Q104028","cliopatria_wikipedia":"Judea"},
"geometry": {"type": "MultiPolygon", "coordinates": [
[
[
[34.8021,31.8503],
[35.2378,31.5933],
[35.314,31.5933],
[35.3085,31.529],
[35.3847,31.529],
[35.3792,31.4647],
[35.4554,31.4647],
[35.5537,31.7218],
[35.7881,31.7861],
[35.8814,31.9789],
[35.8281,32.236],
[35.6047,32.3002],
[35.5875,32.1074],
[35.3585,32.1074],
[35.2227,32.3002],
[34.9171,32.3002],
[34.8894,31.9789],
[34.813,31.9789],
[34.8021,31.8503]
]
]
]}
}
