{
"type": "Feature",
"properties": {"id":"cliopatria-chandela-kingdom-0960","edge_precision":"unknown","cliopatria_name":"Chandela Kingdom","cliopatria_from_year":960,"cliopatria_to_year":1084,"cliopatria_area_km2":80124,"cliopatria_wikidata":"Q2039087","cliopatria_wikipedia":"Chandelas of Jejakabhukti","cliopatria_seshat_id":"in_chandela_k"},
"geometry": {"type": "MultiPolygon", "coordinates": [
[
[
[78.821,24.3864],
[79.0878,23.8529],
[79.3101,23.2972],
[80.5327,23.764],
[82.5555,23.8752],
[82.9334,24.2975],
[83.578,24.3864],
[83.0223,24.7866],
[82.4666,24.831],
[81.3996,25.3645],
[81.0439,25.7202],
[80.7549,25.7646],
[80.0436,26.1425],
[79.5546,25.9425],
[79.5324,25.6313],
[78.821,25.0978],
[78.821,24.3864]
]
]
]}
}
