{
"type": "Feature",
"properties": {"id":"cliopatria-ghaznavid-empire-1028","edge_precision":"unknown","cliopatria_name":"Ghaznavid Empire","cliopatria_from_year":1028,"cliopatria_to_year":1033,"cliopatria_area_km2":2994860,"cliopatria_wikidata":"Q12844800","cliopatria_wikipedia":"Ghaznavids","cliopatria_seshat_id":"af_ghaznavid_emp"},
"geometry": {"type": "MultiPolygon", "coordinates": [
[
[
[48.0213,34.7436],
[48.0984,34.7436],
[48.0696,34.5506],
[48.2531,34.229],
[48.3532,33.3288],
[48.4883,33.2002],
[48.5106,32.8145],
[48.8043,32.1717],
[49.559,32.1074],
[50.1747,31.5933],
[50.2833,31.2719],
[50.7554,30.822],
[50.7384,30.6935],
[50.8818,30.6292],
[51.1184,30.1151],
[51.2701,30.1151],
[51.3887,29.858],
[51.5996,29.7294],
[51.5834,29.6009],
[51.7267,29.5366],
[51.7703,29.2795],
[51.9136,29.2152],
[52.0332,28.9581],
[52.0623,28.5724],
[51.3922,27.9938],
[51.385,27.9295],
[52.4787,27.6081],
[52.737,27.2223],
[53.4606,26.9652],
[53.6581,26.708],
[54.2589,26.708],
[54.6815,26.4508],
[54.9886,26.5151],
[55.2423,26.7723],
[55.5427,26.7723],
[55.3102,26.708],
[55.2889,26.5151],
[56.0612,26.708],
[56.3086,26.9009],
[56.3236,27.0295],
[56.0981,27.0295],
[56.1884,27.158],
[56.7147,27.158],
[57.0524,26.8366],
[57.1757,25.9365],
[57.3795,25.7436],
[57.6792,25.7436],
[57.7402,25.615],
[57.958,25.5507],
[58.7817,25.5507],
[59.0602,25.3579],
[60.6321,25.3579],
[60.6178,25.2293],
[60.9171,25.2293],
[61.1274,25.1007],
[61.6582,25.165],
[61.7187,25.0364],
[62.0179,25.0364],
[62.182,25.165],
[62.4739,25.1007],
[62.5634,25.2293],
[63.5362,25.2293],
[63.6262,25.3579],
[64.225,25.3579],
[64.2845,25.2293],
[64.8006,25.165],
[64.8161,25.2936],
[66.0215,25.3579],
[66.3451,25.5507],
[66.6203,25.3579],
[66.6475,24.9721],
[66.632,24.8435],
[66.6616,24.8435],
[66.6669,24.8643],
[66.6714,25.0274],
[67.0343,25.5535],
[67.1566,26.0993],
[67.168,27.448],
[67.502,28.366],
[67.522,29.123],
[67.643,29.277],
[68.1316,29.3902],
[68.698,29.191],
[69.638,29.361],
[70.003,29.812],
[70.2792,29.9543],
[71.4925,29.9628],
[72.1209,29.8478],
[72.3647,29.3613],
[72.3274,28.9646],
[74.784,31.3217],
[75.5662,30.9913],
[76.3753,31.052],
[76.3484,30.0001],
[76.5911,28.7324],
[77.5657,27.3033],
[77.7705,27.6081],
[78.0197,27.7367],
[78.0672,27.9938],
[77.5104,28.6367],
[77.2964,28.701],
[77.3466,28.9581],
[77.1709,29.2152],
[77.2359,29.5366],
[77.0977,29.6009],
[77.1375,29.7937],
[77.0617,29.7937],
[77.1427,30.1794],
[77.2738,30.4364],
[77.4396,30.5007],
[77.6151,30.9506],
[77.9016,31.2076],
[78.2208,31.2719],
[78.4329,31.529],
[78.448,31.5933],
[78.0361,31.7861],
[77.3037,31.9146],
[77.0439,32.1074],
[76.5246,32.1717],
[76.4022,32.3002],
[75.3326,32.3002],
[75.2098,32.4288],
[74.7661,32.4931],
[74.6734,32.7502],
[74.3824,32.8145],
[74.0754,33.1359],
[74.1679,33.5217],
[74.03,33.5859],
[74.0927,33.8432],
[74.2781,33.9718],
[73.9253,34.1004],
[73.9732,34.2933],
[73.8353,34.3577],
[73.916,34.6793],
[73.701,34.7436],
[73.7968,34.8177],
[73.1848,34.9979],
[72.3886,35.4532],
[71.6122,35.4775],
[70.9782,35.8852],
[70.9612,36.9176],
[71.1205,37.3065],
[71.5617,37.5272],
[71.5754,37.5773],
[71.4973,37.5773],
[71.5083,37.8998],
[71.2738,37.8998],
[71.364,38.2224],
[71.1838,38.416],
[70.7137,38.416],
[70.2147,38.0288],
[70.1619,37.8352],
[70.2658,37.6417],
[70.0752,37.5128],
[69.546,37.5773],
[69.3498,37.126],
[69.1161,37.126],
[69.0103,37.3193],
[68.7764,37.3193],
[68.1487,36.9971],
[67.9152,36.9971],
[67.7465,37.2549],
[67.123,37.2549],
[66.9995,37.3838],
[66.5155,37.3193],
[65.6274,37.5128],
[65.2388,37.8352],
[64.6615,38.0288],
[64.3669,38.416],
[64.0075,38.5451],
[63.8374,38.8034],
[63.4155,38.9972],
[63.2457,39.2557],
[63.0883,39.2557],
[62.6538,39.7083],
[62.5807,40.0317],
[62.4228,40.0317],
[62.457,40.1612],
[62.3161,40.2259],
[62.4027,40.5496],
[62.2969,40.744],
[62.4116,40.8736],
[62.4397,41.2625],
[62.1327,41.5869],
[62.065,41.9114],
[61.7827,42.0413],
[61.5556,42.3662],
[61.3957,42.3662],
[61.1683,42.6912],
[61.0081,42.6912],
[60.3919,43.3421],
[60.3677,43.5375],
[60.2872,43.5375],
[59.1235,43.4072],
[58.6329,43.6678],
[58.4175,43.4723],
[58.3371,43.4723],
[58.0515,43.0165],
[57.957,42.3662],
[57.5644,41.7816],
[57.4649,41.3922],
[56.8274,40.744],
[54.3851,40.8088],
[54.3701,40.744],
[53.4044,40.6792],
[53.4482,40.8736],
[53.3397,40.744],
[52.9433,40.744],
[52.9723,40.8736],
[52.893,40.8736],
[52.6994,40.3554],
[52.7785,40.3554],
[52.7877,40.0317],
[53.4985,40.0317],
[53.5449,39.5143],
[53.1375,39.4496],
[53.5176,39.385],
[53.9868,38.9972],
[53.8298,37.8352],
[53.9079,37.8352],
[53.9105,37.4483],
[54.0947,37.1904],
[54.0333,36.8682],
[53.9555,36.8682],
[53.9192,36.6749],
[54.2119,36.1596],
[54.0098,35.902],
[53.5219,35.7733],
[52.7362,35.7089],
[52.5264,35.8377],
[52.338,35.6445],
[52.0284,35.6445],
[51.973,35.7733],
[51.3753,35.902],
[50.8098,36.224],
[50.411,36.1596],
[50.3551,36.2884],
[49.8118,36.2884],
[48.7614,36.0308],
[48.4208,35.8377],
[48.1285,35.4514],
[48.0213,34.7436]
]
]
]}
}
