{
"type": "Feature",
"properties": {"id":"cliopatria-kievan-rus-0887","edge_precision":"unknown","cliopatria_name":"Kievan Rus'","cliopatria_from_year":887,"cliopatria_to_year":895,"cliopatria_area_km2":879068,"cliopatria_wikidata":"Q1108445","cliopatria_wikipedia":"Kievan Rus'","cliopatria_seshat_id":"ua_kievan_rus"},
"geometry": {"type": "MultiPolygon", "coordinates": [
[
[
[25.9792,50.9789],
[26.1404,50.9122],
[26.271,50.5789],
[26.7606,50.4457],
[28.7881,50.5122],
[30.2093,50.4457],
[30.6948,50.3125],
[30.9469,50.3125],
[31.1345,50.4457],
[31.4412,50.246],
[32.1972,50.246],
[33.2374,50.4457],
[33.6071,50.6455],
[33.6182,50.7121],
[34.0396,50.7121],
[34.8814,51.1792],
[35.2075,51.1124],
[35.68,51.3797],
[36.3576,51.3797],
[36.7679,51.3128],
[36.911,51.1792],
[36.8849,51.0457],
[37.0539,51.0457],
[37.4106,50.7121],
[37.7346,50.6455],
[37.8637,50.4457],
[37.9478,50.4457],
[38.2267,50.5789],
[38.5884,51.1124],
[38.8559,51.1792],
[38.8277,51.4465],
[38.9125,51.4465],
[39.1131,51.9822],
[39.1981,51.9822],
[39.2426,52.1833],
[39.413,52.1833],
[39.3428,52.2505],
[39.4717,53.1922],
[39.3858,53.1922],
[39.5506,53.5296],
[39.3557,53.7999],
[39.1831,53.7999],
[39.1605,54.0706],
[38.9489,54.2739],
[39.1164,54.6132],
[39.0296,54.6132],
[39.0785,54.8171],
[38.9915,54.8171],
[39.0738,55.1573],
[39.6824,55.4983],
[40.6451,55.4983],
[40.6806,55.6348],
[40.8737,55.7031],
[41.1367,55.7031],
[41.3485,55.8398],
[41.5934,55.7715],
[41.6674,56.0451],
[42.0446,56.4563],
[42.1406,56.7998],
[42.0021,56.9374],
[42.109,57.6271],
[41.9702,57.7654],
[42.0299,57.9731],
[41.8214,58.181],
[41.8614,58.3198],
[41.6323,58.4587],
[41.6724,58.5977],
[41.3928,58.8761],
[41.2125,58.8761],
[41.0218,59.1551],
[40.6094,59.2947],
[40.2754,59.7145],
[39.8604,59.8547],
[39.7375,60.0653],
[39.3206,60.2058],
[39.2881,60.4168],
[39.0332,60.4873],
[38.9417,60.4873],
[38.8891,60.6282],
[38.3775,60.7693],
[38.3243,60.9105],
[37.3147,61.2643],
[37.3336,61.3351],
[36.4288,61.406],
[36.1156,61.2643],
[36.0797,61.1227],
[35.8955,61.1227],
[35.5666,60.9105],
[35.1989,60.9105],
[35.3602,61.1935],
[33.1766,60.9105],
[31.9839,60.4873],
[31.8192,60.1355],
[31.1033,60.2058],
[30.8375,59.7846],
[30.3828,59.7846],
[30.1366,59.9249],
[29.7593,59.8547],
[29.7724,59.9249],
[29.1476,59.995],
[29.1604,60.0653],
[28.8493,59.8547],
[28.4065,59.9249],
[28.2912,59.7846],
[27.9274,59.7846],
[27.8804,59.5045],
[28.0618,59.5045],
[28.0383,59.3646],
[27.7434,59.2249],
[27.7199,58.5282],
[27.9668,58.3892],
[27.8545,58.2504],
[28.0112,58.1116],
[27.877,57.8346],
[27.9663,57.8346],
[27.9,57.4199],
[27.9889,57.4199],
[27.9126,56.9374],
[28.0012,56.9374],
[27.9795,56.7998],
[28.068,56.7998],
[27.958,56.6623],
[28.1131,56.525],
[27.961,56.1136],
[28.049,56.1136],
[28.0841,55.7715],
[28.3049,55.4983],
[28.288,54.8171],
[28.114,54.8171],
[28.1704,54.6132],
[27.9567,54.3417],
[27.9172,54.0706],
[27.754,54.1384],
[27.7249,53.9352],
[27.8113,53.9352],
[27.677,53.5971],
[27.5908,53.5971],
[27.5626,53.3946],
[27.146,52.8554],
[26.9747,52.8554],
[27.0339,52.6535],
[26.8455,52.5191],
[26.6071,51.9822],
[26.4287,51.9151],
[26.4973,51.7811],
[26.2106,51.5134],
[26.1713,51.1792],
[25.9868,51.0457],
[25.9792,50.9789]
]
],
[
[
[26.0022,51.1792],
[26.0867,51.1792],
[26.0945,51.246],
[26.0099,51.246],
[26.0022,51.1792]
]
],
[
[
[27.8803,56.7311],
[27.9687,56.7311],
[27.9795,56.7998],
[27.891,56.7998],
[27.8803,56.7311]
]
],
[
[
[32.8853,60.8399],
[32.9771,60.8399],
[32.9928,60.9105],
[32.9009,60.9105],
[32.8853,60.8399]
]
],
[
[
[33.4684,60.9812],
[33.5604,60.9812],
[33.5765,61.0519],
[33.4845,61.0519],
[33.4684,60.9812]
]
],
[
[
[38.3243,60.9105],
[38.4162,60.9105],
[38.4356,60.9812],
[38.3436,60.9812],
[38.3243,60.9105]
]
]
]}
}
