{
"type": "Feature",
"properties": {"id":"cliopatria-indo-parthians-0001","edge_precision":"unknown","cliopatria_name":"Indo-Parthians","cliopatria_from_year":1,"cliopatria_to_year":13,"cliopatria_area_km2":487414,"cliopatria_wikidata":"Q1255614","cliopatria_wikipedia":"Indo-Parthian Kingdom","cliopatria_seshat_id":"pk_indo_parthian_k"},
"geometry": {"type": "MultiPolygon", "coordinates": [
[
[
[66.0771,29.7937],
[66.4336,29.6652],
[66.888,29.6652],
[66.9949,29.4081],
[67.1352,29.3438],
[66.9313,28.5724],
[67.0067,28.5724],
[66.9655,28.3153],
[67.0409,28.3153],
[67.0457,27.8652],
[67.121,27.8652],
[67.0623,27.4795],
[67.1745,27.2223],
[67.1966,26.3222],
[67.5021,25.8079],
[67.1121,25.1007],
[66.6398,24.9078],
[66.632,24.8435],
[67.1477,24.7792],
[67.3261,24.3935],
[67.2891,24.072],
[67.4384,24.072],
[67.4911,23.8792],
[67.6331,23.8149],
[68.1554,23.8149],
[68.1265,23.5577],
[68.3502,23.5577],
[68.3359,23.4291],
[68.5525,23.3649],
[68.6058,23.172],
[68.9502,22.9148],
[69.0247,22.9148],
[69.0387,23.0434],
[69.4999,23.172],
[70.0653,23.5577],
[70.4242,24.072],
[70.4475,24.2649],
[70.6048,24.3292],
[70.6366,25.165],
[70.4378,25.3579],
[70.3405,25.7436],
[70.1907,25.7436],
[70.179,26.1937],
[69.7097,26.5794],
[69.7286,26.708],
[69.5128,26.7723],
[69.5611,27.0938],
[70.0071,27.5438],
[70.2199,27.9295],
[70.6394,28.1867],
[71.0182,28.6367],
[71.1692,28.6367],
[72.0287,29.2152],
[72.3279,29.6009],
[72.4529,30.2436],
[72.377,30.2436],
[72.449,31.3362],
[72.4414,31.6575],
[72.5734,31.9146],
[73.5854,33.0073],
[73.6005,33.0716],
[73.5239,33.0716],
[73.5236,33.7146],
[73.3555,33.9718],
[73.3892,34.422],
[72.8501,34.422],
[72.5876,34.2933],
[71.5561,34.1647],
[71.4792,34.1647],
[70.9558,34.229],
[70.7716,34.1004],
[70.8335,34.0361],
[70.7265,33.9075],
[69.9876,34.0361],
[69.8811,33.9075],
[69.343,33.9075],
[67.7096,32.7502],
[67.656,32.4931],
[67.0674,31.8503],
[66.7777,31.1434],
[66.4371,30.9506],
[66.3156,29.858],
[66.0771,29.7937]
]
]
]}
}
