{
"type": "Feature",
"properties": {"id":"cliopatria-sultanate-of-malacca-1552","edge_precision":"unknown","cliopatria_name":"Sultanate of Malacca","cliopatria_from_year":1552,"cliopatria_to_year":1639,"cliopatria_area_km2":65587,"cliopatria_wikidata":"Q46652","cliopatria_wikipedia":"Malacca Sultanate"},
"geometry": {"type": "MultiPolygon", "coordinates": [
[
[
[100.7507,3.7572],
[100.8145,3.5643],
[101.2339,3.1786],
[101.2172,2.7929],
[101.6433,2.5357],
[101.7161,2.5357],
[102.0181,2.7929],
[102.1021,3.05],
[101.8894,3.1786],
[101.8372,3.6286],
[101.6976,3.7572],
[101.4032,3.6929],
[101.2636,3.8215],
[101.1118,3.6929],
[100.9753,3.8858],
[100.7537,3.8215],
[100.7507,3.7572]
]
],
[
[
[101.5343,4.8501],
[101.6072,4.8501],
[101.6107,4.9144],
[101.6836,4.9144],
[101.687,4.9787],
[101.9057,4.9787],
[102.1937,4.9144],
[102.4922,5.0429],
[102.3536,5.1715],
[102.3644,5.3644],
[102.2223,5.4287],
[102.2487,5.8787],
[102.4023,6.0073],
[102.4062,6.0715],
[102.1264,6.2644],
[102.0535,6.2644],
[101.8765,5.7501],
[101.7307,5.7501],
[101.7777,5.3001],
[101.5483,5.1072],
[101.5343,4.8501]
]
],
[
[
[109.2409,-6.8503],
[109.4103,-7.236],
[109.6454,-7.4931],
[110.0144,-7.5574],
[109.8941,-7.9432],
[109.8985,-8.0074],
[110.6464,-8.2646],
[111.8922,-8.3289],
[112.3397,-8.4575],
[112.4127,-8.4575],
[112.5219,-7.9432],
[112.2897,-7.7503],
[112.2767,-7.5574],
[112.0536,-7.4931],
[112.0493,-7.4288],
[111.9034,-7.4288],
[111.7491,-7.3003],
[111.7369,-7.1074],
[111.5141,-7.0431],
[111.5022,-6.8503],
[111.6442,-6.786],
[111.6404,-6.7217],
[111.4869,-6.5931],
[111.0531,-6.6574],
[110.8923,-6.4002],
[110.6006,-6.4002],
[110.339,-6.9145],
[109.2409,-6.8503]
]
]
]}
}
