{
"type": "Feature",
"properties": {"id":"cliopatria-chalukya-dynasty-0626","edge_precision":"unknown","cliopatria_name":"Chalukya Dynasty","cliopatria_from_year":626,"cliopatria_to_year":632,"cliopatria_area_km2":749772,"cliopatria_wikidata":"Q1395011","cliopatria_wikipedia":"Chalukya dynasty","cliopatria_seshat_id":"in_badami_chalukya_emp"},
"geometry": {"type": "MultiPolygon", "coordinates": [
[
[
[72.8679,19.2505],
[72.9589,18.0291],
[73.2534,17.3219],
[73.2542,16.6147],
[73.3279,16.6147],
[73.4171,16.0361],
[73.5391,15.779],
[73.7474,15.6504],
[73.9745,14.9432],
[74.3745,14.4932],
[74.4707,13.9146],
[74.6636,13.5932],
[74.7477,12.8217],
[75.0647,12.1789],
[75.3385,11.9217],
[75.4568,11.536],
[76.947,12.8217],
[76.9618,12.8217],
[77.441,14.4622],
[78.9554,14.3225],
[79.2354,14.6033],
[78.8743,15.1255],
[79.0626,15.4015],
[79.6066,15.5777],
[80.2147,15.5308],
[80.1094,15.2004],
[80.1749,15.2004],
[80.2016,15.4575],
[80.4565,15.779],
[81.1188,15.779],
[81.3227,16.2933],
[82.0665,16.3576],
[82.3832,16.5504],
[82.4205,16.8719],
[82.3468,16.8719],
[82.4508,17.129],
[83.153,17.4505],
[83.5612,17.7719],
[83.6667,18.0291],
[84.0519,18.1576],
[84.3796,18.4148],
[84.486,18.6719],
[84.642,18.7362],
[84.7487,18.9934],
[85.0857,19.3148],
[85.0282,19.4434],
[83.4805,20.0862],
[83.2903,20.3434],
[82.5888,20.6648],
[81.1951,20.7934],
[80.8398,20.922],
[80.7148,21.1148],
[80.7226,21.1791],
[79.9879,21.2434],
[79.9292,21.372],
[79.4682,21.2434],
[79.1046,21.3077],
[79.0969,21.2434],
[77.2703,20.8577],
[74.5849,20.7291],
[74.2599,20.472],
[74.1153,19.8291],
[73.791,19.5719],
[72.8679,19.2505]
]
]
]}
}
