{
"type": "Feature",
"properties": {"id":"cliopatria-phoenicia-1151bce","edge_precision":"unknown","cliopatria_name":"Phoenicia","cliopatria_from_year":-1150,"cliopatria_to_year":-1001,"cliopatria_area_km2":12405,"cliopatria_wikidata":"Q41642","cliopatria_wikipedia":"Phoenicia","cliopatria_seshat_id":"lb_phoenician_emp","cliopatria_member_of":"(Phoenician Empire)"},
"geometry": {"type": "MultiPolygon", "coordinates": [
[
[
[35.2213,33.1359],
[35.6044,33.1359],
[35.6104,33.2002],
[35.6992,33.3288],
[35.8465,33.2645],
[35.8648,33.4574],
[36.1074,33.5859],
[36.0493,33.7789],
[36.203,33.7789],
[36.1514,34.0361],
[36.2411,34.1647],
[36.2476,34.229],
[36.3767,34.7436],
[36.2996,34.7436],
[36.3062,34.8079],
[36.165,34.9366],
[36.1849,35.1297],
[36.3527,35.2584],
[36.4002,35.7089],
[35.9559,35.902],
[35.8784,35.902],
[35.8449,35.5802],
[35.9929,35.5158],
[35.8825,35.194],
[35.9597,35.194],
[35.927,34.8723],
[36.0682,34.7436],
[36.0488,34.5506],
[35.7921,34.2933],
[35.6445,34.3577],
[35.6838,33.9718],
[35.447,33.9075],
[35.4993,33.6502],
[35.3458,33.6502],
[35.3984,33.3931],
[35.2272,33.2002],
[35.2213,33.1359]
]
]
]}
}
