{
"type": "Feature",
"properties": {"id":"cliopatria-kingdom-of-mercia-0788","edge_precision":"unknown","cliopatria_name":"Kingdom of Mercia","cliopatria_from_year":788,"cliopatria_to_year":799,"cliopatria_area_km2":84530,"cliopatria_wikidata":"Q105092","cliopatria_wikipedia":"Mercia","cliopatria_seshat_id":"gb_anglo_saxon_1","cliopatria_member_of":"(Anglo-Saxon England)"},
"geometry": {"type": "MultiPolygon", "coordinates": [
[
[
[-4.6799,51.0457],
[-4.6578,50.8455],
[-4.3061,50.7121],
[-4.2707,50.3791],
[-4.1866,50.3791],
[-4.0887,50.246],
[-3.5847,50.246],
[-3.4566,50.6455],
[-3.1262,50.7121],
[-2.7891,50.7121],
[-2.608,50.5789],
[-1.525,50.7121],
[-1.5134,50.5789],
[-1.1766,50.5789],
[-1.1092,50.7788],
[-1.3678,50.8455],
[0.4929,50.7788],
[1.3939,51.1792],
[1.3806,51.3797],
[1.2066,51.4465],
[0.5288,51.4465],
[0.863,51.5134],
[0.8487,51.7142],
[0.3292,51.8481],
[0.234,51.9822],
[0.0912,52.7208],
[0.2518,52.8554],
[0.1662,52.8554],
[0.0698,52.99],
[0.3165,53.1248],
[0.2953,53.3946],
[0.0208,53.5971],
[0.0153,53.6647],
[-0.6802,53.7323],
[-0.7487,53.5296],
[-1.0931,53.5296],
[-1.1609,53.3271],
[-1.3328,53.3271],
[-1.7023,53.5971],
[-2.5364,53.3271],
[-2.8803,53.3271],
[-3.1525,53.4621],
[-3.3247,53.4621],
[-3.3174,53.3946],
[-3.4894,53.3946],
[-3.2741,52.99],
[-3.0746,52.7208],
[-3.1391,52.5191],
[-3.0399,52.3847],
[-2.8692,52.3847],
[-2.9273,52.1163],
[-2.9138,51.9822],
[-2.8287,51.9822],
[-2.822,51.9151],
[-2.6258,51.6472],
[-2.9519,51.5134],
[-2.9452,51.4465],
[-3.108,51.3797],
[-3.0946,51.246],
[-4.2017,51.3128],
[-4.4264,51.0457],
[-4.6799,51.0457]
]
]
]}
}
