{
"type": "Feature",
"properties": {"id":"cliopatria-great-seljuk-empire-1169","edge_precision":"unknown","cliopatria_name":"Great Seljuk Empire","cliopatria_from_year":1169,"cliopatria_to_year":1176,"cliopatria_area_km2":1850111,"cliopatria_wikidata":"Q3708094","cliopatria_wikipedia":"Seljuk Empire"},
"geometry": {"type": "MultiPolygon", "coordinates": [
[
[
[38.6656,40.6792],
[38.8049,40.5496],
[38.851,39.7729],
[39.2177,39.5789],
[39.0669,39.0618],
[39.7471,38.868],
[39.9918,38.9326],
[40.2644,39.1911],
[41.07,39.3203],
[41.513,39.1265],
[43.017,39.1911],
[43.2122,38.9326],
[44.223,38.868],
[44.3593,38.7389],
[44.308,38.416],
[44.4545,38.3515],
[44.306,37.8998],
[44.4426,37.7707],
[44.0422,37.7062],
[43.8957,37.7707],
[43.564,37.6417],
[43.3203,37.5773],
[43.4107,37.126],
[44.3571,36.6749],
[44.3384,36.546],
[44.6119,36.2884],
[44.5934,36.1596],
[44.9534,35.9664],
[44.8984,35.5802],
[44.4073,35.3871],
[44.1741,34.8079],
[43.9256,34.6793],
[43.8146,34.422],
[43.6606,34.422],
[43.3965,34.1647],
[43.2426,34.1647],
[42.8946,33.8432],
[42.5715,33.7146],
[42.3636,33.2645],
[42.356,33.2002],
[42.5783,33.1359],
[42.7085,32.943],
[43.1526,32.8145],
[44.459,31.5933],
[44.444,31.4647],
[44.6576,31.3362],
[44.6353,31.1434],
[44.7949,31.2076],
[45.3982,30.5007],
[45.55,30.5007],
[46.099,29.9865],
[46.5322,29.7937],
[46.5865,29.6009],
[46.745,29.6652],
[46.868,29.4081],
[47.1021,29.4723],
[47.3834,29.2795],
[47.459,29.2795],
[47.5707,29.6009],
[48.0699,29.9865],
[48.9037,29.9865],
[48.9873,30.0508],
[48.9428,30.3079],
[49.5859,29.9865],
[50.0648,30.1794],
[50.2363,29.7294],
[50.6513,29.4081],
[50.6203,29.1509],
[50.915,29.0867],
[50.809,28.8295],
[51.0281,28.7652],
[51.0662,28.4438],
[51.3313,28.1224],
[51.3168,27.9938],
[51.5967,27.8009],
[52.0486,27.8009],
[52.4787,27.6081],
[52.737,27.2223],
[53.4606,26.9652],
[53.6581,26.708],
[54.2589,26.708],
[54.4632,26.5151],
[54.8316,26.4508],
[55.2423,26.7723],
[55.5427,26.7723],
[55.3102,26.708],
[55.2889,26.5151],
[55.439,26.5151],
[55.6034,26.6437],
[56.0612,26.708],
[56.3086,26.9009],
[56.3236,27.0295],
[56.0981,27.0295],
[56.1884,27.158],
[56.7147,27.158],
[57.0524,26.8366],
[57.0449,26.7723],
[57.5031,26.8366],
[58.0007,27.2223],
[58.2912,27.7367],
[58.9884,28.4438],
[59.2301,29.0867],
[59.6086,29.6009],
[60.0266,29.858],
[60.0465,29.9865],
[61.7446,31.0791],
[63.0539,31.5933],
[63.43,31.9789],
[63.4784,32.236],
[63.9614,32.3645],
[64.1642,32.6216],
[63.487,33.0716],
[63.5125,33.2002],
[63.3719,33.2645],
[63.4104,33.4574],
[63.3337,33.4574],
[63.3854,33.7146],
[63.3086,33.7146],
[63.558,34.5506],
[64.3839,35.5158],
[64.4413,35.7733],
[64.7613,36.1596],
[64.1553,36.224],
[63.5928,36.4816],
[63.4961,36.7393],
[62.6508,37.126],
[60.9658,37.2549],
[60.9166,37.3838],
[60.3214,37.5128],
[59.123,37.3838],
[58.6139,37.1904],
[58.3158,37.2549],
[58.2108,37.126],
[57.3143,36.9326],
[55.8483,36.9971],
[55.3413,37.1904],
[55.0297,37.1904],
[54.8338,37.3838],
[54.0415,37.3193],
[54.0291,37.2549],
[54.0333,36.8682],
[53.0877,36.8037],
[52.1859,36.546],
[51.642,36.546],
[50.8207,36.7393],
[50.532,36.8682],
[50.6323,36.9971],
[50.5657,37.0615],
[50.3209,36.9971],
[49.9988,37.3838],
[49.0851,37.5128],
[48.8843,37.7062],
[48.8411,38.3515],
[48.7627,38.3515],
[48.8206,38.6743],
[48.7422,38.6743],
[48.9155,39.1911],
[49.1635,39.2557],
[49.1757,39.3203],
[49.0305,39.385],
[49.0008,39.6436],
[48.7766,39.7083],
[48.7225,39.8376],
[48.0913,39.8376],
[47.8973,39.6436],
[47.4008,39.5143],
[46.6684,38.9326],
[46.2646,38.868],
[46.2192,39.0618],
[45.9492,39.3203],
[45.7918,39.3203],
[45.3298,39.8376],
[45.0367,39.967],
[44.9577,39.967],
[44.8223,40.0964],
[44.6643,40.0964],
[44.563,39.967],
[43.7163,40.0964],
[43.5911,40.2906],
[43.7709,40.8736],
[43.567,41.068],
[43.1475,40.9384],
[43.1031,40.6792],
[42.6168,40.6144],
[42.347,40.4201],
[41.9513,40.4201],
[41.6557,40.5496],
[41.6767,40.6792],
[41.5182,40.6792],
[41.2537,41.0032],
[40.5674,40.6792],
[38.6656,40.6792]
]
]
]}
}
