{
"type": "Feature",
"properties": {"id":"cliopatria-assyria-1151bce","edge_precision":"unknown","cliopatria_name":"Assyria","cliopatria_from_year":-1150,"cliopatria_to_year":-1101,"cliopatria_area_km2":515451,"cliopatria_wikidata":"Q41137","cliopatria_wikipedia":"Assyria","cliopatria_seshat_id":"iq_middle_assyrian_emp"},
"geometry": {"type": "MultiPolygon", "coordinates": [
[
[
[34.8794,36.7393],
[35.4877,36.6105],
[35.8336,36.9326],
[36.2156,36.8682],
[36.8799,37.1832],
[37.6163,37.6244],
[38.0803,38.1289],
[38.6032,37.6357],
[38.2794,37.1812],
[37.0522,36.1756],
[36.3903,35.8974],
[35.9681,36.0175],
[35.9559,35.902],
[36.4002,35.7089],
[36.3527,35.2584],
[36.1849,35.1297],
[36.165,34.9366],
[36.3062,34.8079],
[36.3833,34.8079],
[36.3966,34.9366],
[36.7053,34.9366],
[36.769,34.8079],
[37.1547,34.8079],
[37.2455,34.9366],
[37.4701,34.8723],
[37.5681,35.0653],
[37.7226,35.0653],
[37.926,34.8079],
[38.4175,35.0653],
[38.8036,35.0653],
[39.0904,34.8723],
[39.2521,34.9366],
[39.6082,34.6793],
[40.0557,34.5506],
[40.1178,34.422],
[40.4183,34.3577],
[40.4728,34.1647],
[40.8499,34.1004],
[40.9117,33.9718],
[42.0031,33.4574],
[42.0645,33.3288],
[42.3636,33.2645],
[42.7085,32.943],
[43.1526,32.8145],
[43.3514,32.5574],
[43.4279,32.5574],
[43.9102,32.7502],
[44.2084,32.6859],
[44.3087,32.8788],
[44.5384,32.8788],
[44.7159,33.0716],
[45.4654,32.943],
[45.8991,33.3288],
[46.0525,33.3288],
[46.0697,33.4574],
[45.8567,33.5859],
[45.8915,33.8432],
[45.9683,33.8432],
[45.9178,34.0361],
[46.1485,34.0361],
[46.1574,34.1004],
[45.9391,34.7436],
[45.862,34.7436],
[45.8984,35.001],
[46.2257,35.1297],
[46.2443,35.2584],
[46.0403,35.4514],
[46.0685,35.6445],
[46.3293,35.8377],
[45.3502,36.0308],
[45.4466,36.1596],
[45.369,36.1596],
[45.388,36.2884],
[45.1059,36.4816],
[45.0663,36.7393],
[44.8617,36.9326],
[44.8518,37.3838],
[44.6374,37.5128],
[44.5988,37.7707],
[44.4624,37.8998],
[44.306,37.8998],
[44.3459,38.1578],
[44.5329,38.3515],
[44.3182,38.4806],
[44.3224,38.9972],
[44.1757,39.0618],
[44.1391,39.3203],
[44.0605,39.3203],
[44.4862,39.5143],
[44.5189,39.7083],
[43.415,39.7083],
[43.4363,39.8376],
[43.2785,39.8376],
[43.2208,39.967],
[42.7366,39.9023],
[42.347,40.4201],
[41.8617,40.3554],
[40.7846,40.5496],
[40.586,40.2906],
[40.1214,40.3554],
[39.7662,40.0964],
[38.609,40.2906],
[37.7733,39.967],
[36.8908,39.2557],
[36.7335,39.2557],
[36.7876,39.0618],
[36.9366,38.9972],
[36.9203,38.868],
[36.7552,38.8034],
[36.637,38.4806],
[36.4725,38.416],
[36.4111,37.8998],
[36.0762,37.7062],
[35.9543,37.3193],
[35.2957,36.9971],
[35.1469,37.0615],
[35.2041,36.8682],
[34.8794,36.7393]
]
]
]}
}
