{
"type": "Feature",
"properties": {"id":"cliopatria-jalayirid-sultanate-1375","edge_precision":"unknown","cliopatria_name":"Jalayirid Sultanate","cliopatria_from_year":1375,"cliopatria_to_year":1394,"cliopatria_area_km2":491301,"cliopatria_wikidata":"Q866716","cliopatria_wikipedia":"Jalayirid Sultanate","cliopatria_seshat_id":"ir_jayarid_khanate"},
"geometry": {"type": "MultiPolygon", "coordinates": [
[
[
[40.5101,35.1297],
[40.5487,34.8079],
[40.7723,34.7436],
[40.965,34.422],
[41.042,34.422],
[41.427,33.7789],
[41.8649,33.5859],
[42.0645,33.3288],
[42.5783,33.1359],
[42.7085,32.943],
[43.1526,32.8145],
[44.459,31.5933],
[44.444,31.4647],
[44.6576,31.3362],
[44.6353,31.1434],
[44.7949,31.2076],
[45.3982,30.5007],
[45.55,30.5007],
[46.099,29.9865],
[46.5322,29.7937],
[46.5865,29.6009],
[46.745,29.6652],
[46.868,29.4081],
[47.1021,29.4723],
[47.3834,29.2795],
[47.459,29.2795],
[47.5707,29.6009],
[48.0699,29.9865],
[48.9037,29.9865],
[49.0347,30.4364],
[49.0427,30.5007],
[49.3445,31.0791],
[49.6914,31.4005],
[49.9902,31.9146],
[50.7691,32.5574],
[50.9122,33.0073],
[51.588,33.9075],
[52.5176,34.422],
[52.6374,34.6793],
[52.1298,34.8723],
[52.1513,35.001],
[52.0077,35.0653],
[52.0728,35.4514],
[51.94,35.5802],
[51.973,35.7733],
[51.2979,35.902],
[51.0114,35.5802],
[50.79,35.6445],
[50.532,36.8682],
[50.5432,36.9326],
[50.6323,36.9971],
[50.5657,37.0615],
[50.3209,36.9971],
[49.9988,37.3838],
[49.6981,37.4483],
[49.6201,37.4483],
[49.0429,36.8037],
[48.8873,36.8037],
[48.8449,36.546],
[49.2121,36.4172],
[49.1595,36.0952],
[48.6839,36.0308],
[48.6227,35.6445],
[48.1583,35.6445],
[47.946,35.7733],
[47.6841,35.5802],
[47.7029,35.194],
[47.8476,35.1297],
[47.7415,34.9366],
[47.51,34.9366],
[47.3842,35.1297],
[47.2298,35.1297],
[46.7967,34.8079],
[46.5746,34.8723],
[46.5932,35.001],
[46.3801,35.1297],
[46.4082,35.3227],
[46.1553,35.7089],
[45.0032,35.7733],
[44.8666,35.902],
[44.4611,35.7733],
[43.919,35.7733],
[43.7202,35.4514],
[43.4968,35.5158],
[43.5143,35.6445],
[42.6544,35.5802],
[42.4306,35.6445],
[42.3701,35.7733],
[42.1294,35.7089],
[41.9913,35.8377],
[42.0081,35.9664],
[41.7924,36.0952],
[41.8093,36.224],
[41.5935,36.3528],
[41.6104,36.4816],
[41.4636,36.546],
[41.0584,36.4172],
[40.5101,35.1297]
]
]
]}
}
