{
"type": "Feature",
"properties": {"id":"cliopatria-republic-of-cameroon-1960","edge_precision":"unknown","cliopatria_name":"Republic of Cameroon","cliopatria_from_year":1960,"cliopatria_to_year":1960,"cliopatria_area_km2":423891,"cliopatria_wikidata":"Q1009","cliopatria_wikipedia":"Cameroon"},
"geometry": {"type": "MultiPolygon", "coordinates": [
[
[
[9.4215,4.4644],
[9.4882,4.0143],
[9.5611,4.0143],
[9.6321,3.8858],
[9.4855,3.8215],
[9.4828,3.6286],
[9.6275,3.5643],
[9.6247,3.3715],
[9.8394,3.1143],
[9.6879,2.7286],
[9.6809,2.2786],
[9.6798,2.2143],
[11.2077,2.15],
[11.3554,2.2786],
[12.5202,2.2786],
[13.2461,2.15],
[14.5565,2.15],
[14.99,1.9571],
[15.6441,1.8929],
[15.7862,1.7],
[16.0058,1.7643],
[16.0899,2.4072],
[16.0259,2.9215],
[15.8108,3.1143],
[15.5206,3.1786],
[15.3802,3.5],
[15.0931,3.7572],
[15.0983,4.0786],
[14.6703,4.6572],
[14.6763,5.0429],
[14.5325,5.1715],
[14.615,5.8144],
[14.3982,5.943],
[14.401,6.1358],
[14.6945,6.2644],
[15.1451,7.1644],
[15.4398,7.3573],
[15.5183,7.743],
[15.2362,8.4502],
[14.0809,9.4788],
[14.0849,9.8002],
[14.3066,9.9931],
[15.4754,9.9288],
[15.5503,10.0574],
[15.2603,10.2502],
[15.0484,10.8288],
[15.1361,11.986],
[14.9187,12.1789],
[14.9226,12.5003],
[14.4163,13.0789],
[14.123,13.0789],
[14.1891,12.436],
[14.6989,12.1789],
[14.6172,11.4717],
[13.8083,11.1503],
[13.5829,10.636],
[13.58,10.3788],
[13.283,9.9931],
[13.2786,9.6074],
[12.9102,9.3502],
[12.9064,9.0288],
[12.7566,8.7073],
[12.6105,8.7073],
[12.2416,8.3859],
[12.2378,8.0645],
[11.8667,7.5502],
[11.7129,6.9073],
[11.5662,6.843],
[11.4155,6.4573],
[11.2697,6.4573],
[10.3858,5.7501],
[10.0934,5.6858],
[9.9427,5.3001],
[9.7961,5.2358],
[9.8656,4.9787],
[9.7173,4.7858],
[9.5716,4.7858],
[9.4215,4.4644]
]
]
]}
}
