{
"type": "Feature",
"properties": {"id":"cliopatria-zhao-351bce","edge_precision":"unknown","cliopatria_name":"Zhao","cliopatria_from_year":-350,"cliopatria_to_year":-338,"cliopatria_area_km2":66760,"cliopatria_wikidata":"Q1574107","cliopatria_wikipedia":"Zhao (state)","cliopatria_member_of":"(Warring States China)"},
"geometry": {"type": "MultiPolygon", "coordinates": [
[
[
[111.1598,35.4514],
[111.8559,35.4514],
[111.9871,35.5802],
[112.9157,35.5802],
[112.9386,35.4514],
[113.4027,35.4514],
[113.5301,35.3871],
[113.4758,35.2584],
[114.2714,35.1297],
[114.476,35.0653],
[114.499,34.9366],
[114.9939,35.194],
[115.0765,35.3871],
[114.5815,36.0308],
[114.6098,36.0952],
[115.3639,36.7393],
[115.6067,36.4172],
[116.123,36.8682],
[114.9075,36.9326],
[114.9482,37.1904],
[115.1462,37.4483],
[114.6068,37.126],
[113.6343,37.3838],
[113.825,38.2869],
[113.7467,38.2869],
[113.2674,37.7707],
[112.4645,37.3838],
[112.3865,37.3838],
[112.1403,36.4816],
[111.2402,35.6445],
[111.1598,35.4514]
]
]
]}
}
