{
"type": "Feature",
"properties": {"id":"cliopatria-hungarian-republic-1940","edge_precision":"unknown","cliopatria_name":"Hungarian Republic","cliopatria_from_year":1940,"cliopatria_to_year":1940,"cliopatria_area_km2":122165,"cliopatria_wikidata":"Q28","cliopatria_wikipedia":"Hungary"},
"geometry": {"type": "MultiPolygon", "coordinates": [
[
[
[16.2832,46.9401],
[16.4361,46.6115],
[16.5181,46.6115],
[16.5158,46.5459],
[17.1511,46.0209],
[17.5542,45.8898],
[17.5569,45.9554],
[17.6386,45.9554],
[17.6359,45.8898],
[17.8751,45.7588],
[18.4461,45.7588],
[19.4457,46.1521],
[20.2634,46.1521],
[21.1754,46.3489],
[21.9945,47.5323],
[22.2564,47.73],
[22.762,47.8619],
[22.8549,47.9938],
[23.3566,48.0597],
[23.7593,47.9278],
[24.5862,47.9278],
[24.6867,48.1257],
[24.4619,48.3899],
[23.9758,48.522],
[23.6663,48.7865],
[22.9287,48.9189],
[22.7784,49.1175],
[22.4398,49.0513],
[22.1545,48.5881],
[21.7489,48.7204],
[20.9177,48.7204],
[20.7427,48.5881],
[20.6684,48.7204],
[20.0906,48.7865],
[19.7422,48.522],
[19.1575,48.4559],
[18.9845,48.3238],
[17.3264,48.3238],
[17.0723,48.1917],
[17.0563,47.7959],
[16.8859,47.6641],
[16.4756,47.73],
[16.6359,47.5982],
[16.631,47.4665],
[16.4638,47.4006],
[16.4521,47.0716],
[16.2832,46.9401]
]
]
]}
}
