{
"type": "Feature",
"properties": {"id":"cliopatria-emirate-of-diriyah-1796","edge_precision":"unknown","cliopatria_name":"Emirate of Diriyah","cliopatria_from_year":1796,"cliopatria_to_year":1796,"cliopatria_area_km2":760359,"cliopatria_wikidata":"Q146871","cliopatria_wikipedia":"Emirate of Diriyah"},
"geometry": {"type": "MultiPolygon", "coordinates": [
[
[
[38.0136,28.4438],
[38.2299,28.3153],
[38.4217,27.8652],
[38.7037,27.6081],
[38.7599,27.3509],
[39.3148,26.708],
[39.7778,25.8079],
[39.9234,25.7436],
[40.2475,24.9721],
[40.393,24.9078],
[40.5186,24.5221],
[40.8686,24.1363],
[41.2672,23.3006],
[41.5506,23.0434],
[41.5961,22.5291],
[41.7342,22.3363],
[41.4657,21.5005],
[41.155,21.2434],
[40.9896,20.922],
[40.7602,20.7934],
[40.5952,20.472],
[40.2112,20.2148],
[40.2079,20.1505],
[40.851,19.7005],
[40.8408,19.5077],
[40.9854,19.4434],
[41.0421,19.1219],
[41.2501,18.8648],
[41.2361,18.6076],
[41.4508,18.4791],
[41.7849,17.8362],
[42.2802,17.4505],
[42.3363,17.129],
[42.4837,17.129],
[42.817,16.4861],
[42.8135,16.4219],
[43.038,16.4861],
[43.2768,16.8076],
[43.2357,17.3862],
[43.4644,17.5148],
[43.5529,17.7719],
[43.5089,18.2862],
[44.3598,18.9291],
[44.4491,19.1862],
[44.4529,19.2505],
[44.6697,20.4077],
[44.8332,20.6648],
[44.8047,21.4363],
[44.6009,21.7577],
[44.5496,22.1434],
[44.3497,22.5291],
[44.2048,22.5934],
[44.0794,22.9791],
[43.6522,23.3006],
[43.5395,23.8792],
[43.7183,24.3292],
[43.8764,24.4578],
[44.4696,24.3935],
[45.0232,23.7506],
[45.147,23.3649],
[45.4367,23.2363],
[46.7211,23.4934],
[47.1865,23.7506],
[47.5549,23.6863],
[48.1704,23.9435],
[48.3895,23.8792],
[48.6425,24.2649],
[49.1006,24.3935],
[51.1762,24.2006],
[51.1658,24.072],
[51.7472,23.8792],
[51.7042,24.2649],
[51.4108,24.3292],
[51.5236,24.7792],
[51.69,24.9721],
[51.7188,25.2936],
[51.575,25.3579],
[51.6979,25.8722],
[51.4228,26.1294],
[51.1229,26.1294],
[50.9545,25.9365],
[50.9246,25.615],
[50.769,25.5507],
[50.7289,25.1007],
[50.6541,25.1007],
[50.6076,25.4221],
[50.3255,25.615],
[50.211,26.0008],
[50.067,26.0651],
[50.223,26.1294],
[50.2537,26.4508],
[50.116,26.5794],
[50.135,26.7723],
[49.3596,27.2866],
[49.2419,27.6081],
[48.8722,27.6724],
[48.9741,27.9295],
[48.5627,28.3153],
[48.5834,28.5081],
[48.4394,28.5724],
[48.392,28.8295],
[47.9387,28.8295],
[47.6915,28.6367],
[47.4104,27.3509],
[47.1786,27.2866],
[47.01,27.0938],
[45.8073,27.0938],
[45.1422,27.2223],
[44.6561,27.6724],
[44.0654,27.8009],
[44.083,27.9938],
[43.8805,28.251],
[43.6425,28.1224],
[43.5789,28.251],
[43.3527,28.251],
[43.3069,28.5724],
[42.9991,28.5081],
[42.9932,28.4438],
[42.7209,28.7652],
[42.1404,29.0224],
[41.5417,29.0867],
[41.4779,29.2152],
[41.1813,29.2795],
[41.1931,29.4081],
[39.663,29.2152],
[39.112,28.9581],
[39.0205,28.7652],
[38.8694,28.7652],
[38.7835,28.6367],
[38.099,28.5724],
[38.0236,28.5724],
[38.0136,28.4438]
]
]
]}
}
