{
"type": "Feature",
"properties": {"id":"cliopatria-empire-of-thessalonica-1236","edge_precision":"unknown","cliopatria_name":"Empire of Thessalonica","cliopatria_from_year":1236,"cliopatria_to_year":1240,"cliopatria_area_km2":22143,"cliopatria_wikidata":"Q623151","cliopatria_wikipedia":"Empire of Thessalonica"},
"geometry": {"type": "MultiPolygon", "coordinates": [
[
[
[21.3586,40.0964],
[21.4989,39.7729],
[21.8,39.5143],
[21.793,39.385],
[22.1685,39.0618],
[22.1614,38.9326],
[22.3934,38.868],
[23.0216,38.868],
[22.9583,39.1265],
[22.7973,39.0618],
[22.8163,39.385],
[23.1312,39.385],
[23.1352,39.4496],
[22.6109,39.9023],
[22.7017,40.0964],
[22.5437,40.0964],
[22.5716,40.5496],
[22.8925,40.6144],
[22.9592,40.4201],
[23.7374,40.2259],
[23.8386,40.5496],
[23.6846,40.6144],
[23.698,40.8088],
[22.5961,40.9384],
[22.1875,40.744],
[21.9982,40.2259],
[21.3586,40.0964]
]
],
[
[
[24.491,40.8088],
[24.5513,40.5496],
[24.7936,40.6144],
[24.8081,40.8088],
[24.491,40.8088]
]
]
]}
}
