{
"type": "Feature",
"properties": {"id":"cliopatria-republic-of-venice-1502","edge_precision":"unknown","cliopatria_name":"Republic of Venice","cliopatria_from_year":1502,"cliopatria_to_year":1506,"cliopatria_area_km2":62939,"cliopatria_wikidata":"Q4948","cliopatria_wikipedia":"Republic of Venice","cliopatria_seshat_id":"it_venetian_rep_3"},
"geometry": {"type": "MultiPolygon", "coordinates": [
[
[
[9.3087,45.8898],
[9.3105,45.6933],
[9.4746,45.5623],
[9.719,45.5623],
[9.8834,45.3004],
[10.4531,45.1696],
[10.4527,45.3659],
[10.6154,45.4313],
[10.6969,45.3004],
[11.5897,44.908],
[11.6708,44.908],
[11.6704,44.8426],
[11.7516,44.8426],
[11.8336,44.9734],
[12.2395,44.9734],
[12.2377,44.7773],
[12.3999,44.7773],
[12.4026,45.0388],
[12.16,45.1696],
[12.1628,45.4968],
[12.6522,45.5623],
[12.8168,45.6933],
[13.0605,45.6278],
[13.0614,45.6933],
[13.1429,45.6933],
[13.1448,45.8243],
[13.308,45.8243],
[13.312,46.0865],
[13.4765,46.1521],
[13.3978,46.3489],
[13.5627,46.4145],
[13.5649,46.5459],
[12.0905,46.6772],
[11.8431,46.4802],
[11.8415,46.2177],
[11.6772,46.0865],
[11.3503,46.0865],
[11.0229,45.7588],
[10.6967,45.6933],
[10.4516,45.8898],
[10.4512,46.0865],
[10.5329,46.0865],
[10.5326,46.2833],
[10.3687,46.3489],
[10.1245,46.0209],
[9.6338,46.0865],
[9.3892,46.0209],
[9.3087,45.8898]
]
],
[
[
[13.5441,45.3004],
[13.7056,45.235],
[13.7809,44.908],
[13.9432,44.908],
[13.9457,45.0388],
[14.027,45.0388],
[13.7869,45.235],
[14.1175,45.4968],
[13.5473,45.4968],
[13.5441,45.3004]
]
],
[
[
[14.2609,44.5813],
[14.5024,44.516],
[14.5113,44.908],
[14.3504,44.9734],
[14.2692,44.9734],
[14.2609,44.5813]
]
],
[
[
[14.5158,45.1042],
[14.758,45.0388],
[14.6798,45.1696],
[14.5173,45.1696],
[14.5158,45.1042]
]
],
[
[
[14.9865,44.4507],
[15.0674,44.4507],
[15.0692,44.516],
[14.9882,44.516],
[14.9865,44.4507]
]
],
[
[
[15.0657,44.3854],
[15.1466,44.3854],
[15.1484,44.4507],
[15.0674,44.4507],
[15.0657,44.3854]
]
],
[
[
[15.1449,44.3201],
[15.2187,44.0591],
[15.4591,43.9938],
[15.3747,43.8634],
[15.6186,43.9286],
[15.6954,43.7982],
[15.9352,43.733],
[16.0117,43.6027],
[15.9271,43.4723],
[16.5754,43.6027],
[16.7342,43.5375],
[16.7272,43.3421],
[17.0513,43.4072],
[17.1219,43.1467],
[17.285,43.2118],
[17.3654,43.2118],
[17.0537,43.4723],
[17.0562,43.5375],
[16.9757,43.5375],
[16.8218,43.733],
[16.58,43.733],
[16.2641,43.9286],
[15.7032,44.0591],
[15.5474,44.2548],
[15.1466,44.3854],
[15.1449,44.3201]
]
],
[
[
[17.3577,43.0165],
[17.5157,42.9515],
[17.5209,43.0816],
[17.3603,43.0816],
[17.3577,43.0165]
]
],
[
[
[17.5079,42.7563],
[17.5881,42.7563],
[17.5907,42.8213],
[17.5105,42.8213],
[17.5079,42.7563]
]
],
[
[
[18.3036,42.6262],
[18.6951,42.4312],
[18.6921,42.3662],
[18.852,42.3662],
[19.3096,41.9114],
[19.3894,41.9114],
[19.3989,42.1063],
[19.1625,42.1712],
[18.7781,42.4962],
[18.7131,42.8213],
[18.3065,42.6912],
[18.3036,42.6262]
]
],
[
[
[19.7578,39.6436],
[19.9125,39.5789],
[19.9214,39.7729],
[19.7637,39.7729],
[19.7578,39.6436]
]
],
[
[
[20.6127,37.7062],
[20.9221,37.6417],
[20.934,37.8998],
[20.6213,37.8998],
[20.6127,37.7062]
]
],
[
[
[21.7435,36.8682],
[21.9023,36.9326],
[21.9054,36.9971],
[21.7497,36.9971],
[21.7435,36.8682]
]
],
[
[
[22.874,36.1596],
[23.1068,36.1596],
[23.1168,36.3528],
[22.9649,36.4172],
[22.8872,36.4172],
[22.874,36.1596]
]
],
[
[
[23.6154,35.5158],
[23.6792,35.2584],
[24.4484,35.194],
[24.7574,35.194],
[24.8237,35.001],
[26.1401,35.0653],
[26.2253,35.194],
[25.6806,35.1297],
[25.6923,35.3227],
[24.301,35.3227],
[24.1499,35.3871],
[24.1569,35.5158],
[23.6154,35.5158]
]
],
[
[
[24.2013,37.6417],
[24.2716,37.5128],
[24.4316,37.5773],
[24.3614,37.7062],
[24.2833,37.7062],
[24.2013,37.6417]
]
],
[
[
[24.3565,38.868],
[24.662,38.7389],
[24.6749,38.9326],
[24.4435,38.9972],
[24.365,38.9972],
[24.3565,38.868]
]
],
[
[
[24.6819,37.8352],
[24.83,37.7062],
[25.0685,37.7707],
[24.7724,38.0288],
[24.6942,38.0288],
[24.6819,37.8352]
]
],
[
[
[24.9862,37.7062],
[25.0519,37.5128],
[25.286,37.5128],
[25.2205,37.7062],
[24.9862,37.7062]
]
],
[
[
[25.3308,36.9971],
[25.5644,36.9971],
[25.5727,37.126],
[25.339,37.126],
[25.3308,36.9971]
]
],
[
[
[32.229,34.9366],
[32.3667,34.7436],
[33.0436,34.5506],
[33.1321,34.6793],
[33.5234,34.7436],
[33.6954,34.9366],
[34.0873,35.001],
[33.9571,35.2584],
[34.5294,35.5802],
[34.5421,35.7089],
[34.3098,35.7089],
[33.7374,35.3871],
[32.8869,35.3871],
[32.8752,35.2584],
[32.5547,35.1297],
[32.2458,35.1297],
[32.229,34.9366]
]
]
]}
}
