{
"type": "Feature",
"properties": {"id":"cliopatria-vandals-0410","edge_precision":"unknown","cliopatria_name":"Vandals","cliopatria_from_year":410,"cliopatria_to_year":413,"cliopatria_area_km2":420482,"cliopatria_wikidata":"Q42211","cliopatria_wikipedia":"Vandals"},
"geometry": {"type": "MultiPolygon", "coordinates": [
[
[
[-9.572,38.9326],
[-9.5531,38.7389],
[-9.3837,38.6097],
[-9.233,38.6743],
[-9.2085,38.416],
[-8.8227,38.4806],
[-8.8188,37.5773],
[-8.8969,37.5773],
[-9.0014,36.9971],
[-8.7011,37.126],
[-8.3117,37.126],
[-8.0672,36.9971],
[-7.6779,36.9971],
[-7.4548,37.126],
[-7.4653,37.2549],
[-6.8418,37.2549],
[-6.588,36.9971],
[-6.3495,36.9326],
[-6.3301,36.6749],
[-6.0638,36.224],
[-5.8311,36.224],
[-5.6623,36.0308],
[-5.2879,36.224],
[-5.2282,36.4816],
[-4.6888,36.546],
[-4.4686,36.7393],
[-2.6801,36.7393],
[-2.5321,36.8682],
[-2.0616,36.8037],
[-1.8574,37.3193],
[-1.6235,37.3193],
[-1.7087,37.4483],
[-0.7048,37.6417],
[-0.8035,38.0288],
[-0.6609,38.2869],
[0.0994,38.7389],
[-0.3137,39.1265],
[-0.3454,39.7083],
[-0.2019,39.967],
[0.107,40.0964],
[0.1035,40.1612],
[-0.8486,40.2259],
[-1.236,40.0964],
[-2.4384,40.3554],
[-2.8475,40.5496],
[-4.7636,40.744],
[-5.754,41.1977],
[-5.9826,41.9764],
[-5.8348,42.1063],
[-5.8466,42.2362],
[-5.6926,42.3012],
[-5.7044,42.4312],
[-5.0071,42.6912],
[-2.1984,42.6262],
[-2.1276,42.7563],
[-1.8116,42.8213],
[-0.9339,42.8864],
[-1.027,43.0816],
[-1.4284,43.0816],
[-1.4418,43.2769],
[-1.6876,43.3421],
[-3.2959,43.3421],
[-3.4672,43.4723],
[-4.9904,43.4072],
[-5.5656,43.5375],
[-7.1757,43.5375],
[-7.3435,43.6027],
[-7.2765,43.733],
[-8.2436,43.733],
[-8.3904,43.6027],
[-8.369,43.4072],
[-8.8517,43.4072],
[-9.3046,43.1467],
[-9.0787,42.5612],
[-8.9185,42.5612],
[-8.9044,42.4312],
[-8.6504,42.3012],
[-8.9561,42.1712],
[-8.727,40.744],
[-8.8723,40.6144],
[-8.8993,40.0964],
[-9.0443,39.967],
[-9.1572,39.5143],
[-9.387,39.4496],
[-9.4275,39.0618],
[-9.572,38.9326]
]
]
]}
}
