{
"type": "Feature",
"properties": {"id":"cliopatria-phrygia-751bce","edge_precision":"unknown","cliopatria_name":"Phrygia","cliopatria_from_year":-750,"cliopatria_to_year":-701,"cliopatria_area_km2":78628,"cliopatria_wikidata":"Q32579","cliopatria_wikipedia":"Phrygia","cliopatria_seshat_id":"tr_phrygian_k"},
"geometry": {"type": "MultiPolygon", "coordinates": [
[
[
[30.4504,40.1612],
[30.5295,40.1612],
[30.5098,39.967],
[30.7401,39.9023],
[30.727,39.7729],
[31.6735,39.7729],
[31.6599,39.6436],
[31.8108,39.5789],
[31.7052,39.3203],
[31.7838,39.3203],
[31.7573,39.0618],
[31.8359,39.0618],
[31.6592,38.868],
[31.7968,38.6743],
[32.1956,38.7389],
[32.2609,38.6097],
[32.4178,38.6097],
[33.001,38.9326],
[33.1442,38.8034],
[33.1952,38.5451],
[33.5872,38.5451],
[33.7581,38.6743],
[33.7008,38.868],
[33.7865,38.9326],
[33.4794,38.9972],
[33.3578,39.3203],
[33.1288,39.385],
[33.1648,39.7083],
[33.4161,39.8376],
[33.5174,40.0317],
[34.0703,40.0317],
[33.9904,40.6792],
[34.3947,40.744],
[34.348,41.0032],
[34.2686,41.0032],
[34.3644,41.1328],
[34.3727,41.1977],
[34.54,41.2625],
[34.5652,41.4571],
[34.7329,41.522],
[34.75,41.6518],
[34.3517,41.6518],
[34.474,41.9764],
[33.2771,41.9764],
[32.8621,41.8465],
[32.6308,41.9114],
[32.6947,41.7816],
[32.1934,41.5869],
[32.0417,41.6518],
[32.0265,41.522],
[31.5342,41.3922],
[31.3461,41.1328],
[30.8695,41.1328],
[30.9278,40.9384],
[30.7552,40.8088],
[30.7934,40.4201],
[30.4703,40.3554],
[30.4504,40.1612]
]
]
]}
}
