{
"type": "Feature",
"properties": {"id":"cliopatria-fatimid-caliphate-0990","edge_precision":"unknown","cliopatria_name":"Fatimid Caliphate","cliopatria_from_year":990,"cliopatria_to_year":1014,"cliopatria_area_km2":1946467,"cliopatria_wikidata":"Q160307","cliopatria_wikipedia":"Fatimid Caliphate","cliopatria_seshat_id":"tn_fatimid_cal"},
"geometry": {"type": "MultiPolygon", "coordinates": [
[
[
[-0.3904,34.3577],
[0.3026,34.3577],
[0.4513,34.4863],
[0.685,34.422],
[1.2938,34.615],
[2.4499,34.615],
[2.9205,34.3577],
[3.1515,34.3577],
[3.4557,34.4863],
[3.8427,34.422],
[4.4539,34.615],
[5.149,34.5506],
[5.3774,34.6793],
[6.1484,34.6793],
[6.459,34.5506],
[6.9203,34.615],
[7.1535,34.4863],
[7.6149,34.5506],
[8.0016,34.422],
[8.0808,34.229],
[8.7734,34.229],
[8.9283,34.1004],
[9.159,34.1004],
[9.2395,33.5217],
[9.7017,33.1359],
[9.8561,32.8145],
[10.0856,32.8788],
[11.1569,32.4288],
[11.0803,32.236],
[11.4623,32.3002],
[11.5382,32.1074],
[11.7675,32.1717],
[12.4529,31.8503],
[12.9878,31.9789],
[13.2162,31.9146],
[13.2173,32.0431],
[13.37,32.0431],
[13.9777,31.7861],
[14.6564,31.2076],
[14.6547,31.0791],
[14.8812,30.9506],
[15.1039,30.565],
[16.1594,30.1151],
[17.4433,29.858],
[17.818,29.6652],
[18.0382,29.3438],
[18.6375,29.0867],
[19.7747,29.2152],
[21.5371,29.9223],
[22.4512,30.0508],
[23.9622,29.9223],
[24.3304,29.6652],
[24.7792,29.5366],
[24.8467,29.3438],
[25.0008,29.4081],
[25.1465,29.2795],
[25.3735,29.2795],
[25.4407,29.0867],
[25.8074,28.8295],
[27.1401,28.251],
[27.285,28.1224],
[27.2763,27.9295],
[27.4299,27.9938],
[27.792,27.6724],
[27.7109,27.5438],
[27.9367,27.5438],
[28.1537,27.3509],
[28.2702,26.5794],
[28.3453,26.5794],
[28.2437,25.9365],
[28.2886,25.165],
[28.5688,24.6506],
[29.6728,24.2006],
[29.9595,23.8792],
[30.1087,23.8792],
[30.104,23.7506],
[30.3952,23.5577],
[30.4627,23.3649],
[30.5372,23.3649],
[31.6705,23.7506],
[32.0409,23.6863],
[33.389,23.8149],
[33.6818,23.6863],
[33.7564,23.6863],
[35.108,23.8792],
[35.5526,23.8149],
[35.5588,23.9435],
[35.8541,23.8792],
[35.8604,24.0077],
[35.1455,24.6506],
[34.6076,25.8079],
[34.4613,25.8722],
[34.1972,26.5151],
[34.0507,26.5794],
[34.0731,26.9652],
[33.9266,27.0295],
[33.7992,27.4152],
[33.5851,27.6081],
[33.6089,27.9938],
[33.1053,28.3795],
[32.8361,28.8938],
[32.6892,28.9581],
[32.6387,29.3438],
[32.4287,29.6009],
[32.5261,29.9223],
[32.8571,29.2152],
[33.2139,28.8938],
[33.1889,28.5081],
[33.403,28.3153],
[33.5538,28.3153],
[33.617,28.1224],
[34.12,27.7367],
[34.3459,27.7367],
[34.3583,27.9295],
[34.5173,28.0581],
[34.7523,29.2795],
[34.9129,29.4081],
[34.8535,28.5724],
[34.6054,28.251],
[34.5927,28.0581],
[35.0492,28.1224],
[35.4087,27.8652],
[35.4669,27.6081],
[35.6132,27.5438],
[35.6717,27.2866],
[36.1649,26.7723],
[36.4291,26.1937],
[36.7173,26.0008],
[36.773,25.6793],
[37.2707,25.2293],
[37.3308,24.9721],
[37.1776,24.9078],
[37.1705,24.7792],
[37.3876,24.6506],
[37.4448,24.3292],
[38.0318,24.1363],
[38.6011,23.622],
[38.8688,23.0434],
[38.8589,22.8506],
[39.1402,22.5291],
[39.0271,21.7577],
[39.1693,21.6291],
[39.147,21.1791],
[39.3506,20.7934],
[39.8439,20.2791],
[40.1404,20.2791],
[40.5616,19.8291],
[40.851,19.7005],
[40.8408,19.5077],
[40.9854,19.4434],
[41.0421,19.1219],
[41.2501,18.8648],
[41.2361,18.6076],
[41.4508,18.4791],
[41.5775,18.0933],
[42.1362,17.5148],
[42.21,17.5148],
[42.6635,17.7076],
[42.977,18.0291],
[43.5051,18.2219],
[43.8934,18.5434],
[43.9047,18.7362],
[44.2782,18.8005],
[44.2309,19.2505],
[44.4567,19.3148],
[44.4682,19.5077],
[43.1344,20.7934],
[42.8663,21.3077],
[42.5836,21.5648],
[42.5236,21.822],
[42.2406,22.0791],
[42.1806,22.3363],
[42.0354,22.4005],
[41.9083,22.7863],
[41.7631,22.8506],
[41.4945,23.3649],
[41.5058,23.5577],
[41.1557,23.9435],
[40.6215,24.9721],
[40.476,25.0364],
[40.3429,25.2936],
[40.4262,25.4221],
[40.131,25.4864],
[40.0951,26.0651],
[39.9408,26.0008],
[40.0336,26.258],
[39.8836,26.258],
[39.8971,26.4508],
[39.8221,26.4508],
[39.9109,26.6437],
[39.7608,26.6437],
[39.7747,26.8366],
[39.6996,26.8366],
[39.8229,27.4795],
[39.7476,27.4795],
[39.7776,27.8652],
[40.2178,28.6367],
[40.3688,28.6367],
[40.3098,28.8295],
[40.5704,29.2152],
[40.7275,29.2795],
[40.9142,29.6652],
[41.5003,30.2436],
[42.609,30.6935],
[42.685,30.6935],
[42.5467,31.529],
[42.4705,31.529],
[42.5061,31.8503],
[42.4299,31.8503],
[42.3636,33.2645],
[42.0645,33.3288],
[42.0031,33.4574],
[41.4886,33.6502],
[41.427,33.7789],
[41.2733,33.7789],
[41.2116,33.9075],
[40.9117,33.9718],
[40.7036,34.1647],
[40.3958,34.1647],
[40.2569,34.2933],
[39.7253,34.3577],
[39.509,34.4863],
[39.1238,34.4863],
[38.4794,34.229],
[38.144,33.9718],
[37.9902,33.9718],
[37.3162,33.3931],
[37.086,33.3931],
[36.9009,33.8432],
[36.6193,34.1004],
[36.575,34.422],
[36.293,34.6793],
[36.2159,34.6793],
[35.7921,34.2933],
[35.6445,34.3577],
[35.6838,33.9718],
[35.447,33.9075],
[35.4993,33.6502],
[35.3458,33.6502],
[35.3984,33.3931],
[35.2154,33.0716],
[35.0563,33.0073],
[35.0218,32.6216],
[34.7698,32.3645],
[34.813,31.9789],
[34.5733,31.8503],
[34.6388,31.7218],
[34.5466,31.529],
[34.3076,31.4005],
[34.2972,31.2719],
[33.7493,31.0791],
[32.8317,31.0148],
[32.7652,31.1434],
[32.5322,31.0791],
[32.3894,31.2076],
[32.2372,31.2076],
[32.3039,31.0791],
[31.9996,31.0791],
[31.9374,31.2719],
[31.7806,31.2076],
[31.8752,31.4647],
[31.2658,31.4647],
[31.118,31.529],
[31.2033,31.6575],
[30.9746,31.6575],
[30.9656,31.529],
[30.8088,31.4647],
[30.3517,31.4647],
[30.2712,31.4005],
[30.3388,31.2719],
[29.882,31.2719],
[29.8018,31.2076],
[29.8696,31.0791],
[29.6332,30.9506],
[29.4851,31.0148],
[29.3971,30.822],
[28.865,30.822],
[28.4964,31.0148],
[27.5149,31.1434],
[27.2975,31.3362],
[26.8477,31.4647],
[25.248,31.4647],
[25.102,31.5933],
[25.1117,31.7861],
[24.8925,31.9789],
[24.1294,31.9789],
[23.6803,32.1717],
[23.2985,32.1717],
[23.0779,32.3645],
[23.0894,32.6216],
[21.8787,32.943],
[21.4117,32.7502],
[21.108,32.8145],
[20.8712,32.6216],
[20.6441,32.6859],
[20.7159,32.5574],
[20.563,32.5574],
[20.482,32.4288],
[20.3313,32.4931],
[20.2461,32.236],
[20.017,32.236],
[20.0891,32.1074],
[19.9961,31.5933],
[20.2143,31.2719],
[20.1341,31.1434],
[20.2021,30.8863],
[19.9682,30.6935],
[19.9643,30.565],
[19.655,30.3722],
[18.9686,30.2436],
[18.8961,30.3722],
[18.5925,30.3722],
[18.2223,30.7578],
[17.8468,30.9506],
[16.8635,31.2076],
[16.1786,31.2076],
[15.649,31.4005],
[15.576,31.5933],
[15.4246,31.6575],
[15.2823,32.3002],
[15.0551,32.4288],
[14.7493,32.4288],
[14.6747,32.5574],
[14.4444,32.4931],
[14.0652,32.7502],
[13.7591,32.7502],
[13.7605,32.8788],
[13.4537,32.8145],
[13.3017,32.943],
[12.8418,32.8788],
[12.8408,32.7502],
[12.5347,32.7502],
[12.6121,32.8788],
[12.229,32.8145],
[11.4644,33.2002],
[11.1578,33.2002],
[11.0815,33.5859],
[10.6977,33.5217],
[10.544,33.7146],
[10.2368,33.7146],
[10.0058,33.9075],
[10.0817,34.229],
[10.0045,34.2933],
[10.543,34.5506],
[10.8512,34.8079],
[10.8512,34.9366],
[11.0828,35.001],
[11.0057,35.3871],
[11.083,35.3871],
[11.0832,35.5802],
[10.851,35.6445],
[10.851,35.7089],
[10.4635,35.902],
[10.5403,36.3528],
[10.4625,36.4172],
[11.0062,36.8037],
[11.0063,36.9971],
[10.4618,36.7393],
[10.2284,36.8037],
[10.3054,37.0615],
[10.2276,37.0615],
[10.227,37.2549],
[9.9934,37.1904],
[9.759,37.3193],
[9.3696,37.2549],
[9.0595,37.0615],
[8.9032,37.126],
[8.5164,36.8682],
[7.7383,36.8682],
[7.502,37.0615],
[7.3463,37.0615],
[7.1937,36.8682],
[6.8047,36.8682],
[6.3339,37.0615],
[6.103,36.9326],
[6.1058,36.8037],
[5.6391,36.8037],
[5.5643,36.6749],
[5.0978,36.6749],
[4.8595,36.8682],
[4.2352,36.9326],
[3.85,36.8037],
[3.459,36.8682],
[3.2299,36.7393],
[2.8411,36.7393],
[2.6902,36.6105],
[2.3769,36.6749],
[1.5296,36.4816],
[1.2162,36.546],
[0.9138,36.3528],
[0.678,36.4172],
[0.6837,36.2884],
[0.3761,36.224],
[0.0061,35.8377],
[-0.0714,35.8377],
[-0.0567,35.5158],
[-0.1996,35.2584],
[-0.1679,34.5506],
[-0.3904,34.3577]
]
],
[
[
[2.5313,34.4863],
[2.5334,34.422],
[2.6104,34.422],
[2.6083,34.4863],
[2.5313,34.4863]
]
],
[
[
[14.3368,35.8377],
[14.5682,35.7733],
[14.5712,35.9664],
[14.4171,36.0308],
[14.3396,36.0308],
[14.3368,35.8377]
]
]
]}
}
