{
"type": "Feature",
"properties": {"id":"cliopatria-republic-of-albania-2006","edge_precision":"unknown","cliopatria_name":"Republic of Albania","cliopatria_from_year":2006,"cliopatria_to_year":2023,"cliopatria_area_km2":27865,"cliopatria_wikidata":"Q467864","cliopatria_wikipedia":"Albania"},
"geometry": {"type": "MultiPolygon", "coordinates": [
[
[
[19.2487,40.6144],
[19.4863,40.6144],
[19.4714,40.2906],
[19.6295,40.2906],
[20.0094,39.967],
[19.9184,39.7083],
[20.155,39.7083],
[20.3158,39.7729],
[20.4074,40.0317],
[20.6509,40.1612],
[20.7434,40.4201],
[20.9878,40.5496],
[21.0777,40.744],
[20.5434,41.1328],
[20.4919,41.6518],
[20.5823,41.8465],
[20.5205,42.1712],
[20.062,42.5612],
[19.8985,42.4962],
[19.7452,42.6262],
[19.6651,42.6262],
[19.4151,42.4312],
[19.3862,41.8465],
[19.5424,41.7816],
[19.4501,41.522],
[19.5297,41.522],
[19.4438,41.3922],
[19.5233,41.3922],
[19.4376,41.2625],
[19.4985,40.8736],
[19.2545,40.744],
[19.2487,40.6144]
]
]
]}
}
