{
"type": "Feature",
"properties": {"id":"cliopatria-emirate-of-nejd-1885","edge_precision":"unknown","cliopatria_name":"Emirate of Nejd","cliopatria_from_year":1885,"cliopatria_to_year":1889,"cliopatria_area_km2":267521,"cliopatria_wikidata":"Q146862","cliopatria_wikipedia":"Emirate of Nejd"},
"geometry": {"type": "MultiPolygon", "coordinates": [
[
[
[40.4597,24.7792],
[40.995,23.7506],
[41.1405,23.6863],
[41.2672,23.3006],
[41.4126,23.2363],
[41.4053,23.1077],
[41.5506,23.0434],
[41.8194,22.5291],
[42.1734,22.2077],
[42.1662,22.0791],
[42.4493,21.822],
[42.7849,21.1791],
[43.1416,20.922],
[43.2719,20.6005],
[43.6948,20.2148],
[43.6985,20.2791],
[43.639,20.5362],
[43.8615,20.5362],
[43.8021,20.7934],
[44.0321,20.922],
[44.047,21.1791],
[44.5114,21.5005],
[44.5228,21.6934],
[44.6752,21.7577],
[44.7766,22.2077],
[44.9372,22.4005],
[44.9531,22.6577],
[45.5113,23.2363],
[46.7211,23.4934],
[47.1865,23.7506],
[47.5549,23.6863],
[48.1704,23.9435],
[48.3895,23.8792],
[48.563,24.2006],
[48.7969,24.3292],
[49.6931,24.3292],
[49.4844,24.5221],
[49.4305,24.7792],
[49.0725,24.9721],
[48.1822,26.7723],
[48.038,26.8366],
[47.7991,27.4795],
[47.5923,27.6724],
[47.5859,27.6081],
[47.329,27.2866],
[46.9349,27.0938],
[46.8597,27.0938],
[46.6742,26.708],
[46.4432,26.6437],
[46.1845,26.258],
[45.788,26.0008],
[45.7775,25.8722],
[45.3823,25.615],
[45.3722,25.4864],
[44.9783,25.2293],
[44.9686,25.1007],
[44.7301,24.9078],
[44.2768,24.8435],
[43.9643,24.6506],
[42.7558,24.4578],
[42.1707,24.6506],
[41.797,24.6506],
[41.224,25.0364],
[41.1492,25.0364],
[40.5345,24.7792],
[40.4597,24.7792]
]
],
[
[
[54.8621,19.8934],
[55.0102,19.8934],
[55.0942,20.022],
[55.0201,20.022],
[54.8621,19.8934]
]
]
]}
}
