{
"type": "Feature",
"properties": {"id":"cliopatria-western-xia-1216","edge_precision":"unknown","cliopatria_name":"Western Xia","cliopatria_from_year":1216,"cliopatria_to_year":1219,"cliopatria_area_km2":109973,"cliopatria_wikidata":"Q7427","cliopatria_wikipedia":"Western Xia","cliopatria_seshat_id":"cn_xixia"},
"geometry": {"type": "MultiPolygon", "coordinates": [
[
[
[106.6003,38.416],
[106.8154,38.5451],
[107.4426,38.5451],
[107.5113,38.3515],
[107.9029,38.3515],
[108.0992,38.0933],
[109.0778,37.8352],
[110.3979,38.1578],
[110.6748,38.416],
[111.0186,38.4806],
[111.0798,38.6097],
[111.0014,38.6097],
[111.1562,38.9326],
[111.4863,39.1265],
[111.3925,39.2557],
[111.6837,39.8376],
[112.4834,40.6144],
[112.578,40.9384],
[111.2738,40.8736],
[111.3084,40.9384],
[110.8323,40.9384],
[110.8668,41.0032],
[109.7898,41.068],
[108.51,40.744],
[107.6443,39.967],
[107.4392,39.7083],
[107.3937,39.4496],
[106.6003,38.416]
]
]
]}
}
