{
"type": "Feature",
"properties": {"id":"cliopatria-principality-of-vladimir-suzdal-1463","edge_precision":"unknown","cliopatria_name":"Principality of Vladimir-Suzdal","cliopatria_from_year":1463,"cliopatria_to_year":1481,"cliopatria_area_km2":6485,"cliopatria_wikidata":"Q83546","cliopatria_wikipedia":"Vladimir-Suzdal"},
"geometry": {"type": "MultiPolygon", "coordinates": [
[
[
[36.8204,58.2504],
[37.2345,58.1116],
[37.3793,57.9731],
[37.3453,57.8346],
[37.5239,57.8346],
[37.5068,57.7654],
[37.7746,57.7654],
[37.7718,58.1116],
[37.6822,58.1116],
[37.752,58.3892],
[37.6622,58.3892],
[37.625,58.5977],
[37.5001,58.4587],
[36.8713,58.4587],
[36.8204,58.2504]
]
],
[
[
[37.7611,57.3509],
[37.8501,57.3509],
[37.7992,57.144],
[38.243,57.144],
[38.4011,57.4199],
[38.8108,57.2819],
[38.8638,57.4889],
[38.7747,57.4889],
[38.7388,58.0423],
[38.4703,58.0423],
[38.4888,57.7654],
[37.8467,57.6962],
[37.8123,57.558],
[37.7611,57.3509]
]
]
]}
}
