{
"type": "Feature",
"properties": {"id":"cliopatria-united-states-of-america-1848","edge_precision":"unknown","cliopatria_name":"United States of America","cliopatria_from_year":1848,"cliopatria_to_year":1848,"cliopatria_area_km2":3454273,"cliopatria_wikidata":"Q30","cliopatria_wikipedia":"United States","cliopatria_seshat_id":"us_antebellum"},
"geometry": {"type": "MultiPolygon", "coordinates": [
[
[
[-124.033,46.2177],
[-124.0063,46.0865],
[-123.7349,45.9554],
[-123.6811,45.8898],
[-123.4082,45.9554],
[-123.7601,46.2833],
[-124.033,46.2177]
]
],
[
[
[-123.7441,38.9972],
[-122.9775,38.2869],
[-123.0536,38.1578],
[-122.9736,38.0288],
[-122.5814,37.8998],
[-122.5026,37.7707],
[-122.5805,37.6417],
[-122.1963,36.9971],
[-121.8097,36.8682],
[-121.9716,36.6105],
[-121.8285,36.224],
[-121.6278,36.4172],
[-121.7014,36.546],
[-121.546,36.546],
[-121.4646,36.6749],
[-121.5359,36.9326],
[-121.3375,37.126],
[-121.5676,37.3838],
[-121.6059,37.4483],
[-121.9168,37.7062],
[-122.2727,38.2869],
[-122.7046,38.3515],
[-123.0279,38.7389],
[-123.7441,38.9972]
]
],
[
[
[-123.4107,45.7588],
[-123.1164,45.4968],
[-122.8435,45.5623],
[-123.1378,45.8243],
[-123.2194,45.8243],
[-123.4107,45.7588]
]
],
[
[
[-123.059,47.5982],
[-122.7522,47.3348],
[-122.864,47.4665],
[-122.7816,47.4665],
[-123.059,47.5982]
]
],
[
[
[-123.033,47.6641],
[-122.9765,47.5982],
[-122.894,47.5982],
[-122.9504,47.6641],
[-123.033,47.6641]
]
],
[
[
[-123.007,47.73],
[-122.7028,47.6641],
[-122.8418,47.73],
[-123.007,47.73]
]
],
[
[
[-123.0029,45.7588],
[-122.9496,45.6933],
[-122.8681,45.6933],
[-122.9213,45.7588],
[-123.0029,45.7588]
]
],
[
[
[-122.9169,47.3348],
[-122.8055,47.2032],
[-122.5586,47.2032],
[-122.6141,47.269],
[-122.505,47.3348],
[-122.5608,47.4006],
[-122.396,47.4006],
[-122.7028,47.6641],
[-122.5342,47.4665],
[-122.6991,47.4665],
[-122.6965,47.269],
[-122.9169,47.3348]
]
],
[
[
[-122.848,45.3659],
[-122.5568,45.1042],
[-122.2839,45.1696],
[-122.5751,45.4313],
[-122.6565,45.4313],
[-122.848,45.3659]
]
],
[
[
[-122.208,39.7729],
[-121.9579,39.5143],
[-121.7641,39.5789],
[-121.6793,39.4496],
[-121.4065,39.5143],
[-121.5703,39.6436],
[-121.613,39.7083],
[-121.8496,39.7083],
[-121.9356,39.8376],
[-122.208,39.7729]
]
],
[
[
[-121.9098,39.3203],
[-121.664,39.0618],
[-121.3911,39.1265],
[-121.637,39.385],
[-121.7158,39.385],
[-121.9098,39.3203]
]
],
[
[
[-121.8132,38.8034],
[-121.5719,38.5451],
[-121.2987,38.6097],
[-121.5402,38.868],
[-121.6188,38.868],
[-121.8132,38.8034]
]
],
[
[
[-121.5028,38.9326],
[-121.4208,38.8034],
[-120.9429,38.416],
[-120.6694,38.4806],
[-121.0283,38.8034],
[-120.8335,38.868],
[-120.9155,38.9972],
[-121.2338,39.1265],
[-121.1924,39.0618],
[-121.5028,38.9326]
]
],
[
[
[-121.2163,38.3515],
[-120.7836,37.8998],
[-120.2364,37.8998],
[-120.471,38.1578],
[-120.6664,38.0933],
[-120.9429,38.416],
[-121.0212,38.416],
[-121.2163,38.3515]
]
],
[
[
[-119.3186,34.2933],
[-119.1757,34.1647],
[-119.1429,34.1004],
[-118.5719,34.0361],
[-118.4105,33.7146],
[-118.0585,33.7789],
[-118.2198,34.1004],
[-118.4718,34.2933],
[-119.1977,34.3577],
[-119.1646,34.2933],
[-119.3186,34.2933]
]
],
[
[
[-118.6396,48.7204],
[-118.3302,48.4559],
[-118.0545,48.522],
[-118.3641,48.7865],
[-118.4472,48.7865],
[-118.6396,48.7204]
]
],
[
[
[-117.7138,34.1647],
[-117.5078,33.9075],
[-117.3541,33.9075],
[-117.3862,33.9718],
[-117.2324,33.9718],
[-117.4385,34.229],
[-117.5155,34.229],
[-117.7138,34.1647]
]
],
[
[
[-117.4438,44.5813],
[-117.4256,44.4507],
[-117.2143,44.3854],
[-117.1651,44.3201],
[-116.8416,44.3201],
[-117.1198,44.5813],
[-117.2818,44.5813],
[-117.3315,44.6466],
[-117.4125,44.6466],
[-117.3628,44.5813],
[-117.4438,44.5813]
]
],
[
[
[-117.3909,33.2002],
[-117.1618,32.5574],
[-117.1317,32.4931],
[-116.8094,32.6216],
[-116.9002,32.8145],
[-116.8236,32.8145],
[-116.9459,33.0716],
[-117.3909,33.2002]
]
],
[
[
[-112.8706,43.8634],
[-112.6029,43.6027],
[-112.3272,43.6678],
[-112.595,43.9286],
[-112.6756,43.9286],
[-112.8706,43.8634]
]
],
[
[
[-112.4614,41.068],
[-112.2132,40.8088],
[-111.9379,40.8736],
[-112.1862,41.1328],
[-112.2656,41.1328],
[-112.4614,41.068]
]
],
[
[
[-110.8211,41.7167],
[-110.5703,41.4571],
[-110.2945,41.522],
[-110.5454,41.7816],
[-110.6251,41.7816],
[-110.8211,41.7167]
]
],
[
[
[-110.64,47.8619],
[-110.352,47.5982],
[-110.0729,47.6641],
[-110.3611,47.9278],
[-110.4437,47.9278],
[-110.64,47.8619]
]
],
[
[
[-107.091,35.4514],
[-106.8889,35.194],
[-106.7344,35.194],
[-106.7654,35.2584],
[-106.6108,35.2584],
[-106.813,35.5158],
[-106.8903,35.5158],
[-107.091,35.4514]
]
],
[
[
[-106.5931,31.9789],
[-106.4866,31.7218],
[-106.2053,31.5933],
[-106.2315,31.6575],
[-106.1553,31.6575],
[-106.0589,31.9789],
[-106.5931,31.9789]
]
],
[
[
[-105.9325,35.7733],
[-105.7299,35.5158],
[-105.5752,35.5158],
[-105.6063,35.5802],
[-105.4516,35.5802],
[-105.6542,35.8377],
[-105.7317,35.8377],
[-105.9325,35.7733]
]
],
[
[
[-104.9197,40.5496],
[-104.6858,40.2906],
[-104.4078,40.3554],
[-104.6419,40.6144],
[-104.7211,40.6144],
[-104.9197,40.5496]
]
],
[
[
[-104.8646,38.6743],
[-104.645,38.416],
[-104.3666,38.4806],
[-104.5863,38.7389],
[-104.6648,38.7389],
[-104.8646,38.6743]
]
],
[
[
[-104.7935,42.7563],
[-104.5443,42.4962],
[-104.2662,42.5612],
[-104.5153,42.8213],
[-104.5955,42.8213],
[-104.7935,42.7563]
]
],
[
[
[-104.0881,38.5451],
[-103.8704,38.2869],
[-103.5917,38.3515],
[-103.8096,38.6097],
[-103.888,38.6097],
[-104.0881,38.5451]
]
],
[
[
[-103.0139,43.4723],
[-102.759,43.0816],
[-102.6787,43.0816],
[-102.48,43.1467],
[-102.6921,43.4723],
[-103.0139,43.4723]
]
],
[
[
[-102.4967,31.4647],
[-102.4215,31.2719],
[-99.9036,29.7937],
[-99.2533,29.6652],
[-99.0145,29.4081],
[-99.0042,29.1509],
[-98.853,29.1509],
[-98.9408,28.9581],
[-98.6723,28.8295],
[-98.4536,28.3795],
[-98.092,28.1867],
[-97.6396,28.1867],
[-97.525,28.0581],
[-96.9974,28.0581],
[-96.6595,28.1867],
[-96.7186,28.3795],
[-96.3414,28.3795],
[-96.4966,28.6367],
[-95.9482,28.5724],
[-95.7417,28.6367],
[-95.7063,28.7652],
[-95.1424,28.8938],
[-94.9421,29.2152],
[-94.7358,29.2795],
[-94.9369,29.6652],
[-94.7855,29.6652],
[-94.7433,29.5366],
[-94.2135,29.5366],
[-93.822,29.7294],
[-93.2371,29.7937],
[-92.6239,29.5366],
[-91.6952,29.4723],
[-91.6807,29.6652],
[-92.0043,29.7294],
[-91.7977,29.7937],
[-90.8191,29.0867],
[-90.5923,29.0867],
[-90.5002,29.2795],
[-90.3489,29.2795],
[-90.2144,29.0867],
[-90.0632,29.0867],
[-89.9511,29.2152],
[-90.0302,29.4723],
[-89.8789,29.4723],
[-89.7438,29.2795],
[-89.4217,29.2152],
[-89.2124,29.0224],
[-88.9857,29.0224],
[-88.9875,29.2795],
[-89.5005,29.4723],
[-89.5604,29.6652],
[-89.2423,29.858],
[-89.283,29.9865],
[-89.6068,30.0508],
[-89.6481,30.1794],
[-89.3447,30.1794],
[-89.0278,30.3722],
[-88.0411,30.3722],
[-87.9516,30.565],
[-87.8482,30.2436],
[-87.1858,30.3079],
[-87.075,30.4364],
[-86.5991,30.3722],
[-86.3363,30.5007],
[-86.1792,30.2436],
[-85.6083,30.1151],
[-85.3975,29.9223],
[-85.3198,29.6652],
[-84.6574,29.7294],
[-84.2237,30.0508],
[-83.8447,30.0508],
[-83.2576,29.3438],
[-82.7128,29.0224],
[-82.6062,28.6367],
[-82.8454,28.1224],
[-82.745,27.7367],
[-82.5191,27.7367],
[-82.5688,27.9295],
[-82.4182,27.9295],
[-82.4274,27.6724],
[-82.6958,27.5438],
[-82.4968,27.3509],
[-82.2959,26.8366],
[-82.0706,26.8366],
[-82.1015,26.9652],
[-81.8916,27.0295],
[-81.9228,27.158],
[-81.7882,27.2223],
[-81.7606,27.4152],
[-81.4596,27.4152],
[-81.2181,27.3509],
[-80.9743,26.9652],
[-80.824,26.9652],
[-80.6132,26.708],
[-80.5706,26.1937],
[-80.6456,26.1937],
[-80.8047,25.5507],
[-81.1791,25.5507],
[-81.0632,25.3579],
[-81.1994,25.2936],
[-81.0096,25.1007],
[-80.4992,25.165],
[-80.4728,25.0364],
[-80.3232,25.0364],
[-80.3013,25.2936],
[-80.1516,25.2936],
[-80.1109,25.8079],
[-79.9889,25.9365],
[-80.0124,26.708],
[-79.9373,26.708],
[-80.0587,27.2223],
[-80.6341,28.3153],
[-80.7018,28.5724],
[-80.5509,28.5724],
[-80.6198,28.8295],
[-81.1365,29.6009],
[-81.2858,30.1151],
[-81.21,30.1151],
[-81.4205,30.565],
[-81.3445,30.565],
[-81.4268,31.0791],
[-81.1474,31.4005],
[-81.063,31.8503],
[-80.9105,31.8503],
[-80.6336,32.1717],
[-80.6759,32.3002],
[-80.3703,32.3002],
[-80.4341,32.4931],
[-80.1283,32.4931],
[-79.8651,32.6216],
[-79.8315,32.7502],
[-79.6784,32.7502],
[-79.5351,33.0073],
[-79.3053,33.0073],
[-79.1405,33.2002],
[-79.2062,33.3931],
[-79.0309,33.3288],
[-78.8563,33.7146],
[-78.5935,33.8432],
[-77.924,33.9075],
[-77.5645,34.422],
[-77.2245,34.5506],
[-77.1928,34.6793],
[-76.3673,34.7436],
[-76.2582,34.8723],
[-76.3036,35.001],
[-76.5581,35.0653],
[-76.4495,35.194],
[-76.5188,35.3871],
[-76.0319,35.3227],
[-75.9003,35.3871],
[-75.8923,35.5802],
[-75.6833,35.6445],
[-75.7228,35.9664],
[-76.0092,35.902],
[-76.0565,36.0308],
[-76.3128,36.0952],
[-76.0026,36.0952],
[-75.9727,36.224],
[-75.8175,36.224],
[-75.9375,36.546],
[-75.8063,36.6105],
[-75.9284,36.9326],
[-76.1865,36.9971],
[-76.3641,37.2549],
[-76.2861,37.2549],
[-76.3364,37.3838],
[-76.1805,37.3838],
[-76.3599,37.6417],
[-76.1767,37.7707],
[-76.3841,38.0933],
[-76.2537,38.1578],
[-76.5192,38.8034],
[-76.4407,38.8034],
[-76.522,38.9972],
[-76.3649,38.9972],
[-76.4745,39.2557],
[-76.3447,39.3203],
[-76.2349,39.0618],
[-76.3135,39.0618],
[-76.2321,38.868],
[-76.3892,38.868],
[-76.23,38.6743],
[-76.3335,38.5451],
[-76.2541,38.3515],
[-75.8365,38.0933],
[-75.9147,38.0933],
[-75.8117,37.8352],
[-75.9424,37.7707],
[-75.8914,37.6417],
[-76.0749,37.5128],
[-75.9994,37.3193],
[-76.0774,37.3193],
[-76.0025,37.126],
[-75.8467,37.126],
[-75.7406,37.2549],
[-75.7905,37.3838],
[-75.3428,37.8352],
[-75.3939,37.9643],
[-74.9484,38.416],
[-75.4003,39.3203],
[-75.0313,39.1911],
[-74.9239,38.9326],
[-74.6363,38.9972],
[-74.4808,39.1911],
[-74.5347,39.3203],
[-74.1194,39.6436],
[-74.1743,39.7729],
[-73.8671,40.1612],
[-73.9291,40.4849],
[-74.0874,40.4849],
[-74.1445,40.6144],
[-73.6408,40.5496],
[-73.4601,40.6792],
[-72.2486,40.8088],
[-71.937,41.0032],
[-71.994,41.1328],
[-73.207,41.0032],
[-73.1782,40.9384],
[-73.4741,41.068],
[-72.8172,41.1977],
[-72.8462,41.2625],
[-71.5236,41.3274],
[-71.3712,41.522],
[-71.429,41.6518],
[-71.2697,41.6518],
[-71.212,41.522],
[-70.8936,41.522],
[-70.7121,41.6518],
[-70.7284,41.3274],
[-70.4899,41.3274],
[-70.5752,41.522],
[-69.9156,41.6518],
[-69.9503,41.9114],
[-70.1099,41.9114],
[-70.1321,41.7816],
[-70.3712,41.7816],
[-70.6253,42.1712],
[-70.9238,42.3012],
[-70.9831,42.4312],
[-70.6423,42.5612],
[-70.822,42.9515],
[-70.5218,43.3421],
[-70.361,43.3421],
[-70.2109,43.5375],
[-70.272,43.6678],
[-70.1721,43.7982],
[-69.6884,43.7982],
[-69.7189,43.8634],
[-69.3963,43.8634],
[-69.3766,43.9938],
[-69.1345,43.9938],
[-68.9837,44.1896],
[-69.045,44.3201],
[-68.8832,44.3201],
[-68.8637,44.4507],
[-68.691,44.2548],
[-68.2059,44.2548],
[-68.2162,44.4507],
[-67.943,44.3854],
[-67.9229,44.516],
[-67.518,44.516],
[-67.4976,44.6466],
[-67.0416,44.7119],
[-67.031,45.0388],
[-67.0615,45.1042],
[-67.3665,45.235],
[-67.9031,46.0209],
[-67.8028,46.1521],
[-67.8662,46.2833],
[-67.7843,46.2833],
[-67.848,46.4145],
[-67.7661,46.4145],
[-67.8268,46.8743],
[-67.7446,46.8743],
[-67.9072,47.2032],
[-68.1376,47.3348],
[-68.5495,47.3348],
[-68.5164,47.269],
[-68.8949,47.2032],
[-69.2755,47.4665],
[-69.6669,46.9401],
[-70.0112,46.8086],
[-70.1091,46.6772],
[-70.0593,46.4145],
[-70.3376,46.1521],
[-70.2892,45.8898],
[-70.437,45.6933],
[-70.6001,45.6933],
[-70.8952,45.3004],
[-71.3833,45.3004],
[-71.3678,45.1042],
[-71.5303,45.1042],
[-71.6283,44.9734],
[-75.1195,44.9734],
[-75.0859,44.908],
[-75.5867,44.7773],
[-75.6482,44.5813],
[-75.8102,44.5813],
[-76.0002,44.3201],
[-76.1619,44.3201],
[-76.0952,44.1896],
[-76.2568,44.1896],
[-76.0102,43.8634],
[-76.1862,43.733],
[-76.1682,43.5375],
[-76.5379,43.4723],
[-76.5051,43.4072],
[-76.666,43.4072],
[-76.7613,43.2769],
[-77.8063,43.2769],
[-78.114,43.4072],
[-78.5162,43.4072],
[-78.4828,43.3421],
[-78.724,43.3421],
[-78.6906,43.2769],
[-79.0925,43.2769],
[-78.8785,43.0165],
[-78.7936,42.6912],
[-78.9538,42.6912],
[-78.9682,42.5612],
[-79.1284,42.5612],
[-79.0956,42.4962],
[-79.2556,42.4962],
[-79.2229,42.4312],
[-79.3829,42.4312],
[-79.3502,42.3662],
[-79.5101,42.3662],
[-79.4774,42.3012],
[-79.6373,42.3012],
[-79.7318,42.1712],
[-80.0042,42.2362],
[-79.9389,42.1063],
[-80.0986,42.1063],
[-80.066,42.0413],
[-80.6248,42.0413],
[-80.4797,41.9114],
[-81.0525,41.7816],
[-81.0199,41.7167],
[-81.1793,41.7167],
[-81.1468,41.6518],
[-81.3061,41.6518],
[-81.4005,41.522],
[-82.6882,41.3922],
[-83.4568,41.6518],
[-83.4438,41.7816],
[-83.557,41.8465],
[-83.3265,42.1712],
[-83.0869,42.1712],
[-83.0747,42.3012],
[-82.9149,42.3012],
[-83.0169,42.4962],
[-82.891,42.5612],
[-82.9596,42.6912],
[-82.559,42.6912],
[-82.4215,42.8864],
[-82.6643,43.3421],
[-82.5839,43.3421],
[-82.6891,43.5375],
[-82.6086,43.5375],
[-82.7499,43.7982],
[-82.6693,43.7982],
[-82.8924,44.0591],
[-83.1796,43.9938],
[-83.2786,43.733],
[-83.4398,43.733],
[-83.5297,43.6027],
[-83.9324,43.6027],
[-84.0759,43.8634],
[-83.9422,44.0591],
[-83.6553,44.1243],
[-83.5578,44.3854],
[-83.3513,44.4507],
[-83.4162,44.7119],
[-83.3351,44.7119],
[-83.5557,45.1042],
[-83.4301,45.1696],
[-83.5042,45.3004],
[-84.2613,45.6278],
[-84.9079,45.7588],
[-84.8698,45.6933],
[-85.0764,45.6278],
[-85.0062,45.3659],
[-85.3752,45.3004],
[-85.3492,44.9734],
[-85.7929,45.0388],
[-85.7552,44.9734],
[-86.0421,44.908],
[-86.2591,44.5813],
[-86.2339,44.2548],
[-86.489,43.9938],
[-86.3781,43.7982],
[-86.4587,43.7982],
[-86.3851,43.6678],
[-86.4728,43.5375],
[-86.1553,42.8213],
[-86.2355,42.8213],
[-86.1828,42.4312],
[-86.5871,41.8465],
[-86.7813,41.9114],
[-86.7119,41.7816],
[-87.0412,41.6518],
[-87.0067,41.5869],
[-87.4845,41.5869],
[-87.509,41.7816],
[-87.7034,41.8465],
[-87.9786,42.4962],
[-87.7745,42.5612],
[-87.9268,42.6912],
[-87.8466,42.6912],
[-87.9556,42.8864],
[-87.8754,42.8864],
[-88.0585,43.2118],
[-87.9716,43.3421],
[-88.0457,43.4723],
[-87.6998,43.9938],
[-87.7751,44.1243],
[-87.6082,44.2548],
[-87.6839,44.3854],
[-87.5122,44.6466],
[-87.7125,44.7119],
[-87.7171,44.5813],
[-88.0411,44.5813],
[-88.1562,44.7773],
[-88.0284,44.9734],
[-87.7422,45.0388],
[-87.3126,45.8243],
[-86.5394,45.7588],
[-86.5354,45.8898],
[-86.2476,45.9554],
[-86.2865,46.0209],
[-85.7963,46.0209],
[-85.8351,46.0865],
[-85.5899,46.0865],
[-85.6286,46.1521],
[-85.2198,46.1521],
[-84.8592,45.9554],
[-84.7725,46.0865],
[-83.9988,46.0209],
[-84.2385,46.1521],
[-84.2768,46.2177],
[-84.3103,46.4145],
[-84.0646,46.4145],
[-84.1031,46.4802],
[-85.0044,46.4802],
[-85.1609,46.7429],
[-86.1881,46.6772],
[-86.1485,46.6115],
[-86.4368,46.5459],
[-86.3973,46.4802],
[-87.2167,46.4802],
[-87.9908,46.9401],
[-88.443,46.8743],
[-88.5659,47.0716],
[-88.8949,47.0716],
[-88.8537,47.0058],
[-89.1412,46.9401],
[-89.1001,46.8743],
[-89.4286,46.8743],
[-89.3875,46.8086],
[-89.798,46.8086],
[-89.7567,46.7429],
[-90.0029,46.7429],
[-89.9617,46.6772],
[-90.3306,46.6115],
[-90.2894,46.5459],
[-90.9046,46.6115],
[-91.0295,46.8086],
[-90.8653,46.8086],
[-90.9071,46.8743],
[-91.5622,46.7429],
[-91.5204,46.6772],
[-92.0126,46.6772],
[-92.0147,46.8086],
[-92.3432,46.8086],
[-92.3009,46.7429],
[-92.4626,46.6115],
[-92.3786,46.4802],
[-93.7715,46.4802],
[-93.729,46.4145],
[-95.0479,46.6772],
[-94.993,46.2177],
[-95.0748,46.2177],
[-94.9896,46.0865],
[-95.0714,46.0865],
[-94.9865,45.9554],
[-94.0043,45.8243],
[-93.6335,45.4968],
[-93.4707,45.4968],
[-92.9809,44.9734],
[-92.5347,44.908],
[-92.1309,44.6466],
[-91.9306,44.4507],
[-92.1337,44.3854],
[-91.8949,44.1243],
[-91.5695,44.2548],
[-91.3712,44.0591],
[-91.8581,43.9286],
[-91.819,43.8634],
[-92.2248,43.733],
[-92.1858,43.6678],
[-92.4275,43.6678],
[-92.2304,43.4723],
[-93.9222,43.3421],
[-93.8831,43.2769],
[-94.2046,43.2769],
[-94.1263,43.1467],
[-95.247,43.9286],
[-95.3277,43.7982],
[-95.2473,43.6678],
[-95.3279,43.6678],
[-95.048,43.3421],
[-95.5704,43.4072],
[-95.6118,43.2118],
[-96.0534,43.2769],
[-95.8992,42.6262],
[-95.9793,42.6262],
[-95.8625,42.4312],
[-95.9426,42.4312],
[-95.6815,41.7167],
[-95.8409,41.7167],
[-95.9166,41.8465],
[-96.1975,41.7816],
[-95.9669,41.522],
[-95.7656,41.5869],
[-95.6588,41.2625],
[-95.8126,41.3922],
[-96.0935,41.3274],
[-95.866,41.068],
[-95.6645,41.1328],
[-95.4458,40.744],
[-96.5705,41.3274],
[-96.8886,41.3274],
[-97.0301,41.9764],
[-97.6684,41.9764],
[-97.6297,41.9114],
[-97.9488,41.9114],
[-98.072,41.7167],
[-98.311,41.7167],
[-98.2724,41.6518],
[-98.5525,41.5869],
[-98.5966,41.3922],
[-98.9147,41.3922],
[-98.8765,41.3274],
[-99.9452,41.6518],
[-100.0671,41.4571],
[-99.9897,41.3274],
[-100.195,41.0032],
[-100.3537,41.0032],
[-100.6479,40.4201],
[-101.09,40.2259],
[-100.937,40.0964],
[-101.016,40.0964],
[-100.9426,39.967],
[-101.0275,39.8376],
[-100.8902,39.4496],
[-100.969,39.4496],
[-100.7572,39.0618],
[-100.8358,39.0618],
[-100.697,38.8034],
[-100.7755,38.8034],
[-100.4697,38.2224],
[-100.1803,37.9643],
[-95.3325,37.9643],
[-95.4157,36.9971],
[-94.7929,36.9971],
[-94.7032,36.8037],
[-94.781,36.8037],
[-94.7216,36.6749],
[-94.818,36.546],
[-94.4074,35.4514],
[-94.4847,35.4514],
[-94.401,35.2584],
[-94.4783,35.2584],
[-94.3676,35.001],
[-94.4448,35.001],
[-94.3447,33.6502],
[-94.8316,33.7146],
[-95.1411,33.9075],
[-96.5479,33.7789],
[-96.859,33.9718],
[-97.3203,33.9718],
[-97.4199,33.8432],
[-97.8857,34.0361],
[-98.166,33.9718],
[-98.3252,34.1647],
[-99.0946,34.1647],
[-99.1161,34.0361],
[-99.2699,34.0361],
[-99.2916,33.9075],
[-99.4453,33.9075],
[-99.4672,33.7789],
[-99.6208,33.7789],
[-99.8187,33.5217],
[-99.9722,33.5217],
[-100.1706,33.2645],
[-100.324,33.2645],
[-100.3468,33.1359],
[-100.5001,33.1359],
[-100.5231,33.0073],
[-101.029,32.7502],
[-101.1028,32.5574],
[-101.2557,32.5574],
[-101.2797,32.4288],
[-101.7866,32.1717],
[-101.8617,31.9789],
[-102.1918,31.8503],
[-102.4967,31.4647]
]
],
[
[
[-100.0444,44.9734],
[-99.7907,44.7119],
[-99.5093,44.7773],
[-99.7628,45.0388],
[-99.844,45.0388],
[-100.0444,44.9734]
]
],
[
[
[-97.0761,48.7865],
[-96.8039,48.522],
[-96.6379,48.522],
[-96.6848,48.5881],
[-96.4357,48.5881],
[-96.5772,48.7865],
[-97.0761,48.7865]
]
],
[
[
[-89.3829,29.0867],
[-89.3443,28.9581],
[-89.2688,28.9581],
[-89.3073,29.0867],
[-89.3829,29.0867]
]
],
[
[
[-89.2356,47.9938],
[-89.1502,47.8619],
[-88.6565,47.9938],
[-88.7019,48.1917],
[-88.9504,48.1917],
[-88.9074,48.1257],
[-89.1558,48.1257],
[-89.1129,48.0597],
[-89.2356,47.9938]
]
],
[
[
[-85.6805,45.8243],
[-85.6469,45.6278],
[-85.4024,45.6278],
[-85.5989,45.8243],
[-85.6805,45.8243]
]
],
[
[
[-83.7479,46.1521],
[-83.7158,45.9554],
[-83.4708,45.9554],
[-83.6661,46.1521],
[-83.7479,46.1521]
]
],
[
[
[-75.6454,35.3227],
[-75.5997,35.194],
[-75.4452,35.194],
[-75.468,35.2584],
[-75.3907,35.2584],
[-75.4364,35.3871],
[-75.6454,35.3227]
]
]
]}
}
