{
"type": "Feature",
"properties": {"id":"cliopatria-sasanian-empire-0628","edge_precision":"unknown","cliopatria_name":"Sasanian Empire","cliopatria_from_year":628,"cliopatria_to_year":628,"cliopatria_area_km2":4398159,"cliopatria_wikidata":"Q1661685","cliopatria_wikipedia":"Sasanian Empire","cliopatria_seshat_id":"ir_sassanid_emp_2"},
"geometry": {"type": "MultiPolygon", "coordinates": [
[
[
[24.7201,29.9223],
[24.8632,29.7294],
[24.8494,29.4081],
[25.3735,29.2795],
[25.5863,28.9581],
[27.1401,28.251],
[27.285,28.1224],
[27.2763,27.9295],
[27.4299,27.9938],
[27.792,27.6724],
[27.7109,27.5438],
[27.9367,27.5438],
[28.1537,27.3509],
[28.2702,26.5794],
[28.3453,26.5794],
[28.2437,25.9365],
[28.2886,25.165],
[28.5688,24.6506],
[29.6728,24.2006],
[29.9595,23.8792],
[30.1087,23.8792],
[30.104,23.7506],
[30.3952,23.5577],
[30.4627,23.3649],
[30.5372,23.3649],
[31.6705,23.7506],
[32.0409,23.6863],
[33.389,23.8149],
[33.6818,23.6863],
[33.7564,23.6863],
[35.108,23.8792],
[35.5526,23.8149],
[35.5588,23.9435],
[35.8541,23.8792],
[35.8604,24.0077],
[35.1455,24.6506],
[34.6076,25.8079],
[34.4613,25.8722],
[34.1972,26.5151],
[34.0507,26.5794],
[34.0731,26.9652],
[33.9266,27.0295],
[33.7992,27.4152],
[33.5851,27.6081],
[33.6089,27.9938],
[33.1053,28.3795],
[32.8361,28.8938],
[32.6892,28.9581],
[32.4416,29.7937],
[32.6019,29.9223],
[32.5888,29.7294],
[32.8571,29.2152],
[33.1468,29.0224],
[33.1889,28.5081],
[33.403,28.3153],
[33.5538,28.3153],
[33.9022,27.8652],
[34.3459,27.7367],
[34.3583,27.9295],
[34.5173,28.0581],
[34.5472,28.5081],
[34.7114,28.701],
[34.8372,29.4081],
[35.069,29.4723],
[35.3302,29.9223],
[35.5626,29.9865],
[35.4968,30.1151],
[36.1457,30.6292],
[36.488,31.0791],
[37.4067,31.1434],
[37.4712,31.0148],
[37.6291,31.0791],
[38.448,30.8863],
[39.3999,30.5007],
[39.4638,30.3722],
[40.0528,30.1794],
[40.3321,29.9223],
[41.0596,29.6009],
[41.1115,29.3438],
[41.2688,29.4081],
[41.7744,29.1509],
[41.8381,29.0224],
[42.1345,28.9581],
[42.1982,28.8295],
[42.4248,28.8295],
[42.709,28.6367],
[42.866,28.701],
[42.9296,28.5724],
[43.0805,28.5724],
[42.9932,28.4438],
[43.2255,28.5081],
[43.2832,28.3153],
[43.4399,28.3795],
[43.7357,28.3153],
[43.7992,28.1867],
[44.0314,28.251],
[44.9179,28.0581],
[45.1379,27.9938],
[45.1258,27.8652],
[45.4332,27.9295],
[46.2433,27.7367],
[46.8457,27.7367],
[48.8767,26.9652],
[49.1462,26.6437],
[49.2964,26.6437],
[49.5032,26.4508],
[49.6745,25.8722],
[50.0317,25.6793],
[50.0201,25.5507],
[50.1642,25.4864],
[50.6104,24.5864],
[51.1658,24.072],
[51.8219,23.8792],
[51.881,23.6863],
[54.2732,23.7506],
[54.8121,23.9435],
[55.623,24.6506],
[55.8412,24.5864],
[55.8595,24.7792],
[56.09,24.8435],
[56.2895,24.5864],
[56.2713,24.3935],
[56.4894,24.3292],
[56.5402,24.072],
[56.8211,23.8792],
[56.8095,23.7506],
[57.8303,23.4934],
[57.9736,23.4291],
[57.962,23.3006],
[58.3347,23.3006],
[58.6096,23.0434],
[58.9076,23.0434],
[58.8961,22.9148],
[59.2684,22.9148],
[59.2801,23.0434],
[59.0682,23.172],
[59.08,23.3006],
[58.8115,23.622],
[57.4927,23.8792],
[56.7881,24.3292],
[56.5449,24.9078],
[56.4016,24.9721],
[56.4957,25.165],
[56.4208,25.165],
[56.4603,25.5507],
[56.3854,25.5507],
[56.5433,26.3222],
[56.4754,26.3865],
[56.1682,26.3222],
[55.9696,25.8722],
[55.4119,25.5507],
[55.1427,25.1007],
[54.7442,24.8435],
[54.5591,24.4578],
[54.3178,24.2649],
[54.0995,24.3292],
[54.0825,24.1363],
[53.112,24.1363],
[52.6003,24.2649],
[52.2801,24.0077],
[51.907,24.0077],
[51.8535,24.2649],
[51.4108,24.3292],
[51.5236,24.7792],
[51.69,24.9721],
[51.7188,25.2936],
[51.575,25.3579],
[51.6979,25.8722],
[51.4228,26.1294],
[51.1229,26.1294],
[50.9545,25.9365],
[50.9246,25.615],
[50.769,25.5507],
[50.7289,25.1007],
[50.6541,25.1007],
[50.6076,25.4221],
[50.3255,25.615],
[50.211,26.0008],
[50.067,26.0651],
[50.223,26.1294],
[50.2537,26.4508],
[50.116,26.5794],
[50.135,26.7723],
[49.3596,27.2866],
[49.2419,27.6081],
[48.8722,27.6724],
[48.9741,27.9295],
[48.5627,28.3153],
[48.4604,28.7652],
[48.1937,29.0867],
[48.2154,29.2795],
[48.0786,29.4081],
[47.8517,29.4081],
[47.8662,29.5366],
[48.4035,29.6009],
[48.3654,29.9223],
[48.9037,29.9865],
[48.9873,30.0508],
[48.9428,30.3079],
[49.5859,29.9865],
[50.0648,30.1794],
[50.2363,29.7294],
[50.6513,29.4081],
[50.6203,29.1509],
[50.915,29.0867],
[50.809,28.8295],
[51.0281,28.7652],
[51.0662,28.4438],
[51.4532,27.8652],
[52.0486,27.8009],
[52.4787,27.6081],
[52.737,27.2223],
[53.4606,26.9652],
[53.6581,26.708],
[54.2589,26.708],
[54.6815,26.4508],
[54.9886,26.5151],
[55.2423,26.7723],
[55.5427,26.7723],
[55.3102,26.708],
[55.2889,26.5151],
[56.0612,26.708],
[56.3086,26.9009],
[56.3236,27.0295],
[56.0981,27.0295],
[56.1884,27.158],
[56.7147,27.158],
[57.0524,26.8366],
[57.1757,25.9365],
[57.3795,25.7436],
[57.6792,25.7436],
[57.7402,25.615],
[57.958,25.5507],
[58.7817,25.5507],
[59.0602,25.3579],
[60.6321,25.3579],
[60.6178,25.2293],
[60.9171,25.2293],
[61.1274,25.1007],
[61.6582,25.165],
[61.7187,25.0364],
[62.0179,25.0364],
[62.182,25.165],
[62.4739,25.1007],
[62.5634,25.2293],
[63.5362,25.2293],
[63.6262,25.3579],
[64.225,25.3579],
[64.2845,25.2293],
[64.8006,25.165],
[64.8161,25.2936],
[65.7969,25.3579],
[66.3977,26.5151],
[66.4784,28.5724],
[66.5539,28.5724],
[67.3496,30.9506],
[67.4256,30.9506],
[67.7955,32.4288],
[68.0157,32.7502],
[68.0922,32.7502],
[68.1195,32.8788],
[67.4218,33.2002],
[67.1919,33.2002],
[67.2193,33.3288],
[66.9892,33.3288],
[66.8769,33.5217],
[66.5206,33.6502],
[66.4084,33.8432],
[66.2547,33.8432],
[66.0165,34.1647],
[65.8627,34.1647],
[65.7505,34.3577],
[65.4565,34.422],
[65.1411,34.7436],
[65.1692,34.8723],
[64.9028,35.0653],
[64.814,35.7089],
[64.8389,36.1596],
[64.7613,36.1596],
[64.9407,37.2549],
[64.8159,37.3838],
[64.7397,38.0288],
[64.3669,38.416],
[64.0075,38.5451],
[63.8374,38.8034],
[63.6804,38.8034],
[63.5726,38.9972],
[63.4155,38.9972],
[63.2457,39.2557],
[63.0883,39.2557],
[62.6538,39.7083],
[62.6876,39.8376],
[62.4847,39.967],
[62.4058,39.967],
[60.7131,39.5143],
[60.6826,39.7083],
[60.0518,39.7083],
[60.0839,39.8376],
[59.7683,39.8376],
[59.77,40.1612],
[58.9797,40.1612],
[58.8537,40.2906],
[58.5374,40.2906],
[58.332,40.4201],
[57.3512,40.2906],
[57.1621,40.1612],
[57.1139,40.2906],
[56.9558,40.2906],
[56.9868,40.4201],
[56.6548,40.3554],
[54.5437,40.8088],
[53.4044,40.6792],
[53.4482,40.8736],
[53.3397,40.744],
[52.9433,40.744],
[52.9723,40.8736],
[52.893,40.8736],
[52.7927,40.4201],
[52.7135,40.4201],
[52.7226,40.0964],
[53.4985,40.0317],
[53.5449,39.5143],
[53.1375,39.4496],
[53.5176,39.385],
[53.9868,38.9972],
[53.8298,37.8352],
[53.9079,37.8352],
[53.9105,37.4483],
[54.0947,37.1904],
[54.0333,36.8682],
[53.0877,36.8037],
[52.1859,36.546],
[51.642,36.546],
[50.8207,36.7393],
[50.532,36.8682],
[50.6323,36.9971],
[50.5657,37.0615],
[50.3209,36.9971],
[49.9988,37.3838],
[49.0851,37.5128],
[48.8285,37.8352],
[48.7892,38.9326],
[48.801,38.9972],
[48.589,39.1265],
[48.1959,39.1265],
[48.074,39.3203],
[47.8497,39.385],
[47.1412,39.385],
[47.0857,39.5143],
[46.8494,39.5143],
[46.7938,39.6436],
[46.6361,39.6436],
[46.6039,39.9023],
[46.4578,39.967],
[46.4142,40.1612],
[46.0074,40.0964],
[46.0308,40.2259],
[45.8962,40.3554],
[45.4567,40.5496],
[45.5953,40.8736],
[45.4607,41.0032],
[44.5993,41.068],
[44.5758,40.9384],
[44.6552,40.9384],
[44.5064,40.5496],
[44.6419,40.4201],
[44.5965,40.1612],
[44.4051,39.967],
[44.383,39.8376],
[44.5189,39.7083],
[44.3967,39.4496],
[43.8244,39.3203],
[43.3795,38.9972],
[43.2606,38.7389],
[42.829,38.4806],
[42.8879,38.3515],
[42.4488,38.0288],
[41.892,37.9643],
[41.9244,37.6417],
[42.1223,37.3838],
[42.0954,37.1904],
[42.3023,36.9971],
[42.3446,36.7393],
[42.6628,36.224],
[42.2492,36.0308],
[41.8784,36.1596],
[41.8954,36.2884],
[41.7487,36.3528],
[41.7053,36.6105],
[41.5584,36.6749],
[41.5151,36.9326],
[41.4372,36.9326],
[41.4633,37.126],
[41.3162,37.1904],
[41.2129,37.5773],
[41.1349,37.5773],
[41.1615,37.7707],
[41.0052,37.7707],
[41.023,37.8998],
[40.4758,37.8998],
[39.6687,37.7062],
[39.4874,37.5128],
[39.2451,37.4483],
[39.2287,37.3193],
[39.3067,37.3193],
[39.3278,36.8682],
[39.4674,36.7393],
[39.4197,36.3528],
[39.4974,36.3528],
[39.466,36.0952],
[39.6133,36.0308],
[39.5977,35.902],
[38.1304,33.8432],
[37.0093,33.3931],
[36.1751,32.6859],
[35.563,32.6859],
[35.5219,33.0716],
[35.2213,33.1359],
[35.2154,33.0716],
[35.0563,33.0073],
[35.0218,32.6216],
[34.7698,32.3645],
[34.813,31.9789],
[34.5733,31.8503],
[34.6388,31.7218],
[34.5466,31.529],
[34.3076,31.4005],
[34.2972,31.2719],
[33.7493,31.0791],
[32.8317,31.0148],
[32.7652,31.1434],
[32.5322,31.0791],
[32.3894,31.2076],
[32.2372,31.2076],
[32.3039,31.0791],
[31.9996,31.0791],
[31.9374,31.2719],
[31.7806,31.2076],
[31.8752,31.4647],
[31.2658,31.4647],
[31.118,31.529],
[31.2033,31.6575],
[30.9746,31.6575],
[30.9656,31.529],
[30.8088,31.4647],
[30.3517,31.4647],
[30.2712,31.4005],
[30.3388,31.2719],
[29.882,31.2719],
[29.8018,31.2076],
[29.8696,31.0791],
[29.6332,30.9506],
[29.4851,31.0148],
[29.3971,30.822],
[28.865,30.822],
[28.4964,31.0148],
[27.5149,31.1434],
[27.2975,31.3362],
[26.8477,31.4647],
[25.248,31.4647],
[25.1783,31.5933],
[25.102,31.5933],
[24.8641,31.4005],
[24.9826,30.6935],
[24.7429,30.4364],
[24.7201,29.9223]
]
],
[
[
[37.5415,30.9506],
[37.6175,30.9506],
[37.6233,31.0148],
[37.5472,31.0148],
[37.5415,30.9506]
]
],
[
[
[41.7567,28.9581],
[41.8322,28.9581],
[41.8381,29.0224],
[41.7626,29.0224],
[41.7567,28.9581]
]
],
[
[
[41.9019,28.8938],
[41.9775,28.8938],
[41.9834,28.9581],
[41.9078,28.9581],
[41.9019,28.8938]
]
],
[
[
[42.4767,17.0005],
[42.824,16.6147],
[42.7824,15.8433],
[42.7088,15.8433],
[42.7458,15.1361],
[42.8896,15.0718],
[42.9534,14.8789],
[43.0566,13.9789],
[43.2648,13.7218],
[43.2356,13.0789],
[43.447,12.886],
[43.4386,12.6932],
[44.3886,12.6289],
[44.6143,12.7575],
[45.0541,12.7575],
[45.7411,13.336],
[46.8446,13.4003],
[47.668,13.7218],
[47.7515,13.9146],
[48.7861,14.0432],
[49.4098,14.6861],
[50.2256,14.8147],
[50.7557,15.0718],
[51.2743,15.1361],
[51.883,15.4575],
[52.1037,15.4575],
[52.2592,15.5861],
[52.3803,16.2933],
[51.8867,16.6147],
[51.0806,16.679],
[50.4825,16.5504],
[50.1184,16.6147],
[49.5943,16.4861],
[47.671,16.3576],
[46.6982,16.1004],
[46.5547,16.1647],
[46.4697,15.9718],
[46.1753,15.9718],
[46.0206,15.8433],
[45.579,15.8433],
[45.3656,15.9718],
[45.2147,15.9076],
[45.2257,16.1004],
[44.8097,16.5504],
[44.8134,16.6147],
[44.305,16.7433],
[44.3124,16.8719],
[44.0875,16.8076],
[43.9475,16.9362],
[43.9585,17.129],
[43.8184,17.2576],
[43.8996,17.3862],
[43.5529,17.7719],
[43.2503,17.6433],
[43.0326,17.7076],
[43.0216,17.5148],
[42.6348,17.1933],
[42.4873,17.1933],
[42.4767,17.0005]
]
],
[
[
[42.7786,28.5724],
[42.8541,28.5724],
[42.86,28.6367],
[42.7845,28.6367],
[42.7786,28.5724]
]
],
[
[
[46.6283,16.1647],
[46.702,16.1647],
[46.7058,16.229],
[46.6322,16.229],
[46.6283,16.1647]
]
],
[
[
[50.4299,25.9365],
[50.6487,25.8722],
[50.6852,26.258],
[50.4602,26.258],
[50.4299,25.9365]
]
]
]}
}
