{
"type": "Feature",
"properties": {"id":"cliopatria-ligurian-republic-1814","edge_precision":"unknown","cliopatria_name":"Ligurian Republic","cliopatria_from_year":1814,"cliopatria_to_year":1814,"cliopatria_area_km2":3346,"cliopatria_wikidata":"Q659312","cliopatria_wikipedia":"Ligurian Republic"},
"geometry": {"type": "MultiPolygon", "coordinates": [
[
[
[7.5509,43.8634],
[7.5521,43.7982],
[8.0339,43.9286],
[8.031,44.1243],
[7.7078,44.1243],
[7.5509,43.8634]
]
],
[
[
[8.3497,44.4507],
[8.3515,44.3201],
[8.4323,44.3201],
[8.5925,44.4507],
[9.1591,44.4507],
[9.5654,44.1896],
[9.8889,44.1243],
[9.9697,44.1243],
[9.6451,44.3854],
[9.1585,44.516],
[9.1579,44.5813],
[8.9959,44.5813],
[8.9136,44.7119],
[8.5901,44.6466],
[8.3497,44.4507]
]
],
[
[
[9.8892,44.0591],
[9.8895,43.9938],
[9.9702,43.9938],
[9.9699,44.0591],
[9.8892,44.0591]
]
]
]}
}
