{
"type": "Feature",
"properties": {"id":"cliopatria-british-cape-colony-1811","edge_precision":"unknown","cliopatria_name":"British Cape Colony","cliopatria_from_year":1811,"cliopatria_to_year":1819,"cliopatria_area_km2":286413,"cliopatria_wikidata":"Q370736","cliopatria_wikipedia":"Cape Colony","cliopatria_seshat_id":"gb_british_emp_1","cliopatria_member_of":"(British Empire)"},
"geometry": {"type": "MultiPolygon", "coordinates": [
[
[
[-17.4542,14.6861],
[-17.1583,14.6218],
[-17.0947,14.9432],
[-17.1682,14.9432],
[-17.3867,14.8789],
[-17.4542,14.6861]
]
],
[
[
[-13.3154,8.5145],
[-13.3142,8.3216],
[-12.948,8.1288],
[-12.9487,8.2573],
[-12.6574,8.3859],
[-12.7308,8.4502],
[-12.6595,8.7073],
[-12.7334,8.8359],
[-13.0981,8.7716],
[-13.0977,8.7073],
[-13.1707,8.7073],
[-13.0963,8.5145],
[-13.3154,8.5145]
]
],
[
[
[-2.9603,4.9787],
[-2.5235,4.9144],
[-2.523,4.9787],
[-2.6669,5.2358],
[-2.8131,5.1715],
[-2.886,5.1715],
[-2.9603,4.9787]
]
],
[
[
[-1.9416,4.7858],
[-1.8687,4.7858],
[-1.7224,4.8501],
[-1.7933,5.1072],
[-1.9395,5.0429],
[-1.9416,4.7858]
]
],
[
[
[-1.2102,5.1072],
[-1.0645,5.1072],
[-1.0625,5.3644],
[-1.2083,5.3644],
[-1.2102,5.1072]
]
],
[
[
[-0.9182,5.1715],
[-0.7725,5.1715],
[-0.7704,5.4287],
[-0.9162,5.4287],
[-0.9182,5.1715]
]
],
[
[
[-0.6257,5.3001],
[-0.4065,5.3644],
[-0.4779,5.5572],
[-0.6237,5.5572],
[-0.6257,5.3001]
]
],
[
[
[16.9782,-30.0581],
[17.0614,-30.3794],
[18.0919,-31.9219],
[18.1821,-32.3718],
[18.1057,-32.3718],
[18.1137,-32.6289],
[18.0413,-32.7575],
[17.7332,-32.6932],
[17.6684,-33.0789],
[17.8217,-33.0789],
[17.9065,-33.336],
[18.2219,-33.5932],
[18.1715,-34.3649],
[18.4025,-34.3649],
[18.3956,-34.172],
[18.5472,-34.1077],
[18.6359,-34.4292],
[19.1775,-34.4936],
[19.1851,-34.6866],
[19.3393,-34.6866],
[19.4216,-34.8152],
[19.9616,-34.8152],
[20.2589,-34.5579],
[20.7924,-34.4292],
[21.6428,-34.4936],
[21.7937,-34.4292],
[21.8611,-34.2363],
[22.1625,-34.1077],
[23.2429,-34.172],
[23.3128,-34.0433],
[23.7742,-34.0433],
[24.2469,-34.2363],
[24.5548,-34.2363],
[24.9239,-33.979],
[25.624,-34.1077],
[25.5349,-33.9147],
[25.6805,-33.7861],
[26.6024,-33.7861],
[27.2718,-33.4646],
[26.8627,-33.0789],
[26.8544,-32.9503],
[26.3223,-33.0146],
[26.008,-32.886],
[25.9884,-32.5646],
[25.912,-32.5646],
[25.9617,-32.1147],
[25.7034,-31.6005],
[25.6716,-31.0221],
[25.364,-30.9578],
[25.3573,-30.8293],
[25.1326,-30.8936],
[24.8188,-30.7008],
[24.5908,-30.7008],
[24.2234,-30.9578],
[24.1599,-31.2149],
[23.8617,-31.3434],
[23.2496,-31.2792],
[23.1617,-31.0221],
[22.9306,-30.9578],
[22.4883,-31.2792],
[22.3473,-31.5362],
[22.4379,-31.8576],
[22.2119,-31.9219],
[22.0537,-31.7933],
[21.207,-31.6005],
[21.2018,-31.472],
[20.8921,-31.3434],
[20.0546,-31.3434],
[19.9694,-31.0864],
[19.2744,-30.765],
[19.1165,-30.5722],
[19.0405,-30.5722],
[18.5775,-30.3152],
[17.7478,-30.508],
[17.5879,-30.1866],
[16.9782,-30.0581]
]
],
[
[
[55.2077,-4.6002],
[55.4304,-4.7931],
[55.4263,-4.6002],
[55.2077,-4.6002]
]
]
]}
}
