{
"type": "Feature",
"properties": {"id":"cliopatria-vijayanagara-empire-1502","edge_precision":"unknown","cliopatria_name":"Vijayanagara Empire","cliopatria_from_year":1502,"cliopatria_to_year":1506,"cliopatria_area_km2":538743,"cliopatria_wikidata":"Q167639","cliopatria_wikipedia":"Vijayanagara Empire","cliopatria_seshat_id":"in_vijayanagara_emp"},
"geometry": {"type": "MultiPolygon", "coordinates": [
[
[
[74.3068,14.5575],
[74.6636,13.5932],
[74.7477,12.8217],
[75.594,11.4074],
[75.5895,11.3431],
[75.8822,11.3431],
[75.9284,10.9574],
[75.8552,10.9574],
[75.8508,10.8931],
[75.9021,10.5717],
[76.2338,10.0574],
[76.2214,9.8645],
[76.3635,9.8002],
[76.3553,9.6717],
[76.2092,9.6717],
[76.1971,9.4788],
[76.7236,8.5145],
[77.2819,8.0645],
[77.8733,8.193],
[78.1803,8.4502],
[78.2842,8.9645],
[78.5883,9.1574],
[78.9577,9.2216],
[78.9865,9.6717],
[79.2959,9.9288],
[79.3176,10.2502],
[79.9026,10.2502],
[79.8844,11.986],
[80.303,12.6289],
[80.3414,13.0789],
[80.1325,13.2075],
[80.1495,13.4003],
[80.302,13.4646],
[80.3078,13.5289],
[80.161,13.5289],
[80.2816,14.0432],
[80.2082,14.0432],
[80.2158,14.8789],
[80.0882,15.0718],
[80.2016,15.4575],
[80.6106,15.8433],
[81.1188,15.779],
[81.3227,16.2933],
[82.0665,16.3576],
[82.3832,16.5504],
[82.3619,17.0005],
[82.6059,17.1933],
[82.6289,17.3862],
[82.3801,17.7719],
[82.1664,17.8362],
[82.1742,17.9005],
[82.0265,17.9005],
[81.8438,18.2219],
[81.63,18.2862],
[81.6456,18.4148],
[80.8327,18.4148],
[80.5017,18.7362],
[80.4278,18.7362],
[80.2569,18.5434],
[80.2263,18.2862],
[79.4275,17.7719],
[77.9148,17.4505],
[77.9076,17.3862],
[77.6863,17.3862],
[76.5307,16.9362],
[76.4431,16.8076],
[75.9135,16.679],
[75.8999,16.5504],
[75.5048,16.2933],
[75.3312,16.0361],
[75.0465,15.3933],
[74.5194,15.2647],
[74.5506,14.8147],
[74.3126,14.6218],
[74.3068,14.5575]
]
]
]}
}
