{
"type": "Feature",
"properties": {"id":"cliopatria-germiyanids-1375","edge_precision":"unknown","cliopatria_name":"Germiyanids","cliopatria_from_year":1375,"cliopatria_to_year":1406,"cliopatria_area_km2":119775,"cliopatria_wikidata":"Q1324889","cliopatria_wikipedia":"Germiyanids"},
"geometry": {"type": "MultiPolygon", "coordinates": [
[
[
[28.3755,38.0933],
[28.6778,37.9643],
[28.7141,37.4483],
[30.0514,37.5773],
[30.2743,37.4483],
[30.7539,37.5773],
[30.7597,37.6417],
[30.8377,37.6417],
[30.8436,37.7062],
[30.9998,37.7062],
[31.5174,38.2224],
[31.8368,38.2869],
[31.8495,38.416],
[31.5551,38.6097],
[30.9338,38.6743],
[30.9463,38.8034],
[31.0248,38.8034],
[31.0756,39.3203],
[31.1543,39.3203],
[31.1804,39.5789],
[30.9505,39.6436],
[29.3013,39.7083],
[28.8953,39.5789],
[28.7763,39.1265],
[28.6191,39.1265],
[28.5238,38.9326],
[28.5019,38.6743],
[28.6424,38.4806],
[28.3755,38.0933]
]
],
[
[
[32.6706,40.2259],
[32.7496,40.2259],
[32.7423,40.1612],
[32.7777,39.7729],
[33.5665,39.7729],
[33.7696,40.1612],
[33.1675,40.4201],
[32.7644,40.3554],
[32.757,40.2906],
[32.6779,40.2906],
[32.6706,40.2259]
]
],
[
[
[37.958,37.126],
[38.3787,36.7393],
[38.2552,36.3528],
[38.0925,36.2884],
[38.1329,35.9664],
[39.7371,35.7733],
[40.3712,35.2584],
[40.3557,35.1297],
[40.5101,35.1297],
[41.0584,36.4172],
[41.4636,36.546],
[41.1431,37.0615],
[41.1517,37.126],
[40.4584,37.7707],
[40.1545,37.8352],
[39.9459,38.0288],
[39.7113,38.0288],
[39.5024,38.2224],
[38.7234,37.6417],
[38.0829,37.5128],
[37.958,37.126]
]
],
[
[
[48.0923,41.8465],
[48.172,41.8465],
[48.1186,41.5869],
[48.2778,41.5869],
[48.4774,41.7816],
[48.345,41.9114],
[48.2652,41.9114],
[48.2787,41.9764],
[48.1989,41.9764],
[48.0923,41.8465]
]
]
]}
}
