{
"type": "Feature",
"properties": {"id":"cliopatria-empire-of-japan-1941","edge_precision":"unknown","cliopatria_name":"Empire of Japan","cliopatria_from_year":1941,"cliopatria_to_year":1941,"cliopatria_area_km2":3410308,"cliopatria_wikidata":"Q188712","cliopatria_wikipedia":"Empire of Japan","cliopatria_seshat_id":"jp_japanese_emp"},
"geometry": {"type": "MultiPolygon", "coordinates": [
[
[
[105.3604,21.1148],
[105.6361,20.9862],
[105.6044,20.7934],
[105.7212,20.6005],
[106.1451,20.472],
[106.6747,20.5362],
[106.6854,20.6005],
[106.8337,20.6005],
[106.9613,20.922],
[107.4174,20.9862],
[107.5874,21.1148],
[107.62,21.3077],
[107.8646,21.4363],
[108.0874,21.4363],
[108.0984,21.5005],
[107.9719,21.6291],
[107.5894,21.5648],
[107.0388,21.822],
[107.2248,22.4648],
[107.1617,22.5291],
[106.6182,22.4005],
[105.4985,21.5005],
[105.3604,21.1148]
]
],
[
[
[105.8118,41.9764],
[106.4086,41.1328],
[106.2905,40.744],
[107.0504,40.6792],
[107.0177,40.6144],
[107.1761,40.6144],
[107.1434,40.5496],
[107.3018,40.5496],
[107.2692,40.4849],
[107.4276,40.4849],
[107.395,40.4201],
[107.5533,40.4201],
[107.6467,40.2906],
[107.5337,39.9023],
[107.2504,39.6436],
[107.4416,39.385],
[107.647,39.3203],
[107.2858,38.5451],
[107.4426,38.5451],
[107.5113,38.3515],
[107.9029,38.3515],
[107.9718,38.1578],
[108.745,37.9643],
[108.716,37.8998],
[109.0778,37.8352],
[109.5269,37.9643],
[109.5964,38.2869],
[109.8429,38.4806],
[109.7466,38.6097],
[110.04,39.0618],
[110.4179,39.5143],
[111.1591,39.5789],
[111.5259,39.8376],
[111.6182,39.7083],
[111.5207,39.5143],
[111.5995,39.5143],
[111.3925,39.2557],
[111.518,39.1911],
[111.1562,38.9326],
[111.0014,38.6097],
[111.0798,38.6097],
[111.0362,38.3515],
[111.1928,38.3515],
[111.2587,38.1578],
[111.9328,38.0933],
[111.6847,37.3838],
[111.7627,37.3838],
[111.5116,36.9971],
[111.5894,36.9971],
[111.5749,36.6105],
[111.2802,36.2884],
[110.4691,35.8377],
[110.0508,35.3871],
[109.9461,35.1297],
[110.0234,35.1297],
[109.997,34.8723],
[110.1513,34.6793],
[110.7167,34.5506],
[111.0765,34.6793],
[112.5939,34.8079],
[115.0855,34.6793],
[116.0032,34.2933],
[116.0004,34.1004],
[116.2815,34.0361],
[116.4066,33.7789],
[116.5603,33.7789],
[116.7628,33.5217],
[116.7109,33.3931],
[117.0423,33.0716],
[116.9913,32.943],
[117.1703,32.8145],
[117.0448,32.4931],
[116.7168,32.236],
[115.0458,31.8503],
[113.5733,31.7861],
[113.1229,31.5933],
[112.9784,31.4005],
[112.9871,31.2076],
[113.2467,31.0791],
[113.7032,31.0791],
[113.8107,30.9506],
[113.4837,30.4364],
[113.614,30.3722],
[113.411,29.9865],
[113.4868,29.9865],
[113.4244,29.7937],
[113.5347,29.6652],
[114.6914,29.7294],
[114.809,29.858],
[115.5335,29.9865],
[115.6637,29.9223],
[115.5863,29.2152],
[115.7726,29.0867],
[116.075,29.0867],
[116.5556,29.4081],
[117.1907,30.1794],
[117.9177,30.3079],
[118.1768,30.1794],
[118.2623,29.9865],
[118.7273,29.7937],
[118.814,29.6009],
[118.9654,29.6009],
[119.0526,29.4081],
[119.2039,29.4081],
[119.2917,29.2152],
[119.4429,29.2152],
[119.5313,29.0224],
[119.6824,29.0224],
[120.012,28.6367],
[120.1629,28.6367],
[120.5106,28.0581],
[120.8677,27.9938],
[120.9431,27.9938],
[121.118,28.3153],
[121.1934,28.3153],
[121.1533,28.1867],
[121.6459,28.3153],
[121.6521,28.5724],
[121.5218,28.6367],
[121.7143,28.7652],
[121.7443,29.0867],
[121.5389,29.1509],
[121.647,29.4723],
[121.5713,29.4723],
[121.7446,29.5366],
[121.7116,29.2152],
[121.9384,29.2152],
[122.016,29.6652],
[121.8645,29.6652],
[122.0298,29.9223],
[121.6202,30.0508],
[121.4841,30.3079],
[121.1047,30.3079],
[120.8088,30.1151],
[120.6798,30.1794],
[121.0453,30.565],
[121.1972,30.565],
[121.5192,30.822],
[121.8993,30.822],
[121.9953,31.0791],
[121.7366,31.4005],
[121.5843,31.4005],
[121.9135,31.4647],
[121.9631,31.5933],
[121.8356,31.6575],
[121.9368,31.7218],
[121.9613,31.9789],
[121.5033,32.1717],
[121.4026,32.4931],
[120.9192,32.6216],
[120.9263,33.2002],
[120.5505,33.5859],
[120.4894,34.1647],
[120.3418,34.3577],
[119.7323,34.5506],
[119.7113,34.6793],
[119.4309,34.7436],
[119.459,34.8079],
[119.2276,34.8079],
[119.6187,35.5158],
[119.9865,35.6445],
[120.3185,36.0308],
[120.6585,36.0952],
[120.7318,36.4172],
[120.9648,36.4172],
[120.9789,36.6105],
[121.2121,36.6105],
[121.9121,36.9326],
[122.3939,36.8037],
[122.5664,36.9971],
[122.4742,37.126],
[122.7129,37.4483],
[122.1211,37.5128],
[122.1535,37.5773],
[121.4969,37.5128],
[121.4833,37.6417],
[121.171,37.6417],
[121.112,37.8352],
[120.7538,37.8998],
[120.1881,37.7062],
[120.2022,37.5773],
[119.8266,37.4483],
[119.7011,37.1904],
[119.1557,37.1904],
[119.14,37.3193],
[118.984,37.3193],
[119.2366,37.8352],
[119.3928,37.8352],
[119.4571,37.9643],
[118.7718,38.1578],
[118.8042,38.2224],
[118.6476,38.2224],
[118.583,38.0933],
[118.0674,38.1578],
[118.0536,38.2869],
[117.7727,38.3515],
[117.7592,38.4806],
[117.6025,38.4806],
[117.6549,38.7389],
[117.5764,38.7389],
[117.776,39.1265],
[118.0457,39.1911],
[118.0569,39.0618],
[118.4498,39.0618],
[118.9894,39.1911],
[119.2153,39.3203],
[119.3804,39.7729],
[120.5003,40.2259],
[120.6473,40.4849],
[120.9967,40.6792],
[121.1098,40.8736],
[121.8237,40.8736],
[121.827,40.744],
[122.1061,40.6792],
[122.2306,40.4849],
[121.7765,39.967],
[121.5033,39.9023],
[121.4383,39.6436],
[121.2807,39.6436],
[121.2096,39.5143],
[121.2965,39.385],
[121.6901,39.385],
[121.5151,39.0618],
[121.2007,39.0618],
[121.0293,38.7389],
[121.4217,38.7389],
[121.7162,38.9972],
[122.0653,39.0618],
[122.1704,39.2557],
[122.513,39.4496],
[123.3241,39.7729],
[124.034,39.7729],
[124.3446,39.9023],
[124.5124,39.6436],
[124.8646,39.7083],
[124.8697,39.5789],
[125.3057,39.5143],
[125.39,39.385],
[125.0316,38.7389],
[125.1885,38.7389],
[125.1533,38.6743],
[124.9614,38.6097],
[124.7881,38.2869],
[124.8664,38.2869],
[124.7637,38.0933],
[125.0767,38.0933],
[124.8967,37.8998],
[125.2093,37.8998],
[125.2981,37.7707],
[125.231,37.6417],
[125.3871,37.6417],
[125.6783,37.8998],
[125.8347,37.8998],
[125.8449,37.7707],
[126.3477,37.8352],
[126.2459,37.6417],
[126.6025,37.5773],
[126.5352,37.4483],
[126.7023,37.3193],
[126.6475,37.0615],
[126.3032,36.9971],
[126.0498,36.8037],
[126.2638,36.6105],
[126.4516,36.6749],
[126.4286,36.1596],
[126.5206,36.0308],
[126.6757,36.0308],
[126.6128,35.902],
[126.7678,35.902],
[126.5192,35.7089],
[126.3039,35.2584],
[126.3812,35.2584],
[126.1998,34.8723],
[126.4784,34.8079],
[126.1166,34.3577],
[126.3476,34.3577],
[126.4837,34.4863],
[126.4246,34.3577],
[126.6262,34.2933],
[127.0229,34.4863],
[127.2196,34.7436],
[127.2968,34.7436],
[127.1297,34.5506],
[127.2243,34.422],
[127.3783,34.422],
[127.7595,34.7436],
[128.0679,34.7436],
[128.0821,34.9366],
[128.3136,34.9366],
[128.3297,34.8079],
[128.6849,34.7436],
[128.8074,35.001],
[128.5451,34.9366],
[128.5294,35.0653],
[129.1471,35.0653],
[129.6161,35.7089],
[129.5387,35.7089],
[129.6669,35.9664],
[129.5765,36.0952],
[129.4214,36.0952],
[129.474,36.3528],
[129.3964,36.3528],
[129.5288,37.0615],
[129.4069,37.126],
[129.4748,37.2549],
[129.2563,37.5773],
[129.1002,37.5773],
[128.84,37.9643],
[128.3638,38.8034],
[127.9234,38.9972],
[127.7978,39.1911],
[127.4832,39.1911],
[127.6653,39.6436],
[127.5454,39.7083],
[127.9346,39.967],
[128.368,40.0317],
[128.6822,40.2906],
[129.0777,40.4201],
[129.2378,40.6792],
[129.7558,40.8736],
[129.8822,41.1977],
[129.7269,41.3274],
[129.8104,41.4571],
[129.6977,41.6518],
[130.3221,42.2362],
[130.649,42.3662],
[130.6927,42.4312],
[130.4965,42.4962],
[130.5567,42.8213],
[131.0022,42.8864],
[131.2716,43.2769],
[131.1561,43.3421],
[131.2794,43.8634],
[131.1641,43.9286],
[131.2217,44.1243],
[131.141,44.1243],
[131.2457,44.3854],
[131.0617,44.5813],
[131.0742,44.7119],
[130.912,44.7119],
[131.0527,44.908],
[131.3433,44.9734],
[131.6952,45.235],
[132.7378,45.1042],
[132.69,45.0388],
[132.9815,45.1042],
[133.9089,46.3489],
[133.827,46.3489],
[133.9268,46.4802],
[133.8448,46.4802],
[134.0456,46.7429],
[133.9635,46.7429],
[134.0645,46.8743],
[133.9824,46.8743],
[134.1859,47.1374],
[134.1036,47.1374],
[134.3608,47.4665],
[134.682,47.6641],
[134.5089,47.8619],
[134.6379,48.1257],
[134.4961,48.2578],
[134.5203,48.3899],
[134.1886,48.3899],
[133.5616,48.1257],
[133.0648,48.1257],
[132.123,47.6641],
[130.853,47.73],
[130.9038,47.7959],
[130.6243,47.8619],
[130.7361,48.3238],
[130.4995,48.6542],
[130.5748,48.8527],
[130.0453,48.9189],
[130.0984,48.9851],
[129.8184,49.0513],
[129.812,49.25],
[129.4485,49.3163],
[129.5023,49.3826],
[129.0848,49.3826],
[129.1386,49.4489],
[128.6911,49.5152],
[128.7451,49.5816],
[128.0226,49.5152],
[128.0762,49.5816],
[127.8254,49.5816],
[127.8791,49.6479],
[127.4848,49.7807],
[127.4799,49.98],
[127.3961,49.98],
[127.5054,50.113],
[127.3636,50.246],
[127.4188,50.3125],
[127.2508,50.3125],
[127.2776,50.4457],
[127.1935,50.4457],
[127.3052,50.5789],
[127.1648,50.7121],
[127.1935,50.8455],
[127.0248,50.8455],
[127.0265,51.0457],
[126.8576,51.0457],
[126.7797,51.4465],
[126.695,51.4465],
[126.7531,51.5134],
[126.6683,51.5134],
[126.7266,51.5803],
[126.6418,51.5803],
[126.7002,51.6472],
[126.6153,51.6472],
[126.6739,51.7142],
[126.589,51.7142],
[126.6477,51.7811],
[126.5627,51.7811],
[126.6216,51.8481],
[126.4516,51.8481],
[126.4077,52.1833],
[126.3225,52.1833],
[126.3823,52.2505],
[126.297,52.2505],
[126.3569,52.3176],
[126.2716,52.3176],
[126.3317,52.3847],
[126.2463,52.3847],
[126.3065,52.4519],
[126.0252,52.5191],
[126.0608,52.6535],
[125.8897,52.6535],
[125.901,52.8554],
[125.6194,52.9227],
[125.6561,53.0574],
[125.4846,53.0574],
[125.546,53.1248],
[125.2885,53.1248],
[125.35,53.1922],
[124.6877,53.1248],
[124.7488,53.1922],
[124.4053,53.1922],
[124.4665,53.2596],
[124.1839,53.3271],
[124.2453,53.3946],
[123.7904,53.4621],
[123.8519,53.5296],
[121.897,53.4621],
[121.089,53.3271],
[120.4231,53.0574],
[119.9036,52.6535],
[120.5301,52.5863],
[120.5006,52.4519],
[120.6706,52.2505],
[120.5571,52.1163],
[120.6709,52.0492],
[120.1919,51.7811],
[119.6457,51.1124],
[119.7303,51.1124],
[119.1509,50.3791],
[119.235,50.3791],
[119.2816,50.113],
[118.5429,49.9136],
[117.8274,49.5152],
[116.6848,49.7807],
[115.4226,47.9938],
[115.5881,47.9938],
[115.5814,47.8619],
[115.8674,47.7959],
[115.8229,47.73],
[116.16,47.8619],
[116.9865,47.8619],
[116.9414,47.7959],
[117.3093,47.73],
[117.7389,47.9938],
[118.4834,47.9938],
[118.4374,47.9278],
[118.6855,47.9278],
[118.6396,47.8619],
[119.0436,47.73],
[119.0347,47.5982],
[119.3191,47.5323],
[119.2736,47.4665],
[119.4754,47.4006],
[119.4671,47.269],
[119.7512,47.2032],
[119.7431,47.0716],
[119.9371,46.8743],
[119.8031,46.6772],
[119.2666,46.6115],
[119.3108,46.6772],
[119.0647,46.6772],
[119.109,46.7429],
[118.6166,46.7429],
[117.4191,46.5459],
[117.1258,46.3489],
[116.7164,46.3489],
[116.4673,46.2177],
[116.1297,45.6933],
[115.8832,45.5623],
[115.1889,45.3659],
[114.7417,45.4313],
[113.6859,44.7773],
[113.1182,44.7773],
[113.1581,44.8426],
[112.9148,44.8426],
[112.9547,44.908],
[112.3849,45.0388],
[112.4247,45.1042],
[112.0185,45.1042],
[111.7768,44.9734],
[111.385,44.3201],
[111.5468,44.3201],
[111.592,44.1243],
[111.7536,44.1243],
[111.9637,43.7982],
[111.8868,43.6678],
[110.8166,43.2118],
[110.2792,42.6912],
[109.3332,42.4312],
[107.8132,42.4312],
[106.8631,42.3012],
[105.8118,41.9764]
],
[
[116.7993,39.0618],
[116.8326,39.1265],
[116.9112,39.1265],
[116.9446,39.1911],
[117.0233,39.1911],
[117.0568,39.2557],
[117.0456,39.385],
[117.2265,39.5789],
[117.1477,39.5789],
[117.1819,39.6436],
[117.1031,39.6436],
[117.4875,39.7729],
[117.3053,39.5789],
[117.3841,39.5789],
[117.3498,39.5143],
[117.4286,39.5143],
[117.3605,39.385],
[117.3043,39.1265],
[116.9688,38.9326],
[116.8447,38.9972],
[116.8779,39.0618],
[116.7993,39.0618]
]
],
[
[
[108.6382,18.5434],
[108.7646,18.4148],
[109.1233,18.3505],
[109.2497,18.2219],
[109.8406,18.2219],
[109.8622,18.3505],
[110.1794,18.4791],
[110.1903,18.5434],
[110.5078,18.6719],
[110.6806,19.2505],
[110.8507,19.3791],
[110.8839,19.5719],
[111.0319,19.5719],
[111.0874,19.8934],
[110.9095,20.1505],
[110.613,20.1505],
[110.591,20.022],
[110.1574,20.0862],
[109.2464,19.9577],
[109.2028,19.7005],
[108.7043,19.3791],
[108.6382,18.5434]
]
],
[
[
[112.7194,22.4005],
[112.9966,21.8863],
[113.071,21.8863],
[113.1063,22.0791],
[113.4037,22.0791],
[113.4514,22.3363],
[113.6866,22.4005],
[113.6987,22.4648],
[113.5985,22.722],
[113.7474,22.722],
[113.7852,22.5291],
[113.9219,22.4648],
[113.9963,22.4648],
[114.3184,22.5934],
[114.6039,22.5291],
[114.6408,22.722],
[114.7153,22.722],
[114.6037,22.9148],
[114.3928,22.9791],
[114.4179,23.1077],
[114.109,23.4291],
[113.5255,23.4934],
[113.4151,23.6863],
[113.1913,23.6863],
[112.829,23.3649],
[112.7418,22.9148],
[112.8662,22.7863],
[112.7194,22.4005]
]
],
[
[
[116.1315,23.1077],
[116.155,22.8506],
[116.2295,22.8506],
[116.54,22.9148],
[116.5914,23.172],
[116.815,23.172],
[116.7796,23.3649],
[116.8939,23.5577],
[116.9685,23.5577],
[116.9207,23.6863],
[116.6223,23.6863],
[116.4201,23.4291],
[116.3455,23.4291],
[116.1315,23.1077]
]
],
[
[
[118.2061,24.7792],
[118.2221,24.5221],
[118.6704,24.5221],
[118.8191,24.8435],
[118.7443,24.8435],
[118.715,25.0364],
[118.4906,25.0364],
[118.2061,24.7792]
]
],
[
[
[118.8515,25.2936],
[118.9856,25.2293],
[119.0604,25.2293],
[119.0295,25.1007],
[119.1791,25.1007],
[119.1945,25.165],
[119.2694,25.165],
[119.3911,25.3579],
[119.2731,25.4864],
[119.4229,25.4864],
[119.466,25.3579],
[119.8721,25.4864],
[119.9044,25.615],
[119.5299,25.615],
[119.7784,26.0008],
[119.6452,26.0651],
[119.5702,26.0651],
[119.1786,26.0008],
[118.8881,25.7436],
[118.8515,25.2936]
]
],
[
[
[119.8399,26.5151],
[119.915,26.5151],
[120.1577,26.5794],
[120.2108,26.7723],
[119.875,26.6437],
[119.8399,26.5151]
]
],
[
[
[120.0056,23.1077],
[120.1413,23.0434],
[120.1984,22.5934],
[120.4446,22.3363],
[120.5933,22.3363],
[120.6657,21.9505],
[120.8888,21.9505],
[121.0042,22.5291],
[121.381,22.9148],
[121.5365,23.3006],
[122.0061,25.0364],
[121.7703,25.2936],
[121.471,25.2936],
[120.9589,25.0364],
[120.9126,24.8435],
[120.5234,24.4578],
[120.3473,24.0077],
[120.1698,23.8792],
[120.1204,23.3006],
[120.0056,23.1077]
]
],
[
[
[121.9766,29.9865],
[122.2798,29.9865],
[122.2726,30.1794],
[122.045,30.1794],
[122.0221,30.1151],
[121.9766,29.9865]
]
],
[
[
[123.6905,24.2649],
[123.9145,24.2649],
[123.9599,24.4578],
[123.7206,24.3935],
[123.6905,24.2649]
]
],
[
[
[125.2174,24.7149],
[125.4416,24.7149],
[125.4574,24.7792],
[125.4146,24.9078],
[125.265,24.9078],
[125.2174,24.7149]
]
],
[
[
[126.1388,33.2002],
[126.7035,33.2645],
[126.7801,33.2645],
[126.9988,33.5859],
[126.3563,33.5217],
[126.1388,33.2002]
]
],
[
[
[127.6497,26.0008],
[127.8176,26.0651],
[127.9091,26.3865],
[128.3784,26.708],
[128.4168,26.8366],
[128.1915,26.8366],
[128.1723,26.7723],
[127.9279,26.708],
[127.8713,26.5151],
[127.684,26.3865],
[127.6497,26.0008]
]
],
[
[
[128.5681,32.6216],
[128.6934,32.5574],
[128.7698,32.5574],
[128.9299,32.7502],
[128.8815,32.8145],
[128.6518,32.8145],
[128.5681,32.6216]
]
],
[
[
[129.1065,34.1647],
[129.3075,34.1004],
[129.3373,34.1647],
[129.3974,34.2933],
[129.1665,34.2933],
[129.1065,34.1647]
]
],
[
[
[129.145,28.1867],
[129.2744,28.1224],
[129.3498,28.1224],
[129.7377,28.3795],
[129.8036,28.5724],
[129.188,28.3153],
[129.145,28.1867]
]
],
[
[
[129.2267,34.422],
[129.4275,34.3577],
[129.4578,34.422],
[129.4415,34.5506],
[129.2873,34.5506],
[129.2267,34.422]
]
],
[
[
[129.5403,33.2645],
[129.617,33.2645],
[129.5595,33.1359],
[129.6841,33.0716],
[129.627,32.943],
[129.7518,32.8788],
[129.6952,32.7502],
[129.792,32.6216],
[130.0013,32.7502],
[130.1543,32.7502],
[130.0979,32.6216],
[130.3274,32.6216],
[130.4408,32.8788],
[130.5654,32.8145],
[130.5211,32.3645],
[130.2089,32.1717],
[130.0995,31.9146],
[130.2698,31.5933],
[130.1374,31.2719],
[130.4656,31.1434],
[130.7201,31.2076],
[130.6417,31.0148],
[130.7938,31.0148],
[131.2031,31.2719],
[131.1801,31.4005],
[131.4086,31.4005],
[131.598,31.8503],
[131.5217,31.8503],
[131.5834,32.1717],
[131.7807,32.6216],
[132.0776,32.943],
[132.001,32.943],
[132.0885,33.1359],
[131.6399,33.3288],
[131.8181,33.7146],
[131.0971,33.6502],
[131.0931,33.9718],
[131.9388,33.9718],
[131.9085,33.9075],
[132.1856,33.8432],
[132.3226,34.2933],
[133.2463,34.2933],
[134.4686,34.7436],
[134.9444,34.615],
[134.6319,34.2933],
[134.2014,34.3577],
[134.2328,34.422],
[133.6312,34.2933],
[133.5072,34.0361],
[133.1227,34.0361],
[133.0304,34.1647],
[132.8765,34.1647],
[132.556,33.6502],
[132.0826,33.4574],
[132.0233,33.3288],
[132.3598,33.3931],
[132.3006,33.2645],
[132.4539,33.2645],
[132.3657,33.0716],
[132.4423,33.0716],
[132.4314,32.8788],
[132.6611,32.8788],
[132.6797,32.7502],
[133.0334,32.6859],
[133.1613,33.1359],
[133.5404,33.4574],
[133.8473,33.4574],
[133.9874,33.2645],
[134.2174,33.2645],
[134.3684,33.5859],
[134.6599,33.7146],
[134.7834,33.9718],
[134.7065,33.9718],
[134.7231,34.1647],
[134.9083,34.229],
[135.2076,34.6793],
[135.4389,34.6793],
[135.3429,34.4863],
[135.0168,34.2933],
[135.1534,34.1004],
[135.0288,33.8432],
[135.3511,33.7146],
[135.4125,33.5217],
[135.8117,33.3931],
[136.4475,34.229],
[136.9093,34.229],
[136.9733,34.3577],
[136.7942,34.615],
[136.5954,34.6793],
[136.7258,34.9366],
[136.9363,34.7436],
[137.2448,34.7436],
[137.0701,34.5506],
[137.2242,34.5506],
[138.2586,34.615],
[138.4237,34.9366],
[138.7992,35.0653],
[138.677,34.6793],
[138.9523,34.615],
[139.2289,35.001],
[139.1417,35.1297],
[139.2092,35.2584],
[139.7162,35.194],
[139.7842,35.3227],
[139.698,35.4514],
[139.9559,35.6445],
[140.0762,35.5802],
[139.7021,34.8723],
[140.4115,35.194],
[140.5405,35.5802],
[140.9123,35.8377],
[140.6727,35.9664],
[140.7434,36.0952],
[140.6238,36.1596],
[140.6891,36.4172],
[140.6114,36.4172],
[140.7877,36.8682],
[141.1253,37.3193],
[141.0446,37.4483],
[141.1203,37.5773],
[140.9622,37.7062],
[141.0388,37.8352],
[140.921,37.8998],
[140.9982,38.0288],
[140.92,38.0288],
[141.0761,38.2869],
[141.5071,38.3515],
[141.6302,38.8034],
[141.5517,38.8034],
[141.8308,38.9972],
[142.0421,39.4496],
[141.9633,39.4496],
[142.0897,39.6436],
[141.9745,39.7083],
[142.0667,39.967],
[141.8887,40.2906],
[141.8096,40.2906],
[141.7832,40.4849],
[141.6249,40.4849],
[141.6341,40.6144],
[141.4408,40.6792],
[141.53,40.8088],
[141.3817,40.9384],
[141.4832,41.1977],
[141.4037,41.1977],
[141.5408,41.3922],
[140.9165,41.522],
[140.6886,41.1977],
[140.3365,41.2625],
[140.182,40.8088],
[139.9,40.744],
[139.7685,40.5496],
[139.9908,40.2906],
[139.656,39.9023],
[139.8927,39.9023],
[140.0404,39.6436],
[139.8715,39.2557],
[139.9501,39.2557],
[139.3159,38.0933],
[138.7726,37.8352],
[138.5114,37.3838],
[137.6276,37.0615],
[137.2508,36.8037],
[137.0952,36.8037],
[137.1245,36.9971],
[136.9627,37.126],
[137.1546,37.1904],
[137.3738,37.5773],
[136.7178,37.3838],
[136.5732,37.126],
[136.6511,37.126],
[136.5795,36.9971],
[136.7063,36.8037],
[136.4529,36.4816],
[136.0039,36.224],
[135.9109,35.902],
[136.0758,35.7733],
[135.7095,35.5158],
[135.2786,35.5802],
[135.3788,35.7733],
[133.4661,35.5158],
[132.9572,35.5802],
[132.6925,35.5158],
[132.5634,35.2584],
[131.4759,34.615],
[131.414,34.4863],
[130.9211,34.422],
[130.7992,34.1647],
[130.8761,34.1647],
[130.8624,33.9718],
[130.4183,33.8432],
[130.3293,33.6502],
[129.916,33.5859],
[129.8283,33.3931],
[129.5982,33.3931],
[129.5403,33.2645]
]
],
[
[
[129.5908,33.7146],
[129.8212,33.7146],
[129.8804,33.8432],
[129.7267,33.8432],
[129.5908,33.7146]
]
],
[
[
[129.9309,32.236],
[130.1325,32.1717],
[130.2919,32.3645],
[130.3683,32.3645],
[130.5287,32.5574],
[129.9934,32.5574],
[129.9309,32.236]
]
],
[
[
[130.362,30.3079],
[130.6159,30.1794],
[130.6906,30.3722],
[130.7156,30.4364],
[130.4371,30.5007],
[130.362,30.3079]
]
],
[
[
[130.8167,30.5007],
[131.0193,30.4364],
[131.1723,30.822],
[130.9185,30.7578],
[130.8167,30.5007]
]
],
[
[
[133.0996,36.1596],
[133.3323,36.1596],
[133.3659,36.224],
[133.4333,36.3528],
[133.2004,36.3528],
[133.0996,36.1596]
]
],
[
[
[138.1447,37.9643],
[138.2633,37.8998],
[138.1881,37.7707],
[138.3443,37.7707],
[138.3819,37.8352],
[138.6117,38.0933],
[138.4934,38.1578],
[138.6088,38.3515],
[138.3353,38.2869],
[138.1447,37.9643]
]
],
[
[
[139.6855,42.3662],
[139.7655,42.3662],
[139.7848,42.1712],
[139.9446,42.1712],
[139.8979,42.1063],
[140.0576,42.1063],
[140.011,42.0413],
[140.1241,41.9764],
[139.8817,41.522],
[139.9613,41.522],
[139.95,41.3922],
[140.3136,41.4571],
[140.5768,41.7167],
[141.1345,41.7167],
[141.2275,41.8465],
[141.1147,41.9114],
[141.1615,41.9764],
[141.0019,41.9764],
[141.0487,42.0413],
[140.8891,42.0413],
[140.936,42.1063],
[140.7763,42.1063],
[140.8233,42.1712],
[140.3909,42.2362],
[140.4052,42.3662],
[140.3253,42.3662],
[140.4675,42.5612],
[140.7076,42.5612],
[140.6925,42.4312],
[140.9976,42.3012],
[141.4281,42.5612],
[141.7965,42.6262],
[141.7484,42.5612],
[141.9885,42.5612],
[141.9405,42.4962],
[142.1005,42.4962],
[142.0846,42.3662],
[142.5485,42.2362],
[142.5008,42.1712],
[142.8847,42.0413],
[142.8372,41.9764],
[143.2362,41.9764],
[143.6874,42.6912],
[143.9952,42.8864],
[145.1377,43.0165],
[145.5501,43.3421],
[145.3893,43.3421],
[145.4103,43.4723],
[145.3298,43.4723],
[145.4021,43.6678],
[145.1013,43.7982],
[145.4101,44.1896],
[145.3293,44.1896],
[145.4041,44.3854],
[145.2423,44.3854],
[144.8517,43.9938],
[144.4481,43.9938],
[144.4993,44.0591],
[144.3378,44.0591],
[144.389,44.1243],
[143.7939,44.1896],
[143.8451,44.2548],
[143.5729,44.3201],
[143.6242,44.3854],
[143.1602,44.516],
[143.2116,44.5813],
[142.9389,44.6466],
[142.9607,44.7773],
[142.7985,44.7773],
[142.85,44.8426],
[142.6877,44.8426],
[142.6801,45.0388],
[142.5177,45.0388],
[142.5398,45.1696],
[142.3772,45.1696],
[142.3994,45.3004],
[142.2367,45.3004],
[142.259,45.4313],
[141.9852,45.4968],
[142.0372,45.5623],
[141.6594,45.4968],
[141.4831,45.1696],
[141.7744,44.7119],
[141.612,44.1896],
[141.6928,44.1896],
[141.2438,43.6027],
[141.3243,43.6027],
[141.2749,43.5375],
[141.3866,43.4723],
[141.2882,43.3421],
[141.3686,43.3421],
[141.2706,43.2118],
[140.9492,43.2118],
[140.998,43.2769],
[140.6449,43.3421],
[140.6938,43.4072],
[140.372,43.4072],
[140.226,43.2118],
[140.4021,43.0165],
[140.2579,42.8213],
[139.9696,42.7563],
[139.6855,42.3662]
]
],
[
[
[141.0255,45.1042],
[141.2693,45.1042],
[141.3205,45.1696],
[141.3419,45.3004],
[141.1792,45.3004],
[141.0255,45.1042]
]
],
[
[
[141.6575,46.4145],
[141.7394,46.4145],
[141.8903,45.8898],
[142.0535,45.8898],
[142.5269,46.6772],
[142.6909,46.6772],
[142.6655,46.5459],
[143.2392,46.5459],
[143.1854,46.4802],
[143.3775,46.4145],
[143.2987,46.2177],
[143.4623,46.2177],
[143.6232,46.4145],
[143.5413,46.4145],
[143.6491,46.5459],
[143.4835,46.7429],
[143.5102,46.8743],
[143.0995,46.8743],
[143.0445,47.4006],
[142.8797,47.4006],
[142.908,47.5323],
[142.743,47.5323],
[142.7985,47.5982],
[142.6335,47.5982],
[142.5824,47.9278],
[142.4997,47.9278],
[142.7312,48.3899],
[142.6482,48.3899],
[142.9705,48.8527],
[142.8873,48.8527],
[143.0156,49.1838],
[143.3618,49.3826],
[143.6123,49.3826],
[143.5522,49.3163],
[143.9927,49.25],
[143.9328,49.1838],
[144.0161,49.1838],
[144.3133,49.0513],
[144.433,49.1838],
[144.243,49.25],
[144.1897,49.6479],
[144.106,49.6479],
[144.1674,49.7143],
[144.0837,49.7143],
[144.1452,49.7807],
[144.0615,49.7807],
[144.1233,49.8471],
[144.0395,49.8471],
[144.1014,49.9136],
[144.0176,49.9136],
[144.0797,49.98],
[143.9959,49.98],
[144.0582,50.0465],
[143.9743,50.0465],
[144.0369,50.113],
[143.9529,50.113],
[144.0157,50.1795],
[143.9317,50.1795],
[142.0452,50.0465],
[141.9838,49.98],
[142.0903,49.9136],
[141.9685,49.7807],
[142.0753,49.7143],
[141.9186,49.4489],
[142.026,49.3826],
[141.7478,48.7865],
[141.831,48.7865],
[141.9018,48.3899],
[142.0677,48.3899],
[142.0107,48.3238],
[142.1459,48.1917],
[142.0036,47.9278],
[142.0863,47.9278],
[141.8084,47.5982],
[141.8909,47.5982],
[141.8083,47.4006],
[142.0017,47.1374],
[141.6575,46.4145]
]
],
[
[
[144.3848,48.8527],
[144.468,48.8527],
[144.4574,48.6542],
[144.6235,48.6542],
[144.7415,48.7865],
[144.6105,48.9189],
[144.67,48.9851],
[144.5868,48.9851],
[144.3848,48.8527]
]
],
[
[
[145.292,43.733],
[145.5338,43.733],
[145.7396,43.9938],
[146.5083,44.4507],
[146.1275,44.5813],
[146.0751,44.516],
[145.292,43.733]
]
],
[
[
[146.501,43.733],
[146.7428,43.733],
[146.979,43.9286],
[146.7369,43.9286],
[146.685,43.8634],
[146.501,43.733]
]
],
[
[
[146.7795,44.3854],
[147.1277,44.516],
[147.6087,44.908],
[148.7989,45.3659],
[148.9627,45.5623],
[148.6368,45.5623],
[148.1751,45.3004],
[147.8765,45.4313],
[147.7958,45.235],
[147.4444,45.1042],
[146.9094,44.6466],
[146.8565,44.5813],
[146.7795,44.3854]
]
],
[
[
[149.3701,45.5623],
[149.8063,45.6933],
[150,45.8403],
[150,46.1367],
[149.8946,46.0865],
[149.5089,45.8243],
[149.3701,45.5623]
]
]
]}
}
