{
"type": "Feature",
"properties": {"id":"cliopatria-durrani-empire-1763","edge_precision":"unknown","cliopatria_name":"Durrani Empire","cliopatria_from_year":1763,"cliopatria_to_year":1768,"cliopatria_area_km2":2195447,"cliopatria_wikidata":"Q467627","cliopatria_wikipedia":"Durrani Empire","cliopatria_seshat_id":"af_durrani_emp"},
"geometry": {"type": "MultiPolygon", "coordinates": [
[
[
[57.734,35.1297],
[57.9533,35.0653],
[58.0059,34.9366],
[59.4078,35.001],
[60.2955,34.8079],
[60.8354,34.422],
[60.5664,34.229],
[60.4915,33.8432],
[60.5684,33.8432],
[60.5959,33.5859],
[60.8906,33.5217],
[60.6884,33.2645],
[60.6164,32.8788],
[60.693,32.8788],
[60.6574,32.6859],
[60.8814,32.236],
[60.8439,31.5933],
[61.1151,31.4005],
[61.7243,31.4005],
[61.9191,31.2076],
[61.8746,30.9506],
[61.3872,30.3079],
[60.9562,29.9865],
[60.9257,29.7937],
[61.4516,29.2795],
[61.4882,29.0224],
[61.8743,28.5724],
[62.7984,28.1867],
[62.8274,27.8652],
[62.9028,27.8652],
[62.822,27.2866],
[63.3308,27.158],
[63.2789,26.7723],
[63.1118,26.6437],
[62.4277,26.5794],
[61.854,26.1937],
[61.651,25.1007],
[62.0179,25.0364],
[62.182,25.165],
[62.4739,25.1007],
[62.5634,25.2293],
[63.5362,25.2293],
[63.6262,25.3579],
[64.225,25.3579],
[64.2845,25.2293],
[64.8006,25.165],
[64.8161,25.2936],
[66.0215,25.3579],
[66.3451,25.5507],
[66.6791,25.2293],
[66.632,24.8435],
[67.2147,24.7149],
[67.2514,24.3935],
[67.3261,24.3935],
[67.2891,24.072],
[67.4384,24.072],
[67.4911,23.8792],
[67.6331,23.8149],
[68.3046,23.8149],
[68.6252,24.0077],
[69.984,24.1363],
[70.1488,24.2649],
[70.8956,24.2649],
[71.293,24.4578],
[72.5049,24.5864],
[73.0112,24.4578],
[73.4016,24.5864],
[73.5019,24.7792],
[73.538,24.7792],
[74.0307,25.3579],
[74.4422,25.615],
[74.4611,25.7436],
[74.7897,25.9365],
[74.8092,26.0651],
[75.054,26.1937],
[75.2547,26.5151],
[75.7787,26.9652],
[75.7662,28.1867],
[76.2516,28.7652],
[76.7322,29.6652],
[77.384,30.2436],
[77.5804,30.565],
[77.6055,30.565],
[77.9809,30.8863],
[78.1299,31.2076],
[78.0686,31.2719],
[78.7377,31.529],
[78.8139,31.529],
[78.7533,31.9146],
[78.5553,32.0431],
[78.5414,32.3002],
[78.465,32.3002],
[78.5601,32.6859],
[78.6628,33.3931],
[78.5861,33.3931],
[78.8482,34.1004],
[78.6773,34.0361],
[78.8748,34.4863],
[78.2334,34.6793],
[78.2086,34.8723],
[78.0369,34.8079],
[77.4892,35.0653],
[77.3099,35.2584],
[77.4223,35.3871],
[77.0955,35.3227],
[77.0886,35.5802],
[76.5998,35.7733],
[76.5756,35.9664],
[76.1704,35.902],
[75.991,36.0952],
[75.9849,36.3528],
[76.0029,36.4172],
[75.7826,36.7393],
[75.4119,36.8037],
[75.311,36.9971],
[74.5506,37.0615],
[74.5869,37.1904],
[74.917,37.2549],
[74.7979,37.3838],
[74.0961,37.3838],
[73.8258,37.2549],
[73.7243,37.4483],
[73.3343,37.4483],
[72.2401,36.8682],
[71.5834,36.7393],
[71.4184,36.9971],
[71.5685,37.8352],
[71.2738,37.8998],
[71.364,38.2224],
[71.1838,38.416],
[70.7137,38.416],
[70.2147,38.0288],
[70.1619,37.8352],
[70.2658,37.6417],
[70.0752,37.5128],
[69.546,37.5773],
[69.3498,37.126],
[69.1161,37.126],
[69.0103,37.3193],
[68.7764,37.3193],
[68.1487,36.9971],
[67.9152,36.9971],
[67.7465,37.2549],
[67.123,37.2549],
[66.9995,37.3838],
[66.5155,37.3193],
[65.6274,37.5128],
[65.2388,37.8352],
[64.6615,38.0288],
[64.3669,38.416],
[64.0075,38.5451],
[63.8374,38.8034],
[63.4155,38.9972],
[62.9808,39.4496],
[61.404,38.8034],
[59.7588,38.4806],
[58.9951,38.2224],
[58.6413,37.3193],
[58.5633,37.3193],
[58.0783,35.7089],
[57.734,35.1297]
]
]
]}
}
