{
"type": "Feature",
"properties": {"id":"cliopatria-roman-empire-32bce","edge_precision":"unknown","cliopatria_name":"Roman Empire","cliopatria_from_year":-31,"cliopatria_to_year":-31,"cliopatria_area_km2":1692466,"cliopatria_wikidata":"Q12544","cliopatria_wikipedia":"Roman Empire"},
"geometry": {"type": "MultiPolygon", "coordinates": [
[
[
[-9.572,38.9326],
[-9.5531,38.7389],
[-9.3837,38.6097],
[-9.233,38.6743],
[-9.2085,38.416],
[-8.8227,38.4806],
[-8.8188,37.5773],
[-8.8969,37.5773],
[-9.0014,36.9971],
[-8.7011,37.126],
[-7.6779,36.9971],
[-7.4548,37.126],
[-7.4653,37.2549],
[-6.8418,37.2549],
[-6.588,36.9971],
[-6.3495,36.9326],
[-6.3301,36.6749],
[-6.0638,36.224],
[-5.8311,36.224],
[-5.6623,36.0308],
[-5.2879,36.224],
[-5.2282,36.4816],
[-4.6888,36.546],
[-4.4686,36.7393],
[-2.6801,36.7393],
[-2.5321,36.8682],
[-2.0616,36.8037],
[-1.8574,37.3193],
[-1.6235,37.3193],
[-1.7087,37.4483],
[-0.7048,37.6417],
[-0.8035,38.0288],
[-0.6609,38.2869],
[0.0994,38.7389],
[-0.3137,39.1265],
[-0.3454,39.7083],
[-0.1265,40.0317],
[0.1825,40.1612],
[0.2478,40.4201],
[0.7093,40.6792],
[0.6958,40.9384],
[1.2384,41.1977],
[2.1066,41.3274],
[2.3336,41.5869],
[2.5725,41.5869],
[3.1168,41.9114],
[3.1781,42.3662],
[3.0099,42.5612],
[2.9849,43.1467],
[3.14,43.2769],
[3.6171,43.4072],
[3.8509,43.6027],
[4.173,43.6027],
[4.1778,43.4723],
[5.0631,43.4723],
[5.3869,43.4072],
[5.3908,43.2769],
[5.6319,43.2769],
[5.7962,43.1467],
[6.2782,43.1467],
[6.5176,43.2118],
[6.6726,43.4723],
[6.9931,43.5375],
[7.1502,43.733],
[8.0339,43.9286],
[8.4315,44.3854],
[9.1591,44.4507],
[9.7274,44.1243],
[9.9697,44.1243],
[9.8895,43.9938],
[10.2123,43.9938],
[10.5353,43.0816],
[11.0163,42.8213],
[11.0158,42.6262],
[11.176,42.6262],
[11.2552,42.4312],
[11.4152,42.4312],
[11.4945,42.3012],
[11.6548,42.3662],
[11.8128,42.1063],
[12.1317,42.0413],
[12.1305,41.9114],
[12.6046,41.522],
[12.9222,41.4571],
[13,41.3274],
[13.7145,41.2625],
[13.7918,41.1328],
[13.9506,41.1328],
[14.1046,40.8736],
[14.4219,40.8736],
[14.4179,40.6792],
[14.8934,40.6792],
[15.0414,40.2259],
[15.1995,40.2259],
[15.4319,40.0317],
[15.7478,40.0317],
[15.6655,39.9023],
[15.8989,39.7729],
[16.1165,39.0618],
[16.2703,38.9326],
[16.2652,38.7389],
[15.9497,38.6743],
[15.8621,38.2869],
[14.0562,37.9643],
[13.6652,37.9643],
[13.3547,38.1578],
[13.1199,38.1578],
[13.0404,38.0288],
[12.6498,38.0933],
[12.4919,37.8998],
[12.4905,37.7062],
[13.192,37.5773],
[13.5784,37.2549],
[14.2779,37.126],
[14.661,36.7393],
[15.0498,36.7393],
[15.2139,37.1904],
[15.0592,37.2549],
[15.0665,37.6417],
[15.3895,38.1578],
[15.6243,38.1578],
[15.6982,37.9643],
[15.9328,37.9643],
[16.4919,38.416],
[16.5024,38.8034],
[17.1383,39.0618],
[17.0697,39.385],
[16.9162,39.5143],
[16.4473,39.6436],
[16.4567,39.967],
[16.6975,40.0964],
[16.6245,40.2906],
[16.8617,40.2906],
[16.945,40.4201],
[16.868,40.4849],
[17.0285,40.5496],
[17.3452,40.5496],
[17.4175,40.3554],
[17.8131,40.3554],
[18.1122,39.9023],
[18.3489,39.9023],
[18.4381,40.1612],
[17.9812,40.6144],
[17.5107,40.744],
[17.2027,41.0032],
[15.9439,41.3922],
[15.8738,41.7167],
[16.1149,41.7816],
[16.1189,41.9114],
[15.2414,41.9114],
[15.165,42.0413],
[14.924,41.9764],
[14.7659,42.0413],
[14.769,42.1712],
[14.6077,42.1063],
[14.5308,42.2362],
[14.3709,42.2362],
[14.0565,42.4962],
[13.9014,42.7563],
[13.9854,42.9515],
[13.7471,43.0816],
[13.6726,43.4072],
[13.3551,43.6678],
[13.0338,43.733],
[13.0356,43.8634],
[12.8734,43.7982],
[12.313,44.1896],
[12.1537,44.4507],
[12.1572,44.8426],
[12.3999,44.7773],
[12.4026,45.0388],
[12.16,45.1696],
[12.1628,45.4968],
[12.6522,45.5623],
[12.8168,45.6933],
[13.0605,45.6278],
[13.1448,45.8243],
[13.7149,45.7588],
[13.7102,45.4968],
[13.5473,45.4968],
[13.5441,45.3004],
[13.7056,45.235],
[13.7809,44.908],
[13.9432,44.908],
[13.9457,45.0388],
[14.1894,45.0388],
[14.1962,45.3659],
[14.6031,45.3659],
[14.5158,45.1042],
[14.9187,44.9734],
[14.9089,44.5813],
[15.1466,44.3854],
[15.2187,44.0591],
[15.4591,43.9938],
[15.3747,43.8634],
[15.6186,43.9286],
[15.6954,43.7982],
[15.8566,43.7982],
[16.0117,43.6027],
[15.9271,43.4723],
[16.5754,43.6027],
[16.7342,43.5375],
[16.7272,43.3421],
[17.0513,43.4072],
[17.1219,43.1467],
[17.3654,43.2118],
[17.3552,42.9515],
[17.5157,42.9515],
[17.5079,42.7563],
[17.5933,42.8864],
[17.9915,42.8213],
[18.1435,42.6262],
[18.852,42.3662],
[19.5424,41.7816],
[19.4501,41.522],
[19.5297,41.522],
[19.4438,41.3922],
[19.5233,41.3922],
[19.4376,41.2625],
[19.4985,40.8736],
[19.2545,40.744],
[19.2487,40.6144],
[19.4863,40.6144],
[19.4714,40.2906],
[19.6295,40.2906],
[20.0094,39.967],
[20.0003,39.7729],
[19.7637,39.7729],
[19.7578,39.6436],
[19.9125,39.5789],
[19.9184,39.7083],
[20.155,39.7083],
[20.2972,39.385],
[20.8324,39.0618],
[20.911,39.0618],
[20.7696,39.385],
[20.6153,39.4496],
[20.5588,39.9023],
[20.4799,39.9023],
[20.5027,40.3554],
[20.3543,40.5496],
[20.4571,41.0032],
[20.5365,41.0032],
[20.4919,41.6518],
[20.5931,42.0413],
[20.4406,42.1712],
[20.4514,42.3662],
[20.8513,42.3662],
[20.855,42.4312],
[20.725,42.9515],
[20.6448,42.9515],
[20.6637,43.2769],
[20.5104,43.4072],
[20.5292,43.733],
[20.368,43.733],
[20.3022,43.9938],
[20.2215,43.9938],
[20.3134,44.1896],
[19.7618,44.4507],
[19.8498,44.5813],
[19.6878,44.5813],
[19.6948,44.7119],
[19.6138,44.7119],
[19.7054,44.908],
[19.2284,45.1042],
[19.2351,45.235],
[18.9879,45.1696],
[18.5907,45.3659],
[18.1809,45.3004],
[18.0239,45.4313],
[17.0495,45.4968],
[16.9729,45.6278],
[16.5631,45.5623],
[16.4861,45.6933],
[15.9948,45.6278],
[15.9174,45.7588],
[15.7522,45.6933],
[15.2665,45.8243],
[15.2701,45.9554],
[14.9451,46.0209],
[14.9484,46.1521],
[13.8024,46.0865],
[13.6412,46.2177],
[12.905,46.2177],
[12.5749,45.9554],
[12.4116,45.9554],
[12.4103,45.8243],
[12.0824,45.6278],
[11.5112,45.4968],
[10.8597,45.4968],
[10.5337,45.6278],
[8.9035,45.6278],
[8.5792,45.4968],
[8.581,45.3659],
[8.4191,45.3004],
[8.1069,44.4507],
[7.5451,44.1896],
[7.2219,44.1896],
[7.3052,44.0591],
[6.7487,43.6678],
[6.4249,43.733],
[6.0922,44.1243],
[6.0764,44.7119],
[6.1557,44.7773],
[6.0746,44.7773],
[6.0488,45.6933],
[6.1304,45.6933],
[6.1266,45.8243],
[6.533,45.8898],
[6.8548,46.0865],
[6.7648,46.4145],
[7.0909,46.4802],
[7.0058,46.6115],
[7.1683,46.6772],
[7.1653,46.8086],
[7.3295,46.8086],
[7.3237,47.0716],
[7.6513,47.1374],
[7.6486,47.269],
[8.0603,47.269],
[7.9756,47.4006],
[8.1393,47.4665],
[8.3876,47.4006],
[8.3845,47.5982],
[8.467,47.5982],
[8.466,47.6641],
[7.5594,47.5982],
[7.6283,48.2578],
[7.7111,48.2578],
[7.868,48.7204],
[8.1971,48.9189],
[8.1115,49.0513],
[8.277,49.1175],
[8.3509,49.7143],
[8.1802,49.9136],
[7.8462,49.8471],
[7.676,49.98],
[7.4997,50.3791],
[7.3286,50.5122],
[7.324,50.7121],
[7.2398,50.7121],
[7.3195,50.9122],
[7.0647,50.9789],
[6.8854,51.3797],
[6.5391,51.6472],
[6.4542,51.6472],
[5.934,51.9822],
[5.5913,52.0492],
[4.9076,52.1163],
[4.2325,51.9822],
[4.056,52.1163],
[3.9805,51.9151],
[3.6471,51.7811],
[3.7387,51.6472],
[3.3993,51.6472],
[3.4097,51.4465],
[2.7394,51.3128],
[2.5778,51.1792],
[1.6562,51.0457],
[1.4247,50.7121],
[1.455,50.246],
[1.0528,49.98],
[0.2241,49.8471],
[-0.0124,49.6479],
[0.007,49.3826],
[-1.2508,49.4489],
[-1.3618,49.7807],
[-2.0316,49.7807],
[-1.9133,49.3826],
[-1.6517,49.25],
[-1.635,49.0513],
[-1.7183,49.0513],
[-1.6022,48.6542],
[-2.5219,48.7204],
[-2.7594,48.5881],
[-3.1222,48.9189],
[-3.4551,48.9189],
[-3.8518,48.7204],
[-4.5999,48.7204],
[-4.9117,48.522],
[-4.8913,48.3238],
[-4.6426,48.3238],
[-4.5464,48.1917],
[-4.7054,48.1257],
[-4.6921,47.9938],
[-4.4244,47.7959],
[-3.9349,47.8619],
[-3.7572,47.73],
[-3.3443,47.73],
[-3.1555,47.4665],
[-2.8373,47.5982],
[-2.8258,47.4665],
[-2.5784,47.4665],
[-2.5616,47.269],
[-2.2322,47.269],
[-2.1391,47.1374],
[-2.1944,46.8086],
[-2.0249,46.7429],
[-2.0144,46.6115],
[-1.666,46.3489],
[-1.2518,46.2833],
[-1.2227,45.8898],
[-1.1411,45.8898],
[-1.2131,45.7588],
[-1.0453,45.6933],
[-1.0312,45.4968],
[-1.1894,45.4313],
[-1.1706,45.1696],
[-1.2519,45.1696],
[-1.2054,44.516],
[-1.2863,44.516],
[-1.268,44.2548],
[-1.3488,44.2548],
[-1.3214,43.8634],
[-1.402,43.8634],
[-1.4599,43.5375],
[-1.7634,43.2769],
[-1.0399,43.2769],
[-0.7903,43.1467],
[-0.3887,43.1467],
[-0.22,43.0165],
[0.9945,42.8213],
[1.3254,42.6262],
[1.7258,42.6262],
[1.7322,42.4962],
[2.7782,42.3662],
[2.8692,42.1063],
[2.7123,42.0413],
[2.7179,41.9114],
[1.997,41.9764],
[1.422,42.3012],
[0.859,42.3662],
[0.7719,42.4962],
[0.4555,42.4312],
[0.288,42.5612],
[-0.685,42.7563],
[-0.9381,42.9515],
[-1.2591,42.9515],
[-1.3305,42.8213],
[-1.4909,42.8213],
[-1.4821,42.6912],
[-1.949,42.4962],
[-2.1137,42.5612],
[-2.1799,42.3662],
[-2.9649,42.1712],
[-3.1149,42.0413],
[-5.8407,42.1712],
[-6.4614,41.9764],
[-7.1859,42.0413],
[-7.253,41.9114],
[-8.29,41.9114],
[-8.3563,41.7816],
[-8.6683,41.7167],
[-8.9143,41.7816],
[-8.727,40.744],
[-8.8723,40.6144],
[-8.8461,40.3554],
[-8.9252,40.3554],
[-9.025,39.7729],
[-9.1039,39.7729],
[-9.1572,39.5143],
[-9.387,39.4496],
[-9.4275,39.0618],
[-9.572,38.9326]
]
],
[
[
[-1.8531,43.4072],
[-1.8484,43.3421],
[-1.768,43.3421],
[-1.7726,43.4072],
[-1.8531,43.4072]
]
],
[
[
[-0.9424,43.0165],
[-0.9381,42.9515],
[-0.8579,42.9515],
[-0.8621,43.0165],
[-0.9424,43.0165]
]
],
[
[
[1.1831,39.0618],
[1.2735,38.8034],
[1.4305,38.8034],
[1.6575,38.9972],
[1.6518,39.1265],
[1.2587,39.1265],
[1.1831,39.0618]
]
],
[
[
[2.3381,39.6436],
[2.3461,39.4496],
[2.6586,39.5143],
[2.8237,39.3203],
[3.2958,39.3203],
[3.5158,39.7729],
[3.1979,39.8376],
[3.193,39.967],
[2.8772,39.967],
[2.3381,39.6436]
]
],
[
[
[3.7411,40.0964],
[3.8268,39.9023],
[4.3024,39.8376],
[4.2151,40.0964],
[3.7411,40.0964]
]
],
[
[
[5.2901,35.1297],
[5.3017,34.615],
[5.3788,34.615],
[6.1484,34.6793],
[6.459,34.5506],
[6.9203,34.615],
[7.1535,34.4863],
[7.6149,34.5506],
[8.0016,34.422],
[8.0808,34.229],
[8.7734,34.229],
[8.9278,34.1647],
[8.9288,34.0361],
[9.0826,34.0361],
[9.3159,33.5859],
[9.6236,33.4574],
[9.5475,33.3288],
[9.625,33.1359],
[10.0848,33.1359],
[10.0086,33.0073],
[10.3916,33.0073],
[11.1572,32.6859],
[11.3099,32.4931],
[11.4629,32.5574],
[11.539,32.4288],
[11.7684,32.4288],
[11.7679,32.3002],
[12.4559,32.3645],
[13.0667,32.3002],
[13.0657,32.1717],
[13.2953,32.236],
[13.8286,32.1074],
[14.5861,31.6575],
[14.5844,31.529],
[15.1873,31.0791],
[15.1845,30.8863],
[15.4896,30.9506],
[16.7012,30.6935],
[18.2813,30.0508],
[18.8104,29.9865],
[18.8961,30.3722],
[18.5925,30.3722],
[17.9974,30.8863],
[17.4695,31.0791],
[16.1786,31.2076],
[15.649,31.4005],
[15.576,31.5933],
[15.4246,31.6575],
[15.2069,32.3645],
[14.7493,32.4288],
[14.6747,32.5574],
[14.4444,32.4931],
[14.0652,32.7502],
[13.7591,32.7502],
[13.7605,32.8788],
[13.4537,32.8145],
[13.3017,32.943],
[13.072,32.943],
[12.8418,32.8788],
[12.8408,32.7502],
[12.5347,32.7502],
[12.6121,32.8788],
[12.229,32.8145],
[11.4644,33.2002],
[11.1578,33.2002],
[11.0815,33.5859],
[10.6977,33.5217],
[10.544,33.7146],
[10.2368,33.7146],
[10.0058,33.9075],
[10.0817,34.229],
[10.0045,34.2933],
[10.543,34.5506],
[10.8512,34.8079],
[10.8512,34.9366],
[11.0828,35.001],
[11.0057,35.3871],
[11.083,35.3871],
[11.0832,35.5802],
[10.851,35.6445],
[10.851,35.7089],
[10.4635,35.902],
[10.5403,36.3528],
[10.4625,36.4172],
[11.0062,36.8037],
[11.0063,36.9971],
[10.8506,36.9971],
[10.5396,36.7393],
[10.2284,36.8037],
[10.3054,37.0615],
[10.2276,37.0615],
[10.227,37.2549],
[9.9934,37.1904],
[9.6031,37.3193],
[9.0595,37.0615],
[8.9032,37.126],
[8.5164,36.8682],
[7.7383,36.8682],
[7.6587,36.9971],
[7.3463,37.0615],
[7.1937,36.8682],
[6.8047,36.8682],
[6.3339,37.0615],
[6.103,36.9326],
[6.1058,36.8037],
[5.6391,36.8037],
[5.5643,36.6749],
[5.485,36.7393],
[5.4073,36.7393],
[5.3555,35.6445],
[5.4388,35.3871],
[5.2901,35.1297]
]
],
[
[
[6.1913,51.9151],
[6.1934,51.8481],
[6.2784,51.8481],
[6.2763,51.9151],
[6.1913,51.9151]
]
],
[
[
[8.1546,40.9384],
[8.1595,40.5496],
[8.3187,40.4849],
[8.3209,40.2906],
[8.4,40.2906],
[8.3248,39.967],
[8.4834,39.9023],
[8.4089,39.5143],
[8.3301,39.5143],
[8.3332,39.2557],
[8.4118,39.2557],
[8.3362,38.9972],
[8.7303,38.868],
[8.9659,38.868],
[9.1204,39.1911],
[9.5926,39.1265],
[9.6686,39.6436],
[9.7474,39.6436],
[9.6653,40.2906],
[9.8232,40.3554],
[9.8217,40.744],
[9.5021,41.1977],
[9.1043,41.2625],
[9.0248,41.2625],
[8.552,40.8736],
[8.1546,40.9384]
]
],
[
[
[8.5346,42.4962],
[8.5388,42.1063],
[8.7005,41.9114],
[8.6227,41.7167],
[8.7821,41.7167],
[8.7839,41.522],
[9.1038,41.3274],
[9.2624,41.3922],
[9.4989,41.7816],
[9.4978,41.9764],
[9.5776,41.9764],
[9.5736,42.7563],
[9.4934,42.7563],
[9.4919,43.0165],
[9.2511,43.0165],
[9.1728,42.7563],
[8.7727,42.6912],
[8.5346,42.4962]
]
],
[
[
[10.1343,42.8864],
[10.2148,42.6912],
[10.4552,42.6912],
[10.4551,42.8864],
[10.1343,42.8864]
]
],
[
[
[14.2609,44.5813],
[14.5024,44.516],
[14.5113,44.908],
[14.3504,44.9734],
[14.2692,44.9734],
[14.2609,44.5813]
]
],
[
[
[14.3368,35.8377],
[14.5682,35.7733],
[14.5712,35.9664],
[14.4171,36.0308],
[14.3396,36.0308],
[14.3368,35.8377]
]
],
[
[
[15.7542,45.7588],
[15.8358,45.7588],
[15.8378,45.8243],
[15.7562,45.8243],
[15.7542,45.7588]
]
],
[
[
[16.5654,45.6278],
[16.6469,45.6278],
[16.6492,45.6933],
[16.5677,45.6933],
[16.5654,45.6278]
]
],
[
[
[20.0701,39.5789],
[20.1489,39.5789],
[20.1519,39.6436],
[20.0731,39.6436],
[20.0701,39.5789]
]
]
]}
}
