{
"type": "Feature",
"properties": {"id":"cliopatria-house-of-habsburg-1453","edge_precision":"unknown","cliopatria_name":"House of Habsburg","cliopatria_from_year":1453,"cliopatria_to_year":1458,"cliopatria_area_km2":561532,"cliopatria_wikidata":"Q65968","cliopatria_wikipedia":"House of Habsburg","cliopatria_seshat_id":"de_empire_3","cliopatria_member_of":"(Holy Roman Empire)"},
"geometry": {"type": "MultiPolygon", "coordinates": [
[
[
[6.8909,47.9278],
[6.9834,47.5323],
[7.3973,47.4665],
[7.5594,47.5982],
[7.5538,47.8619],
[7.4669,48.0597],
[7.2186,48.0597],
[7.0563,47.9278],
[6.8909,47.9278]
]
],
[
[
[7.5608,47.5323],
[7.5622,47.4665],
[7.6446,47.4665],
[7.646,47.4006],
[7.7284,47.4006],
[7.7297,47.3348],
[8.0592,47.3348],
[8.1381,47.5323],
[8.0545,47.5982],
[8.2184,47.6641],
[8.1278,48.1257],
[8.2106,48.1257],
[8.2083,48.2578],
[7.9597,48.2578],
[7.7966,48.1257],
[7.7927,48.3238],
[7.7098,48.3238],
[7.6283,48.2578],
[7.6379,47.7959],
[7.887,47.73],
[7.7257,47.5323],
[7.5608,47.5323]
]
],
[
[
[8.2061,48.3899],
[8.2083,48.2578],
[8.4559,48.3238],
[8.372,48.3899],
[8.2061,48.3899]
]
],
[
[
[8.2106,48.1257],
[8.2128,47.9938],
[8.461,47.9938],
[8.3762,48.1257],
[8.2106,48.1257]
]
],
[
[
[8.2869,48.522],
[8.4539,48.4559],
[8.4519,48.5881],
[8.3688,48.5881],
[8.2869,48.522]
]
],
[
[
[8.5349,48.5881],
[8.5359,48.522],
[8.7019,48.522],
[8.7001,48.6542],
[8.617,48.6542],
[8.6179,48.5881],
[8.5349,48.5881]
]
],
[
[
[8.5378,48.3899],
[8.5408,48.1917],
[8.7055,48.2578],
[8.7884,48.2578],
[8.5378,48.3899]
]
],
[
[
[8.878,47.73],
[9.2902,47.7959],
[9.2882,47.9938],
[9.1228,47.9938],
[9.1242,47.8619],
[8.9573,47.9938],
[8.9597,47.7959],
[8.878,47.73]
]
],
[
[
[9.2013,48.3899],
[9.2027,48.2578],
[9.3685,48.2578],
[9.3666,48.4559],
[9.2013,48.3899]
]
],
[
[
[9.3716,47.9278],
[9.3722,47.8619],
[9.5375,47.8619],
[9.5364,47.9938],
[9.4537,47.9938],
[9.4543,47.9278],
[9.3716,47.9278]
]
],
[
[
[9.4496,48.4559],
[9.4519,48.1917],
[9.7824,48.3238],
[9.8653,48.3238],
[10.0314,48.2578],
[9.9474,48.4559],
[9.4496,48.4559]
]
],
[
[
[9.5419,47.3348],
[9.7076,47.2032],
[9.7072,47.269],
[9.789,47.3348],
[9.7062,47.4006],
[9.5419,47.3348]
]
],
[
[
[10.1134,48.4559],
[10.114,48.3238],
[10.2798,48.3238],
[10.1966,48.3899],
[10.1963,48.4559],
[10.1134,48.4559]
]
],
[
[
[10.1152,48.0597],
[10.3636,47.9938],
[10.5287,48.1917],
[10.5286,48.2578],
[10.1971,48.2578],
[10.1152,48.0597]
]
],
[
[
[10.1192,47.2032],
[10.1204,46.9401],
[10.4491,46.9401],
[10.3679,46.6115],
[10.3681,46.5459],
[10.532,46.5459],
[11.1879,46.6115],
[11.1056,46.4145],
[11.2694,46.4145],
[11.5159,46.6115],
[12.0905,46.6772],
[13.5638,46.4802],
[13.7276,46.4802],
[13.7253,46.3489],
[13.8878,46.2833],
[13.8854,46.1521],
[13.5561,46.0209],
[13.6333,45.7588],
[13.7149,45.7588],
[13.7102,45.4968],
[14.1175,45.4968],
[13.7869,45.235],
[14.027,45.0388],
[14.1894,45.0388],
[14.1962,45.3659],
[14.6031,45.3659],
[14.5985,45.1696],
[14.7595,45.1042],
[14.7564,44.9734],
[14.9187,44.9734],
[14.9089,44.5813],
[15.1484,44.4507],
[15.1466,44.3854],
[15.5474,44.2548],
[15.7032,44.0591],
[15.9454,44.0591],
[16.7412,43.733],
[16.4299,44.0591],
[16.2684,44.0591],
[16.275,44.2548],
[16.5198,44.3201],
[16.5243,44.4507],
[16.2859,44.5813],
[16.2946,44.8426],
[16.5448,45.0388],
[18.5784,45.1042],
[18.8906,44.8426],
[19.1406,44.9734],
[19.2962,44.8426],
[19.6242,44.908],
[19.857,44.7119],
[20.0191,44.7119],
[20.1075,44.8426],
[20.7486,44.7119],
[21.4055,44.8426],
[22.1134,44.516],
[22.532,44.7119],
[22.6504,45.235],
[23.1382,45.235],
[23.4735,45.3659],
[23.4836,45.4968],
[25.0423,45.6278],
[25.3453,45.3659],
[25.4382,45.4968],
[25.8455,45.4968],
[25.9389,45.6278],
[26.1019,45.6278],
[26.4404,45.7588],
[26.4779,46.1521],
[25.9421,46.5459],
[25.9668,46.8086],
[25.7266,46.8743],
[25.6689,47.1374],
[25.0166,47.2032],
[25.0343,47.4006],
[24.8813,47.5323],
[24.905,47.7959],
[24.5862,47.9278],
[24.6867,48.1257],
[24.3672,48.2578],
[24.379,48.3899],
[24.053,48.4559],
[23.6663,48.7865],
[22.9287,48.9189],
[22.7784,49.1175],
[22.5231,49.0513],
[21.7983,49.3826],
[20.7129,49.3826],
[20.7038,49.25],
[20.4536,49.25],
[20.5459,49.3826],
[20.2119,49.3826],
[19.8655,49.1838],
[19.4725,49.5816],
[18.8798,49.4489],
[18.8873,49.5816],
[19.2376,49.8471],
[19.1658,50.0465],
[19.0819,50.0465],
[19.0899,50.1795],
[19.1739,50.1795],
[19.1861,50.3791],
[19.022,50.4457],
[19.0302,50.5789],
[18.7013,50.7121],
[18.7093,50.8455],
[18.0493,51.1124],
[17.9723,51.246],
[17.5493,51.246],
[17.3197,51.7142],
[16.9801,51.7142],
[16.719,51.5803],
[16.5556,51.7142],
[16.1311,51.7142],
[16.137,51.8481],
[15.9699,51.9151],
[15.9728,51.9822],
[15.8083,52.1163],
[15.814,52.2505],
[15.6462,52.3176],
[15.4703,52.1833],
[15.132,52.2505],
[15.0394,52.0492],
[14.8691,52.0492],
[14.7794,51.9151],
[14.616,52.1163],
[14.3605,52.1163],
[13.9404,52.3176],
[13.4254,52.1833],
[13.4221,52.0492],
[13.6758,51.9822],
[13.7573,51.8481],
[14.0973,51.8481],
[14.2633,51.7142],
[14.2515,51.3128],
[14.3362,51.3128],
[14.3265,50.9789],
[14.154,50.8455],
[13.3919,50.7121],
[12.7965,50.3791],
[12.3761,50.3791],
[12.2903,50.246],
[12.1223,50.246],
[12.1216,50.1795],
[12.3709,49.98],
[12.3676,49.7143],
[12.5341,49.6479],
[12.5324,49.5152],
[13.0296,49.25],
[13.3585,48.9851],
[14.1005,48.6542],
[13.8472,48.4559],
[13.1773,48.0597],
[13.1752,47.9278],
[13.4189,47.6641],
[13.4125,47.269],
[13.6595,47.269],
[13.7383,47.0716],
[12.1757,47.0716],
[12.1774,47.269],
[12.3427,47.3348],
[12.2621,47.5323],
[12.0146,47.5323],
[11.848,47.269],
[11.601,47.269],
[11.4365,47.3348],
[11.437,47.4665],
[11.2721,47.4665],
[11.0247,47.4006],
[10.9424,47.5323],
[10.695,47.5323],
[10.6949,47.5982],
[10.4474,47.5982],
[10.3657,47.3348],
[10.2009,47.3348],
[10.1192,47.2032]
],
[
[20.2781,49.1175],
[20.2867,49.25],
[20.3702,49.25],
[20.4492,49.1838],
[20.2781,49.1175]
]
],
[
[
[13.2444,51.7142],
[13.4975,51.6472],
[13.6673,51.6472],
[13.6706,51.7811],
[13.5873,51.8481],
[13.2474,51.8481],
[13.2444,51.7142]
]
]
]}
}
