{
"type": "Feature",
"properties": {"id":"cliopatria-jalayirid-sultanate-1395","edge_precision":"unknown","cliopatria_name":"Jalayirid Sultanate","cliopatria_from_year":1395,"cliopatria_to_year":1401,"cliopatria_area_km2":238099,"cliopatria_wikidata":"Q866716","cliopatria_wikipedia":"Jalayirid Sultanate"},
"geometry": {"type": "MultiPolygon", "coordinates": [
[
[
[40.5101,35.1297],
[40.5487,34.8079],
[40.7723,34.7436],
[40.965,34.422],
[41.042,34.422],
[41.427,33.7789],
[41.8649,33.5859],
[42.0645,33.3288],
[42.5783,33.1359],
[42.7085,32.943],
[43.1526,32.8145],
[44.459,31.5933],
[44.444,31.4647],
[44.6576,31.3362],
[44.6353,31.1434],
[44.7949,31.2076],
[45.3982,30.5007],
[45.55,30.5007],
[46.099,29.9865],
[46.5322,29.7937],
[46.5865,29.6009],
[46.745,29.6652],
[46.868,29.4081],
[47.1021,29.4723],
[47.3834,29.2795],
[47.459,29.2795],
[47.5707,29.6009],
[48.0699,29.9865],
[48.1457,29.9865],
[48.5928,29.9223],
[48.6005,29.9865],
[48.3884,30.1151],
[48.4117,30.3079],
[48.2755,30.4364],
[48.0478,30.4364],
[48.1031,30.8863],
[47.739,31.0148],
[47.7957,31.4647],
[47.9813,31.7218],
[47.5824,32.1717],
[47.5994,32.3002],
[47.3194,32.4931],
[46.9456,32.5574],
[46.6821,32.8788],
[46.2312,32.943],
[46.1378,33.3931],
[45.5928,33.9075],
[45.439,33.9075],
[45.6453,34.2933],
[45.5002,34.3577],
[45.5356,34.615],
[45.6898,34.615],
[45.7168,34.8079],
[45.34,34.8723],
[45.2036,35.001],
[45.1805,35.3871],
[45.044,35.5158],
[45.0714,35.7089],
[44.9441,35.902],
[43.919,35.7733],
[43.7202,35.4514],
[43.4968,35.5158],
[43.5143,35.6445],
[42.6544,35.5802],
[42.4306,35.6445],
[42.3701,35.7733],
[42.1294,35.7089],
[41.9913,35.8377],
[42.0081,35.9664],
[41.7924,36.0952],
[41.8093,36.224],
[41.5935,36.3528],
[41.6104,36.4816],
[41.4636,36.546],
[41.0584,36.4172],
[40.5101,35.1297]
]
]
]}
}
