{
"type": "Feature",
"properties": {"id":"cliopatria-teutonic-order-1402","edge_precision":"unknown","cliopatria_name":"Teutonic Order","cliopatria_from_year":1402,"cliopatria_to_year":1414,"cliopatria_area_km2":192278,"cliopatria_wikidata":"Q48189","cliopatria_wikipedia":"Teutonic Order","cliopatria_seshat_id":"de_empire_3","cliopatria_member_of":"(Holy Roman Empire)"},
"geometry": {"type": "MultiPolygon", "coordinates": [
[
[
[15.2568,53.2596],
[15.4893,52.6535],
[15.5748,52.6535],
[16.0971,52.8554],
[16.0238,53.1248],
[16.1097,53.1248],
[16.1192,53.3271],
[16.2944,53.3946],
[16.301,53.5296],
[16.4767,53.5971],
[16.4007,53.7999],
[16.3144,53.7999],
[16.411,54.0029],
[15.982,54.0706],
[16.0491,53.6647],
[15.7935,53.7323],
[15.7043,53.6647],
[15.7813,53.4621],
[15.4399,53.5296],
[15.2568,53.2596]
]
],
[
[
[17.0798,53.5971],
[17.3266,53.3946],
[17.5066,53.5296],
[18.4493,53.4621],
[18.5174,53.1922],
[18.6892,53.1922],
[18.9282,52.9227],
[19.3615,52.99],
[19.7248,53.2596],
[20.3958,53.0574],
[20.67,53.2596],
[20.9277,53.2596],
[21.2894,53.4621],
[22.4214,53.5971],
[22.5482,54.0029],
[22.4618,54.0029],
[22.4822,54.2061],
[22.6623,54.2739],
[22.6763,54.4095],
[22.9365,54.4095],
[23.0377,54.5453],
[23.4868,54.6811],
[23.6196,55.0892],
[25.3204,55.43],
[25.3469,55.6348],
[25.8309,55.9766],
[26.4955,55.7031],
[26.8658,55.8398],
[27.47,55.7715],
[27.9716,56.1821],
[28.1477,56.1821],
[28.1239,56.5937],
[27.8803,56.7311],
[27.7918,56.7311],
[27.1624,56.6623],
[27.183,56.7998],
[26.8289,56.7998],
[26.4552,56.6623],
[26.5924,56.3877],
[26.867,56.4563],
[26.9252,56.2506],
[27.0913,56.1821],
[26.8074,56.0451],
[26.3678,56.0451],
[26.3182,56.3191],
[26.0728,56.4563],
[26.1803,56.5937],
[25.9439,56.7998],
[25.7668,56.7998],
[25.6972,56.9374],
[25.5013,56.7998],
[24.4392,56.7998],
[23.8114,56.7311],
[23.7394,56.8686],
[23.4738,56.8686],
[23.6673,57.0063],
[23.4094,57.0751],
[22.851,57.6271],
[22.6727,57.6271],
[22.7462,57.4889],
[22.3748,57.3509],
[22.2044,57.4199],
[22.0045,57.2129],
[21.6491,57.2129],
[21.6776,57.4889],
[21.5066,57.558],
[21.3076,57.3509],
[21.2801,57.0751],
[21.3689,57.0751],
[21.4163,56.6623],
[21.2329,56.5937],
[21.2463,56.7311],
[20.9875,56.7998],
[20.9548,56.4563],
[20.8665,56.4563],
[20.8409,56.1821],
[20.9977,55.9766],
[20.9659,55.6348],
[21.203,55.3618],
[20.9907,54.9531],
[20.7293,54.9531],
[20.6542,55.0892],
[19.9509,55.0211],
[19.8361,54.6811],
[20.0044,54.6132],
[19.8306,54.6132],
[19.8197,54.4774],
[19.5594,54.4774],
[19.4622,54.3417],
[18.6869,54.4095],
[18.4453,54.6811],
[18.4595,54.8851],
[17.5017,54.8851],
[17.4975,54.8171],
[17.5594,54.4095],
[17.3859,54.4095],
[17.3779,54.2739],
[17.1102,54.1384],
[17.0911,53.7999],
[17.1774,53.7999],
[17.0798,53.5971]
]
],
[
[
[18.0267,57.4889],
[18.0764,56.9374],
[18.3423,56.9374],
[18.4513,57.2129],
[18.9117,57.4199],
[18.8444,57.6962],
[19.034,57.8346],
[19.0452,57.9731],
[18.598,57.9731],
[18.2301,57.8346],
[18.0316,57.558],
[18.0267,57.4889]
]
],
[
[
[21.8997,57.9038],
[22.0785,57.9038],
[22.2879,58.181],
[22.9313,58.3198],
[22.768,58.4587],
[22.8824,58.6673],
[22.4324,58.6673],
[22.5064,58.5282],
[22.3033,58.3198],
[22.2136,58.3198],
[21.937,58.2504],
[22.0191,58.181],
[21.8997,57.9038]
]
],
[
[
[22.3819,59.0155],
[22.8988,58.8065],
[22.8417,59.0853],
[22.3899,59.0853],
[22.3819,59.0155]
]
],
[
[
[23.4309,58.7369],
[23.4867,58.4587],
[23.6663,58.4587],
[23.6837,58.5977],
[23.8724,58.6673],
[23.7099,58.8065],
[23.6197,58.8065],
[23.4309,58.7369]
]
],
[
[
[23.4915,59.2249],
[23.8444,59.1551],
[23.9169,59.0155],
[24.1065,59.0853],
[24.0884,58.9458],
[24.3591,58.9458],
[24.5209,58.8065],
[24.4124,58.6673],
[24.5924,58.6673],
[24.5738,58.5282],
[24.385,58.4587],
[24.3578,58.2504],
[24.2681,58.2504],
[24.2324,57.9731],
[24.5993,58.0423],
[25.028,57.9038],
[25.0093,57.7654],
[24.9201,57.7654],
[24.9908,57.6271],
[24.7233,57.6271],
[24.7852,57.4199],
[24.6072,57.4199],
[24.4028,57.2129],
[24.145,57.2819],
[23.9418,57.0751],
[24.4479,56.8686],
[24.82,57.0063],
[25.2634,57.0063],
[25.4688,57.2129],
[25.4877,57.3509],
[25.3192,57.4199],
[25.4271,57.558],
[25.9617,57.558],
[25.9421,57.4199],
[26.6439,57.3509],
[26.8901,57.2129],
[27.2559,57.2819],
[27.1986,57.4889],
[27.398,57.6271],
[27.4304,57.8346],
[27.2517,57.8346],
[27.2732,57.9731],
[27.105,58.0423],
[26.7366,57.9731],
[26.7205,58.4587],
[26.8317,58.5977],
[26.7524,58.6673],
[26.9324,58.6673],
[26.8747,58.8761],
[27.4046,58.8065],
[27.3703,59.1551],
[27.7319,59.1551],
[28.0265,59.2947],
[28.0618,59.5045],
[26.792,59.5045],
[26.4507,59.6445],
[25.371,59.7145],
[25.3508,59.5745],
[24.7155,59.5745],
[23.5997,59.3646],
[23.4915,59.2249]
]
]
]}
}
