{
"type": "Feature",
"properties": {"id":"cliopatria-athenian-coalition-324bce","edge_precision":"unknown","cliopatria_name":"Athenian Coalition","cliopatria_from_year":-323,"cliopatria_to_year":-319,"cliopatria_area_km2":23257,"cliopatria_wikidata":"Q33745","cliopatria_wikipedia":"Peloponnesian War"},
"geometry": {"type": "MultiPolygon", "coordinates": [
[
[
[21.5095,39.967],
[21.7107,39.3203],
[22.0078,38.9972],
[21.987,38.6097],
[22.1335,38.416],
[22.2119,38.416],
[22.2084,38.3515],
[22.2868,38.3515],
[22.2902,38.416],
[22.6036,38.416],
[22.618,38.6743],
[22.7786,38.7389],
[22.786,38.868],
[23.0216,38.868],
[23.0254,38.9326],
[23.1825,38.9326],
[23.1787,38.868],
[23.4888,38.8034],
[23.3435,38.9972],
[23.1078,38.9972],
[22.9583,39.1265],
[22.7973,39.0618],
[22.8163,39.385],
[23.1352,39.4496],
[22.7569,39.7083],
[22.7648,39.8376],
[22.6109,39.9023],
[22.6937,39.967],
[22.6977,40.0317],
[22.2125,39.8376],
[21.9154,40.1612],
[21.8253,39.967],
[21.5095,39.967]
]
],
[
[
[22.5515,37.4483],
[22.7076,37.4483],
[22.7144,37.5773],
[22.7925,37.5773],
[22.803,37.7707],
[22.5686,37.7707],
[22.5515,37.4483]
]
],
[
[
[22.6001,38.3515],
[22.6784,38.3515],
[22.682,38.416],
[22.6036,38.416],
[22.6001,38.3515]
]
],
[
[
[23.2864,38.0288],
[23.4428,38.0288],
[23.9786,37.8352],
[24.0021,38.2224],
[24.1587,38.2224],
[24.1789,38.5451],
[24.0302,38.6743],
[23.5634,38.7389],
[23.6301,38.5451],
[23.6261,38.4806],
[23.6967,38.3515],
[23.3796,38.2869],
[23.2864,38.0288]
]
],
[
[
[23.4849,38.7389],
[23.5634,38.7389],
[23.5673,38.8034],
[23.4888,38.8034],
[23.4849,38.7389]
]
],
[
[
[24.2013,37.6417],
[24.2716,37.5128],
[24.4316,37.5773],
[24.3614,37.7062],
[24.2833,37.7062],
[24.2013,37.6417]
]
],
[
[
[24.3565,38.868],
[24.662,38.7389],
[24.6749,38.9326],
[24.4435,38.9972],
[24.365,38.9972],
[24.3565,38.868]
]
],
[
[
[24.6819,37.8352],
[24.83,37.7062],
[25.0685,37.7707],
[24.7724,38.0288],
[24.6942,38.0288],
[24.6819,37.8352]
]
],
[
[
[24.9862,37.7062],
[25.0519,37.5128],
[25.286,37.5128],
[25.2205,37.7062],
[24.9862,37.7062]
]
],
[
[
[26.5574,37.8352],
[26.6217,37.6417],
[27.012,37.6417],
[27.0263,37.8352],
[26.5574,37.8352]
]
]
]}
}
