{
"type": "Feature",
"properties": {"id":"cliopatria-aghlabid-dynasty-0850","edge_precision":"unknown","cliopatria_name":"Aghlabid Dynasty","cliopatria_from_year":850,"cliopatria_to_year":859,"cliopatria_area_km2":247201,"cliopatria_wikidata":"Q207600","cliopatria_wikipedia":"Aghlabids","cliopatria_seshat_id":"tn_aghlabid_dyn"},
"geometry": {"type": "MultiPolygon", "coordinates": [
[
[
[5.3182,36.1002],
[5.3202,35.707],
[5.5282,35.6164],
[5.3468,34.615],
[6.154,34.7053],
[7.2302,34.5047],
[7.6149,34.5506],
[9.159,34.1004],
[9.2555,34.0486],
[9.2395,33.5217],
[9.7017,33.1359],
[9.8561,32.8145],
[10.137,32.8998],
[12.3269,31.9146],
[13.3703,32.0485],
[14.2125,31.6845],
[15.1577,30.5775],
[16.1594,30.1151],
[17.4433,29.858],
[17.818,29.6652],
[18.0382,29.3438],
[18.713,29.0867],
[18.7145,29.1509],
[18.8703,29.3438],
[18.7236,29.5366],
[18.7298,29.7937],
[18.8056,29.7937],
[18.8944,30.3079],
[18.8961,30.3722],
[18.5925,30.3722],
[18.2223,30.7578],
[17.4695,31.0791],
[16.1786,31.2076],
[15.649,31.4005],
[15.576,31.5933],
[15.4246,31.6575],
[15.2823,32.3002],
[15.0551,32.4288],
[14.7493,32.4288],
[14.6747,32.5574],
[14.4444,32.4931],
[14.0652,32.7502],
[13.7591,32.7502],
[13.7605,32.8788],
[13.4537,32.8145],
[13.3017,32.943],
[12.8418,32.8788],
[12.8408,32.7502],
[12.5347,32.7502],
[12.6121,32.8788],
[12.229,32.8145],
[11.4644,33.2002],
[11.1578,33.2002],
[11.0815,33.5859],
[10.6977,33.5217],
[10.544,33.7146],
[10.2368,33.7146],
[10.0058,33.9075],
[10.0817,34.229],
[10.0045,34.2933],
[10.543,34.5506],
[10.8512,34.8079],
[10.8512,34.9366],
[11.0828,35.001],
[11.0057,35.3871],
[11.083,35.3871],
[11.0832,35.5802],
[10.9284,35.5802],
[10.851,35.7733],
[10.6962,35.7089],
[10.4635,35.902],
[10.5403,36.3528],
[10.4625,36.4172],
[11.0062,36.8037],
[11.0063,36.9971],
[10.4618,36.7393],
[10.2284,36.8037],
[10.3054,37.0615],
[10.2276,37.0615],
[10.227,37.2549],
[9.9934,37.1904],
[9.6031,37.3193],
[9.0595,37.0615],
[8.9032,37.126],
[8.5164,36.8682],
[7.7383,36.8682],
[7.6587,36.9971],
[7.3463,37.0615],
[7.1937,36.8682],
[6.8047,36.8682],
[6.3339,37.0615],
[6.103,36.9326],
[6.1058,36.8037],
[5.6391,36.8037],
[5.5643,36.6749],
[5.3295,36.7393],
[5.4662,36.4263],
[5.3182,36.1002]
]
],
[
[
[16.5739,41.1977],
[16.6471,41.0032],
[16.8852,41.0032],
[16.8896,41.1328],
[16.5739,41.1977]
]
],
[
[
[17.1077,40.5496],
[17.3452,40.5496],
[17.343,40.4849],
[17.4221,40.4849],
[17.4244,40.5496],
[17.5036,40.5496],
[17.5059,40.6144],
[17.1913,40.6792],
[17.1077,40.5496]
]
]
]}
}
