{
"type": "Feature",
"properties": {"id":"cliopatria-galicia-volhynia-1294","edge_precision":"unknown","cliopatria_name":"Galicia-Volhynia","cliopatria_from_year":1294,"cliopatria_to_year":1304,"cliopatria_area_km2":132428,"cliopatria_wikidata":"Q239502","cliopatria_wikipedia":"Kingdom of Galicia-Volhynia"},
"geometry": {"type": "MultiPolygon", "coordinates": [
[
[
[21.3808,49.3826],
[21.5283,49.1175],
[22.341,48.8527],
[22.3105,48.4559],
[22.3885,48.3899],
[23.0361,48.1917],
[23.1083,48.0597],
[23.7593,47.9278],
[24.6689,47.9278],
[24.7398,47.7959],
[24.9876,47.7959],
[25.0118,48.0597],
[25.6295,48.4559],
[25.5659,48.6542],
[25.2463,48.7865],
[25.2656,48.9851],
[25.9522,49.1838],
[26.2233,49.3826],
[26.1896,49.8471],
[26.0293,49.9136],
[25.967,50.113],
[25.7992,50.113],
[25.8208,50.3125],
[25.6599,50.3791],
[25.6963,50.7121],
[25.9641,50.8455],
[25.9868,51.0457],
[26.0254,51.3797],
[25.5324,51.5134],
[25.6176,52.2505],
[25.5324,52.2505],
[25.4492,52.99],
[25.2777,52.99],
[25.2617,52.8554],
[24.5841,52.9227],
[24.4759,52.7208],
[24.0481,52.7208],
[23.7343,52.99],
[23.2407,53.1922],
[22.6462,53.2596],
[22.4288,52.7881],
[22.3432,52.7881],
[22.4224,52.7208],
[22.2929,52.2505],
[22.1042,52.0492],
[22.3534,51.9822],
[22.2441,51.7142],
[22.2872,51.246],
[22.6016,50.9789],
[22.5898,50.8455],
[22.9091,50.6455],
[22.9636,50.3125],
[22.946,50.113],
[22.2583,49.9136],
[22.1585,49.7143],
[21.9911,49.7143],
[21.6413,49.5152],
[21.3906,49.5152],
[21.3808,49.3826]
]
]
]}
}
