{
"type": "Feature",
"properties": {"id":"cliopatria-sui-dynasty-0617","edge_precision":"unknown","cliopatria_name":"Sui Dynasty","cliopatria_from_year":617,"cliopatria_to_year":622,"cliopatria_area_km2":3278606,"cliopatria_wikidata":"Q7405","cliopatria_wikipedia":"Sui dynasty","cliopatria_seshat_id":"cn_sui_dyn"},
"geometry": {"type": "MultiPolygon", "coordinates": [
[
[
[93.0905,39.9023],
[93.2734,39.7729],
[93.22,39.6436],
[93.2988,39.6436],
[93.2458,39.5143],
[93.3505,39.385],
[93.8759,39.5143],
[94.5849,39.5143],
[95.0556,39.3203],
[95.3185,39.385],
[95.3955,39.1911],
[95.5528,39.1911],
[95.813,38.868],
[96.3618,38.6743],
[96.7021,38.7389],
[96.7325,39.1911],
[96.6538,39.1911],
[96.7629,39.4496],
[97.2078,39.385],
[97.9088,38.9972],
[98.2231,38.9972],
[98.3841,39.1911],
[98.9068,39.1265],
[99.1984,39.2557],
[99.8104,38.4806],
[100.2264,38.3515],
[100.4138,38.6097],
[100.8745,38.0288],
[101.2387,37.9643],
[101.2634,37.8352],
[101.5492,37.7707],
[101.7037,37.5773],
[102.0961,37.7707],
[102.094,37.5773],
[102.2485,37.3838],
[102.9742,37.0615],
[103.1033,36.8037],
[103.2589,36.8037],
[103.3886,36.546],
[103.6479,36.4172],
[103.5967,36.2884],
[103.7278,36.0308],
[103.63,35.5802],
[103.7353,35.4514],
[103.3856,34.1004],
[103.4928,33.9718],
[103.21,33.3931],
[102.5516,33.2645],
[101.6869,32.7502],
[101.6654,32.6859],
[101.138,31.529],
[100.9202,30.565],
[100.9962,30.565],
[100.9394,30.3722],
[101.0153,30.3722],
[100.9592,30.1794],
[101.0553,29.9865],
[100.9824,29.7294],
[101.0581,29.7294],
[101.062,29.4723],
[101.1956,29.4081],
[101.3656,28.6367],
[101.6958,27.8652],
[101.584,26.7723],
[101.8093,26.7723],
[102.1405,26.5794],
[102.1432,26.258],
[102.054,26.1937],
[102.204,26.1937],
[102.2506,26.0651],
[102.5505,26.0651],
[102.9078,26.3222],
[103.1934,26.258],
[103.4622,26.4508],
[103.5067,26.6437],
[103.4317,26.6437],
[103.3593,27.2866],
[103.2841,27.2866],
[103.2882,27.6081],
[103.3204,27.7367],
[103.4548,27.6724],
[103.6379,27.8009],
[103.9635,28.1867],
[103.9973,28.3153],
[103.8635,28.3795],
[103.9905,28.5724],
[104.6351,28.4438],
[104.2569,27.8652],
[104.4335,27.6724],
[104.617,27.8009],
[105.1276,27.7367],
[105.5126,28.0581],
[105.5231,28.3795],
[106.1441,28.4438],
[106.2426,28.251],
[106.1327,28.1224],
[106.2081,28.1224],
[106.1818,27.7367],
[106.4591,27.3509],
[106.6096,27.3509],
[106.9048,27.0295],
[107.9089,26.8366],
[107.9651,26.4508],
[108.3095,26.3222],
[108.0873,24.6506],
[107.7593,24.1363],
[107.1495,24.072],
[106.4664,23.622],
[106.1561,23.5577],
[105.7641,23.0434],
[105.2716,22.7863],
[105.2379,22.5934],
[104.874,22.2077],
[105.128,21.9505],
[105.0956,21.7577],
[104.9255,21.6291],
[104.9785,21.5005],
[104.8513,21.1791],
[105.0956,20.8577],
[104.873,20.8577],
[104.9053,20.6005],
[104.6191,20.6648],
[104.4396,20.472],
[104.9806,20.1505],
[104.8648,19.8934],
[104.9921,19.7648],
[104.9724,19.1862],
[105.1423,18.8648],
[105.0373,18.6719],
[105.1851,18.6719],
[105.1438,18.4148],
[105.6628,17.9648],
[105.7059,17.7719],
[105.7797,17.7719],
[105.874,17.9005],
[106.2432,17.9005],
[106.2965,17.7719],
[106.5179,17.7719],
[106.5696,18.0933],
[106.2949,18.2219],
[106.1783,18.4148],
[106.0305,18.4148],
[106.0513,18.5434],
[105.7339,18.8648],
[105.9128,19.5077],
[105.8493,19.5719],
[106.0606,19.9577],
[106.5369,20.1505],
[106.6854,20.6005],
[106.8337,20.6005],
[106.8764,20.8577],
[107.4174,20.9862],
[107.7903,21.4363],
[108.5552,21.5648],
[108.6517,21.6934],
[109.0864,21.6291],
[109.1162,21.372],
[109.807,21.5005],
[109.8701,21.4363],
[109.696,20.8577],
[109.7702,20.8577],
[109.7895,20.5362],
[109.9268,20.472],
[109.8829,20.2148],
[110.4869,20.2791],
[110.6163,20.6005],
[110.3638,20.8577],
[110.4825,21.1148],
[110.4194,21.1791],
[110.7164,21.1791],
[110.7389,21.3077],
[110.9842,21.4363],
[111.6641,21.5005],
[111.8585,21.7577],
[112.4415,21.6934],
[112.7736,21.8863],
[113.071,21.8863],
[113.1063,22.0791],
[113.3175,22.0148],
[113.4156,22.1434],
[113.6387,22.1434],
[113.6987,22.4648],
[113.5985,22.722],
[113.7474,22.722],
[113.7852,22.5291],
[113.9963,22.4648],
[113.9986,22.0791],
[114.3704,22.0791],
[114.5311,22.1434],
[114.6408,22.722],
[114.7527,22.5291],
[114.9016,22.5291],
[115.1744,22.7863],
[115.3729,22.6577],
[115.6706,22.6577],
[115.6956,22.7863],
[116.54,22.9148],
[116.5914,23.172],
[116.815,23.172],
[116.7796,23.3649],
[116.8939,23.5577],
[117.1788,23.4934],
[117.47,23.8149],
[117.6938,23.8149],
[117.7213,23.9435],
[118.0757,24.2006],
[118.1474,24.5221],
[118.7597,24.5864],
[118.8191,24.8435],
[119.0737,24.9721],
[119.0295,25.1007],
[119.3442,25.165],
[119.3911,25.3579],
[119.2731,25.4864],
[119.4229,25.4864],
[119.466,25.3579],
[119.8721,25.4864],
[119.9044,25.615],
[119.5299,25.615],
[119.7784,26.0008],
[119.587,26.1294],
[119.9381,26.3222],
[119.8399,26.5151],
[120.1577,26.5794],
[120.2108,26.7723],
[120.0606,26.7723],
[120.0964,26.9009],
[120.2467,26.9009],
[120.3947,27.158],
[120.545,27.158],
[120.7325,27.5438],
[120.6573,27.5438],
[120.7146,27.7367],
[120.8677,27.9938],
[121.0382,28.0581],
[121.118,28.3153],
[121.1934,28.3153],
[121.1533,28.1867],
[121.6459,28.3153],
[121.6521,28.5724],
[121.5218,28.6367],
[121.7143,28.7652],
[121.7443,29.0867],
[121.5389,29.1509],
[121.5932,29.5366],
[121.7984,29.4723],
[121.7116,29.2152],
[121.9384,29.2152],
[122.0035,29.4081],
[121.9279,29.4081],
[122.016,29.6652],
[121.8645,29.6652],
[122.0298,29.9223],
[121.6202,30.0508],
[121.4841,30.3079],
[121.1047,30.3079],
[120.8088,30.1151],
[120.6798,30.1794],
[121.0453,30.565],
[121.1972,30.565],
[121.5192,30.822],
[121.8993,30.822],
[121.9953,31.0791],
[121.7366,31.4005],
[121.5843,31.4005],
[121.6335,31.529],
[121.4811,31.529],
[121.4544,31.6575],
[120.8942,31.7861],
[121.3005,31.8503],
[121.8356,31.6575],
[121.987,31.8503],
[121.7832,32.1074],
[121.5033,32.1717],
[121.4026,32.4931],
[120.9192,32.6216],
[120.9263,33.2002],
[120.5505,33.5859],
[120.4894,34.1647],
[120.3418,34.3577],
[119.7323,34.5506],
[119.7113,34.6793],
[119.4309,34.7436],
[119.459,34.8079],
[119.2276,34.8079],
[119.6187,35.5158],
[119.9865,35.6445],
[120.3185,36.0308],
[120.6585,36.0952],
[120.7318,36.4172],
[120.9648,36.4172],
[120.9789,36.6105],
[121.2121,36.6105],
[121.9121,36.9326],
[122.3939,36.8037],
[122.5664,36.9971],
[122.4742,37.126],
[122.7129,37.4483],
[122.1211,37.5128],
[122.1535,37.5773],
[121.4969,37.5128],
[121.4833,37.6417],
[121.171,37.6417],
[121.112,37.8352],
[120.7538,37.8998],
[120.1881,37.7062],
[120.2022,37.5773],
[119.8266,37.4483],
[119.7011,37.1904],
[119.1557,37.1904],
[119.14,37.3193],
[118.984,37.3193],
[119.2366,37.8352],
[119.3928,37.8352],
[119.4571,37.9643],
[118.7718,38.1578],
[118.8042,38.2224],
[118.6476,38.2224],
[118.583,38.0933],
[118.0674,38.1578],
[118.0536,38.2869],
[117.6025,38.4806],
[117.6549,38.7389],
[117.5764,38.7389],
[117.8884,39.1911],
[118.0457,39.1911],
[118.0569,39.0618],
[118.4498,39.0618],
[119.2153,39.3203],
[119.3804,39.7729],
[120.5003,40.2259],
[120.6473,40.4849],
[121.1891,40.8736],
[121.8237,40.8736],
[121.9363,41.1977],
[122.49,41.4571],
[122.6084,41.7816],
[122.5287,41.7816],
[122.5686,41.8465],
[122.3294,41.8465],
[122.3693,41.9114],
[121.9705,41.9114],
[121.3733,41.7167],
[120.7803,41.3922],
[120.3542,40.9384],
[120.0786,40.8736],
[119.5452,40.3554],
[118.9983,40.2259],
[118.603,40.2259],
[118.6389,40.2906],
[118.0781,40.4201],
[118.0713,40.5496],
[117.9129,40.5496],
[117.8271,40.6792],
[117.9002,40.8088],
[117.7782,40.8736],
[117.8467,41.1328],
[117.7623,41.2625],
[117.6033,41.2625],
[117.5986,41.3922],
[117.36,41.3922],
[117.3975,41.4571],
[115.7635,41.522],
[113.1334,40.9384],
[111.2738,40.8736],
[111.3084,40.9384],
[110.8323,40.9384],
[110.8668,41.0032],
[109.7898,41.068],
[109.3247,40.9384],
[109.2234,40.744],
[109.3149,40.6144],
[109.4733,40.6144],
[109.4857,40.4849],
[111.9509,40.3554],
[112.0414,40.2259],
[111.8953,40.0964],
[111.9077,39.967],
[111.6837,39.8376],
[111.3925,39.2557],
[111.518,39.1911],
[111.1562,38.9326],
[111.0186,38.4806],
[110.6748,38.416],
[110.3979,38.1578],
[109.0778,37.8352],
[108.1401,37.8352],
[107.9029,38.3515],
[107.5113,38.3515],
[107.4426,38.5451],
[106.8154,38.5451],
[106.1647,37.9643],
[105.433,37.8998],
[104.541,37.6417],
[104.3616,37.7707],
[103.5569,37.8998],
[103.405,38.0933],
[102.6042,38.416],
[102.4026,38.6743],
[102.1169,38.7389],
[102.1232,38.9326],
[101.6301,39.0618],
[101.4799,39.2557],
[101.5375,39.385],
[101.438,39.5143],
[101.2804,39.5143],
[101.2599,39.6436],
[100.7372,39.7083],
[100.3809,39.967],
[100.1441,39.967],
[100.1735,40.0317],
[99.3837,40.0317],
[99.2842,40.1612],
[98.9184,40.2259],
[98.9478,40.2906],
[98.5026,40.3554],
[98.2745,40.5496],
[98.0369,40.5496],
[97.8881,40.744],
[97.1843,40.9384],
[97.2141,41.0032],
[95.2297,41.0032],
[93.8455,40.744],
[93.5745,40.4849],
[93.3649,40.5496],
[93.2781,40.1612],
[93.199,40.1612],
[93.0905,39.9023]
]
],
[
[
[106.0816,23.5577],
[106.1561,23.5577],
[106.1681,23.622],
[106.0935,23.622],
[106.0816,23.5577]
]
],
[
[
[108.6382,18.5434],
[108.7646,18.4148],
[109.1233,18.3505],
[109.2497,18.2219],
[109.8406,18.2219],
[109.8622,18.3505],
[110.1794,18.4791],
[110.1903,18.5434],
[110.5078,18.6719],
[110.6806,19.2505],
[110.8507,19.3791],
[110.8839,19.5719],
[111.0319,19.5719],
[111.0874,19.8934],
[110.9095,20.1505],
[110.613,20.1505],
[110.591,20.022],
[110.1574,20.0862],
[109.2464,19.9577],
[109.2028,19.7005],
[108.7043,19.3791],
[108.6382,18.5434]
]
],
[
[
[121.9766,29.9865],
[122.2798,29.9865],
[122.2726,30.1794],
[122.045,30.1794],
[121.9766,29.9865]
]
]
]}
}
