{
"type": "Feature",
"properties": {"id":"cliopatria-republic-of-china-1932","edge_precision":"unknown","cliopatria_name":"Republic of China","cliopatria_from_year":1932,"cliopatria_to_year":1935,"cliopatria_area_km2":6838296,"cliopatria_wikidata":"Q148","cliopatria_wikipedia":"Republic of China (1912-1949)","cliopatria_seshat_id":"cn_chinese_rep"},
"geometry": {"type": "MultiPolygon", "coordinates": [
[
[
[73.6104,39.1911],
[73.787,38.9972],
[73.768,38.6743],
[73.9647,38.5451],
[74.1603,38.6743],
[74.4741,38.6743],
[74.8665,38.416],
[74.7893,38.1578],
[74.8676,38.1578],
[74.8695,37.8998],
[75.0284,37.6417],
[74.9724,37.4483],
[75.0504,37.4483],
[74.917,37.2549],
[74.5869,37.1904],
[74.5506,37.0615],
[75.311,36.9971],
[75.4119,36.8037],
[75.7826,36.7393],
[76.0029,36.4172],
[76.0209,36.4816],
[76.2358,36.4172],
[76.2774,36.2884],
[76.8026,36.224],
[76.8081,35.9664],
[76.9274,35.8377],
[77.5886,35.7089],
[77.6481,35.6445],
[77.5173,35.4514],
[77.9814,35.4514],
[78.0945,35.5802],
[78.4221,35.6445],
[78.4766,35.8377],
[78.9783,35.9664],
[79.4433,35.9664],
[79.7379,35.6445],
[80.1469,35.4514],
[81.4804,35.5158],
[81.6749,35.3871],
[82.0219,35.5158],
[82.3498,35.8377],
[82.7371,35.8377],
[82.8147,35.5802],
[83.279,35.5802],
[83.8794,35.7733],
[84.634,35.7089],
[85.0036,35.902],
[85.701,35.902],
[85.8929,35.7733],
[86.2434,35.902],
[86.5221,36.2884],
[86.7968,36.4172],
[87.2417,36.3528],
[88.6694,36.6749],
[89.7138,36.546],
[89.9807,36.4172],
[90.1481,36.224],
[89.8425,35.7733],
[89.9199,35.7733],
[89.8916,35.4514],
[90.0463,35.4514],
[89.9626,35.194],
[90.0755,35.0653],
[89.8343,34.5506],
[90.3462,33.9718],
[90.9412,33.9075],
[91.212,34.0361],
[91.2654,33.7146],
[91.6863,33.5859],
[91.6268,33.3931],
[91.7782,33.1359],
[91.6812,32.8145],
[91.5473,32.6216],
[91.2989,32.5574],
[91.2425,32.3645],
[91.7975,32.1717],
[91.7996,31.9146],
[92.0313,31.6575],
[92.0351,31.4005],
[92.1694,31.3362],
[92.1337,31.2076],
[92.2681,31.1434],
[92.332,30.822],
[92.4666,30.7578],
[92.4146,30.565],
[92.608,30.4364],
[92.5738,30.3079],
[92.4221,30.3079],
[92.3548,30.0508],
[92.4306,30.0508],
[92.4074,29.6652],
[92.6346,29.6652],
[92.6454,29.4081],
[92.7807,29.3438],
[92.7488,29.2152],
[92.5061,29.1509],
[92.4591,28.9581],
[92.6103,28.9581],
[92.7904,28.7652],
[93.0169,28.7652],
[93.182,28.5081],
[93.4545,28.701],
[93.9231,28.7652],
[94.58,29.2795],
[95.4385,29.0867],
[95.7311,29.3438],
[96.2017,29.4081],
[96.3196,29.2795],
[96.2536,29.0224],
[96.5559,29.0224],
[96.658,28.8295],
[96.3673,28.5724],
[96.3954,28.3795],
[96.8638,28.4438],
[97.2691,28.251],
[97.5111,28.3153],
[97.5589,28.5081],
[97.9796,28.3795],
[98.1581,28.1867],
[98.26,27.6724],
[98.5612,27.6724],
[98.7414,27.4795],
[98.7623,26.5794],
[98.8374,26.5794],
[98.6732,25.8079],
[98.1714,25.5507],
[98.1331,25.3579],
[97.8709,25.165],
[97.8218,24.9078],
[97.6482,24.7792],
[97.5891,24.4578],
[97.79,24.3292],
[97.647,23.9435],
[98.8754,24.1363],
[98.7326,23.7506],
[98.8707,23.6863],
[98.9429,23.2363],
[99.5704,22.9791],
[99.2854,22.1434],
[99.9444,22.0791],
[100.0726,21.9505],
[100.0318,21.6934],
[100.2243,21.5005],
[100.7443,21.5005],
[101.1567,21.7577],
[101.1798,21.4363],
[101.3182,21.372],
[101.3619,21.1791],
[101.8074,21.1791],
[101.8792,21.6291],
[101.6443,22.0148],
[101.7182,22.4648],
[102.154,22.4005],
[102.5802,22.722],
[102.867,22.6577],
[102.9197,22.5291],
[103.2173,22.5291],
[103.3247,22.722],
[103.7713,22.722],
[103.8871,22.5291],
[104.036,22.5291],
[104.1547,22.7863],
[104.5158,22.722],
[104.8361,22.8506],
[104.9561,23.1077],
[105.2143,23.3006],
[105.4379,23.3006],
[105.7526,22.9791],
[106.1995,22.9791],
[106.3254,22.8506],
[106.7093,22.9148],
[106.6702,22.272],
[106.6591,22.2077],
[107.1022,21.7577],
[107.4627,21.6934],
[107.5894,21.5648],
[107.9719,21.6291],
[108.0984,21.5005],
[108.1727,21.5005],
[108.5552,21.5648],
[108.6517,21.6934],
[109.0864,21.6291],
[109.1162,21.372],
[109.807,21.5005],
[109.8701,21.4363],
[109.696,20.8577],
[109.7702,20.8577],
[109.7895,20.5362],
[109.9268,20.472],
[109.8829,20.2148],
[110.572,20.3434],
[110.6163,20.6005],
[110.3638,20.8577],
[110.4825,21.1148],
[110.4083,21.1148],
[110.1967,21.1791],
[110.3382,21.5648],
[110.6354,21.5648],
[110.8244,21.372],
[110.8986,21.372],
[111.6641,21.5005],
[111.8585,21.7577],
[112.4415,21.6934],
[112.7736,21.8863],
[113.071,21.8863],
[113.1063,22.0791],
[113.3175,22.0148],
[113.4514,22.3363],
[113.6866,22.4005],
[113.5985,22.722],
[113.7474,22.722],
[113.7852,22.5291],
[113.9219,22.4648],
[113.9963,22.4648],
[114.3184,22.5934],
[114.6039,22.5291],
[114.6408,22.722],
[114.7527,22.5291],
[114.9016,22.5291],
[115.1744,22.7863],
[115.3729,22.6577],
[115.6706,22.6577],
[115.6956,22.7863],
[116.54,22.9148],
[116.5914,23.172],
[116.815,23.172],
[116.7796,23.3649],
[116.8939,23.5577],
[117.1788,23.4934],
[117.47,23.8149],
[117.6938,23.8149],
[117.7213,23.9435],
[118.0757,24.2006],
[118.1474,24.5221],
[118.7597,24.5864],
[118.8191,24.8435],
[119.0737,24.9721],
[119.0295,25.1007],
[119.3442,25.165],
[119.3911,25.3579],
[119.2731,25.4864],
[119.4229,25.4864],
[119.466,25.3579],
[119.8721,25.4864],
[119.9044,25.615],
[119.5299,25.615],
[119.7784,26.0008],
[119.587,26.1294],
[119.9381,26.3222],
[119.8399,26.5151],
[120.1577,26.5794],
[120.2108,26.7723],
[120.0606,26.7723],
[120.0964,26.9009],
[120.2467,26.9009],
[120.3947,27.158],
[120.545,27.158],
[120.7325,27.5438],
[120.6573,27.5438],
[120.7146,27.7367],
[120.8677,27.9938],
[121.0382,28.0581],
[121.118,28.3153],
[121.1934,28.3153],
[121.1533,28.1867],
[121.6459,28.3153],
[121.6521,28.5724],
[121.5218,28.6367],
[121.7143,28.7652],
[121.7443,29.0867],
[121.5389,29.1509],
[121.647,29.4723],
[121.5713,29.4723],
[121.7446,29.5366],
[121.7116,29.2152],
[121.9384,29.2152],
[122.016,29.6652],
[121.8645,29.6652],
[122.0298,29.9223],
[121.6202,30.0508],
[121.4841,30.3079],
[121.1047,30.3079],
[120.8088,30.1151],
[120.6798,30.1794],
[121.0453,30.565],
[121.1972,30.565],
[121.5192,30.822],
[121.8993,30.822],
[121.9953,31.0791],
[121.7366,31.4005],
[121.5843,31.4005],
[121.9135,31.4647],
[121.9631,31.5933],
[121.8356,31.6575],
[121.9368,31.7218],
[121.9613,31.9789],
[121.5033,32.1717],
[121.4026,32.4931],
[120.9192,32.6216],
[120.9263,33.2002],
[120.5505,33.5859],
[120.4894,34.1647],
[120.3418,34.3577],
[119.7323,34.5506],
[119.7113,34.6793],
[119.4309,34.7436],
[119.459,34.8079],
[119.2276,34.8079],
[119.6187,35.5158],
[119.7735,35.5158],
[120.2591,35.902],
[120.3185,36.0308],
[120.1157,36.0952],
[120.1755,36.224],
[120.2531,36.224],
[120.3133,36.3528],
[120.7015,36.3528],
[120.7318,36.4172],
[120.9648,36.4172],
[120.9789,36.6105],
[121.2121,36.6105],
[121.9121,36.9326],
[122.3939,36.8037],
[122.5664,36.9971],
[122.4742,37.126],
[122.7129,37.4483],
[122.1211,37.5128],
[122.1535,37.5773],
[121.4969,37.5128],
[121.4833,37.6417],
[121.171,37.6417],
[121.112,37.8352],
[120.7538,37.8998],
[120.1881,37.7062],
[120.2022,37.5773],
[119.8266,37.4483],
[119.7011,37.1904],
[119.1557,37.1904],
[119.14,37.3193],
[118.984,37.3193],
[119.2366,37.8352],
[119.3928,37.8352],
[119.4571,37.9643],
[118.7718,38.1578],
[118.8042,38.2224],
[118.6476,38.2224],
[118.583,38.0933],
[118.0674,38.1578],
[118.0536,38.2869],
[117.6025,38.4806],
[117.6425,38.868],
[117.3739,38.8034],
[117.341,38.7389],
[117.2625,38.7389],
[117.3615,38.9326],
[117.709,38.9972],
[117.7425,39.0618],
[117.8884,39.1911],
[118.0457,39.1911],
[118.0569,39.0618],
[118.9894,39.1911],
[119.2153,39.3203],
[119.3804,39.7729],
[119.767,39.9023],
[119.8027,39.967],
[119.5879,40.2906],
[119.4297,40.2906],
[119.3808,40.4849],
[118.8205,40.6144],
[118.7355,40.744],
[118.577,40.744],
[118.6138,40.8088],
[117.9428,40.744],
[117.8576,40.8736],
[116.985,40.8736],
[116.8567,41.068],
[116.5758,41.1328],
[116.6126,41.1977],
[116.3009,41.068],
[115.9039,41.068],
[115.818,41.1977],
[115.6591,41.1977],
[115.6957,41.2625],
[115.5367,41.2625],
[115.5733,41.3274],
[115.3348,41.3274],
[115.4082,41.4571],
[115.09,41.4571],
[115.1637,41.5869],
[114.9987,41.7167],
[115.5805,42.1712],
[116.4975,42.2362],
[116.5744,42.3662],
[116.4092,42.6262],
[116.1276,42.6912],
[116.0412,43.0816],
[115.8806,43.0816],
[115.9975,43.4072],
[115.8366,43.4072],
[115.9557,43.6027],
[116.3578,43.9938],
[116.8428,44.1243],
[116.9244,44.2548],
[116.8445,44.3854],
[117.1298,44.5813],
[117.4125,44.516],
[117.3712,44.4507],
[117.7759,44.4507],
[118.2271,44.7773],
[118.6033,45.235],
[118.4407,45.235],
[118.5681,45.4313],
[118.9021,45.6933],
[119.3146,45.8243],
[119.7586,46.6115],
[118.6166,46.7429],
[117.4191,46.5459],
[117.1258,46.3489],
[116.7164,46.3489],
[116.4673,46.2177],
[116.1297,45.6933],
[115.8832,45.5623],
[115.1889,45.3659],
[114.7417,45.4313],
[113.6859,44.7773],
[113.1182,44.7773],
[113.1581,44.8426],
[112.9148,44.8426],
[112.9547,44.908],
[112.3849,45.0388],
[112.4247,45.1042],
[112.0185,45.1042],
[111.7768,44.9734],
[111.385,44.3201],
[111.5468,44.3201],
[111.592,44.1243],
[111.7536,44.1243],
[111.9637,43.7982],
[111.8868,43.6678],
[110.8166,43.2118],
[110.2792,42.6912],
[109.3332,42.4312],
[107.8132,42.4312],
[106.8631,42.3012],
[104.8123,41.5869],
[104.8456,41.6518],
[104.527,41.6518],
[104.4678,41.8465],
[103.7169,41.7816],
[103.7502,41.8465],
[103.2251,41.9114],
[103.2583,41.9764],
[102.2869,42.1063],
[102.32,42.1712],
[101.8269,42.3012],
[101.8133,42.4312],
[101.5266,42.4962],
[101.5599,42.5612],
[98.918,42.5612],
[98.9504,42.6262],
[98.1495,42.6262],
[98.1817,42.6912],
[97.701,42.6912],
[97.7331,42.7563],
[96.5794,42.6912],
[96.4825,42.8213],
[96.3222,42.8213],
[96.2087,43.0816],
[96.0481,43.0816],
[96.0316,43.2118],
[95.8708,43.2118],
[95.774,43.3421],
[95.8381,43.4723],
[95.7093,43.5375],
[95.7737,43.6678],
[95.5323,43.9938],
[95.3226,44.0591],
[95.3393,44.2548],
[94.8058,44.3201],
[94.709,44.4507],
[94.5471,44.4507],
[94.5795,44.516],
[94.4176,44.516],
[94.4501,44.5813],
[93.9477,44.7119],
[93.8016,44.908],
[93.5582,44.908],
[93.5905,44.9734],
[91.7549,45.0388],
[91.7867,45.1042],
[91.0056,45.1696],
[90.9061,45.3004],
[90.7434,45.3004],
[90.5938,45.4968],
[90.9944,46.1521],
[90.9126,46.1521],
[91.0086,46.6772],
[90.1732,47.7959],
[89.711,47.8619],
[89.6129,47.9938],
[89.0338,47.9938],
[88.9353,48.1257],
[88.7697,48.1257],
[88.8033,48.1917],
[88.6376,48.1917],
[88.622,48.3238],
[88.324,48.3899],
[88.3085,48.522],
[88.0595,48.522],
[87.8969,48.8527],
[87.7305,48.8527],
[87.7844,49.1175],
[86.8677,49.1175],
[86.649,48.8527],
[86.7817,48.7865],
[86.5985,48.5881],
[85.6375,48.3238],
[85.464,47.7959],
[85.6169,47.5982],
[85.5541,47.4665],
[85.7387,47.3348],
[85.6764,47.2032],
[85.1418,46.9401],
[83.9092,46.9401],
[83.9394,47.0058],
[83.6106,47.0058],
[83.5062,47.1374],
[83.3417,47.1374],
[83.3718,47.2032],
[83.0426,47.2032],
[82.3148,45.5623],
[82.7183,45.3659],
[82.5521,45.1696],
[81.9018,45.1696],
[81.7951,45.3004],
[81.3883,45.3004],
[79.9509,44.9734],
[79.9779,44.8426],
[80.4103,44.7119],
[80.3023,44.4507],
[80.3832,44.4507],
[80.3572,43.9938],
[80.7354,43.5375],
[80.6825,43.4072],
[80.7907,43.2769],
[80.6317,43.0816],
[80.4711,43.0816],
[80.4734,42.8864],
[80.2872,42.8213],
[80.1424,42.0413],
[78.7746,41.5869],
[78.0283,41.068],
[76.8937,41.0032],
[76.4537,40.4201],
[76.2734,40.3554],
[75.777,40.2906],
[75.6406,40.3554],
[75.6489,40.6144],
[75.4905,40.6144],
[75.1875,40.4201],
[74.8926,40.4849],
[74.4693,40.1612],
[73.9325,39.967],
[73.8882,39.5789],
[73.7104,39.5143],
[73.6104,39.1911]
],
[
[106.819,28.701],
[106.8705,29.4081],
[107.5381,30.1151],
[108.018,30.4364],
[108.8391,30.6292],
[109.2059,30.822],
[110.6059,31.1434],
[112.0836,31.0148],
[112.192,30.8863],
[112.1485,30.7578],
[111.6538,30.1794],
[111.5779,30.1794],
[110.4268,29.4081],
[110.0471,28.6367],
[109.8229,28.3795],
[109.4851,28.251],
[108.8243,28.3153],
[108.8029,28.5081],
[108.5373,28.6367],
[108.3273,28.9581],
[107.9111,29.0867],
[107.5901,29.0224],
[107.0275,28.6367],
[106.819,28.701]
],
[
[107.169,32.236],
[107.5336,32.6216],
[107.8185,33.2002],
[108.1671,33.5217],
[108.5269,33.4574],
[108.4443,32.8145],
[108.9638,32.5574],
[109.2697,32.5574],
[109.5063,32.3645],
[109.5827,32.3645],
[109.8959,32.1717],
[109.8052,31.9146],
[109.5854,31.7218],
[109.1601,31.5933],
[108.5181,31.7218],
[108.1935,32.1074],
[107.3536,32.1074],
[107.169,32.236]
],
[
[113.528,32.4931],
[113.6959,33.1359],
[114.0261,33.3931],
[114.6394,33.5859],
[115.7394,33.4574],
[115.9445,33.5859],
[116.7645,33.7146],
[116.7889,33.5859],
[116.9424,33.5859],
[116.8124,33.0716],
[116.8891,33.0716],
[116.5432,31.9789],
[116.3425,31.8503],
[116.3186,31.7861],
[116.095,31.5933],
[115.462,31.529],
[115.0985,31.7861],
[114.7407,31.8503],
[114.6066,32.1074],
[113.8143,32.236],
[113.7857,32.3645],
[113.528,32.4931]
],
[
[113.5768,26.9652],
[113.7834,28.5081],
[114.1063,28.8295],
[115.1279,28.9581],
[115.2756,28.701],
[114.7272,27.8652],
[114.6808,27.158],
[114.7559,27.158],
[114.8543,26.9652],
[114.6775,26.5794],
[114.7525,26.5794],
[114.724,25.8722],
[114.4524,25.6793],
[114.0029,25.6793],
[113.7342,25.8079],
[113.695,26.258],
[113.62,26.258],
[113.6597,26.708],
[113.5846,26.708],
[113.6519,26.9652],
[113.5768,26.9652]
],
[
[114.7817,24.8435],
[115.2142,25.1007],
[115.5917,25.7436],
[115.1466,26.0651],
[115.1366,26.3222],
[115.5783,26.5794],
[115.7215,26.8366],
[115.8954,27.7367],
[116.2151,27.8009],
[116.4997,27.4795],
[116.7825,27.4152],
[116.8789,27.2223],
[117.6746,26.8366],
[117.6571,26.7723],
[117.7322,26.7723],
[117.6292,26.3865],
[117.7043,26.3865],
[117.5881,25.9365],
[117.1456,25.3579],
[116.8772,24.5221],
[116.5218,24.2649],
[116.0598,24.2006],
[115.0283,24.2649],
[114.9066,24.3935],
[114.7817,24.8435]
],
[
[116.7993,39.0618],
[117.0905,39.3203],
[117.0118,39.3203],
[117.0456,39.385],
[116.8881,39.385],
[117.1375,39.7083],
[117.2163,39.7083],
[117.4875,39.7729],
[117.3053,39.5789],
[117.3945,39.4496],
[117.3605,39.385],
[117.3043,39.1265],
[116.9688,38.9326],
[116.8447,38.9972],
[116.8779,39.0618],
[116.7993,39.0618]
],
[
[117.2943,28.6367],
[117.3745,28.8938],
[117.738,29.0867],
[117.9647,29.0867],
[118.5986,29.4081],
[119.0526,29.4081],
[119.1615,29.2795],
[119.1876,28.8938],
[119.4283,28.701],
[119.3878,28.5724],
[119.1768,28.3795],
[118.5932,28.4438],
[118.5177,28.4438],
[118.3112,28.5081],
[118.0453,28.3795],
[117.2943,28.6367]
],
[
[118.4181,27.6081],
[118.4935,27.8652],
[118.9279,28.0581],
[119.0033,28.0581],
[119.1735,28.1224],
[119.2853,27.9938],
[119.2839,27.7367],
[119.0581,27.4795],
[118.6634,27.4152],
[118.6252,27.5438],
[118.4181,27.6081]
]
],
[
[
[108.6382,18.5434],
[108.7646,18.4148],
[109.1233,18.3505],
[109.2497,18.2219],
[109.8406,18.2219],
[109.8622,18.3505],
[110.1794,18.4791],
[110.1903,18.5434],
[110.5078,18.6719],
[110.6806,19.2505],
[110.8507,19.3791],
[110.8839,19.5719],
[111.0319,19.5719],
[111.0874,19.8934],
[110.9095,20.1505],
[110.613,20.1505],
[110.591,20.022],
[110.1574,20.0862],
[109.2464,19.9577],
[109.2028,19.7005],
[108.7043,19.3791],
[108.6382,18.5434]
]
],
[
[
[121.9766,29.9865],
[122.2798,29.9865],
[122.2726,30.1794],
[122.045,30.1794],
[121.9766,29.9865]
]
]
]}
}
