{
"type": "Feature",
"properties": {"id":"cliopatria-champa-0875","edge_precision":"unknown","cliopatria_name":"Chámpa","cliopatria_from_year":875,"cliopatria_to_year":1027,"cliopatria_area_km2":130300,"cliopatria_wikidata":"Q216786","cliopatria_wikipedia":"Champa"},
"geometry": {"type": "MultiPolygon", "coordinates": [
[
[
[105.7696,17.7076],
[106.4163,17.129],
[106.3962,17.0005],
[106.5437,17.0005],
[106.5776,16.7433],
[106.5678,16.679],
[106.7053,16.6147],
[106.6857,16.4861],
[106.9706,16.4219],
[107.1527,16.1647],
[107.5016,16.0361],
[107.2976,15.6504],
[107.564,15.4575],
[107.5548,15.3933],
[107.6927,15.329],
[107.574,15.0075],
[107.6035,14.6861],
[107.4222,14.4289],
[107.3804,14.1075],
[107.6669,13.4646],
[107.5248,12.886],
[107.6419,12.6289],
[107.5398,12.3717],
[107.086,12.2432],
[106.8454,12.0503],
[106.8779,11.6646],
[107.058,11.2788],
[107.0324,11.0217],
[107.1056,11.0217],
[107.0499,10.4431],
[107.3364,10.3788],
[108.0253,10.7003],
[108.1173,10.8931],
[108.5691,11.0217],
[108.582,11.1503],
[108.7284,11.1503],
[109.0475,11.4074],
[109.0609,11.536],
[109.2141,11.6003],
[109.2251,12.3717],
[109.3203,12.5646],
[109.4669,12.5646],
[109.5119,12.9503],
[109.3306,13.2718],
[109.3544,14.0432],
[109.1764,14.3646],
[109.1553,14.7504],
[108.9706,15.0075],
[109.0164,15.329],
[108.6767,15.5218],
[108.6955,15.6504],
[108.3657,15.9076],
[108.3308,16.1647],
[108.1393,16.3576],
[107.8447,16.3576],
[107.8644,16.4861],
[107.6532,16.5504],
[107.6731,16.679],
[107.482,16.8719],
[107.4083,16.8719],
[107.1002,17.2576],
[106.7517,17.3862],
[106.5917,17.7719],
[106.2965,17.7719],
[106.2432,17.9005],
[105.874,17.9005],
[105.7797,17.7719],
[105.7696,17.7076]
]
]
]}
}
