{
"type": "Feature",
"properties": {"id":"cliopatria-maurya-empire-302bce","edge_precision":"unknown","cliopatria_name":"Maurya Empire","cliopatria_from_year":-301,"cliopatria_to_year":-292,"cliopatria_area_km2":2621865,"cliopatria_wikidata":"Q62943","cliopatria_wikipedia":"Maurya Empire","cliopatria_seshat_id":"in_mauryan_emp"},
"geometry": {"type": "MultiPolygon", "coordinates": [
[
[
[62.5634,25.2293],
[63.5362,25.2293],
[63.6262,25.3579],
[64.225,25.3579],
[64.2845,25.2293],
[64.8006,25.165],
[64.8161,25.2936],
[66.0215,25.3579],
[66.3451,25.5507],
[66.6791,25.2293],
[66.632,24.8435],
[67.2147,24.7149],
[67.2514,24.3935],
[67.3261,24.3935],
[67.2891,24.072],
[67.4384,24.072],
[67.4911,23.8792],
[67.6331,23.8149],
[68.1554,23.8149],
[68.1265,23.5577],
[68.4248,23.5577],
[68.8342,23.8792],
[68.8047,24.2649],
[69.5514,24.2649],
[69.76,24.1363],
[71.9013,23.9435],
[73.2049,23.622],
[73.6524,23.622],
[73.935,23.4934],
[74.0529,23.2363],
[74.3509,23.2363],
[74.767,22.9791],
[74.9905,22.9791],
[74.9751,22.8506],
[81.0068,22.272],
[81.6517,22.0791],
[84.8643,21.6291],
[85.5077,21.4363],
[85.9027,21.0505],
[86.0751,20.6648],
[86.0667,20.6005],
[86.1983,20.472],
[86.1565,20.1505],
[86.4362,20.022],
[86.5103,20.022],
[86.8404,20.2791],
[86.7915,20.472],
[87.0309,20.6005],
[86.9589,21.1791],
[86.8847,21.1791],
[87.0675,21.4363],
[87.762,21.6291],
[88.1033,21.9505],
[88.1777,21.9505],
[88.1335,21.6291],
[88.3477,21.5648],
[88.3653,21.6934],
[88.5139,21.6934],
[88.6416,22.0791],
[88.716,22.0791],
[88.728,21.6291],
[89.0995,21.6291],
[89.1173,21.7577],
[89.7118,21.7577],
[89.8695,21.822],
[89.8966,22.0148],
[90.232,21.7577],
[90.4263,22.0791],
[90.6494,22.0791],
[90.631,21.9505],
[90.8632,22.0148],
[90.9378,22.5291],
[91.2449,22.5934],
[91.4225,22.7863],
[91.497,22.7863],
[91.3654,22.4005],
[91.7374,22.4005],
[91.7648,22.0791],
[91.8948,21.9505],
[91.8302,21.5005],
[92.0531,21.5005],
[92.0074,21.1791],
[92.1195,20.922],
[92.3331,20.8577],
[92.3318,21.372],
[92.759,21.2434],
[92.7309,21.5648],
[92.6566,21.5648],
[92.7314,22.0791],
[92.6016,22.2077],
[92.6398,22.4648],
[92.4747,22.8506],
[92.5042,23.0434],
[92.4297,23.0434],
[92.3713,23.622],
[92.2324,23.6863],
[92.3174,23.7506],
[92.3058,24.1363],
[92.2311,24.1363],
[92.2633,24.3292],
[92.1139,24.3292],
[92.3517,24.8435],
[92.5241,24.9721],
[92.386,25.0364],
[92.4839,25.165],
[92.3343,25.165],
[92.2316,25.4221],
[92.0308,25.5507],
[92.0671,25.7436],
[91.9417,25.8722],
[92.0664,26.1294],
[91.929,26.1937],
[91.9083,26.8366],
[90.6312,26.8366],
[90.5956,27.0295],
[90.1711,27.158],
[90.2731,27.2866],
[90.0474,27.2866],
[90.0744,27.4152],
[89.76,27.3509],
[89.486,27.4795],
[89.3763,27.6724],
[88.9862,27.6081],
[88.9519,27.8009],
[88.7123,27.7367],
[88.589,27.8652],
[88.363,27.8652],
[88.3906,27.9938],
[87.3838,27.8652],
[86.6983,28.1867],
[85.8962,28.3153],
[85.8483,28.4438],
[85.2105,28.6367],
[84.7576,28.6367],
[84.4832,28.7652],
[84.2509,29.0867],
[84.0101,29.0224],
[83.7499,29.2152],
[83.5231,29.2152],
[83.49,29.4081],
[83.2488,29.3438],
[83.0502,29.4723],
[82.4589,29.5366],
[82.3359,29.6652],
[81.6971,29.858],
[81.3902,30.1794],
[81.1482,30.1151],
[80.9176,30.4364],
[80.3395,30.565],
[80.0484,30.9506],
[79.531,31.0148],
[79.1796,31.4647],
[78.8448,31.3362],
[78.8291,31.5933],
[78.6615,31.529],
[76.4634,32.236],
[76.0811,32.5574],
[76.0975,32.943],
[75.9443,32.943],
[75.9756,33.0716],
[75.838,33.1359],
[75.8245,33.3931],
[75.687,33.4574],
[75.6741,33.7146],
[75.5973,33.7146],
[75.6457,33.9075],
[75.3917,34.422],
[75.5184,34.615],
[75.3642,34.615],
[75.3874,35.001],
[75.1801,35.3871],
[75.1713,35.6445],
[75.0939,35.6445],
[74.958,36.2884],
[74.8804,36.2884],
[74.8914,36.6105],
[74.8137,36.6105],
[74.8439,36.9971],
[75.0134,37.3193],
[74.8574,37.3193],
[74.7384,37.4483],
[74.1924,37.4483],
[73.766,37.3193],
[73.7426,37.5128],
[73.1602,37.3838],
[72.4941,37.5128],
[72.4161,37.5128],
[71.825,37.0615],
[71.6612,36.7393],
[70.5886,35.5802],
[70.541,35.3871],
[69.8918,34.615],
[69.5384,34.422],
[69.4936,34.229],
[69.3249,34.1647],
[68.9778,33.6502],
[68.523,33.3288],
[67.1056,31.6575],
[66.7508,31.4005],
[66.0462,30.0508],
[65.6226,29.7937],
[65.4275,29.5366],
[65.1897,29.4723],
[65.1683,29.3438],
[64.738,29.0224],
[64.526,28.6367],
[64.365,28.5724],
[63.5919,27.4152],
[63.3625,26.8366],
[63.2038,26.7723],
[62.5634,25.2293]
]
],
[
[
[90.5956,27.0295],
[90.6707,27.0295],
[90.684,27.0938],
[90.6088,27.0938],
[90.5956,27.0295]
]
],
[
[
[90.6575,26.9652],
[90.7326,26.9652],
[90.7459,27.0295],
[90.6707,27.0295],
[90.6575,26.9652]
]
]
]}
}
