{
"type": "Feature",
"properties": {"id":"cliopatria-swedish-empire-1659","edge_precision":"unknown","cliopatria_name":"Swedish Empire","cliopatria_from_year":1659,"cliopatria_to_year":1661,"cliopatria_area_km2":945861,"cliopatria_wikidata":"Q215443","cliopatria_wikipedia":"Swedish Empire","cliopatria_seshat_id":"sv_swedish_emp"},
"geometry": {"type": "MultiPolygon", "coordinates": [
[
[
[6.915,63.0477],
[6.9216,62.8323],
[7.3937,62.6889],
[7.3956,62.6173],
[7.5876,62.4027],
[8.4282,62.3313],
[8.4293,62.2599],
[8.8019,62.2599],
[8.9861,62.4742],
[9.6395,62.4742],
[10.1992,62.3313],
[10.5729,62.4742],
[10.5743,62.6889],
[11.4162,62.6889],
[11.5997,62.4742],
[12.0649,62.4027],
[12.2483,62.2599],
[12.1444,61.7611],
[12.7834,61.406],
[12.7776,61.1935],
[12.312,60.9812],
[12.3072,60.7693],
[12.4891,60.6987],
[12.5721,60.3465],
[12.4807,60.3465],
[12.3829,60.0653],
[11.8322,59.8547],
[11.8298,59.7145],
[11.7389,59.7145],
[11.7332,59.3646],
[11.8226,59.2947],
[11.7321,59.2947],
[11.6363,58.9458],
[11.0963,59.0853],
[11.0956,59.0155],
[11.1793,58.3892],
[11.4477,58.3198],
[11.445,58.1116],
[11.7136,58.1116],
[11.7923,57.4199],
[12.058,57.3509],
[12.1418,57.0751],
[12.4052,56.9374],
[12.4023,56.7998],
[12.7531,56.6623],
[12.7499,56.525],
[12.5733,56.525],
[12.657,56.3191],
[12.4807,56.3191],
[12.4764,56.1136],
[12.908,55.7715],
[12.9031,55.5665],
[12.7264,55.4983],
[12.8108,55.3618],
[14.2969,55.3618],
[14.2287,55.9082],
[14.7584,55.9766],
[14.7667,56.1821],
[15.8197,56.1136],
[16.0907,56.2506],
[16.1934,56.525],
[16.2817,56.525],
[16.2669,56.2506],
[16.4431,56.2506],
[16.7232,56.525],
[16.7392,56.7998],
[17.1232,57.2819],
[17.1318,57.4199],
[16.9539,57.4199],
[16.7554,57.0751],
[16.4775,56.8686],
[16.501,57.2819],
[16.6869,57.4199],
[16.6141,57.6962],
[16.7033,57.6962],
[16.7116,57.8346],
[16.6263,57.9038],
[16.8136,58.0423],
[16.8306,58.3198],
[16.6596,58.4587],
[16.8393,58.4587],
[16.8479,58.5977],
[17.0278,58.5977],
[17.1268,58.7369],
[17.487,58.7369],
[17.4966,58.8761],
[17.9475,58.8761],
[18.1435,59.0853],
[18.4146,59.0853],
[18.3513,59.4345],
[18.6288,59.5045],
[18.8276,59.7145],
[19.0093,59.7145],
[19.0332,59.995],
[18.7773,60.2058],
[18.5034,60.2058],
[18.612,60.4168],
[17.2642,60.7693],
[17.2791,60.9812],
[17.1871,60.9812],
[17.2371,61.69],
[17.5149,61.69],
[17.3555,62.0459],
[17.5521,62.1885],
[17.5629,62.3313],
[17.3871,62.4742],
[17.7604,62.4742],
[17.9586,62.6173],
[17.9758,62.8323],
[18.3506,62.8323],
[18.4689,63.1195],
[18.7507,63.1195],
[19.1399,63.2634],
[19.3487,63.4796],
[19.7259,63.4796],
[19.8348,63.6239],
[20.4091,63.6961],
[20.6219,63.9131],
[20.8113,63.9131],
[21.1373,64.2756],
[21.535,64.4209],
[21.466,64.6393],
[21.2752,64.6393],
[21.3012,64.8581],
[21.2142,64.9311],
[21.615,65.0773],
[21.6512,65.3703],
[21.7566,65.4436],
[22.4401,65.5171],
[22.3828,65.8113],
[23.8211,65.7376],
[23.8321,65.8113],
[24.2185,65.8113],
[24.2073,65.7376],
[24.6784,65.6641],
[24.6668,65.5905],
[25.2332,65.5171],
[25.2345,64.9311],
[24.5644,64.9311],
[24.5421,64.7851],
[24.0106,64.4209],
[23.8202,64.4209],
[23.4937,64.1304],
[23.3038,64.1304],
[23.2838,63.9855],
[22.8003,63.9131],
[22.7812,63.7684],
[22.3845,63.6239],
[22.3662,63.4796],
[22.1597,63.3354],
[21.6803,63.2634],
[21.6889,63.3354],
[21.5006,63.3354],
[21.4753,63.1195],
[21.2792,63.0477],
[21.2628,62.9041],
[21.0673,62.8323],
[20.9498,62.6173],
[21.2142,62.4742],
[21.1981,62.3313],
[21.2914,62.3313],
[21.1902,62.2599],
[21.2356,61.8322],
[21.4977,61.69],
[21.442,61.1935],
[21.2499,61.1227],
[21.2345,60.9812],
[21.4029,60.8399],
[21.3796,60.6282],
[21.9056,60.4168],
[22.363,60.4168],
[22.3135,59.995],
[23.0512,60.0653],
[23.0252,59.8547],
[23.7624,59.9249],
[24.0542,60.0653],
[24.5005,59.995],
[24.611,60.1355],
[25.8183,60.2761],
[26.3995,60.4873],
[26.7544,60.4168],
[27.0518,60.5577],
[27.7727,60.4873],
[28.2427,60.5577],
[28.4509,60.6987],
[28.5427,60.6987],
[28.4926,60.4168],
[28.9906,60.1355],
[29.6556,60.2761],
[29.9943,60.1355],
[29.9677,59.995],
[30.1634,60.0653],
[30.1366,59.9249],
[29.9413,59.8547],
[29.0692,60.0653],
[28.7583,59.8547],
[28.6673,59.8547],
[28.6304,59.6445],
[28.7212,59.6445],
[28.8412,59.2947],
[29.2939,59.2947],
[29.5401,59.1551],
[30.0825,59.1551],
[30.2765,59.2249],
[30.3028,59.3646],
[30.8599,59.4345],
[30.7965,59.5745],
[30.615,59.5745],
[30.6557,59.7846],
[30.3828,59.7846],
[30.4369,60.0653],
[30.2816,60.2058],
[30.2076,60.7693],
[29.8162,61.1227],
[29.8298,61.1935],
[29.5015,61.406],
[29.3167,61.406],
[28.9207,61.7611],
[29.0669,62.0459],
[30.1752,62.4742],
[30.9369,62.5457],
[30.9219,62.4742],
[31.1086,62.4742],
[31.4968,62.9758],
[31.1833,63.2634],
[30.9951,63.2634],
[30.9317,63.4075],
[30.0486,63.6961],
[30.0784,63.8407],
[30.5029,64.0579],
[30.5492,64.2756],
[29.929,64.4937],
[30.0855,64.7851],
[29.8139,64.8581],
[29.8598,65.0773],
[30.21,65.3703],
[30.3055,65.8113],
[30.0633,66.0324],
[29.8697,66.0324],
[29.0543,66.7732],
[29.1329,67.1457],
[29.5902,67.4446],
[29.7869,67.4446],
[29.9355,67.6695],
[29.6076,67.9701],
[29.4098,67.9701],
[29.344,68.1207],
[28.7656,68.1961],
[28.7818,68.2716],
[28.5833,68.2716],
[28.4168,68.4227],
[28.6308,68.9536],
[28.8477,69.0297],
[28.7981,69.2583],
[29.2696,69.5641],
[29.2041,69.7173],
[28.5147,69.7941],
[28.5318,69.8709],
[28.1442,69.9477],
[28.1612,70.0247],
[27.2495,70.0247],
[27.2334,69.9477],
[26.2062,69.8709],
[25.8587,69.6407],
[25.7578,69.1058],
[25.6576,69.1058],
[25.6296,68.9536],
[25.4295,68.9536],
[24.8632,68.5741],
[24.3905,68.7257],
[24.4033,68.8016],
[22.7827,68.6499],
[22.7941,68.7257],
[22.406,68.8016],
[22.4171,68.8776],
[22.2172,68.8776],
[21.7706,69.2583],
[21.0678,69.2583],
[20.8473,69.1058],
[20.2366,69.0297],
[20.3088,68.8016],
[20.209,68.8016],
[19.9648,68.4227],
[18.0899,68.5741],
[18.0684,68.3471],
[18.1677,68.3471],
[18.0471,68.1207],
[17.0499,68.0453],
[16.7294,67.7445],
[16.1214,67.5195],
[16.4003,67.295],
[16.3841,67.0711],
[15.7771,66.7732],
[15.2585,66.2541],
[14.5715,66.1063],
[14.5385,65.4436],
[14.4423,65.4436],
[14.3357,65.2237],
[13.6636,65.2237],
[13.6607,65.1504],
[13.277,65.1504],
[13.176,65.0042],
[12.6012,65.0042],
[12.6054,65.1504],
[12.3194,65.2237],
[12.2234,65.2237],
[12.0297,65.1504],
[11.8393,65.2237],
[11.7405,65.0773],
[11.4517,65.0042],
[11.4493,64.8581],
[11.3537,64.8581],
[11.4447,64.5664],
[11.3483,64.4937],
[11.1596,64.6393],
[10.8733,64.6393],
[10.2998,64.4209],
[10.2993,64.2756],
[9.919,64.1304],
[9.919,63.9855],
[9.5402,63.9131],
[9.5414,63.6239],
[9.3525,63.6239],
[9.2596,63.4075],
[8.9762,63.4796],
[9.0686,63.6961],
[8.5015,63.6961],
[8.2218,63.4796],
[7.8431,63.5517],
[7.7504,63.4796],
[7.7536,63.3354],
[8.2244,63.3354],
[8.2269,63.1915],
[7.9448,63.1915],
[7.9478,63.0477],
[6.915,63.0477]
]
],
[
[
[8.376,53.7323],
[8.377,53.6647],
[8.4641,53.5971],
[8.3838,53.1922],
[8.6431,53.0574],
[8.7289,53.0574],
[8.8176,52.7881],
[9.3298,52.99],
[9.5006,53.1248],
[9.328,53.2596],
[9.3271,53.3946],
[9.498,53.5971],
[9.2375,53.8676],
[8.8058,53.8676],
[8.7218,53.6647],
[8.376,53.7323]
]
],
[
[
[11.2229,53.7999],
[11.4818,53.7999],
[11.4832,53.9352],
[11.3111,54.0029],
[11.2229,53.7999]
]
],
[
[
[12.4425,54.4095],
[13.1182,53.6647],
[13.2906,53.6647],
[13.3803,53.7999],
[13.5529,53.7999],
[13.6354,53.6647],
[13.896,53.7323],
[14.316,53.3946],
[14.2257,53.2596],
[14.4788,53.1248],
[14.4927,53.5296],
[14.6649,53.5296],
[14.7712,54.0706],
[14.6847,54.0706],
[14.5093,54.0029],
[14.4998,53.7323],
[14.1548,53.7323],
[14.157,53.7999],
[13.9865,53.8676],
[14.1592,53.8676],
[14.1658,54.0706],
[13.3045,54.2061],
[13.7394,54.2739],
[13.5777,54.6811],
[13.2318,54.7491],
[13.0545,54.6132],
[13.0512,54.4774],
[12.4438,54.4774],
[12.4425,54.4095]
]
],
[
[
[14.6362,55.0892],
[15.0694,55.0211],
[15.0779,55.2255],
[14.9906,55.2255],
[14.644,55.2936],
[14.6362,55.0892]
]
],
[
[
[18.0267,57.4889],
[18.0764,56.9374],
[18.3423,56.9374],
[18.4513,57.2129],
[18.9117,57.4199],
[18.8444,57.6962],
[19.034,57.8346],
[19.0452,57.9731],
[18.598,57.9731],
[18.2301,57.8346],
[18.0316,57.558],
[18.0267,57.4889]
]
],
[
[
[19.6839,60.1355],
[19.951,60.0653],
[20.1469,60.2058],
[20.1673,60.4168],
[19.7164,60.4873],
[19.6839,60.1355]
]
],
[
[
[21.8473,58.2504],
[21.9295,58.181],
[22.0191,58.181],
[21.8997,57.9038],
[22.0785,57.9038],
[22.2879,58.181],
[23.119,58.3892],
[23.2339,58.5977],
[22.2523,58.6673],
[22.1469,58.5282],
[21.8772,58.5282],
[21.8473,58.2504]
]
],
[
[
[22.1857,58.8761],
[22.366,58.8761],
[22.3502,58.7369],
[22.7105,58.7369],
[22.8988,58.8065],
[22.8417,59.0853],
[22.4883,59.1551],
[22.2014,59.0155],
[22.1857,58.8761]
]
],
[
[
[23.4053,58.5282],
[23.6663,58.4587],
[23.8198,58.2504],
[24.2681,58.2504],
[24.2339,57.2819],
[23.6673,57.0063],
[23.49,57.0063],
[23.4657,56.7998],
[23.7312,56.7998],
[23.8916,56.6623],
[24.6163,56.7998],
[25.0228,56.525],
[25.2877,56.525],
[25.3578,56.3877],
[25.8081,56.4563],
[26.632,56.6623],
[26.6921,57.0751],
[26.5348,57.2129],
[26.5651,57.4199],
[26.4761,57.4199],
[26.6059,57.6962],
[26.5167,57.6962],
[26.5474,57.9038],
[26.7366,57.9731],
[26.71,58.3892],
[27.4613,58.5977],
[27.4724,58.6673],
[27.3824,58.6673],
[27.427,58.9458],
[27.3367,58.9458],
[27.5176,59.5045],
[26.792,59.5045],
[26.4507,59.6445],
[25.371,59.7145],
[25.3508,59.5745],
[24.1616,59.5045],
[23.962,59.3646],
[23.4098,59.2947],
[23.4053,58.5282]
]
]
]}
}
