{
"type": "Feature",
"properties": {"id":"cliopatria-zhu-751bce","edge_precision":"unknown","cliopatria_name":"Zhu","cliopatria_from_year":-750,"cliopatria_to_year":-451,"cliopatria_area_km2":6449,"cliopatria_wikidata":"Q227007","cliopatria_wikipedia":"Zhu (state)","cliopatria_member_of":"(Spring and Autumn States)"},
"geometry": {"type": "MultiPolygon", "coordinates": [
[
[
[116.904,35.3227],
[116.9813,35.3227],
[116.9253,35.194],
[117.1785,35.0653],
[117.7683,35.001],
[118.056,35.1297],
[118.3036,35.5158],
[118.2549,35.5802],
[117.5871,35.6445],
[116.9603,35.4514],
[116.904,35.3227]
]
]
]}
}
