{
"type": "Feature",
"properties": {"id":"cliopatria-mitanni-1401bce","edge_precision":"unknown","cliopatria_name":"Mitanni","cliopatria_from_year":-1400,"cliopatria_to_year":-1301,"cliopatria_area_km2":181413,"cliopatria_wikidata":"Q178665","cliopatria_wikipedia":"Mitanni","cliopatria_seshat_id":"sy_mitanni_k"},
"geometry": {"type": "MultiPolygon", "coordinates": [
[
[
[35.9822,36.8682],
[36.06,36.8682],
[36.1449,36.9326],
[36.272,36.6749],
[36.2649,36.6105],
[36.632,36.4172],
[36.6179,36.2884],
[36.4556,36.224],
[36.2621,35.1297],
[36.3393,35.1297],
[36.293,34.6793],
[36.6389,34.2933],
[36.7159,34.2933],
[36.652,34.422],
[36.8193,34.5506],
[38.0032,34.8079],
[38.1787,35.001],
[38.4175,35.0653],
[38.8036,35.0653],
[39.0904,34.8723],
[39.2521,34.9366],
[39.9787,34.5506],
[40.0557,34.5506],
[40.9343,34.8079],
[41.2825,35.1297],
[41.9533,34.9366],
[42.8105,35.001],
[42.9468,35.4514],
[43.4369,35.6445],
[43.5939,36.224],
[44.3477,36.6105],
[44.3571,36.6749],
[44.2981,36.8037],
[43.8499,36.9326],
[43.7908,37.0615],
[43.5572,37.0615],
[43.6072,36.8682],
[43.1586,36.9971],
[43.0535,36.8037],
[42.5868,36.8037],
[42.6047,36.9326],
[42.458,36.9971],
[42.4071,37.1904],
[40.8487,37.1904],
[40.3644,37.0615],
[40.2422,37.3193],
[39.9304,37.3193],
[39.0439,37.7062],
[38.9823,37.8352],
[38.6698,37.8352],
[37.9285,38.1578],
[37.8503,38.1578],
[37.6698,37.9643],
[37.6381,37.7062],
[37.7864,37.6417],
[37.7708,37.5128],
[37.5992,37.3838],
[36.6634,37.3838],
[36.3856,36.9971],
[36.0814,37.0615],
[35.9822,36.8682]
]
]
]}
}
