{
"type": "Feature",
"properties": {"id":"cliopatria-kingdom-of-prussia-1834","edge_precision":"unknown","cliopatria_name":"Kingdom of Prussia","cliopatria_from_year":1834,"cliopatria_to_year":1835,"cliopatria_area_km2":1067,"cliopatria_wikidata":"Q27306","cliopatria_wikipedia":"Kingdom of Prussia"},
"geometry": {"type": "MultiPolygon", "coordinates": [
[
[
[6.5049,46.9401],
[6.5067,46.8743],
[7.0801,46.9401],
[6.8286,47.1374],
[6.8303,47.0716],
[6.6658,47.0716],
[6.6675,47.0058],
[6.5853,47.0058],
[6.5871,46.9401],
[6.5049,46.9401]
]
],
[
[
[11.1329,53.3271],
[11.2178,53.1922],
[11.3895,53.1922],
[11.3921,53.4621],
[11.3061,53.4621],
[11.3054,53.3946],
[11.1329,53.3271]
]
],
[
[
[11.6503,53.4621],
[11.8224,53.4621],
[11.9104,53.5971],
[11.8242,53.5971],
[11.6503,53.4621]
]
]
]}
}
