{
"type": "Feature",
"properties": {"id":"cliopatria-duchy-of-nassau-1809","edge_precision":"unknown","cliopatria_name":"Duchy of Nassau","cliopatria_from_year":1809,"cliopatria_to_year":1810,"cliopatria_area_km2":16877,"cliopatria_wikidata":"Q836680","cliopatria_wikipedia":"Duchy of Nassau"},
"geometry": {"type": "MultiPolygon", "coordinates": [
[
[
[6.1934,51.8481],
[6.3693,51.6472],
[6.7124,51.5134],
[6.7197,51.246],
[6.8923,51.1124],
[6.8992,50.8455],
[7.0712,50.7121],
[7.0777,50.4457],
[7.3286,50.5122],
[7.3346,50.246],
[7.7625,49.8471],
[8.1813,49.8471],
[8.1802,49.9136],
[8.2607,50.113],
[7.9214,50.3125],
[7.9201,50.3791],
[7.8322,50.5789],
[7.9164,50.5789],
[7.9103,50.9122],
[7.7389,51.0457],
[7.7349,51.246],
[7.5657,51.246],
[7.5629,51.3797],
[7.3906,51.5134],
[7.8968,51.6472],
[7.7232,51.8481],
[7.8919,51.9151],
[7.8056,51.9822],
[7.7967,52.4519],
[7.5377,52.5863],
[7.6177,52.8554],
[7.1088,52.6535],
[6.936,52.7208],
[6.6812,52.6535],
[6.6849,52.5191],
[6.9446,52.3847],
[6.9497,52.1833],
[7.542,52.3847],
[7.5462,52.1833],
[7.3773,52.1163],
[7.3802,51.9822],
[7.2132,51.8481],
[7.2195,51.5803],
[6.882,51.5134],
[6.7919,51.7142],
[6.4483,51.8481],
[6.1934,51.8481]
]
]
]}
}
