{
"type": "Feature",
"properties": {"id":"cliopatria-kingdom-of-hungary-1210","edge_precision":"unknown","cliopatria_name":"Kingdom of Hungary","cliopatria_from_year":1210,"cliopatria_to_year":1215,"cliopatria_area_km2":334829,"cliopatria_wikidata":"Q171150","cliopatria_wikipedia":"Kingdom of Hungary","cliopatria_seshat_id":"hu_arpad_dyn"},
"geometry": {"type": "MultiPolygon", "coordinates": [
[
[
[14.2776,45.3659],
[14.6031,45.3659],
[14.5985,45.1696],
[14.7595,45.1042],
[14.7564,44.9734],
[14.9187,44.9734],
[14.9089,44.5813],
[15.1484,44.4507],
[15.1466,44.3854],
[15.3875,44.3201],
[15.382,44.1243],
[15.6186,43.9286],
[15.8607,43.9286],
[16.0964,43.733],
[16.4188,43.733],
[16.656,43.6027],
[16.817,43.6027],
[16.8147,43.5375],
[17.0562,43.5375],
[17.0537,43.4723],
[17.3654,43.2118],
[17.3628,43.1467],
[17.4432,43.1467],
[17.4406,43.0816],
[17.5209,43.0816],
[17.5183,43.0165],
[17.5985,43.0165],
[17.7644,43.1467],
[18.0054,43.1467],
[18.011,43.2769],
[17.8502,43.2769],
[17.6171,43.4723],
[17.5525,43.8634],
[17.1542,43.9938],
[16.9193,44.1896],
[16.9241,44.3201],
[16.2859,44.5813],
[16.2946,44.8426],
[16.6168,44.7773],
[16.7885,45.0388],
[17.0321,45.0388],
[17.1033,44.7773],
[17.5035,44.6466],
[18.0909,45.1042],
[18.5784,45.1042],
[18.8906,44.8426],
[19.1406,44.9734],
[19.2351,45.235],
[19.8856,45.235],
[20.1369,45.3659],
[20.2884,45.1696],
[20.5284,45.1042],
[20.5169,44.908],
[20.7486,44.7119],
[21.4055,44.8426],
[21.8791,44.6466],
[21.9514,44.516],
[22.2753,44.516],
[22.3653,44.6466],
[22.6895,44.6466],
[22.9469,44.8426],
[23.3207,45.4968],
[24.1351,45.4968],
[24.4663,45.5623],
[24.5642,45.7588],
[25.7122,45.8243],
[25.9055,46.1521],
[25.748,46.2177],
[25.7083,46.6772],
[25.4161,47.0716],
[25.4281,47.2032],
[25.2635,47.2032],
[25.2052,47.4665],
[24.8872,47.5982],
[24.905,47.7959],
[24.5862,47.9278],
[24.6867,48.1257],
[24.3672,48.2578],
[24.379,48.3899],
[24.053,48.4559],
[23.8269,48.7204],
[23.0897,48.8527],
[22.7784,49.1175],
[22.5231,49.0513],
[21.7983,49.3826],
[21.3857,49.4489],
[20.9587,49.3163],
[20.2119,49.3826],
[19.8655,49.1838],
[19.4725,49.5816],
[19.1304,49.4489],
[18.7164,49.5152],
[18.3786,49.4489],
[17.9381,48.9851],
[16.928,48.7204],
[16.829,48.3238],
[16.9119,48.3238],
[16.9842,48.0597],
[16.4852,47.9938],
[16.3151,47.8619],
[16.3035,47.5323],
[16.1386,47.5323],
[16.1232,47.0716],
[15.8641,46.6772],
[16.0176,46.3489],
[15.6045,46.2177],
[15.6785,45.9554],
[15.2648,45.7588],
[15.3391,45.4968],
[14.4461,45.6278],
[14.2776,45.3659]
]
]
]}
}
