{
"type": "Feature",
"properties": {"id":"cliopatria-kingdom-of-france-1673","edge_precision":"unknown","cliopatria_name":"Kingdom of France","cliopatria_from_year":1673,"cliopatria_to_year":1676,"cliopatria_area_km2":521230,"cliopatria_wikidata":"Q207162","cliopatria_wikipedia":"Kingdom of France","cliopatria_seshat_id":"fr_bourbon_k_2","cliopatria_member_of":"(Kingdom of France)"},
"geometry": {"type": "MultiPolygon", "coordinates": [
[
[
[-4.9117,48.522],
[-4.8913,48.3238],
[-4.6426,48.3238],
[-4.5464,48.1917],
[-4.7054,48.1257],
[-4.6921,47.9938],
[-4.4244,47.7959],
[-3.9349,47.8619],
[-3.7572,47.73],
[-3.3443,47.73],
[-3.1555,47.4665],
[-2.8373,47.5982],
[-2.8258,47.4665],
[-2.5784,47.4665],
[-2.5616,47.269],
[-2.2322,47.269],
[-2.1391,47.1374],
[-2.1944,46.8086],
[-2.0249,46.7429],
[-2.0144,46.6115],
[-1.666,46.3489],
[-1.2518,46.2833],
[-1.2227,45.8898],
[-1.1411,45.8898],
[-1.2131,45.7588],
[-1.0453,45.6933],
[-1.0312,45.4968],
[-1.1894,45.4313],
[-1.1706,45.1696],
[-1.2519,45.1696],
[-1.2054,44.516],
[-1.2863,44.516],
[-1.268,44.2548],
[-1.3488,44.2548],
[-1.3214,43.8634],
[-1.402,43.8634],
[-1.4599,43.5375],
[-1.6922,43.4072],
[-1.6876,43.3421],
[-1.4418,43.2769],
[-1.4284,43.0816],
[-1.027,43.0816],
[-0.5288,42.8213],
[-0.2081,42.8213],
[0.0401,42.6912],
[1.0747,42.8213],
[1.4855,42.6262],
[1.7258,42.6262],
[1.729,42.5612],
[1.8091,42.5612],
[2.4583,42.3662],
[3.0927,42.4962],
[3.09,42.5612],
[3.0099,42.5612],
[2.9849,43.1467],
[3.8509,43.6027],
[4.173,43.6027],
[4.1778,43.4723],
[4.578,43.5375],
[5.3869,43.4072],
[5.3908,43.2769],
[5.6319,43.2769],
[5.7962,43.1467],
[6.5176,43.2118],
[6.5936,43.4072],
[6.8321,43.5375],
[6.9126,43.5375],
[6.8293,43.6678],
[6.6681,43.6678],
[6.7429,43.9286],
[6.4169,44.0591],
[6.4137,44.1896],
[6.8149,44.3201],
[6.5659,44.5813],
[6.6407,44.8426],
[6.228,45.1042],
[5.9011,45.1696],
[5.8121,45.4313],
[5.4822,45.5623],
[5.6349,45.8898],
[6.0335,46.2177],
[6.0316,46.2833],
[5.9497,46.2833],
[5.9478,46.3489],
[5.3769,46.2833],
[5.4322,47.0716],
[5.5945,47.1374],
[5.5769,47.6641],
[6.1447,47.9938],
[6.8082,47.9278],
[6.8976,47.6641],
[6.9802,47.6641],
[6.9834,47.5323],
[7.3973,47.4665],
[7.5594,47.5982],
[7.5524,47.9278],
[7.6269,48.3238],
[7.7098,48.3238],
[7.7058,48.522],
[7.7888,48.522],
[7.7875,48.5881],
[7.62,48.6542],
[7.6172,48.7865],
[7.3663,48.8527],
[7.5298,48.9851],
[7.527,49.1175],
[6.6917,49.1838],
[6.6881,49.3163],
[6.855,49.3163],
[6.8516,49.4489],
[7.1038,49.3826],
[7.0136,49.6479],
[6.3465,49.5816],
[6.1833,49.4489],
[5.9284,49.5816],
[5.5128,49.5152],
[4.9984,49.8471],
[4.8309,49.8471],
[4.8202,50.113],
[5.5637,50.4457],
[5.5613,50.5122],
[5.8891,50.7788],
[5.9735,50.7788],
[5.9604,51.1792],
[6.2038,51.5134],
[5.9406,51.7811],
[5.5985,51.8481],
[5.2222,52.7881],
[5.1366,52.7881],
[5.1392,52.7208],
[5.0537,52.7208],
[5.0564,52.6535],
[4.9709,52.6535],
[4.9791,52.4519],
[4.8937,52.4519],
[5.0035,51.8481],
[4.6693,51.7142],
[4.7654,51.4465],
[5.3635,51.3128],
[5.3685,51.1792],
[5.207,50.9789],
[5.2171,50.7121],
[5.0486,50.7121],
[5.059,50.4457],
[4.728,50.3125],
[4.6551,50.0465],
[4.4902,49.98],
[4.1548,49.98],
[4.0619,50.1795],
[3.5482,50.3791],
[3.5416,50.5122],
[3.7067,50.5789],
[3.6126,50.7788],
[2.8537,50.7788],
[2.6926,50.6455],
[2.2635,50.7788],
[2.2556,50.9122],
[2.7582,50.9789],
[2.7432,51.246],
[2.6586,51.246],
[1.6562,51.0457],
[1.4247,50.7121],
[1.455,50.246],
[1.0528,49.98],
[0.2241,49.8471],
[-0.0124,49.6479],
[0.007,49.3826],
[-1.2508,49.4489],
[-1.3618,49.7807],
[-2.0316,49.7807],
[-1.9133,49.3826],
[-1.6517,49.25],
[-1.635,49.0513],
[-1.7183,49.0513],
[-1.6022,48.6542],
[-2.5219,48.7204],
[-2.7594,48.5881],
[-3.1222,48.9189],
[-3.4551,48.9189],
[-3.8518,48.7204],
[-4.5999,48.7204],
[-4.9117,48.522]
],
[
[3.0402,50.4457],
[3.2891,50.5122],
[3.3733,50.5122],
[3.4608,50.4457],
[3.2189,50.246],
[3.0473,50.3125],
[3.0402,50.4457]
],
[
[4.6313,44.3201],
[4.7076,44.4507],
[4.9526,44.3854],
[5.1101,44.516],
[5.2885,43.9938],
[5.0484,43.9286],
[4.9742,43.733],
[4.7301,43.7982],
[4.7997,44.1243],
[4.9613,44.1243],
[5.0378,44.2548],
[4.7121,44.3201],
[4.6313,44.3201]
]
],
[
[
[4.1398,50.3125],
[4.3919,50.3125],
[4.3832,50.5122],
[4.2148,50.5122],
[4.1398,50.3125]
]
]
]}
}
