{
"type": "Feature",
"properties": {"id":"cliopatria-frisia-kingdom-0682","edge_precision":"unknown","cliopatria_name":"Frisia Kingdom","cliopatria_from_year":682,"cliopatria_to_year":691,"cliopatria_area_km2":57129,"cliopatria_wikidata":"Q4492881","cliopatria_wikipedia":"Frisia"},
"geometry": {"type": "MultiPolygon", "coordinates": [
[
[
[7.3163,47.4006],
[7.484,47.269],
[8.2272,47.1374],
[8.3948,46.9401],
[9.5457,46.8743],
[9.6253,47.2032],
[9.543,47.2032],
[9.5414,47.4006],
[9.9519,47.6641],
[9.8681,47.8619],
[9.9508,47.8619],
[10.1134,48.4559],
[11.0266,48.7865],
[11.0268,48.8527],
[11.1108,49.1838],
[10.9442,49.25],
[10.5271,49.25],
[9.7751,49.4489],
[9.6907,49.5816],
[9.4399,49.5816],
[9.5204,49.98],
[9.2665,50.246],
[8.8434,50.5122],
[8.4256,50.3125],
[8.3467,49.98],
[8.2629,49.98],
[8.3551,49.4489],
[8.2716,49.4489],
[8.2759,49.1838],
[8.1127,48.9851],
[8.115,48.8527],
[7.7058,48.522],
[7.6338,47.9938],
[7.551,47.9938],
[7.5594,47.5982],
[7.3163,47.4006]
]
]
]}
}
