{
"type": "Feature",
"properties": {"id":"cliopatria-palestinians-1948","edge_precision":"unknown","cliopatria_name":"Palestinians","cliopatria_from_year":1948,"cliopatria_to_year":1948,"cliopatria_area_km2":5477,"cliopatria_wikidata":"Q201190","cliopatria_wikipedia":"Palestinians"},
"geometry": {"type": "MultiPolygon", "coordinates": [
[
[
[34.993,31.4005],
[35.14,31.3362],
[35.4554,31.4647],
[35.6356,31.7861],
[35.6639,32.1074],
[35.5875,32.1074],
[35.5398,32.4288],
[35.0812,32.4288],
[35.0643,32.236],
[35.1406,32.236],
[35.031,31.8503],
[35.178,31.7861],
[35.1725,31.7218],
[35.0092,31.5933],
[34.993,31.4005]
]
]
]}
}
