{
"type": "Feature",
"properties": {"id":"cliopatria-rashtrakuta-dynasty-0922","edge_precision":"unknown","cliopatria_name":"Rashtrakuta Dynasty","cliopatria_from_year":922,"cliopatria_to_year":925,"cliopatria_area_km2":1019445,"cliopatria_wikidata":"Q856691","cliopatria_wikipedia":"Rashtrakuta dynasty","cliopatria_seshat_id":"in_rashtrakuta_emp"},
"geometry": {"type": "MultiPolygon", "coordinates": [
[
[
[72.5629,21.2434],
[72.8994,20.922],
[72.8373,20.3434],
[72.6339,19.8291],
[72.7614,19.6362],
[72.7337,19.3791],
[72.8748,19.3148],
[72.9589,18.0291],
[73.3004,17.0647],
[73.2542,16.6147],
[73.5391,15.779],
[73.7474,15.6504],
[73.7901,15.329],
[73.9311,15.2647],
[73.9745,14.9432],
[74.3745,14.4932],
[74.4707,13.9146],
[74.6636,13.5932],
[74.7477,12.8217],
[75.0647,12.1789],
[75.3385,11.9217],
[75.4568,11.536],
[75.8416,11.7931],
[76.0073,12.0503],
[76.2319,12.1146],
[76.2417,12.2432],
[76.6281,12.5003],
[76.8737,12.8217],
[77.6389,13.2075],
[78.7613,13.4646],
[78.8347,13.4646],
[80.1668,13.5932],
[80.1726,13.6575],
[80.246,13.6575],
[80.2816,14.0432],
[80.2082,14.0432],
[80.2158,14.8789],
[80.0882,15.0718],
[80.1949,15.3933],
[80.0478,15.3933],
[79.9551,15.9076],
[79.8815,15.9076],
[79.7888,17.0647],
[80.0469,17.3862],
[80.3495,17.4505],
[80.4458,17.6433],
[80.4685,17.8362],
[80.336,17.9648],
[80.3817,18.3505],
[80.3078,18.3505],
[80.3693,18.8648],
[80.4432,18.8648],
[80.4896,19.2505],
[80.6454,19.3148],
[80.8361,20.2791],
[81.0233,20.6005],
[80.914,20.922],
[81.1602,21.1148],
[81.1493,21.6291],
[81.2718,22.0148],
[80.478,22.2077],
[80.2873,22.4648],
[79.9977,22.5291],
[79.9478,22.722],
[79.6747,22.9148],
[79.9312,24.2649],
[79.8565,24.2649],
[79.9501,24.9078],
[79.8753,24.9078],
[80.0289,25.4221],
[79.9199,25.6793],
[79.9933,26.1294],
[80.0393,26.8366],
[79.9641,26.8366],
[79.906,27.3509],
[79.7556,27.3509],
[79.6404,27.5438],
[78.9749,27.6081],
[78.8996,27.6081],
[77.9579,26.9652],
[77.9359,26.8366],
[77.5386,26.708],
[76.4287,25.8722],
[76.409,25.7436],
[75.2213,24.7792],
[74.9196,24.2006],
[74.6789,24.072],
[74.3823,23.4934],
[74.2253,23.4291],
[74.2019,23.2363],
[74.0451,23.172],
[73.5536,22.1434],
[73.3977,22.0791],
[73.2132,21.7577],
[72.7603,21.6934],
[72.7533,21.6291],
[72.5629,21.2434]
]
]
]}
}
