{
"type": "Feature",
"properties": {"id":"cliopatria-nguyen-lords-1653","edge_precision":"unknown","cliopatria_name":"Nguyễn lords","cliopatria_from_year":1653,"cliopatria_to_year":1658,"cliopatria_area_km2":100448,"cliopatria_wikidata":"Q2301908","cliopatria_wikipedia":"Nguyễn lords"},
"geometry": {"type": "MultiPolygon", "coordinates": [
[
[
[105.2074,18.3505],
[106.6074,16.9362],
[106.6857,16.4861],
[106.9706,16.4219],
[107.1527,16.1647],
[107.5016,16.0361],
[107.2976,15.6504],
[107.6927,15.329],
[107.5127,14.5575],
[107.3804,14.1075],
[107.6669,13.4646],
[107.5473,13.0789],
[107.5686,12.6289],
[107.7885,12.6289],
[108.1188,12.3074],
[108.1046,12.1789],
[108.3244,12.1789],
[108.4852,12.3074],
[108.705,12.3074],
[108.764,12.1789],
[109.0882,11.7931],
[109.2347,11.7931],
[109.2416,11.8574],
[109.2251,12.3717],
[109.3203,12.5646],
[109.4669,12.5646],
[109.5119,12.9503],
[109.3306,13.2718],
[109.3544,14.0432],
[109.1764,14.3646],
[109.1553,14.7504],
[108.9706,15.0075],
[109.0164,15.329],
[108.6767,15.5218],
[108.6955,15.6504],
[108.3657,15.9076],
[108.3308,16.1647],
[108.1393,16.3576],
[107.8447,16.3576],
[107.8644,16.4861],
[107.6532,16.5504],
[107.6731,16.679],
[107.482,16.8719],
[107.3346,16.8719],
[107.1002,17.2576],
[106.8891,17.3219],
[106.8992,17.3862],
[106.7517,17.3862],
[106.7721,17.5148],
[106.5712,17.6433],
[106.5696,18.0933],
[106.2949,18.2219],
[106.1783,18.4148],
[106.0305,18.4148],
[106.0513,18.5434],
[105.8505,18.6719],
[105.8609,18.7362],
[105.2487,18.6076],
[105.2074,18.3505]
]
]
]}
}
