{
"type": "Feature",
"properties": {"id":"cliopatria-duchy-of-bohemia-0990","edge_precision":"unknown","cliopatria_name":"Duchy of Bohemia","cliopatria_from_year":990,"cliopatria_to_year":999,"cliopatria_area_km2":81126,"cliopatria_wikidata":"Q2162698","cliopatria_wikipedia":"Duchy of Bohemia","cliopatria_seshat_id":"cz_bohemian_duc"},
"geometry": {"type": "MultiPolygon", "coordinates": [
[
[
[12.204,50.0465],
[12.3709,49.98],
[12.3676,49.7143],
[12.5341,49.6479],
[12.5324,49.5152],
[12.6977,49.3826],
[13.113,49.25],
[13.2763,49.0513],
[13.443,49.0513],
[13.6057,48.8527],
[13.9371,48.7865],
[14.1821,48.5881],
[14.7651,48.6542],
[14.9405,48.9851],
[15.6877,48.9189],
[16.1799,48.7204],
[16.928,48.7204],
[17.4296,48.7865],
[18.4551,49.3163],
[19.0393,49.3163],
[19.0469,49.4489],
[18.7164,49.5152],
[18.3162,49.8471],
[18.3234,49.98],
[17.656,50.0465],
[17.5787,50.1795],
[17.3268,50.1795],
[17.0843,50.3791],
[16.4173,50.5122],
[16.3388,50.6455],
[16.0861,50.6455],
[15.9229,50.7788],
[15.417,50.7788],
[15.2553,50.9789],
[14.5778,50.9122],
[14.4974,51.0457],
[14.3284,51.0457],
[14.154,50.8455],
[13.3919,50.7121],
[12.7965,50.3791],
[12.3761,50.3791],
[12.2063,50.246],
[12.204,50.0465]
]
]
]}
}
