{
"type": "Feature",
"properties": {"id":"cliopatria-kingdom-of-the-suebi-0426","edge_precision":"unknown","cliopatria_name":"Kingdom of the Suebi","cliopatria_from_year":426,"cliopatria_to_year":438,"cliopatria_area_km2":95102,"cliopatria_wikidata":"Q1048918","cliopatria_wikipedia":"Kingdom of the Suebi","cliopatria_seshat_id":"pt_suebi_k"},
"geometry": {"type": "MultiPolygon", "coordinates": [
[
[
[-9.572,38.9326],
[-9.5531,38.7389],
[-9.3837,38.6097],
[-9.0761,38.6743],
[-9.0884,38.8034],
[-9.0099,38.8034],
[-8.8959,39.2557],
[-8.5996,39.4496],
[-8.6182,39.6436],
[-8.4729,39.7729],
[-7.9269,39.8376],
[-6.8626,40.2906],
[-6.8544,41.068],
[-6.2601,41.522],
[-6.1303,41.8465],
[-5.9028,41.9764],
[-5.8466,42.2362],
[-5.7667,42.2362],
[-5.7342,42.7563],
[-5.8143,42.7563],
[-5.7643,43.0816],
[-5.8568,43.2118],
[-5.9372,43.2118],
[-6.0486,43.5375],
[-7.1757,43.5375],
[-7.3435,43.6027],
[-7.2765,43.733],
[-8.2436,43.733],
[-8.3904,43.6027],
[-8.369,43.4072],
[-8.8517,43.4072],
[-9.3046,43.1467],
[-9.0787,42.5612],
[-8.9185,42.5612],
[-8.9044,42.4312],
[-8.6504,42.3012],
[-8.9561,42.1712],
[-8.727,40.744],
[-8.8723,40.6144],
[-8.8993,40.0964],
[-9.0443,39.967],
[-9.1572,39.5143],
[-9.387,39.4496],
[-9.4275,39.0618],
[-9.572,38.9326]
]
]
]}
}
