{
"type": "Feature",
"properties": {"id":"cliopatria-electorate-of-salzburg-1805","edge_precision":"unknown","cliopatria_name":"Electorate of Salzburg","cliopatria_from_year":1805,"cliopatria_to_year":1805,"cliopatria_area_km2":8487,"cliopatria_wikidata":"Q646390","cliopatria_wikipedia":"Electorate of Salzburg"},
"geometry": {"type": "MultiPolygon", "coordinates": [
[
[
[10.7772,48.8527],
[10.9436,48.8527],
[11.2773,49.1175],
[11.2776,49.1838],
[11.2778,49.25],
[11.111,49.25],
[11.1106,49.1175],
[10.7772,48.9851],
[10.7772,48.8527]
]
],
[
[
[12.1757,47.0716],
[12.7522,47.1374],
[12.8345,47.1374],
[13.0794,47.0058],
[13.7383,47.0716],
[13.6595,47.269],
[13.4125,47.269],
[13.4189,47.6641],
[13.1752,47.9278],
[13.1773,48.0597],
[12.8454,47.9938],
[12.8445,47.9278],
[12.9272,47.9278],
[12.9245,47.73],
[13.0887,47.6641],
[13.0044,47.5323],
[12.5109,47.6641],
[12.5081,47.4006],
[12.1774,47.269],
[12.1757,47.0716]
]
],
[
[
[13.1876,48.7204],
[13.2707,48.7204],
[13.2685,48.5881],
[13.6838,48.5881],
[13.7708,48.7865],
[13.525,48.9851],
[13.3585,48.9851],
[13.3562,48.8527],
[13.1898,48.8527],
[13.1876,48.7204]
]
]
]}
}
