{
"type": "Feature",
"properties": {"id":"cliopatria-qasimids-1800","edge_precision":"unknown","cliopatria_name":"Qasimids","cliopatria_from_year":1800,"cliopatria_to_year":1802,"cliopatria_area_km2":153882,"cliopatria_wikidata":"Q5261548","cliopatria_wikipedia":"Rassid dynasty","cliopatria_seshat_id":"ye_qasimid_dyn"},
"geometry": {"type": "MultiPolygon", "coordinates": [
[
[
[42.7054,15.779],
[42.7458,15.1361],
[42.8896,15.0718],
[43.0566,13.9789],
[43.2648,13.7218],
[43.25,13.4003],
[43.3968,13.4003],
[43.6139,13.336],
[43.6785,13.1432],
[43.8223,13.0789],
[43.8252,13.1432],
[44.3415,13.2075],
[44.3474,13.336],
[44.5766,13.5289],
[45.0199,13.5932],
[45.1026,13.7861],
[45.4792,13.9789],
[45.4187,14.2361],
[45.6624,14.6861],
[45.6096,15.0718],
[45.7637,15.2004],
[45.7189,15.7147],
[45.8222,16.229],
[45.7485,16.229],
[45.7789,16.7433],
[45.7052,16.7433],
[45.8137,17.3219],
[45.6662,17.3219],
[45.608,17.579],
[45.6119,17.6433],
[45.348,18.1576],
[44.5816,18.9291],
[44.5231,19.1862],
[44.4491,19.1862],
[44.3598,18.9291],
[43.5089,18.2862],
[43.5529,17.7719],
[43.4644,17.5148],
[43.2357,17.3862],
[43.2768,16.8076],
[43.038,16.4861],
[42.8135,16.4219],
[42.81,16.3576],
[42.7054,15.779]
]
]
]}
}
