{
"type": "Feature",
"properties": {"id":"cliopatria-angevin-empire-1152","edge_precision":"unknown","cliopatria_name":"Angevin Empire","cliopatria_from_year":1152,"cliopatria_to_year":1168,"cliopatria_area_km2":205737,"cliopatria_wikidata":"Q538677","cliopatria_wikipedia":"Angevin Empire","cliopatria_seshat_id":"gb_england_plantagenet","cliopatria_member_of":"(Kingdom of England)"},
"geometry": {"type": "MultiPolygon", "coordinates": [
[
[
[-2.2105,47.0058],
[-2.1944,46.8086],
[-1.666,46.3489],
[-1.2518,46.2833],
[-1.2227,45.8898],
[-1.1411,45.8898],
[-1.2131,45.7588],
[-1.0453,45.6933],
[-1.0312,45.4968],
[-1.1894,45.4313],
[-1.1706,45.1696],
[-1.2519,45.1696],
[-1.2054,44.516],
[-1.2863,44.516],
[-1.268,44.2548],
[-1.3488,44.2548],
[-1.3214,43.8634],
[-1.402,43.8634],
[-1.4599,43.5375],
[-1.6922,43.4072],
[-1.6876,43.3421],
[-0.9639,43.3421],
[-0.8579,42.9515],
[0.0401,42.6912],
[0.601,42.6912],
[0.6738,42.8213],
[0.9945,42.8213],
[0.9839,43.0165],
[0.8125,43.2118],
[0.9661,43.3421],
[0.637,43.4723],
[0.948,43.6678],
[0.9185,44.1896],
[0.834,44.2548],
[1.0691,44.3854],
[1.0617,44.516],
[1.3784,44.6466],
[1.4487,44.8426],
[2.101,44.7773],
[2.2762,44.516],
[2.516,44.5813],
[2.5844,44.8426],
[2.7467,44.8426],
[2.918,44.6466],
[3.1582,44.7119],
[3.2305,44.908],
[3.474,44.908],
[3.5607,44.7773],
[3.9662,44.7773],
[3.9609,44.908],
[4.1232,44.908],
[4.3592,45.1042],
[4.2678,45.3659],
[3.9423,45.3659],
[4.013,45.6278],
[3.9315,45.6278],
[3.9178,45.9554],
[4.0784,46.0209],
[3.9829,46.3489],
[4.2258,46.4145],
[4.051,46.6772],
[3.8049,46.6772],
[3.8077,46.6115],
[3.7257,46.6115],
[3.7286,46.5459],
[3.6467,46.5459],
[3.0697,46.6115],
[2.8039,47.0058],
[2.7939,47.2032],
[2.7116,47.2032],
[1.8923,47.1374],
[1.4025,47.0716],
[1.3124,47.2032],
[1.3084,47.269],
[1.1977,47.73],
[1.2763,47.7959],
[0.9289,48.0597],
[0.8203,48.4559],
[1.3888,48.6542],
[1.7724,49.1838],
[1.8196,49.7807],
[1.455,50.246],
[1.371,50.246],
[1.0528,49.98],
[0.2241,49.8471],
[-0.0124,49.6479],
[0.007,49.3826],
[-1.2508,49.4489],
[-1.3618,49.7807],
[-2.0316,49.7807],
[-1.9133,49.3826],
[-1.6517,49.25],
[-1.635,49.0513],
[-1.7183,49.0513],
[-1.6076,48.7204],
[-1.6022,48.6542],
[-1.5191,48.6542],
[-1.4976,48.3899],
[-1.2541,48.4559],
[-1.1711,48.4559],
[-1,48.3899],
[-0.9898,48.2578],
[-1.0726,48.2578],
[-1.0421,47.8619],
[-1.2023,47.7959],
[-1.1618,47.269],
[-1.3214,47.2032],
[-1.3113,47.0716],
[-1.4656,46.9401],
[-2.1283,47.0058],
[-2.2105,47.0058]
]
]
]}
}
