{
"type": "Feature",
"properties": {"id":"cliopatria-county-of-foix-1279","edge_precision":"unknown","cliopatria_name":"County of Foix","cliopatria_from_year":1279,"cliopatria_to_year":1293,"cliopatria_area_km2":4515,"cliopatria_wikidata":"Q1481436","cliopatria_wikipedia":"County of Foix","cliopatria_seshat_id":"fr_capetian_k_2","cliopatria_member_of":"(Kingdom of France)"},
"geometry": {"type": "MultiPolygon", "coordinates": [
[
[
[0.637,43.4723],
[0.9661,43.3421],
[0.8125,43.2118],
[0.9839,43.0165],
[0.9945,42.8213],
[1.0747,42.8213],
[1.4855,42.6262],
[1.7258,42.6262],
[1.8732,42.8864],
[1.305,43.0165],
[1.2773,43.5375],
[0.948,43.6678],
[0.637,43.4723]
]
]
]}
}
