{
"type": "Feature",
"properties": {"id":"cliopatria-tumed-1609","edge_precision":"unknown","cliopatria_name":"Tümed","cliopatria_from_year":1609,"cliopatria_to_year":1644,"cliopatria_area_km2":413939,"cliopatria_wikidata":"Q3402317","cliopatria_wikipedia":"Tumed"},
"geometry": {"type": "MultiPolygon", "coordinates": [
[
[
[90.8752,38.4806],
[91.0374,38.2869],
[90.9414,38.0288],
[91.2847,37.8998],
[91.4479,37.7062],
[91.4008,37.5773],
[91.5334,37.5128],
[91.4634,37.3193],
[91.0046,37.126],
[90.9363,36.9326],
[91.3578,36.8037],
[91.3126,36.6749],
[91.3904,36.6749],
[91.7924,36.9326],
[92.3603,36.9971],
[92.6023,36.8037],
[93.544,36.6105],
[95.7694,35.4514],
[96.552,35.2584],
[97.4528,34.7436],
[97.6841,34.7436],
[97.7164,34.615],
[98.2881,34.4863],
[98.3205,34.3577],
[98.8473,34.1004],
[100.8563,33.9075],
[101.1956,33.7789],
[101.5255,33.8432],
[101.6933,34.1004],
[101.5313,34.2933],
[101.0695,34.2933],
[100.8534,34.5506],
[100.923,34.7436],
[101.2315,34.7436],
[101.8318,34.4863],
[102.0327,34.615],
[102.1034,34.8079],
[101.7413,34.8723],
[101.7114,35.001],
[101.9669,35.0653],
[102.1401,35.3227],
[102.0628,35.3227],
[102.1112,35.4514],
[102.4165,35.6445],
[102.441,35.7089],
[102.5184,35.7089],
[102.9235,36.3528],
[102.7926,36.6105],
[102.8441,36.7393],
[102.6106,36.9326],
[102.6889,37.126],
[102.534,37.3193],
[102.2485,37.3838],
[102.094,37.5773],
[102.0961,37.7707],
[101.7037,37.5773],
[101.5492,37.7707],
[101.2634,37.8352],
[101.2387,37.9643],
[100.8745,38.0288],
[100.7476,38.2869],
[100.591,38.2869],
[100.3354,38.6097],
[100.2264,38.3515],
[99.8104,38.4806],
[99.1984,39.2557],
[98.9068,39.1265],
[98.3841,39.1911],
[98.2231,38.9972],
[97.9088,38.9972],
[97.2078,39.385],
[96.1877,39.5789],
[96.2153,39.6436],
[94.7176,39.6436],
[94.5061,39.5143],
[93.8759,39.5143],
[93.5079,39.385],
[93.2194,39.4496],
[92.5901,39.2557],
[90.9487,38.6743],
[90.8752,38.4806]
]
]
]}
}
