{
"type": "Feature",
"properties": {"id":"cliopatria-serbia-montenegro-2024","edge_precision":"unknown","cliopatria_name":"Serbia-Montenegro","cliopatria_from_year":2024,"cliopatria_to_year":2024,"cliopatria_area_km2":76588,"cliopatria_wikidata":"Q37024","cliopatria_wikipedia":"Serbia and Montenegro"},
"geometry": {"type": "MultiPolygon", "coordinates": [
[
[
[18.7788,45.8898],
[18.9259,45.5623],
[19.0074,45.5623],
[18.9976,45.3659],
[19.2384,45.3004],
[19.1406,44.9734],
[19.2996,44.908],
[19.1077,44.3201],
[19.4984,44.0591],
[19.4109,43.9286],
[19.4747,43.6027],
[19.3103,43.5375],
[19.3808,43.3421],
[20.0903,43.0816],
[20.24,42.8864],
[20.5683,43.0165],
[20.6637,43.2769],
[20.8244,43.2769],
[21.5111,42.6912],
[21.6713,42.6912],
[21.567,42.3012],
[21.7228,42.2362],
[22.3707,42.3662],
[22.5394,42.4962],
[22.4813,42.8213],
[22.9005,43.0816],
[22.9098,43.2118],
[22.374,43.6027],
[22.4009,43.9938],
[22.6569,44.1896],
[22.5044,44.3201],
[22.5182,44.516],
[22.6895,44.6466],
[21.9514,44.516],
[21.8791,44.6466],
[21.4013,44.7773],
[21.4264,45.1696],
[20.8694,45.3659],
[20.8118,45.7588],
[20.3337,45.9554],
[20.2634,46.1521],
[19.4457,46.1521],
[18.7788,45.8898]
]
]
]}
}
