{
"type": "Feature",
"properties": {"id":"cliopatria-kingdom-of-croatia-1018","edge_precision":"unknown","cliopatria_name":"Kingdom of Croatia","cliopatria_from_year":1018,"cliopatria_to_year":1084,"cliopatria_area_km2":90403,"cliopatria_wikidata":"Q858841","cliopatria_wikipedia":"Kingdom of Croatia (925–1102)","cliopatria_seshat_id":"hr_croatia_k"},
"geometry": {"type": "MultiPolygon", "coordinates": [
[
[
[14.2776,45.3659],
[14.6031,45.3659],
[14.5985,45.1696],
[14.7595,45.1042],
[14.7564,44.9734],
[14.9187,44.9734],
[14.9089,44.5813],
[15.1484,44.4507],
[15.1466,44.3854],
[15.3875,44.3201],
[15.382,44.1243],
[15.6186,43.9286],
[15.8607,43.9286],
[16.0964,43.733],
[16.4188,43.733],
[16.656,43.6027],
[16.817,43.6027],
[16.8147,43.5375],
[17.0562,43.5375],
[17.0537,43.4723],
[17.3654,43.2118],
[17.3628,43.1467],
[17.4432,43.1467],
[17.4406,43.0816],
[17.5209,43.0816],
[17.5183,43.0165],
[17.6788,43.0165],
[17.7644,43.1467],
[18.0857,43.1467],
[18.2406,43.0165],
[18.5617,43.0165],
[18.8367,43.733],
[19.0979,44.1243],
[19.2628,44.1896],
[19.1077,44.3201],
[19.1175,44.516],
[19.2862,44.6466],
[19.2996,44.908],
[19.1406,44.9734],
[19.2351,45.235],
[18.9976,45.3659],
[19.0041,45.4968],
[18.9227,45.4968],
[18.9259,45.5623],
[18.7788,45.8898],
[18.4461,45.7588],
[17.8751,45.7588],
[17.1511,46.0209],
[16.4361,46.6115],
[16.1835,46.4145],
[16.0197,46.4145],
[15.9337,46.2833],
[15.6045,46.2177],
[15.6785,45.9554],
[15.2648,45.7588],
[15.3391,45.4968],
[14.4461,45.6278],
[14.2776,45.3659]
]
]
]}
}
