{
"type": "Feature",
"properties": {"id":"cliopatria-kingdom-of-spain-1814","edge_precision":"unknown","cliopatria_name":"Kingdom of Spain","cliopatria_from_year":1814,"cliopatria_to_year":1814,"cliopatria_area_km2":495847,"cliopatria_wikidata":"Q29","cliopatria_wikipedia":"Spain","cliopatria_seshat_id":"es_spanish_emp_2","cliopatria_member_of":"(Spanish Empire)"},
"geometry": {"type": "MultiPolygon", "coordinates": [
[
[
[-9.3046,43.1467],
[-9.0787,42.5612],
[-8.6574,42.3662],
[-8.9561,42.1712],
[-8.9281,41.9114],
[-8.47,42.1063],
[-8.1505,42.1063],
[-8.1371,41.9764],
[-8.2169,41.9764],
[-8.1172,41.7816],
[-6.7008,41.9764],
[-6.5169,41.7167],
[-6.2719,41.6518],
[-6.2542,41.4571],
[-6.9277,41.0032],
[-6.8684,40.3554],
[-7.0149,40.2259],
[-7.0032,40.0964],
[-6.8395,40.0317],
[-6.8955,39.7729],
[-7.4358,39.6436],
[-7.4184,39.4496],
[-7.2552,39.385],
[-6.9854,38.9972],
[-7.1203,38.7389],
[-7.2717,38.6743],
[-7.2442,38.3515],
[-6.9984,38.2224],
[-6.9877,38.0933],
[-7.1442,38.0933],
[-7.2791,37.8352],
[-7.5027,37.7062],
[-7.3874,37.2549],
[-6.8418,37.2549],
[-6.588,36.9971],
[-6.4323,36.9971],
[-6.0638,36.224],
[-5.8311,36.224],
[-5.6623,36.0308],
[-5.3745,36.3528],
[-5.2193,36.3528],
[-5.2282,36.4816],
[-4.6888,36.546],
[-4.4686,36.7393],
[-2.6801,36.7393],
[-2.5321,36.8682],
[-2.0616,36.8037],
[-1.8574,37.3193],
[-1.6235,37.3193],
[-1.7087,37.4483],
[-0.7048,37.6417],
[-0.8035,38.0288],
[-0.6609,38.2869],
[0.0994,38.7389],
[-0.3137,39.1265],
[-0.3454,39.7083],
[-0.2019,39.967],
[0.1825,40.1612],
[0.2478,40.4201],
[0.475,40.6144],
[0.7093,40.6792],
[0.6958,40.9384],
[1.2384,41.1977],
[2.1066,41.3274],
[2.3336,41.5869],
[2.8856,41.7167],
[3.1168,41.9114],
[3.1781,42.3662],
[3.0954,42.4312],
[3.0927,42.4962],
[2.4583,42.3662],
[1.8091,42.5612],
[1.5754,42.4312],
[1.4888,42.5612],
[1.4855,42.6262],
[1.0747,42.8213],
[0.0401,42.6912],
[-0.2081,42.8213],
[-0.5288,42.8213],
[-1.027,43.0816],
[-1.4284,43.0816],
[-1.4418,43.2769],
[-1.6876,43.3421],
[-3.2959,43.3421],
[-3.4672,43.4723],
[-4.9904,43.4072],
[-5.5656,43.5375],
[-7.1757,43.5375],
[-7.3435,43.6027],
[-7.2765,43.733],
[-8.2436,43.733],
[-8.3904,43.6027],
[-8.369,43.4072],
[-8.8517,43.4072],
[-9.3046,43.1467]
]
],
[
[
[-5.5713,35.8377],
[-5.485,35.7089],
[-5.3345,35.7733],
[-5.3389,35.8377],
[-5.5713,35.8377]
]
],
[
[
[-2.9926,35.4514],
[-2.9816,35.2584],
[-2.827,35.2584],
[-2.8379,35.4514],
[-2.9926,35.4514]
]
],
[
[
[1.1831,39.0618],
[1.2735,38.8034],
[1.4305,38.8034],
[1.6575,38.9972],
[1.6518,39.1265],
[1.2587,39.1265],
[1.1831,39.0618]
]
],
[
[
[2.3381,39.6436],
[2.3461,39.4496],
[2.6586,39.5143],
[2.8237,39.3203],
[3.2958,39.3203],
[3.5158,39.7729],
[3.1979,39.8376],
[3.193,39.967],
[2.8772,39.967],
[2.3381,39.6436]
]
],
[
[
[3.7411,40.0964],
[3.8268,39.9023],
[4.3024,39.8376],
[4.2151,40.0964],
[3.7411,40.0964]
]
]
]}
}
