{
"type": "Feature",
"properties": {"id":"cliopatria-taifa-of-zaragoza-1072","edge_precision":"unknown","cliopatria_name":"Taifa of Zaragoza","cliopatria_from_year":1072,"cliopatria_to_year":1084,"cliopatria_area_km2":38139,"cliopatria_wikidata":"Q33061","cliopatria_wikipedia":"Taifa of Zaragoza","cliopatria_seshat_id":"es_taifas","cliopatria_member_of":"(Taifas of Iberia)"},
"geometry": {"type": "MultiPolygon", "coordinates": [
[
[
[-2.1165,41.4571],
[-2.0151,41.1328],
[-1.5136,40.744],
[-0.8991,41.068],
[-0.5021,41.068],
[-0.4113,40.8736],
[-0.0075,40.744],
[0.0789,40.6144],
[0.3923,40.6792],
[0.3992,40.5496],
[0.4784,40.5496],
[0.7093,40.6792],
[0.6958,40.9384],
[1.2384,41.1977],
[1.7121,41.2625],
[1.7916,41.2625],
[1.7028,41.4571],
[1.3845,41.4571],
[1.0563,41.6518],
[0.651,41.7816],
[0.6404,41.9764],
[0.5606,41.9764],
[0.5571,42.0413],
[0.3974,42.0413],
[0.401,41.9764],
[0.1617,41.9764],
[0.0744,42.1063],
[-0.6524,42.2362],
[-0.7486,42.4962],
[-1.3802,42.3662],
[-1.7845,42.4312],
[-1.7667,42.1712],
[-1.9175,42.0413],
[-1.8288,41.9114],
[-1.82,41.7816],
[-1.9795,41.7816],
[-1.8822,41.522],
[-2.1165,41.4571]
]
]
]}
}
