{
"type": "Feature",
"properties": {"id":"cliopatria-danishmendids-1139","edge_precision":"unknown","cliopatria_name":"Danishmendids","cliopatria_from_year":1139,"cliopatria_to_year":1151,"cliopatria_area_km2":77465,"cliopatria_wikidata":"Q846670","cliopatria_wikipedia":"Danishmendids"},
"geometry": {"type": "MultiPolygon", "coordinates": [
[
[
[35.0133,38.6743],
[35.0843,38.6097],
[35.5854,38.868],
[35.821,38.868],
[36.0884,38.4806],
[36.4803,38.4806],
[37.053,38.6743],
[36.9112,38.1578],
[37.3807,38.1578],
[37.5695,38.416],
[38.7448,38.416],
[38.6135,38.6097],
[38.6565,38.9326],
[39.0669,39.0618],
[39.2177,39.5789],
[38.851,39.7729],
[38.8181,40.0964],
[38.8275,40.1612],
[38.8049,40.5496],
[38.6656,40.6792],
[37.8639,40.6144],
[37.5654,40.744],
[37.169,40.744],
[36.879,40.9384],
[35.9181,40.8736],
[35.7251,40.6144],
[35.6913,40.3554],
[35.5248,40.2906],
[35.5,40.0964],
[35.1202,39.5789],
[35.0133,38.6743]
]
]
]}
}
