{
"type": "Feature",
"properties": {"id":"cliopatria-kingdom-of-france-1762","edge_precision":"unknown","cliopatria_name":"Kingdom of France","cliopatria_from_year":1762,"cliopatria_to_year":1762,"cliopatria_area_km2":566127,"cliopatria_wikidata":"Q207162","cliopatria_wikipedia":"Kingdom of France","cliopatria_seshat_id":"fr_bourbon_k_2","cliopatria_member_of":"(Kingdom of France)"},
"geometry": {"type": "MultiPolygon", "coordinates": [
[
[
[-64.592,49.98],
[-64.4037,49.7807],
[-64.0344,49.7143],
[-63.4964,49.3163],
[-63.0961,49.1838],
[-62.2802,49.0513],
[-61.7295,49.1175],
[-61.8602,49.3826],
[-62.4276,49.5152],
[-63.0982,49.8471],
[-64.592,49.98]
]
],
[
[
[-4.9117,48.522],
[-4.8913,48.3238],
[-4.6426,48.3238],
[-4.5464,48.1917],
[-4.7054,48.1257],
[-4.6921,47.9938],
[-4.4244,47.7959],
[-3.9349,47.8619],
[-3.7572,47.73],
[-3.3443,47.73],
[-3.1555,47.4665],
[-2.8373,47.5982],
[-2.8258,47.4665],
[-2.5784,47.4665],
[-2.5616,47.269],
[-2.2322,47.269],
[-2.1391,47.1374],
[-2.1944,46.8086],
[-2.0249,46.7429],
[-2.0144,46.6115],
[-1.666,46.3489],
[-1.2518,46.2833],
[-1.2227,45.8898],
[-1.1411,45.8898],
[-1.2131,45.7588],
[-1.0453,45.6933],
[-1.0312,45.4968],
[-1.1894,45.4313],
[-1.1706,45.1696],
[-1.2519,45.1696],
[-1.2054,44.516],
[-1.2863,44.516],
[-1.268,44.2548],
[-1.3488,44.2548],
[-1.3214,43.8634],
[-1.402,43.8634],
[-1.4599,43.5375],
[-1.6922,43.4072],
[-1.6876,43.3421],
[-1.4418,43.2769],
[-1.4284,43.0816],
[-1.027,43.0816],
[-0.5288,42.8213],
[-0.2081,42.8213],
[0.0401,42.6912],
[1.0747,42.8213],
[1.4855,42.6262],
[1.7258,42.6262],
[1.729,42.5612],
[1.8091,42.5612],
[2.4583,42.3662],
[3.0927,42.4962],
[3.09,42.5612],
[3.0099,42.5612],
[2.9849,43.1467],
[3.8509,43.6027],
[4.173,43.6027],
[4.1778,43.4723],
[4.578,43.5375],
[5.3869,43.4072],
[5.3908,43.2769],
[5.6319,43.2769],
[5.7962,43.1467],
[6.5176,43.2118],
[6.5936,43.4072],
[6.8321,43.5375],
[6.9126,43.5375],
[6.8293,43.6678],
[6.6681,43.6678],
[6.7429,43.9286],
[6.4169,44.0591],
[6.4137,44.1896],
[6.8149,44.3201],
[6.5659,44.5813],
[6.6407,44.8426],
[6.228,45.1042],
[5.9011,45.1696],
[5.8121,45.4313],
[5.4822,45.5623],
[5.6349,45.8898],
[6.0335,46.2177],
[6.1038,46.6115],
[6.5067,46.8743],
[6.5049,46.9401],
[6.5871,46.9401],
[6.5853,47.0058],
[6.6675,47.0058],
[6.6658,47.0716],
[6.8303,47.0716],
[6.8286,47.1374],
[6.9899,47.269],
[6.9851,47.4665],
[6.8168,47.5982],
[6.9802,47.6641],
[6.9834,47.5323],
[7.3973,47.4665],
[7.5594,47.5982],
[7.5524,47.9278],
[7.6269,48.3238],
[7.7098,48.3238],
[7.7058,48.522],
[7.7888,48.522],
[7.7875,48.5881],
[7.8705,48.5881],
[7.868,48.7204],
[8.115,48.8527],
[8.1127,48.9851],
[6.6917,49.1838],
[6.6881,49.3163],
[6.855,49.3163],
[6.8516,49.4489],
[7.1038,49.3826],
[7.0136,49.6479],
[6.3465,49.5816],
[6.3484,49.5152],
[5.5128,49.5152],
[4.9984,49.8471],
[4.8309,49.8471],
[4.8202,50.113],
[4.988,50.113],
[5.1482,50.3125],
[5.4796,50.4457],
[5.9023,50.3791],
[5.7228,50.7121],
[5.7113,51.0457],
[5.8803,51.0457],
[5.8781,51.1124],
[5.7021,51.3128],
[5.5328,51.3128],
[5.2839,51.1792],
[5.2914,50.9789],
[5.207,50.9789],
[5.2171,50.7121],
[5.0486,50.7121],
[5.059,50.4457],
[4.6468,50.246],
[4.6551,50.0465],
[4.1548,49.98],
[4.1428,50.246],
[3.9686,50.3791],
[3.5482,50.3791],
[3.1067,50.7788],
[2.6008,50.7788],
[2.4933,51.1792],
[2.4087,51.1792],
[1.6562,51.0457],
[1.4247,50.7121],
[1.455,50.246],
[1.0528,49.98],
[0.2241,49.8471],
[-0.0124,49.6479],
[0.007,49.3826],
[-1.2508,49.4489],
[-1.3618,49.7807],
[-2.0316,49.7807],
[-1.9133,49.3826],
[-1.6517,49.25],
[-1.635,49.0513],
[-1.7183,49.0513],
[-1.6022,48.6542],
[-2.5219,48.7204],
[-2.7594,48.5881],
[-3.1222,48.9189],
[-3.4551,48.9189],
[-3.8518,48.7204],
[-4.5999,48.7204],
[-4.9117,48.522]
],
[
[4.6313,44.3201],
[4.7076,44.4507],
[4.9526,44.3854],
[5.1101,44.516],
[5.2885,43.9938],
[5.0484,43.9286],
[4.9742,43.733],
[4.7301,43.7982],
[4.7997,44.1243],
[4.9613,44.1243],
[5.0378,44.2548],
[4.7121,44.3201],
[4.6313,44.3201]
],
[
[7.0302,48.9851],
[7.1967,48.9851],
[7.1999,48.8527],
[7.0335,48.8527],
[7.0302,48.9851]
]
],
[
[
[5.7021,51.3128],
[5.956,51.3128],
[5.9516,51.4465],
[6.1232,51.3797],
[6.1253,51.3128],
[6.9701,51.3797],
[7.2289,51.1792],
[7.5657,51.246],
[7.5741,50.8455],
[7.6584,50.8455],
[7.581,50.5122],
[7.9214,50.3125],
[7.6733,50.113],
[7.7625,49.8471],
[8.683,49.9136],
[8.5927,50.3791],
[8.5918,50.4457],
[8.5067,50.5122],
[8.6733,50.6455],
[8.5039,50.7121],
[8.5011,50.9122],
[8.6682,51.0457],
[9.1751,51.0457],
[9.2612,50.8455],
[9.683,50.8455],
[9.8509,51.0457],
[10.0199,51.0457],
[10.0195,51.1792],
[9.4275,51.1792],
[9.4261,51.3797],
[9.5944,51.5803],
[9.1691,51.7142],
[9.168,51.8481],
[8.825,52.1163],
[8.4002,52.0492],
[8.4021,51.9151],
[7.9758,51.9822],
[7.7232,51.8481],
[7.6422,51.6472],
[7.2195,51.5803],
[6.4483,51.8481],
[6.0212,51.9151],
[5.9406,51.7811],
[5.7707,51.7811],
[5.8647,51.5134],
[5.7021,51.3128]
],
[
[6.4581,51.5134],
[6.5429,51.5134],
[6.541,51.5803],
[6.6258,51.5803],
[6.6295,51.4465],
[6.46,51.4465],
[6.4581,51.5134]
]
]
]}
}
