{
"type": "Feature",
"properties": {"id":"cliopatria-republic-of-vietnam-1956","edge_precision":"unknown","cliopatria_name":"Republic of Vietnam","cliopatria_from_year":1956,"cliopatria_to_year":1966,"cliopatria_area_km2":180020,"cliopatria_wikidata":"Q172640","cliopatria_wikipedia":"South Vietnam","cliopatria_seshat_id":"vt_vietnam_rep"},
"geometry": {"type": "MultiPolygon", "coordinates": [
[
[
[103.8144,10.2502],
[103.9435,10.0574],
[104.0897,10.0574],
[104.1244,10.4431],
[103.905,10.4431],
[103.8144,10.2502]
]
],
[
[
[104.4111,10.3788],
[104.5399,10.186],
[105.0345,9.9931],
[104.7926,9.7359],
[104.7122,8.7716],
[104.8532,8.7073],
[104.6969,8.5788],
[104.984,8.5145],
[105.3696,8.7716],
[105.6203,9.1574],
[106.1425,9.2859],
[106.2321,9.4788],
[106.603,9.5431],
[106.5525,9.8002],
[106.6987,9.8002],
[106.6429,9.9931],
[106.7949,10.0574],
[106.8066,10.186],
[106.6663,10.2502],
[106.8185,10.3145],
[106.7574,10.4431],
[106.9828,10.5074],
[107.0012,10.7003],
[107.0743,10.7003],
[107.0499,10.4431],
[107.3364,10.3788],
[108.0253,10.7003],
[108.1173,10.8931],
[108.5691,11.0217],
[108.582,11.1503],
[108.7284,11.1503],
[109.2141,11.6003],
[109.2251,12.3717],
[109.3203,12.5646],
[109.4669,12.5646],
[109.5119,12.9503],
[109.3806,13.0789],
[109.3623,13.5289],
[109.2889,13.5289],
[109.3544,14.0432],
[109.1764,14.3646],
[109.1553,14.7504],
[108.9706,15.0075],
[109.0164,15.329],
[108.6767,15.5218],
[108.6955,15.6504],
[108.3754,15.9718],
[108.385,16.0361],
[108.1393,16.3576],
[107.8447,16.3576],
[107.8644,16.4861],
[107.717,16.4861],
[107.6731,16.679],
[107.482,16.8719],
[107.3346,16.8719],
[107.291,17.0647],
[107.0264,17.2576],
[106.9527,17.2576],
[106.6074,16.9362],
[106.6857,16.4861],
[106.9706,16.4219],
[107.1527,16.1647],
[107.5016,16.0361],
[107.2976,15.6504],
[107.6927,15.329],
[107.5127,14.5575],
[107.3804,14.1075],
[107.6172,13.6575],
[107.6093,13.5932],
[107.6669,13.4646],
[107.5248,12.886],
[107.6419,12.6289],
[107.5469,12.436],
[107.6202,12.436],
[107.613,12.3717],
[107.5398,12.3717],
[107.086,12.2432],
[106.7652,11.986],
[106.5455,11.986],
[106.372,11.7289],
[106.0059,11.7289],
[105.8462,11.6003],
[105.8869,11.2788],
[106.2212,10.9574],
[106.1356,10.8288],
[105.9161,10.8288],
[105.7822,10.9574],
[105.1175,10.8931],
[104.9408,10.5717],
[104.417,10.4431],
[104.4111,10.3788]
]
]
]}
}
