{
"type": "Feature",
"properties": {"id":"cliopatria-duchy-of-brittany-0947","edge_precision":"unknown","cliopatria_name":"Duchy of Brittany","cliopatria_from_year":947,"cliopatria_to_year":989,"cliopatria_area_km2":31988,"cliopatria_wikidata":"Q71747","cliopatria_wikipedia":"Duchy of Brittany"},
"geometry": {"type": "MultiPolygon", "coordinates": [
[
[
[-4.9117,48.522],
[-4.8913,48.3238],
[-4.6426,48.3238],
[-4.5464,48.1917],
[-4.7054,48.1257],
[-4.6921,47.9938],
[-4.4244,47.7959],
[-3.9349,47.8619],
[-3.7572,47.73],
[-3.3443,47.73],
[-3.1555,47.4665],
[-2.9198,47.5982],
[-2.8258,47.4665],
[-2.5784,47.4665],
[-2.1608,47.4006],
[-1.8471,47.5982],
[-1.1921,47.6641],
[-1.2023,47.7959],
[-1.0421,47.8619],
[-1,48.3899],
[-1.4976,48.3899],
[-1.5191,48.6542],
[-1.6853,48.6542],
[-2.5219,48.7204],
[-2.7594,48.5881],
[-3.1222,48.9189],
[-3.4551,48.9189],
[-3.8518,48.7204],
[-4.5999,48.7204],
[-4.9117,48.522]
]
]
]}
}
