{
"type": "Feature",
"properties": {"id":"cliopatria-livonian-brothers-of-the-sword-1216","edge_precision":"unknown","cliopatria_name":"Livonian Brothers of the Sword","cliopatria_from_year":1216,"cliopatria_to_year":1219,"cliopatria_area_km2":20482,"cliopatria_wikidata":"Q157605","cliopatria_wikipedia":"Livonian Brothers of the Sword"},
"geometry": {"type": "MultiPolygon", "coordinates": [
[
[
[21.8997,57.9038],
[22.0785,57.9038],
[22.2879,58.181],
[22.9313,58.3198],
[22.768,58.4587],
[22.8824,58.6673],
[22.4324,58.6673],
[22.5064,58.5282],
[22.3033,58.3198],
[22.2136,58.3198],
[21.937,58.2504],
[22.0191,58.181],
[21.8997,57.9038]
]
],
[
[
[23.9418,57.0751],
[24.4479,56.8686],
[24.9974,57.0063],
[25.0155,57.144],
[24.7672,57.2819],
[24.7852,57.4199],
[24.6072,57.4199],
[24.5983,57.3509],
[24.4028,57.2129],
[24.145,57.2819],
[23.9418,57.0751]
]
],
[
[
[24.5988,56.6623],
[24.6523,56.3877],
[24.8286,56.3877],
[24.9785,56.1821],
[25.7615,56.1136],
[25.9095,55.9082],
[26.4078,55.7031],
[26.4955,55.7031],
[26.8658,55.8398],
[27.2946,55.7715],
[27.47,55.7715],
[27.9716,56.1821],
[28.1477,56.1821],
[28.1239,56.5937],
[27.8803,56.7311],
[27.7918,56.7311],
[27.1624,56.6623],
[27.183,56.7998],
[26.8289,56.7998],
[26.4552,56.6623],
[26.5924,56.3877],
[26.9452,56.3877],
[26.9352,56.3191],
[27.0812,56.1136],
[26.3678,56.0451],
[26.3182,56.3191],
[26.0728,56.4563],
[26.1803,56.5937],
[25.9439,56.7998],
[25.7668,56.7998],
[25.6972,56.9374],
[25.5013,56.7998],
[24.9793,56.8686],
[24.8729,56.7311],
[24.5988,56.6623]
]
]
]}
}
