{
"type": "Feature",
"properties": {"id":"cliopatria-taifa-of-seville-1056","edge_precision":"unknown","cliopatria_name":"Taifa of Seville","cliopatria_from_year":1056,"cliopatria_to_year":1065,"cliopatria_area_km2":26138,"cliopatria_wikidata":"Q276951","cliopatria_wikipedia":"Taifa of Seville","cliopatria_seshat_id":"es_taifas","cliopatria_member_of":"(Taifas of Iberia)"},
"geometry": {"type": "MultiPolygon", "coordinates": [
[
[
[-8.1668,37.2549],
[-8.1504,37.0615],
[-8.0726,37.0615],
[-7.6779,36.9971],
[-7.4548,37.126],
[-7.4653,37.2549],
[-6.8418,37.2549],
[-6.588,36.9971],
[-6.3495,36.9326],
[-6.3447,36.8682],
[-5.8095,36.9971],
[-5.6585,37.0615],
[-5.7507,37.2549],
[-5.8874,38.0288],
[-5.7359,38.0933],
[-5.7409,38.1578],
[-5.8191,38.1578],
[-5.8241,38.2224],
[-6.9931,38.1578],
[-7.5519,38.2869],
[-7.7701,38.0933],
[-7.759,37.9643],
[-8.0661,37.8998],
[-8.1331,37.7707],
[-8.0164,37.3193],
[-8.1668,37.2549]
]
],
[
[
[-6.0685,36.2884],
[-6.0638,36.224],
[-5.8311,36.224],
[-5.5848,36.0308],
[-5.2924,36.2884],
[-5.2969,36.3528],
[-5.2193,36.3528],
[-5.2237,36.4172],
[-5.3014,36.4172],
[-5.3059,36.4816],
[-5.5389,36.4816],
[-5.6805,36.2884],
[-6.0685,36.2884]
]
]
]}
}
