{
"type": "Feature",
"properties": {"id":"cliopatria-commune-of-the-zealots-1344","edge_precision":"unknown","cliopatria_name":"Commune of the Zealots","cliopatria_from_year":1344,"cliopatria_to_year":1351,"cliopatria_area_km2":1760,"cliopatria_wikidata":"Q17151","cliopatria_wikipedia":"Thessaloniki"},
"geometry": {"type": "MultiPolygon", "coordinates": [
[
[
[22.4132,40.5496],
[22.5675,40.4849],
[22.5716,40.5496],
[22.8925,40.6144],
[22.8842,40.4849],
[23.0383,40.4201],
[23.1966,40.4201],
[23.2093,40.6144],
[23.1301,40.6144],
[23.143,40.8088],
[22.5045,40.744],
[22.4132,40.5496]
]
]
]}
}
