{
"type": "Feature",
"properties": {"id":"cliopatria-tibetan-empire-0623","edge_precision":"unknown","cliopatria_name":"Tibetan Empire","cliopatria_from_year":623,"cliopatria_to_year":626,"cliopatria_area_km2":197831,"cliopatria_wikidata":"Q2431480","cliopatria_wikipedia":"Tibetan Empire","cliopatria_seshat_id":"cn_tibet_k"},
"geometry": {"type": "MultiPolygon", "coordinates": [
[
[
[86.4242,28.3153],
[86.6229,28.1867],
[86.5956,28.0581],
[87.0342,27.9938],
[87.3703,27.8009],
[88.2124,27.8652],
[88.5552,28.0581],
[88.8427,27.9938],
[88.8706,28.1224],
[89.6244,28.1224],
[89.969,28.3153],
[90.1952,28.3153],
[90.3316,28.251],
[90.364,28.0581],
[90.8162,28.0581],
[90.9383,27.9295],
[91.4945,28.0581],
[91.6917,27.9295],
[91.649,27.7367],
[92.0255,27.7367],
[92.4916,27.8009],
[92.82,28.251],
[92.9709,28.251],
[93.3636,28.6367],
[93.832,28.701],
[94.4881,29.2152],
[94.6393,29.2152],
[94.6034,29.6652],
[94.334,29.7937],
[93.9224,30.2436],
[91.6894,30.6935],
[91.6134,30.6935],
[88.7764,30.8863],
[87.5025,30.0508],
[87.2734,29.7294],
[86.6235,29.2152],
[86.4467,28.7652],
[86.4242,28.3153]
]
]
]}
}
