{
"type": "Feature",
"properties": {"id":"cliopatria-kingdom-of-armenia-67bce","edge_precision":"unknown","cliopatria_name":"Kingdom of Armenia","cliopatria_from_year":-66,"cliopatria_to_year":-64,"cliopatria_area_km2":168772,"cliopatria_wikidata":"Q208404","cliopatria_wikipedia":"Kingdom of Armenia (antiquity)"},
"geometry": {"type": "MultiPolygon", "coordinates": [
[
[
[40.4772,40.0964],
[42.1945,39.967],
[42.4895,39.8376],
[43.7626,39.9023],
[44.5063,40.0964],
[44.8111,40.0317],
[43.8139,39.2557],
[43.6565,39.2557],
[43.1136,38.8034],
[42.6917,38.6097],
[42.3017,38.0933],
[42.2644,37.8352],
[42.0989,37.7707],
[42.1495,37.5773],
[41.8616,37.1904],
[42.3891,37.0615],
[42.737,37.3193],
[43.2828,37.3193],
[43.564,37.6417],
[43.9544,37.6417],
[44.6374,37.5128],
[44.7738,37.3838],
[44.8031,37.0615],
[45.2509,36.9326],
[45.4458,37.1904],
[45.29,37.1904],
[45.2517,37.4483],
[45.1737,37.4483],
[45.2238,37.7707],
[45.6349,37.8998],
[45.8539,38.2869],
[46.1209,38.4806],
[47.0947,38.6743],
[47.4757,38.6097],
[47.5317,38.4806],
[47.834,38.416],
[47.8899,38.2869],
[48.326,38.0933],
[48.7954,38.0933],
[48.8068,38.1578],
[48.8206,38.6743],
[48.7422,38.6743],
[48.9275,39.2557],
[48.7822,39.3203],
[48.8065,39.4496],
[48.6733,39.5789],
[48.3035,39.7083],
[47.5151,39.7083],
[47.3812,39.8376],
[47.0538,39.7729],
[46.7736,39.967],
[46.5367,39.967],
[46.4932,40.1612],
[45.5241,40.4849],
[45.4922,40.744],
[45.6747,40.8736],
[45.4727,41.068],
[45.2345,41.068],
[45.1912,41.2625],
[44.2373,41.2625],
[44.034,41.4571],
[43.7836,41.3922],
[42.795,41.6518],
[42.7154,41.6518],
[42.3631,41.4571],
[42.2502,41.2625],
[41.5348,41.2625],
[41.4495,40.744],
[40.9533,40.6144],
[40.6651,40.2906],
[40.5069,40.2906],
[40.4772,40.0964]
]
],
[
[
[46.9196,39.9023],
[46.9986,39.9023],
[47.0104,39.967],
[46.9315,39.967],
[46.9196,39.9023]
]
],
[
[
[47.0656,39.8376],
[47.1445,39.8376],
[47.1564,39.9023],
[47.0775,39.9023],
[47.0656,39.8376]
]
]
]}
}
