{
"type": "Feature",
"properties": {"id":"cliopatria-first-bulgarian-empire-1015","edge_precision":"unknown","cliopatria_name":"First Bulgarian Empire","cliopatria_from_year":1015,"cliopatria_to_year":1017,"cliopatria_area_km2":103922,"cliopatria_wikidata":"Q203817","cliopatria_wikipedia":"First Bulgarian Empire","cliopatria_seshat_id":"bg_bulgaria_medieval"},
"geometry": {"type": "MultiPolygon", "coordinates": [
[
[
[18.4814,43.0165],
[18.8642,42.6262],
[19.1782,42.4962],
[19.3254,42.2362],
[19.4853,42.2362],
[19.715,42.0413],
[19.7051,41.8465],
[19.858,41.7167],
[19.7652,41.4571],
[19.9178,41.3274],
[19.8063,40.6792],
[20.1895,40.4201],
[20.74,40.3554],
[21.0777,40.744],
[22.2155,41.1977],
[22.2278,41.3922],
[21.9136,41.4571],
[21.85,41.7167],
[21.5431,41.9114],
[21.3669,42.9515],
[21.7087,43.2769],
[21.717,43.4072],
[22.6523,44.1243],
[22.6662,44.3201],
[22.509,44.3854],
[22.5182,44.516],
[22.7658,44.5813],
[22.6941,44.7119],
[22.3699,44.7119],
[22.1943,44.516],
[22.0324,44.516],
[22.0368,44.5813],
[21.4866,44.8426],
[21.4055,44.8426],
[20.7486,44.7119],
[20.5169,44.908],
[20.5284,45.1042],
[20.2884,45.1696],
[20.1369,45.3659],
[19.8856,45.235],
[19.2351,45.235],
[19.1406,44.9734],
[19.2996,44.908],
[19.2862,44.6466],
[19.1175,44.516],
[19.1077,44.3201],
[19.2628,44.1896],
[19.0979,44.1243],
[18.8367,43.733],
[18.648,43.1467],
[18.4814,43.0165]
]
]
]}
}
