{
"type": "Feature",
"properties": {"id":"cliopatria-kalmyk-khanate-1769","edge_precision":"unknown","cliopatria_name":"Kalmyk Khanate","cliopatria_from_year":1769,"cliopatria_to_year":1771,"cliopatria_area_km2":174814,"cliopatria_wikidata":"Q4210248","cliopatria_wikipedia":"Kalmyk Khanate"},
"geometry": {"type": "MultiPolygon", "coordinates": [
[
[
[41.288,47.0716],
[41.3398,46.4802],
[41.3275,46.4145],
[41.3478,46.0865],
[41.4295,46.0865],
[41.4013,45.4968],
[41.6662,45.1696],
[41.7474,45.1696],
[42.2917,45.0388],
[42.7414,44.8426],
[42.7975,44.7119],
[43.1092,44.6466],
[43.3197,44.0591],
[43.4004,44.0591],
[43.2822,43.8634],
[43.4435,43.8634],
[43.4185,43.733],
[43.5547,43.6027],
[43.7409,43.733],
[44.6951,43.6678],
[44.721,43.7982],
[45.0435,43.7982],
[46.0782,43.3421],
[46.1989,43.5375],
[46.3464,43.4723],
[46.3734,43.6027],
[46.6424,43.733],
[46.7229,43.733],
[46.6029,43.9286],
[46.4415,43.9286],
[46.2403,44.1243],
[46.2418,44.516],
[46.5823,44.9734],
[46.6386,45.235],
[46.8296,45.3659],
[46.901,45.6933],
[47.4258,46.2177],
[47.2244,46.4145],
[47.254,46.5459],
[46.8505,46.9401],
[46.6861,46.9401],
[46.2959,47.4006],
[45.5155,47.5982],
[45.365,47.6641],
[45.3263,47.8619],
[45.0638,47.7959],
[44.4063,48.1917],
[43.9379,48.3238],
[43.2747,48.3238],
[42.4875,48.1257],
[41.8154,47.6641],
[41.6503,47.6641],
[41.3386,47.3348],
[41.288,47.0716]
]
]
]}
}
