{
"type": "Feature",
"properties": {"id":"cliopatria-greek-city-states-531bce","edge_precision":"unknown","cliopatria_name":"Greek City-States","cliopatria_from_year":-530,"cliopatria_to_year":-501,"cliopatria_area_km2":167200,"cliopatria_wikidata":"Q148837","cliopatria_wikipedia":"Polis"},
"geometry": {"type": "MultiPolygon", "coordinates": [
[
[
[2.6695,43.0165],
[2.7754,42.4312],
[2.6982,42.3662],
[3.0397,41.8465],
[3.1781,42.3662],
[3.0099,42.5612],
[2.9849,43.1467],
[3.8509,43.6027],
[4.173,43.6027],
[4.1778,43.4723],
[5.0631,43.4723],
[5.3869,43.4072],
[5.3908,43.2769],
[5.6319,43.2769],
[5.7962,43.1467],
[6.2782,43.1467],
[6.5965,43.2769],
[6.5936,43.4072],
[5.8696,43.4072],
[4.7279,43.8634],
[3.4455,43.6678],
[2.741,43.2118],
[2.7497,43.0165],
[2.6695,43.0165]
]
],
[
[
[12.4905,37.7062],
[13.192,37.5773],
[13.5784,37.2549],
[14.2779,37.126],
[14.661,36.7393],
[15.0498,36.7393],
[15.2139,37.1904],
[15.0592,37.2549],
[15.0665,37.6417],
[15.3895,38.1578],
[15.6243,38.1578],
[15.6982,37.9643],
[15.9328,37.9643],
[16.4919,38.416],
[16.5024,38.8034],
[17.1383,39.0618],
[17.0697,39.385],
[16.9162,39.5143],
[16.4473,39.6436],
[16.4567,39.967],
[16.6975,40.0964],
[16.6245,40.2906],
[16.8617,40.2906],
[16.945,40.4201],
[16.868,40.4849],
[17.0285,40.5496],
[17.3452,40.5496],
[17.4175,40.3554],
[17.8131,40.3554],
[18.1122,39.9023],
[18.3489,39.9023],
[18.4381,40.1612],
[17.9812,40.6144],
[17.5036,40.5496],
[17.5083,40.6792],
[16.8765,40.744],
[16.3062,40.2259],
[16.3796,40.0317],
[16.1427,40.0317],
[16.1445,40.0964],
[15.99,40.2259],
[15.5157,40.2259],
[15.0564,40.8736],
[14.0276,41.0032],
[14.1046,40.8736],
[14.4219,40.8736],
[14.4179,40.6792],
[14.8934,40.6792],
[15.0414,40.2259],
[15.1995,40.2259],
[15.4319,40.0317],
[15.7478,40.0317],
[15.6655,39.9023],
[15.8989,39.7729],
[16.2652,38.7389],
[15.9497,38.6743],
[15.8621,38.2869],
[15.4705,38.2869],
[15.1547,38.1578],
[15.1521,38.0288],
[14.8346,37.7707],
[14.7519,37.5128],
[14.9778,37.0615],
[14.7442,37.0615],
[12.9603,37.8352],
[12.4914,37.8352],
[12.4905,37.7062]
]
],
[
[
[13.8998,37.9643],
[14.0534,37.7707],
[14.3659,37.7707],
[14.5253,37.9643],
[14.1354,38.0288],
[14.0571,38.0288],
[13.8998,37.9643]
]
],
[
[
[19.2487,40.6144],
[19.4863,40.6144],
[19.4714,40.2906],
[19.7908,40.3554],
[19.7302,40.744],
[19.8951,40.8736],
[19.9047,41.068],
[19.7491,41.1328],
[19.6856,41.4571],
[19.4407,41.3274],
[19.4985,40.8736],
[19.3338,40.744],
[19.2545,40.744],
[19.2487,40.6144]
]
],
[
[
[19.7578,39.6436],
[19.9125,39.5789],
[19.9214,39.7729],
[19.7637,39.7729],
[19.7578,39.6436]
]
],
[
[
[19.9961,31.5933],
[20.2143,31.2719],
[20.1281,30.9506],
[20.5843,30.9506],
[20.5209,31.3362],
[20.4448,31.3362],
[20.5405,31.9146],
[21.1556,32.0431],
[21.5348,31.9789],
[21.6924,32.1074],
[23.0666,32.1074],
[23.2308,32.3645],
[23.0808,32.4288],
[23.0894,32.6216],
[22.1085,32.943],
[21.5698,32.8788],
[21.4117,32.7502],
[21.108,32.8145],
[20.8712,32.6216],
[20.6441,32.6859],
[20.7159,32.5574],
[20.563,32.5574],
[20.482,32.4288],
[20.3313,32.4931],
[20.2461,32.236],
[20.017,32.236],
[20.0891,32.1074],
[19.9961,31.5933]
]
],
[
[
[20.3199,38.1578],
[20.7865,38.0933],
[20.7954,38.2869],
[20.5664,38.416],
[20.4881,38.416],
[20.3285,38.3515],
[20.3199,38.1578]
]
],
[
[
[20.6127,37.7062],
[20.9221,37.6417],
[20.934,37.8998],
[20.6213,37.8998],
[20.6127,37.7062]
]
],
[
[
[20.7414,38.8034],
[20.9737,38.7389],
[21.1933,38.416],
[21.7384,38.3515],
[21.7286,38.1578],
[21.3342,38.0933],
[21.331,38.0288],
[21.9534,37.9643],
[21.9601,38.0933],
[22.1165,38.0933],
[22.2628,37.8998],
[22.6572,37.9643],
[22.6607,38.0288],
[22.5895,38.1578],
[22.2798,38.2224],
[22.3651,38.3515],
[22.2902,38.416],
[22.6036,38.416],
[22.5182,38.2869],
[22.8351,38.3515],
[22.7496,38.2224],
[23.9786,37.8352],
[24.0021,38.2224],
[24.1587,38.2224],
[24.1789,38.5451],
[24.0302,38.6743],
[23.5634,38.7389],
[23.6261,38.4806],
[23.3126,38.4806],
[23.1672,38.6743],
[22.9356,38.7389],
[22.9431,38.868],
[23.1825,38.9326],
[23.1787,38.868],
[23.4888,38.8034],
[23.3435,38.9972],
[23.1078,38.9972],
[22.9583,39.1265],
[22.7973,39.0618],
[22.8163,39.385],
[23.1352,39.4496],
[22.5358,39.967],
[22.5877,39.5143],
[22.1793,39.2557],
[22.1685,39.0618],
[21.9292,38.9972],
[21.8646,39.2557],
[21.6355,39.385],
[21.0779,39.2557],
[20.9896,39.0618],
[21.1467,39.0618],
[21.1403,38.9326],
[20.7475,38.9326],
[20.7414,38.8034]
]
],
[
[
[22.5515,37.4483],
[22.7076,37.4483],
[22.7144,37.5773],
[22.7925,37.5773],
[22.803,37.7707],
[22.5686,37.7707],
[22.5515,37.4483]
]
],
[
[
[22.874,36.1596],
[23.1068,36.1596],
[23.1168,36.3528],
[22.9649,36.4172],
[22.8872,36.4172],
[22.874,36.1596]
]
],
[
[
[23.1924,40.3554],
[23.2715,40.3554],
[23.2673,40.2906],
[23.6627,40.2906],
[23.6583,40.2259],
[23.8386,40.5496],
[23.6846,40.6144],
[23.698,40.8088],
[24.0106,40.744],
[24.3466,41.0032],
[25.1403,41.0032],
[24.8377,41.1977],
[24.5198,41.1977],
[24.2719,41.068],
[24.1178,41.1328],
[24.0384,41.1328],
[23.3852,40.8736],
[23.1924,40.3554]
]
],
[
[
[23.4849,38.7389],
[23.5634,38.7389],
[23.5673,38.8034],
[23.4888,38.8034],
[23.4849,38.7389]
]
],
[
[
[23.6154,35.5158],
[23.6792,35.2584],
[24.4484,35.194],
[24.7574,35.194],
[24.8237,35.001],
[26.1401,35.0653],
[26.2253,35.194],
[25.6806,35.1297],
[25.6923,35.3227],
[24.301,35.3227],
[24.1499,35.3871],
[24.1569,35.5158],
[23.6154,35.5158]
]
],
[
[
[24.2013,37.6417],
[24.2716,37.5128],
[24.4316,37.5773],
[24.3614,37.7062],
[24.2833,37.7062],
[24.2013,37.6417]
]
],
[
[
[24.3565,38.868],
[24.662,38.7389],
[24.6749,38.9326],
[24.4435,38.9972],
[24.365,38.9972],
[24.3565,38.868]
]
],
[
[
[24.491,40.8088],
[24.5513,40.5496],
[24.7936,40.6144],
[24.8081,40.8088],
[24.491,40.8088]
]
],
[
[
[24.6819,37.8352],
[24.83,37.7062],
[25.0685,37.7707],
[24.7724,38.0288],
[24.6942,38.0288],
[24.6819,37.8352]
]
],
[
[
[24.9739,39.8376],
[25.4473,39.8376],
[25.4619,40.0317],
[25.067,40.0317],
[24.9739,39.8376]
]
],
[
[
[24.9862,37.7062],
[25.0519,37.5128],
[25.286,37.5128],
[25.2205,37.7062],
[24.9862,37.7062]
]
],
[
[
[25.3308,36.9971],
[25.5644,36.9971],
[25.5727,37.126],
[25.339,37.126],
[25.3308,36.9971]
]
],
[
[
[25.7038,40.0964],
[26.0249,40.1612],
[26.0351,40.2906],
[25.7188,40.2906],
[25.7038,40.0964]
]
],
[
[
[25.9882,37.5128],
[26.3049,37.5773],
[26.3139,37.7062],
[26.0796,37.7062],
[25.9882,37.5128]
]
],
[
[
[26.2568,40.0964],
[26.6731,40.3554],
[26.6785,40.4201],
[26.6047,40.4849],
[26.3567,40.3554],
[26.3514,40.2906],
[26.2723,40.2906],
[26.2568,40.0964]
]
],
[
[
[26.5574,37.8352],
[26.6217,37.6417],
[27.012,37.6417],
[27.0263,37.8352],
[26.5574,37.8352]
]
],
[
[
[26.774,40.6144],
[26.8422,40.4849],
[26.9269,40.5496],
[27.0061,40.5496],
[26.774,40.6144]
]
],
[
[
[27.1749,42.4312],
[27.3288,42.3662],
[27.3166,42.2362],
[27.4641,42.1063],
[27.3843,42.1063],
[27.3782,42.0413],
[27.458,42.0413],
[27.4519,41.9764],
[27.5317,41.9764],
[27.5379,42.0413],
[27.6115,41.9764],
[27.9245,41.9114],
[27.796,42.2362],
[27.4949,42.4312],
[27.5135,42.6262],
[27.8466,42.7563],
[27.853,42.8213],
[27.8049,43.1467],
[27.8982,43.2769],
[28.2264,43.3421],
[28.1592,43.4723],
[28.4811,43.4723],
[28.6163,43.9938],
[28.5356,43.9938],
[28.5769,44.3854],
[28.8407,44.5813],
[28.802,44.9734],
[28.6396,44.9734],
[28.3685,44.7119],
[28.422,44.4507],
[28.341,44.4507],
[28.3002,44.0591],
[28.1186,43.8634],
[27.9982,43.4723],
[27.657,43.2769],
[27.1932,42.6262],
[27.1749,42.4312]
],
[
[27.458,42.0413],
[27.4641,42.1062],
[27.5378,42.0413],
[27.458,42.0413]
]
],
[
[
[27.9185,41.0032],
[28.0773,41.0032],
[28.1688,41.1328],
[28.6329,41.0032],
[28.7123,41.0032],
[29.1156,41.068],
[29.1028,40.9384],
[29.255,40.8736],
[29.3668,41.1977],
[28.9631,41.1328],
[28.9759,41.2625],
[28.3525,41.3922],
[28.2917,41.5869],
[28.1387,41.6518],
[28.1872,41.3274],
[27.9185,41.0032]
]
],
[
[
[29.6143,45.6933],
[29.8589,45.6933],
[30.045,45.8898],
[30.2977,45.9554],
[30.8766,46.6772],
[31.5329,46.6772],
[31.5668,46.9401],
[31.0821,47.0058],
[31.0655,46.8743],
[30.4584,46.6115],
[30.2707,46.4145],
[30.1888,46.4145],
[29.6443,45.9554],
[29.6143,45.6933]
]
],
[
[
[31.3605,41.2625],
[31.5122,41.1977],
[31.5917,41.1977],
[31.6933,41.3922],
[31.3605,41.2625]
]
],
[
[
[33.4488,44.516],
[33.9256,44.4507],
[34.3763,44.7773],
[35.2971,44.9734],
[35.4073,45.1696],
[36.2001,45.0388],
[36.3726,45.1042],
[36.4231,45.4313],
[34.6851,45.235],
[34.6038,45.235],
[33.5832,44.908],
[33.4488,44.516]
]
],
[
[
[34.7932,41.9764],
[35.015,41.8465],
[35.0063,41.7816],
[35.086,41.7816],
[35.1212,42.0413],
[34.7932,41.9764]
]
],
[
[
[36.5091,41.1328],
[37.3551,40.9384],
[37.8732,40.6792],
[38.8241,40.6792],
[39.0019,40.8088],
[39.3984,40.8088],
[39.6165,40.6792],
[40.4089,40.6792],
[40.5776,40.744],
[40.5981,40.8736],
[40.46,41.0032],
[40.3806,41.0032],
[39.7355,40.9384],
[39.2098,41.1328],
[38.9616,41.068],
[38.9518,41.0032],
[38.2977,40.8736],
[38.1581,41.0032],
[37.8312,40.9384],
[37.7706,41.068],
[37.2147,41.068],
[37.2332,41.1977],
[37.0651,41.1328],
[36.7748,41.3274],
[36.6066,41.2625],
[36.5271,41.2625],
[36.5091,41.1328]
]
],
[
[
[38.525,47.2032],
[38.6309,47.2032],
[38.6828,47.2221],
[38.6882,47.2526],
[38.5772,47.2391],
[38.525,47.2032]
]
],
[
[
[39.6305,43.733],
[39.9778,43.4072],
[40.2192,43.4072],
[40.4157,43.1467],
[40.8173,43.1467],
[41.1158,43.0165],
[41.1733,42.8864],
[41.414,42.8864],
[41.4369,43.0165],
[41.2075,43.0816],
[41.15,43.2118],
[40.3801,43.4072],
[40.322,43.5375],
[40.4138,43.6027],
[39.6305,43.733]
]
],
[
[
[39.9529,43.733],
[40.0335,43.733],
[40.0447,43.7982],
[39.964,43.7982],
[39.9529,43.733]
]
]
]}
}
