{
"type": "Feature",
"properties": {"id":"cliopatria-united-states-of-america-1792","edge_precision":"unknown","cliopatria_name":"United States of America","cliopatria_from_year":1792,"cliopatria_to_year":1793,"cliopatria_area_km2":1102732,"cliopatria_wikidata":"Q30","cliopatria_wikipedia":"United States","cliopatria_seshat_id":"us_antebellum"},
"geometry": {"type": "MultiPolygon", "coordinates": [
[
[
[-90.838,38.5451],
[-90.5148,38.0288],
[-90.3283,37.9643],
[-90.3584,38.0288],
[-90.2624,38.1578],
[-90.3537,38.3515],
[-90.18,38.4806],
[-90.4921,38.8034],
[-90.5706,38.8034],
[-90.838,38.5451]
]
],
[
[
[-90.0002,40.9384],
[-89.7837,40.6792],
[-89.5007,40.744],
[-89.7173,41.0032],
[-89.7967,41.0032],
[-90.0002,40.9384]
]
],
[
[
[-89.6833,37.0615],
[-89.4916,36.8037],
[-89.0963,36.6105],
[-89.1183,36.4816],
[-88.7023,36.4172],
[-88.4103,36.0952],
[-88.0462,35.9664],
[-87.8884,35.7733],
[-86.9315,35.5158],
[-86.39,35.5158],
[-86.2109,35.8377],
[-85.9785,35.8377],
[-85.5922,36.0308],
[-85.5674,36.1596],
[-85.2835,36.224],
[-85.2855,36.4172],
[-84.8727,36.546],
[-84.9772,36.6105],
[-84.9801,36.8037],
[-84.7501,36.9971],
[-84.3609,36.9971],
[-84.0978,36.7393],
[-83.9422,36.7393],
[-83.9179,36.8682],
[-83.6067,36.8682],
[-83.5534,36.7393],
[-83.8379,36.6749],
[-83.681,36.4816],
[-83.4479,36.4816],
[-83.5765,36.224],
[-84.0421,36.224],
[-84.2487,36.1596],
[-84.3,35.902],
[-84.6875,35.902],
[-84.5584,35.7733],
[-84.0681,35.7089],
[-84.0172,35.5802],
[-83.7077,35.5802],
[-83.5026,35.4514],
[-83.7095,35.3871],
[-84.0233,35.001],
[-84.1777,35.001],
[-84.051,34.8723],
[-84.3137,34.5506],
[-84.2936,34.2933],
[-84.5531,34.1647],
[-84.6349,33.9718],
[-84.7887,33.9718],
[-85.0537,33.6502],
[-84.9595,33.3931],
[-85.0362,33.3931],
[-84.897,33.0073],
[-84.2772,32.1074],
[-82.3515,30.6292],
[-82.3318,30.565],
[-82.1212,30.3722],
[-81.9694,30.3722],
[-81.9717,30.6292],
[-81.4205,30.565],
[-81.3445,30.565],
[-81.4268,31.0791],
[-81.1474,31.4005],
[-81.063,31.8503],
[-80.9105,31.8503],
[-80.6336,32.1717],
[-80.6759,32.3002],
[-80.3703,32.3002],
[-80.4341,32.4931],
[-80.1283,32.4931],
[-79.8651,32.6216],
[-79.8315,32.7502],
[-79.6784,32.7502],
[-79.5351,33.0073],
[-79.3053,33.0073],
[-79.1405,33.2002],
[-79.2062,33.3931],
[-79.0309,33.3288],
[-78.8563,33.7146],
[-78.5935,33.8432],
[-77.924,33.9075],
[-77.5645,34.422],
[-77.2245,34.5506],
[-77.1928,34.6793],
[-76.3673,34.7436],
[-76.2582,34.8723],
[-76.3036,35.001],
[-76.5581,35.0653],
[-76.4495,35.194],
[-76.5188,35.3871],
[-76.0319,35.3227],
[-75.9003,35.3871],
[-75.8923,35.5802],
[-75.6833,35.6445],
[-75.7228,35.9664],
[-76.0092,35.902],
[-76.0565,36.0308],
[-76.3128,36.0952],
[-76.0026,36.0952],
[-75.9727,36.224],
[-75.8175,36.224],
[-75.9375,36.546],
[-75.8063,36.6105],
[-75.9284,36.9326],
[-76.1865,36.9971],
[-76.3641,37.2549],
[-76.2861,37.2549],
[-76.3364,37.3838],
[-76.1805,37.3838],
[-76.3599,37.6417],
[-76.1767,37.7707],
[-76.3841,38.0933],
[-76.2537,38.1578],
[-76.5192,38.8034],
[-76.4407,38.8034],
[-76.522,38.9972],
[-76.3649,38.9972],
[-76.4234,39.3203],
[-76.2349,39.0618],
[-76.3135,39.0618],
[-76.2321,38.868],
[-76.3892,38.868],
[-76.23,38.6743],
[-76.3335,38.5451],
[-76.2541,38.3515],
[-75.8365,38.0933],
[-75.9147,38.0933],
[-75.8117,37.8352],
[-75.9424,37.7707],
[-75.8914,37.6417],
[-76.0749,37.5128],
[-75.9994,37.3193],
[-76.0774,37.3193],
[-76.0025,37.126],
[-75.8467,37.126],
[-75.7406,37.2549],
[-75.7905,37.3838],
[-75.3428,37.8352],
[-75.3939,37.9643],
[-74.9484,38.416],
[-75.4003,39.3203],
[-75.0313,39.1911],
[-74.9239,38.9326],
[-74.6363,38.9972],
[-74.4808,39.1911],
[-74.5347,39.3203],
[-74.1194,39.6436],
[-74.1743,39.7729],
[-73.8671,40.1612],
[-73.9291,40.4849],
[-74.0874,40.4849],
[-74.1445,40.6144],
[-73.6408,40.5496],
[-73.4601,40.6792],
[-72.2486,40.8088],
[-71.937,41.0032],
[-71.994,41.1328],
[-73.207,41.0032],
[-73.1782,40.9384],
[-73.4741,41.068],
[-72.8172,41.1977],
[-72.8462,41.2625],
[-71.5236,41.3274],
[-71.3712,41.522],
[-71.429,41.6518],
[-71.2697,41.6518],
[-71.212,41.522],
[-70.8936,41.522],
[-70.7121,41.6518],
[-70.7284,41.3274],
[-70.4899,41.3274],
[-70.5752,41.522],
[-69.9156,41.6518],
[-69.9503,41.9114],
[-70.1099,41.9114],
[-70.1321,41.7816],
[-70.3712,41.7816],
[-70.6253,42.1712],
[-70.9238,42.3012],
[-70.9831,42.4312],
[-70.6423,42.5612],
[-70.822,42.9515],
[-70.5218,43.3421],
[-70.361,43.3421],
[-70.2109,43.5375],
[-70.272,43.6678],
[-70.1721,43.7982],
[-69.6884,43.7982],
[-69.7189,43.8634],
[-69.3963,43.8634],
[-69.3766,43.9938],
[-69.1345,43.9938],
[-68.9837,44.1896],
[-69.045,44.3201],
[-68.8832,44.3201],
[-68.8637,44.4507],
[-68.691,44.2548],
[-68.2059,44.2548],
[-68.2162,44.4507],
[-67.943,44.3854],
[-67.9229,44.516],
[-67.518,44.516],
[-67.4976,44.6466],
[-67.1227,44.7119],
[-67.0416,44.7119],
[-67.031,45.0388],
[-67.0615,45.1042],
[-67.3665,45.235],
[-67.5519,45.6278],
[-67.7461,45.6933],
[-67.9031,46.0209],
[-67.8028,46.1521],
[-67.8662,46.2833],
[-67.7843,46.2833],
[-67.8799,46.4802],
[-67.9619,46.4802],
[-68.1578,46.5459],
[-68.1617,46.2177],
[-69.4705,46.2177],
[-69.4382,46.1521],
[-69.6835,46.1521],
[-69.6511,46.0865],
[-69.8146,46.0865],
[-69.9133,45.9554],
[-70.1415,46.0865],
[-70.2233,46.0865],
[-70.7647,45.3659],
[-71.3833,45.3004],
[-71.3678,45.1042],
[-71.5303,45.1042],
[-71.6283,44.9734],
[-75.1195,44.9734],
[-75.0859,44.908],
[-75.5867,44.7773],
[-75.6482,44.5813],
[-75.8102,44.5813],
[-76.0002,44.3201],
[-76.1619,44.3201],
[-76.0952,44.1896],
[-76.2568,44.1896],
[-76.0102,43.8634],
[-76.1862,43.733],
[-76.1205,43.6027],
[-76.3292,43.5375],
[-76.2965,43.4723],
[-76.5379,43.4723],
[-76.5051,43.4072],
[-76.666,43.4072],
[-76.7613,43.2769],
[-77.8063,43.2769],
[-78.2749,43.4072],
[-78.2554,43.2118],
[-78.3358,43.2118],
[-78.1562,43.0165],
[-78.2364,43.0165],
[-78.1677,42.5612],
[-78.2477,42.5612],
[-78.1829,42.4312],
[-78.2629,42.4312],
[-78.278,41.9764],
[-80.3999,41.9114],
[-80.3853,42.0413],
[-80.6248,42.0413],
[-80.4472,41.8465],
[-80.5269,41.8465],
[-80.4622,41.7167],
[-80.557,41.5869],
[-80.461,41.3922],
[-80.5405,41.3922],
[-80.4769,41.2625],
[-80.5726,41.1328],
[-80.4783,40.9384],
[-80.5577,40.9384],
[-80.5435,40.744],
[-80.7813,40.744],
[-80.7502,40.6792],
[-80.9569,40.6144],
[-80.7547,40.3554],
[-80.9007,40.1612],
[-80.8403,40.0317],
[-80.9681,39.967],
[-80.9083,39.8376],
[-81.6173,39.3203],
[-81.7747,39.3203],
[-81.8336,39.4496],
[-81.7549,39.4496],
[-81.8063,39.9023],
[-82.2799,39.9023],
[-82.2193,39.7729],
[-82.7714,39.7729],
[-82.711,39.6436],
[-82.7898,39.6436],
[-82.7297,39.5143],
[-82.8275,39.385],
[-82.7386,39.1911],
[-82.8371,39.0618],
[-82.6216,38.9326],
[-82.7001,38.9326],
[-82.6556,38.4806],
[-82.9194,38.5451],
[-83.0841,38.7389],
[-83.369,38.6743],
[-83.3402,38.6097],
[-83.7904,38.7389],
[-83.9182,38.6743],
[-84.3416,39.2557],
[-84.6078,39.3203],
[-84.6748,39.1265],
[-84.832,39.1265],
[-84.7721,38.9972],
[-84.9186,38.8034],
[-85.0756,38.8034],
[-85.1734,38.6743],
[-85.5169,38.7389],
[-85.5067,38.5451],
[-85.8498,38.6097],
[-85.9965,38.416],
[-85.8798,38.1578],
[-86.0278,37.9643],
[-86.1842,37.9643],
[-86.2711,38.1578],
[-86.4568,38.2224],
[-86.4767,38.0933],
[-86.7114,38.0933],
[-86.8589,37.8998],
[-87.3862,38.0288],
[-87.357,37.9643],
[-87.6406,37.8998],
[-87.6606,37.7707],
[-88.2659,37.8998],
[-88.2564,37.7062],
[-88.8618,37.8352],
[-88.8812,37.7062],
[-89.0374,37.7062],
[-89.135,37.5773],
[-89.0479,37.3838],
[-89.458,37.2549],
[-89.2655,36.9971],
[-89.6833,37.0615]
]
],
[
[
[-87.9801,38.8034],
[-87.7803,38.5451],
[-87.4968,38.6097],
[-87.6966,38.868],
[-87.8843,38.9326],
[-87.8231,38.8034],
[-87.9801,38.8034]
]
],
[
[
[-83.7501,41.9114],
[-83.7291,41.7167],
[-83.4104,41.7167],
[-83.557,41.8465],
[-83.4186,42.0413],
[-83.6581,42.0413],
[-83.6704,41.9114],
[-83.7501,41.9114]
]
],
[
[
[-75.6454,35.3227],
[-75.5997,35.194],
[-75.4452,35.194],
[-75.468,35.2584],
[-75.3907,35.2584],
[-75.4364,35.3871],
[-75.6454,35.3227]
]
]
]}
}
