{
"type": "Feature",
"properties": {"id":"cliopatria-kingdom-of-asturias-0878","edge_precision":"unknown","cliopatria_name":"Kingdom of Asturias","cliopatria_from_year":878,"cliopatria_to_year":910,"cliopatria_area_km2":128718,"cliopatria_wikidata":"Q231392","cliopatria_wikipedia":"Kingdom of Asturias","cliopatria_seshat_id":"es_asturias_k"},
"geometry": {"type": "MultiPolygon", "coordinates": [
[
[
[-9.3046,43.1467],
[-9.0787,42.5612],
[-8.9185,42.5612],
[-8.9044,42.4312],
[-8.6504,42.3012],
[-8.9561,42.1712],
[-8.727,40.744],
[-8.8723,40.6144],
[-8.8461,40.3554],
[-8.9252,40.3554],
[-8.8993,40.0964],
[-8.9783,40.0964],
[-8.9718,40.0317],
[-8.4854,39.9023],
[-8.182,40.0317],
[-8.1404,40.4201],
[-8.2196,40.4201],
[-8.2386,40.6144],
[-8.0928,40.744],
[-8.1184,41.0032],
[-7.8135,41.1328],
[-7.569,41.068],
[-7.4226,41.1977],
[-7.0987,41.1328],
[-7.0314,41.2625],
[-5.2938,41.3922],
[-5.1457,41.522],
[-4.7477,41.522],
[-3.9774,41.8465],
[-1.8288,41.9114],
[-1.7756,42.3012],
[-2.0199,42.3662],
[-2.1183,42.6262],
[-2.9993,42.6262],
[-2.934,42.8213],
[-3.0142,42.8213],
[-3.0293,43.0165],
[-3.1949,43.0816],
[-3.1402,43.4072],
[-4.9904,43.4072],
[-5.6461,43.5375],
[-7.1757,43.5375],
[-7.3435,43.6027],
[-7.2765,43.733],
[-8.2436,43.733],
[-8.3904,43.6027],
[-8.369,43.4072],
[-8.8517,43.4072],
[-9.3046,43.1467]
]
]
]}
}
