{
"type": "Feature",
"properties": {"id":"cliopatria-county-of-vexin-0990","edge_precision":"unknown","cliopatria_name":"County of Vexin","cliopatria_from_year":990,"cliopatria_to_year":1065,"cliopatria_area_km2":4286,"cliopatria_wikidata":"Q1476089","cliopatria_wikipedia":"Vexin","cliopatria_seshat_id":"fr_capetian_k_1","cliopatria_member_of":"(Kingdom of France)"},
"geometry": {"type": "MultiPolygon", "coordinates": [
[
[
[1.3888,48.6542],
[1.5671,48.4559],
[1.733,48.4559],
[1.8003,48.7204],
[2.1251,48.8527],
[2.1893,49.1838],
[1.689,49.1838],
[1.6931,49.1175],
[1.3888,48.6542]
]
],
[
[
[2.9432,49.1175],
[2.9467,49.0513],
[3.03,49.0513],
[3.0334,48.9851],
[3.4562,48.8527],
[3.5394,48.8527],
[3.6194,48.9189],
[3.6003,49.3163],
[3.35,49.3163],
[3.1099,49.1175],
[2.9432,49.1175]
]
]
]}
}
