{
"type": "Feature",
"properties": {"id":"cliopatria-principality-of-moldavia-1600","edge_precision":"unknown","cliopatria_name":"Principality of Moldavia","cliopatria_from_year":1600,"cliopatria_to_year":1601,"cliopatria_area_km2":256733,"cliopatria_wikidata":"Q10957559","cliopatria_wikipedia":"Moldavia","cliopatria_seshat_id":"md_moldavia_principality_2"},
"geometry": {"type": "MultiPolygon", "coordinates": [
[
[
[20.819,47.2032],
[21.1439,47.1374],
[21.1312,46.9401],
[21.3691,46.8086],
[21.6154,46.8086],
[21.7617,46.5459],
[22.4128,46.4802],
[22.3987,46.2833],
[22.4806,46.2833],
[22.3802,46.0209],
[22.1305,45.9554],
[22.0354,45.7588],
[21.8722,45.7588],
[21.7819,45.6278],
[21.6189,45.6278],
[21.5204,45.3659],
[21.8416,45.3004],
[22.1445,44.9734],
[22.5505,44.9734],
[22.532,44.7119],
[22.6895,44.6466],
[22.5182,44.516],
[22.5044,44.3201],
[22.8946,44.1243],
[22.9518,43.7982],
[23.6018,43.8634],
[24.1509,43.6678],
[24.8814,43.733],
[25.3538,43.6027],
[25.8486,43.733],
[26.2814,44.0591],
[27.4927,44.0591],
[27.8289,44.1896],
[27.943,44.516],
[27.7877,44.5813],
[27.801,44.7119],
[27.9699,44.7773],
[27.9969,45.0388],
[27.8479,45.1696],
[27.8681,45.3659],
[28.119,45.4313],
[28.1465,45.6933],
[28.3096,45.6933],
[28.3305,45.8898],
[28.508,46.0209],
[28.4404,46.1521],
[28.8857,46.4802],
[29.5717,46.7429],
[29.5793,46.8086],
[29.3482,46.9401],
[29.3635,47.0716],
[29.2142,47.2032],
[29.2219,47.269],
[28.9824,47.3348],
[28.9303,47.5982],
[29.0282,47.73],
[28.8783,47.8619],
[28.5553,47.9278],
[28.5704,48.0597],
[28.42,48.1917],
[27.5379,48.4559],
[27.3937,48.6542],
[26.4729,48.5881],
[25.9813,48.6542],
[25.3424,48.9189],
[25.2463,48.7865],
[25.5594,48.5881],
[25.5401,48.3899],
[25.0118,48.0597],
[24.9876,47.7959],
[24.7398,47.7959],
[24.5862,47.9278],
[24.6867,48.1257],
[24.3672,48.2578],
[24.379,48.3899],
[24.053,48.4559],
[23.8269,48.7204],
[23.0897,48.8527],
[22.7784,49.1175],
[22.4398,49.0513],
[22.519,47.9278],
[22.3487,47.8619],
[22.339,47.73],
[21.1741,47.5982],
[20.8273,47.3348],
[20.819,47.2032]
]
]
]}
}
