{
"type": "Feature",
"properties": {"id":"cliopatria-western-xia-1126","edge_precision":"unknown","cliopatria_name":"Western Xia","cliopatria_from_year":1126,"cliopatria_to_year":1138,"cliopatria_area_km2":473393,"cliopatria_wikidata":"Q7427","cliopatria_wikipedia":"Western Xia","cliopatria_seshat_id":"cn_xixia"},
"geometry": {"type": "MultiPolygon", "coordinates": [
[
[
[96.2117,39.4496],
[96.2905,39.4496],
[96.2337,39.1265],
[96.5482,39.1265],
[96.6785,39.0618],
[96.6248,38.9326],
[96.9659,38.9972],
[97.7207,38.5451],
[98.3996,38.4806],
[98.5815,38.3515],
[100.1481,38.3515],
[100.4074,38.2224],
[100.7988,38.2224],
[100.7449,38.0933],
[101.4762,38.1578],
[102.5952,38.0288],
[102.568,37.9643],
[103.4788,37.8998],
[103.4514,37.8352],
[103.9984,37.8352],
[103.971,37.7707],
[104.541,37.6417],
[104.619,37.6417],
[105.433,37.8998],
[106.1647,37.9643],
[106.8154,38.5451],
[107.4426,38.5451],
[107.5113,38.3515],
[107.9029,38.3515],
[107.9718,38.1578],
[108.745,37.9643],
[108.8434,37.8352],
[109.7615,37.9643],
[110.3979,38.1578],
[110.6748,38.416],
[111.0186,38.4806],
[111.1562,38.9326],
[111.3761,39.0618],
[111.518,39.1911],
[111.3925,39.2557],
[111.6837,39.8376],
[112.4834,40.6144],
[112.578,40.9384],
[111.2738,40.8736],
[111.3084,40.9384],
[110.8323,40.9384],
[110.8668,41.0032],
[109.7898,41.068],
[108.6685,40.744],
[107.4137,40.6144],
[103.96,40.6792],
[103.6436,41.0032],
[103.7079,41.1328],
[103.2387,41.7816],
[102.8263,41.9114],
[102.9723,42.0413],
[102.0336,42.2362],
[101.8933,42.4312],
[101.7334,42.4312],
[101.72,42.5612],
[101.4798,42.5612],
[101.5131,42.6262],
[100.9525,42.6262],
[99.784,42.6912],
[99.5584,42.5612],
[98.918,42.5612],
[98.9504,42.6262],
[98.1016,42.6912],
[98.0694,42.6262],
[97.8453,42.4962],
[97.4818,41.9114],
[97.2296,41.7167],
[97.2785,41.6518],
[96.9863,41.1977],
[96.8373,40.8736],
[96.5906,40.6792],
[96.4392,40.1612],
[96.4108,40.0964],
[96.2117,39.4496]
]
]
]}
}
