{
"type": "Feature",
"properties": {"id":"cliopatria-kingdom-of-bohemia-1216","edge_precision":"unknown","cliopatria_name":"Kingdom of Bohemia","cliopatria_from_year":1216,"cliopatria_to_year":1219,"cliopatria_area_km2":72031,"cliopatria_wikidata":"Q42585","cliopatria_wikipedia":"Kingdom of Bohemia","cliopatria_seshat_id":"cz_bohemian_k_1","cliopatria_member_of":"(Holy Roman Empire);(Kingdom of Bohemia)"},
"geometry": {"type": "MultiPolygon", "coordinates": [
[
[
[12.9461,49.25],
[13.113,49.25],
[13.2763,49.0513],
[13.443,49.0513],
[13.6057,48.8527],
[13.9371,48.7865],
[14.1821,48.5881],
[14.7651,48.6542],
[14.9405,48.9851],
[15.6877,48.9189],
[16.1799,48.7204],
[16.928,48.7204],
[17.4296,48.7865],
[18.4551,49.3163],
[19.0393,49.3163],
[19.0469,49.4489],
[18.7164,49.5152],
[18.3162,49.8471],
[18.3234,49.98],
[17.9042,49.98],
[15.9229,50.7788],
[15.417,50.7788],
[15.2553,50.9789],
[14.5778,50.9122],
[14.4974,51.0457],
[14.3284,51.0457],
[14.154,50.8455],
[13.3919,50.7121],
[13.3036,50.5122],
[13.6402,50.5122],
[13.7182,50.246],
[13.2105,50.0465],
[13.2081,49.9136],
[13.3744,49.8471],
[13.4542,49.6479],
[13.3706,49.6479],
[13.3681,49.5152],
[13.0327,49.4489],
[12.9461,49.25]
]
]
]}
}
