{
"type": "Feature",
"properties": {"id":"cliopatria-yenisei-kyrgyz-0555","edge_precision":"unknown","cliopatria_name":"Yenisei Kyrgyz","cliopatria_from_year":555,"cliopatria_to_year":681,"cliopatria_area_km2":423937,"cliopatria_wikidata":"Q83142","cliopatria_wikipedia":"Yenisei Kyrgyz"},
"geometry": {"type": "MultiPolygon", "coordinates": [
[
[
[90.3374,54.9531],
[90.4245,54.9531],
[90.5037,54.6811],
[90.6775,54.6811],
[90.6322,54.6132],
[90.8059,54.6132],
[90.8023,54.4774],
[91.2323,54.3417],
[91.2288,54.2061],
[91.482,53.9352],
[91.4326,53.5971],
[91.9012,53.2596],
[91.7271,52.99],
[91.5125,52.9227],
[91.4695,52.8554],
[91.5552,52.8554],
[91.2147,52.4519],
[91.5573,52.3176],
[91.0998,51.7142],
[91.0149,51.7142],
[90.9743,51.6472],
[91.144,51.6472],
[91.1035,51.5803],
[92.3757,51.5803],
[94.5843,52.2505],
[96.3824,52.5191],
[97.92,52.5191],
[97.8744,52.4519],
[98.2954,52.3176],
[98.25,52.2505],
[99.0112,52.1163],
[99.6752,52.5863],
[100.5962,52.9227],
[101.4801,52.7208],
[101.4323,52.6535],
[101.6033,52.6535],
[101.6312,52.4519],
[101.802,52.4519],
[101.7924,52.3176],
[102.5125,52.2505],
[102.465,52.1833],
[102.8812,52.0492],
[102.834,51.9822],
[103.212,51.9151],
[103.1559,51.7142],
[103.3257,51.7142],
[104.7907,51.9822],
[104.7056,51.9822],
[104.7655,52.1833],
[104.6803,52.1833],
[104.7777,52.3176],
[104.4387,52.7881],
[104.5382,52.9227],
[104.4168,52.99],
[104.517,53.1248],
[104.3248,53.3271],
[104.3754,53.3946],
[103.9606,53.5296],
[103.9762,53.6647],
[103.89,53.6647],
[103.9923,53.7999],
[103.8197,53.7999],
[103.8709,53.8676],
[101.9805,54.3417],
[102.0317,54.4095],
[101.8228,54.4774],
[101.8742,54.5453],
[101.3334,54.7491],
[101.3143,54.9531],
[101.1401,54.9531],
[101.1567,55.0892],
[100.6143,55.2936],
[100.6311,55.43],
[100.5437,55.43],
[100.7009,55.6348],
[100.4029,55.7031],
[100.3857,55.9082],
[100.2979,55.9082],
[100.4607,56.4563],
[100.3725,56.4563],
[100.589,56.7311],
[100.5006,56.7311],
[101.1876,57.6962],
[102.0248,58.5977],
[101.9035,58.6673],
[101.9622,58.7369],
[101.7821,58.7369],
[101.7783,58.9458],
[101.0298,58.8065],
[100.3563,58.3198],
[99.9407,58.2504],
[99.7614,58.2504],
[99.7192,58.5282],
[99.6293,58.5282],
[99.6863,58.5977],
[99.3265,58.5977],
[98.4723,58.3198],
[98.0237,58.3198],
[98.0794,58.3892],
[97.8998,58.3892],
[97.9555,58.4587],
[96.7677,58.3198],
[95.2425,58.3198],
[94.675,57.6962],
[94.3403,57.4889],
[93.0476,55.8398],
[92.7755,55.7031],
[91.8512,55.6348],
[91.5749,55.3618],
[90.6954,55.2255],
[90.3374,54.9531]
]
]
]}
}
