{
"type": "Feature",
"properties": {"id":"cliopatria-aztec-triple-alliance-1519","edge_precision":"unknown","cliopatria_name":"Aztec Triple Alliance","cliopatria_from_year":1519,"cliopatria_to_year":1520,"cliopatria_area_km2":211714,"cliopatria_wikidata":"Q2608489","cliopatria_wikipedia":"Aztec Empire","cliopatria_seshat_id":"mx_aztec_emp"},
"geometry": {"type": "MultiPolygon", "coordinates": [
[
[
[-101.7167,17.7719],
[-101.11,17.2576],
[-100.023,16.9362],
[-99.4538,16.6147],
[-99.0854,16.6147],
[-99.329,17.1933],
[-99.5721,17.3219],
[-99.5942,17.4505],
[-99.4577,17.5148],
[-98.3703,17.1933],
[-97.8648,17.2576],
[-97.4956,16.8076],
[-96.6539,16.6147],
[-96.5296,16.2933],
[-96.225,16.229],
[-96.0877,16.2933],
[-96.0747,16.679],
[-96.3371,16.9362],
[-96.5171,17.579],
[-96.0959,17.7076],
[-95.916,17.5148],
[-95.4947,17.6433],
[-95.2626,17.579],
[-95.284,17.7076],
[-95.0841,17.8362],
[-94.9798,18.0933],
[-95.0346,18.4148],
[-94.92,18.6076],
[-95.0901,18.7362],
[-95.7668,18.8005],
[-96.1766,19.4434],
[-96.2506,19.4434],
[-96.5147,20.0862],
[-97.0775,20.7291],
[-97.3465,21.372],
[-98.5721,21.1791],
[-98.3507,20.7934],
[-98.3887,20.6005],
[-98.7095,20.7291],
[-99.3772,20.7291],
[-99.427,20.6005],
[-99.8101,20.6648],
[-99.8356,20.4077],
[-99.7494,20.3434],
[-99.8235,20.3434],
[-99.8373,20.022],
[-100.0596,20.022],
[-100.639,20.3434],
[-101.0838,20.3434],
[-101.1335,20.2148],
[-101.0593,20.2148],
[-101.0471,20.1505],
[-100.7385,20.0862],
[-100.3938,19.8291],
[-100.2979,19.3148],
[-100.3719,19.3148],
[-100.3511,18.8005],
[-100.4873,18.7362],
[-100.4796,18.2862],
[-100.4057,18.2862],
[-100.1956,18.3505],
[-99.8656,18.1576],
[-99.9905,18.0291],
[-99.8939,17.9005],
[-99.9339,17.7076],
[-101.2229,17.9005],
[-101.3936,18.0291],
[-101.6151,18.0291],
[-101.7167,17.7719]
]
],
[
[
[-93.0018,15.329],
[-92.9929,15.2647],
[-92.7546,15.1361],
[-92.4825,14.7504],
[-92.2313,15.0718],
[-92.2487,15.2004],
[-92.1017,15.2004],
[-92.5967,15.5861],
[-92.7438,15.5861],
[-93.0018,15.329]
]
]
]}
}
