{
"type": "Feature",
"properties": {"id":"cliopatria-kashmir-0732","edge_precision":"unknown","cliopatria_name":"Kashmir","cliopatria_from_year":732,"cliopatria_to_year":749,"cliopatria_area_km2":45737,"cliopatria_wikidata":"Q43100","cliopatria_wikipedia":"Kashmir"},
"geometry": {"type": "MultiPolygon", "coordinates": [
[
[
[75.9316,35.5802],
[76.6987,35.2411],
[76.8447,34.6755],
[76.7451,34.139],
[76.838,33.864],
[76.5792,33.4221],
[76.3769,32.571],
[76.568,33.374],
[78.7806,31.71],
[78.7533,31.9146],
[78.5553,32.0431],
[78.5414,32.3002],
[78.465,32.3002],
[78.5282,32.5574],
[78.3183,32.943],
[78.367,33.1359],
[78.1588,33.5217],
[78.1221,33.9718],
[78.0452,33.9718],
[78.1217,34.5506],
[78.0447,34.5506],
[78.2261,34.9366],
[78.0649,35.194],
[78.1004,35.3227],
[77.9814,35.4514],
[76.9936,35.5158],
[76.7193,35.6445],
[76.6772,35.7733],
[76.0053,35.5802],
[75.9316,35.5802]
]
]
]}
}
