{
"type": "Feature",
"properties": {"id":"cliopatria-nawab-of-awadh-1775","edge_precision":"unknown","cliopatria_name":"Nawab of Awadh","cliopatria_from_year":1775,"cliopatria_to_year":1782,"cliopatria_area_km2":97322,"cliopatria_wikidata":"Q2614237","cliopatria_wikipedia":"Nawab of Awadh"},
"geometry": {"type": "MultiPolygon", "coordinates": [
[
[
[78.8414,27.2866],
[78.9688,27.158],
[78.9544,26.6437],
[79.3079,26.5151],
[79.5647,26.258],
[79.9933,26.1294],
[80.0576,26.0651],
[79.9615,25.9365],
[81.1184,25.6793],
[81.5365,25.4864],
[81.6554,25.2936],
[81.9213,25.5507],
[82.0494,25.8722],
[82.4568,26.0651],
[82.7879,25.8079],
[83.1735,25.8722],
[83.2816,26.0651],
[83.6153,26.258],
[84.1813,26.0651],
[84.3842,26.7723],
[84.1078,26.9009],
[83.9804,27.4152],
[83.291,27.3509],
[81.1319,28.251],
[81.1191,28.1867],
[80.4785,27.9938],
[80.4925,27.6724],
[79.9812,27.3509],
[79.906,27.3509],
[79.848,27.0295],
[79.4085,27.0938],
[79.2811,27.2223],
[79.4147,27.5438],
[79.2126,27.6724],
[78.9749,27.6081],
[78.8414,27.2866]
]
]
]}
}
