{
"type": "Feature",
"properties": {"id":"cliopatria-kingdom-of-monaco-1815","edge_precision":"unknown","cliopatria_name":"Kingdom of Monaco","cliopatria_from_year":1815,"cliopatria_to_year":1847,"cliopatria_area_km2":164,"cliopatria_wikidata":"Q235","cliopatria_wikipedia":"Monaco"},
"geometry": {"type": "MultiPolygon", "coordinates": [
[
[
[7.2296,43.7982],
[7.2308,43.733],
[7.3114,43.733],
[7.3102,43.7982],
[7.2296,43.7982]
]
],
[
[
[7.3102,43.7982],
[7.5521,43.7982],
[7.4703,43.8634],
[7.4691,43.9286],
[7.3102,43.7982]
]
]
]}
}
