{
"type": "Feature",
"properties": {"id":"cliopatria-ripuarian-franks-0469","edge_precision":"unknown","cliopatria_name":"Ripuarian Franks","cliopatria_from_year":469,"cliopatria_to_year":499,"cliopatria_area_km2":44276,"cliopatria_wikidata":"Q316860","cliopatria_wikipedia":"Ripuarian Franks"},
"geometry": {"type": "MultiPolygon", "coordinates": [
[
[
[4.4116,51.7811],
[4.4146,51.7142],
[5.9406,51.7811],
[6.2038,51.5134],
[6.7124,51.5134],
[7.1491,50.9789],
[7.1539,50.7788],
[6.9903,50.5789],
[6.8219,50.5789],
[6.7413,50.4457],
[6.4048,50.4457],
[6.0768,50.1795],
[6.169,49.9136],
[6.4262,49.7143],
[7.0908,49.9136],
[8.265,49.8471],
[8.4256,50.3125],
[8.7592,50.5122],
[9.2665,50.246],
[9.1781,50.7121],
[9.3456,50.8455],
[9.4271,51.246],
[8.8371,51.0457],
[8.3354,50.7121],
[7.6517,51.1792],
[7.649,51.3128],
[7.3921,51.4465],
[7.3013,51.7142],
[6.6996,51.9822],
[6.6146,51.9822],
[6.6127,52.0492],
[6.6978,52.0492],
[6.948,52.2505],
[7.0165,52.9227],
[6.9308,52.9227],
[6.6662,53.1922],
[6.4945,53.1922],
[6.4126,53.0574],
[6.241,53.0574],
[6.2452,52.9227],
[6.3309,52.9227],
[6.2494,52.7881],
[6.076,52.8554],
[5.9948,52.7208],
[5.655,52.6535],
[5.5597,52.9227],
[5.3857,52.99],
[5.3908,52.8554],
[4.8854,52.6535],
[4.8112,52.3847],
[4.5581,52.3176],
[4.6521,52.1163],
[4.4116,51.7811]
]
]
]}
}
