{
"type": "Feature",
"properties": {"id":"cliopatria-british-raj-1880","edge_precision":"unknown","cliopatria_name":"British Raj","cliopatria_from_year":1880,"cliopatria_to_year":1884,"cliopatria_area_km2":4210632,"cliopatria_wikidata":"Q129286","cliopatria_wikipedia":"British Raj","cliopatria_seshat_id":"gb_british_emp_2","cliopatria_member_of":"(British Empire)"},
"geometry": {"type": "MultiPolygon", "coordinates": [
[
[
[60.9814,29.6652],
[61.4516,29.2795],
[61.4882,29.0224],
[61.8743,28.5724],
[62.7984,28.1867],
[62.8274,27.8652],
[62.9028,27.8652],
[62.822,27.2866],
[63.3308,27.158],
[63.2789,26.7723],
[63.1118,26.6437],
[62.4277,26.5794],
[61.854,26.1937],
[61.651,25.1007],
[62.0179,25.0364],
[62.182,25.165],
[62.4739,25.1007],
[62.5634,25.2293],
[63.5362,25.2293],
[63.6262,25.3579],
[64.225,25.3579],
[64.2845,25.2293],
[64.8006,25.165],
[64.8161,25.2936],
[66.0215,25.3579],
[66.2703,25.5507],
[66.4868,25.4864],
[66.6791,25.2293],
[66.632,24.8435],
[67.2147,24.7149],
[67.2514,24.3935],
[67.3261,24.3935],
[67.2891,24.072],
[67.4384,24.072],
[67.4911,23.8792],
[67.6331,23.8149],
[68.1554,23.8149],
[68.1265,23.5577],
[68.3502,23.5577],
[68.3359,23.4291],
[68.5525,23.3649],
[68.8083,22.9791],
[69.4506,22.722],
[69.7484,22.722],
[70.0674,22.9148],
[70.4326,22.8506],
[70.2837,22.8506],
[70.2766,22.7863],
[70.3697,22.7863],
[70.1811,22.5934],
[69.4974,22.4648],
[69.4093,22.3363],
[68.9765,22.4648],
[68.9495,22.2077],
[69.3487,21.7577],
[69.4974,21.7577],
[69.9032,21.372],
[69.8899,21.2434],
[70.2955,20.8577],
[70.7206,20.6648],
[71.3208,20.7291],
[71.4085,20.8577],
[72.1848,21.1791],
[72.3214,21.7577],
[72.1728,21.7577],
[72.1125,21.8863],
[72.3425,21.9505],
[72.378,22.272],
[72.5267,22.272],
[72.5444,21.7577],
[72.7603,21.6934],
[72.5629,21.2434],
[72.8994,20.922],
[72.8373,20.3434],
[72.6339,19.8291],
[72.7614,19.6362],
[72.7337,19.3791],
[72.8748,19.3148],
[72.9589,18.0291],
[73.2534,17.3219],
[73.2542,16.6147],
[73.3279,16.6147],
[73.4171,16.0361],
[73.8085,15.5218],
[73.8023,15.4575],
[74.1028,15.5218],
[74.5194,15.2647],
[74.5506,14.8147],
[74.3126,14.6218],
[74.3068,14.5575],
[74.6636,13.5932],
[74.7477,12.8217],
[75.0647,12.1789],
[75.3385,11.9217],
[75.4568,11.536],
[75.6811,11.6003],
[75.5208,11.4074],
[75.8552,10.9574],
[75.9021,10.5717],
[76.2338,10.0574],
[76.2214,9.8645],
[76.3635,9.8002],
[76.3553,9.6717],
[76.2092,9.6717],
[76.1971,9.4788],
[76.3353,9.3502],
[76.3888,9.0288],
[76.531,8.9645],
[76.7236,8.5145],
[77.1395,8.1288],
[77.5739,8.0645],
[77.8733,8.193],
[78.1803,8.4502],
[78.2842,8.9645],
[78.5883,9.1574],
[78.9577,9.2216],
[78.9865,9.6717],
[79.2959,9.9288],
[79.3176,10.2502],
[79.9026,10.2502],
[79.8749,10.8931],
[79.7286,10.8931],
[79.738,11.0217],
[79.8843,11.0217],
[79.8693,11.7931],
[79.7228,11.7931],
[79.7329,11.9217],
[79.9577,11.986],
[79.973,12.1789],
[80.303,12.6289],
[80.3414,13.0789],
[80.4147,13.0789],
[80.3754,13.4646],
[80.161,13.5289],
[80.246,13.6575],
[80.2637,14.6218],
[80.0882,15.0718],
[80.376,15.7147],
[80.6106,15.8433],
[81.1188,15.779],
[81.3227,16.2933],
[82.0665,16.3576],
[82.3832,16.5504],
[82.4055,16.7433],
[82.2581,16.7433],
[82.2731,16.8719],
[82.4508,17.129],
[83.153,17.4505],
[83.5612,17.7719],
[83.6667,18.0291],
[84.0519,18.1576],
[84.3796,18.4148],
[84.7487,18.9934],
[85.4149,19.5719],
[85.374,19.8291],
[85.5221,19.8291],
[85.4972,19.6362],
[85.6453,19.6362],
[86.4194,19.8934],
[86.4362,20.022],
[86.8404,20.2791],
[86.7915,20.472],
[87.0309,20.6005],
[86.9589,21.1791],
[86.8847,21.1791],
[87.0675,21.4363],
[87.762,21.6291],
[88.1033,21.9505],
[88.1777,21.9505],
[88.1335,21.6291],
[88.3477,21.5648],
[88.3653,21.6934],
[88.5139,21.6934],
[88.6416,22.0791],
[88.716,22.0791],
[88.728,21.6291],
[89.0995,21.6291],
[89.1173,21.7577],
[89.7118,21.7577],
[89.8695,21.822],
[89.8966,22.0148],
[90.232,21.7577],
[90.4263,22.0791],
[90.6494,22.0791],
[90.631,21.9505],
[90.8632,22.0148],
[90.9378,22.5291],
[91.497,22.7863],
[91.3748,22.4648],
[91.7374,22.4005],
[91.7648,22.0791],
[91.8948,21.9505],
[91.8302,21.5005],
[92.0531,21.5005],
[92.0074,21.1791],
[92.1195,20.922],
[92.3891,20.7291],
[92.371,20.6005],
[92.6313,20.3434],
[92.8537,20.3434],
[92.8265,20.1505],
[93.0579,20.2148],
[93.0215,19.9577],
[93.401,20.022],
[93.3827,19.8934],
[93.605,19.8934],
[93.5774,19.7005],
[93.7996,19.7005],
[93.6795,19.3791],
[93.5315,19.3791],
[93.5132,19.2505],
[93.7633,18.9291],
[93.5414,18.9291],
[93.514,18.7362],
[93.8006,18.6719],
[93.828,18.8648],
[94.1238,18.8648],
[94.4756,18.2219],
[94.4859,17.7719],
[94.6065,17.579],
[94.4266,16.8076],
[94.3529,16.8076],
[94.2423,15.9718],
[94.8145,15.8433],
[94.8716,15.7147],
[95.3381,15.9076],
[95.3131,15.7147],
[95.6074,15.7147],
[95.8136,16.1647],
[96.0345,16.1647],
[96.355,16.3576],
[96.3724,16.4861],
[96.6671,16.4861],
[96.8321,16.6147],
[96.9235,16.7433],
[96.9311,17.3219],
[97.0695,17.2576],
[97.0513,17.129],
[97.1988,17.129],
[97.1626,16.8719],
[97.2742,16.6147],
[97.4037,16.4861],
[97.6247,16.4861],
[97.5547,15.9718],
[97.7498,15.779],
[97.7733,14.8147],
[97.9859,14.7504],
[97.8811,14.4932],
[98.0709,14.2361],
[98.0409,13.9789],
[98.2463,13.8503],
[98.2834,13.5289],
[98.423,13.4646],
[98.6468,12.8217],
[98.6101,11.7289],
[98.7565,11.7289],
[98.6528,11.4074],
[98.6963,11.086],
[98.5999,10.8288],
[98.4479,10.7645],
[98.4601,10.0574],
[98.5332,10.0574],
[98.7743,10.3145],
[98.9773,10.9574],
[99.5434,11.536],
[99.6605,11.986],
[99.4665,12.2432],
[99.4262,12.5646],
[99.1668,12.886],
[99.282,13.2718],
[99.2086,13.2718],
[99.2445,13.5932],
[99.1271,13.8503],
[98.4688,14.4932],
[98.4844,14.6218],
[98.2303,14.9432],
[98.2628,15.2004],
[98.6723,15.5218],
[98.6676,16.0361],
[98.9061,16.1647],
[98.9328,16.3576],
[98.6382,16.3576],
[98.6276,16.8076],
[97.9179,17.5148],
[97.9365,17.6433],
[97.7983,17.7076],
[97.8358,17.9648],
[97.5971,18.3505],
[97.4494,18.3505],
[97.4683,18.4791],
[97.7735,18.5434],
[97.8665,18.6719],
[97.8436,19.5077],
[94.8177,19.5719],
[94.7347,20.022],
[94.5958,20.0862],
[94.4477,20.6005],
[94.1046,20.7934],
[94.1418,21.0505],
[93.7799,21.1148],
[93.5201,21.372],
[93.0931,21.5005],
[93.0655,21.822],
[92.9912,21.822],
[93.0289,22.0791],
[93.1871,22.1434],
[93.1747,23.0434],
[93.4182,23.172],
[93.4041,24.0077],
[93.8519,24.0077],
[93.9797,23.8792],
[94.2143,23.9435],
[94.3656,24.3935],
[94.7443,24.8435],
[94.7144,25.4864],
[94.8765,25.5507],
[95.1899,26.0008],
[95.079,26.1937],
[95.1589,26.5794],
[95.5753,26.7723],
[96.2145,27.2866],
[96.8914,27.2866],
[96.9376,27.158],
[97.1631,27.158],
[97.1317,27.3509],
[96.9355,27.4795],
[96.9952,27.7367],
[97.3422,27.9295],
[97.4199,28.251],
[96.8638,28.4438],
[96.2602,28.4438],
[95.7165,28.3795],
[95.444,28.1867],
[95.0518,28.1224],
[94.751,27.8009],
[94.137,27.4152],
[94.0054,27.158],
[93.4994,26.9009],
[92.147,26.9009],
[91.8199,26.7723],
[90.6933,26.7723],
[90.5692,26.9009],
[90.3438,26.9009],
[90.0045,26.708],
[89.7041,26.708],
[89.5044,26.8366],
[88.9914,26.9009],
[88.8048,27.0938],
[88.8309,27.2223],
[88.7557,27.2223],
[88.4289,27.0938],
[88.1542,27.2223],
[88.079,27.2223],
[88.0402,27.0295],
[88.2148,26.7723],
[88.1649,26.5151],
[87.9903,26.3865],
[87.2399,26.3865],
[87.1141,26.5151],
[86.6516,26.4508],
[86.3126,26.6437],
[85.787,26.6437],
[85.7362,26.7723],
[85.2735,26.708],
[84.9972,26.8366],
[84.8836,27.0295],
[84.7333,27.0295],
[84.7579,27.158],
[84.4318,27.4152],
[83.291,27.3509],
[82.1863,27.8652],
[81.885,27.8652],
[81.1945,28.1867],
[80.957,28.5081],
[80.1031,28.7652],
[80.4707,29.7937],
[81.011,30.1794],
[80.8417,30.4364],
[80.2636,30.565],
[79.9724,30.9506],
[79.455,31.0148],
[79.1645,31.4005],
[78.7686,31.3362],
[78.7987,31.7861],
[78.5553,32.0431],
[78.4807,32.3645],
[78.2966,32.236],
[77.9458,32.3645],
[77.8228,32.1717],
[77.2882,32.1717],
[77.1662,32.3002],
[76.7231,32.3645],
[76.1428,32.1717],
[75.8061,32.3645],
[75.3326,32.3002],
[74.7811,32.5574],
[74.3988,32.5574],
[74.2142,32.7502],
[73.6319,32.8788],
[73.5088,33.0073],
[73.5694,33.2645],
[73.4927,33.2645],
[73.4167,33.9075],
[73.3398,33.9075],
[73.3733,34.3577],
[73.2963,34.3577],
[73.3442,34.5506],
[73.6076,34.6793],
[73.6401,34.8079],
[73.965,34.8723],
[74.1688,35.0653],
[73.6613,35.194],
[73.6944,35.3227],
[73.8657,35.3871],
[73.8218,35.5158],
[73.3137,35.6445],
[73.2091,35.8377],
[72.8218,35.8377],
[72.6779,35.5802],
[71.9777,35.2584],
[71.9296,35.0653],
[71.6048,35.001],
[71.048,34.615],
[71.0171,34.4863],
[71.202,34.2933],
[70.8953,33.9718],
[70.5728,33.9075],
[69.9876,34.0361],
[69.9285,33.7789],
[70.2063,33.6502],
[70.1771,33.5217],
[70.316,33.4574],
[70.258,33.2002],
[69.5398,33.0716],
[69.5462,32.7502],
[69.3379,32.4931],
[69.2927,31.9146],
[69.0874,31.6575],
[68.7825,31.6575],
[68.6561,31.7861],
[68.1223,31.7861],
[67.9312,31.5933],
[67.6137,31.529],
[67.6646,31.4005],
[67.817,31.4005],
[67.7157,31.2719],
[66.8783,31.2719],
[66.4371,30.9506],
[66.3381,29.9865],
[66.2623,29.9865],
[66.251,29.9223],
[65.9903,29.7294],
[65.1247,29.5366],
[64.5298,29.6009],
[64.1197,29.4081],
[63.8274,29.4723],
[63.8379,29.5366],
[63.7622,29.5366],
[63.7517,29.4723],
[62.3037,29.4081],
[61.0015,29.7937],
[60.9814,29.6652]
],
[
[72.8907,20.1505],
[73.1199,20.2148],
[73.1941,20.2148],
[73.1802,20.0862],
[72.8907,20.1505]
],
[
[88.3421,22.5934],
[88.4442,22.7863],
[88.5187,22.7863],
[88.491,22.5934],
[88.3421,22.5934]
]
],
[
[
[79.6069,7.8716],
[79.7419,7.6787],
[79.7594,6.6501],
[79.9521,6.1358],
[80.2311,5.8787],
[80.6686,5.8787],
[81.3375,6.1358],
[81.8779,6.7144],
[81.9167,7.4216],
[81.7744,7.4859],
[81.6544,7.9359],
[81.4468,8.1288],
[81.3971,8.5145],
[81.255,8.5788],
[81.259,8.6431],
[80.987,8.9645],
[80.9952,9.0931],
[80.8532,9.1574],
[80.8615,9.2859],
[80.7195,9.3502],
[80.7279,9.4788],
[80.4398,9.5431],
[80.5214,9.6717],
[80.4526,9.7359],
[79.8764,9.8645],
[79.8636,9.6717],
[80.0786,9.6074],
[79.993,9.4145],
[80.0495,9.1574],
[79.8063,8.7716],
[79.764,8.0645],
[79.618,8.0645],
[79.6069,7.8716]
]
],
[
[
[91.0304,22.1434],
[91.2628,22.2077],
[91.2166,22.4005],
[91.0677,22.4005],
[91.0304,22.1434]
]
],
[
[
[92.2867,10.5717],
[92.574,10.5074],
[92.606,10.8931],
[92.3865,10.8931],
[92.3811,10.8288],
[92.2867,10.5717]
]
],
[
[
[92.5208,11.6003],
[92.7348,11.536],
[92.8252,11.7289],
[92.8311,11.7931],
[92.7874,12.1146],
[93.0376,12.436],
[93.0626,12.6932],
[92.9286,12.8217],
[93.101,13.0789],
[93.0809,13.5932],
[92.854,13.5289],
[92.7151,12.886],
[92.7202,12.1789],
[92.5676,12.1146],
[92.5208,11.6003]
]
],
[
[
[93.2563,7.8716],
[93.4753,7.8716],
[93.4882,8.0645],
[93.2692,8.0645],
[93.2563,7.8716]
]
],
[
[
[93.5068,7.2287],
[93.6527,7.2287],
[93.6979,6.7787],
[93.9207,6.843],
[93.8595,7.0359],
[93.8716,7.2287],
[93.7257,7.2287],
[93.7379,7.4216],
[93.5149,7.3573],
[93.5068,7.2287]
]
]
]}
}
