{
"type": "Feature",
"properties": {"id":"cliopatria-eastern-wu-0270","edge_precision":"unknown","cliopatria_name":"Eastern Wu","cliopatria_from_year":270,"cliopatria_to_year":282,"cliopatria_area_km2":1399612,"cliopatria_wikidata":"Q274488","cliopatria_wikipedia":"Eastern Wu"},
"geometry": {"type": "MultiPolygon", "coordinates": [
[
[
[104.4396,20.472],
[104.9806,20.1505],
[104.8648,19.8934],
[104.9921,19.7648],
[104.94,19.4434],
[105.014,19.4434],
[105.0152,18.9934],
[105.1423,18.8648],
[105.0373,18.6719],
[105.1851,18.6719],
[105.1438,18.4148],
[106.4163,17.129],
[106.3962,17.0005],
[106.5437,17.0005],
[106.5337,16.9362],
[106.9527,17.2576],
[106.9628,17.3219],
[106.7517,17.3862],
[106.7721,17.5148],
[106.5712,17.6433],
[106.5696,18.0933],
[106.2949,18.2219],
[106.1783,18.4148],
[106.0305,18.4148],
[106.0513,18.5434],
[105.7339,18.8648],
[105.9655,19.8291],
[106.5369,20.1505],
[106.6854,20.6005],
[106.8337,20.6005],
[106.9613,20.922],
[107.4174,20.9862],
[107.7903,21.4363],
[108.5552,21.5648],
[108.6517,21.6934],
[109.0864,21.6291],
[109.1162,21.372],
[109.807,21.5005],
[109.8701,21.4363],
[109.696,20.8577],
[109.7702,20.8577],
[109.7895,20.5362],
[109.9268,20.472],
[109.8829,20.2148],
[110.4869,20.2791],
[110.6163,20.6005],
[110.3638,20.8577],
[110.4825,21.1148],
[110.4194,21.1791],
[110.7164,21.1791],
[110.7389,21.3077],
[110.9842,21.4363],
[111.6641,21.5005],
[111.8585,21.7577],
[112.4415,21.6934],
[112.7736,21.8863],
[113.071,21.8863],
[113.1063,22.0791],
[113.3175,22.0148],
[113.4156,22.1434],
[113.6387,22.1434],
[113.6987,22.4648],
[113.5985,22.722],
[113.7474,22.722],
[113.7852,22.5291],
[113.9963,22.4648],
[113.9986,22.0791],
[114.3704,22.0791],
[114.5311,22.1434],
[114.6408,22.722],
[114.7527,22.5291],
[114.9016,22.5291],
[115.1744,22.7863],
[115.3729,22.6577],
[115.6706,22.6577],
[115.6956,22.7863],
[116.54,22.9148],
[116.5914,23.172],
[116.815,23.172],
[116.7796,23.3649],
[116.8939,23.5577],
[117.1788,23.4934],
[117.47,23.8149],
[117.6938,23.8149],
[117.7213,23.9435],
[118.0757,24.2006],
[118.1474,24.5221],
[118.7597,24.5864],
[118.8191,24.8435],
[119.0737,24.9721],
[119.0295,25.1007],
[119.3442,25.165],
[119.3911,25.3579],
[119.2731,25.4864],
[119.4229,25.4864],
[119.466,25.3579],
[119.8721,25.4864],
[119.9044,25.615],
[119.5299,25.615],
[119.7784,26.0008],
[119.587,26.1294],
[119.9381,26.3222],
[119.8399,26.5151],
[120.1577,26.5794],
[120.2108,26.7723],
[120.0606,26.7723],
[120.0964,26.9009],
[120.2467,26.9009],
[120.3947,27.158],
[120.545,27.158],
[120.7325,27.5438],
[120.6573,27.5438],
[120.7146,27.7367],
[120.8677,27.9938],
[121.0382,28.0581],
[121.118,28.3153],
[121.1934,28.3153],
[121.1533,28.1867],
[121.6459,28.3153],
[121.6521,28.5724],
[121.5218,28.6367],
[121.7143,28.7652],
[121.7443,29.0867],
[121.5389,29.1509],
[121.5932,29.5366],
[121.7984,29.4723],
[121.7116,29.2152],
[121.9384,29.2152],
[122.0035,29.4081],
[121.9279,29.4081],
[122.016,29.6652],
[121.8645,29.6652],
[122.0298,29.9223],
[121.6202,30.0508],
[121.4841,30.3079],
[121.1047,30.3079],
[120.8088,30.1151],
[120.6798,30.1794],
[121.0453,30.565],
[121.1972,30.565],
[121.5192,30.822],
[121.8993,30.822],
[121.9953,31.0791],
[121.7366,31.4005],
[121.5843,31.4005],
[121.6335,31.529],
[121.4811,31.529],
[121.4544,31.6575],
[120.8942,31.7861],
[121.3005,31.8503],
[121.8356,31.6575],
[121.987,31.8503],
[121.7832,32.1074],
[121.5033,32.1717],
[121.4026,32.4931],
[121.1227,32.5574],
[121.0462,32.5574],
[120.8948,32.7502],
[120.9735,32.943],
[120.8969,32.943],
[120.1555,32.8145],
[119.4666,32.8145],
[119.059,32.943],
[117.9612,32.8788],
[117.5789,32.6859],
[117.4021,32.4288],
[116.9188,32.3645],
[116.616,32.1717],
[115.3272,31.7861],
[114.5548,31.3362],
[114.0676,31.4647],
[113.855,31.7218],
[112.1243,31.7861],
[111.3006,32.0431],
[110.6366,32.1074],
[110.4779,31.6575],
[110.1606,31.4005],
[109.8123,31.2719],
[109.4534,31.3362],
[108.9534,31.2076],
[108.8132,31.0148],
[108.8892,31.0148],
[108.784,30.6935],
[108.8599,30.6935],
[108.8531,30.4364],
[108.6604,30.3079],
[109.0346,30.0508],
[109.0306,29.7937],
[109.2579,29.7937],
[109.3698,29.6652],
[109.3674,29.4081],
[109.5366,29.2152],
[109.4616,28.701],
[109.6329,28.5081],
[109.5605,28.251],
[109.831,27.8652],
[109.6864,27.6081],
[109.5358,27.6081],
[109.1504,27.2866],
[109.0357,26.8366],
[109.1109,26.8366],
[109.0443,26.258],
[109.1193,26.258],
[109.2235,25.7436],
[109.3586,25.6793],
[109.3149,25.4864],
[109.3897,25.4864],
[109.3467,25.2936],
[109.4539,25.1007],
[109.4057,24.5221],
[109.243,24.4578],
[109.2167,24.3292],
[107.386,24.1363],
[106.9877,24.0077],
[106.4664,23.622],
[106.1561,23.5577],
[105.6896,23.0434],
[105.6781,22.9791],
[105.5063,22.8506],
[105.2084,22.8506],
[105.2379,22.5934],
[104.874,22.2077],
[105.128,21.9505],
[105.0956,21.7577],
[104.9255,21.6291],
[104.9785,21.5005],
[104.8513,21.1791],
[105.0956,20.8577],
[104.873,20.8577],
[104.9053,20.6005],
[104.6191,20.6648],
[104.4396,20.472]
]
],
[
[
[108.6382,18.5434],
[108.7646,18.4148],
[109.1233,18.3505],
[109.2497,18.2219],
[109.8406,18.2219],
[109.8622,18.3505],
[110.1794,18.4791],
[110.1903,18.5434],
[110.5078,18.6719],
[110.6806,19.2505],
[110.8507,19.3791],
[110.8839,19.5719],
[111.0319,19.5719],
[111.0874,19.8934],
[110.9095,20.1505],
[110.613,20.1505],
[110.591,20.022],
[110.1574,20.0862],
[109.2464,19.9577],
[109.2028,19.7005],
[108.7043,19.3791],
[108.6382,18.5434]
]
],
[
[
[121.9766,29.9865],
[122.2798,29.9865],
[122.2726,30.1794],
[122.045,30.1794],
[121.9766,29.9865]
]
]
]}
}
