{
"type": "Feature",
"properties": {"id":"cliopatria-mughal-empire-1588","edge_precision":"unknown","cliopatria_name":"Mughal Empire","cliopatria_from_year":1588,"cliopatria_to_year":1594,"cliopatria_area_km2":2360284,"cliopatria_wikidata":"Q33296","cliopatria_wikipedia":"Mughal Empire","cliopatria_seshat_id":"in_mughal_emp"},
"geometry": {"type": "MultiPolygon", "coordinates": [
[
[
[65.8986,30.5007],
[65.9745,30.5007],
[65.9285,30.2436],
[66.2205,30.1794],
[66.3494,30.0508],
[66.3268,29.9223],
[66.6944,29.858],
[66.6608,29.6652],
[67.0394,29.6652],
[67.154,30.3079],
[67.3817,30.3079],
[67.645,30.5007],
[68.0328,31.3362],
[68.3252,31.6575],
[69.0771,31.9789],
[70.756,31.9789],
[70.7644,31.6575],
[70.8406,31.6575],
[70.3949,28.9581],
[70.1658,28.5081],
[69.9177,28.3795],
[69.8961,28.251],
[70.0044,27.9938],
[70.2199,27.9295],
[69.9319,27.5438],
[69.8618,27.0938],
[70.0386,26.7723],
[70.01,26.5794],
[70.2163,26.4508],
[70.2633,26.258],
[69.8161,25.7436],
[69.7387,25.165],
[69.8136,25.165],
[69.8228,24.6506],
[70.0664,24.2006],
[69.827,24.072],
[69.4691,24.2006],
[68.7224,24.2006],
[68.6178,23.9435],
[68.1554,23.8149],
[68.1265,23.5577],
[68.3502,23.5577],
[68.3359,23.4291],
[68.5525,23.3649],
[68.8083,22.9791],
[69.4506,22.722],
[70.3653,22.9148],
[70.2625,22.6577],
[69.8695,22.4648],
[69.4974,22.4648],
[69.4093,22.3363],
[68.9765,22.4648],
[68.9495,22.2077],
[69.3487,21.7577],
[69.4974,21.7577],
[69.9032,21.372],
[69.8899,21.2434],
[70.2955,20.8577],
[70.7206,20.6648],
[71.3208,20.7291],
[71.4085,20.8577],
[72.1848,21.1791],
[72.3214,21.7577],
[72.1728,21.7577],
[72.1125,21.8863],
[72.3425,21.9505],
[72.378,22.272],
[72.5267,22.272],
[72.5444,21.7577],
[72.7603,21.6934],
[72.5629,21.2434],
[72.8994,20.922],
[72.8442,20.4077],
[74.0445,20.5362],
[75.8008,20.9862],
[75.875,20.9862],
[76.3423,21.1791],
[76.6912,21.6291],
[77.7466,21.7577],
[78.1849,21.6934],
[78.5258,21.4363],
[78.6,21.4363],
[79.1509,21.6934],
[80.661,21.8863],
[80.8662,22.3363],
[81.0533,23.7506],
[81.2204,23.8792],
[81.8356,24.0077],
[83.1044,24.0077],
[85.1751,23.8792],
[86.1163,23.6863],
[85.9216,22.8506],
[85.4099,21.822],
[85.3256,21.1791],
[85.5233,20.9862],
[85.9686,20.9862],
[86.7533,21.3077],
[86.8932,21.2434],
[86.9675,21.2434],
[87.0675,21.4363],
[87.762,21.6291],
[88.1033,21.9505],
[88.1777,21.9505],
[88.1335,21.6291],
[88.3477,21.5648],
[88.3653,21.6934],
[88.5139,21.6934],
[88.6416,22.0791],
[88.716,22.0791],
[88.728,21.6291],
[89.0995,21.6291],
[89.1173,21.7577],
[89.7118,21.7577],
[89.8695,21.822],
[89.8966,22.0148],
[90.1577,21.7577],
[90.3154,21.822],
[90.4263,22.0791],
[90.6494,22.0791],
[90.631,21.9505],
[90.8632,22.0148],
[90.9378,22.5291],
[90.7983,22.5934],
[90.6875,22.8506],
[90.5386,22.8506],
[90.6419,23.0434],
[90.6864,23.8149],
[90.6118,23.8149],
[90.5463,24.7792],
[90.4716,24.7792],
[90.516,25.0364],
[90.36,25.4221],
[90.3921,26.0008],
[90.0173,26.0008],
[89.604,26.1937],
[89.154,26.1937],
[88.8784,26.3222],
[88.3532,26.3222],
[88.2276,26.4508],
[87.2399,26.3865],
[87.1141,26.5151],
[86.6516,26.4508],
[86.3126,26.6437],
[85.787,26.6437],
[85.7362,26.7723],
[85.2735,26.708],
[84.9972,26.8366],
[84.8836,27.0295],
[84.7333,27.0295],
[84.7579,27.158],
[84.4318,27.4152],
[83.0776,27.4152],
[82.5377,27.7367],
[81.885,27.8652],
[81.1945,28.1867],
[80.957,28.5081],
[80.6811,28.6367],
[80.1656,28.701],
[80.169,29.0867],
[80.2446,29.0867],
[80.3532,29.6009],
[80.6646,29.9865],
[81.011,30.1794],
[80.8417,30.4364],
[80.2636,30.565],
[79.9724,30.9506],
[79.455,31.0148],
[79.1034,31.4647],
[78.8139,31.529],
[78.7533,31.9146],
[78.5553,32.0431],
[78.5414,32.3002],
[78.465,32.3002],
[78.5601,32.6859],
[78.6628,33.3931],
[78.5861,33.3931],
[78.8482,34.1004],
[78.6773,34.0361],
[78.8748,34.4863],
[78.2334,34.6793],
[78.2086,34.8723],
[78.0369,34.8079],
[77.4892,35.0653],
[77.3099,35.2584],
[77.4223,35.3871],
[77.0955,35.3227],
[77.1307,35.4514],
[77.0533,35.4514],
[77.0709,35.5158],
[76.7193,35.6445],
[76.5578,35.902],
[76.0929,35.902],
[75.9733,36.0308],
[75.9613,36.546],
[75.7826,36.7393],
[75.4119,36.8037],
[75.311,36.9971],
[74.5506,37.0615],
[74.1074,36.8682],
[73.7962,36.8682],
[73.694,37.0615],
[73.7841,37.3838],
[73.6645,37.5128],
[72.9863,37.3193],
[72.6816,37.0615],
[71.8945,36.7393],
[71.5834,36.7393],
[71.4184,36.9971],
[71.5685,37.8352],
[71.2738,37.8998],
[71.364,38.2224],
[71.1838,38.416],
[70.7137,38.416],
[70.2147,38.0288],
[70.1619,37.8352],
[70.2658,37.6417],
[70.0752,37.5128],
[69.546,37.5773],
[69.3498,37.126],
[69.1161,37.126],
[69.0103,37.3193],
[68.5094,37.1904],
[68.4765,37.0615],
[68.7101,37.0615],
[68.6773,36.9326],
[68.878,36.8037],
[68.624,36.0952],
[68.4228,36.224],
[67.3832,36.0952],
[66.964,36.2884],
[66.3279,36.224],
[66.3073,35.1297],
[66.3845,35.1297],
[66.2125,34.3577],
[66.2895,34.3577],
[66.1504,33.7146],
[66.2272,33.7146],
[66.1053,33.1359],
[66.182,33.1359],
[65.974,32.4931],
[66.0504,32.4931],
[65.8986,30.5007]
]
]
]}
}
