{
"type": "Feature",
"properties": {"id":"cliopatria-mayan-city-states-0260","edge_precision":"unknown","cliopatria_name":"Mayan City-States","cliopatria_from_year":260,"cliopatria_to_year":298,"cliopatria_area_km2":198040,"cliopatria_wikidata":"Q28567","cliopatria_wikipedia":"Maya civilization","cliopatria_seshat_id":"gt_tikal_early_classic"},
"geometry": {"type": "MultiPolygon", "coordinates": [
[
[
[-93.3232,15.5218],
[-92.7546,15.1361],
[-92.4741,14.6861],
[-91.5042,13.9789],
[-90.4689,13.9146],
[-89.9913,13.5932],
[-89.8666,13.7861],
[-89.5657,13.7218],
[-89.588,13.9146],
[-89.3905,14.1075],
[-89.0968,14.1075],
[-89.1856,14.2361],
[-88.8185,14.2361],
[-88.9074,14.3646],
[-88.6949,14.4289],
[-88.629,15.0718],
[-88.3773,15.3933],
[-88.5122,15.8433],
[-88.8247,15.9718],
[-88.6403,16.229],
[-88.493,16.229],
[-88.2355,16.4861],
[-88.209,16.8076],
[-88.1353,16.8076],
[-88.1785,17.579],
[-88.3161,17.5148],
[-88.4736,17.579],
[-88.5037,17.7719],
[-88.9466,17.7719],
[-89.1044,17.8362],
[-89.0509,17.9648],
[-89.336,17.9005],
[-90.2105,18.2862],
[-91.6563,18.0933],
[-91.6986,17.9005],
[-91.9201,17.9005],
[-91.9522,17.6433],
[-92.4807,17.2576],
[-92.4603,17.129],
[-92.7149,16.8719],
[-93.1488,15.8433],
[-93.1209,15.6504],
[-93.3232,15.5218]
]
]
]}
}
