{
"type": "Feature",
"properties": {"id":"cliopatria-sabaeans-26bce","edge_precision":"unknown","cliopatria_name":"Sabaeans","cliopatria_from_year":-25,"cliopatria_to_year":-20,"cliopatria_area_km2":28534,"cliopatria_wikidata":"Q940785","cliopatria_wikipedia":"Sabaeans"},
"geometry": {"type": "MultiPolygon", "coordinates": [
[
[
[42.692,15.5218],
[42.7656,15.5218],
[42.8161,15.0718],
[42.8896,15.0718],
[43.7751,15.1361],
[43.9221,15.1361],
[43.8656,15.4575],
[44.023,15.6504],
[44.0441,16.0361],
[43.9005,16.1004],
[43.9076,16.229],
[43.3921,16.229],
[43.1081,16.4219],
[42.8135,16.4219],
[42.81,16.3576],
[42.692,15.5218]
]
],
[
[
[44.0828,15.3933],
[44.1461,15.2004],
[44.1495,15.2647],
[44.3,15.329],
[44.3104,15.5218],
[44.0828,15.3933]
]
],
[
[
[44.2897,15.1361],
[45.025,15.1361],
[45.5502,15.329],
[45.6237,15.329],
[45.8479,15.3933],
[45.8551,15.5218],
[46.1494,15.5218],
[46.3811,15.7147],
[46.4697,15.9718],
[46.1753,15.9718],
[46.0206,15.8433],
[45.579,15.8433],
[45.3656,15.9718],
[45.2883,15.9076],
[45.2147,15.9076],
[44.9903,15.8433],
[44.9024,15.5861],
[44.6011,15.4575],
[44.2897,15.1361]
]
]
]}
}
