{
"type": "Feature",
"properties": {"id":"cliopatria-lan-na-kingdom-1344","edge_precision":"unknown","cliopatria_name":"Lan Na Kingdom","cliopatria_from_year":1344,"cliopatria_to_year":1362,"cliopatria_area_km2":78969,"cliopatria_wikidata":"Q1059707","cliopatria_wikipedia":"Lan Na"},
"geometry": {"type": "MultiPolygon", "coordinates": [
[
[
[97.4494,18.3505],
[97.5971,18.3505],
[97.7714,18.0291],
[97.762,17.9648],
[97.8358,17.9648],
[98.2883,18.0291],
[98.6411,18.4148],
[99.5824,18.2862],
[99.6115,18.4791],
[99.7593,18.4791],
[100.1877,18.8648],
[100.5673,18.9291],
[100.5872,19.0577],
[100.745,19.1219],
[100.6269,19.3148],
[100.6667,19.5719],
[100.5186,19.5719],
[100.4843,19.8291],
[101.4372,19.7648],
[101.8276,19.8934],
[102.0061,20.0862],
[102.0162,20.1505],
[102.0903,20.1505],
[102.0971,20.6648],
[102.2862,20.922],
[101.8816,21.1791],
[101.3619,21.1791],
[101.3182,21.372],
[101.1798,21.4363],
[100.6937,21.1791],
[100.6436,20.8577],
[100.2427,20.6648],
[100.1289,20.4077],
[99.8323,20.4077],
[99.4125,20.0862],
[99.1902,20.0862],
[98.9191,19.7648],
[98.1044,19.7648],
[97.9369,19.6362],
[97.8665,18.6719],
[97.7735,18.5434],
[97.4683,18.4791],
[97.4494,18.3505]
]
]
]}
}
