{
"type": "Feature",
"properties": {"id":"cliopatria-kingdom-of-sarawak-1890","edge_precision":"unknown","cliopatria_name":"Kingdom of Sarawak","cliopatria_from_year":1890,"cliopatria_to_year":1894,"cliopatria_area_km2":85184,"cliopatria_wikidata":"Q1658411","cliopatria_wikipedia":"Raj of Sarawak"},
"geometry": {"type": "MultiPolygon", "coordinates": [
[
[
[109.4825,1.9571],
[109.6129,1.5714],
[109.6104,1.5071],
[110.1011,0.9928],
[110.3195,0.9928],
[110.3878,0.8643],
[110.6789,0.8643],
[110.9017,0.9928],
[111.7751,0.9928],
[112.0733,1.1857],
[112.2309,1.5071],
[112.5974,1.5714],
[112.5296,1.7],
[112.605,1.7643],
[112.7506,1.7643],
[113.5783,2.4072],
[113.7239,2.4072],
[114.4816,3.05],
[114.4847,3.1143],
[114.6561,3.6286],
[114.9575,3.8215],
[115.2005,4.2715],
[115.2041,4.3358],
[114.9892,4.4001],
[114.9424,4.8501],
[114.7162,4.7215],
[114.7014,4.4644],
[114.7742,4.4644],
[114.7563,4.1429],
[114.4614,4.0786],
[114.0457,4.4644],
[114.053,4.5929],
[113.9801,4.5929],
[113.8307,4.5286],
[113.6566,4.0143],
[113.2027,3.6929],
[113.1136,3.3715],
[112.8098,3.1143],
[111.7084,2.9215],
[111.2627,2.7286],
[111.2485,2.4072],
[111.1029,2.4072],
[111.1648,2.15],
[111.0138,2.0214],
[110.9207,1.5071],
[110.4864,1.5714],
[110.2781,1.8286],
[109.9818,1.7],
[109.6255,1.8929],
[109.6307,2.0214],
[109.4851,2.0214],
[109.4825,1.9571]
]
]
]}
}
