{
"type": "Feature",
"properties": {"id":"cliopatria-mughal-empire-1783","edge_precision":"unknown","cliopatria_name":"Mughal Empire","cliopatria_from_year":1783,"cliopatria_to_year":1790,"cliopatria_area_km2":364168,"cliopatria_wikidata":"Q33296","cliopatria_wikipedia":"Mughal Empire","cliopatria_seshat_id":"in_mughal_emp"},
"geometry": {"type": "MultiPolygon", "coordinates": [
[
[
[70.0756,26.5151],
[70.2163,26.4508],
[70.1975,26.3222],
[70.3476,26.3222],
[70.6236,25.6238],
[72.4448,24.9981],
[73.637,24.7594],
[74.9295,25.2797],
[76.7895,26.2595],
[76.7996,26.3222],
[76.6913,26.5794],
[76.5517,26.6437],
[76.573,26.7723],
[76.3691,26.9009],
[76.3374,27.158],
[76.1339,27.2866],
[76.329,27.5438],
[76.3631,27.7367],
[76.2878,27.7367],
[76.3862,27.8652],
[76.1834,27.9938],
[76.2068,28.1224],
[75.8255,28.5081],
[75.8496,28.6367],
[75.6474,28.7652],
[75.621,29.0224],
[75.4823,29.0867],
[75.5324,29.3438],
[77.1471,29.4723],
[77.1709,29.2152],
[77.3466,28.9581],
[77.3089,28.7652],
[77.1454,28.701],
[77.1084,28.5081],
[77.3348,28.5081],
[77.5123,28.251],
[77.3772,27.9295],
[77.5161,27.8652],
[77.6494,27.3509],
[77.9802,27.0938],
[78.1306,27.0938],
[78.1229,27.0494],
[78.2351,27.1162],
[78.7175,27.4974],
[79.2096,27.7983],
[79.9383,28.454],
[78.5922,29.9246],
[76.4025,31.3104],
[76.3938,31.2719],
[76.4887,31.0148],
[75.576,31.0148],
[75.39,31.2076],
[74.7812,31.2076],
[74.2285,30.7578],
[74.2015,30.6292],
[74.0496,30.6292],
[73.9205,30.3722],
[73.9441,30.1151],
[73.4507,29.9223],
[73.1873,29.3438],
[72.1212,28.8938],
[71.675,28.5081],
[71.5241,28.5081],
[70.586,27.8652],
[70.298,27.4795],
[70.0756,26.5151]
],
[
[75.4391,26.258],
[75.5891,26.258],
[75.5992,26.3222],
[75.7493,26.3222],
[75.7839,26.0651],
[75.4741,26.0008],
[75.4391,26.258]
]
],
[
[
[70.2766,22.7863],
[70.4255,22.7863],
[70.4326,22.8506],
[70.2837,22.8506],
[70.2766,22.7863]
]
],
[
[
[91.8302,21.5005],
[91.9045,21.5005],
[91.8954,21.4363],
[91.9697,21.4363],
[91.9788,21.5005],
[92.0531,21.5005],
[92.0715,21.6291],
[91.867,21.7577],
[91.8302,21.5005]
]
]
]}
}
