{
"type": "Feature",
"properties": {"id":"cliopatria-union-of-soviet-socialist-republics-1922","edge_precision":"unknown","cliopatria_name":"Union of Soviet Socialist Republics","cliopatria_from_year":1922,"cliopatria_to_year":1923,"cliopatria_area_km2":21206397,"cliopatria_wikidata":"Q15180","cliopatria_wikipedia":"Soviet Union"},
"geometry": {"type": "MultiPolygon", "coordinates": [
[
[
[73,37.2711],
[73.3343,37.4483],
[73.7243,37.4483],
[73.8258,37.2549],
[74.0961,37.3838],
[74.7979,37.3838],
[74.917,37.2549],
[75.0504,37.4483],
[74.9724,37.4483],
[75.0284,37.6417],
[74.8695,37.8998],
[74.8676,38.1578],
[74.7893,38.1578],
[74.8665,38.416],
[74.4741,38.6743],
[74.1603,38.6743],
[73.9647,38.5451],
[73.768,38.6743],
[73.787,38.9972],
[73.6104,39.1911],
[73.7104,39.5143],
[73.8882,39.5789],
[73.9325,39.967],
[74.4693,40.1612],
[74.8926,40.4849],
[75.1875,40.4201],
[75.4905,40.6144],
[75.6489,40.6144],
[75.6406,40.3554],
[75.777,40.2906],
[76.2734,40.3554],
[76.4537,40.4201],
[76.8937,41.0032],
[78.0283,41.068],
[78.7746,41.5869],
[80.1424,42.0413],
[80.2872,42.8213],
[80.4734,42.8864],
[80.4711,43.0816],
[80.6317,43.0816],
[80.7907,43.2769],
[80.6825,43.4072],
[80.7354,43.5375],
[80.3572,43.9938],
[80.3832,44.4507],
[80.3023,44.4507],
[80.4103,44.7119],
[79.9779,44.8426],
[79.9509,44.9734],
[81.3883,45.3004],
[81.7951,45.3004],
[81.9018,45.1696],
[82.5521,45.1696],
[82.7183,45.3659],
[82.3148,45.5623],
[83.0426,47.2032],
[83.3718,47.2032],
[83.3417,47.1374],
[83.5062,47.1374],
[83.6106,47.0058],
[83.9394,47.0058],
[83.9092,46.9401],
[85.1418,46.9401],
[85.6764,47.2032],
[85.7387,47.3348],
[85.5541,47.4665],
[85.6169,47.5982],
[85.464,47.7959],
[85.6375,48.3238],
[86.5985,48.5881],
[86.7817,48.7865],
[86.649,48.8527],
[86.8677,49.1175],
[87.7844,49.1175],
[88.3281,49.5152],
[88.9966,49.5152],
[89.4865,49.6479],
[89.6065,49.7143],
[89.6324,49.9136],
[90.2002,50.1795],
[90.4521,50.1795],
[92.2693,50.8455],
[92.567,50.7788],
[92.5273,50.7121],
[92.9042,50.7788],
[92.8644,50.7121],
[93.1617,50.6455],
[93.1219,50.5789],
[94.1323,50.5789],
[94.2251,50.3125],
[94.3932,50.3125],
[94.398,50.1795],
[94.9065,50.0465],
[94.8671,49.98],
[96.46,49.98],
[96.42,49.9136],
[96.9228,49.9136],
[97.0103,49.7807],
[97.4289,49.7807],
[98.1348,50.113],
[98.3004,50.3791],
[98.1317,50.5122],
[98.1315,50.6455],
[97.9631,50.6455],
[97.9632,50.7788],
[97.8789,50.7788],
[97.9234,51.1124],
[97.8389,51.1124],
[98.1433,51.5803],
[98.7904,51.9151],
[98.9261,52.1163],
[99.3063,52.0492],
[99.2608,51.9822],
[99.431,51.9822],
[99.3856,51.9151],
[100.1448,51.7811],
[100.0995,51.7142],
[100.7787,51.7142],
[100.7331,51.6472],
[100.9877,51.6472],
[100.9422,51.5803],
[101.3208,51.5134],
[101.2754,51.4465],
[101.9142,51.5134],
[101.8685,51.4465],
[102.0379,51.4465],
[101.9923,51.3797],
[102.1554,51.246],
[102.065,51.1124],
[102.3079,50.8455],
[102.2191,50.7121],
[102.3033,50.7121],
[102.2992,50.5789],
[102.8003,50.4457],
[102.7564,50.3791],
[102.9245,50.3791],
[102.8807,50.3125],
[103.2168,50.3125],
[103.173,50.246],
[103.341,50.246],
[103.2972,50.1795],
[104.0528,50.1795],
[104.9031,50.4457],
[106.4556,50.3791],
[106.4101,50.3125],
[106.8303,50.3125],
[106.7848,50.246],
[107.3202,50.0465],
[107.2751,49.98],
[107.7781,49.98],
[107.7328,49.9136],
[107.9005,49.9136],
[107.9718,49.6479],
[108.2617,49.5816],
[108.2171,49.5152],
[108.4233,49.4489],
[108.3789,49.3826],
[108.6294,49.3826],
[108.5851,49.3163],
[110.7481,49.1838],
[111.2176,49.3826],
[112.7298,49.5152],
[113.2636,49.9136],
[114.0084,50.246],
[114.8483,50.246],
[114.7991,50.1795],
[115.051,50.1795],
[115.0019,50.113],
[115.4073,49.98],
[115.3585,49.9136],
[116.4972,49.98],
[116.4479,49.9136],
[116.6155,49.9136],
[116.5663,49.8471],
[116.6848,49.7807],
[116.7685,49.7807],
[117.8274,49.5152],
[118.5429,49.9136],
[119.2816,50.113],
[119.235,50.3791],
[119.1509,50.3791],
[119.7303,51.1124],
[119.6457,51.1124],
[120.1919,51.7811],
[120.6709,52.0492],
[120.5571,52.1163],
[120.6706,52.2505],
[120.5006,52.4519],
[120.5301,52.5863],
[119.9036,52.6535],
[120.4231,53.0574],
[121.089,53.3271],
[121.897,53.4621],
[123.8519,53.5296],
[123.7904,53.4621],
[124.2453,53.3946],
[124.1839,53.3271],
[124.4665,53.2596],
[124.4053,53.1922],
[124.7488,53.1922],
[124.6877,53.1248],
[125.35,53.1922],
[125.2885,53.1248],
[125.546,53.1248],
[125.4846,53.0574],
[125.6561,53.0574],
[125.6194,52.9227],
[125.901,52.8554],
[125.8897,52.6535],
[126.0608,52.6535],
[126.0252,52.5191],
[126.3065,52.4519],
[126.2463,52.3847],
[126.3317,52.3847],
[126.2716,52.3176],
[126.3569,52.3176],
[126.297,52.2505],
[126.3823,52.2505],
[126.3225,52.1833],
[126.4077,52.1833],
[126.4516,51.8481],
[126.6216,51.8481],
[126.5627,51.7811],
[126.6477,51.7811],
[126.589,51.7142],
[126.6739,51.7142],
[126.6153,51.6472],
[126.7002,51.6472],
[126.6418,51.5803],
[126.7266,51.5803],
[126.6683,51.5134],
[126.7531,51.5134],
[126.695,51.4465],
[126.7797,51.4465],
[126.8576,51.0457],
[127.0265,51.0457],
[127.0248,50.8455],
[127.1935,50.8455],
[127.1648,50.7121],
[127.3052,50.5789],
[127.1935,50.4457],
[127.2776,50.4457],
[127.2508,50.3125],
[127.4188,50.3125],
[127.3636,50.246],
[127.5054,50.113],
[127.3961,49.98],
[127.4799,49.98],
[127.4848,49.7807],
[127.8791,49.6479],
[127.8254,49.5816],
[128.0762,49.5816],
[128.0226,49.5152],
[128.7451,49.5816],
[128.6911,49.5152],
[129.1386,49.4489],
[129.0848,49.3826],
[129.5023,49.3826],
[129.4485,49.3163],
[129.812,49.25],
[129.8184,49.0513],
[130.0984,48.9851],
[130.0453,48.9189],
[130.5748,48.8527],
[130.4995,48.6542],
[130.7361,48.3238],
[130.6243,47.8619],
[130.9038,47.7959],
[130.853,47.73],
[132.123,47.6641],
[133.0648,48.1257],
[133.5616,48.1257],
[134.1886,48.3899],
[134.5203,48.3899],
[134.4667,48.3238],
[134.5496,48.3238],
[135.1806,48.5881],
[136.1516,49.25],
[137.8452,50.7788],
[139.2394,51.7142],
[140.1258,52.1833],
[140.9421,52.3176],
[141.163,52.4519],
[141.2311,52.5191],
[141.1457,52.5191],
[141.3512,52.7208],
[141.2324,52.8554],
[141.3017,52.9227],
[141.114,52.99],
[141.464,53.3271],
[140.917,53.4621],
[140.9877,53.5296],
[140.8001,53.5971],
[140.8711,53.6647],
[140.6987,53.6647],
[140.7698,53.7323],
[140.5111,53.7323],
[140.5822,53.7999],
[140.2069,53.9352],
[140.2491,54.1384],
[140.076,54.1384],
[140.1335,54.2739],
[139.9603,54.2739],
[140.0325,54.3417],
[138.7323,54.3417],
[138.5184,54.1384],
[138.6204,54.0706],
[138.3768,54.0029],
[138.0961,53.7323],
[137.2677,53.5971],
[137.8581,54.0029],
[137.3231,54.0706],
[137.6922,54.3417],
[137.2588,54.3417],
[136.9772,54.0706],
[137.1502,54.0706],
[137.0272,53.8676],
[136.6818,53.8676],
[136.9121,54.3417],
[136.8093,54.4095],
[136.9512,54.5453],
[136.8487,54.6132],
[136.92,54.6811],
[135.6162,54.6811],
[135.687,54.7491],
[135.2358,54.8171],
[135.2708,55],
[73,55],
[73,37.2711]
]
],
[
[
[136.5257,54.8851],
[136.874,54.8851],
[137.0694,55],
[136.6843,55],
[136.5257,54.8851]
]
],
[
[
[137.1352,54.8851],
[137.2223,54.8851],
[137.1503,54.8171],
[137.4113,54.8171],
[137.3546,54.6811],
[137.5437,54.6132],
[137.4164,54.4095],
[137.5899,54.4095],
[137.7326,54.5453],
[137.6305,54.6132],
[138.1244,55],
[137.2577,55],
[137.1352,54.8851]
]
]
]}
}
