{
"type": "Feature",
"properties": {"id":"cliopatria-new-netherland-1626","edge_precision":"unknown","cliopatria_name":"New Netherland","cliopatria_from_year":1626,"cliopatria_to_year":1628,"cliopatria_area_km2":23677,"cliopatria_wikidata":"Q382593","cliopatria_wikipedia":"New Netherland"},
"geometry": {"type": "MultiPolygon", "coordinates": [
[
[
[-74.3305,42.2362],
[-74.2388,42.0413],
[-74.3186,42.0413],
[-74.1571,41.522],
[-74.2367,41.522],
[-74.1475,41.3274],
[-74.2271,41.3274],
[-74.1386,41.1328],
[-74.2181,41.1328],
[-74.1013,40.8736],
[-74.1807,40.8736],
[-73.9575,40.5496],
[-73.3016,40.6792],
[-73.5749,40.9384],
[-73.4741,41.068],
[-72.8172,41.1977],
[-72.8462,41.2625],
[-72.2898,41.2625],
[-72.5944,41.5869],
[-72.674,41.5869],
[-73.0221,41.6518],
[-72.9926,41.5869],
[-73.5203,41.522],
[-73.7688,41.7167],
[-73.8892,41.9764],
[-73.8094,41.9764],
[-73.943,42.4312],
[-73.863,42.4312],
[-73.9866,42.6912],
[-74.3071,42.6912],
[-74.2506,42.2362],
[-74.3305,42.2362]
]
],
[
[
[-58.8946,6.7144],
[-58.8793,6.1358],
[-58.7319,6.0715],
[-58.7288,5.943],
[-58.6559,5.943],
[-58.147,6.0073],
[-58.082,6.3287],
[-57.8682,6.5216],
[-57.9482,6.7787],
[-58.4624,6.9073],
[-58.4663,7.0359],
[-58.6832,6.9716],
[-58.7505,6.7787],
[-58.8946,6.7144]
]
]
]}
}
