{
"type": "Feature",
"properties": {"id":"cliopatria-ottoman-empire-1352","edge_precision":"unknown","cliopatria_name":"Ottoman Empire","cliopatria_from_year":1352,"cliopatria_to_year":1362,"cliopatria_area_km2":190206,"cliopatria_wikidata":"Q12560","cliopatria_wikipedia":"Ottoman Empire"},
"geometry": {"type": "MultiPolygon", "coordinates": [
[
[
[26.1325,39.5143],
[26.8466,39.5789],
[26.7422,39.2557],
[26.8945,39.1911],
[26.8793,38.9972],
[26.9579,38.9972],
[26.9528,38.9326],
[28.5238,38.9326],
[28.6191,39.1265],
[28.7763,39.1265],
[28.8049,39.4496],
[28.98,39.6436],
[31.3446,39.6436],
[31.852,39.967],
[31.8589,40.0317],
[32.031,40.1612],
[32.0021,40.6144],
[31.9229,40.6144],
[32.0387,40.9384],
[31.3317,41.0032],
[31.5049,41.1328],
[31.5268,41.3274],
[31.1801,41.068],
[30.6242,41.068],
[30.4792,41.1977],
[29.2079,41.1977],
[29.0426,41.1328],
[29.1028,40.9384],
[29.2486,40.8088],
[29.493,40.8736],
[29.4801,40.744],
[28.9127,40.6144],
[28.9004,40.4849],
[29.0463,40.3554],
[27.9388,40.3554],
[27.9505,40.4849],
[27.7921,40.4849],
[27.6958,40.2906],
[27.5376,40.2906],
[27.4698,40.4201],
[26.7522,40.3554],
[26.6731,40.3554],
[26.2568,40.0964],
[26.2516,40.0317],
[26.1325,39.5143]
]
],
[
[
[31.5268,41.3274],
[31.6063,41.3274],
[31.6137,41.3922],
[31.5342,41.3922],
[31.5268,41.3274]
]
],
[
[
[33.5665,39.7729],
[34.3706,39.9023],
[34.4341,39.7729],
[35.0571,39.7083],
[34.6776,38.4806],
[34.8908,38.2869],
[35.2041,38.2869],
[35.3459,38.1578],
[35.395,37.8998],
[35.4731,37.8998],
[35.4658,37.8352],
[35.6221,37.8352],
[35.7224,38.0288],
[36.0503,38.1578],
[36.1591,38.416],
[36.4803,38.4806],
[36.8257,38.7389],
[38.8488,38.6097],
[38.8747,38.8034],
[40.0886,39.0618],
[40.7552,39.3203],
[40.9415,39.5143],
[41.5227,39.7083],
[41.573,40.0317],
[41.4252,40.0964],
[41.3871,40.3554],
[41.1497,40.3554],
[40.7341,40.2259],
[40.1115,40.2906],
[40.0324,40.2906],
[39.5986,40.0317],
[38.9855,40.1612],
[38.8462,40.2906],
[38.2136,40.2906],
[37.8732,40.6792],
[37.169,40.744],
[36.879,40.9384],
[36.632,40.8736],
[36.4733,40.8736],
[36.4118,41.0032],
[36.2442,40.9384],
[36.2354,40.8736],
[36.0767,40.8736],
[34.8786,40.8088],
[34.5919,40.4201],
[33.9432,40.2906],
[33.7696,40.1612],
[33.762,40.0964],
[33.5739,39.8376],
[33.5665,39.7729]
]
]
]}
}
