{
"type": "Feature",
"properties": {"id":"cliopatria-zhai-209bce","edge_precision":"unknown","cliopatria_name":"Zhai","cliopatria_from_year":-208,"cliopatria_to_year":-207,"cliopatria_area_km2":1628171,"cliopatria_wikidata":"Q7183","cliopatria_wikipedia":"Qin dynasty","cliopatria_member_of":"(Eighteen Kingdoms)"},
"geometry": {"type": "MultiPolygon", "coordinates": [
[
[
[100.5975,30.5007],
[101.1556,29.5366],
[101.9569,29.1509],
[102.602,29.0224],
[102.7181,28.8938],
[103.8568,28.6367],
[103.8978,28.5081],
[104.066,28.5724],
[104.6178,28.3795],
[105.4303,28.3153],
[105.6159,28.4438],
[106.0686,28.4438],
[106.0284,28.5724],
[106.7255,28.6367],
[107.6472,28.9581],
[109.8574,29.0224],
[110.8018,28.8938],
[111.7273,28.4438],
[111.9552,28.1867],
[111.9401,27.8652],
[112.0552,27.7367],
[111.8903,26.8366],
[111.9654,26.8366],
[111.8197,26.258],
[111.546,25.7436],
[111.5611,25.4864],
[110.9563,24.072],
[110.8919,23.7506],
[111.0401,23.3649],
[111.687,22.8506],
[111.6629,22.722],
[112.4136,21.9505],
[112.3787,21.7577],
[113.071,21.8863],
[113.1063,22.0791],
[113.3175,22.0148],
[113.4156,22.1434],
[113.6387,22.1434],
[113.6987,22.4648],
[113.5985,22.722],
[113.7474,22.722],
[113.7852,22.5291],
[113.9963,22.4648],
[113.9986,22.0791],
[114.5311,22.1434],
[114.6408,22.722],
[114.7153,22.722],
[114.9016,22.9148],
[114.6051,23.3006],
[114.6309,23.4291],
[114.4947,23.4934],
[114.5258,24.0077],
[114.4512,24.0077],
[114.7807,25.4864],
[115.2281,26.3865],
[114.9611,26.5151],
[115.0283,26.7723],
[114.9532,26.7723],
[115.3347,28.8938],
[115.2591,28.8938],
[115.8038,30.1151],
[116.1289,30.1794],
[116.27,29.9223],
[116.7364,29.7294],
[117.6783,29.6009],
[117.9268,29.6652],
[117.8842,29.5366],
[118.0356,29.5366],
[118.1649,28.7652],
[118.3512,28.6367],
[118.2914,28.4438],
[118.4225,28.3795],
[118.4935,27.8652],
[118.6252,27.8009],
[118.7019,27.2866],
[118.834,27.2223],
[118.8765,26.8366],
[119.0091,26.7723],
[119.1371,26.1294],
[119.2536,26.0008],
[119.5702,26.0651],
[119.587,26.1294],
[119.9381,26.3222],
[119.8399,26.5151],
[120.1577,26.5794],
[120.2108,26.7723],
[120.0606,26.7723],
[120.0964,26.9009],
[120.2467,26.9009],
[120.3947,27.158],
[120.545,27.158],
[120.7325,27.5438],
[120.6573,27.5438],
[120.7146,27.7367],
[120.8677,27.9938],
[121.0382,28.0581],
[121.118,28.3153],
[121.1934,28.3153],
[121.1533,28.1867],
[121.6459,28.3153],
[121.6521,28.5724],
[121.5218,28.6367],
[121.7143,28.7652],
[121.7443,29.0867],
[121.5389,29.1509],
[121.647,29.4723],
[121.5713,29.4723],
[121.7446,29.5366],
[121.7116,29.2152],
[121.9384,29.2152],
[122.016,29.6652],
[121.8645,29.6652],
[122.0298,29.9223],
[121.6202,30.0508],
[121.4841,30.3079],
[121.1047,30.3079],
[120.8088,30.1151],
[120.6798,30.1794],
[121.0453,30.565],
[121.2965,30.6292],
[121.32,30.6935],
[120.7781,31.0791],
[120.5023,30.9506],
[119.9413,31.0791],
[119.8326,31.4005],
[118.9187,31.4005],
[118.9668,31.529],
[118.8628,31.6575],
[117.282,31.9146],
[116.4357,32.3002],
[116.5579,32.8145],
[116.4294,33.0716],
[116.1229,33.0716],
[115.8671,33.2002],
[115.8415,33.3288],
[115.6114,33.3288],
[115.3046,33.5217],
[114.5115,33.6502],
[114.3582,33.8432],
[114.4099,33.9718],
[114.0037,34.4863],
[113.8496,34.4863],
[113.4957,34.9366],
[112.8783,34.9366],
[112.9584,35.1297],
[113.4218,35.1297],
[113.4758,35.2584],
[114.0108,35.9664],
[114.6547,36.546],
[114.8591,36.9971],
[115.4535,38.0933],
[116.7002,38.868],
[116.9331,39.3203],
[116.7984,39.5143],
[117.0143,39.7729],
[116.9257,39.9023],
[116.9954,40.0317],
[116.8725,40.0964],
[116.4522,39.9023],
[115.5498,39.8376],
[115.4504,40.0964],
[115.2924,40.0964],
[115.1594,40.2906],
[113.4883,40.4201],
[112.6288,40.2906],
[112.3024,39.967],
[112.1445,39.967],
[112.1113,39.9023],
[112.1902,39.9023],
[111.7713,39.385],
[111.4865,38.8034],
[111.1583,38.6097],
[111.0322,38.6743],
[110.9402,38.4806],
[110.1334,38.0933],
[109.1261,37.0615],
[108.9425,36.9971],
[108.9648,36.8682],
[108.7541,36.7393],
[108.3019,36.0308],
[107.0605,35.6445],
[106.854,35.7089],
[106.8026,35.5802],
[106.4931,35.5802],
[106.1848,35.3871],
[104.1331,34.8723],
[103.4972,34.615],
[103.4793,34.3577],
[103.3788,34.2933],
[103.0944,34.3577],
[102.4087,34.1647],
[102.2485,33.7146],
[102.3252,33.7146],
[102.2351,33.4574],
[102.3118,33.4574],
[102.1578,32.5574],
[101.8358,32.0431],
[100.9819,31.2719],
[100.5975,30.5007]
]
],
[
[
[121.9766,29.9865],
[122.2798,29.9865],
[122.2726,30.1794],
[122.045,30.1794],
[121.9766,29.9865]
]
]
]}
}
