{
"type": "Feature",
"properties": {"id":"cliopatria-nguyen-dynasty-1870","edge_precision":"unknown","cliopatria_name":"Nguyễn dynasty","cliopatria_from_year":1870,"cliopatria_to_year":1879,"cliopatria_area_km2":234391,"cliopatria_wikidata":"Q6500483","cliopatria_wikipedia":"Nguyen dynasty"},
"geometry": {"type": "MultiPolygon", "coordinates": [
[
[
[103.9571,19.3148],
[104.3065,19.1862],
[104.561,18.9291],
[105.2487,18.6076],
[105.2074,18.3505],
[106.6074,16.9362],
[106.6857,16.4861],
[106.9706,16.4219],
[107.0248,16.2933],
[107.5016,16.0361],
[107.2976,15.6504],
[107.6927,15.329],
[107.5651,14.9432],
[107.5562,14.8789],
[107.6209,14.8147],
[107.5127,14.5575],
[107.3804,14.1075],
[107.6172,13.6575],
[107.6093,13.5932],
[107.6669,13.4646],
[107.5248,12.886],
[107.6419,12.6289],
[107.5469,12.436],
[107.6202,12.436],
[107.613,12.3717],
[107.5398,12.3717],
[107.3105,11.6003],
[107.6783,10.8931],
[107.3669,10.7003],
[107.3425,10.4431],
[107.4156,10.4431],
[108.0253,10.7003],
[108.1173,10.8931],
[108.5691,11.0217],
[108.582,11.1503],
[108.7284,11.1503],
[109.2141,11.6003],
[109.2251,12.3717],
[109.3203,12.5646],
[109.4669,12.5646],
[109.5119,12.9503],
[109.3806,13.0789],
[109.3623,13.5289],
[109.2889,13.5289],
[109.3544,14.0432],
[109.1764,14.3646],
[109.1553,14.7504],
[108.9706,15.0075],
[109.0164,15.329],
[108.6767,15.5218],
[108.6955,15.6504],
[108.3657,15.9076],
[108.3308,16.1647],
[108.1393,16.3576],
[107.8447,16.3576],
[107.8644,16.4861],
[107.6532,16.5504],
[107.6731,16.679],
[107.482,16.8719],
[107.3346,16.8719],
[107.1002,17.2576],
[106.7517,17.3862],
[106.7721,17.5148],
[106.5179,17.7719],
[106.5696,18.0933],
[106.2949,18.2219],
[106.1783,18.4148],
[106.0305,18.4148],
[106.0513,18.5434],
[105.7339,18.8648],
[105.9655,19.8291],
[106.5369,20.1505],
[106.6854,20.6005],
[106.8337,20.6005],
[106.8764,20.8577],
[107.4174,20.9862],
[107.7903,21.4363],
[108.0874,21.4363],
[108.0984,21.5005],
[107.9719,21.6291],
[107.5894,21.5648],
[107.4627,21.6934],
[107.2398,21.6934],
[106.7113,22.0791],
[106.607,22.3363],
[106.7722,22.8506],
[106.7093,22.9148],
[106.3254,22.8506],
[106.1995,22.9791],
[105.7526,22.9791],
[105.4379,23.3006],
[105.2143,23.3006],
[104.9561,23.1077],
[104.8361,22.8506],
[104.5158,22.722],
[104.1547,22.7863],
[103.9616,22.5291],
[104.0667,22.272],
[104.2046,22.2077],
[104.183,22.0791],
[104.2573,22.0791],
[104.4481,21.8863],
[104.4161,21.6934],
[104.5647,21.6934],
[104.5859,21.372],
[104.7345,21.372],
[104.6923,21.1148],
[104.8197,20.9862],
[104.5033,20.4077],
[104.6516,20.4077],
[104.9806,20.1505],
[104.9493,19.9577],
[104.6855,19.7005],
[104.0827,19.6362],
[103.9571,19.3148]
]
]
]}
}
