{
"type": "Feature",
"properties": {"id":"cliopatria-greek-city-states-751bce","edge_precision":"unknown","cliopatria_name":"Greek City-States","cliopatria_from_year":-750,"cliopatria_to_year":-701,"cliopatria_area_km2":64106,"cliopatria_wikidata":"Q148837","cliopatria_wikipedia":"Polis"},
"geometry": {"type": "MultiPolygon", "coordinates": [
[
[
[20.3199,38.1578],
[20.7865,38.0933],
[20.7954,38.2869],
[20.5664,38.416],
[20.4881,38.416],
[20.3285,38.3515],
[20.3199,38.1578]
]
],
[
[
[20.4969,38.6097],
[20.7322,38.6097],
[20.7444,38.868],
[20.5874,38.868],
[20.4969,38.6097]
]
],
[
[
[20.6127,37.7062],
[20.9221,37.6417],
[20.934,37.8998],
[20.6213,37.8998],
[20.6127,37.7062]
]
],
[
[
[21.2436,37.8352],
[21.6966,37.5128],
[21.6031,37.1904],
[21.681,37.1904],
[21.7435,36.8682],
[21.8992,36.8682],
[21.9085,37.0615],
[22.22,37.0615],
[22.3563,36.6749],
[22.5118,36.6749],
[22.5994,36.8682],
[22.8328,36.8682],
[23.056,36.6749],
[22.8532,37.2549],
[22.7007,37.3193],
[22.7144,37.5773],
[22.9486,37.5773],
[23.1756,37.4483],
[23.1685,37.3193],
[23.4024,37.3193],
[23.3425,37.6417],
[23.1083,37.6417],
[23.0445,37.8998],
[23.2008,37.8998],
[23.2082,38.0288],
[23.4428,38.0288],
[23.9786,37.8352],
[24.0021,38.2224],
[24.1587,38.2224],
[24.1789,38.5451],
[24.0302,38.6743],
[23.5634,38.7389],
[23.6261,38.4806],
[23.3126,38.4806],
[23.1672,38.6743],
[22.9356,38.7389],
[22.9431,38.868],
[23.1825,38.9326],
[23.1787,38.868],
[23.4888,38.8034],
[23.3435,38.9972],
[23.1078,38.9972],
[23.1155,39.1265],
[22.7973,39.0618],
[22.8163,39.385],
[23.1352,39.4496],
[22.7569,39.7083],
[22.7648,39.8376],
[22.6109,39.9023],
[22.7017,40.0964],
[22.6227,40.0964],
[22.5319,39.9023],
[22.5877,39.5143],
[22.344,39.385],
[22.5615,39.0618],
[22.5505,38.868],
[22.3863,38.7389],
[21.912,38.6743],
[21.6015,38.7389],
[21.278,38.5451],
[21.2716,38.416],
[21.7384,38.3515],
[21.7286,38.1578],
[21.4156,38.1578],
[21.2436,37.8352]
]
],
[
[
[22.874,36.1596],
[23.1068,36.1596],
[23.1168,36.3528],
[22.9649,36.4172],
[22.8872,36.4172],
[22.874,36.1596]
]
],
[
[
[23.263,40.2259],
[23.3253,39.967],
[23.6369,39.9023],
[23.6454,40.0317],
[23.3421,40.2259],
[23.263,40.2259]
]
],
[
[
[23.4212,40.2259],
[23.5002,40.2259],
[23.5045,40.2906],
[23.4254,40.2906],
[23.4212,40.2259]
]
],
[
[
[23.4849,38.7389],
[23.5634,38.7389],
[23.5673,38.8034],
[23.4888,38.8034],
[23.4849,38.7389]
]
],
[
[
[23.6154,35.5158],
[23.6792,35.2584],
[24.4484,35.194],
[24.7574,35.194],
[24.8237,35.001],
[26.1401,35.0653],
[26.2253,35.194],
[25.6806,35.1297],
[25.6923,35.3227],
[24.301,35.3227],
[24.1499,35.3871],
[24.1569,35.5158],
[23.6154,35.5158]
]
],
[
[
[23.6583,40.2259],
[23.7374,40.2259],
[23.7461,40.3554],
[23.667,40.3554],
[23.6583,40.2259]
]
],
[
[
[24.2013,37.6417],
[24.2716,37.5128],
[24.4316,37.5773],
[24.3614,37.7062],
[24.2833,37.7062],
[24.2013,37.6417]
]
],
[
[
[24.3565,38.868],
[24.662,38.7389],
[24.6749,38.9326],
[24.4435,38.9972],
[24.365,38.9972],
[24.3565,38.868]
]
],
[
[
[24.6819,37.8352],
[24.83,37.7062],
[25.0685,37.7707],
[24.7724,38.0288],
[24.6942,38.0288],
[24.6819,37.8352]
]
],
[
[
[24.9862,37.7062],
[25.0519,37.5128],
[25.286,37.5128],
[25.2205,37.7062],
[24.9862,37.7062]
]
],
[
[
[25.3308,36.9971],
[25.5644,36.9971],
[25.5727,37.126],
[25.339,37.126],
[25.3308,36.9971]
]
],
[
[
[25.8208,38.4806],
[25.8991,38.4806],
[25.8764,38.1578],
[26.1112,38.1578],
[26.2173,38.5451],
[25.9914,38.6743],
[25.913,38.6743],
[25.8208,38.4806]
]
],
[
[
[26.8653,36.6749],
[27.1854,36.8037],
[27.1168,36.9326],
[27.0389,36.9326],
[26.8653,36.6749]
]
],
[
[
[27.1946,36.9326],
[27.6663,36.9971],
[27.7538,37.126],
[27.6028,37.1904],
[27.5248,37.1904],
[27.2085,37.126],
[27.1946,36.9326]
]
],
[
[
[27.6925,36.2884],
[27.7426,35.902],
[28.1393,36.0308],
[28.2502,36.4816],
[28.0171,36.4816],
[27.6925,36.2884]
]
],
[
[
[32.229,34.9366],
[32.3667,34.7436],
[32.7466,34.6793],
[32.8894,34.5506],
[33.2863,34.6793],
[33.292,34.7436],
[33.2382,35.001],
[33.4698,35.001],
[33.8086,35.3227],
[33.9571,35.2584],
[34.0344,35.2584],
[34.5294,35.5802],
[34.5421,35.7089],
[34.3098,35.7089],
[33.7374,35.3871],
[32.8869,35.3871],
[32.8752,35.2584],
[32.5547,35.1297],
[32.2458,35.1297],
[32.229,34.9366]
]
]
]}
}
