{
"type": "Feature",
"properties": {"id":"cliopatria-county-of-vermandois-1034","edge_precision":"unknown","cliopatria_name":"County of Vermandois","cliopatria_from_year":1034,"cliopatria_to_year":1039,"cliopatria_area_km2":17449,"cliopatria_wikidata":"Q26385","cliopatria_wikipedia":"Vermandois","cliopatria_seshat_id":"fr_capetian_k_1","cliopatria_member_of":"(Kingdom of France)"},
"geometry": {"type": "MultiPolygon", "coordinates": [
[
[
[1.4464,50.3791],
[1.455,50.246],
[1.8196,49.7807],
[1.7724,49.1838],
[2.4394,49.1838],
[2.6135,49.0513],
[2.9432,49.1175],
[3.1099,49.1175],
[3.35,49.3163],
[3.6003,49.3163],
[3.8476,49.3826],
[3.8383,49.5816],
[4.0831,49.7143],
[4.1548,49.98],
[3.7293,50.113],
[2.5544,50.113],
[1.7827,50.3791],
[1.7909,50.246],
[1.4464,50.3791]
]
]
]}
}
