{
"type": "Feature",
"properties": {"id":"cliopatria-swiss-confederation-1502","edge_precision":"unknown","cliopatria_name":"Swiss Confederation","cliopatria_from_year":1502,"cliopatria_to_year":1511,"cliopatria_area_km2":31244,"cliopatria_wikidata":"Q39","cliopatria_wikipedia":"Switzerland","cliopatria_seshat_id":"ch_swiss_conf_1"},
"geometry": {"type": "MultiPolygon", "coordinates": [
[
[
[6.671,46.8743],
[6.6727,46.8086],
[6.7548,46.8086],
[6.7531,46.8743],
[6.671,46.8743]
]
],
[
[
[6.6778,46.6115],
[7.0894,46.5459],
[7.1743,46.4145],
[7.2577,46.3489],
[7.0167,46.1521],
[6.9349,46.1521],
[6.9396,45.9554],
[7.1044,45.8898],
[7.431,45.8898],
[7.5917,46.0209],
[7.5019,46.4145],
[8.1539,46.6115],
[8.3179,46.6115],
[8.3168,46.6772],
[8.3989,46.6772],
[8.4019,46.4802],
[8.6477,46.4802],
[8.8958,46.2833],
[8.8982,46.0865],
[9.1434,46.0865],
[9.3031,46.4802],
[10.0415,46.2833],
[10.1228,46.4145],
[10.0409,46.4145],
[10.0399,46.6115],
[10.3679,46.6115],
[10.4491,46.9401],
[9.8739,46.9401],
[9.6258,47.1374],
[9.2974,47.0716],
[9.2138,47.2032],
[9.5425,47.269],
[9.5419,47.3348],
[9.6243,47.3348],
[9.6238,47.4006],
[9.5397,47.5982],
[9.0431,47.73],
[8.5476,47.73],
[8.467,47.5982],
[8.2184,47.6641],
[8.0545,47.5982],
[8.1381,47.5323],
[8.0592,47.3348],
[7.7297,47.3348],
[7.5608,47.5323],
[7.5594,47.5982],
[7.3973,47.4665],
[6.9834,47.5323],
[6.9899,47.269],
[6.8286,47.1374],
[7.0801,46.9401],
[6.7548,46.8086],
[6.6778,46.6115]
]
]
]}
}
