{
"type": "Feature",
"properties": {"id":"cliopatria-danelaw-0878","edge_precision":"unknown","cliopatria_name":"Danelaw","cliopatria_from_year":878,"cliopatria_to_year":879,"cliopatria_area_km2":45807,"cliopatria_wikidata":"Q339271","cliopatria_wikipedia":"Danelaw","cliopatria_seshat_id":"gb_danelaw"},
"geometry": {"type": "MultiPolygon", "coordinates": [
[
[
[-2.6767,54.6811],
[-2.648,54.4095],
[-1.9939,53.9352],
[-1.8943,53.7999],
[-1.9476,53.4621],
[-1.7627,53.3271],
[-1.4188,53.3271],
[-1.4126,53.2596],
[-1.3266,53.2596],
[-1.2043,52.8554],
[-0.8442,52.6535],
[-0.6448,52.3176],
[-0.2927,52.1833],
[0.0204,51.4465],
[0.5288,51.4465],
[0.5239,51.5134],
[0.863,51.5134],
[0.8439,51.7811],
[1.1837,51.7811],
[1.1698,51.9822],
[1.425,51.9822],
[1.5863,52.1163],
[1.6537,52.3847],
[1.739,52.3847],
[1.7168,52.7208],
[1.532,52.9227],
[1.0938,53.0574],
[0.4933,53.0574],
[0.3375,52.8554],
[0.1662,52.8554],
[0.0698,52.99],
[0.3165,53.1248],
[0.2953,53.3946],
[0.1179,53.4621],
[-0.0933,53.9352],
[-0.1796,53.9352],
[-0.2024,54.2061],
[-0.6714,54.6132],
[-1.4598,54.6811],
[-1.8944,54.6811],
[-1.8877,54.6132],
[-2.4958,54.6132],
[-2.5029,54.6811],
[-2.6767,54.6811]
]
]
]}
}
