{
"type": "Feature",
"properties": {"id":"cliopatria-ligurian-republic-1797","edge_precision":"unknown","cliopatria_name":"Ligurian Republic","cliopatria_from_year":1797,"cliopatria_to_year":1798,"cliopatria_area_km2":2313,"cliopatria_wikidata":"Q659312","cliopatria_wikipedia":"Ligurian Republic"},
"geometry": {"type": "MultiPolygon", "coordinates": [
[
[
[8.3497,44.4507],
[8.3515,44.3201],
[8.4323,44.3201],
[8.5925,44.4507],
[9.0781,44.4507],
[9.7274,44.1243],
[10.0505,44.1243],
[9.8075,44.2548],
[9.7267,44.2548],
[8.9953,44.6466],
[8.5901,44.6466],
[8.3497,44.4507]
]
],
[
[
[9.8892,44.0591],
[9.8895,43.9938],
[9.9702,43.9938],
[9.9699,44.0591],
[9.8892,44.0591]
]
]
]}
}
