{
"type": "Feature",
"properties": {"id":"cliopatria-seleucid-empire-171bce","edge_precision":"unknown","cliopatria_name":"Seleucid Empire","cliopatria_from_year":-170,"cliopatria_to_year":-165,"cliopatria_area_km2":2448734,"cliopatria_wikidata":"Q705904","cliopatria_wikipedia":"Seleucid dynasty","cliopatria_seshat_id":"ir_seleucid_emp"},
"geometry": {"type": "MultiPolygon", "coordinates": [
[
[
[25.7374,28.9581],
[25.813,28.9581],
[26.252,28.6367],
[27.0676,28.3153],
[27.285,28.1224],
[27.2763,27.9295],
[27.4299,27.9938],
[27.792,27.6724],
[27.7109,27.5438],
[27.9367,27.5438],
[28.1537,27.3509],
[28.2702,26.5794],
[28.3453,26.5794],
[28.2437,25.9365],
[28.2886,25.165],
[28.5688,24.6506],
[29.6728,24.2006],
[29.9595,23.8792],
[30.1087,23.8792],
[30.104,23.7506],
[30.3952,23.5577],
[30.4627,23.3649],
[30.5372,23.3649],
[31.6705,23.7506],
[32.0409,23.6863],
[33.389,23.8149],
[33.6818,23.6863],
[33.7564,23.6863],
[35.108,23.8792],
[35.5526,23.8149],
[35.5588,23.9435],
[35.8541,23.8792],
[35.8604,24.0077],
[35.1455,24.6506],
[34.6076,25.8079],
[34.4613,25.8722],
[34.1972,26.5151],
[34.0507,26.5794],
[34.0731,26.9652],
[33.9266,27.0295],
[33.7992,27.4152],
[33.5851,27.6081],
[33.6089,27.9938],
[33.1053,28.3795],
[32.8361,28.8938],
[32.6892,28.9581],
[32.4416,29.7937],
[32.5261,29.9223],
[32.6733,29.858],
[32.7579,29.9865],
[32.9095,29.9865],
[32.9185,30.1151],
[33.838,30.2436],
[34.3029,30.3722],
[34.3886,30.5007],
[34.6114,30.4364],
[34.6214,30.565],
[35.3522,31.1434],
[35.499,31.0791],
[35.662,31.2076],
[36.4231,31.2076],
[36.3866,31.6575],
[36.6623,32.1717],
[36.5155,32.236],
[36.7507,32.3002],
[36.7168,32.7502],
[36.901,33.0716],
[37.0542,33.0716],
[37.0732,33.2645],
[37.5726,33.6502],
[37.7261,33.6502],
[37.7395,33.7789],
[37.9902,33.9718],
[39.1238,34.4863],
[40.2569,34.2933],
[40.4033,34.229],
[40.3115,34.1004],
[40.7036,34.1647],
[40.9117,33.9718],
[41.2116,33.9075],
[41.2733,33.7789],
[41.427,33.7789],
[41.4886,33.6502],
[42.0031,33.4574],
[42.0645,33.3288],
[42.5783,33.1359],
[42.7085,32.943],
[43.1526,32.8145],
[44.459,31.5933],
[44.5814,31.3362],
[44.9546,31.2719],
[45.7705,30.4364],
[46.5906,30.3079],
[46.6151,29.858],
[46.8497,29.9223],
[46.994,29.858],
[46.9794,29.7294],
[47.2897,29.7937],
[47.6464,29.6009],
[48.0933,29.5366],
[48.4035,29.6009],
[48.3654,29.9223],
[48.9873,30.0508],
[48.9428,30.3079],
[49.5859,29.9865],
[50.0648,30.1794],
[50.2363,29.7294],
[50.6513,29.4081],
[50.6203,29.1509],
[50.915,29.0867],
[50.809,28.8295],
[51.0281,28.7652],
[51.0662,28.4438],
[51.3313,28.1224],
[51.3168,27.9938],
[51.5967,27.8009],
[52.0486,27.8009],
[52.4787,27.6081],
[52.737,27.2223],
[53.4606,26.9652],
[53.6581,26.708],
[54.2589,26.708],
[54.4632,26.5151],
[54.8316,26.4508],
[55.2423,26.7723],
[55.5427,26.7723],
[55.3102,26.708],
[55.2889,26.5151],
[55.439,26.5151],
[55.6034,26.6437],
[56.0612,26.708],
[56.3086,26.9009],
[56.3236,27.0295],
[56.0981,27.0295],
[56.1884,27.158],
[56.7147,27.158],
[57.0524,26.8366],
[57.1148,26.0651],
[57.3795,25.7436],
[57.5294,25.7436],
[57.4826,26.0008],
[57.7733,26.5794],
[58.2621,26.9009],
[58.4046,26.8366],
[58.428,27.0295],
[58.5942,27.158],
[58.7446,27.158],
[58.8359,27.2866],
[58.9782,27.2223],
[58.9945,27.3509],
[59.3955,27.5438],
[60.244,28.251],
[61.0273,29.4723],
[61.3701,29.7294],
[61.6801,30.2436],
[62.1239,30.6292],
[63.3014,32.1074],
[63.4421,32.0431],
[63.6434,32.3002],
[63.8726,32.3002],
[64.4063,32.6859],
[64.3552,32.8145],
[64.687,32.943],
[64.8287,33.2645],
[64.982,33.2645],
[65.1117,33.5217],
[65.035,33.5217],
[65.0617,33.6502],
[65.2422,33.7789],
[65.3873,34.1004],
[65.7505,34.3577],
[66.3524,34.2933],
[66.4577,34.422],
[66.5347,34.422],
[66.5632,34.5506],
[66.1436,34.7436],
[65.6179,34.8079],
[65.4149,34.9366],
[64.7555,34.7436],
[64.3699,34.7436],
[64.1882,34.615],
[63.9569,34.615],
[63.8301,34.7436],
[63.2767,34.6793],
[63.1496,34.8079],
[62.6231,34.8723],
[62.1906,35.3871],
[61.804,35.3871],
[61.303,35.5802],
[61.2346,36.3528],
[61.157,36.3528],
[61.2128,36.6105],
[60.047,36.6105],
[59.0742,36.4172],
[58.453,36.4172],
[57.7024,36.546],
[57.4437,36.8037],
[56.8343,36.8682],
[56.2119,36.8682],
[55.785,36.6749],
[54.7744,36.6749],
[54.0333,36.8682],
[53.9555,36.8682],
[53.0877,36.8037],
[52.1859,36.546],
[52.1082,36.546],
[52.0076,36.4172],
[50.8546,36.0308],
[50.4804,35.6445],
[49.6082,35.5158],
[49.4127,35.2584],
[48.7745,35.1297],
[47.9542,35.3227],
[46.031,35.3871],
[45.2171,35.6445],
[45.1952,36.0308],
[45.1177,36.0308],
[45.2509,36.9326],
[44.8713,36.9971],
[44.7446,37.1904],
[44.7738,37.3838],
[44.4131,37.5773],
[43.9448,37.5773],
[42.5082,37.8998],
[41.961,37.8998],
[41.6666,38.0288],
[40.5716,38.0288],
[40.5983,38.2224],
[40.4418,38.2224],
[40.4507,38.2869],
[40.1374,38.2869],
[39.3803,38.4806],
[39.1807,38.1578],
[38.8677,38.1578],
[38.658,38.3515],
[38.423,38.3515],
[38.3116,38.0933],
[38.147,38.0288],
[37.764,38.0933],
[37.6381,37.7062],
[37.9891,37.3838],
[37.958,37.126],
[38.1762,36.9971],
[38.1607,36.8682],
[37.6011,36.7393],
[37.5233,36.7393],
[37.1975,36.6105],
[36.1592,37.0615],
[35.9964,36.9971],
[35.9822,36.8682],
[36.06,36.8682],
[36.1449,36.9326],
[36.2862,36.8037],
[36.2649,36.6105],
[35.8417,36.2884],
[35.9901,36.224],
[35.8449,35.5802],
[35.9929,35.5158],
[35.8825,35.194],
[35.9597,35.194],
[35.927,34.8723],
[36.0682,34.7436],
[36.0488,34.5506],
[35.7921,34.2933],
[35.6445,34.3577],
[35.6838,33.9718],
[35.447,33.9075],
[35.4993,33.6502],
[35.3458,33.6502],
[35.3984,33.3931],
[35.2154,33.0716],
[35.0563,33.0073],
[35.0218,32.6216],
[34.7698,32.3645],
[34.813,31.9789],
[34.5733,31.8503],
[34.6334,31.6575],
[34.3076,31.4005],
[34.2972,31.2719],
[33.7493,31.0791],
[32.8317,31.0148],
[32.7652,31.1434],
[32.5322,31.0791],
[32.3894,31.2076],
[32.2372,31.2076],
[32.3039,31.0791],
[31.9996,31.0791],
[31.9374,31.2719],
[31.7806,31.2076],
[31.8752,31.4647],
[31.2658,31.4647],
[31.118,31.529],
[31.2033,31.6575],
[30.9746,31.6575],
[30.9656,31.529],
[30.8088,31.4647],
[30.3517,31.4647],
[30.2712,31.4005],
[30.3388,31.2719],
[29.8018,31.2076],
[30.0052,30.822],
[30.0011,30.7578],
[29.6891,30.6292],
[29.4011,30.8863],
[29.3971,30.822],
[28.865,30.822],
[28.4964,31.0148],
[27.4424,31.2076],
[27.3663,31.2076],
[26.7368,30.822],
[26.5648,30.4364],
[26.1663,30.0508],
[25.9963,29.6652],
[25.8419,29.6009],
[25.7374,28.9581]
]
]
]}
}
