{
"type": "Feature",
"properties": {"id":"cliopatria-almohad-caliphate-1147","edge_precision":"unknown","cliopatria_name":"Almohad Caliphate","cliopatria_from_year":1147,"cliopatria_to_year":1151,"cliopatria_area_km2":505011,"cliopatria_wikidata":"Q199688","cliopatria_wikipedia":"Almohad Caliphate","cliopatria_seshat_id":"ma_almohad_emp"},
"geometry": {"type": "MultiPolygon", "coordinates": [
[
[
[-11.6194,28.251],
[-10.4688,27.9295],
[-9.1844,27.8652],
[-8.8149,27.9938],
[-8.6607,27.9295],
[-8.0068,28.3795],
[-7.5611,28.5081],
[-7.3485,28.7652],
[-7.1975,28.7652],
[-6.1801,29.5366],
[-5.8773,29.5366],
[-5.884,29.6652],
[-5.5944,29.9223],
[-5.4429,29.9223],
[-4.8659,30.5007],
[-4.5655,30.565],
[-4.648,30.6935],
[-4.2084,31.0148],
[-4.2149,31.1434],
[-3.9235,31.4005],
[-3.768,31.3362],
[-3.781,31.5933],
[-3.5556,31.6575],
[-3.6383,31.7861],
[-3.416,31.9146],
[-3.3494,32.1074],
[-3.1935,32.0431],
[-3.2032,32.236],
[-2.834,32.4931],
[-2.8404,32.6216],
[-2.5408,32.7502],
[-1.8795,33.3288],
[-1.5728,33.3288],
[-1.4314,33.5859],
[-1.2779,33.5859],
[-0.9855,33.9075],
[-0.8317,33.9075],
[-0.6896,34.1647],
[-0.5357,34.1647],
[-0.5415,34.2933],
[-0.0936,34.615],
[-0.1996,35.2584],
[-0.1223,35.2584],
[-0.1252,35.3227],
[-0.0714,35.8377],
[-0.1489,35.8377],
[-0.9171,35.7089],
[-1.0655,35.5802],
[-1.2235,35.6445],
[-1.1365,35.4514],
[-1.3587,35.2584],
[-1.5906,35.2584],
[-1.8896,35.0653],
[-2.6617,35.0653],
[-2.8198,35.1297],
[-2.8379,35.4514],
[-2.9926,35.4514],
[-2.9816,35.2584],
[-3.2869,35.194],
[-4.7548,35.194],
[-5.2398,35.5158],
[-5.3389,35.8377],
[-5.8766,35.7733],
[-5.9999,35.3227],
[-6.1455,35.194],
[-6.132,35.001],
[-6.2909,35.0653],
[-6.2003,34.8723],
[-6.2775,34.8723],
[-6.3324,34.5506],
[-6.4821,34.4863],
[-6.4732,34.3577],
[-6.6997,34.2933],
[-6.6139,34.1647],
[-6.9038,33.9075],
[-7.062,33.9718],
[-7.1299,33.8432],
[-8.5517,33.3288],
[-9.1985,32.7502],
[-9.3325,32.4931],
[-9.3091,32.1717],
[-9.5242,31.9789],
[-9.515,31.8503],
[-9.7345,31.7218],
[-9.7831,31.3362],
[-9.8593,31.3362],
[-9.8815,30.565],
[-9.6494,30.5007],
[-9.628,30.1794],
[-9.8301,29.7937],
[-10.0489,29.6652],
[-10.0405,29.5366],
[-10.3307,29.3438],
[-10.4653,29.0867],
[-10.9776,28.8295],
[-11.6194,28.251]
]
],
[
[
[-8.8595,38.0288],
[-8.8537,37.9643],
[-8.2168,37.8352],
[-8.0218,37.3838],
[-7.9438,37.3838],
[-7.9493,37.4483],
[-7.7153,37.4483],
[-7.7315,37.6417],
[-7.5862,37.7707],
[-6.9508,37.6417],
[-6.9613,37.7707],
[-6.5758,37.8352],
[-6.4043,37.6417],
[-6.3992,37.5773],
[-6.6232,37.4483],
[-6.7538,37.126],
[-6.3495,36.9326],
[-6.3301,36.6749],
[-6.0638,36.224],
[-5.8311,36.224],
[-5.5848,36.0308],
[-5.2193,36.3528],
[-5.2237,36.4172],
[-5.3881,36.546],
[-5.0862,36.6749],
[-5.0952,36.8037],
[-4.7974,36.9971],
[-4.1832,37.126],
[-3.859,36.9326],
[-3.9243,36.7393],
[-2.6801,36.7393],
[-2.5321,36.8682],
[-2.5359,36.9326],
[-2.7969,37.3838],
[-3.1909,37.4483],
[-3.1949,37.5128],
[-3.273,37.5128],
[-4.7647,37.6417],
[-5.4674,37.6417],
[-6.0238,37.7707],
[-5.9457,37.7707],
[-5.9506,37.8352],
[-5.8725,37.8352],
[-5.8874,38.0288],
[-5.7359,38.0933],
[-5.8241,38.2224],
[-5.7509,38.2869],
[-5.4376,38.2869],
[-4.7518,38.5451],
[-4.6379,39.1265],
[-5.036,39.1911],
[-5.2186,39.5143],
[-5.4497,39.4496],
[-5.4601,39.5789],
[-5.8755,39.8376],
[-6.7321,39.7083],
[-6.9743,39.7729],
[-7.1994,39.6436],
[-7.6723,39.6436],
[-7.8909,39.4496],
[-7.9577,39.3203],
[-7.8555,39.0618],
[-7.614,38.9972],
[-7.137,38.9326],
[-7.2551,38.4806],
[-7.4847,38.416],
[-7.4736,38.2869],
[-8.0332,38.416],
[-8.1347,38.6743],
[-8.8227,38.4806],
[-8.8167,38.416],
[-8.8595,38.0288]
]
]
]}
}
