{
"type": "Feature",
"properties": {"id":"cliopatria-electorate-of-brandenburg-1564","edge_precision":"unknown","cliopatria_name":"Electorate of Brandenburg","cliopatria_from_year":1564,"cliopatria_to_year":1571,"cliopatria_area_km2":42314,"cliopatria_wikidata":"Q148499","cliopatria_wikipedia":"Margraviate of Brandenburg","cliopatria_seshat_id":"de_hohenzollern_1"},
"geometry": {"type": "MultiPolygon", "coordinates": [
[
[
[11.0438,52.8554],
[11.127,52.5191],
[11.8967,52.5863],
[12.3274,52.7881],
[12.3252,52.6535],
[12.5781,52.4519],
[12.4051,52.3176],
[12.4029,52.1833],
[13.4221,52.0492],
[13.4254,52.1833],
[13.9404,52.3176],
[14.3605,52.1163],
[14.616,52.1163],
[14.7794,51.9151],
[14.8691,52.0492],
[15.0394,52.0492],
[15.132,52.2505],
[15.4703,52.1833],
[15.6462,52.3176],
[15.4893,52.6535],
[15.5748,52.6535],
[16.0971,52.8554],
[16.0238,53.1248],
[16.1097,53.1248],
[16.1192,53.3271],
[16.2944,53.3946],
[16.301,53.5296],
[16.4767,53.5971],
[16.4007,53.7999],
[16.3144,53.7999],
[16.411,54.0029],
[15.982,54.0706],
[15.9692,53.7999],
[16.0555,53.7999],
[16.0491,53.6647],
[15.9629,53.6647],
[15.966,53.7323],
[15.7043,53.6647],
[15.7813,53.4621],
[15.4399,53.5296],
[15.2568,53.2596],
[14.8246,53.1922],
[14.6481,53.0574],
[14.4766,53.0574],
[14.2257,53.2596],
[14.316,53.3946],
[13.896,53.7323],
[13.5492,53.6647],
[13.1962,53.3271],
[12.1656,53.3946],
[11.9104,53.5971],
[11.7381,53.5971],
[11.5635,53.3946],
[11.3061,53.4621],
[11.1329,53.3271],
[11.2178,53.1922],
[11.3895,53.1922],
[11.3882,53.0574],
[11.2167,53.0574],
[11.0438,52.8554]
]
],
[
[
[13.9328,52.0492],
[14.2693,51.9151],
[14.1902,52.1163],
[13.9347,52.1163],
[13.9328,52.0492]
]
]
]}
}
