{
"type": "Feature",
"properties": {"id":"cliopatria-county-of-savoy-1395","edge_precision":"unknown","cliopatria_name":"County of Savoy","cliopatria_from_year":1395,"cliopatria_to_year":1401,"cliopatria_area_km2":25458,"cliopatria_wikidata":"Q1232887","cliopatria_wikipedia":"County of Savoy","cliopatria_seshat_id":"de_empire_3","cliopatria_member_of":"(Holy Roman Empire)"},
"geometry": {"type": "MultiPolygon", "coordinates": [
[
[
[5.7145,45.9554],
[5.7227,45.6933],
[5.8896,45.5623],
[6.2173,45.4968],
[6.3093,45.1042],
[6.6343,45.1042],
[6.6375,44.9734],
[6.9666,44.7773],
[7.3734,44.7119],
[7.4569,44.5813],
[7.4606,44.3854],
[7.2219,44.1896],
[6.8957,44.3201],
[6.8986,44.1896],
[6.6607,43.9938],
[6.6681,43.6678],
[6.8293,43.6678],
[6.9126,43.5375],
[6.9931,43.5375],
[7.2296,43.7982],
[7.3102,43.7982],
[7.3884,43.9286],
[7.6293,43.9938],
[7.6271,44.1243],
[7.7011,44.516],
[7.6965,44.7773],
[7.6953,44.8426],
[7.5293,45.0388],
[7.6056,45.3004],
[8.5818,45.3004],
[8.5784,45.5623],
[8.0884,45.6278],
[7.9197,45.9554],
[7.348,45.9554],
[6.9286,46.4145],
[6.3553,46.4145],
[6.5278,46.0865],
[6.7763,45.9554],
[6.4548,45.7588],
[6.2916,45.7588],
[6.288,45.8898],
[6.0431,45.8898],
[6.0374,46.0865],
[5.8739,46.0865],
[5.7145,45.9554]
]
]
]}
}
