{
"type": "Feature",
"properties": {"id":"cliopatria-avar-khaganate-0674","edge_precision":"unknown","cliopatria_name":"Avar Khaganate","cliopatria_from_year":674,"cliopatria_to_year":681,"cliopatria_area_km2":283053,"cliopatria_wikidata":"Q68962","cliopatria_wikipedia":"Pannonian Avars","cliopatria_seshat_id":"hu_avar_khaganate"},
"geometry": {"type": "MultiPolygon", "coordinates": [
[
[
[16.1253,47.1374],
[16.2076,47.1374],
[16.201,46.9401],
[16.4406,46.7429],
[16.4361,46.6115],
[16.1835,46.4145],
[16.2654,46.4145],
[16.3429,46.2833],
[16.5066,46.2833],
[16.4202,46.1521],
[16.6679,46.2177],
[16.6632,46.0865],
[17.146,45.8898],
[17.3831,45.6933],
[17.3778,45.5623],
[17.7825,45.4968],
[18.178,45.235],
[18.8285,45.235],
[19.0626,45.0388],
[19.0561,44.908],
[19.2996,44.908],
[19.2962,44.8426],
[19.6242,44.908],
[19.6172,44.7773],
[20.0191,44.7119],
[20.2847,45.1042],
[20.2884,45.1696],
[20.3697,45.1696],
[20.5284,45.1042],
[20.4396,44.9734],
[20.6676,44.7119],
[21.4055,44.8426],
[21.6361,44.6466],
[21.8791,44.6466],
[21.8704,44.516],
[22.028,44.4507],
[22.1899,44.4507],
[22.3653,44.6466],
[22.6895,44.6466],
[22.4372,44.516],
[22.4281,44.3854],
[22.8946,44.1243],
[22.8092,44.0591],
[22.8712,43.7982],
[23.5211,43.8634],
[24.0703,43.6678],
[24.8008,43.733],
[25.5954,43.6027],
[26.1947,43.9938],
[26.6913,44.1243],
[27.4927,44.0591],
[27.7481,44.1896],
[27.8289,44.1896],
[27.943,44.516],
[27.7877,44.5813],
[27.801,44.7119],
[27.9699,44.7773],
[27.9969,45.0388],
[27.8479,45.1696],
[27.8681,45.3659],
[27.7867,45.3659],
[27.5558,45.4968],
[26.1712,45.4968],
[26.1895,45.6933],
[25.9509,45.7588],
[25.9691,45.9554],
[25.8874,45.9554],
[25.9873,46.1521],
[25.754,46.2833],
[25.7083,46.6772],
[25.41,47.0058],
[25.5104,47.2032],
[25.1932,47.3348],
[25.2052,47.4665],
[24.8931,47.6641],
[24.9876,47.7959],
[24.8224,47.7959],
[24.6748,47.9938],
[23.6821,47.9938],
[23.1136,48.1257],
[22.6844,47.9278],
[22.5768,47.5982],
[22.3244,47.5323],
[22.0865,47.6641],
[21.9945,47.5323],
[21.5821,47.5323],
[21.5177,47.7959],
[20.5386,47.9938],
[19.8577,47.6641],
[19.5275,47.6641],
[19.4522,47.7959],
[18.8739,47.7959],
[18.7154,47.9278],
[18.626,47.7959],
[17.6346,47.7959],
[17.0669,48.0597],
[17.0723,48.1917],
[16.9868,48.1257],
[16.904,48.1257],
[16.4828,47.9278],
[16.4001,47.9278],
[16.3035,47.5323],
[16.1386,47.5323],
[16.1253,47.1374]
]
]
]}
}
