{
"type": "Feature",
"properties": {"id":"cliopatria-german-empire-1885","edge_precision":"unknown","cliopatria_name":"German Empire","cliopatria_from_year":1885,"cliopatria_to_year":1889,"cliopatria_area_km2":812239,"cliopatria_wikidata":"Q43287","cliopatria_wikipedia":"German Empire","cliopatria_seshat_id":"de_hohenzollern_3"},
"geometry": {"type": "MultiPolygon", "coordinates": [
[
[
[5.7612,49.5816],
[5.7635,49.5152],
[5.8623,49.0513],
[6.1143,48.9851],
[6.2036,48.7865],
[6.874,48.5881],
[6.8774,48.4559],
[7.045,48.3899],
[7.0482,48.2578],
[6.8048,48.0597],
[6.81,47.8619],
[6.9753,47.8619],
[7.0611,47.73],
[7.0659,47.5323],
[7.3973,47.4665],
[7.4769,47.5982],
[8.467,47.5982],
[8.5476,47.73],
[9.3741,47.6641],
[9.6228,47.5323],
[9.9527,47.5323],
[10.1185,47.3348],
[10.3657,47.3348],
[10.4474,47.5982],
[10.8599,47.5323],
[11.0247,47.4006],
[11.9331,47.6641],
[12.7585,47.6641],
[12.8394,47.5323],
[13.0044,47.5323],
[13.0887,47.6641],
[12.9245,47.73],
[12.9272,47.9278],
[12.7626,47.9938],
[12.7651,48.1917],
[13.2642,48.3238],
[13.4346,48.5881],
[13.7681,48.6542],
[13.7708,48.7865],
[12.5324,49.5152],
[12.5341,49.6479],
[12.3676,49.7143],
[12.3709,49.98],
[12.204,50.0465],
[12.2063,50.246],
[12.3761,50.3791],
[12.7965,50.3791],
[13.3919,50.7121],
[14.154,50.8455],
[14.3284,51.0457],
[14.4974,51.0457],
[14.5778,50.9122],
[15.2553,50.9789],
[15.417,50.7788],
[16.3388,50.6455],
[16.2435,50.3791],
[16.4873,50.1795],
[16.8231,50.1795],
[16.9192,50.4457],
[17.1715,50.4457],
[17.498,50.246],
[17.75,50.246],
[17.7399,50.0465],
[17.9042,49.98],
[18.4874,49.9136],
[18.8074,49.6479],
[18.8,49.5152],
[19.2336,49.7807],
[19.1658,50.0465],
[19.0819,50.0465],
[19.1861,50.3791],
[19.022,50.4457],
[19.0302,50.5789],
[18.8618,50.5789],
[18.5485,50.9789],
[18.2952,50.9789],
[17.8914,51.3128],
[17.9064,51.5803],
[17.6668,51.8481],
[17.678,52.0492],
[18.0225,52.1163],
[18.2987,52.4519],
[18.6402,52.4519],
[19.1806,52.8554],
[19.6088,52.8554],
[19.9721,53.1248],
[20.3958,53.0574],
[20.67,53.2596],
[20.9277,53.2596],
[21.2894,53.4621],
[21.8057,53.4621],
[22.521,53.7323],
[22.4822,54.2061],
[22.6623,54.2739],
[22.7187,54.8171],
[22.813,54.8851],
[22.573,55.0892],
[22.3986,55.0892],
[22.4127,55.2255],
[21.6401,55.3618],
[21.2352,55.7031],
[21.2482,55.8398],
[20.9913,55.9082],
[20.9659,55.6348],
[21.203,55.3618],
[20.9907,54.9531],
[20.7293,54.9531],
[20.6542,55.0892],
[19.9509,55.0211],
[19.8361,54.6811],
[20.0044,54.6132],
[19.8306,54.6132],
[19.8197,54.4774],
[19.5594,54.4774],
[19.4622,54.3417],
[18.6869,54.4095],
[18.4453,54.6811],
[18.4595,54.8851],
[17.5017,54.8851],
[16.4426,54.6132],
[15.9918,54.2739],
[15.0361,54.2061],
[14.5093,54.0029],
[14.4998,53.7323],
[13.9844,53.7999],
[14.1592,53.8676],
[14.1658,54.0706],
[13.3045,54.2061],
[13.7394,54.2739],
[13.6626,54.6132],
[13.4057,54.7491],
[13.1431,54.6811],
[13.0512,54.4774],
[12.4438,54.4774],
[12.0934,54.2739],
[11.3989,54.1384],
[11.3975,54.0029],
[10.8793,54.0706],
[11.0533,54.2061],
[11.0549,54.4095],
[9.9272,54.5453],
[10.0136,55.0211],
[9.4903,55.0892],
[9.664,55.2936],
[9.6637,55.3618],
[8.7888,55.43],
[8.7903,55.2936],
[8.5282,55.2936],
[8.5291,55.2255],
[8.4418,55.2255],
[8.5345,54.8171],
[8.7977,54.6132],
[8.7992,54.4774],
[8.5398,54.4095],
[8.5415,54.2739],
[8.8022,54.2061],
[8.8922,53.8676],
[8.4595,53.9352],
[8.377,53.6647],
[8.2057,53.5971],
[7.9448,53.7323],
[7.0823,53.7323],
[6.9133,53.5971],
[6.9186,53.3946],
[7.1783,53.3271],
[7.1799,53.2596],
[7.0216,52.7208],
[6.6812,52.6535],
[6.6849,52.5191],
[6.9446,52.3847],
[6.8645,52.1833],
[6.7793,52.1833],
[6.7811,52.1163],
[6.696,52.1163],
[6.6996,51.9822],
[6.6146,51.9822],
[6.5333,51.8481],
[5.9384,51.8481],
[5.9428,51.7142],
[6.2038,51.5134],
[5.9604,51.1792],
[5.9756,50.7121],
[6.0768,50.1795],
[6.0789,50.113],
[6.1628,50.113],
[6.1669,49.98],
[6.3386,49.8471],
[6.3484,49.5152],
[6.0998,49.4489],
[5.8448,49.5816],
[5.7612,49.5816]
]
],
[
[
[140.868,-2.543],
[140.8705,-2.6073],
[140.9648,-3.1216],
[140.892,-3.1216],
[140.9162,-4.9859],
[142.325,-5.3716],
[143.0796,-5.7574],
[143.1525,-5.7574],
[143.3847,-5.9502],
[144.2829,-6.2717],
[144.6719,-6.5931],
[144.9686,-6.6574],
[144.9788,-6.786],
[145.4998,-6.9145],
[146.7627,-8.0074],
[148.095,-8.2003],
[148.0888,-8.136],
[147.2326,-7.5574],
[146.8964,-7.0431],
[146.8753,-6.786],
[147.8183,-6.7217],
[147.7053,-6.2074],
[147.3946,-5.9502],
[146.9572,-5.9502],
[146.7976,-5.7574],
[146.3468,-5.5645],
[145.6821,-5.4359],
[145.718,-4.8573],
[145.327,-4.4073],
[144.9591,-4.343],
[144.8756,-4.1502],
[144.5773,-4.0216],
[144.3454,-3.7645],
[143.9084,-3.7645],
[143.5285,-3.443],
[143.0855,-3.3144],
[143.0126,-3.3144],
[142.4271,-3.2502],
[141.6793,-2.8001],
[140.868,-2.543]
]
],
[
[
[145.7025,-4.6002],
[145.7869,-4.7931],
[145.8598,-4.7931],
[145.9978,-4.6645],
[145.9173,-4.5359],
[145.7025,-4.6002]
]
],
[
[
[146.3913,-2.2858],
[147.1169,-2.2216],
[147.2553,-2.0287],
[147.0346,-1.9644],
[146.4522,-1.9644],
[146.3913,-2.2858]
]
],
[
[
[146.8398,-5.3074],
[147.0758,-5.5645],
[147.1271,-5.2431],
[146.9771,-5.1788],
[146.9042,-5.1788],
[146.8398,-5.3074]
]
],
[
[
[147.5816,-5.5002],
[147.595,-5.6931],
[147.7453,-5.7574],
[147.7499,-5.8217],
[147.8321,-5.9502],
[147.9732,-5.8859],
[147.9505,-5.5645],
[147.5816,-5.5002]
]
],
[
[
[148.1647,-5.5002],
[148.2602,-5.8217],
[148.707,-5.9502],
[148.9449,-6.2074],
[149.3046,-6.1431],
[149.4652,-6.336],
[150.3403,-6.336],
[150.6852,-6.0788],
[151.1178,-6.0145],
[151.3904,-5.7574],
[151.3765,-5.5645],
[151.9551,-5.5002],
[152.028,-5.5002],
[151.9245,-5.0502],
[152.2804,-4.9216],
[152.3174,-4.343],
[152.0914,-4.2145],
[151.8037,-4.2788],
[151.6506,-4.1502],
[151.3666,-4.2788],
[151.5476,-4.8573],
[151.0457,-4.9859],
[150.9213,-5.3074],
[150.6431,-5.5002],
[150.0599,-5.5002],
[149.9738,-5.3074],
[149.7552,-5.3074],
[149.7684,-5.5002],
[149.4813,-5.5645],
[148.379,-5.4359],
[148.1647,-5.5002]
]
],
[
[
[149.4153,-1.3215],
[149.4214,-1.5144],
[149.5691,-1.5787],
[149.7147,-1.5787],
[149.6356,-1.3858],
[149.4153,-1.3215]
]
],
[
[
[149.8152,-5.1145],
[149.8237,-5.2431],
[149.8966,-5.2431],
[150.1068,-5.1145],
[150.0984,-4.9859],
[149.8152,-5.1145]
]
],
[
[
[149.8236,-2.543],
[150.123,-2.7359],
[150.3415,-2.7359],
[150.3387,-2.6716],
[150.4115,-2.6716],
[150.3279,-2.4144],
[149.8885,-2.3501],
[149.8236,-2.543]
]
],
[
[
[150.7,-2.6073],
[150.7083,-2.8001],
[151.0025,-2.8644],
[151.3846,-3.2502],
[152.2814,-3.7002],
[152.5247,-4.1502],
[152.5555,-4.6645],
[152.7135,-4.8573],
[152.8592,-4.8573],
[153.0576,-4.5359],
[153.0347,-4.1502],
[152.7253,-3.8287],
[152.434,-3.8287],
[152.4305,-3.7645],
[152.192,-3.3787],
[151.5969,-3.1216],
[151.3666,-2.8644],
[151.1481,-2.8644],
[150.994,-2.6716],
[150.7,-2.6073]
]
],
[
[
[152.3949,-3.0573],
[152.401,-3.1859],
[152.6226,-3.2502],
[152.6195,-3.1859],
[152.5405,-3.0573],
[152.3949,-3.0573]
]
],
[
[
[154.4335,-5.5002],
[154.5792,-5.5002],
[154.6175,-6.0145],
[155.0074,-6.336],
[155.1123,-6.7217],
[155.2692,-6.8503],
[155.8527,-6.8503],
[155.8254,-6.5288],
[155.5025,-6.1431],
[155.3566,-6.1431],
[155.1036,-5.6931],
[154.6475,-5.4359],
[154.6209,-5.0502],
[154.4708,-4.9859],
[154.4335,-5.5002]
]
]
]}
}
