{
"type": "Feature",
"properties": {"id":"cliopatria-assyria-1701bce","edge_precision":"unknown","cliopatria_name":"Assyria","cliopatria_from_year":-1700,"cliopatria_to_year":-1501,"cliopatria_area_km2":63722,"cliopatria_wikidata":"Q41137","cliopatria_wikipedia":"Assyria"},
"geometry": {"type": "MultiPolygon", "coordinates": [
[
[
[27.5158,40.9384],
[27.5951,40.9384],
[27.601,41.0032],
[27.5216,41.0032],
[27.5158,40.9384]
]
],
[
[
[27.601,41.0032],
[27.7598,41.0032],
[27.7657,41.068],
[27.6069,41.068],
[27.601,41.0032]
]
],
[
[
[42.4328,35.0653],
[42.4364,34.4863],
[42.7283,34.3577],
[42.8904,34.422],
[42.9187,34.0361],
[43.1251,33.8432],
[43.2788,33.8432],
[43.477,33.5859],
[44.0748,33.4574],
[44.1352,33.3288],
[44.2119,33.3288],
[44.3735,33.3931],
[44.4231,33.7789],
[44.4999,33.7789],
[44.3714,33.9718],
[44.3967,34.1647],
[45.6277,34.1647],
[45.6542,34.3577],
[45.509,34.422],
[45.5356,34.615],
[45.7669,34.615],
[45.7168,34.8079],
[45.8801,34.8723],
[45.8984,35.001],
[45.5396,35.194],
[45.5488,35.2584],
[45.1489,35.7089],
[45.1673,35.8377],
[44.6026,36.224],
[44.6211,36.3528],
[44.3975,36.4172],
[44.3571,36.6749],
[44.2793,36.6749],
[43.6029,36.2884],
[43.4121,36.0308],
[43.4456,35.7089],
[43.1273,35.6445],
[42.861,35.3871],
[42.8961,35.0653],
[42.4328,35.0653]
]
]
]}
}
