{
"type": "Feature",
"properties": {"id":"cliopatria-brandenburg-prussia-1648","edge_precision":"unknown","cliopatria_name":"Brandenburg-Prussia","cliopatria_from_year":1648,"cliopatria_to_year":1658,"cliopatria_area_km2":106403,"cliopatria_wikidata":"Q157367","cliopatria_wikipedia":"Brandenburg-Prussia","cliopatria_seshat_id":"de_hohenzollern_2"},
"geometry": {"type": "MultiPolygon", "coordinates": [
[
[
[5.9384,51.8481],
[5.9406,51.7811],
[6.1169,51.5803],
[6.6258,51.5803],
[6.6314,51.3797],
[6.8837,51.4465],
[6.8785,51.6472],
[6.4483,51.8481],
[6.2784,51.8481],
[6.2763,51.9151],
[6.0212,51.9151],
[6.0234,51.8481],
[5.9384,51.8481]
]
],
[
[
[7.0499,51.5803],
[7.0565,51.3128],
[7.2289,51.1792],
[7.4826,51.1792],
[7.5643,51.3128],
[7.5629,51.3797],
[7.3906,51.5134],
[7.6449,51.5134],
[7.5574,51.6472],
[7.0499,51.5803]
]
],
[
[
[7.2813,52.5863],
[7.286,52.3847],
[7.542,52.3847],
[7.5476,52.1163],
[7.8018,52.1833],
[7.8005,52.2505],
[7.71,52.5191],
[7.2813,52.5863]
]
],
[
[
[7.9734,52.1163],
[7.9758,51.9822],
[8.4021,51.9151],
[8.4002,52.0492],
[8.9102,52.1163],
[8.8213,52.4519],
[8.9067,52.4519],
[8.906,52.5191],
[8.136,52.5863],
[8.2278,52.1833],
[7.9734,52.1163]
]
],
[
[
[10.7874,52.99],
[10.8711,52.5863],
[11.1261,52.3847],
[11.4688,52.5191],
[11.5528,52.3847],
[11.7235,52.3847],
[12.1522,52.5191],
[12.1552,52.7208],
[12.3274,52.7881],
[12.3252,52.6535],
[12.5781,52.4519],
[12.4051,52.3176],
[12.4029,52.1833],
[13.4221,52.0492],
[13.4254,52.1833],
[13.9404,52.3176],
[14.3605,52.1163],
[14.616,52.1163],
[14.6944,51.9151],
[14.9543,52.0492],
[15.132,52.2505],
[15.4703,52.1833],
[15.6462,52.3176],
[15.4893,52.6535],
[16.0971,52.8554],
[16.0238,53.1248],
[16.1097,53.1248],
[16.1192,53.3271],
[16.2944,53.3946],
[16.301,53.5296],
[16.4767,53.5971],
[16.3973,53.7323],
[16.4007,53.7999],
[16.6596,53.7999],
[16.8213,53.5971],
[17.1697,53.6647],
[17.1102,54.1384],
[17.3779,54.2739],
[17.3859,54.4095],
[17.5594,54.4095],
[17.4975,54.8171],
[17.4105,54.8171],
[16.62,54.6811],
[15.9918,54.2739],
[15.0361,54.2061],
[14.8577,54.0706],
[14.7712,54.0706],
[14.6649,53.5296],
[14.4927,53.5296],
[14.4788,53.1248],
[14.2257,53.2596],
[14.316,53.3946],
[13.896,53.7323],
[13.6354,53.6647],
[13.1962,53.3271],
[12.1656,53.3946],
[11.9104,53.5971],
[11.7381,53.5971],
[11.5635,53.3946],
[11.3921,53.4621],
[11.3061,53.4621],
[11.1324,53.2596],
[11.3895,53.1922],
[11.3882,53.0574],
[10.7874,52.99]
]
],
[
[
[13.9328,52.0492],
[14.2693,51.9151],
[14.1902,52.1163],
[13.9347,52.1163],
[13.9328,52.0492]
]
],
[
[
[18.7029,53.3946],
[19.2141,53.3271],
[19.3099,53.4621],
[19.7402,53.4621],
[19.7299,53.3271],
[19.9721,53.1248],
[20.3958,53.0574],
[20.67,53.2596],
[20.9277,53.2596],
[21.2894,53.4621],
[22.4214,53.5971],
[22.5482,54.0029],
[22.4618,54.0029],
[22.4822,54.2061],
[22.6623,54.2739],
[22.7045,54.6811],
[22.813,54.8851],
[22.573,55.0892],
[22.3986,55.0892],
[22.4127,55.2255],
[21.6401,55.3618],
[21.2352,55.7031],
[21.2482,55.8398],
[20.9913,55.9082],
[20.9659,55.6348],
[21.203,55.3618],
[20.9907,54.9531],
[20.7293,54.9531],
[20.6542,55.0892],
[19.9509,55.0211],
[19.8361,54.6811],
[20.0044,54.6132],
[19.8252,54.5453],
[19.8089,54.3417],
[20.1445,54.2061],
[20.4966,54.2739],
[20.7506,54.2061],
[20.8253,54.0706],
[20.273,53.6647],
[20.1006,53.6647],
[19.8579,53.8676],
[19.8739,54.0706],
[19.4518,54.2061],
[19.2685,54.0706],
[19.2535,53.8676],
[18.98,53.6647],
[18.8076,53.6647],
[18.7029,53.3946]
]
]
]}
}
