{
"type": "Feature",
"properties": {"id":"cliopatria-county-of-nevers-1152","edge_precision":"unknown","cliopatria_name":"County of Nevers","cliopatria_from_year":1152,"cliopatria_to_year":1168,"cliopatria_area_km2":12490,"cliopatria_wikidata":"Q2070440","cliopatria_wikipedia":"County of Nevers","cliopatria_seshat_id":"fr_capetian_k_2","cliopatria_member_of":"(Kingdom of France)"},
"geometry": {"type": "MultiPolygon", "coordinates": [
[
[
[2.3682,47.4665],
[2.619,47.4006],
[2.7116,47.2032],
[2.7939,47.2032],
[2.8039,47.0058],
[3.0697,46.6115],
[3.6467,46.5459],
[3.7286,46.5459],
[3.7257,46.6115],
[3.8077,46.6115],
[3.8049,46.6772],
[3.9633,46.8086],
[3.8668,47.1374],
[3.9491,47.1374],
[3.9404,47.3348],
[3.6079,47.4006],
[3.6018,47.5323],
[3.7668,47.5323],
[3.7548,47.7959],
[3.2494,47.9938],
[2.7634,47.7959],
[2.4293,47.8619],
[2.3682,47.4665]
]
]
]}
}
