{
"type": "Feature",
"properties": {"id":"cliopatria-kingdom-of-castile-1010","edge_precision":"unknown","cliopatria_name":"Kingdom of Castile","cliopatria_from_year":1010,"cliopatria_to_year":1027,"cliopatria_area_km2":39811,"cliopatria_wikidata":"Q179293","cliopatria_wikipedia":"Kingdom of Castile"},
"geometry": {"type": "MultiPolygon", "coordinates": [
[
[
[-4.5089,41.522],
[-3.7429,40.8736],
[-3.286,41.1328],
[-3.2161,41.2625],
[-2.3462,41.3274],
[-2.121,41.522],
[-2.1299,41.6518],
[-1.82,41.7816],
[-1.7756,42.3012],
[-2.0199,42.3662],
[-2.1183,42.6262],
[-2.9993,42.6262],
[-2.934,42.8213],
[-3.0142,42.8213],
[-3.0293,43.0165],
[-3.1949,43.0816],
[-3.1402,43.4072],
[-4.4273,43.4072],
[-4.2861,42.6912],
[-4.206,42.6912],
[-4.1579,42.1063],
[-4.4558,41.8465],
[-4.5089,41.522]
]
]
]}
}
