{
"type": "Feature",
"properties": {"id":"cliopatria-mexicans-1812","edge_precision":"unknown","cliopatria_name":"Mexicans","cliopatria_from_year":1812,"cliopatria_to_year":1813,"cliopatria_area_km2":263716,"cliopatria_wikidata":"Q1209676","cliopatria_wikipedia":"Mexicans"},
"geometry": {"type": "MultiPolygon", "coordinates": [
[
[
[-103.5324,18.4148],
[-103.5205,18.3505],
[-102.5635,17.9648],
[-101.8989,17.9648],
[-101.11,17.2576],
[-100.023,16.9362],
[-99.9278,16.8076],
[-99.8541,16.8076],
[-99.8126,17.0005],
[-99.5177,17.0005],
[-99.3488,16.8719],
[-99.3064,16.6147],
[-99.2327,16.6147],
[-98.6962,16.4861],
[-98.4341,16.229],
[-98.0559,16.1647],
[-97.7215,15.9076],
[-97.0493,15.8433],
[-96.7261,15.6504],
[-96.211,15.6504],
[-95.3662,15.9076],
[-94.9536,16.1004],
[-94.8456,16.3576],
[-94.6884,16.2933],
[-94.6688,16.1647],
[-94.1534,16.1647],
[-93.9037,15.9718],
[-93.8301,15.9718],
[-93.638,16.1647],
[-93.7903,16.679],
[-93.5693,16.679],
[-93.4419,16.8076],
[-93.5562,17.0647],
[-93.4292,17.1933],
[-94.7671,17.2576],
[-95.0306,17.5148],
[-95.2626,17.579],
[-95.2948,17.7719],
[-96.0005,17.579],
[-96.0137,18.0933],
[-96.5752,18.3505],
[-96.7167,18.7362],
[-96.9897,18.6076],
[-97.0124,18.7362],
[-97.2456,18.8005],
[-97.2915,19.0577],
[-97.0071,19.1219],
[-97.0301,19.2505],
[-97.2753,19.3791],
[-97.4857,19.3148],
[-97.7238,18.9934],
[-98.3155,18.9934],
[-98.2923,18.8648],
[-98.4287,18.8005],
[-98.6853,18.9934],
[-98.8955,18.9291],
[-98.9855,18.6076],
[-99.3666,18.6719],
[-99.9739,18.3505],
[-100.2072,18.4148],
[-100.4251,18.8005],
[-100.0167,18.9934],
[-99.9398,19.3791],
[-99.7296,19.4434],
[-99.6794,19.5719],
[-99.7392,19.8934],
[-99.8993,19.9577],
[-99.996,20.472],
[-99.7736,20.472],
[-99.7237,20.6005],
[-99.3529,20.6005],
[-99.4138,20.922],
[-99.8961,21.1148],
[-100.193,21.1148],
[-100.292,20.8577],
[-100.5888,20.8577],
[-101.0347,21.2434],
[-101.3317,21.2434],
[-101.4914,20.5362],
[-101.6397,20.5362],
[-101.9611,20.2791],
[-101.9119,20.022],
[-102.4183,19.9577],
[-102.5418,19.8291],
[-102.9122,19.8291],
[-102.8876,19.7005],
[-102.5546,19.5077],
[-102.5557,19.1219],
[-102.3595,18.8648],
[-102.4835,18.7362],
[-102.7792,18.7362],
[-102.8292,18.6076],
[-103.2108,18.6719],
[-103.5324,18.4148]
]
]
]}
}
