{
"type": "Feature",
"properties": {"id":"cliopatria-linjiang-207bce","edge_precision":"unknown","cliopatria_name":"Linjiang","cliopatria_from_year":-206,"cliopatria_to_year":-204,"cliopatria_area_km2":216393,"cliopatria_wikidata":"Q5349053","cliopatria_wikipedia":"Eighteen Kingdoms","cliopatria_member_of":"(Eighteen Kingdoms)"},
"geometry": {"type": "MultiPolygon", "coordinates": [
[
[
[108.6604,30.3079],
[109.0346,30.0508],
[109.0306,29.7937],
[109.2579,29.7937],
[109.3698,29.6652],
[109.3674,29.4081],
[109.5366,29.2152],
[109.4796,29.0224],
[109.5551,29.0224],
[110.576,29.1509],
[110.766,29.2795],
[114.0174,29.9865],
[114.4511,29.9223],
[114.5269,29.9223],
[115.1319,30.3722],
[115.6312,30.5007],
[115.605,31.0791],
[115.3464,31.2076],
[115.6378,31.5933],
[115.5616,31.5933],
[115.5991,32.1074],
[116.0239,32.6216],
[115.691,32.7502],
[115.4615,32.7502],
[115.4367,32.6859],
[115.2837,32.6859],
[114.0874,32.5574],
[113.983,32.6859],
[113.705,32.5574],
[113.6248,32.7502],
[112.9884,32.6859],
[111.8888,32.8145],
[111.7839,32.943],
[110.9613,33.2002],
[110.881,33.3931],
[110.623,33.5217],
[110.6449,33.7789],
[110.516,33.8432],
[110.4912,33.7789],
[110.4144,33.7789],
[110.3897,33.7146],
[110.3129,33.7146],
[110.2149,33.4574],
[109.8596,33.3288],
[109.7637,33.0716],
[109.8693,32.943],
[109.7285,32.5574],
[109.8814,32.5574],
[109.8119,32.3645],
[109.9417,32.3002],
[109.9577,31.9146],
[109.4209,31.4647],
[109.1706,31.4005],
[109.1056,31.2076],
[108.8558,31.1434],
[108.784,30.6935],
[108.8943,30.565],
[108.6604,30.3079]
]
]
]}
}
