{
"type": "Feature",
"properties": {"id":"cliopatria-new-france-1780","edge_precision":"unknown","cliopatria_name":"New France","cliopatria_from_year":1780,"cliopatria_to_year":1782,"cliopatria_area_km2":61563,"cliopatria_wikidata":"Q170604","cliopatria_wikipedia":"New France","cliopatria_seshat_id":"fr_bourbon_k_2","cliopatria_member_of":"(Kingdom of France)"},
"geometry": {"type": "MultiPolygon", "coordinates": [
[
[
[-91.1882,43.3421],
[-91.112,43.2118],
[-91.0273,43.3421],
[-91.1882,43.3421]
]
],
[
[
[-74.4448,18.6076],
[-74.4006,18.2862],
[-74.179,18.2862],
[-73.9225,18.0291],
[-73.701,18.0291],
[-73.6531,18.2219],
[-72.1018,18.2219],
[-71.781,18.0291],
[-71.7071,18.0291],
[-71.6671,18.2862],
[-71.9316,18.6076],
[-71.7185,18.6719],
[-71.6706,18.8648],
[-71.7445,18.8648],
[-71.7619,18.9934],
[-71.5662,19.1862],
[-71.7198,19.7648],
[-71.7938,19.7648],
[-72.3953,19.8291],
[-72.6356,19.9577],
[-73.2283,19.9577],
[-73.4323,19.8291],
[-73.405,19.6362],
[-72.7947,19.5077],
[-72.7147,18.9291],
[-72.3012,18.6076],
[-73.1708,18.4791],
[-73.4839,18.6076],
[-73.9274,18.6076],
[-74.093,18.7362],
[-74.4448,18.6076]
]
],
[
[
[-73.3152,18.9934],
[-73.2974,18.8648],
[-72.9013,18.6719],
[-72.6796,18.6719],
[-72.7886,18.9291],
[-73.3152,18.9934]
]
],
[
[
[-63.0821,18.1576],
[-62.9269,18.0933],
[-62.9495,18.2862],
[-63.0234,18.2862],
[-63.0821,18.1576]
]
],
[
[
[-61.7751,12.0503],
[-61.5511,11.986],
[-61.5684,12.2432],
[-61.715,12.2432],
[-61.7106,12.1789],
[-61.7751,12.0503]
]
],
[
[
[-61.7692,16.2933],
[-61.7363,15.9718],
[-61.5827,15.9076],
[-61.4614,16.1647],
[-61.1735,16.229],
[-61.18,16.2933],
[-61.3473,16.4861],
[-61.4946,16.4861],
[-61.4813,16.3576],
[-61.7692,16.2933]
]
],
[
[
[-61.4836,15.6504],
[-61.4649,15.4575],
[-61.3669,15.2004],
[-61.1463,15.2004],
[-61.2629,15.6504],
[-61.4836,15.6504]
]
],
[
[
[-61.2813,13.336],
[-61.1933,13.1432],
[-61.1884,13.0789],
[-61.0466,13.1432],
[-61.0662,13.4003],
[-61.2813,13.336]
]
],
[
[
[-61.1902,14.8789],
[-61.0881,14.5575],
[-61.0825,14.4932],
[-60.7831,14.4289],
[-60.8112,14.7504],
[-60.9697,14.8789],
[-61.1902,14.8789]
]
],
[
[
[-60.836,11.086],
[-60.6164,11.086],
[-60.5585,11.3431],
[-60.7049,11.3431],
[-60.836,11.086]
]
],
[
[
[-56.4931,47.0716],
[-56.4375,46.9401],
[-56.2731,46.9401],
[-56.3008,47.0058],
[-56.2186,47.0058],
[-56.2742,47.1374],
[-56.4931,47.0716]
]
],
[
[
[-54.2679,5.2358],
[-54.195,5.2358],
[-53.6088,5.0429],
[-53.534,4.9144],
[-53.3892,4.9787],
[-53.0958,4.8501],
[-52.2856,4.1429],
[-51.7738,3.9501],
[-51.7071,4.5286],
[-52.0747,4.7858],
[-52.1476,4.7858],
[-52.5885,5.0429],
[-52.8875,5.493],
[-53.9858,5.7501],
[-54.0587,5.7501],
[-54.0538,5.493],
[-54.2679,5.2358]
]
],
[
[
[-17.4542,14.6861],
[-17.1583,14.6218],
[-17.0947,14.9432],
[-17.1682,14.9432],
[-17.3867,14.8789],
[-17.4542,14.6861]
]
],
[
[
[-16.6028,15.6504],
[-16.3842,15.7147],
[-16.3863,15.779],
[-16.2392,15.779],
[-16.1699,15.9076],
[-16.25,16.1004],
[-16.4731,16.1647],
[-16.6028,15.6504]
]
],
[
[
[-3.6152,5.1072],
[-3.178,5.1072],
[-3.322,5.3644],
[-3.3949,5.3644],
[-3.6144,5.2358],
[-3.6152,5.1072]
]
],
[
[
[55.2077,-4.6002],
[55.4304,-4.7931],
[55.429,-4.7288],
[55.4263,-4.6002],
[55.2077,-4.6002]
]
]
]}
}
