{
"type": "Feature",
"properties": {"id":"cliopatria-principality-of-hungary-0922","edge_precision":"unknown","cliopatria_name":"Principality of Hungary","cliopatria_from_year":922,"cliopatria_to_year":925,"cliopatria_area_km2":280988,"cliopatria_wikidata":"Q2899771","cliopatria_wikipedia":"Principality of Hungary","cliopatria_seshat_id":"hu_hungary_principality"},
"geometry": {"type": "MultiPolygon", "coordinates": [
[
[
[13.4125,47.269],
[13.7406,47.2032],
[13.6549,47.0058],
[13.7371,47.0058],
[13.8096,46.4802],
[13.8915,46.4802],
[14.4621,46.3489],
[14.6259,46.3489],
[14.7109,46.4802],
[14.8715,46.3489],
[15.5283,46.4145],
[15.6045,46.2177],
[15.8499,46.2177],
[16.1016,46.4145],
[16.2654,46.4145],
[16.2698,46.5459],
[16.5158,46.5459],
[16.675,46.4145],
[16.6702,46.2833],
[16.8315,46.2177],
[16.7449,46.0865],
[16.9827,45.8898],
[17.3067,45.8243],
[17.3805,45.6278],
[17.5408,45.5623],
[18.2682,45.4313],
[18.2622,45.3004],
[18.4219,45.235],
[18.4189,45.1696],
[18.7378,45.0388],
[18.8906,44.8426],
[19.1406,44.9734],
[19.2962,44.8426],
[19.6242,44.908],
[19.857,44.7119],
[20.0191,44.7119],
[20.2922,45.235],
[21.0321,45.3659],
[21.4264,45.1696],
[21.4013,44.7773],
[21.8791,44.6466],
[21.9514,44.516],
[22.6895,44.6466],
[22.5182,44.516],
[22.5044,44.3201],
[22.8946,44.1243],
[22.9518,43.7982],
[23.3598,43.8634],
[23.3744,44.0591],
[23.4552,44.0591],
[23.3377,44.6466],
[23.2567,44.6466],
[22.8657,44.8426],
[22.8895,45.1696],
[23.4685,45.3004],
[23.6771,45.8898],
[23.5139,45.8898],
[23.5342,46.1521],
[23.3858,46.3489],
[23.4779,46.4802],
[23.3191,46.5459],
[23.3344,46.7429],
[23.2523,46.7429],
[23.3653,47.1374],
[23.1956,47.0716],
[23.2059,47.2032],
[23.1236,47.2032],
[23.2265,47.4665],
[23.0616,47.4665],
[23.0719,47.5982],
[22.9894,47.5982],
[23.0822,47.73],
[22.9222,47.7959],
[22.9376,47.9938],
[23.0256,48.0597],
[22.7928,48.2578],
[22.6632,48.7204],
[22.6685,48.7865],
[22.5126,48.9189],
[22.4503,49.1838],
[22.2001,49.1838],
[21.7198,49.4489],
[20.2998,49.4489],
[19.6114,49.1175],
[19.2896,49.3163],
[18.4586,49.3826],
[18.4516,49.25],
[18.2814,49.1838],
[18.0345,49.25],
[17.8549,48.9851],
[17.5158,48.8527],
[17.0166,48.8527],
[16.928,48.7204],
[16.6839,48.8527],
[16.0991,48.7865],
[15.6067,48.9851],
[15.3548,48.9189],
[15.2716,48.9189],
[15.0162,48.7204],
[14.9241,48.3899],
[14.7548,48.2578],
[14.4233,48.2578],
[14.4171,47.9938],
[14.5809,47.9278],
[14.4936,47.73],
[13.669,47.7959],
[13.6642,47.5323],
[13.4157,47.4665],
[13.4125,47.269]
]
],
[
[
[18.3751,49.3826],
[18.4586,49.3826],
[18.4621,49.4489],
[18.3786,49.4489],
[18.3751,49.3826]
]
],
[
[
[23.0719,47.5982],
[23.1544,47.5982],
[23.1596,47.6641],
[23.077,47.6641],
[23.0719,47.5982]
]
],
[
[
[23.4677,46.3489],
[23.5496,46.3489],
[23.5547,46.4145],
[23.4728,46.4145],
[23.4677,46.3489]
]
]
]}
}
