{
"type": "Feature",
"properties": {"id":"cliopatria-pala-empire-1000","edge_precision":"unknown","cliopatria_name":"Pala Empire","cliopatria_from_year":1000,"cliopatria_to_year":1055,"cliopatria_area_km2":249009,"cliopatria_wikidata":"Q668412","cliopatria_wikipedia":"Pala Empire","cliopatria_seshat_id":"in_pala_emp"},
"geometry": {"type": "MultiPolygon", "coordinates": [
[
[
[83.2915,25.2293],
[83.3315,24.5303],
[84.3081,24.072],
[84.8861,23.9435],
[85.8643,23.4934],
[86.06,23.3006],
[87.6346,23.3649],
[89.3297,23.2363],
[90.1887,23.4934],
[90.6162,23.3649],
[90.7306,23.622],
[91.273,23.7506],
[91.6788,24.1141],
[92.1462,24.0743],
[92.338,24.3292],
[92.4379,24.9078],
[92.472,25.0992],
[92.279,25.171],
[91.4518,25.1373],
[90.4896,25.6099],
[89.8948,25.6272],
[89.8872,25.5056],
[88.3037,25.6576],
[87.5388,26.0486],
[87.8413,26.6437],
[87.8143,26.6437],
[85.4346,27.158],
[85.0337,27.4152],
[84.808,27.4152],
[84.3091,26.7723],
[84.2385,26.3865],
[84.1635,26.3865],
[84.1926,26.1294],
[84.0314,26.0651],
[83.9868,25.8079],
[83.3978,25.4221],
[83.2915,25.2293]
]
]
]}
}
