{
"type": "Feature",
"properties": {"id":"cliopatria-qara-qoyunlu-1395","edge_precision":"unknown","cliopatria_name":"Qara Qoyunlu","cliopatria_from_year":1395,"cliopatria_to_year":1401,"cliopatria_area_km2":151718,"cliopatria_wikidata":"Q324470","cliopatria_wikipedia":"Qara Qoyunlu","cliopatria_seshat_id":"tr_qara_qoyunlu"},
"geometry": {"type": "MultiPolygon", "coordinates": [
[
[
[38.8488,38.6097],
[39.3106,38.5451],
[39.363,38.3515],
[39.4413,38.3515],
[39.4327,38.2869],
[39.511,38.2869],
[39.5024,38.2224],
[39.7113,38.0288],
[39.9459,38.0288],
[40.1545,37.8352],
[40.4584,37.7707],
[41.1517,37.126],
[41.1431,37.0615],
[41.4636,36.546],
[41.6104,36.4816],
[41.5935,36.3528],
[41.8093,36.224],
[41.7924,36.0952],
[42.0081,35.9664],
[41.9913,35.8377],
[42.1294,35.7089],
[42.3701,35.7733],
[42.4306,35.6445],
[42.6544,35.5802],
[43.5143,35.6445],
[43.4968,35.5158],
[43.7202,35.4514],
[43.919,35.7733],
[44.9441,35.902],
[44.5934,36.1596],
[44.6119,36.2884],
[44.3384,36.546],
[44.3758,36.8037],
[44.8713,36.9971],
[44.7446,37.1904],
[44.7738,37.3838],
[44.6276,37.4483],
[44.5889,37.7062],
[44.306,37.8998],
[44.3459,38.1578],
[44.1311,38.2869],
[44.1513,38.416],
[43.7315,38.7389],
[43.5745,38.7389],
[43.4889,39.1911],
[43.688,39.4496],
[43.058,39.4496],
[43.168,39.6436],
[43.0996,39.7083],
[43.1101,39.7729],
[42.8156,39.9023],
[42.4895,39.8376],
[42.2734,39.967],
[41.8685,39.9023],
[41.4252,40.0964],
[41.3871,40.3554],
[41.1497,40.3554],
[40.7341,40.2259],
[40.1115,40.2906],
[40.0324,40.2906],
[39.6776,40.0317],
[39.7375,39.9023],
[40.0436,39.8376],
[41.0594,39.7729],
[41.03,39.5789],
[40.7648,39.385],
[40.7457,39.2557],
[38.8747,38.8034],
[38.8488,38.6097]
]
]
]}
}
