{
"type": "Feature",
"properties": {"id":"cliopatria-kingdom-of-jerusalem-1169","edge_precision":"unknown","cliopatria_name":"Kingdom of Jerusalem","cliopatria_from_year":1169,"cliopatria_to_year":1187,"cliopatria_area_km2":19008,"cliopatria_wikidata":"Q55502","cliopatria_wikipedia":"Kingdom of Jerusalem","cliopatria_seshat_id":"il_jerusalem_k_1"},
"geometry": {"type": "MultiPolygon", "coordinates": [
[
[
[34.5466,31.529],
[35.4391,31.2719],
[35.5207,31.3362],
[35.4664,31.5933],
[35.6356,31.7861],
[35.5989,32.236],
[35.6047,32.3002],
[35.5283,32.3002],
[35.6395,32.6859],
[35.9515,32.7502],
[36.04,32.8788],
[36.0704,33.2002],
[35.7698,33.2645],
[35.8251,33.8432],
[35.7482,33.8432],
[35.447,33.9075],
[35.4993,33.6502],
[35.3458,33.6502],
[35.3984,33.3931],
[35.2154,33.0716],
[35.0563,33.0073],
[35.0218,32.6216],
[34.7698,32.3645],
[34.813,31.9789],
[34.5733,31.8503],
[34.6388,31.7218],
[34.5519,31.5933],
[34.5466,31.529]
]
]
]}
}
