{
"type": "Feature",
"properties": {"id":"cliopatria-kingdom-of-france-1572","edge_precision":"unknown","cliopatria_name":"Kingdom of France","cliopatria_from_year":1572,"cliopatria_to_year":1578,"cliopatria_area_km2":392567,"cliopatria_wikidata":"Q207162","cliopatria_wikipedia":"Kingdom of France","cliopatria_seshat_id":"fr_valois_k_2","cliopatria_member_of":"(Kingdom of France)"},
"geometry": {"type": "MultiPolygon", "coordinates": [
[
[
[-4.9117,48.522],
[-4.8913,48.3238],
[-4.6426,48.3238],
[-4.5464,48.1917],
[-4.7054,48.1257],
[-4.6921,47.9938],
[-4.4244,47.7959],
[-3.9349,47.8619],
[-3.7572,47.73],
[-3.3443,47.73],
[-3.1555,47.4665],
[-2.8373,47.5982],
[-2.8258,47.4665],
[-2.5784,47.4665],
[-2.5616,47.269],
[-2.2322,47.269],
[-2.1391,47.1374],
[-2.1944,46.8086],
[-2.0249,46.7429],
[-2.0144,46.6115],
[-1.666,46.3489],
[-1.2518,46.2833],
[-1.2227,45.8898],
[-1.1411,45.8898],
[-1.2131,45.7588],
[-1.0453,45.6933],
[-1.0312,45.4968],
[-1.1894,45.4313],
[-1.1706,45.1696],
[-1.2519,45.1696],
[-1.2054,44.516],
[-1.2863,44.516],
[-1.268,44.2548],
[-1.3488,44.2548],
[-1.3214,43.8634],
[-1.402,43.8634],
[-1.4599,43.5375],
[-1.6922,43.4072],
[-1.683,43.2769],
[-1.1203,43.2769],
[-1.0486,43.4072],
[-0.6548,43.5375],
[-0.2482,43.4723],
[-0.0713,43.2118],
[0.0894,43.2118],
[0.0815,43.3421],
[0.3228,43.3421],
[0.2462,43.2769],
[0.3494,42.8864],
[0.1966,42.7563],
[0.5208,42.6912],
[0.6738,42.8213],
[0.9945,42.8213],
[0.9839,43.0165],
[0.8125,43.2118],
[0.9661,43.3421],
[0.6407,43.4072],
[0.8674,43.6678],
[1.2773,43.5375],
[1.305,43.0165],
[1.3886,42.9515],
[1.8732,42.8864],
[1.7258,42.6262],
[1.729,42.5612],
[1.8091,42.5612],
[2.5178,42.8213],
[2.7497,43.0165],
[2.9905,43.0165],
[2.9877,43.0816],
[3.14,43.2769],
[3.6171,43.4072],
[3.8509,43.6027],
[4.173,43.6027],
[4.1778,43.4723],
[4.578,43.5375],
[5.3869,43.4072],
[5.3908,43.2769],
[5.6319,43.2769],
[5.7962,43.1467],
[6.5176,43.2118],
[6.5936,43.4072],
[6.8321,43.5375],
[6.9126,43.5375],
[6.8293,43.6678],
[6.6681,43.6678],
[6.6607,43.9938],
[6.8986,44.1896],
[6.8957,44.3201],
[7.2219,44.1896],
[7.4606,44.3854],
[7.4557,44.6466],
[6.7203,44.908],
[6.6343,45.1042],
[6.3093,45.1042],
[6.1341,45.5623],
[5.6493,45.4313],
[5.478,45.6933],
[4.5811,45.6933],
[4.5933,45.3659],
[4.8398,45.3004],
[4.8468,45.1042],
[4.5242,45.0388],
[4.3567,45.1696],
[4.1232,44.908],
[3.9609,44.908],
[3.9662,44.7773],
[3.5607,44.7773],
[3.474,44.908],
[3.2305,44.908],
[3.1582,44.7119],
[2.918,44.6466],
[2.7467,44.8426],
[2.5844,44.8426],
[2.516,44.5813],
[2.2762,44.516],
[2.101,44.7773],
[1.4487,44.8426],
[1.3784,44.6466],
[1.0654,44.4507],
[0.0942,44.4507],
[-0.1612,44.6466],
[-0.1781,44.908],
[0.2236,44.9734],
[0.5324,45.235],
[0.5243,45.3659],
[0.8381,45.5623],
[0.8959,45.9554],
[1.2149,46.0865],
[1.2072,46.2177],
[0.9538,46.3489],
[0.9417,46.5459],
[1.5155,46.5459],
[2.3455,46.3489],
[2.4033,46.8086],
[2.9781,46.8086],
[3.0697,46.6115],
[3.7286,46.5459],
[3.9857,46.2833],
[4.2285,46.3489],
[4.4026,46.0865],
[4.8978,45.9554],
[4.9677,46.2833],
[5.3747,46.3489],
[5.4322,47.0716],
[5.5945,47.1374],
[5.5769,47.6641],
[5.8224,47.73],
[5.8181,47.8619],
[5.6462,48.0597],
[5.4807,48.0597],
[5.3815,48.522],
[5.6283,48.5881],
[5.7158,48.4559],
[5.8817,48.4559],
[5.7878,48.7865],
[5.8688,48.8527],
[5.6192,48.8527],
[5.6215,48.7865],
[5.5383,48.7865],
[5.3791,48.5881],
[5.2961,48.5881],
[5.2865,48.8527],
[5.1275,48.6542],
[4.8783,48.6542],
[4.8653,48.9851],
[5.0293,49.0513],
[4.9408,49.1838],
[4.6798,49.4489],
[4.6689,49.7143],
[4.4902,49.98],
[2.5544,50.113],
[2.3789,50.246],
[2.1269,50.246],
[1.8667,50.3791],
[1.8544,50.5789],
[2.0187,50.6455],
[2.0106,50.7788],
[1.7576,50.7788],
[1.5804,50.9122],
[1.496,50.9122],
[1.455,50.246],
[1.0528,49.98],
[0.2241,49.8471],
[-0.0124,49.6479],
[0.007,49.3826],
[-1.2508,49.4489],
[-1.3618,49.7807],
[-2.0316,49.7807],
[-1.9133,49.3826],
[-1.6517,49.25],
[-1.635,49.0513],
[-1.7183,49.0513],
[-1.6022,48.6542],
[-2.5219,48.7204],
[-2.7594,48.5881],
[-3.1222,48.9189],
[-3.4551,48.9189],
[-3.8518,48.7204],
[-4.5999,48.7204],
[-4.9117,48.522]
]
],
[
[
[5.3529,49.3163],
[5.3649,48.9851],
[5.6979,48.9851],
[5.6078,49.1838],
[5.8536,49.3163],
[5.8514,49.3826],
[5.6844,49.3826],
[5.6867,49.3163],
[5.3529,49.3163]
]
],
[
[
[5.8645,48.9851],
[6.0331,48.9189],
[6.4512,48.8527],
[6.3718,48.7204],
[6.8723,48.6542],
[6.8757,48.522],
[7.0417,48.522],
[7.2062,48.5881],
[7.2015,48.7865],
[7.0335,48.8527],
[6.9503,48.8527],
[6.952,48.7865],
[6.8688,48.7865],
[6.6175,48.8527],
[6.6139,48.9851],
[7.0319,48.9189],
[7.0286,49.0513],
[6.8619,49.0513],
[6.8602,49.1175],
[6.7769,49.1175],
[6.7751,49.1838],
[6.6917,49.1838],
[6.3602,49.1175],
[6.3563,49.25],
[6.1894,49.25],
[6.1915,49.1838],
[5.9413,49.1838],
[5.8645,48.9851]
]
],
[
[
[5.8688,48.8527],
[6.0373,48.7865],
[6.0331,48.9189],
[5.9499,48.9189],
[5.8688,48.8527]
]
],
[
[
[6.4663,48.3238],
[6.7185,48.1917],
[6.7944,48.4559],
[6.7114,48.4559],
[6.5436,48.522],
[6.4663,48.3238]
]
]
]}
}
