{
"type": "Feature",
"properties": {"id":"cliopatria-babylonia-1501bce","edge_precision":"unknown","cliopatria_name":"Babylonia","cliopatria_from_year":-1500,"cliopatria_to_year":-1401,"cliopatria_area_km2":119373,"cliopatria_wikidata":"Q47690","cliopatria_wikipedia":"Babylonia","cliopatria_seshat_id":"iq_babylonia_2"},
"geometry": {"type": "MultiPolygon", "coordinates": [
[
[
[43.4202,32.4931],
[44.459,31.5933],
[44.444,31.4647],
[44.5814,31.3362],
[44.9546,31.2719],
[45.7705,30.4364],
[46.5147,30.3079],
[46.5906,30.3079],
[46.6205,30.565],
[47.799,30.8863],
[48.0951,30.822],
[48.1031,30.8863],
[49.0669,30.6935],
[49.1429,30.6935],
[48.7442,31.1434],
[48.592,31.1434],
[48.2528,31.4647],
[48.1516,32.4288],
[47.931,32.4931],
[47.966,32.7502],
[47.6185,33.0073],
[47.6362,33.1359],
[47.4829,33.1359],
[47.3474,33.2645],
[46.7515,33.3931],
[46.6923,33.5217],
[46.7868,33.6502],
[46.2845,33.9075],
[46.3792,34.0361],
[45.9266,34.1004],
[45.8321,33.9718],
[45.909,33.9718],
[45.8827,33.7789],
[44.3049,33.4574],
[44.2038,33.2645],
[43.9738,33.2645],
[43.8811,33.1359],
[44.103,33.0716],
[44.1397,32.7502],
[43.918,32.8145],
[43.8258,32.6859],
[43.4356,32.6216],
[43.4202,32.4931]
]
]
]}
}
