{
"type": "Feature",
"properties": {"id":"cliopatria-sokoto-caliphate-1895","edge_precision":"unknown","cliopatria_name":"Sokoto Caliphate","cliopatria_from_year":1895,"cliopatria_to_year":1899,"cliopatria_area_km2":794624,"cliopatria_wikidata":"Q600524","cliopatria_wikipedia":"Sokoto Caliphate"},
"geometry": {"type": "MultiPolygon", "coordinates": [
[
[
[-0.2558,14.0432],
[-0.1085,13.9789],
[-0.1077,13.8503],
[0.1135,13.6575],
[0.0402,13.6575],
[0.0406,13.5932],
[0.114,13.5932],
[0.1144,13.5289],
[0.1877,13.5289],
[0.1874,13.593],
[0.5558,13.2718],
[0.8495,13.2075],
[0.85,13.0789],
[1.07,13.0789],
[1.0705,12.9503],
[1.2902,13.0146],
[1.5108,12.8217],
[2.7575,12.436],
[2.7575,12.3717],
[3.124,12.1789],
[3.2704,11.9217],
[3.6365,11.7931],
[3.7098,11.7931],
[3.8563,11.8574],
[4.1488,11.6003],
[4.2953,11.6003],
[4.295,11.4717],
[4.5142,11.2788],
[4.5863,10.8931],
[4.7327,10.8931],
[4.7318,10.636],
[4.5848,10.4431],
[4.5823,9.8002],
[4.7263,9.3502],
[4.5805,9.4145],
[4.286,8.9645],
[4.1399,8.9645],
[3.9928,8.7716],
[4.3528,7.9359],
[5.0098,7.9359],
[4.9381,8.1288],
[5.158,8.2573],
[5.1593,8.4502],
[5.5992,8.7073],
[6.4021,8.6431],
[6.4727,8.3216],
[6.6913,8.2573],
[6.6167,8.0645],
[6.7632,8.1288],
[6.7616,7.9359],
[7.564,7.8716],
[8.5098,7.5502],
[8.8017,7.5502],
[9.2422,7.8073],
[9.6065,7.743],
[9.7538,7.8716],
[10.6304,7.9359],
[11.2895,8.1288],
[11.3596,7.8716],
[11.6508,7.8073],
[11.6485,7.6145],
[11.793,7.4859],
[11.7137,6.9716],
[11.4933,6.843],
[11.4909,6.6501],
[11.9252,6.393],
[12.8012,6.4573],
[12.9505,6.7144],
[13.983,7.5502],
[13.9847,7.6787],
[14.4296,8.193],
[14.7216,8.193],
[15.3831,8.5145],
[15.4597,8.7716],
[15.6058,8.7716],
[15.5363,9.0288],
[15.7573,9.1574],
[15.8348,9.4788],
[16.0567,9.6717],
[16.2751,9.6074],
[16.498,9.8645],
[16.5026,10.186],
[15.915,9.9931],
[14.9645,9.9931],
[14.2374,10.3145],
[13.8068,11.0217],
[13.9561,11.2788],
[13.8829,11.2788],
[13.8895,11.8574],
[13.8163,11.8574],
[13.8241,12.5646],
[13.5364,13.0789],
[12.9535,13.4646],
[12.8068,13.4646],
[12.5103,13.1432],
[12.0703,13.1432],
[11.7786,13.336],
[10.7526,13.4646],
[10.091,13.2718],
[9.6482,12.8217],
[9.355,12.8217],
[8.9154,12.886],
[8.8428,13.0146],
[8.4768,13.1432],
[8.2565,13.0789],
[8.1104,13.2075],
[7.8903,13.2075],
[7.8175,13.336],
[7.5972,13.2718],
[6.6441,13.4646],
[6.4978,13.6575],
[6.4244,13.6575],
[6.0576,13.7218],
[5.5441,14.0432],
[5.4705,14.9432],
[5.3232,15.2004],
[5.0292,15.1361],
[4.809,14.8789],
[4.5153,14.7504],
[4.2948,14.7504],
[3.8549,14.3646],
[3.6345,14.3646],
[2.8279,13.9789],
[1.4331,13.9789],
[0.9912,14.2361],
[0.329,14.4289],
[-0.1842,14.3004],
[-0.2558,14.0432]
],
[
[0.114,13.5932],
[0.1136,13.6573],
[0.1872,13.5932],
[0.114,13.5932]
]
]
]}
}
