{
"type": "Feature",
"properties": {"id":"cliopatria-ghurid-dynasty-1202","edge_precision":"unknown","cliopatria_name":"Ghurid Dynasty","cliopatria_from_year":1202,"cliopatria_to_year":1205,"cliopatria_area_km2":2142716,"cliopatria_wikidata":"Q199443","cliopatria_wikipedia":"Ghurid dynasty","cliopatria_seshat_id":"af_ghur_principality"},
"geometry": {"type": "MultiPolygon", "coordinates": [
[
[
[57.3613,26.258],
[57.4897,26.0651],
[57.4545,25.7436],
[57.5294,25.7436],
[57.958,25.5507],
[58.7817,25.5507],
[59.0602,25.3579],
[60.6321,25.3579],
[60.6178,25.2293],
[60.9171,25.2293],
[61.1274,25.1007],
[61.6582,25.165],
[61.7187,25.0364],
[62.0179,25.0364],
[62.182,25.165],
[62.4739,25.1007],
[62.5634,25.2293],
[63.5362,25.2293],
[63.6262,25.3579],
[64.225,25.3579],
[64.2845,25.2293],
[64.8006,25.165],
[64.8161,25.2936],
[66.0215,25.3579],
[66.3451,25.5507],
[66.6791,25.2293],
[66.632,24.8435],
[67.2147,24.7149],
[67.2514,24.3935],
[67.3261,24.3935],
[67.2891,24.072],
[67.4384,24.072],
[67.4911,23.8792],
[68.1554,23.8149],
[68.1446,23.7196],
[69.0806,24.072],
[69.0881,24.1363],
[69.1852,24.1363],
[69.6933,24.6272],
[70.1196,25.3378],
[70.2618,26.3042],
[70.4039,26.5885],
[70.6313,26.6169],
[71.484,26.1053],
[71.9672,26.2758],
[72.7347,26.1337],
[73.1326,25.821],
[73.4806,25.1494],
[73.8452,25.4446],
[74.1616,26.1545],
[75.1083,26.4233],
[76.4686,25.9055],
[77.9078,26.8354],
[78.2611,26.7747],
[78.2865,26.6463],
[78.7404,26.319],
[78.7244,26.1126],
[78.8425,25.9833],
[78.7091,25.6647],
[78.8404,25.3332],
[78.9802,25.2569],
[79.0433,25.3201],
[79.5324,25.6313],
[79.5546,25.9425],
[80.0436,26.1425],
[80.7549,25.7646],
[81.0439,25.7202],
[81.3996,25.3645],
[82.4666,24.831],
[83.0223,24.7866],
[83.578,24.3864],
[82.9334,24.2975],
[82.6978,24.0077],
[84.2145,23.9435],
[85.7152,23.4934],
[86.455,23.58],
[86.686,23.947],
[86.926,24.799],
[87.7909,26.1294],
[85.6407,26.258],
[84.487,26.5151],
[84.2972,26.708],
[83.9336,26.7723],
[83.8073,26.9009],
[83.3684,26.9652],
[82.187,27.4795],
[79.4854,28.3153],
[78.9321,28.5724],
[78.882,28.701],
[78.5927,28.7652],
[78.5427,28.8938],
[78.1151,29.0224],
[77.6144,29.5366],
[77.463,29.5366],
[77.3381,29.6652],
[77.3647,29.7937],
[77.2266,29.858],
[77.6151,30.9506],
[77.9016,31.2076],
[78.2208,31.2719],
[78.4329,31.529],
[78.448,31.5933],
[78.0361,31.7861],
[77.3037,31.9146],
[77.0439,32.1074],
[76.5246,32.1717],
[76.4022,32.3002],
[75.3326,32.3002],
[75.2098,32.4288],
[74.7661,32.4931],
[74.6734,32.7502],
[74.3824,32.8145],
[74.0754,33.1359],
[74.1679,33.5217],
[74.03,33.5859],
[74.0927,33.8432],
[74.2781,33.9718],
[73.9253,34.1004],
[73.9732,34.2933],
[73.8353,34.3577],
[73.916,34.6793],
[73.7172,34.8079],
[73.6401,34.8079],
[73.5184,34.9366],
[72.6569,35.194],
[71.4849,35.4514],
[71.4398,35.5802],
[71.1303,35.5802],
[71.1327,35.5898],
[70.1836,35.4356],
[69.4543,36.4497],
[69.91,36.5654],
[70.385,37.1904],
[70.3794,37.1904],
[70.4308,37.3838],
[70.2485,37.5773],
[69.546,37.5773],
[69.3498,37.126],
[69.1161,37.126],
[69.0103,37.3193],
[68.6039,37.2549],
[68.4929,37.126],
[68.1916,36.546],
[67.8031,36.546],
[66.623,36.1596],
[64.3105,36.224],
[63.9278,35.902],
[63.1601,35.5802],
[62.9638,35.3871],
[62.459,35.194],
[62.15,35.194],
[61.7104,34.9366],
[61.0441,33.5217],
[60.6884,33.2645],
[60.6164,32.8788],
[60.693,32.8788],
[60.7222,32.6216],
[60.4462,32.3645],
[60.4003,32.1074],
[59.7455,30.9506],
[59.6828,30.565],
[59.5105,30.4364],
[59.2787,29.9223],
[58.913,28.4438],
[58.6604,28.251],
[58.208,28.251],
[58.0819,27.8652],
[58.2325,27.8652],
[58.2747,27.6081],
[58.0327,27.4795],
[58.0166,27.3509],
[57.692,27.158],
[57.5108,26.9009],
[57.3613,26.258]
],
[
[69.7453,28.251],
[69.756,28.3153],
[69.9069,28.3153],
[69.8961,28.251],
[69.7453,28.251]
]
]
]}
}
