{
"type": "Feature",
"properties": {"id":"cliopatria-bornu-empire-1579","edge_precision":"unknown","cliopatria_name":"Bornu Empire","cliopatria_from_year":1579,"cliopatria_to_year":1635,"cliopatria_area_km2":339371,"cliopatria_wikidata":"Q1139762","cliopatria_wikipedia":"Kanem-Bornu Empire","cliopatria_seshat_id":"ni_bornu_emp"},
"geometry": {"type": "MultiPolygon", "coordinates": [
[
[
[10.6783,13.336],
[10.8964,13.0789],
[10.9668,12.6932],
[11.2558,12.1789],
[11.6192,11.8574],
[11.9061,11.2146],
[12.0519,11.1503],
[12.05,10.9574],
[12.2701,11.0217],
[12.9253,10.7003],
[13.0687,10.4431],
[13.2882,10.4431],
[13.3591,10.2502],
[13.283,9.9931],
[13.4955,9.4145],
[14.2246,9.2859],
[16.1974,9.2859],
[16.4916,9.4145],
[17.1578,9.9931],
[17.4579,10.5074],
[17.6764,10.4431],
[17.6052,10.5717],
[17.8276,10.7645],
[17.8315,11.0217],
[17.5474,11.6003],
[17.3287,11.6646],
[17.0395,11.9217],
[17.0414,12.0503],
[16.6064,12.3717],
[16.5403,12.886],
[16.3221,13.0146],
[16.3238,13.1432],
[15.2366,14.1718],
[15.0897,14.1718],
[14.2172,14.9432],
[14.1437,14.9432],
[13.9995,15.2004],
[13.8518,15.1361],
[12.9732,15.5218],
[12.0174,15.5861],
[11.427,15.329],
[10.9814,14.6861],
[10.6783,13.336]
]
]
]}
}
