{
"type": "Feature",
"properties": {"id":"cliopatria-county-of-flanders-1375","edge_precision":"unknown","cliopatria_name":"County of Flanders","cliopatria_from_year":1375,"cliopatria_to_year":1384,"cliopatria_area_km2":25072,"cliopatria_wikidata":"Q157070","cliopatria_wikipedia":"County of Flanders","cliopatria_seshat_id":"fr_valois_k_1","cliopatria_member_of":"(Kingdom of France)"},
"geometry": {"type": "MultiPolygon", "coordinates": [
[
[
[2.0745,51.1124],
[2.0908,50.8455],
[2.2635,50.7788],
[2.2714,50.6455],
[2.7768,50.6455],
[3.2119,50.3791],
[3.296,50.3791],
[3.2926,50.4457],
[3.3767,50.4457],
[3.3733,50.5122],
[3.5416,50.5122],
[3.7002,50.7121],
[4.0342,50.7788],
[4.1062,51.0457],
[4.2691,51.1792],
[4.2631,51.3128],
[4.0875,51.4465],
[3.1555,51.4465],
[2.5778,51.1792],
[2.0745,51.1124]
]
],
[
[
[2.3682,47.4665],
[2.7048,47.3348],
[2.896,46.8086],
[3.0697,46.6115],
[3.7286,46.5459],
[3.7257,46.6115],
[3.8077,46.6115],
[3.8049,46.6772],
[3.9633,46.8086],
[3.8668,47.1374],
[3.9491,47.1374],
[3.9404,47.3348],
[3.6079,47.4006],
[3.6018,47.5323],
[3.7668,47.5323],
[3.7548,47.7959],
[3.2494,47.9938],
[2.7634,47.7959],
[2.4293,47.8619],
[2.3682,47.4665]
]
],
[
[
[4.1697,49.6479],
[4.1757,49.5152],
[4.6743,49.5816],
[4.5768,49.9136],
[4.493,49.9136],
[4.3283,49.8471],
[4.2534,49.6479],
[4.1697,49.6479]
]
]
]}
}
