{
"type": "Feature",
"properties": {"id":"cliopatria-khwarezmid-empire-1206","edge_precision":"unknown","cliopatria_name":"Khwarezmid Empire","cliopatria_from_year":1206,"cliopatria_to_year":1209,"cliopatria_area_km2":2112958,"cliopatria_wikidata":"Q63134381","cliopatria_wikipedia":"Khwarazmian Empire","cliopatria_seshat_id":"tm_khwarezmid_emp"},
"geometry": {"type": "MultiPolygon", "coordinates": [
[
[
[45.439,33.9075],
[45.5928,33.9075],
[46.1378,33.3931],
[46.1631,33.0073],
[46.6821,32.8788],
[46.9456,32.5574],
[47.4637,32.4288],
[47.5824,32.1717],
[47.7267,32.1074],
[47.7098,31.9789],
[47.9218,31.8503],
[47.9729,31.6575],
[47.7957,31.4647],
[47.739,31.0148],
[48.1031,30.8863],
[48.0478,30.4364],
[48.2755,30.4364],
[48.4117,30.3079],
[48.3884,30.1151],
[48.6005,29.9865],
[48.6763,29.9865],
[48.9873,30.0508],
[48.9428,30.3079],
[49.5859,29.9865],
[50.0648,30.1794],
[50.2363,29.7294],
[50.6513,29.4081],
[50.6203,29.1509],
[50.915,29.0867],
[50.809,28.8295],
[51.0281,28.7652],
[51.0662,28.4438],
[51.3313,28.1224],
[51.3168,27.9938],
[51.5967,27.8009],
[52.0486,27.8009],
[52.4787,27.6081],
[52.737,27.2223],
[53.4606,26.9652],
[53.6581,26.708],
[54.2589,26.708],
[54.4632,26.5151],
[54.8316,26.4508],
[55.2423,26.7723],
[55.5427,26.7723],
[55.3102,26.708],
[55.2889,26.5151],
[55.439,26.5151],
[55.6034,26.6437],
[56.0612,26.708],
[56.3086,26.9009],
[56.3236,27.0295],
[56.0981,27.0295],
[56.1884,27.158],
[56.7147,27.158],
[57.0524,26.8366],
[57.1148,26.0651],
[57.3795,25.7436],
[57.4545,25.7436],
[57.4897,26.0651],
[57.3613,26.258],
[57.5108,26.9009],
[57.692,27.158],
[58.0166,27.3509],
[58.0327,27.4795],
[58.2747,27.6081],
[58.2325,27.8652],
[58.0819,27.8652],
[58.1155,28.1224],
[58.208,28.251],
[58.6604,28.251],
[58.913,28.4438],
[58.9667,28.8295],
[59.4476,29.0224],
[59.8824,29.4081],
[60.0337,29.4081],
[60.5525,30.3079],
[60.9845,30.6292],
[61.6138,30.7578],
[61.9396,30.4364],
[62.1674,30.4364],
[62.6557,30.1794],
[63.0349,30.1794],
[63.156,30.8863],
[63.08,30.8863],
[63.2359,31.3362],
[63.1598,31.3362],
[63.2063,31.5933],
[63.1301,31.5933],
[63.185,32.3002],
[63.5398,32.5574],
[63.9345,33.3931],
[64.2939,33.6502],
[65.3823,33.7146],
[66.0795,34.1004],
[66.3872,34.1004],
[66.6668,33.9718],
[66.7158,33.8432],
[67.1,33.8432],
[67.3025,33.7146],
[67.5469,33.7789],
[67.826,33.6502],
[68.2099,33.6502],
[68.5744,33.9075],
[68.6325,34.1647],
[69.0614,34.3577],
[68.8898,34.615],
[69.0422,34.9366],
[69.5667,35.194],
[69.8757,35.194],
[69.9841,35.3227],
[69.9397,35.7733],
[69.9697,35.7733],
[69.6435,36.2883],
[69.4543,36.4497],
[69.7182,36.4815],
[69.91,36.5654],
[70.385,37.1904],
[70.3794,37.1904],
[70.4308,37.3838],
[70.2485,37.5773],
[69.546,37.5773],
[69.3498,37.126],
[69.1161,37.126],
[69.0103,37.3193],
[68.7764,37.3193],
[68.1487,36.9971],
[67.9152,36.9971],
[67.7465,37.2549],
[67.123,37.2549],
[66.9995,37.3838],
[66.5155,37.3193],
[65.6274,37.5128],
[65.2388,37.8352],
[64.6615,38.0288],
[64.3669,38.416],
[64.0075,38.5451],
[63.8374,38.8034],
[63.4155,38.9972],
[63.2457,39.2557],
[63.0883,39.2557],
[62.6538,39.7083],
[62.6876,39.8376],
[62.3161,40.2259],
[62.4027,40.5496],
[62.2969,40.744],
[62.4116,40.8736],
[62.4397,41.2625],
[62.1327,41.5869],
[62.065,41.9114],
[61.7827,42.0413],
[61.5556,42.3662],
[61.3957,42.3662],
[61.1683,42.6912],
[61.0081,42.6912],
[60.3919,43.3421],
[60.3677,43.5375],
[60.2872,43.5375],
[59.1235,43.4072],
[58.6329,43.6678],
[58.4175,43.4723],
[58.3371,43.4723],
[58.0515,43.0165],
[57.957,42.3662],
[57.5644,41.7816],
[57.4649,41.3922],
[56.8274,40.744],
[54.3851,40.8088],
[54.3701,40.744],
[53.4044,40.6792],
[53.4482,40.8736],
[53.3397,40.744],
[52.9433,40.744],
[52.9723,40.8736],
[52.893,40.8736],
[52.6994,40.3554],
[52.7785,40.3554],
[52.7877,40.0317],
[53.4985,40.0317],
[53.5449,39.5143],
[53.1375,39.4496],
[53.5176,39.385],
[53.9868,38.9972],
[53.8298,37.8352],
[53.9079,37.8352],
[53.9105,37.4483],
[54.0947,37.1904],
[54.0333,36.8682],
[53.4887,36.8682],
[52.586,36.6105],
[51.642,36.546],
[50.532,36.8682],
[50.6323,36.9971],
[50.5657,37.0615],
[50.3209,36.9971],
[49.8541,37.4483],
[49.0851,37.5128],
[49.0293,37.6417],
[48.9512,37.6417],
[47.9392,37.1904],
[47.5037,36.4172],
[47.3283,36.2884],
[46.0779,35.7089],
[46.031,35.3871],
[45.8671,35.3227],
[45.7531,35.0653],
[45.7939,34.8079],
[45.6898,34.615],
[45.5356,34.615],
[45.5002,34.3577],
[45.6453,34.2933],
[45.439,33.9075]
]
]
]}
}
