{
"type": "Feature",
"properties": {"id":"cliopatria-hotaki-dynasty-1727","edge_precision":"unknown","cliopatria_name":"Hotaki Dynasty","cliopatria_from_year":1727,"cliopatria_to_year":1733,"cliopatria_area_km2":1918357,"cliopatria_wikidata":"Q627449","cliopatria_wikipedia":"Hotak dynasty"},
"geometry": {"type": "MultiPolygon", "coordinates": [
[
[
[47.739,31.0148],
[48.1031,30.8863],
[48.0478,30.4364],
[48.2755,30.4364],
[48.4117,30.3079],
[48.3884,30.1151],
[48.6005,29.9865],
[48.6763,29.9865],
[48.9873,30.0508],
[48.9428,30.3079],
[49.5859,29.9865],
[50.0648,30.1794],
[50.2363,29.7294],
[50.6513,29.4081],
[50.6203,29.1509],
[50.915,29.0867],
[50.809,28.8295],
[51.0281,28.7652],
[51.0662,28.4438],
[51.3313,28.1224],
[51.3168,27.9938],
[51.5967,27.8009],
[52.0486,27.8009],
[52.4787,27.6081],
[52.737,27.2223],
[53.4606,26.9652],
[53.6581,26.708],
[54.2589,26.708],
[54.4632,26.5151],
[54.8316,26.4508],
[55.2423,26.7723],
[55.5427,26.7723],
[55.3102,26.708],
[55.2889,26.5151],
[55.439,26.5151],
[55.6034,26.6437],
[56.0612,26.708],
[56.3086,26.9009],
[56.3236,27.0295],
[56.0981,27.0295],
[56.1884,27.158],
[56.7147,27.158],
[57.0524,26.8366],
[57.1757,25.9365],
[57.3795,25.7436],
[57.6792,25.7436],
[57.7402,25.615],
[57.958,25.5507],
[58.7817,25.5507],
[59.0602,25.3579],
[60.6321,25.3579],
[60.6178,25.2293],
[60.9171,25.2293],
[61.1274,25.1007],
[61.6582,25.165],
[61.7187,25.0364],
[62.0179,25.0364],
[62.182,25.165],
[62.4739,25.1007],
[62.5634,25.2293],
[63.5362,25.2293],
[63.6262,25.3579],
[64.225,25.3579],
[64.2845,25.2293],
[64.8006,25.165],
[64.8161,25.2936],
[66.0215,25.3579],
[66.2621,25.4864],
[66.2703,25.5507],
[66.2283,25.8079],
[66.5478,26.5151],
[66.4244,26.708],
[66.4607,26.9652],
[66.3856,26.9652],
[66.6638,28.3153],
[66.5883,28.3153],
[66.6711,28.8295],
[66.5956,28.8295],
[66.6944,29.858],
[66.4897,29.9865],
[66.251,29.9223],
[66.2736,30.0508],
[65.993,30.1794],
[66.0213,30.7578],
[65.5934,31.7218],
[65.6298,32.3002],
[65.5534,32.3002],
[65.7704,32.6216],
[65.7592,32.943],
[66.1321,33.2645],
[66.2272,33.7146],
[66.1504,33.7146],
[66.2895,34.3577],
[66.2125,34.3577],
[66.3845,35.1297],
[66.3073,35.1297],
[66.3279,36.224],
[66.3578,36.6749],
[66.2178,36.7393],
[66.1719,37.1904],
[65.9077,37.3838],
[65.9396,37.5128],
[65.6274,37.5128],
[65.6116,37.4483],
[64.7539,37.126],
[64.4952,36.3528],
[63.0691,36.224],
[62.1596,35.9664],
[61.6261,35.6445],
[61.3165,35.6445],
[61.2485,36.4172],
[61.1709,36.4172],
[61.2269,36.6749],
[60.3717,36.6749],
[60.0023,37.126],
[59.4849,37.2549],
[59.1791,37.6417],
[58.5685,37.7062],
[58.4904,37.7062],
[57.8429,37.9643],
[57.452,37.9643],
[57.2085,38.2869],
[56.8953,38.2869],
[56.7804,38.4806],
[56.4808,38.5451],
[56.0067,38.1578],
[55.5372,38.1578],
[55.1063,37.9643],
[55.0931,37.8998],
[55.7826,37.4483],
[55.7567,37.3193],
[55.8347,37.3193],
[55.6926,36.9971],
[54.2837,36.546],
[53.0139,35.9664],
[52.0839,35.9664],
[51.2643,36.1596],
[50.9431,36.0952],
[50.6546,36.224],
[50.1986,36.7393],
[49.9435,36.6105],
[49.4772,36.6105],
[49.1207,36.8037],
[49.1423,36.9326],
[49.0083,37.0615],
[48.8525,37.0615],
[48.6646,36.8682],
[48.6118,36.546],
[48.6895,36.546],
[48.7511,35.9664],
[48.9995,35.5802],
[48.8044,35.3227],
[48.7448,34.9366],
[48.4742,34.6793],
[48.4261,34.3577],
[48.5031,34.3577],
[48.5229,33.9718],
[48.0374,33.2645],
[48.2583,33.2002],
[48.3755,32.943],
[48.7223,32.6859],
[48.6867,32.4288],
[48.2697,32.1717],
[47.9981,31.8503],
[47.7957,31.4647],
[47.739,31.0148]
]
]
]}
}
