{
"type": "Feature",
"properties": {"id":"cliopatria-rattanakosin-kingdom-1825","edge_precision":"unknown","cliopatria_name":"Rattanakosin Kingdom","cliopatria_from_year":1825,"cliopatria_to_year":1827,"cliopatria_area_km2":441224,"cliopatria_wikidata":"Q1155700","cliopatria_wikipedia":"Rattanakosin Kingdom (1782–1932)"},
"geometry": {"type": "MultiPolygon", "coordinates": [
[
[
[97.7983,17.7076],
[97.9365,17.6433],
[97.9823,17.4505],
[98.6276,16.8076],
[98.6382,16.3576],
[98.9328,16.3576],
[98.9061,16.1647],
[98.6676,16.0361],
[98.6589,15.9718],
[98.6723,15.5218],
[98.2628,15.2004],
[98.2303,14.9432],
[98.4844,14.6218],
[98.4688,14.4932],
[99.1271,13.8503],
[99.2445,13.5932],
[99.2086,13.2718],
[99.282,13.2718],
[99.1668,12.886],
[99.4262,12.5646],
[99.4665,12.2432],
[99.6605,11.986],
[99.5434,11.536],
[98.9773,10.9574],
[98.7743,10.3145],
[98.5332,10.0574],
[98.5278,9.9931],
[98.134,8.7073],
[98.2109,7.743],
[98.4343,7.8073],
[98.3839,8.1288],
[98.4707,8.3216],
[98.6168,8.3216],
[98.6713,8.0645],
[98.9542,7.9359],
[98.9363,7.6787],
[99.2238,7.6145],
[99.275,7.293],
[99.4939,7.293],
[99.4811,7.1002],
[99.627,7.1002],
[99.6103,6.843],
[100.0276,6.5216],
[100.0156,6.3287],
[100.284,5.943],
[100.2616,5.5572],
[100.5495,5.493],
[100.5315,5.1715],
[100.9067,5.3644],
[100.9213,5.6215],
[101.2896,5.6858],
[101.4467,5.8787],
[101.7307,5.7501],
[101.8765,5.7501],
[102.0535,6.2644],
[102.0575,6.3287],
[101.7739,6.4573],
[101.7174,6.7144],
[101.5111,6.9073],
[100.8546,6.9073],
[100.6527,7.1644],
[100.5068,7.1644],
[100.5285,7.4859],
[100.3826,7.4859],
[100.4689,7.6787],
[100.3365,7.8716],
[100.3008,8.3859],
[100.0866,8.4502],
[99.9599,8.7073],
[99.9319,9.2859],
[99.6447,9.3502],
[99.3423,9.2216],
[99.2949,9.5431],
[99.1592,9.6717],
[99.3143,10.636],
[99.4778,10.8288],
[99.6044,11.4074],
[99.8549,11.7289],
[99.8802,11.986],
[100.0331,12.0503],
[100.1031,13.4003],
[100.5579,13.5289],
[100.9908,13.4646],
[100.8255,12.6289],
[101.5516,12.5646],
[101.7852,12.6932],
[102.1107,12.3074],
[102.2573,12.3074],
[102.2241,11.986],
[102.4438,11.986],
[102.6035,12.1146],
[102.7434,12.0503],
[102.7302,11.9217],
[102.8701,11.8574],
[102.8443,11.6003],
[103.0512,11.4717],
[103.0628,10.8288],
[103.3554,10.8288],
[103.5261,11.086],
[103.5993,11.086],
[103.618,11.2788],
[103.777,11.4074],
[103.8556,12.1789],
[104.1097,12.5003],
[104.3355,13.2075],
[104.4971,13.336],
[104.7906,13.336],
[104.8415,13.1432],
[105.1423,13.2075],
[105.1573,13.336],
[105.466,13.4646],
[105.5049,13.7861],
[105.8064,13.8503],
[105.8958,13.9789],
[105.2592,14.1718],
[105.2756,14.3004],
[104.9818,14.3004],
[104.9248,14.4289],
[103.6761,14.4289],
[103.285,14.8147],
[103.2331,15.5218],
[103.0482,15.779],
[103.0573,16.3576],
[103.2328,16.5504],
[102.1012,16.8719],
[101.7326,16.8719],
[101.6136,17.0647],
[101.4662,17.0647],
[101.312,17.5148],
[101.0168,17.5148],
[101.2717,18.2219],
[101.1338,18.2862],
[101.1832,18.6076],
[101.351,18.7362],
[101.4009,19.0577],
[101.2829,19.2505],
[101.313,19.4434],
[101.1849,19.5719],
[100.6567,19.5077],
[100.6269,19.3148],
[100.745,19.1219],
[100.5872,19.0577],
[100.5673,18.9291],
[100.1877,18.8648],
[99.7593,18.4791],
[99.6115,18.4791],
[99.5824,18.2862],
[98.6411,18.4148],
[98.2883,18.0291],
[97.8358,17.9648],
[97.7983,17.7076]
]
],
[
[
[99.582,6.393],
[99.651,6.3287],
[99.6471,6.2644],
[99.8659,6.2644],
[99.8817,6.5216],
[99.582,6.393]
]
]
]}
}
