{
"type": "Feature",
"properties": {"id":"cliopatria-safavid-dynasty-1521","edge_precision":"unknown","cliopatria_name":"Safavid Dynasty","cliopatria_from_year":1521,"cliopatria_to_year":1525,"cliopatria_area_km2":2768415,"cliopatria_wikidata":"Q161205","cliopatria_wikipedia":"Safavid dynasty","cliopatria_seshat_id":"ir_safavid_emp"},
"geometry": {"type": "MultiPolygon", "coordinates": [
[
[
[37.958,37.126],
[38.3787,36.7393],
[38.2552,36.3528],
[38.0925,36.2884],
[38.1329,35.9664],
[39.1328,35.902],
[39.8842,35.7089],
[40.3712,35.2584],
[40.3557,35.1297],
[40.5101,35.1297],
[40.5487,34.8079],
[40.7723,34.7436],
[40.965,34.422],
[41.042,34.422],
[41.427,33.7789],
[41.8649,33.5859],
[42.0645,33.3288],
[42.5783,33.1359],
[42.7085,32.943],
[43.1526,32.8145],
[44.459,31.5933],
[44.444,31.4647],
[44.6576,31.3362],
[44.6353,31.1434],
[44.7949,31.2076],
[45.3982,30.5007],
[45.55,30.5007],
[46.099,29.9865],
[46.5322,29.7937],
[46.5865,29.6009],
[46.745,29.6652],
[46.868,29.4081],
[47.1021,29.4723],
[47.2392,29.3438],
[47.7688,29.3438],
[47.8662,29.5366],
[48.4035,29.6009],
[48.3654,29.9223],
[48.9037,29.9865],
[48.9873,30.0508],
[48.9428,30.3079],
[49.5859,29.9865],
[50.0648,30.1794],
[50.2363,29.7294],
[50.6513,29.4081],
[50.6203,29.1509],
[50.915,29.0867],
[50.809,28.8295],
[51.0281,28.7652],
[51.0662,28.4438],
[51.3313,28.1224],
[51.3168,27.9938],
[51.5967,27.8009],
[52.0486,27.8009],
[52.4787,27.6081],
[52.737,27.2223],
[53.4606,26.9652],
[53.6581,26.708],
[54.2589,26.708],
[54.4632,26.5151],
[54.8316,26.4508],
[55.2423,26.7723],
[55.6179,26.7723],
[55.7149,26.9652],
[56.0981,27.0295],
[56.1884,27.158],
[56.7147,27.158],
[57.0524,26.8366],
[57.1148,26.0651],
[57.3795,25.7436],
[57.6792,25.7436],
[57.7402,25.615],
[57.958,25.5507],
[58.7817,25.5507],
[59.0602,25.3579],
[60.6321,25.3579],
[60.6178,25.2293],
[60.9171,25.2293],
[61.1274,25.1007],
[61.6582,25.165],
[61.7187,25.0364],
[62.0179,25.0364],
[62.182,25.165],
[62.4739,25.1007],
[62.5634,25.2293],
[63.5362,25.2293],
[63.6262,25.3579],
[64.0753,25.3579],
[64.0237,25.5507],
[63.7398,25.6793],
[63.7556,25.8079],
[63.4878,26.0651],
[63.5128,26.8366],
[63.4377,26.8366],
[64.0319,30.2436],
[64.1078,30.2436],
[64.3614,31.6575],
[64.4377,31.6575],
[64.7507,32.8788],
[65.1751,33.4574],
[66.3279,36.224],
[66.3578,36.6749],
[66.2178,36.7393],
[66.1719,37.1904],
[65.9077,37.3838],
[65.9396,37.5128],
[65.6274,37.5128],
[65.2388,37.8352],
[64.6615,38.0288],
[64.3669,38.416],
[64.0075,38.5451],
[63.8374,38.8034],
[63.4155,38.9972],
[63.2457,39.2557],
[63.0883,39.2557],
[62.6538,39.7083],
[62.6876,39.8376],
[62.3161,40.2259],
[62.4027,40.5496],
[62.2969,40.744],
[62.4472,41.0032],
[62.3679,41.0032],
[62.3783,41.3274],
[60.8424,40.9384],
[60.1283,40.9384],
[60.0036,41.068],
[57.8295,41.2625],
[57.8131,41.1977],
[57.0337,40.6144],
[56.891,40.6792],
[56.3906,39.9023],
[56.3608,39.7729],
[56.5185,39.7729],
[56.4742,39.5789],
[56.2874,39.4496],
[56.08,38.868],
[56.4444,38.7389],
[56.3747,38.416],
[56.0067,38.1578],
[55.5372,38.1578],
[53.8826,37.7062],
[53.9105,37.4483],
[54.0947,37.1904],
[54.0333,36.8682],
[53.4887,36.8682],
[52.586,36.6105],
[51.642,36.546],
[50.532,36.8682],
[50.6323,36.9971],
[50.5657,37.0615],
[50.3209,36.9971],
[49.8541,37.4483],
[49.0851,37.5128],
[48.8285,37.8352],
[48.8206,38.6743],
[48.7422,38.6743],
[48.9155,39.1911],
[49.1635,39.2557],
[49.1757,39.3203],
[49.0305,39.385],
[49.0008,39.6436],
[48.7766,39.7083],
[48.7225,39.8376],
[47.3693,39.7729],
[47.3143,39.9023],
[46.9986,39.9023],
[46.8764,40.0964],
[46.6513,40.1612],
[46.6082,40.3554],
[45.6942,40.5496],
[45.2866,40.4849],
[45.1516,40.6144],
[44.7555,40.6144],
[44.6202,40.744],
[44.2917,40.6792],
[44.2354,40.8088],
[43.9296,40.8736],
[43.8955,40.6792],
[44.0313,40.5496],
[43.6264,40.0317],
[43.1312,39.9023],
[42.7471,39.967],
[42.6473,39.8376],
[42.2631,39.9023],
[41.8968,39.5789],
[41.5816,39.5789],
[41.2371,39.385],
[41.082,38.868],
[41.0035,38.868],
[40.9807,38.1578],
[40.8845,38.0288],
[39.4766,38.0288],
[39.1386,37.8352],
[38.9042,37.8352],
[38.395,37.5128],
[38.0829,37.5128],
[37.9891,37.3838],
[37.958,37.126]
]
]
]}
}
