{
"type": "Feature",
"properties": {"id":"cliopatria-later-jin-dynasty-1636","edge_precision":"unknown","cliopatria_name":"Later Jin Dynasty","cliopatria_from_year":1636,"cliopatria_to_year":1639,"cliopatria_area_km2":1943075,"cliopatria_wikidata":"Q1062546","cliopatria_wikipedia":"Later Jin (1616-1636)"},
"geometry": {"type": "MultiPolygon", "coordinates": [
[
[
[100.6086,39.7729],
[101.181,39.6436],
[101.1652,39.2557],
[101.5586,39.2557],
[101.6301,39.0618],
[102.1232,38.9326],
[102.0948,38.868],
[102.3588,38.9326],
[102.5523,39.1911],
[103.1234,39.0618],
[102.8801,38.868],
[103.137,38.7389],
[102.845,38.6097],
[102.8392,38.416],
[102.996,38.416],
[103.0185,38.2869],
[103.3039,38.2224],
[103.3267,38.0933],
[103.612,38.0288],
[103.764,37.8352],
[104.3616,37.7707],
[104.4629,37.6417],
[105.2209,37.7707],
[105.433,37.8998],
[106.1647,37.9643],
[106.378,38.0933],
[106.5713,38.3515],
[106.493,38.3515],
[106.6684,38.7389],
[106.5899,38.7389],
[106.9212,39.4496],
[107.3292,39.6436],
[107.4416,39.385],
[107.647,39.3203],
[107.2858,38.5451],
[107.4426,38.5451],
[107.5113,38.3515],
[107.9029,38.3515],
[107.9718,38.1578],
[108.3048,38.0288],
[108.745,37.9643],
[108.8434,37.8352],
[109.4195,37.8998],
[109.5269,37.9643],
[109.5964,38.2869],
[109.7829,38.3515],
[109.825,38.6097],
[109.7466,38.6097],
[109.9614,39.0618],
[110.2911,39.2557],
[110.4179,39.5143],
[111.1591,39.5789],
[111.447,39.8376],
[111.6509,39.7729],
[111.8287,39.967],
[112.1445,39.967],
[112.5046,40.3554],
[113.0242,40.2906],
[113.32,40.5496],
[113.6368,40.5496],
[113.7703,40.3554],
[114.5171,40.4201],
[114.4823,40.3554],
[115.4346,40.9384],
[116.6126,41.1977],
[116.5758,41.1328],
[116.8567,41.068],
[116.985,40.8736],
[117.3389,40.9384],
[117.2002,40.5496],
[117.3586,40.5496],
[117.3659,40.4201],
[117.7907,40.6144],
[118.6256,40.5496],
[118.632,40.4201],
[118.7903,40.4201],
[119.0488,40.0317],
[119.0213,39.8376],
[119.258,39.8376],
[119.3452,39.7083],
[119.3804,39.7729],
[120.5003,40.2259],
[120.6473,40.4849],
[120.9967,40.6792],
[121.1098,40.8736],
[121.8237,40.8736],
[121.827,40.744],
[122.1061,40.6792],
[122.2306,40.4849],
[121.7765,39.967],
[121.5033,39.9023],
[121.4383,39.6436],
[121.2807,39.6436],
[121.2096,39.5143],
[121.2965,39.385],
[121.6901,39.385],
[121.5151,39.0618],
[121.2007,39.0618],
[121.0293,38.7389],
[121.4217,38.7389],
[121.7162,38.9972],
[121.9519,38.9972],
[122.1704,39.2557],
[122.936,39.6436],
[123.5974,39.8376],
[124.034,39.7729],
[124.3446,39.9023],
[124.5124,39.6436],
[124.8646,39.7083],
[124.8697,39.5789],
[125.3057,39.5143],
[125.39,39.385],
[125.0316,38.7389],
[125.1885,38.7389],
[125.1533,38.6743],
[124.9614,38.6097],
[124.7881,38.2869],
[124.8664,38.2869],
[124.7637,38.0933],
[125.0767,38.0933],
[124.8967,37.8998],
[125.2093,37.8998],
[125.22,37.7707],
[125.5324,37.7707],
[125.6783,37.8998],
[125.8347,37.8998],
[125.8449,37.7707],
[126.2695,37.8352],
[126.3477,37.8352],
[126.6261,37.7707],
[126.6025,37.5773],
[126.5352,37.4483],
[126.6133,37.4483],
[126.5798,37.3838],
[126.6577,37.3838],
[126.9253,37.4483],
[127.0141,37.3193],
[127.326,37.3193],
[127.5391,37.5773],
[127.2762,37.9643],
[126.998,38.0288],
[127.0326,38.0933],
[126.4505,38.0288],
[126.363,38.1578],
[125.8152,38.1578],
[125.8844,38.2869],
[125.6841,38.3515],
[125.9733,38.7389],
[125.7889,38.5451],
[125.6321,38.5451],
[125.624,38.6743],
[125.5456,38.6743],
[125.5809,38.7389],
[125.8258,39.3203],
[125.7416,39.4496],
[125.8896,39.7083],
[125.7692,39.7729],
[125.9231,39.9023],
[125.7997,40.0964],
[125.6417,40.0964],
[125.598,40.2906],
[125.4399,40.2906],
[125.3584,40.4201],
[125.4745,40.6144],
[125.3953,40.6144],
[126.1071,41.0032],
[126.712,41.7167],
[127.0722,41.7816],
[127.1075,41.5869],
[127.3848,41.522],
[127.3437,41.4571],
[128.0982,41.3922],
[128.3436,41.6518],
[128.2678,41.7816],
[128.1084,41.7816],
[128.1503,41.8465],
[127.9908,41.8465],
[128.0749,41.9764],
[128.8355,42.0413],
[129.1664,42.3012],
[129.6963,42.4962],
[129.8433,42.9515],
[130.084,42.9515],
[130.0397,42.8864],
[130.2001,42.8864],
[130.3002,42.5612],
[130.5404,42.5612],
[130.5844,42.6262],
[130.5567,42.8213],
[130.8774,42.8213],
[131.127,42.9515],
[131.3169,43.3421],
[131.2014,43.4072],
[131.3255,43.9286],
[131.2101,43.9938],
[131.268,44.1896],
[131.1872,44.1896],
[131.2923,44.4507],
[131.1084,44.6466],
[131.1552,44.7119],
[130.9588,44.7773],
[131.6952,45.235],
[132.6565,45.1042],
[132.6088,45.0388],
[133.0628,45.1042],
[133.174,45.3659],
[133.0926,45.3659],
[133.3521,45.4968],
[133.5468,45.7588],
[133.4325,45.8243],
[133.9587,46.4145],
[133.8768,46.4145],
[133.9768,46.5459],
[133.8948,46.5459],
[134.0961,46.8086],
[134.0139,46.8086],
[134.1152,46.9401],
[134.0331,46.9401],
[134.2371,47.2032],
[134.1548,47.2032],
[134.7343,47.73],
[134.5616,47.9278],
[134.6912,48.1917],
[134.5496,48.3238],
[134.6033,48.3899],
[134.0227,48.3899],
[133.4788,48.1257],
[133.2003,48.1917],
[132.2569,47.73],
[130.8212,47.7959],
[130.8722,47.8619],
[130.6753,47.9278],
[130.7778,48.0597],
[130.6638,48.1257],
[130.7881,48.3899],
[130.5521,48.7204],
[130.7111,48.9189],
[130.0151,48.9851],
[130.0683,49.0513],
[129.8717,49.1175],
[129.8954,49.25],
[129.4188,49.3826],
[129.4727,49.4489],
[129.055,49.4489],
[129.109,49.5152],
[128.6615,49.5816],
[128.7155,49.6479],
[127.9926,49.5816],
[128.0464,49.6479],
[127.5685,49.7807],
[127.5345,50.0465],
[127.4506,50.0465],
[127.5604,50.1795],
[127.4476,50.246],
[127.5029,50.3125],
[127.3348,50.3125],
[127.3334,50.5122],
[127.2493,50.5122],
[127.3613,50.6455],
[127.2212,50.7788],
[127.2778,50.8455],
[127.1091,50.8455],
[127.111,51.0457],
[126.942,51.0457],
[126.8645,51.4465],
[126.7797,51.4465],
[126.8379,51.5134],
[126.7531,51.5134],
[126.8114,51.5803],
[126.7266,51.5803],
[126.785,51.6472],
[126.7002,51.6472],
[126.7588,51.7142],
[126.6739,51.7142],
[126.7326,51.7811],
[126.6477,51.7811],
[126.7066,51.8481],
[126.5366,51.8481],
[126.4929,52.1833],
[126.4077,52.1833],
[126.4675,52.2505],
[126.3823,52.2505],
[126.4422,52.3176],
[126.3569,52.3176],
[126.417,52.3847],
[126.3317,52.3847],
[126.3919,52.4519],
[126.1107,52.5191],
[126.1463,52.6535],
[125.9504,52.7208],
[125.9867,52.8554],
[125.7051,52.9227],
[125.7419,53.0574],
[125.5704,53.0574],
[125.6318,53.1248],
[125.4602,53.1248],
[125.5217,53.1922],
[125.2641,53.1922],
[125.3257,53.2596],
[124.3805,53.2596],
[124.4418,53.3271],
[124.1592,53.3946],
[124.2207,53.4621],
[123.7658,53.5296],
[123.8273,53.5971],
[122.0436,53.5296],
[121.1749,53.3271],
[121.089,53.3271],
[120.4231,53.0574],
[119.9036,52.6535],
[120.5301,52.5863],
[120.5006,52.4519],
[120.6706,52.2505],
[120.5571,52.1163],
[120.6709,52.0492],
[120.1919,51.7811],
[119.6457,51.1124],
[119.7303,51.1124],
[119.1509,50.3791],
[119.235,50.3791],
[119.2816,50.113],
[118.5429,49.9136],
[117.8274,49.5152],
[116.6848,49.7807],
[115.4226,47.9938],
[115.5881,47.9938],
[115.5814,47.8619],
[115.8674,47.7959],
[115.8229,47.73],
[116.16,47.8619],
[116.9865,47.8619],
[116.9414,47.7959],
[117.3093,47.73],
[117.7389,47.9938],
[118.4834,47.9938],
[118.4374,47.9278],
[118.6855,47.9278],
[118.6396,47.8619],
[119.0436,47.73],
[119.0347,47.5982],
[119.3191,47.5323],
[119.2736,47.4665],
[119.4754,47.4006],
[119.4671,47.269],
[119.7512,47.2032],
[119.7431,47.0716],
[119.9371,46.8743],
[119.8031,46.6772],
[119.2666,46.6115],
[119.3108,46.6772],
[119.0647,46.6772],
[119.109,46.7429],
[118.6166,46.7429],
[117.4191,46.5459],
[117.1258,46.3489],
[116.7164,46.3489],
[116.4673,46.2177],
[116.1297,45.6933],
[115.8832,45.5623],
[115.1889,45.3659],
[114.7417,45.4313],
[114.1313,44.9734],
[113.4437,44.6466],
[112.0711,44.3854],
[111.7569,43.9938],
[111.9637,43.7982],
[111.8868,43.6678],
[110.8166,43.2118],
[110.396,42.7563],
[109.8858,42.5612],
[109.3332,42.4312],
[107.8132,42.4312],
[106.8631,42.3012],
[105.732,41.9764],
[104.9715,41.5869],
[104.527,41.6518],
[104.4678,41.8465],
[103.7169,41.7816],
[103.7502,41.8465],
[102.7328,42.0413],
[101.1207,40.8736],
[100.9852,40.4201],
[101.0643,40.4201],
[100.6086,39.7729]
],
[
[127.1593,37.4483],
[127.2269,37.5773],
[127.383,37.5773],
[127.3153,37.4483],
[127.1593,37.4483]
]
]
]}
}
