{
"type": "Feature",
"properties": {"id":"cliopatria-western-moghulistan-1609","edge_precision":"unknown","cliopatria_name":"Western Moghulistan","cliopatria_from_year":1609,"cliopatria_to_year":1631,"cliopatria_area_km2":140391,"cliopatria_wikidata":"Q1191125","cliopatria_wikipedia":"Moghulistan"},
"geometry": {"type": "MultiPolygon", "coordinates": [
[
[
[73.3799,42.1063],
[73.6088,41.8465],
[73.634,41.4571],
[73.7136,41.4571],
[73.6693,41.3274],
[73.8199,41.068],
[73.733,40.8088],
[73.8485,40.6792],
[73.8162,40.0964],
[73.9533,40.0317],
[73.8882,39.5789],
[73.7104,39.5143],
[73.6104,39.1911],
[73.787,38.9972],
[73.7874,38.7389],
[73.6703,38.6097],
[73.7487,38.6097],
[73.9647,38.5451],
[75.3001,39.0618],
[76.1733,39.5789],
[77.3124,40.6144],
[78.7746,41.5869],
[79.9578,41.9764],
[79.9827,42.0413],
[80.1424,42.0413],
[80.1631,42.3012],
[80.0032,42.3012],
[79.9738,42.4312],
[79.439,42.4962],
[79.4094,42.6262],
[79.2492,42.6262],
[79.0846,42.8213],
[78.3881,42.8864],
[76.4947,42.7563],
[75.8055,42.6262],
[75.4139,42.4312],
[74.9339,42.4312],
[74.4642,42.2362],
[74.2707,42.3662],
[73.9508,42.3662],
[73.9048,42.2362],
[73.3799,42.1063]
]
]
]}
}
