{
"type": "Feature",
"properties": {"id":"cliopatria-pala-empire-0947","edge_precision":"unknown","cliopatria_name":"Pala Empire","cliopatria_from_year":947,"cliopatria_to_year":961,"cliopatria_area_km2":192932,"cliopatria_wikidata":"Q668412","cliopatria_wikipedia":"Pala Empire","cliopatria_seshat_id":"in_pala_emp"},
"geometry": {"type": "MultiPolygon", "coordinates": [
[
[
[84.048,24.3292],
[84.1684,24.1363],
[84.8861,23.9435],
[85.8643,23.4934],
[85.9202,23.3649],
[87.8865,22.5291],
[87.9992,22.272],
[88.2044,22.1434],
[88.1991,21.5648],
[88.5139,21.6934],
[88.6416,22.0791],
[88.716,22.0791],
[88.728,21.6291],
[89.0995,21.6291],
[89.1173,21.7577],
[89.7118,21.7577],
[89.8695,21.822],
[89.8966,22.0148],
[90.1577,21.7577],
[90.3154,21.822],
[90.4263,22.0791],
[90.6494,22.0791],
[90.631,21.9505],
[90.8632,22.0148],
[90.9378,22.5291],
[90.7983,22.5934],
[90.6875,22.8506],
[90.5386,22.8506],
[90.6419,23.0434],
[90.646,23.5577],
[90.5714,23.5577],
[90.5783,24.072],
[90.5036,24.072],
[90.535,24.2649],
[90.375,24.6506],
[89.2779,25.2293],
[88.5933,25.165],
[88.4659,25.2936],
[87.5901,25.4221],
[87.5152,25.4221],
[86.4256,25.615],
[84.703,25.615],
[84.3817,25.4864],
[84.0937,25.1007],
[84.048,24.3292]
]
],
[
[
[92.386,25.0364],
[92.4608,25.0364],
[92.4723,25.1007],
[92.3975,25.1007],
[92.386,25.0364]
]
]
]}
}
