{
"type": "Feature",
"properties": {"id":"cliopatria-principality-of-vladimir-suzdal-1314","edge_precision":"unknown","cliopatria_name":"Principality of Vladimir-Suzdal","cliopatria_from_year":1314,"cliopatria_to_year":1332,"cliopatria_area_km2":188920,"cliopatria_wikidata":"Q83546","cliopatria_wikipedia":"Vladimir-Suzdal","cliopatria_seshat_id":"ru_vladimir_suzdal"},
"geometry": {"type": "MultiPolygon", "coordinates": [
[
[
[35.7255,60.0653],
[35.8166,60.0653],
[35.7653,59.8547],
[35.9131,59.7145],
[35.959,59.1551],
[36.4502,58.9458],
[36.4221,58.4587],
[36.512,58.4587],
[36.4618,58.2504],
[36.5515,58.2504],
[36.5015,58.0423],
[36.591,58.0423],
[36.5485,57.4889],
[37.2054,57.6271],
[37.2559,57.8346],
[37.5239,57.8346],
[37.5068,57.7654],
[37.8467,57.6962],
[37.7992,57.144],
[38.0484,57.0751],
[38.4552,57.2819],
[38.8108,57.2819],
[39.3437,56.9374],
[39.2917,56.3877],
[39.0809,56.2506],
[39.3105,56.1136],
[39.1203,55.7031],
[39.2956,55.7031],
[39.3297,55.8398],
[39.9441,55.8398],
[40.1549,55.9766],
[40.332,56.3191],
[41.9754,56.525],
[42.102,56.6623],
[42.0328,56.7311],
[42.3371,56.8686],
[42.4155,57.144],
[42.8105,57.2819],
[42.8306,57.3509],
[43.0287,57.4199],
[43.0006,57.6271],
[43.1994,57.6962],
[43.1926,57.9731],
[43.282,57.9731],
[43.5399,58.5282],
[43.9613,59.0155],
[44.9324,59.5045],
[45.2045,59.5045],
[45.1598,59.6445],
[45.4556,59.7145],
[45.8228,59.995],
[45.9909,60.4873],
[46.3876,61.619],
[46.2531,61.7611],
[46.0677,61.7611],
[46.093,61.8322],
[44.5405,61.9034],
[44.4921,61.7611],
[44.2827,61.69],
[43.5417,61.69],
[43.2869,61.477],
[43.0123,60.9105],
[42.1994,60.0653],
[41.6386,59.7145],
[41.5971,59.5745],
[40.7905,59.2947],
[40.6094,59.2947],
[40.2754,59.7145],
[39.8604,59.8547],
[39.7375,60.0653],
[39.3206,60.2058],
[39.2881,60.4168],
[38.8696,60.5577],
[38.5487,59.7145],
[38.1297,59.5045],
[38.039,59.5045],
[38.0574,59.5745],
[37.6943,59.5745],
[37.6581,59.7846],
[37.4943,59.8547],
[37.5308,59.995],
[37.3667,60.0653],
[37.3485,60.3465],
[37.2571,60.3465],
[37.2945,60.8399],
[36.7433,60.8399],
[35.8464,60.5577],
[35.7255,60.0653]
]
]
]}
}
