{
"type": "Feature",
"properties": {"id":"cliopatria-oghuz-turks-0990","edge_precision":"unknown","cliopatria_name":"Oghuz Turks","cliopatria_from_year":990,"cliopatria_to_year":1045,"cliopatria_area_km2":414814,"cliopatria_wikidata":"Q2118293","cliopatria_wikipedia":"Oghuz Khagan","cliopatria_seshat_id":"kz_oghuz_state"},
"geometry": {"type": "MultiPolygon", "coordinates": [
[
[
[50.1939,44.4507],
[50.8757,44.2548],
[51.0716,44.0591],
[51.0407,43.9286],
[51.3169,43.733],
[51.3051,43.3421],
[51.4353,43.2118],
[51.7722,43.2769],
[51.9361,42.9515],
[52.4175,42.9515],
[52.7873,42.8213],
[52.679,42.3662],
[52.4432,42.0413],
[52.523,42.0413],
[52.4929,41.9114],
[52.722,41.522],
[52.8016,41.522],
[52.812,41.9114],
[53.1924,42.1712],
[53.9113,42.1712],
[54.0905,41.5869],
[54.7295,41.2625],
[54.6683,41.0032],
[54.4001,40.8736],
[54.3851,40.8088],
[56.8274,40.744],
[57.4649,41.3922],
[57.5644,41.7816],
[57.957,42.3662],
[58.0515,43.0165],
[58.3371,43.4723],
[58.3551,43.5375],
[58.1857,43.7982],
[57.9618,43.8634],
[58.0707,44.2548],
[57.9899,44.2548],
[58.0447,44.4507],
[57.9638,44.4507],
[58.2668,45.235],
[58.4858,45.4313],
[58.6377,45.9554],
[59.3105,46.0209],
[59.49,46.3489],
[59.8374,46.4145],
[60.1215,46.8086],
[60.532,46.8086],
[60.5729,46.9401],
[60.9837,46.9401],
[61.0041,46.7429],
[61.1889,46.8086],
[61.2303,46.9401],
[61.6411,46.9401],
[61.7024,46.8743],
[61.4549,46.3489],
[61.4344,46.2833],
[61.8231,46.2177],
[61.782,46.0865],
[61.9046,45.9554],
[62.5787,46.0209],
[64.8187,45.6278],
[64.9753,46.3489],
[64.8934,46.3489],
[64.9434,46.7429],
[64.8235,46.8743],
[64.868,47.0058],
[64.7858,47.0058],
[64.8305,47.1374],
[64.7482,47.1374],
[64.7556,47.4006],
[64.5309,47.4665],
[64.4336,47.6641],
[64.2685,47.6641],
[64.0885,47.8619],
[63.3068,47.9938],
[56.3824,47.7959],
[55.0684,47.5323],
[54.6834,47.3348],
[54.3539,47.3348],
[53.2423,46.8743],
[53.2249,46.8086],
[53.268,46.3489],
[53.3499,46.3489],
[53.2474,45.9554],
[53.0671,45.8898],
[53.0646,45.5623],
[53.4214,45.3659],
[53.6656,45.3659],
[53.8794,45.5623],
[54.2868,45.5623],
[54.2181,45.3004],
[54.3636,45.235],
[54.2952,44.9734],
[53.8081,44.9734],
[53.8757,45.235],
[52.0868,45.235],
[51.8752,45.3659],
[51.4683,45.3659],
[51.0635,45.0388],
[51.0162,44.8426],
[51.4712,44.7119],
[51.4237,44.516],
[50.8569,44.516],
[50.4019,44.6466],
[50.2245,44.5813],
[50.1939,44.4507]
]
],
[
[
[53.084,45.9554],
[53.1657,45.9554],
[53.1827,46.0209],
[53.101,46.0209],
[53.084,45.9554]
]
]
]}
}
