{
"type": "Feature",
"properties": {"id":"cliopatria-maratha-empire-1842","edge_precision":"unknown","cliopatria_name":"Maratha Empire","cliopatria_from_year":1842,"cliopatria_to_year":1845,"cliopatria_area_km2":82885,"cliopatria_wikidata":"Q83618","cliopatria_wikipedia":"Maratha Empire"},
"geometry": {"type": "MultiPolygon", "coordinates": [
[
[
[74.3744,23.4291],
[75.1199,23.4291],
[75.0962,23.2363],
[75.2373,23.172],
[75.5007,23.4934],
[76.0971,23.4934],
[76.214,23.2363],
[76.363,23.2363],
[76.6773,23.3649],
[76.6936,23.4934],
[76.5527,23.5577],
[76.6689,23.8792],
[77.0504,23.9435],
[76.8351,24.0077],
[76.7776,24.1363],
[76.5536,24.1363],
[76.5622,24.2006],
[76.5048,24.3292],
[76.2808,24.3292],
[76.0141,24.0077],
[75.7818,23.9435],
[75.724,24.072],
[75.9564,24.1363],
[76.0258,24.6506],
[75.8283,24.8435],
[75.6788,24.8435],
[75.5862,24.7149],
[75.2037,24.6506],
[75.2524,24.4578],
[75.103,24.4578],
[75.0858,24.3292],
[75.3846,24.3292],
[75.5686,24.5864],
[75.784,24.5221],
[75.758,24.3292],
[75.5916,24.2006],
[74.9112,24.1363],
[74.9364,23.7506],
[74.3902,23.5577],
[74.3744,23.4291]
]
],
[
[
[74.8935,21.5005],
[74.9678,21.5005],
[74.9605,21.4363],
[75.1091,21.4363],
[75.1163,21.5005],
[75.1906,21.5005],
[75.2125,21.6934],
[74.9896,21.6934],
[74.9007,21.5648],
[74.8935,21.5005]
]
],
[
[
[75.4135,21.5005],
[75.629,21.4363],
[75.6363,21.5005],
[75.5767,21.6291],
[75.4281,21.6291],
[75.4135,21.5005]
]
],
[
[
[75.8519,21.4363],
[75.9638,21.1148],
[76.1865,21.1148],
[76.5872,21.372],
[77.122,21.5005],
[77.1521,21.7577],
[77.0778,21.7577],
[77.0929,21.8863],
[76.9594,22.0148],
[76.9823,22.2077],
[77.1387,22.272],
[77.3901,23.1077],
[77.6217,23.172],
[77.5883,23.4934],
[77.5388,23.6863],
[77.3897,23.6863],
[77.4145,23.3006],
[76.7196,23.1077],
[76.6957,22.9148],
[76.8289,22.7863],
[76.7899,22.4648],
[76.6848,22.2077],
[76.3495,21.8863],
[76.3346,21.7577],
[76.186,21.7577],
[76.0894,21.5648],
[75.8519,21.4363]
]
],
[
[
[76.764,25.615],
[76.8943,25.4864],
[77.4087,25.4221],
[77.2302,25.2293],
[77.0805,25.2293],
[77.0246,24.8435],
[77.2397,24.7792],
[77.2216,24.6506],
[77.0631,24.5864],
[77.0102,24.2006],
[77.3001,24.1363],
[77.2829,24.0077],
[77.7568,24.2006],
[78.1872,24.072],
[78.2884,24.2649],
[78.922,24.5221],
[78.875,24.7149],
[78.6508,24.7149],
[78.6695,24.8435],
[79.0528,24.9078],
[78.5483,25.0364],
[78.4275,25.2293],
[78.2127,25.2936],
[78.2519,25.5507],
[78.4117,25.615],
[78.4217,25.6793],
[78.7417,25.8079],
[78.7726,26.0008],
[78.9435,26.1294],
[78.9435,26.5794],
[78.5039,26.6437],
[78.2364,26.8366],
[77.7857,26.8366],
[77.6888,26.708],
[77.4635,26.708],
[77.2062,26.5151],
[77.304,26.1937],
[76.8034,25.8722],
[76.764,25.615]
]
]
]}
}
