{
"type": "Feature",
"properties": {"id":"cliopatria-nepal-1794","edge_precision":"unknown","cliopatria_name":"Nepal","cliopatria_from_year":1794,"cliopatria_to_year":1802,"cliopatria_area_km2":179928,"cliopatria_wikidata":"Q837","cliopatria_wikipedia":"Nepal"},
"geometry": {"type": "MultiPolygon", "coordinates": [
[
[
[78.9234,29.2795],
[79.0482,29.1509],
[79.022,29.0224],
[79.65,28.7652],
[80.0276,28.7652],
[80.1896,28.4438],
[80.7799,27.9938],
[81.9229,27.6724],
[82.6758,27.6724],
[83.291,27.3509],
[83.9804,27.4152],
[84.5697,27.3509],
[84.7579,27.158],
[84.7333,27.0295],
[84.8836,27.0295],
[84.9972,26.8366],
[85.2735,26.708],
[85.7362,26.7723],
[85.787,26.6437],
[86.3126,26.6437],
[86.6516,26.4508],
[87.1141,26.5151],
[87.2399,26.3865],
[87.9903,26.3865],
[88.1649,26.5151],
[88.165,26.9009],
[88.0898,26.9009],
[88.1154,27.0295],
[88.0402,27.0295],
[88.079,27.2223],
[88.1371,27.8652],
[87.4456,27.8009],
[86.8971,28.0581],
[86.2807,27.9938],
[86.2323,28.1224],
[85.9793,27.9938],
[85.7454,28.3153],
[85.3547,28.251],
[85.1556,28.3795],
[85.1967,28.5724],
[84.8193,28.5724],
[84.4077,28.7652],
[84.2228,28.9581],
[84.2651,29.1509],
[84.1423,29.2795],
[83.8397,29.2795],
[83.6602,29.1509],
[83.4474,29.2152],
[83.4286,29.4723],
[83.3059,29.6009],
[82.4693,29.9223],
[82.0413,30.3722],
[81.586,30.3722],
[81.2999,30.1151],
[81.0724,30.1151],
[80.8417,30.4364],
[80.4008,30.5007],
[80.1411,30.6935],
[80.1263,30.6292],
[79.8839,30.565],
[79.7358,30.2436],
[79.5082,30.2436],
[79.4379,29.9223],
[79.1071,29.7937],
[78.9367,29.3438],
[78.9234,29.2795]
]
]
]}
}
