{
"type": "Feature",
"properties": {"id":"cliopatria-western-jin-0311","edge_precision":"unknown","cliopatria_name":"Western Jin","cliopatria_from_year":311,"cliopatria_to_year":312,"cliopatria_area_km2":2758891,"cliopatria_wikidata":"Q7352","cliopatria_wikipedia":"Jin dynasty (266-420)","cliopatria_seshat_id":"cn_western_jin_dyn"},
"geometry": {"type": "MultiPolygon", "coordinates": [
[
[
[93.0905,39.9023],
[93.2734,39.7729],
[93.2981,39.4496],
[93.5079,39.385],
[93.8759,39.5143],
[94.5849,39.5143],
[95.0556,39.3203],
[95.3185,39.385],
[95.3955,39.1911],
[95.5528,39.1911],
[95.6302,38.9972],
[95.8915,38.868],
[95.97,38.868],
[96.3618,38.6743],
[96.7021,38.7389],
[96.7325,39.1911],
[96.6538,39.1911],
[96.7629,39.4496],
[97.2078,39.385],
[97.9088,38.9972],
[98.2231,38.9972],
[98.3841,39.1911],
[98.9068,39.1265],
[99.1984,39.2557],
[99.8104,38.4806],
[100.2264,38.3515],
[100.4138,38.6097],
[100.8745,38.0288],
[101.2387,37.9643],
[101.2634,37.8352],
[101.5492,37.7707],
[101.7037,37.5773],
[102.0961,37.7707],
[102.094,37.5773],
[102.2485,37.3838],
[102.534,37.3193],
[102.6889,37.126],
[102.7151,37.1904],
[103.2078,37.0615],
[103.3627,36.8682],
[103.3107,36.7393],
[103.4402,36.6749],
[103.3886,36.546],
[103.5182,36.4816],
[103.467,36.3528],
[103.6756,36.0952],
[103.5999,35.902],
[103.6774,35.902],
[103.63,35.5802],
[103.7353,35.4514],
[103.4496,34.4863],
[103.5267,34.4863],
[103.3554,34.229],
[103.4928,33.9718],
[103.2326,33.4574],
[103.21,33.3931],
[104.6984,33.2645],
[105.1667,33.0716],
[105.703,33.0716],
[106.3487,33.5859],
[106.1891,33.7789],
[106.3854,34.1004],
[107.0777,34.1004],
[107.1263,34.229],
[106.9163,34.4863],
[107.0651,34.8723],
[106.7814,34.9366],
[106.8553,35.3227],
[106.7261,35.3871],
[106.777,35.5158],
[106.4157,35.5802],
[106.3895,35.7089],
[105.9244,35.902],
[106.1317,36.224],
[105.8749,36.546],
[105.9279,36.6749],
[105.748,36.8037],
[105.8555,37.0615],
[105.7032,37.2549],
[105.4694,37.2549],
[105.1612,37.4483],
[104.7712,37.4483],
[104.8258,37.5773],
[104.6971,37.6417],
[103.764,37.8352],
[103.6626,37.9643],
[103.8799,38.2869],
[103.7514,38.3515],
[103.8361,38.5451],
[104.1075,38.8034],
[103.6079,38.7389],
[103.6653,38.868],
[104.6676,39.5143],
[104.5704,39.6436],
[104.6312,39.7729],
[104.5523,39.7729],
[104.6135,39.9023],
[100.8949,39.7083],
[100.9241,39.7729],
[100.559,39.8376],
[100.5388,39.967],
[100.0945,40.0317],
[100.124,40.0964],
[99.3837,40.0317],
[99.2842,40.1612],
[98.9184,40.2259],
[98.9478,40.2906],
[98.5026,40.3554],
[98.4033,40.4849],
[98.3241,40.4849],
[98.2249,40.6144],
[97.9081,40.6144],
[97.8881,40.744],
[97.6007,40.8088],
[97.6305,40.8736],
[96.8966,41.0032],
[96.9264,41.068],
[95.2297,41.0032],
[93.9247,40.744],
[93.8455,40.744],
[93.5745,40.4849],
[93.3649,40.5496],
[93.2781,40.1612],
[93.199,40.1612],
[93.0905,39.9023]
]
],
[
[
[101.5734,24.9721],
[101.8109,24.2649],
[102.0855,24.1363],
[102.3249,23.8149],
[102.4742,23.8149],
[102.8521,23.4291],
[103.4256,23.3006],
[104.9046,23.2363],
[104.9561,23.1077],
[105.3634,23.3006],
[105.6896,23.0434],
[105.5063,22.8506],
[105.2084,22.8506],
[105.2379,22.5934],
[104.874,22.2077],
[105.128,21.9505],
[105.0956,21.7577],
[104.9255,21.6291],
[104.9785,21.5005],
[104.8513,21.1791],
[105.0956,20.8577],
[104.873,20.8577],
[104.9053,20.6005],
[104.6191,20.6648],
[104.4396,20.472],
[104.9806,20.1505],
[104.8648,19.8934],
[104.9921,19.7648],
[104.94,19.4434],
[105.014,19.4434],
[105.0152,18.9934],
[105.1423,18.8648],
[105.0373,18.6719],
[105.1851,18.6719],
[105.1438,18.4148],
[106.4163,17.129],
[106.3962,17.0005],
[106.5437,17.0005],
[106.5337,16.9362],
[106.9527,17.2576],
[106.9628,17.3219],
[106.7517,17.3862],
[106.7721,17.5148],
[106.5712,17.6433],
[106.5696,18.0933],
[106.2949,18.2219],
[106.1783,18.4148],
[106.0305,18.4148],
[106.0513,18.5434],
[105.7339,18.8648],
[105.9655,19.8291],
[106.5369,20.1505],
[106.6854,20.6005],
[106.8337,20.6005],
[106.9613,20.922],
[107.4174,20.9862],
[107.7903,21.4363],
[108.5552,21.5648],
[108.6517,21.6934],
[109.0864,21.6291],
[109.1162,21.372],
[109.807,21.5005],
[109.8701,21.4363],
[109.696,20.8577],
[109.7702,20.8577],
[109.7895,20.5362],
[109.9268,20.472],
[109.8829,20.2148],
[110.4869,20.2791],
[110.6163,20.6005],
[110.3638,20.8577],
[110.4825,21.1148],
[110.4194,21.1791],
[110.7164,21.1791],
[110.7389,21.3077],
[110.9842,21.4363],
[111.6641,21.5005],
[111.8585,21.7577],
[112.4415,21.6934],
[112.7736,21.8863],
[113.071,21.8863],
[113.1063,22.0791],
[113.3175,22.0148],
[113.4156,22.1434],
[113.6387,22.1434],
[113.6987,22.4648],
[113.5985,22.722],
[113.7474,22.722],
[113.7852,22.5291],
[113.9963,22.4648],
[113.9986,22.0791],
[114.3704,22.0791],
[114.5311,22.1434],
[114.6408,22.722],
[114.7527,22.5291],
[114.9016,22.5291],
[115.1744,22.7863],
[115.3729,22.6577],
[115.6706,22.6577],
[115.6956,22.7863],
[116.54,22.9148],
[116.5914,23.172],
[116.815,23.172],
[116.7796,23.3649],
[116.8939,23.5577],
[117.1788,23.4934],
[117.47,23.8149],
[117.6938,23.8149],
[117.7213,23.9435],
[118.0757,24.2006],
[118.1474,24.5221],
[118.7597,24.5864],
[118.8191,24.8435],
[119.0737,24.9721],
[119.0295,25.1007],
[119.3442,25.165],
[119.3911,25.3579],
[119.2731,25.4864],
[119.4229,25.4864],
[119.466,25.3579],
[119.8721,25.4864],
[119.9044,25.615],
[119.5299,25.615],
[119.7784,26.0008],
[119.587,26.1294],
[119.9381,26.3222],
[119.8399,26.5151],
[120.1577,26.5794],
[120.2108,26.7723],
[120.0606,26.7723],
[120.0964,26.9009],
[120.2467,26.9009],
[120.3947,27.158],
[120.545,27.158],
[120.7325,27.5438],
[120.6573,27.5438],
[120.7146,27.7367],
[120.8677,27.9938],
[121.0382,28.0581],
[121.118,28.3153],
[121.1934,28.3153],
[121.1533,28.1867],
[121.6459,28.3153],
[121.6521,28.5724],
[121.5218,28.6367],
[121.7143,28.7652],
[121.7443,29.0867],
[121.5389,29.1509],
[121.647,29.4723],
[121.5713,29.4723],
[121.7446,29.5366],
[121.7116,29.2152],
[121.9384,29.2152],
[122.016,29.6652],
[121.8645,29.6652],
[122.0298,29.9223],
[121.6202,30.0508],
[121.4841,30.3079],
[121.1047,30.3079],
[120.8088,30.1151],
[120.6798,30.1794],
[121.0453,30.565],
[121.1972,30.565],
[121.5192,30.822],
[121.8993,30.822],
[121.9953,31.0791],
[121.7366,31.4005],
[121.5843,31.4005],
[121.6335,31.529],
[121.4811,31.529],
[121.4544,31.6575],
[120.9191,31.8503],
[121.3005,31.8503],
[121.8356,31.6575],
[121.9368,31.7218],
[121.9613,31.9789],
[121.5033,32.1717],
[121.4026,32.4931],
[120.9192,32.6216],
[120.9263,33.2002],
[120.5505,33.5859],
[120.4894,34.1647],
[120.3418,34.3577],
[119.7323,34.5506],
[119.7113,34.6793],
[119.4309,34.7436],
[119.459,34.8079],
[119.2276,34.8079],
[119.6187,35.5158],
[119.9865,35.6445],
[120.3185,36.0308],
[120.6585,36.0952],
[120.7318,36.4172],
[120.9648,36.4172],
[120.9789,36.6105],
[121.2121,36.6105],
[121.9121,36.9326],
[122.3939,36.8037],
[122.5664,36.9971],
[122.4742,37.126],
[122.7129,37.4483],
[122.1211,37.5128],
[122.1535,37.5773],
[121.4969,37.5128],
[121.4833,37.6417],
[121.171,37.6417],
[121.112,37.8352],
[120.7538,37.8998],
[120.1881,37.7062],
[120.2022,37.5773],
[119.8266,37.4483],
[119.7011,37.1904],
[119.1557,37.1904],
[119.14,37.3193],
[118.984,37.3193],
[119.2366,37.8352],
[119.3928,37.8352],
[119.4571,37.9643],
[118.7718,38.1578],
[118.8042,38.2224],
[118.6476,38.2224],
[118.583,38.0933],
[118.0674,38.1578],
[118.0536,38.2869],
[117.7727,38.3515],
[117.7592,38.4806],
[117.6025,38.4806],
[117.6549,38.7389],
[117.5764,38.7389],
[117.776,39.1265],
[118.0457,39.1911],
[118.0569,39.0618],
[118.4498,39.0618],
[118.9894,39.1911],
[119.2153,39.3203],
[119.3804,39.7729],
[120.5003,40.2259],
[120.6473,40.4849],
[120.9967,40.6792],
[121.1098,40.8736],
[121.8237,40.8736],
[121.827,40.744],
[122.1061,40.6792],
[122.2306,40.4849],
[121.7765,39.967],
[121.5033,39.9023],
[121.4383,39.6436],
[121.2807,39.6436],
[121.2096,39.5143],
[121.2965,39.385],
[121.6901,39.385],
[121.5151,39.0618],
[121.2007,39.0618],
[121.0293,38.7389],
[121.4217,38.7389],
[121.7162,38.9972],
[121.9519,38.9972],
[122.1704,39.2557],
[122.936,39.6436],
[123.5974,39.8376],
[124.034,39.7729],
[124.3446,39.9023],
[124.5124,39.6436],
[124.8646,39.7083],
[124.8697,39.5789],
[125.3057,39.5143],
[125.39,39.385],
[125.0316,38.7389],
[125.1885,38.7389],
[125.1533,38.6743],
[124.9614,38.6097],
[124.7881,38.2869],
[124.8664,38.2869],
[124.7637,38.0933],
[125.0767,38.0933],
[124.8967,37.8998],
[125.2093,37.8998],
[125.2981,37.7707],
[125.231,37.6417],
[125.3871,37.6417],
[125.6783,37.8998],
[125.8347,37.8998],
[125.8449,37.7707],
[126.2695,37.8352],
[126.3477,37.8352],
[126.9374,38.3515],
[127.0229,38.9326],
[126.8541,39.1911],
[126.9645,39.385],
[126.7283,39.385],
[126.8323,39.8376],
[126.7095,40.0317],
[126.4317,40.0964],
[126.308,40.4201],
[126.1498,40.4201],
[125.9489,40.744],
[125.6711,40.8088],
[125.7104,40.8736],
[125.2345,40.8736],
[125.3133,41.0032],
[124.6778,41.1328],
[124.7174,41.1977],
[124.4392,41.2625],
[124.4789,41.3274],
[124.2404,41.3274],
[124.2802,41.3922],
[124.0018,41.4571],
[124.0417,41.522],
[123.5643,41.6518],
[123.6044,41.7167],
[123.3654,41.7167],
[123.4055,41.7816],
[123.1268,41.8465],
[123.167,41.9114],
[123.0872,41.9114],
[121.0213,41.2625],
[118.8713,41.3922],
[118.9093,41.4571],
[118.3903,41.522],
[118.4283,41.5869],
[117.8709,41.5869],
[117.746,41.7816],
[117.861,41.9764],
[117.7399,42.0413],
[117.7761,42.2362],
[117.4564,42.2362],
[117.2994,42.1063],
[115.9924,41.7816],
[114.8433,40.8736],
[114.764,40.8736],
[114.7721,40.744],
[114.9744,40.6792],
[114.4131,40.2259],
[114.6948,40.1612],
[114.9636,39.7729],
[114.8626,39.5789],
[114.9414,39.5789],
[114.5852,39.1911],
[114.192,39.1911],
[114.0947,38.9972],
[114.1733,38.9972],
[114.0451,38.7389],
[114.1385,38.6097],
[114.2953,38.6097],
[114.4358,38.416],
[114.3731,38.2869],
[114.4985,38.2224],
[114.1442,37.6417],
[113.9249,36.9971],
[114.0028,36.9971],
[113.9931,36.8037],
[114.3821,36.8037],
[114.353,36.7393],
[114.9459,36.6749],
[114.9168,36.6105],
[115.4609,36.6105],
[115.558,36.4816],
[115.3001,35.902],
[115.3775,35.902],
[115.3362,35.4514],
[114.8943,35.3227],
[114.7348,35.1297],
[114.442,34.615],
[114.5429,34.4863],
[114.4637,34.2933],
[112.6453,33.3931],
[111.7695,32.4931],
[111.2405,32.3002],
[110.1709,32.3002],
[109.9115,32.4288],
[109.8814,32.5574],
[109.5755,32.5574],
[108.9569,32.1074],
[108.823,31.7218],
[108.2597,30.9506],
[106.8705,29.4081],
[106.6649,28.9581],
[106.4956,28.8938],
[106.3354,28.3153],
[105.9726,27.8009],
[105.73,27.7367],
[105.3469,27.4152],
[105.1212,27.4152],
[104.2743,27.0295],
[103.3725,26.3865],
[102.5897,25.5507],
[102.0608,25.165],
[101.5862,25.0364],
[101.5734,24.9721]
]
],
[
[
[108.6382,18.5434],
[108.7646,18.4148],
[109.1233,18.3505],
[109.2497,18.2219],
[109.8406,18.2219],
[109.8622,18.3505],
[110.1794,18.4791],
[110.1903,18.5434],
[110.5078,18.6719],
[110.6806,19.2505],
[110.8507,19.3791],
[110.8839,19.5719],
[111.0319,19.5719],
[111.0874,19.8934],
[110.9095,20.1505],
[110.613,20.1505],
[110.591,20.022],
[110.1574,20.0862],
[109.2464,19.9577],
[109.2028,19.7005],
[108.7043,19.3791],
[108.6382,18.5434]
]
],
[
[
[121.9766,29.9865],
[122.2798,29.9865],
[122.2726,30.1794],
[122.045,30.1794],
[121.9766,29.9865]
]
]
]}
}
