{
"type": "Feature",
"properties": {"id":"cliopatria-dumnonia-0705","edge_precision":"unknown","cliopatria_name":"Dumnonia","cliopatria_from_year":705,"cliopatria_to_year":709,"cliopatria_area_km2":14349,"cliopatria_wikidata":"Q313136","cliopatria_wikipedia":"Dumnonia","cliopatria_seshat_id":"gb_brythonic_k","cliopatria_member_of":"(Brythonic Kingdoms)"},
"geometry": {"type": "MultiPolygon", "coordinates": [
[
[
[-5.7686,50.246],
[-5.7456,50.0465],
[-5.1511,49.98],
[-4.7679,50.3125],
[-4.1866,50.3791],
[-4.0887,50.246],
[-3.6687,50.246],
[-3.4432,50.5122],
[-3.4566,50.6455],
[-2.9577,50.7121],
[-2.8734,50.7121],
[-2.8993,50.9789],
[-3.0946,51.246],
[-3.1792,51.246],
[-4.2017,51.3128],
[-4.4264,51.0457],
[-4.6799,51.0457],
[-4.6578,50.8455],
[-4.8191,50.7788],
[-4.8812,50.5789],
[-5.1338,50.5789],
[-5.2796,50.3791],
[-5.7686,50.246]
]
]
]}
}
