{
"type": "Feature",
"properties": {"id":"cliopatria-kingdom-of-france-1415","edge_precision":"unknown","cliopatria_name":"Kingdom of France","cliopatria_from_year":1415,"cliopatria_to_year":1421,"cliopatria_area_km2":246640,"cliopatria_wikidata":"Q207162","cliopatria_wikipedia":"Kingdom of France","cliopatria_seshat_id":"fr_valois_k_1","cliopatria_member_of":"(Kingdom of France)"},
"geometry": {"type": "MultiPolygon", "coordinates": [
[
[
[-2.2105,47.0058],
[-2.1944,46.8086],
[-1.666,46.3489],
[-1.2518,46.2833],
[-1.2227,45.8898],
[-1.1411,45.8898],
[-1.2131,45.7588],
[-1.0406,45.6278],
[-1.0359,45.5623],
[-0.2808,45.235],
[0.0377,44.0591],
[0.2839,43.9938],
[0.9222,44.1243],
[0.948,43.6678],
[1.2773,43.5375],
[1.305,43.0165],
[1.8732,42.8864],
[1.7258,42.6262],
[1.729,42.5612],
[1.8091,42.5612],
[2.5178,42.8213],
[2.7497,43.0165],
[2.9905,43.0165],
[2.9877,43.0816],
[3.14,43.2769],
[3.6171,43.4072],
[3.8509,43.6027],
[4.173,43.6027],
[4.2583,43.4723],
[4.3388,43.4723],
[4.41,43.733],
[4.7301,43.7982],
[4.7234,43.9938],
[4.8042,43.9938],
[4.7975,44.1896],
[4.629,44.3854],
[4.9526,44.3854],
[5.0291,44.516],
[5.1932,44.4507],
[5.2803,44.2548],
[5.6864,44.1896],
[5.5959,44.516],
[6.3162,44.8426],
[6.3093,45.1042],
[6.1341,45.5623],
[5.6493,45.4313],
[5.478,45.6933],
[4.5811,45.6933],
[4.5933,45.3659],
[4.8398,45.3004],
[4.8468,45.1042],
[4.5242,45.0388],
[4.2678,45.3659],
[3.9423,45.3659],
[4.013,45.6278],
[3.9315,45.6278],
[3.9233,45.8243],
[3.6756,45.8898],
[3.6699,46.0209],
[3.3431,46.0209],
[3.349,45.8898],
[3.2674,45.8898],
[3.0131,46.0865],
[2.7711,46.0209],
[2.6011,46.1521],
[2.536,45.8243],
[2.3047,45.5623],
[2.4027,45.235],
[2.1688,45.0388],
[2.101,44.7773],
[1.7766,44.7773],
[1.3675,44.8426],
[1.1979,44.9734],
[1.1867,45.1696],
[0.7685,45.3659],
[0.9038,45.8243],
[0.9736,46.0209],
[1.2149,46.0865],
[1.2072,46.2177],
[0.9538,46.3489],
[0.9417,46.5459],
[1.5155,46.5459],
[2.3455,46.3489],
[2.4033,46.8086],
[2.896,46.8086],
[2.7048,47.3348],
[2.3682,47.4665],
[2.4293,47.8619],
[2.7634,47.7959],
[3.2494,47.9938],
[3.7548,47.7959],
[3.9142,47.9278],
[4.1735,47.6641],
[4.3386,47.6641],
[4.5783,47.8619],
[4.573,47.9938],
[4.8212,47.9938],
[5.249,47.5982],
[5.4966,47.5982],
[5.8224,47.73],
[5.8181,47.8619],
[5.6462,48.0597],
[5.4807,48.0597],
[5.4738,48.2578],
[5.2179,48.4559],
[4.8834,48.522],
[4.8653,48.9851],
[5.0267,49.1175],
[4.8574,49.1838],
[4.6743,49.5816],
[4.1757,49.5152],
[4.1697,49.6479],
[4.2534,49.6479],
[4.3283,49.8471],
[4.493,49.9136],
[4.4902,49.98],
[3.9872,49.98],
[3.8132,50.113],
[2.5544,50.113],
[2.0389,50.3125],
[1.401,49.7807],
[1.3173,49.7807],
[0.7358,49.7143],
[0.3363,49.4489],
[0.0022,49.4489],
[0.007,49.3826],
[-1.2508,49.4489],
[-1.3618,49.7807],
[-2.0316,49.7807],
[-1.9133,49.3826],
[-1.6517,49.25],
[-1.635,49.0513],
[-1.7183,49.0513],
[-1.6076,48.7204],
[-1.6022,48.6542],
[-1.5191,48.6542],
[-1.4976,48.3899],
[-1.2541,48.4559],
[-1.0881,48.4559],
[-1.0829,48.3899],
[-1,48.3899],
[-0.5804,48.3238],
[-0.0924,48.4559],
[-0.0001,48.3238],
[0.3361,48.2578],
[0.4368,47.9938],
[0.9247,48.1257],
[1.2763,47.7959],
[1.1977,47.73],
[1.2964,47.4665],
[0.7193,47.4665],
[0.4893,47.2032],
[0.5844,47.0058],
[0.3421,46.9401],
[-1.0499,46.8743],
[-1.3885,47.0058],
[-2.2105,47.0058]
],
[
[1.9524,44.516],
[2.3572,44.516],
[2.6718,44.7119],
[2.759,44.5813],
[3.002,44.5813],
[3.1698,44.4507],
[3.2649,44.1243],
[3.4292,44.0591],
[3.3567,43.8634],
[3.1204,43.733],
[2.8787,43.733],
[2.7892,43.9286],
[2.5471,43.9286],
[2.544,43.9938],
[2.4571,44.1243],
[1.9658,44.2548],
[1.9524,44.516]
]
],
[
[
[7.6953,44.8426],
[7.7011,44.516],
[7.8641,44.4507],
[7.9419,44.6466],
[7.9408,44.7119],
[7.8576,44.8426],
[7.6953,44.8426]
]
]
]}
}
