{
"type": "Feature",
"properties": {"id":"cliopatria-sena-dynasty-1111","edge_precision":"unknown","cliopatria_name":"Sena Dynasty","cliopatria_from_year":1111,"cliopatria_to_year":1138,"cliopatria_area_km2":256667,"cliopatria_wikidata":"Q2428714","cliopatria_wikipedia":"Sena Dynasty","cliopatria_seshat_id":"bd_sena_dyn"},
"geometry": {"type": "MultiPolygon", "coordinates": [
[
[
[85.547,22.529],
[85.715,22.458],
[85.728,22.465],
[86.8939,21.9661],
[87.259,21.524],
[87.46,21.532],
[87.982,21.829],
[88.067,21.804],
[88.036,21.633],
[88.538,21.533],
[89.35,21.683],
[89.526,21.947],
[89.474,21.717],
[89.593,21.691],
[90.025,21.966],
[90.107,21.804],
[90.289,21.871],
[90.368,21.761],
[90.848,21.868],
[90.964,22.109],
[90.989,22.009],
[91.153,22.088],
[91.146,22.432],
[91.343,22.457],
[91.447,22.352],
[91.386,22.502],
[91.546,22.35],
[91.58,22.48],
[91.435,22.692],
[91.587,22.659],
[91.761,23.072],
[91.713,23.345],
[91.436,23.425],
[91.357,23.939],
[91.675,24.02],
[91.943,23.943],
[91.866,24.342],
[92.097,25.022],
[92.371,24.941],
[92.5154,25.1582],
[92.4822,25.454],
[92.0325,25.8093],
[90.564,26.1008],
[90.2549,26.0855],
[89.642,26.129],
[89.537,25.999],
[89.332,25.996],
[89.066,26.385],
[88.724,26.321],
[88.53,26.571],
[88.115,26.602],
[86.926,24.799],
[86.686,23.947],
[86.455,23.58],
[85.874,23.55],
[85.578,22.786],
[85.547,22.529]
]
]
]}
}
