{
"type": "Feature",
"properties": {"id":"cliopatria-kingdom-of-champasak-1796","edge_precision":"unknown","cliopatria_name":"Kingdom of Champasak","cliopatria_from_year":1796,"cliopatria_to_year":1827,"cliopatria_area_km2":42179,"cliopatria_wikidata":"Q403369","cliopatria_wikipedia":"Champasak"},
"geometry": {"type": "MultiPolygon", "coordinates": [
[
[
[105.2592,14.1718],
[105.8958,13.9789],
[106.116,13.9789],
[106.0917,14.3646],
[106.4842,14.5575],
[106.6311,14.5575],
[106.8178,14.3004],
[107.5127,14.5575],
[107.6209,14.8147],
[107.5562,14.8789],
[107.5651,14.9432],
[107.6927,15.329],
[107.2976,15.6504],
[107.5016,16.0361],
[107.0248,16.2933],
[106.7302,16.2933],
[106.471,16.0361],
[106.186,16.1004],
[106.0104,15.9076],
[105.431,15.9718],
[105.4031,15.779],
[105.6789,15.6504],
[105.5157,15.0075],
[105.654,14.9432],
[105.6111,14.6218],
[105.2756,14.3004],
[105.2592,14.1718]
]
]
]}
}
