{
"type": "Feature",
"properties": {"id":"cliopatria-old-great-bulgaria-0656","edge_precision":"unknown","cliopatria_name":"Old Great Bulgaria","cliopatria_from_year":656,"cliopatria_to_year":673,"cliopatria_area_km2":301064,"cliopatria_wikidata":"Q191484","cliopatria_wikipedia":"Old Great Bulgaria"},
"geometry": {"type": "MultiPolygon", "coordinates": [
[
[
[28.2073,45.4968],
[28.5051,45.235],
[29.096,45.4313],
[29.5845,45.4313],
[29.6143,45.6933],
[29.8589,45.6933],
[30.045,45.8898],
[30.2977,45.9554],
[30.8766,46.6772],
[31.6064,46.6115],
[31.7875,46.7429],
[32.0337,46.7429],
[32.1891,46.6772],
[32.1631,46.4802],
[31.8354,46.4802],
[31.8183,46.3489],
[32.064,46.3489],
[32.6837,46.0865],
[32.8471,46.0865],
[32.9467,46.2177],
[33.5919,46.1521],
[33.6103,46.2833],
[34.0194,46.2833],
[34.0825,46.1521],
[34.7367,46.1521],
[34.756,46.2833],
[35.247,46.2833],
[35.6346,46.6772],
[36.8044,46.8086],
[36.9079,46.9401],
[37.2257,46.8743],
[37.1652,47.0058],
[37.5161,47.1374],
[38.6795,47.2032],
[39.1969,47.3348],
[39.2674,47.269],
[39.1265,46.9401],
[38.8915,47.0058],
[38.7863,46.8743],
[38.622,46.8743],
[38.4946,46.6115],
[37.8386,46.6115],
[37.8986,46.4802],
[38.3679,46.3489],
[38.3346,46.1521],
[37.8931,45.9554],
[37.8607,45.7588],
[37.6762,45.6278],
[37.7044,45.3004],
[36.9723,45.3004],
[36.9116,45.4313],
[36.7385,45.3659],
[36.8199,45.3659],
[36.7789,45.1042],
[37.256,45.0388],
[37.5285,44.7119],
[38.0149,44.7119],
[38.2153,44.4507],
[38.7601,44.3201],
[39.0617,44.1896],
[39.1207,44.0591],
[39.2014,44.0591],
[39.9376,44.5813],
[39.902,44.8426],
[40.0757,44.908],
[40.2262,45.3004],
[40.5408,45.6933],
[40.915,45.9554],
[41.32,46.8086],
[41.6043,47.0058],
[41.7376,47.269],
[42.3535,47.4665],
[43.0395,47.9938],
[43.2049,47.9938],
[43.6348,48.4559],
[43.5518,48.4559],
[42.4178,48.5881],
[42.4456,48.7204],
[42.2655,48.6542],
[41.9745,48.8527],
[41.4889,48.9189],
[41.3497,49.0513],
[41.0998,49.0513],
[40.1798,49.4489],
[40.1932,49.5152],
[39.9693,49.6479],
[39.5511,49.6479],
[39.494,49.7807],
[39.3266,49.7807],
[39.3666,49.98],
[39.1018,49.9136],
[38.8062,50.113],
[37.8959,50.1795],
[37.6313,50.113],
[37.6899,49.98],
[37.0772,49.3826],
[36.3745,49.1838],
[35.3481,48.522],
[35.2016,48.1257],
[35.1188,48.1257],
[35.1912,48.0597],
[35.0261,47.5323],
[34.7787,47.5323],
[34.6338,47.6641],
[34.2838,47.5323],
[33.624,47.5323],
[33.4781,47.6641],
[30.6715,47.6641],
[29.3196,47.4006],
[29.1243,47.1374],
[28.9598,47.1374],
[28.9225,46.8086],
[28.7583,46.8086],
[28.811,46.5459],
[28.6327,46.4145],
[28.7073,46.3489],
[28.6714,46.0209],
[28.5897,46.0209],
[28.6571,45.8898],
[28.2888,45.4968],
[28.2073,45.4968]
]
],
[
[
[29.577,45.3659],
[29.6584,45.3659],
[29.6659,45.4313],
[29.5845,45.4313],
[29.577,45.3659]
]
],
[
[
[33.628,45.8243],
[33.8993,45.4313],
[34.0621,45.4313],
[34.2693,45.1696],
[34.4319,45.1696],
[34.7911,44.8426],
[34.8723,44.8426],
[35.2971,44.9734],
[35.4073,45.1696],
[35.7324,45.1696],
[35.8753,45.0388],
[36.3726,45.1042],
[36.4231,45.4313],
[35.0199,45.3004],
[34.9864,45.6278],
[34.7419,45.6278],
[34.5978,45.7588],
[34.6167,45.8898],
[34.3812,45.9554],
[34.3184,46.0865],
[33.737,46.0209],
[33.7096,45.8243],
[33.628,45.8243]
]
]
]}
}
