{
"type": "Feature",
"properties": {"id":"cliopatria-portuguese-colonies-1600","edge_precision":"unknown","cliopatria_name":"Portuguese Colonies","cliopatria_from_year":1600,"cliopatria_to_year":1635,"cliopatria_area_km2":1106,"cliopatria_wikidata":"Q200464","cliopatria_wikipedia":"Portuguese Empire","cliopatria_member_of":"(Portuguese Empire)"},
"geometry": {"type": "MultiPolygon", "coordinates": [
[
[
[72.8402,18.9934],
[72.9882,18.9934],
[73.076,19.1219],
[73.1038,19.3791],
[72.8748,19.3148],
[72.8402,18.9934]
]
],
[
[
[72.8907,20.1505],
[73.1802,20.0862],
[73.1941,20.2148],
[73.1199,20.2148],
[72.8907,20.1505]
]
]
]}
}
