{
"type": "Feature",
"properties": {"id":"cliopatria-hoysala-kingdom-1326","edge_precision":"unknown","cliopatria_name":"Hoysala Kingdom","cliopatria_from_year":1326,"cliopatria_to_year":1332,"cliopatria_area_km2":108029,"cliopatria_wikidata":"Q466581","cliopatria_wikipedia":"Hoysala Kingdom","cliopatria_seshat_id":"in_hoysala_k"},
"geometry": {"type": "MultiPolygon", "coordinates": [
[
[
[74.4576,14.1522],
[74.591,13.934],
[74.8141,12.822],
[75.2048,11.9894],
[75.619,12.057],
[75.959,11.949],
[76.608,11.654],
[77.047,11.609],
[77.311,11.697],
[77.933,12.681],
[77.871,12.885],
[78.185,13.599],
[78.128,14.179],
[77.265,14.243],
[76.9851,14.4345],
[76.7408,14.3617],
[76.5776,14.4264],
[76.476,14.5132],
[76.4747,14.6813],
[76.5874,14.8202],
[76.805,14.9038],
[76.9258,14.9747],
[76.935,15.238],
[76.718,15.449],
[76.199,15.307],
[75.867,15.011],
[75.237,14.796],
[74.905,14.452],
[74.4576,14.1522]
]
]
]}
}
