{
"type": "Feature",
"properties": {"id":"cliopatria-mali-empire-1236","edge_precision":"unknown","cliopatria_name":"Mali Empire","cliopatria_from_year":1236,"cliopatria_to_year":1240,"cliopatria_area_km2":973312,"cliopatria_wikidata":"Q184536","cliopatria_wikipedia":"Mali Empire"},
"geometry": {"type": "MultiPolygon", "coordinates": [
[
[
[-17.4542,14.6861],
[-17.2338,14.6861],
[-17.0076,14.4932],
[-16.7744,14.0432],
[-16.7675,13.7861],
[-16.6207,13.7861],
[-16.5439,13.6575],
[-16.539,13.4646],
[-16.8308,13.4003],
[-16.8229,13.0789],
[-15.2844,13.1432],
[-15.2801,12.9503],
[-14.9882,13.0146],
[-13.4433,12.7575],
[-13.5141,12.6289],
[-13.0744,12.6289],
[-12.9987,12.5003],
[-12.3348,12.2432],
[-11.1588,11.986],
[-11.0078,11.6646],
[-10.6417,11.6646],
[-10.4196,11.4717],
[-10.3426,11.1503],
[-10.1969,11.2146],
[-9.8209,10.186],
[-9.3057,9.7359],
[-8.7194,9.4788],
[-8.4271,9.4788],
[-8.2085,9.6074],
[-8.062,9.5431],
[-8.0627,9.6717],
[-7.6249,9.8002],
[-7.3348,10.186],
[-7.1886,10.186],
[-7.2625,10.3145],
[-6.9731,10.7645],
[-6.6902,11.9217],
[-6.3271,12.2432],
[-5.9615,12.3074],
[-6.036,12.436],
[-5.6723,12.6932],
[-5.6736,12.8217],
[-5.527,12.8217],
[-5.5284,12.9503],
[-5.3818,12.9503],
[-4.5828,13.6575],
[-4.3634,13.7218],
[-4.2929,13.9789],
[-4.0734,14.0432],
[-4.1484,14.1718],
[-3.8585,14.4932],
[-3.8626,14.8147],
[-3.6481,15.2647],
[-3.2848,15.5861],
[-3.2866,15.7147],
[-2.9196,15.779],
[-2.995,15.9076],
[-2.4815,16.0361],
[-1.5981,16.0361],
[-0.7106,15.6504],
[-0.4867,15.329],
[-0.3397,15.329],
[-0.4103,15.0075],
[-0.1157,14.9432],
[-0.0402,14.6861],
[0.1807,14.6218],
[0.2556,14.4289],
[1.2104,14.4289],
[1.6501,14.6218],
[1.7195,15.329],
[1.5711,15.5218],
[1.2656,16.8719],
[1.265,16.9362],
[0.9647,17.4505],
[0.4437,17.8362],
[-0.4449,18.0291],
[-3.3202,17.7719],
[-4.8637,17.4505],
[-7.303,17.6433],
[-8.9215,17.4505],
[-9.3659,17.5148],
[-9.6574,17.3862],
[-10.4671,17.3219],
[-10.9853,17.3862],
[-10.9815,17.2576],
[-11.3522,17.3219],
[-11.6433,17.1933],
[-12.9708,17.1933],
[-13.3353,17.0647],
[-13.7061,17.129],
[-13.7755,17.0005],
[-15.7615,16.8719],
[-16.2798,16.9362],
[-16.4868,16.5504],
[-16.6028,15.6504],
[-16.8109,15.2647],
[-17.0273,15.1361],
[-17.0232,15.0075],
[-17.3867,14.8789],
[-17.4542,14.6861]
]
],
[
[
[-10.0432,10.5074],
[-10.0426,10.4431],
[-9.9694,10.4431],
[-9.97,10.5074],
[-10.0432,10.5074]
]
],
[
[
[-6.3265,12.1789],
[-6.3259,12.1146],
[-6.2526,12.1146],
[-6.2532,12.1789],
[-6.3265,12.1789]
]
]
]}
}
