{
"type": "Feature",
"properties": {"id":"cliopatria-zaporozhian-cossacks-1662","edge_precision":"unknown","cliopatria_name":"Zaporozhian Cossacks","cliopatria_from_year":1662,"cliopatria_to_year":1669,"cliopatria_area_km2":121080,"cliopatria_wikidata":"Q1076173","cliopatria_wikipedia":"Zaporozhian Cossacks"},
"geometry": {"type": "MultiPolygon", "coordinates": [
[
[
[30.5398,47.9278],
[30.5889,47.6641],
[30.9022,47.5323],
[31.1582,47.5982],
[31.8743,47.4006],
[33.0095,47.269],
[33.1835,47.3348],
[33.7221,47.0716],
[33.8043,47.0716],
[34.08,47.269],
[34.1091,47.4665],
[34.3762,47.5982],
[35.0261,47.5323],
[35.0465,47.6641],
[35.5418,47.6641],
[35.9439,47.5982],
[35.9948,47.4006],
[36.7256,47.3348],
[36.951,47.2032],
[37.4559,47.269],
[37.5717,47.4665],
[37.8418,47.5982],
[38.4193,47.5982],
[38.3717,47.7959],
[38.4543,47.7959],
[38.5015,48.0597],
[39.2544,48.9851],
[38.505,48.9851],
[38.0298,49.1175],
[37.3512,49.0513],
[37.0297,49.1175],
[37.0534,49.25],
[36.97,49.25],
[36.9581,49.1838],
[36.5297,49.1175],
[35.8135,49.3163],
[35.1904,49.5816],
[35.2129,49.7143],
[35.0456,49.7143],
[35.1519,49.8471],
[34.9844,49.8471],
[34.4488,49.6479],
[33.1736,49.5152],
[32.8191,49.3826],
[32.7058,49.1838],
[31.6865,49.0513],
[31.5754,48.8527],
[31.3999,48.7865],
[30.7258,48.7204],
[30.6339,48.6542],
[30.5482,47.9938],
[30.5398,47.9278]
]
]
]}
}
