{
"type": "Feature",
"properties": {"id":"cliopatria-southern-liang-0397","edge_precision":"unknown","cliopatria_name":"Southern Liang","cliopatria_from_year":397,"cliopatria_to_year":409,"cliopatria_area_km2":31085,"cliopatria_wikidata":"Q1069868","cliopatria_wikipedia":"Liang dynasty"},
"geometry": {"type": "MultiPolygon", "coordinates": [
[
[
[101.6106,34.9366],
[102.1034,34.8079],
[101.9322,34.5506],
[102.2639,34.615],
[102.217,34.4863],
[103.0644,34.4863],
[103.0174,34.3577],
[103.2784,34.229],
[103.3554,34.229],
[103.5267,34.4863],
[103.4496,34.4863],
[103.7353,35.4514],
[103.658,35.4514],
[103.6826,35.5158],
[103.7047,35.7733],
[104.347,36.6105],
[102.8703,36.6105],
[102.8191,36.4816],
[102.9235,36.3528],
[102.7975,36.0308],
[102.6175,35.9664],
[102.5713,35.6445],
[102.2372,35.5802],
[102.2128,35.5158],
[102.0338,35.4514],
[102.1401,35.3227],
[101.9907,35.1297],
[101.6106,34.9366]
]
]
]}
}
