{
"type": "Feature",
"properties": {"id":"cliopatria-white-huns-0490","edge_precision":"unknown","cliopatria_name":"White Huns","cliopatria_from_year":490,"cliopatria_to_year":522,"cliopatria_area_km2":3300388,"cliopatria_wikidata":"Q41761342","cliopatria_wikipedia":"White Huns","cliopatria_seshat_id":"af_hephthalite_emp"},
"geometry": {"type": "MultiPolygon", "coordinates": [
[
[
[52.7135,40.4201],
[52.7226,40.0964],
[53.4985,40.0317],
[53.5449,39.5143],
[53.1375,39.4496],
[53.5176,39.385],
[53.9868,38.9972],
[53.8298,37.8352],
[53.9079,37.8352],
[53.9636,37.3193],
[54.0415,37.3193],
[54.6125,37.4483],
[54.7941,37.5773],
[54.8327,37.7707],
[55.1976,38.0288],
[56.3062,38.0933],
[56.5821,38.2869],
[56.8953,38.2869],
[57.1946,38.2224],
[57.5163,37.8998],
[57.9072,37.8998],
[58.3984,37.6417],
[59.165,37.5773],
[59.407,37.2549],
[59.9244,37.126],
[60.4356,36.6105],
[61.1988,36.546],
[61.2159,35.902],
[61.3436,35.7733],
[61.2628,35.3871],
[61.1855,35.3871],
[61.0539,34.7436],
[60.784,34.5506],
[60.8227,34.3577],
[60.5664,34.229],
[60.4915,33.8432],
[60.5684,33.8432],
[60.3817,33.2645],
[60.4584,33.2645],
[60.3049,32.4288],
[60.3813,32.4288],
[60.1937,30.4364],
[60.3455,30.4364],
[60.6077,30.1794],
[60.5873,30.0508],
[60.85,29.7937],
[61.0015,29.7937],
[60.9814,29.6652],
[61.4516,29.2795],
[61.4882,29.0224],
[61.7518,28.7652],
[61.6573,28.6367],
[61.7988,28.5724],
[61.78,28.4438],
[61.9876,28.3153],
[61.9691,28.1867],
[62.1768,28.0581],
[62.3484,27.6724],
[62.6228,27.4795],
[62.6051,27.3509],
[62.8132,27.2223],
[62.7958,27.0938],
[63.004,26.9652],
[63.1785,26.5794],
[63.5287,26.3865],
[63.3866,25.2293],
[63.4614,25.2293],
[63.6262,25.3579],
[64.225,25.3579],
[64.2845,25.2293],
[64.8006,25.165],
[64.8161,25.2936],
[66.0215,25.3579],
[66.3451,25.5507],
[66.6791,25.2293],
[66.632,24.8435],
[67.2147,24.7149],
[67.2514,24.3935],
[67.3261,24.3935],
[67.2891,24.072],
[67.4384,24.072],
[67.4911,23.8792],
[67.6331,23.8149],
[68.1554,23.8149],
[68.1265,23.5577],
[68.3502,23.5577],
[68.3359,23.4291],
[68.4779,23.3649],
[68.5288,23.3649],
[68.4175,23.5715],
[68.7373,23.8393],
[68.791,23.8572],
[69.8924,23.9816],
[70.055,24.1209],
[71.9063,24.0391],
[74.0028,23.5983],
[74.1671,24.2079],
[74.2716,24.3349],
[74.5715,24.3935],
[74.6058,24.6506],
[74.7728,24.7792],
[74.7608,25.2293],
[75.266,25.615],
[75.2852,25.7436],
[76.7019,26.6437],
[76.8521,26.6437],
[77.0453,26.9009],
[77.0178,27.6081],
[76.8265,27.8009],
[76.8498,27.9295],
[76.6472,28.0581],
[76.415,28.8295],
[76.3395,28.8295],
[76.3768,29.0224],
[76.2508,29.1509],
[76.2519,29.5366],
[76.1264,29.6652],
[76.2416,29.858],
[76.3007,30.5007],
[77.7311,31.7861],
[77.7462,31.8503],
[76.8912,32.1074],
[76.8453,32.236],
[76.6925,32.236],
[76.6467,32.3645],
[76.4939,32.3645],
[76.1119,32.6859],
[76.0975,32.943],
[75.9288,32.8788],
[75.6238,33.2002],
[75.4705,33.2002],
[75.399,33.8432],
[75.3222,33.8432],
[75.3752,34.3577],
[75.2982,34.3577],
[75.4413,34.615],
[75.2767,34.8723],
[75.3434,35.7089],
[75.1631,35.902],
[75.198,36.0308],
[75.0004,36.1596],
[74.8495,36.7393],
[74.7119,36.8037],
[74.7479,36.9326],
[74.6701,36.9326],
[74.7842,37.0615],
[74.5687,37.126],
[74.6832,37.2549],
[74.5273,37.2549],
[74.6604,37.4483],
[74.5414,37.5773],
[74.6161,37.8352],
[74.538,37.8352],
[74.6519,38.2224],
[74.8085,38.2224],
[74.9839,38.5451],
[75.9847,38.7389],
[76.6125,38.7389],
[77.2198,38.6743],
[77.3941,38.4806],
[77.4725,38.4806],
[78.025,38.7389],
[78.3363,39.4496],
[78.2576,39.4496],
[78.3642,40.2259],
[78.2851,40.2259],
[78.3883,40.744],
[78.2431,41.0032],
[78.2899,41.1328],
[78.0516,41.1328],
[78.0426,41.3274],
[77.7953,41.522],
[80.0285,42.3662],
[79.439,42.4962],
[79.4094,42.6262],
[79.2492,42.6262],
[79.0846,42.8213],
[77.9319,42.9515],
[75.87,43.0165],
[75.7414,42.8864],
[75.3404,42.8864],
[74.69,43.0816],
[74.3035,43.3421],
[74.0147,43.2118],
[72.499,43.0165],
[71.3753,43.0165],
[70.3857,43.4072],
[70.1538,43.6678],
[69.854,43.733],
[69.8411,43.9286],
[69.5765,43.8634],
[68.742,44.2548],
[67.6541,44.3854],
[67.6982,44.516],
[66.9477,44.4507],
[64.4804,44.5813],
[62.9012,44.9734],
[62.5562,45.1696],
[61.7021,45.3004],
[61.5823,44.908],
[61.0169,44.6466],
[60.7808,44.1243],
[60.6001,44.0591],
[60.5049,43.733],
[60.2872,43.5375],
[59.1235,43.4072],
[58.6329,43.6678],
[58.4175,43.4723],
[58.2566,43.4723],
[57.4649,41.3922],
[56.8274,40.744],
[54.3851,40.8088],
[53.4044,40.6792],
[53.4482,40.8736],
[53.3397,40.744],
[52.9433,40.744],
[52.9723,40.8736],
[52.893,40.8736],
[52.7927,40.4201],
[52.7135,40.4201]
],
[
[76.5098,42.3662],
[76.5263,42.6262],
[78.6586,42.7563],
[78.5835,42.5612],
[78.0358,42.1712],
[77.3726,42.1063],
[77.2927,42.1063],
[76.5098,42.3662]
]
]
]}
}
