{
"type": "Feature",
"properties": {"id":"cliopatria-habsburg-monarchy-1492","edge_precision":"unknown","cliopatria_name":"Habsburg Monarchy","cliopatria_from_year":1492,"cliopatria_to_year":1496,"cliopatria_area_km2":49895,"cliopatria_wikidata":"Q66504140","cliopatria_wikipedia":"Habsburg Austria","cliopatria_seshat_id":"at_habsburg_1","cliopatria_member_of":"(Habsburg Monarchy)"},
"geometry": {"type": "MultiPolygon", "coordinates": [
[
[
[2.0745,51.1124],
[2.0908,50.8455],
[2.4437,50.5789],
[2.7768,50.6455],
[3.1279,50.3791],
[3.296,50.3791],
[3.3733,50.5122],
[3.6323,50.3791],
[3.9686,50.3791],
[4.1428,50.246],
[4.1548,49.98],
[4.4064,49.98],
[4.4759,50.3125],
[4.7308,50.246],
[5.1659,49.8471],
[5.176,49.5816],
[5.2596,49.5816],
[5.3529,49.3163],
[5.6867,49.3163],
[5.6844,49.3826],
[5.5963,49.5152],
[5.6776,49.5816],
[6.0142,49.5152],
[6.0163,49.4489],
[5.8536,49.3163],
[5.858,49.1838],
[6.2729,49.25],
[6.3563,49.25],
[6.2649,49.5152],
[6.3465,49.5816],
[6.3405,49.7807],
[6.5861,49.98],
[6.5824,50.113],
[6.0747,50.246],
[6.4029,50.5122],
[6.0684,50.4457],
[6.0578,50.7788],
[5.9735,50.7788],
[5.8803,51.0457],
[5.7113,51.0457],
[5.7274,50.5789],
[5.9023,50.3791],
[5.4796,50.4457],
[5.2322,50.3125],
[5.059,50.4457],
[5.0486,50.7121],
[5.2171,50.7121],
[5.2839,51.1792],
[5.7845,51.3797],
[5.7799,51.5134],
[5.6056,51.6472],
[5.1761,51.7811],
[5.2508,52.0492],
[4.9954,52.0492],
[5.0699,52.3176],
[4.8965,52.3847],
[4.8909,52.5191],
[5.0618,52.5191],
[5.0564,52.6535],
[4.9709,52.6535],
[4.8713,52.99],
[4.7855,52.99],
[4.8628,53.1922],
[4.691,53.1922],
[4.6081,53.1248],
[4.7027,52.9227],
[4.5343,52.8554],
[4.4638,52.5191],
[4.2169,52.3176],
[4.2232,52.1833],
[3.974,52.0492],
[3.9805,51.9151],
[3.8104,51.9151],
[3.817,51.7811],
[3.6471,51.7811],
[3.7387,51.6472],
[3.3993,51.6472],
[3.4062,51.5134],
[3.7486,51.4465],
[3.1555,51.4465],
[2.5778,51.1792],
[2.2396,51.1792],
[2.0745,51.1124]
]
],
[
[
[3.9857,46.2833],
[4.0811,45.9554],
[4.3261,45.9554],
[4.4026,46.0865],
[4.2285,46.3489],
[3.9857,46.2833]
]
]
]}
}
