{
"type": "Feature",
"properties": {"id":"cliopatria-ava-kingdom-1487","edge_precision":"unknown","cliopatria_name":"Ava Kingdom","cliopatria_from_year":1487,"cliopatria_to_year":1501,"cliopatria_area_km2":173693,"cliopatria_wikidata":"Q2500952","cliopatria_wikipedia":"Kingdom of Ava","cliopatria_seshat_id":"mm_ava_k"},
"geometry": {"type": "MultiPolygon", "coordinates": [
[
[
[94.2642,21.8863],
[94.3386,21.8863],
[94.3272,20.7934],
[94.827,19.6362],
[96.4056,18.2862],
[96.3869,18.1576],
[96.5253,18.0933],
[96.4974,17.9005],
[97.1619,17.9005],
[97.1538,18.3505],
[96.8866,18.5434],
[97.2348,19.8934],
[97.4021,20.022],
[97.4597,20.4077],
[97.5339,20.4077],
[97.7618,22.8506],
[97.6338,22.9791],
[97.6122,23.3006],
[97.3043,23.6863],
[96.688,24.0077],
[96.2402,24.0077],
[95.2266,23.7506],
[94.8964,23.5577],
[94.5155,23.0434],
[94.371,22.5934],
[94.2642,21.8863]
]
]
]}
}
