{
"type": "Feature",
"properties": {"id":"cliopatria-kingdom-of-lithuania-1939","edge_precision":"unknown","cliopatria_name":"Kingdom of Lithuania","cliopatria_from_year":1939,"cliopatria_to_year":1939,"cliopatria_area_km2":59909,"cliopatria_wikidata":"Q1656775","cliopatria_wikipedia":"Kingdom of Lithuania"},
"geometry": {"type": "MultiPolygon", "coordinates": [
[
[
[20.9098,55.9766],
[20.9977,55.9766],
[20.9913,55.9082],
[21.2482,55.8398],
[21.2352,55.7031],
[21.6401,55.3618],
[22.4127,55.2255],
[22.3986,55.0892],
[22.573,55.0892],
[22.813,54.8851],
[22.7045,54.6811],
[22.6763,54.4095],
[23.1894,54.3417],
[23.499,54.0029],
[23.4698,53.7323],
[23.556,53.7323],
[23.6131,53.4621],
[23.8713,53.4621],
[24.2537,53.7999],
[24.4263,53.7999],
[24.5363,54.0029],
[24.7092,54.0029],
[24.7334,54.2061],
[25.1047,54.4095],
[25.2338,54.7491],
[25.608,54.9531],
[25.8693,54.9531],
[26.4078,55.7031],
[26.3391,55.8398],
[25.8309,55.9766],
[25.7615,56.1136],
[25.0665,56.1821],
[24.8286,56.3877],
[24.1065,56.2506],
[23.4176,56.3877],
[21.8302,56.3877],
[21.8232,56.3191],
[21.4707,56.3191],
[21.4639,56.2506],
[21.3758,56.2506],
[20.9162,56.0451],
[20.9098,55.9766]
]
]
]}
}
