{
"type": "Feature",
"properties": {"id":"cliopatria-belize-2024","edge_precision":"unknown","cliopatria_name":"Belize","cliopatria_from_year":2024,"cliopatria_to_year":2024,"cliopatria_area_km2":22823,"cliopatria_wikidata":"Q242","cliopatria_wikipedia":"Belize"},
"geometry": {"type": "MultiPolygon", "coordinates": [
[
[
[-89.168,17.7719],
[-89.034,17.3862],
[-89.1078,17.3862],
[-89.11,15.9076],
[-88.8156,15.9076],
[-88.8247,15.9718],
[-88.3092,16.4861],
[-88.2355,16.4861],
[-88.209,16.8076],
[-88.1353,16.8076],
[-88.1884,17.6433],
[-88.0273,18.0291],
[-88.0783,18.3505],
[-88.2364,18.4148],
[-88.2467,18.4791],
[-88.3945,18.4791],
[-88.7556,17.9648],
[-89.0509,17.9648],
[-89.168,17.7719]
]
]
]}
}
