{
"type": "Feature",
"properties": {"id":"cliopatria-roman-republic-207bce","edge_precision":"unknown","cliopatria_name":"Roman Republic","cliopatria_from_year":-206,"cliopatria_to_year":-204,"cliopatria_area_km2":399305,"cliopatria_wikidata":"Q175881","cliopatria_wikipedia":"Roman Republic","cliopatria_seshat_id":"it_roman_rep_2"},
"geometry": {"type": "MultiPolygon", "coordinates": [
[
[
[-2.9455,34.615],
[-2.7878,34.5506],
[-2.8543,34.3577],
[-2.4592,34.1647],
[-2.3823,34.1647],
[-1.693,34.229],
[-1.6097,34.1004],
[-1.5391,34.229],
[-1.3051,34.1647],
[-1.2374,34.3577],
[0.3026,34.3577],
[0.4513,34.4863],
[0.685,34.422],
[1.2938,34.615],
[2.4499,34.615],
[2.9205,34.3577],
[3.4557,34.4863],
[3.8427,34.422],
[4.4539,34.615],
[6.3037,34.615],
[6.2905,35.3227],
[6.3666,35.3871],
[6.3654,35.4514],
[6.5142,35.7733],
[7.2041,36.224],
[7.1191,36.6749],
[6.9603,36.8682],
[6.8047,36.8682],
[6.8035,36.9326],
[6.7257,36.9326],
[6.3404,36.7393],
[5.9516,36.7393],
[5.645,36.546],
[5.4103,36.6105],
[5.2581,36.4816],
[4.8663,36.6105],
[3.1565,36.6105],
[2.7724,36.4816],
[1.918,36.4816],
[1.913,36.6105],
[1.8353,36.6105],
[1.5296,36.4816],
[1.2162,36.546],
[0.9138,36.3528],
[0.678,36.4172],
[0.6837,36.2884],
[0.5313,36.224],
[0.4537,36.224],
[0.3877,35.9664],
[0.1581,35.902],
[0.0806,35.902],
[-0.1459,35.7733],
[-0.4587,35.8377],
[-0.53,35.7089],
[-0.9171,35.7089],
[-1.0655,35.5802],
[-1.2235,35.6445],
[-1.1365,35.4514],
[-1.3587,35.2584],
[-1.5906,35.2584],
[-1.6612,35.1297],
[-2.7425,35.1297],
[-2.809,34.9366],
[-2.8862,34.9366],
[-2.9455,34.615]
]
],
[
[
[-1.941,38.7389],
[-1.9371,38.6743],
[-1.6979,38.6097],
[-1.5968,38.2224],
[-1.1697,37.5773],
[-1.0916,37.5773],
[-0.7048,37.6417],
[-0.8035,38.0288],
[-0.6609,38.2869],
[0.0994,38.7389],
[-0.3137,39.1265],
[-0.3454,39.7083],
[-0.2019,39.967],
[0.1825,40.1612],
[0.2478,40.4201],
[0.475,40.6144],
[0.7093,40.6792],
[0.6958,40.9384],
[1.2384,41.1977],
[2.1066,41.3274],
[2.3336,41.5869],
[2.8856,41.7167],
[2.9545,41.9764],
[2.8747,41.9764],
[2.8692,42.1063],
[2.7123,42.0413],
[2.7179,41.9114],
[1.997,41.9764],
[1.422,42.3012],
[0.859,42.3662],
[0.7719,42.4962],
[0.2992,42.3662],
[0.1078,41.522],
[-0.0477,41.4571],
[-0.1844,41.068],
[-0.4189,41.0032],
[-0.4113,40.8736],
[-1.0106,40.2906],
[-1.0029,40.1612],
[-1.2321,40.0317],
[-1.2205,39.8376],
[-1.4493,39.7083],
[-1.3511,39.385],
[-1.4298,39.385],
[-1.5562,38.868],
[-1.941,38.7389]
]
],
[
[
[2.5313,34.4863],
[2.5334,34.422],
[2.6104,34.422],
[2.6083,34.4863],
[2.5313,34.4863]
]
],
[
[
[8.1546,40.9384],
[8.1595,40.5496],
[8.3187,40.4849],
[8.3209,40.2906],
[8.4,40.2906],
[8.3248,39.967],
[8.4834,39.9023],
[8.4089,39.5143],
[8.3301,39.5143],
[8.3332,39.2557],
[8.4118,39.2557],
[8.3362,38.9972],
[8.7303,38.868],
[8.9659,38.868],
[9.1204,39.1911],
[9.5926,39.1265],
[9.6686,39.6436],
[9.7474,39.6436],
[9.6653,40.2906],
[9.8232,40.3554],
[9.8217,40.744],
[9.5021,41.1977],
[9.1043,41.2625],
[9.0248,41.2625],
[8.552,40.8736],
[8.1546,40.9384]
]
],
[
[
[8.5346,42.4962],
[8.5388,42.1063],
[8.7005,41.9114],
[8.6227,41.7167],
[8.7821,41.7167],
[8.7839,41.522],
[9.1038,41.3274],
[9.2624,41.3922],
[9.4989,41.7816],
[9.4978,41.9764],
[9.5776,41.9764],
[9.5736,42.7563],
[9.4934,42.7563],
[9.4919,43.0165],
[9.2511,43.0165],
[9.1728,42.7563],
[8.7727,42.6912],
[8.5346,42.4962]
]
],
[
[
[10.1343,42.8864],
[10.2148,42.6912],
[10.4552,42.6912],
[10.4551,42.8864],
[10.1343,42.8864]
]
],
[
[
[10.2933,43.8634],
[10.5353,43.0816],
[11.0163,42.8213],
[11.0158,42.6262],
[11.176,42.6262],
[11.2552,42.4312],
[11.4152,42.4312],
[11.4945,42.3012],
[11.6548,42.3662],
[11.8128,42.1063],
[12.1317,42.0413],
[12.1305,41.9114],
[13,41.3274],
[13.7145,41.2625],
[13.7918,41.1328],
[13.9506,41.1328],
[14.1046,40.8736],
[14.4219,40.8736],
[14.4179,40.6792],
[14.8934,40.6792],
[14.9638,40.2906],
[15.4319,40.0317],
[15.7478,40.0317],
[15.6655,39.9023],
[16.2969,39.9023],
[16.3815,40.0964],
[16.5375,40.0317],
[16.6165,40.0317],
[16.7015,40.2259],
[16.6245,40.2906],
[16.8617,40.2906],
[16.945,40.4201],
[16.868,40.4849],
[17.0285,40.5496],
[17.3452,40.5496],
[17.4175,40.3554],
[17.8131,40.3554],
[18.1122,39.9023],
[18.3489,39.9023],
[18.4381,40.1612],
[17.9812,40.6144],
[17.5107,40.744],
[17.2027,41.0032],
[15.9439,41.3922],
[15.8738,41.7167],
[16.1149,41.7816],
[16.1189,41.9114],
[15.2414,41.9114],
[15.165,42.0413],
[14.924,41.9764],
[14.7659,42.0413],
[14.769,42.1712],
[14.6077,42.1063],
[14.3723,42.3012],
[14.2924,42.3012],
[13.9014,42.7563],
[13.9854,42.9515],
[13.7471,43.0816],
[13.6726,43.4072],
[13.3551,43.6678],
[13.0338,43.733],
[13.0356,43.8634],
[12.8734,43.7982],
[12.4739,44.1243],
[11.9079,44.0591],
[11.8258,43.8634],
[10.2933,43.8634]
]
],
[
[
[12.4905,37.7062],
[13.192,37.5773],
[13.5784,37.2549],
[14.2779,37.126],
[14.661,36.7393],
[15.0498,36.7393],
[15.2139,37.1904],
[15.0592,37.2549],
[15.0665,37.6417],
[15.3059,37.8998],
[15.3072,37.9643],
[15.3895,38.1578],
[15.6243,38.1578],
[15.6982,37.9643],
[15.8546,37.9643],
[15.8621,38.2869],
[14.0562,37.9643],
[13.6652,37.9643],
[13.3547,38.1578],
[13.1199,38.1578],
[13.0404,38.0288],
[12.6498,38.0933],
[12.4919,37.8998],
[12.4905,37.7062]
]
],
[
[
[14.3368,35.8377],
[14.5682,35.7733],
[14.5712,35.9664],
[14.4171,36.0308],
[14.3396,36.0308],
[14.3368,35.8377]
]
],
[
[
[16.7912,42.8864],
[17.1923,42.8864],
[17.1997,43.0816],
[17.1194,43.0816],
[16.7959,43.0165],
[16.7912,42.8864]
]
],
[
[
[19.2487,40.6144],
[19.4101,40.6792],
[19.5625,40.5496],
[19.5747,40.8088],
[19.8221,41.0032],
[19.676,41.2625],
[19.7717,41.5869],
[19.4564,41.6518],
[19.5297,41.522],
[19.4438,41.3922],
[19.5233,41.3922],
[19.4376,41.2625],
[19.4985,40.8736],
[19.4191,40.8736],
[19.4161,40.8088],
[19.2545,40.744],
[19.2487,40.6144]
]
],
[
[
[19.7578,39.6436],
[19.9125,39.5789],
[19.9214,39.7729],
[19.7637,39.7729],
[19.7578,39.6436]
]
],
[
[
[20.6127,37.7062],
[20.9221,37.6417],
[20.934,37.8998],
[20.6213,37.8998],
[20.6127,37.7062]
]
]
]}
}
