{
"type": "Feature",
"properties": {"id":"cliopatria-macedonian-empire-319bce","edge_precision":"unknown","cliopatria_name":"Macedonian Empire","cliopatria_from_year":-318,"cliopatria_to_year":-316,"cliopatria_area_km2":4801946,"cliopatria_wikidata":"Q83958","cliopatria_wikipedia":"Macedonia (ancient kingdom)","cliopatria_seshat_id":"gr_macedonian_emp","cliopatria_member_of":"(Macedonian Empire)"},
"geometry": {"type": "MultiPolygon", "coordinates": [
[
[
[21.9154,40.1612],
[22.2125,39.8376],
[22.6977,40.0317],
[22.7017,40.0964],
[22.5437,40.0964],
[22.5716,40.5496],
[22.6508,40.5496],
[22.6549,40.6144],
[22.1756,40.5496],
[21.9154,40.1612]
]
],
[
[
[22.8883,40.5496],
[22.9592,40.4201],
[23.6583,40.2259],
[23.7374,40.2259],
[23.7505,40.4201],
[23.8297,40.4201],
[23.8386,40.5496],
[23.7594,40.5496],
[23.7638,40.6144],
[23.6846,40.6144],
[23.6891,40.6792],
[22.8925,40.6144],
[22.8883,40.5496]
]
],
[
[
[25.3763,29.3438],
[25.5163,29.0867],
[25.8829,28.8295],
[26.1822,28.7652],
[26.252,28.6367],
[27.0676,28.3153],
[27.285,28.1224],
[27.2763,27.9295],
[27.4299,27.9938],
[27.792,27.6724],
[27.7109,27.5438],
[27.9367,27.5438],
[28.1537,27.3509],
[28.2702,26.5794],
[28.3453,26.5794],
[28.2437,25.9365],
[28.2886,25.165],
[28.5688,24.6506],
[29.6728,24.2006],
[29.9595,23.8792],
[30.1087,23.8792],
[30.104,23.7506],
[30.3952,23.5577],
[30.4627,23.3649],
[30.5372,23.3649],
[31.6705,23.7506],
[32.0409,23.6863],
[33.389,23.8149],
[33.6818,23.6863],
[33.7564,23.6863],
[35.108,23.8792],
[35.5526,23.8149],
[35.5588,23.9435],
[35.8541,23.8792],
[35.8604,24.0077],
[35.1455,24.6506],
[34.6076,25.8079],
[34.4613,25.8722],
[34.1972,26.5151],
[34.0507,26.5794],
[34.0731,26.9652],
[33.9266,27.0295],
[33.7992,27.4152],
[33.5851,27.6081],
[33.6089,27.9938],
[33.1053,28.3795],
[32.8361,28.8938],
[32.6892,28.9581],
[32.4416,29.7937],
[32.5261,29.9223],
[32.6733,29.858],
[32.7579,29.9865],
[32.9095,29.9865],
[32.9185,30.1151],
[33.838,30.2436],
[34.3029,30.3722],
[34.3886,30.5007],
[34.6114,30.4364],
[34.6214,30.565],
[35.3522,31.1434],
[35.499,31.0791],
[35.662,31.2076],
[36.4231,31.2076],
[36.3866,31.6575],
[36.6623,32.1717],
[36.5155,32.236],
[36.7507,32.3002],
[36.7168,32.7502],
[36.901,33.0716],
[37.0542,33.0716],
[37.0732,33.2645],
[37.5726,33.6502],
[37.7261,33.6502],
[37.7395,33.7789],
[37.9902,33.9718],
[39.1238,34.4863],
[39.2008,34.4863],
[39.1936,34.422],
[39.2706,34.422],
[39.2779,34.4863],
[40.2569,34.2933],
[40.4033,34.229],
[40.3115,34.1004],
[40.8499,34.1004],
[40.9117,33.9718],
[41.2116,33.9075],
[41.4886,33.6502],
[42.5783,33.1359],
[42.7085,32.943],
[43.1526,32.8145],
[43.3514,32.5574],
[43.4279,32.5574],
[43.9102,32.7502],
[44.2084,32.6859],
[44.2481,33.0073],
[44.4175,33.1359],
[44.5708,33.1359],
[44.6311,33.0073],
[45.099,33.0716],
[45.4654,32.943],
[45.8991,33.3288],
[46.0525,33.3288],
[46.0697,33.4574],
[45.8567,33.5859],
[45.8915,33.8432],
[45.9683,33.8432],
[45.9178,34.0361],
[46.1485,34.0361],
[46.71,33.6502],
[46.6748,33.3931],
[47.4151,33.2002],
[47.8217,32.8145],
[47.9748,32.8145],
[47.7098,31.9789],
[47.9813,31.7218],
[47.7957,31.4647],
[47.739,31.0148],
[48.1031,30.8863],
[48.0478,30.4364],
[48.2755,30.4364],
[48.4117,30.3079],
[48.3884,30.1151],
[48.6005,29.9865],
[48.6763,29.9865],
[48.9873,30.0508],
[48.9428,30.3079],
[49.5859,29.9865],
[49.989,30.1794],
[50.0648,30.1794],
[50.0567,30.1151],
[50.2363,29.7294],
[50.6513,29.4081],
[50.6203,29.1509],
[50.915,29.0867],
[50.809,28.8295],
[51.0281,28.7652],
[51.0662,28.4438],
[51.4532,27.8652],
[52.0486,27.8009],
[52.4787,27.6081],
[52.737,27.2223],
[53.4606,26.9652],
[53.6581,26.708],
[54.2589,26.708],
[54.2519,26.6437],
[54.8316,26.4508],
[55.2423,26.7723],
[55.5427,26.7723],
[55.3102,26.708],
[55.2889,26.5151],
[55.439,26.5151],
[55.6034,26.6437],
[56.0612,26.708],
[56.3086,26.9009],
[56.3236,27.0295],
[56.0981,27.0295],
[56.1884,27.158],
[56.7147,27.158],
[57.0524,26.8366],
[57.1148,26.0651],
[57.3795,25.7436],
[57.6792,25.7436],
[57.7402,25.615],
[57.958,25.5507],
[58.7817,25.5507],
[59.0602,25.3579],
[59.3596,25.3579],
[59.3666,25.4221],
[59.4415,25.4221],
[60.1011,25.2936],
[60.6321,25.3579],
[60.6178,25.2293],
[60.9171,25.2293],
[61.1274,25.1007],
[61.6582,25.165],
[61.7187,25.0364],
[62.0179,25.0364],
[62.182,25.165],
[62.4739,25.1007],
[62.5634,25.2293],
[63.5362,25.2293],
[63.6262,25.3579],
[64.225,25.3579],
[64.3594,25.2293],
[64.509,25.2293],
[64.8006,25.165],
[64.8161,25.2936],
[66.0215,25.3579],
[66.2703,25.5507],
[66.4868,25.4864],
[66.5454,25.3579],
[66.6203,25.3579],
[66.6123,25.2936],
[66.632,24.8435],
[67.2147,24.7149],
[67.2514,24.3935],
[67.3261,24.3935],
[67.2891,24.072],
[67.4384,24.072],
[67.4911,23.8792],
[67.6331,23.8149],
[68.1554,23.8149],
[68.1265,23.5577],
[68.4248,23.5577],
[68.5957,23.7506],
[68.6703,23.7506],
[68.6776,23.8149],
[68.7522,23.8149],
[68.7596,23.8792],
[68.8342,23.8792],
[68.8417,23.9435],
[68.767,23.9435],
[68.8047,24.2649],
[68.9972,26.3222],
[69.203,26.708],
[69.532,26.9009],
[69.8465,27.4795],
[70.0071,27.5438],
[70.3918,28.0581],
[70.5425,28.0581],
[70.7367,27.8652],
[70.7157,27.7367],
[71.6406,27.8652],
[71.8882,27.9938],
[72.3885,28.701],
[72.9878,29.0867],
[73.4129,29.7294],
[73.3623,29.858],
[73.9441,30.1151],
[74.135,30.3079],
[74.7062,30.5007],
[74.7197,30.565],
[74.8364,30.7578],
[74.6011,31.0791],
[74.6712,31.4005],
[74.5614,31.5933],
[74.6333,31.9146],
[74.8915,32.0431],
[75.0569,32.4288],
[75.3164,32.5574],
[75.5205,33.7146],
[75.4437,33.7146],
[75.5081,33.9718],
[75.4313,33.9718],
[75.4247,34.5506],
[75.5018,34.5506],
[75.3204,34.7436],
[75.3874,35.001],
[75.2234,35.2584],
[75.2574,35.3871],
[75.1801,35.3871],
[75.1972,35.4514],
[74.958,36.2884],
[74.8804,36.2884],
[74.8914,36.6105],
[74.8137,36.6105],
[74.8439,36.9971],
[75.0134,37.3193],
[74.7384,37.4483],
[74.1924,37.4483],
[73.766,37.3193],
[73.7426,37.5128],
[73.1602,37.3838],
[72.6322,37.4483],
[72.5542,37.4483],
[72.1396,37.6417],
[72.0975,37.7707],
[71.9412,37.7707],
[71.779,38.0288],
[71.364,38.2224],
[71.2021,38.4806],
[70.8886,38.4806],
[70.9069,38.5451],
[70.5933,38.5451],
[70.63,38.6743],
[70.3581,38.5451],
[70.3162,38.6743],
[69.5679,38.8034],
[69.4053,39.0618],
[69.5208,39.1911],
[69.3635,39.1911],
[69.3592,39.4496],
[69.2805,39.4496],
[69.4157,39.6436],
[69.3559,39.7083],
[69.277,39.7083],
[69.3342,39.9023],
[69.8856,40.1612],
[69.846,40.2906],
[70.7377,40.6144],
[70.7786,40.744],
[70.6405,40.8088],
[70.6817,40.9384],
[70.5643,41.068],
[69.8072,40.6792],
[69.6097,40.8088],
[69.2725,40.744],
[69.1931,40.4849],
[69.2722,40.4849],
[69.2729,40.2259],
[69.0357,40.2259],
[68.997,40.0964],
[68.6239,39.9023],
[68.5301,39.5789],
[66.2199,39.7729],
[65.5638,39.967],
[65.2301,39.9023],
[64.9322,39.967],
[64.8889,40.0964],
[63.4669,40.0964],
[62.8795,39.967],
[62.5018,40.0317],
[60.9495,39.5143],
[60.6504,39.5789],
[60.6184,39.4496],
[60.2562,39.2557],
[58.627,38.6743],
[57.55,38.416],
[56.6742,38.3515],
[56.2279,38.0933],
[55.2891,38.0933],
[54.8456,37.8352],
[54.7033,37.5128],
[53.976,37.3838],
[54.0947,37.1904],
[54.0333,36.8682],
[53.0877,36.8037],
[52.1859,36.546],
[52.0305,36.546],
[50.8207,36.7393],
[50.532,36.8682],
[50.6323,36.9971],
[50.5657,37.0615],
[50.3209,36.9971],
[49.9988,37.3838],
[49.0182,37.5773],
[49.0293,37.6417],
[48.8285,37.8352],
[48.8736,38.0933],
[48.326,38.0933],
[47.2516,38.6743],
[46.1209,38.4806],
[45.8539,38.2869],
[45.6349,37.8998],
[45.2238,37.7707],
[45.1737,37.4483],
[45.2517,37.4483],
[45.29,37.1904],
[45.4458,37.1904],
[45.2509,36.9326],
[44.8713,36.9971],
[44.7446,37.1904],
[44.7738,37.3838],
[44.4131,37.5773],
[43.9448,37.5773],
[42.5082,37.8998],
[41.961,37.8998],
[41.6666,38.0288],
[40.5805,38.0933],
[40.5983,38.2224],
[40.4507,38.2869],
[39.45,38.416],
[38.7525,39.0618],
[38.6739,39.0618],
[38.3768,39.1911],
[38.473,39.3203],
[36.9326,39.5789],
[36.074,39.6436],
[34.7896,39.4496],
[34.4341,39.7729],
[34.3552,39.7729],
[34.3629,39.8376],
[34.284,39.8376],
[34.3307,40.2259],
[34.4098,40.2259],
[34.4496,40.5496],
[34.3705,40.5496],
[34.348,41.0032],
[33.4513,40.8088],
[32.9039,40.8736],
[32.8093,40.744],
[32.1974,40.9384],
[32.118,40.9384],
[31.714,40.8736],
[31.196,40.4849],
[30.8862,40.5496],
[30.807,40.5496],
[29.4801,40.744],
[29.4008,40.744],
[28.9127,40.6144],
[28.9004,40.4849],
[29.0463,40.3554],
[27.9388,40.3554],
[27.9505,40.4849],
[27.7921,40.4849],
[27.6958,40.2906],
[27.5376,40.2906],
[27.4698,40.4201],
[26.7522,40.3554],
[26.6731,40.3554],
[26.2568,40.0964],
[26.2516,40.0317],
[26.1325,39.5143],
[26.8466,39.5789],
[26.7422,39.2557],
[26.8209,39.2557],
[26.8158,39.1911],
[26.9579,38.9972],
[26.8495,38.6097],
[27.0798,38.5451],
[27.065,38.3515],
[26.595,38.3515],
[26.5358,38.6097],
[26.3837,38.6743],
[26.4289,38.2224],
[26.8203,38.2224],
[26.889,38.0933],
[27.2753,38.0288],
[27.1874,37.8998],
[27.1777,37.7707],
[27.2559,37.7707],
[27.1634,37.5773],
[27.31,37.4483],
[27.2225,37.3193],
[27.5392,37.3838],
[27.598,37.126],
[28.1383,37.0615],
[28.0314,36.6749],
[28.4349,36.8682],
[28.5127,36.8682],
[29.1198,36.6749],
[29.1097,36.546],
[29.2549,36.4172],
[29.1722,36.3528],
[29.2397,36.224],
[29.938,36.224],
[30.0261,36.3528],
[30.4919,36.3528],
[30.6191,36.9326],
[31.3916,36.8682],
[31.763,36.6749],
[31.9185,36.6749],
[32.4985,36.224],
[32.5583,36.0308],
[32.7134,36.0308],
[33.2744,36.224],
[33.9791,36.2884],
[34.2507,36.6749],
[34.5816,36.8682],
[34.8929,36.8682],
[34.9504,36.6749],
[35.1127,36.7393],
[35.4877,36.6105],
[35.8336,36.9326],
[36.1449,36.9326],
[36.2862,36.8037],
[36.2649,36.6105],
[35.8417,36.2884],
[35.9194,36.2884],
[35.9125,36.224],
[35.9901,36.224],
[35.8449,35.5802],
[35.9929,35.5158],
[35.8825,35.194],
[35.9597,35.194],
[35.927,34.8723],
[36.0682,34.7436],
[36.0488,34.5506],
[35.7921,34.2933],
[35.6445,34.3577],
[35.6838,33.9718],
[35.447,33.9075],
[35.4993,33.6502],
[35.3458,33.6502],
[35.3984,33.3931],
[35.2154,33.0716],
[35.0563,33.0073],
[35.0218,32.6216],
[34.7698,32.3645],
[34.813,31.9789],
[34.5733,31.8503],
[34.6334,31.6575],
[34.3076,31.4005],
[34.2972,31.2719],
[33.7493,31.0791],
[32.8317,31.0148],
[32.7652,31.1434],
[32.5322,31.0791],
[32.2372,31.2076],
[32.3039,31.0791],
[31.9996,31.0791],
[31.9374,31.2719],
[31.7806,31.2076],
[31.8752,31.4647],
[31.2658,31.4647],
[31.118,31.529],
[31.2033,31.6575],
[30.9746,31.6575],
[30.9656,31.529],
[30.8088,31.4647],
[30.3517,31.4647],
[30.2712,31.4005],
[30.3388,31.2719],
[29.882,31.2719],
[29.8018,31.2076],
[29.8696,31.0791],
[29.6332,30.9506],
[29.4851,31.0148],
[29.3971,30.822],
[28.865,30.822],
[28.4964,31.0148],
[27.5149,31.1434],
[27.1488,31.4005],
[26.3179,31.529],
[25.478,29.9223],
[25.3763,29.3438]
],
[
[31.5884,37.3193],
[31.6004,37.4483],
[31.6784,37.4483],
[31.6664,37.3193],
[31.5884,37.3193]
],
[
[53.5278,31.5933],
[53.5374,31.6575],
[53.6136,31.6575],
[53.604,31.5933],
[53.5278,31.5933]
],
[
[53.6516,31.4005],
[53.6611,31.4647],
[53.7373,31.4647],
[53.7278,31.4005],
[53.6516,31.4005]
],
[
[73.4517,35.5802],
[73.8555,35.6445],
[73.5291,35.5802],
[73.4517,35.5802]
],
[
[73.4517,35.5802],
[73.4853,35.7089],
[73.4685,35.6445],
[73.4517,35.5802]
],
[
[73.5897,35.5158],
[73.6023,35.5641],
[73.8218,35.5158],
[73.5897,35.5158]
]
],
[
[
[38.6826,39.1265],
[38.7613,39.1265],
[38.7701,39.1911],
[38.6914,39.1911],
[38.6826,39.1265]
]
],
[
[
[70.3404,40.3554],
[70.4195,40.3554],
[70.4395,40.4201],
[70.3604,40.4201],
[70.3404,40.3554]
]
]
]}
}
