{
"type": "Feature",
"properties": {"id":"cliopatria-kingdom-of-lysimachus-284bce","edge_precision":"unknown","cliopatria_name":"Kingdom of Lysimachus","cliopatria_from_year":-283,"cliopatria_to_year":-282,"cliopatria_area_km2":488869,"cliopatria_wikidata":"Q32133","cliopatria_wikipedia":"Lysimachian Empire","cliopatria_seshat_id":"tr_lysimachus_k"},
"geometry": {"type": "MultiPolygon", "coordinates": [
[
[
[19.3338,40.744],
[19.7333,40.8088],
[20.1895,40.4201],
[20.4269,40.4201],
[20.4929,40.1612],
[20.8056,40.0964],
[20.9434,39.7083],
[21.2419,39.385],
[21.3206,39.385],
[21.6425,39.5143],
[21.5095,39.967],
[21.8253,39.967],
[21.9154,40.1612],
[22.2125,39.8376],
[22.6977,40.0317],
[22.7017,40.0964],
[22.5437,40.0964],
[22.6549,40.6144],
[22.8925,40.6144],
[22.8842,40.4849],
[23.2673,40.2906],
[23.7374,40.2259],
[23.8386,40.5496],
[23.6846,40.6144],
[23.698,40.8088],
[24.0106,40.744],
[24.3466,41.0032],
[25.8495,40.9384],
[26.0822,40.8736],
[26.1403,40.6144],
[26.6264,40.744],
[26.7795,40.6792],
[26.8422,40.4849],
[27.5275,41.068],
[29.1156,41.068],
[29.1028,40.9384],
[29.255,40.8736],
[29.3668,41.1977],
[28.9631,41.1328],
[28.9759,41.2625],
[28.3525,41.3922],
[28.2183,41.6518],
[28.0528,41.5869],
[27.937,42.0413],
[27.4949,42.4312],
[27.5135,42.6262],
[27.8466,42.7563],
[27.8049,43.1467],
[27.8982,43.2769],
[28.2264,43.3421],
[28.1592,43.4723],
[28.4811,43.4723],
[28.6163,43.9938],
[28.5356,43.9938],
[28.5769,44.3854],
[28.8407,44.5813],
[28.802,44.9734],
[29.0456,44.9734],
[29.0241,44.7773],
[29.1935,44.8426],
[29.2746,44.8426],
[29.6213,45.0388],
[29.6659,45.4313],
[29.1847,45.4968],
[28.7561,45.3004],
[28.4307,45.3004],
[28.275,45.3659],
[28.2888,45.4968],
[28.0513,45.5623],
[28.0376,45.4313],
[27.7867,45.3659],
[27.7666,45.1696],
[27.9224,45.1042],
[27.8888,44.7773],
[27.7266,44.7773],
[27.7067,44.5813],
[27.8687,44.5813],
[27.8488,44.3854],
[27.9297,44.3854],
[27.7481,44.1896],
[26.3682,44.1243],
[25.5205,43.6678],
[24.8062,43.7982],
[24.0754,43.733],
[23.9244,43.8634],
[23.5211,43.8634],
[23.582,43.6027],
[23.4209,43.6027],
[23.3307,43.4723],
[23.3967,43.2769],
[23.0705,43.2118],
[23.1414,43.0816],
[22.9808,43.0816],
[22.5526,42.6912],
[22.3968,42.7563],
[22.3036,42.5612],
[21.815,42.4312],
[21.8068,42.3012],
[21.4071,42.3012],
[21.3193,42.1712],
[21.0036,42.2362],
[20.7527,42.0413],
[20.194,42.0413],
[20.1073,41.9114],
[19.9545,42.0413],
[19.7084,41.9114],
[19.4723,41.9764],
[19.3862,41.8465],
[19.5424,41.7816],
[19.4501,41.522],
[19.5297,41.522],
[19.4438,41.3922],
[19.5233,41.3922],
[19.4376,41.2625],
[19.4985,40.8736],
[19.3338,40.744]
]
],
[
[
[22.6462,42.8864],
[22.7264,42.8864],
[22.7309,42.9515],
[22.6506,42.9515],
[22.6462,42.8864]
]
],
[
[
[22.7309,42.9515],
[22.8111,42.9515],
[22.8157,43.0165],
[22.7354,43.0165],
[22.7309,42.9515]
]
],
[
[
[22.8157,43.0165],
[22.8959,43.0165],
[22.9005,43.0816],
[22.8203,43.0816],
[22.8157,43.0165]
]
],
[
[
[26.1325,39.5143],
[26.8466,39.5789],
[26.7422,39.2557],
[26.8945,39.1911],
[26.8793,38.9972],
[26.9579,38.9972],
[26.8495,38.6097],
[27.0798,38.5451],
[27.065,38.3515],
[26.595,38.3515],
[26.4621,38.6743],
[26.3742,38.5451],
[26.4526,38.5451],
[26.4289,38.2224],
[26.8203,38.2224],
[26.889,38.0933],
[27.2753,38.0288],
[27.1777,37.7707],
[27.2559,37.7707],
[27.1634,37.5773],
[27.31,37.4483],
[27.2225,37.3193],
[27.5392,37.3838],
[27.598,37.126],
[28.0653,37.126],
[28.1383,37.0615],
[28.0314,36.6749],
[28.1869,36.6749],
[28.3571,36.8682],
[29.1249,36.7393],
[29.2397,36.224],
[29.938,36.224],
[30.0261,36.3528],
[30.4919,36.3528],
[30.6191,36.9326],
[31.3916,36.8682],
[31.763,36.6749],
[31.8407,36.6749],
[31.7384,37.2549],
[31.5944,37.3838],
[31.5164,37.3838],
[31.5224,37.4483],
[31.6004,37.4483],
[31.6185,37.6417],
[31.5299,38.3515],
[31.8817,38.7389],
[32.5029,38.6743],
[32.8439,38.9326],
[33.001,38.9326],
[33.2736,38.5451],
[33.5088,38.5451],
[33.6726,38.6097],
[33.7008,38.868],
[34.4787,38.8034],
[34.4934,38.9326],
[34.658,38.9972],
[34.688,39.2557],
[34.9471,39.4496],
[35.593,39.5789],
[35.5142,39.5789],
[34.8284,39.7729],
[34.5363,39.967],
[34.5999,40.4849],
[34.3785,40.6144],
[34.411,40.8736],
[34.2686,41.0032],
[34.4605,41.2625],
[34.3265,41.4571],
[34.474,41.9764],
[33.2771,41.9764],
[32.8621,41.8465],
[32.6308,41.9114],
[32.6947,41.7816],
[32.1934,41.5869],
[32.1137,41.5869],
[32.322,41.3274],
[32.3068,41.1977],
[32.1404,41.1328],
[32.118,40.9384],
[31.714,40.8736],
[31.196,40.4849],
[30.8862,40.5496],
[30.807,40.5496],
[29.4801,40.744],
[29.4008,40.744],
[28.9127,40.6144],
[28.9004,40.4849],
[29.0463,40.3554],
[27.9388,40.3554],
[27.9505,40.4849],
[27.7921,40.4849],
[27.6958,40.2906],
[27.5376,40.2906],
[27.4698,40.4201],
[26.6731,40.3554],
[26.6839,40.4849],
[26.6047,40.4849],
[26.2723,40.2906],
[26.2465,39.967],
[26.1675,39.967],
[26.1325,39.5143]
]
]
]}
}
