{
"type": "Feature",
"properties": {"id":"cliopatria-british-empire-1815","edge_precision":"unknown","cliopatria_name":"British Empire","cliopatria_from_year":1815,"cliopatria_to_year":1819,"cliopatria_area_km2":1775444,"cliopatria_wikidata":"Q8680","cliopatria_wikipedia":"British Empire","cliopatria_seshat_id":"gb_british_emp_1","cliopatria_member_of":"(British Empire)"},
"geometry": {"type": "MultiPolygon", "coordinates": [
[
[
[-125.043,54.2739],
[-124.6578,54.0029],
[-124.3862,54.0706],
[-124.7715,54.3417],
[-124.8582,54.3417],
[-125.043,54.2739]
]
],
[
[
[-124.1035,58.4587],
[-123.6756,58.181],
[-123.4012,58.2504],
[-123.8292,58.5282],
[-123.919,58.5282],
[-124.1035,58.4587]
]
],
[
[
[-124.033,46.2177],
[-124.0063,46.0865],
[-123.7349,45.9554],
[-123.6811,45.8898],
[-123.4082,45.9554],
[-123.7601,46.2833],
[-124.033,46.2177]
]
],
[
[
[-123.4139,45.5623],
[-123.1207,45.3004],
[-122.848,45.3659],
[-123.1411,45.6278],
[-123.2226,45.6278],
[-123.4139,45.5623]
]
],
[
[
[-123.125,55.3618],
[-122.7326,55.0892],
[-122.4594,55.1573],
[-122.8519,55.43],
[-122.9394,55.43],
[-123.125,55.3618]
]
],
[
[
[-121.7038,56.6623],
[-121.3012,56.3877],
[-121.0264,56.4563],
[-121.4292,56.7311],
[-121.5176,56.7311],
[-121.7038,56.6623]
]
],
[
[
[-120.8607,50.4457],
[-120.5281,50.1795],
[-120.2539,50.246],
[-120.5868,50.5122],
[-120.671,50.5122],
[-120.8607,50.4457]
]
],
[
[
[-120.4875,48.4559],
[-120.1774,48.1917],
[-119.9024,48.2578],
[-120.2127,48.522],
[-120.2957,48.522],
[-120.4875,48.4559]
]
],
[
[
[-118.5786,53.0574],
[-118.2207,52.7881],
[-117.9458,52.8554],
[-118.3039,53.1248],
[-118.3897,53.1248],
[-118.5786,53.0574]
]
],
[
[
[-117.9958,48.0597],
[-117.6936,47.7959],
[-117.4176,47.8619],
[-117.7199,48.1257],
[-117.8027,48.1257],
[-117.9958,48.0597]
]
],
[
[
[-117.3826,63.2634],
[-116.9188,62.9758],
[-116.6353,63.0477],
[-117.0992,63.3354],
[-117.1933,63.3354],
[-117.3826,63.2634]
]
],
[
[
[-117.0786,58.5977],
[-116.6669,58.3198],
[-116.3879,58.3892],
[-116.7996,58.6673],
[-116.8896,58.6673],
[-117.0786,58.5977]
]
],
[
[
[-115.5476,53.7999],
[-115.1883,53.5296],
[-114.9116,53.5971],
[-115.271,53.8676],
[-115.3573,53.8676],
[-115.5476,53.7999]
]
],
[
[
[-115.3853,47.5982],
[-115.0913,47.3348],
[-114.8143,47.4006],
[-115.1083,47.6641],
[-115.1909,47.6641],
[-115.3853,47.5982]
]
],
[
[
[-114.8363,52.6535],
[-114.4906,52.3847],
[-114.2138,52.4519],
[-114.5596,52.7208],
[-114.6452,52.7208],
[-114.8363,52.6535]
]
],
[
[
[-114.6823,62.6889],
[-114.3261,62.4027],
[-113.948,62.4742],
[-114.3975,62.7606],
[-114.6823,62.6889]
]
],
[
[
[-111.5543,55.8398],
[-111.1838,55.5665],
[-110.9037,55.6348],
[-111.2742,55.9082],
[-111.362,55.9082],
[-111.5543,55.8398]
]
],
[
[
[-111.0672,59.0155],
[-110.6666,58.7369],
[-110.3834,58.8065],
[-110.784,59.0853],
[-110.8744,59.0853],
[-111.0672,59.0155]
]
],
[
[
[-110.2489,54.2061],
[-110.0294,54.0706],
[-109.9632,54.0029],
[-109.4652,53.9352],
[-109.9692,54.2739],
[-110.2489,54.2061]
]
],
[
[
[-110.2008,52.4519],
[-109.8669,52.1833],
[-109.5877,52.2505],
[-109.9218,52.5191],
[-110.0072,52.5191],
[-110.2008,52.4519]
]
],
[
[
[-108.5516,55.9082],
[-108.1874,55.6348],
[-107.9055,55.7031],
[-108.2697,55.9766],
[-108.3576,55.9766],
[-108.5516,55.9082]
]
],
[
[
[-105.922,52.2505],
[-105.5989,51.9822],
[-105.3176,52.0492],
[-105.6408,52.3176],
[-105.7261,52.3176],
[-105.922,52.2505]
]
],
[
[
[-102.4248,51.0457],
[-102.1209,50.7788],
[-101.838,50.8455],
[-102.1421,51.1124],
[-102.2266,51.1124],
[-102.4248,51.0457]
]
],
[
[
[-101.5404,53.1922],
[-101.2172,52.9227],
[-100.9333,52.99],
[-101.2565,53.2596],
[-101.3424,53.2596],
[-101.5404,53.1922]
]
],
[
[
[-100.3681,50.3791],
[-100.0749,50.113],
[-99.7911,50.1795],
[-100.0844,50.4457],
[-100.1685,50.4457],
[-100.3681,50.3791]
]
],
[
[
[-99.92,49.9136],
[-99.6324,49.6479],
[-99.3483,49.7143],
[-99.6361,49.98],
[-99.7199,49.98],
[-99.92,49.9136]
]
],
[
[
[-97.5574,50.113],
[-97.2722,49.8471],
[-96.987,49.9136],
[-97.1209,49.98],
[-97.1712,50.0465],
[-97.5574,50.113]
]
],
[
[
[-97.0761,48.7865],
[-96.8039,48.522],
[-96.6379,48.522],
[-96.6848,48.5881],
[-96.4357,48.5881],
[-96.5772,48.7865],
[-97.0761,48.7865]
]
],
[
[
[-96.42,50.7121],
[-96.3685,50.6455],
[-96.2843,50.6455],
[-96.3357,50.7121],
[-96.42,50.7121]
]
],
[
[
[-96.2843,50.6455],
[-95.9962,50.3791],
[-95.7104,50.4457],
[-95.9986,50.7121],
[-96.0829,50.7121],
[-96.2843,50.6455]
]
],
[
[
[-93.8793,48.8527],
[-93.6495,48.522],
[-93.5665,48.522],
[-93.2425,48.6542],
[-93.5928,48.9189],
[-93.7593,48.9189],
[-93.7129,48.8527],
[-93.8793,48.8527]
]
],
[
[
[-89.7089,48.5881],
[-89.4511,48.3238],
[-89.2853,48.3238],
[-89.25,48.522],
[-89.0839,48.522],
[-89.1276,48.5881],
[-88.5859,48.522],
[-88.6729,48.6542],
[-89.3426,48.7865],
[-89.4258,48.7865],
[-89.7089,48.5881]
]
],
[
[
[-77.3486,46.4145],
[-77.1245,46.1521],
[-76.8328,46.2177],
[-77.0567,46.4802],
[-77.1386,46.4802],
[-77.3486,46.4145]
]
],
[
[
[71.4924,22.3363],
[71.5387,22.0791],
[71.9848,22.0791],
[72.0451,21.9505],
[72.3425,21.9505],
[72.378,22.272],
[72.5267,22.272],
[72.5444,21.7577],
[72.686,21.6934],
[72.7603,21.6934],
[72.7533,21.6291],
[72.5629,21.2434],
[72.8994,20.922],
[72.8442,20.4077],
[72.9183,20.4077],
[72.9252,20.472],
[72.9994,20.472],
[72.9924,20.4077],
[73.289,20.4077],
[73.4119,20.8577],
[73.5813,21.0505],
[73.7298,21.0505],
[74.2178,21.4363],
[74.2393,21.6291],
[74.0236,21.6934],
[73.9708,21.8863],
[73.8222,21.8863],
[73.9037,21.9505],
[73.873,22.3363],
[74.0366,22.4648],
[73.9026,22.5934],
[74.1334,22.6577],
[74.1559,22.8506],
[74.0222,22.9791],
[73.9477,22.9791],
[73.9553,23.0434],
[73.8808,23.0434],
[73.7035,23.4291],
[73.048,23.5577],
[72.7889,23.8792],
[72.5062,24.0077],
[72.0584,24.0077],
[72.0427,23.8792],
[71.7134,23.622],
[71.5642,23.622],
[71.5566,23.5577],
[71.7502,23.3006],
[71.7279,23.1077],
[72.1898,23.2363],
[72.2346,22.9791],
[72.6964,23.1077],
[72.6815,22.9791],
[73.1134,22.8506],
[73.1879,22.8506],
[73.1656,22.6577],
[72.0563,22.722],
[71.8257,22.6577],
[71.8114,22.5291],
[71.6625,22.5291],
[71.4924,22.3363]
]
],
[
[
[71.8617,21.6291],
[71.936,21.6291],
[71.9084,21.372],
[72.1985,21.3077],
[72.2054,21.372],
[72.2797,21.372],
[72.3214,21.7577],
[72.1798,21.822],
[72.1055,21.822],
[71.8755,21.7577],
[71.8617,21.6291]
]
],
[
[
[72.8402,18.9934],
[72.9142,18.9934],
[73.0899,19.2505],
[72.8679,19.2505],
[72.861,19.1862],
[72.8402,18.9934]
]
],
[
[
[73.5265,29.9223],
[73.5769,29.7937],
[73.7916,29.7294],
[73.6907,29.6009],
[73.7291,29.4081],
[74.4486,29.2152],
[75.0535,29.2152],
[75.1799,29.0867],
[75.4947,29.1509],
[75.7108,28.701],
[75.6866,28.5724],
[75.7621,28.5724],
[75.8016,28.3795],
[75.9525,28.3795],
[76.2068,28.1224],
[76.1372,27.7367],
[75.9753,27.6724],
[75.9415,27.4795],
[76.0697,27.3509],
[76.0793,26.9652],
[77.0344,26.8366],
[77.2168,26.5794],
[77.442,26.5794],
[77.4527,26.6437],
[77.5278,26.6437],
[77.7857,26.8366],
[78.2254,26.7723],
[78.3005,26.7723],
[78.7933,26.5794],
[79.0295,26.6437],
[79.3612,26.3865],
[79.5113,26.3865],
[79.5647,26.258],
[79.9933,26.1294],
[80.0576,26.0651],
[79.9615,25.9365],
[80.1114,25.9365],
[80.1009,25.8722],
[80.4756,25.8722],
[80.8188,25.6793],
[80.7472,25.2293],
[80.5876,25.165],
[80.6231,24.9078],
[80.211,24.6506],
[80.3884,24.3292],
[80.3701,24.2006],
[80.137,24.1363],
[80.1101,23.9435],
[80.6981,23.8792],
[81.2385,24.0077],
[81.9849,24.0077],
[82.0412,23.8792],
[82.6381,23.8792],
[82.8246,24.1363],
[83.1138,24.072],
[83.282,24.2006],
[83.6734,23.8149],
[83.655,23.6863],
[83.9912,23.4291],
[84.0031,22.9791],
[84.2177,22.9148],
[83.9994,22.4005],
[84.2055,22.272],
[84.5116,22.3363],
[85.1948,22.9791],
[85.4183,22.9791],
[85.7435,23.172],
[86.294,22.8506],
[86.5918,22.8506],
[86.5469,22.5291],
[86.6779,22.4005],
[85.9387,21.8863],
[85.5099,22.0148],
[85.4099,21.822],
[85.1784,21.7577],
[85.1688,21.1148],
[84.6327,20.9862],
[84.6162,20.8577],
[84.303,20.7291],
[84.3609,20.6005],
[84.2044,20.5362],
[84.1881,20.4077],
[84.7484,20.1505],
[84.3534,19.9577],
[84.1637,20.2148],
[83.727,20.2791],
[83.1197,19.5719],
[82.6675,19.5077],
[82.4693,19.7005],
[82.4853,19.8291],
[82.3371,19.8291],
[82.2128,20.022],
[81.9164,20.022],
[81.9006,19.8934],
[82.0408,19.8291],
[82.0859,18.9934],
[81.9065,18.7362],
[81.7586,18.7362],
[81.4745,18.2219],
[81.3113,18.0933],
[81.0897,18.0933],
[81.0389,18.2862],
[80.7588,18.4148],
[80.4355,18.8005],
[80.1397,18.8005],
[79.9332,18.9291],
[79.9053,19.3148],
[80.0024,19.5077],
[79.8034,19.7005],
[79.4408,19.7648],
[79.1901,20.1505],
[78.8861,20.0862],
[78.7681,20.3434],
[78.1974,20.5362],
[78.2124,20.6648],
[77.849,20.7291],
[77.2706,21.5005],
[76.7432,21.4363],
[76.1865,21.1148],
[75.8081,21.0505],
[75.6235,20.7291],
[75.0899,20.6005],
[74.846,20.4077],
[74.7435,20.1505],
[75.2336,19.8934],
[75.1021,19.3791],
[75.1762,19.3791],
[75.2,18.9291],
[74.971,18.8648],
[75.0761,18.4791],
[75.5052,18.3505],
[75.5648,18.2219],
[75.7865,18.2219],
[75.7484,18.5434],
[75.999,18.8005],
[76.1469,18.8005],
[76.3469,18.6076],
[76.3919,18.3505],
[76.9466,18.0291],
[76.9321,17.9005],
[76.7773,17.8362],
[76.8224,17.579],
[76.4393,17.4505],
[76.5656,17.2576],
[76.5376,17.0005],
[76.3284,16.4219],
[76.0873,16.229],
[76.1344,15.9718],
[75.6732,15.779],
[75.6539,15.5861],
[75.7275,15.5861],
[75.61,15.1361],
[75.7447,15.0075],
[76.1919,15.0718],
[76.0265,14.8789],
[75.9965,14.5575],
[76.0699,14.5575],
[76.0523,14.3646],
[76.1934,14.3004],
[75.792,13.9146],
[75.1773,13.5932],
[74.8377,13.9146],
[75.0298,14.4289],
[75.1825,14.4932],
[75.1446,14.8789],
[74.8809,15.2004],
[74.599,15.329],
[74.5194,15.2647],
[74.5506,14.8147],
[74.3126,14.6218],
[74.3068,14.5575],
[74.6636,13.5932],
[74.7477,12.8217],
[75.0647,12.1789],
[75.3385,11.9217],
[75.5849,11.2788],
[75.7268,11.2146],
[75.9021,10.5717],
[76.2338,10.0574],
[76.2214,9.8645],
[76.3635,9.8002],
[76.3553,9.6717],
[76.2092,9.6717],
[76.2622,9.3502],
[76.3353,9.3502],
[76.3313,9.2859],
[76.5888,8.7073],
[77.0008,8.2573],
[77.0739,8.2573],
[77.0702,8.193],
[77.2819,8.0645],
[77.5739,8.0645],
[78.1803,8.4502],
[78.2842,8.9645],
[78.5883,9.1574],
[78.9577,9.2216],
[78.9865,9.6717],
[79.2959,9.9288],
[79.3176,10.2502],
[79.9026,10.2502],
[79.8796,10.9574],
[79.8843,11.0217],
[79.6648,11.0217],
[79.679,11.2146],
[79.8985,11.2146],
[79.9033,11.2788],
[79.8301,11.2788],
[79.8844,11.986],
[80.1352,12.3717],
[80.1405,12.436],
[79.9992,12.5003],
[80.0152,12.6932],
[80.3138,12.7575],
[80.3414,13.0789],
[80.1325,13.2075],
[80.1495,13.4003],
[80.302,13.4646],
[80.3078,13.5289],
[80.161,13.5289],
[80.246,13.6575],
[80.2637,14.6218],
[80.0882,15.0718],
[80.376,15.7147],
[80.6106,15.8433],
[81.1188,15.779],
[81.3227,16.2933],
[82.0665,16.3576],
[82.3832,16.5504],
[82.4205,16.8719],
[82.3468,16.8719],
[82.4508,17.129],
[83.153,17.4505],
[83.5612,17.7719],
[83.6667,18.0291],
[84.0519,18.1576],
[84.3796,18.4148],
[84.7487,18.9934],
[85.4149,19.5719],
[85.374,19.8291],
[85.5221,19.8291],
[85.4972,19.6362],
[85.6453,19.6362],
[86.4194,19.8934],
[86.4362,20.022],
[86.8404,20.2791],
[86.7915,20.472],
[87.0309,20.6005],
[86.9589,21.1791],
[86.8847,21.1791],
[87.0675,21.4363],
[87.762,21.6291],
[88.1033,21.9505],
[88.1777,21.9505],
[88.1335,21.6291],
[88.3477,21.5648],
[88.3653,21.6934],
[88.5139,21.6934],
[88.6416,22.0791],
[88.716,22.0791],
[88.728,21.6291],
[89.0995,21.6291],
[89.1173,21.7577],
[89.7118,21.7577],
[89.8695,21.822],
[89.8966,22.0148],
[90.232,21.7577],
[90.4263,22.0791],
[90.6494,22.0791],
[90.631,21.9505],
[90.8632,22.0148],
[90.9378,22.5291],
[91.497,22.7863],
[91.3748,22.4648],
[91.7374,22.4005],
[91.7648,22.0791],
[91.8948,21.9505],
[91.8302,21.5005],
[92.1925,21.4363],
[92.378,21.6934],
[92.4719,22.3363],
[92.3614,22.5934],
[92.41,22.9148],
[92.3355,22.9148],
[92.4396,23.1077],
[92.3006,23.172],
[92.3851,23.2363],
[92.3611,23.5577],
[92.1579,23.6863],
[92.2951,24.072],
[92.2205,24.072],
[92.2525,24.2649],
[92.1139,24.3292],
[92.4493,24.9721],
[92.1846,25.165],
[90.3142,25.165],
[89.9628,25.2936],
[90.1192,25.7436],
[90.9433,25.7436],
[91.1801,25.8079],
[91.2917,26.0008],
[90.767,26.0008],
[90.6293,26.0651],
[90.7666,26.3865],
[89.9663,26.5151],
[89.8162,26.5151],
[89.1784,26.708],
[89.1033,26.708],
[89.1161,26.7723],
[88.603,26.8366],
[88.9326,27.3509],
[88.9459,27.4152],
[88.7954,27.4152],
[88.9519,27.8009],
[88.7813,28.0581],
[88.4798,28.0581],
[88.1371,27.8652],
[88.0402,27.0295],
[88.2148,26.7723],
[88.1649,26.5151],
[87.9903,26.3865],
[87.2399,26.3865],
[87.1141,26.5151],
[86.6516,26.4508],
[86.3126,26.6437],
[85.787,26.6437],
[85.7362,26.7723],
[85.2735,26.708],
[84.9972,26.8366],
[84.8836,27.0295],
[84.7333,27.0295],
[84.7579,27.158],
[84.4318,27.4152],
[83.291,27.3509],
[82.9395,27.4795],
[82.5377,27.7367],
[81.885,27.8652],
[81.1945,28.1867],
[80.957,28.5081],
[80.6811,28.6367],
[80.3036,28.6367],
[80.1031,28.7652],
[80.4707,29.7937],
[81.011,30.1794],
[80.8417,30.4364],
[80.2636,30.565],
[79.9724,30.9506],
[79.5922,30.9506],
[79.1645,31.4005],
[78.9971,31.3362],
[78.982,31.2719],
[79.1044,31.1434],
[78.7239,31.1434],
[78.5104,31.2076],
[78.3417,31.4647],
[78.052,31.529],
[77.9163,31.2719],
[77.2927,31.2076],
[77.2637,31.0791],
[77.387,30.9506],
[77.2824,30.822],
[77.2681,30.7578],
[77.1921,30.7578],
[77.2063,30.822],
[76.7362,30.7578],
[76.6266,30.9506],
[76.4745,30.9506],
[76.4887,31.0148],
[75.576,31.0148],
[75.39,31.2076],
[74.7812,31.2076],
[74.2285,30.7578],
[74.2015,30.6292],
[74.0496,30.6292],
[73.9205,30.3722],
[73.9441,30.1151],
[73.6279,30.0508],
[73.5265,29.9223]
],
[
[77.1084,28.5081],
[77.1454,28.701],
[77.3089,28.7652],
[77.435,28.6367],
[77.2593,28.5081],
[77.1084,28.5081]
],
[
[88.3239,22.4648],
[88.4166,22.5934],
[88.491,22.5934],
[88.4727,22.4648],
[88.3239,22.4648]
],
[
[88.3698,22.7863],
[88.4628,22.9148],
[88.5373,22.9148],
[88.6024,22.8506],
[88.3698,22.7863]
]
],
[
[
[79.6069,7.8716],
[79.7419,7.6787],
[79.7594,6.6501],
[79.9521,6.1358],
[80.2311,5.8787],
[80.6686,5.8787],
[81.3375,6.1358],
[81.8779,6.7144],
[81.9167,7.4216],
[81.7744,7.4859],
[81.6544,7.9359],
[81.4468,8.1288],
[81.3971,8.5145],
[81.255,8.5788],
[81.259,8.6431],
[80.987,8.9645],
[80.9952,9.0931],
[80.8532,9.1574],
[80.8615,9.2859],
[80.7195,9.3502],
[80.7279,9.4788],
[80.4398,9.5431],
[80.5214,9.6717],
[80.4526,9.7359],
[79.8764,9.8645],
[79.8636,9.6717],
[80.0786,9.6074],
[79.993,9.4145],
[80.0495,9.1574],
[79.8063,8.7716],
[79.764,8.0645],
[79.618,8.0645],
[79.6069,7.8716]
]
],
[
[
[83.1473,22.1434],
[83.2793,22.0148],
[83.5024,22.0148],
[83.6594,22.0791],
[83.6763,22.2077],
[83.7507,22.2077],
[83.7103,22.4648],
[83.487,22.4648],
[83.1725,22.3363],
[83.1473,22.1434]
]
],
[
[
[91.0304,22.1434],
[91.2628,22.2077],
[91.2166,22.4005],
[91.0677,22.4005],
[91.0584,22.3363],
[91.0304,22.1434]
]
]
]}
}
