{
"type": "Feature",
"properties": {"id":"cliopatria-principality-of-bulgaria-1912","edge_precision":"unknown","cliopatria_name":"Principality of Bulgaria","cliopatria_from_year":1912,"cliopatria_to_year":1912,"cliopatria_area_km2":153443,"cliopatria_wikidata":"Q815731","cliopatria_wikipedia":"Principality of Bulgaria"},
"geometry": {"type": "MultiPolygon", "coordinates": [
[
[
[22.0727,41.4571],
[22.2278,41.3922],
[22.2155,41.1977],
[22.6881,41.1328],
[22.9844,40.8088],
[23.8657,40.9384],
[23.9313,40.744],
[24.0106,40.744],
[24.3466,41.0032],
[25.3785,41.0032],
[26.0822,40.8736],
[26.1403,40.6144],
[26.6264,40.744],
[26.9214,40.4849],
[27.0172,40.6792],
[27.5275,41.068],
[28.0773,41.0032],
[28.432,41.3922],
[28.2792,41.4571],
[28.2183,41.6518],
[27.9794,41.6518],
[28.0043,41.9114],
[27.7835,42.1063],
[27.796,42.2362],
[27.4949,42.4312],
[27.5135,42.6262],
[27.8466,42.7563],
[27.8049,43.1467],
[27.8982,43.2769],
[28.2264,43.3421],
[28.1592,43.4723],
[28.4811,43.4723],
[28.5014,43.6678],
[28.5082,43.733],
[27.3376,44.1243],
[26.6106,44.1243],
[26.114,43.9938],
[25.8486,43.733],
[25.4343,43.6027],
[24.8814,43.733],
[24.1509,43.6678],
[23.6018,43.8634],
[22.9518,43.7982],
[22.8946,44.1243],
[22.6569,44.1896],
[22.4009,43.9938],
[22.374,43.6027],
[22.7582,43.3421],
[22.7491,43.2118],
[22.5839,43.1467],
[22.4681,42.6262],
[22.3036,42.5612],
[22.2907,42.3662],
[22.2107,42.3662],
[22.2864,42.3012],
[22.1812,41.9114],
[22.3323,41.7816],
[22.0809,41.5869],
[22.0727,41.4571]
],
[
[26.4603,41.5869],
[26.4716,41.7167],
[26.7164,41.7816],
[26.7788,41.5869],
[26.6992,41.5869],
[26.6082,41.4571],
[26.4603,41.5869]
]
]
]}
}
