{
"type": "Feature",
"properties": {"id":"cliopatria-communist-party-of-china-1949","edge_precision":"unknown","cliopatria_name":"Communist Party of China","cliopatria_from_year":1949,"cliopatria_to_year":1949,"cliopatria_area_km2":2785265,"cliopatria_wikidata":"Q17427","cliopatria_wikipedia":"Chinese Communist Party"},
"geometry": {"type": "MultiPolygon", "coordinates": [
[
[
[105.8118,41.9764],
[106.4086,41.1328],
[106.2905,40.744],
[107.0504,40.6792],
[107.0177,40.6144],
[107.1761,40.6144],
[107.1434,40.5496],
[107.3018,40.5496],
[107.2692,40.4849],
[107.4276,40.4849],
[107.395,40.4201],
[107.5533,40.4201],
[107.6467,40.2906],
[107.5337,39.9023],
[107.2504,39.6436],
[107.4416,39.385],
[107.647,39.3203],
[107.2858,38.5451],
[107.4916,38.4806],
[107.4083,37.7707],
[107.4864,37.7707],
[107.4235,37.4483],
[107.5015,37.4483],
[107.3902,37.1904],
[107.4681,37.1904],
[107.4828,36.6749],
[108.2026,36.3528],
[108.2266,36.224],
[108.3818,36.224],
[108.5344,36.0308],
[108.0776,34.1004],
[108.1546,34.1004],
[108.0813,33.9075],
[108.2392,33.7146],
[108.1911,33.5859],
[108.4501,33.4574],
[108.4791,33.3288],
[108.6325,33.3288],
[108.6617,33.2002],
[108.815,33.2002],
[108.8973,33.0073],
[109.0505,33.0073],
[109.0035,32.8788],
[109.4691,32.6859],
[109.4991,32.5574],
[109.8814,32.5574],
[109.9115,32.4288],
[110.5068,32.1717],
[110.6137,32.0431],
[110.5004,31.7218],
[110.9578,31.7218],
[111.3476,31.529],
[111.5951,31.1434],
[111.7473,31.1434],
[111.7794,31.0148],
[112.1702,30.822],
[112.594,30.9506],
[112.8324,30.7578],
[113.2665,30.6935],
[113.3319,30.4364],
[113.5596,30.4364],
[113.723,30.2436],
[113.8747,30.2436],
[114.2323,30.6292],
[114.6785,30.822],
[114.9602,30.7578],
[115.2078,30.3722],
[116.0427,30.3722],
[116.9134,30.6935],
[116.9587,30.822],
[117.6296,31.2076],
[118.5519,32.0431],
[118.9088,31.9789],
[118.9877,31.7861],
[120.1097,31.529],
[120.1373,31.4005],
[120.975,31.4005],
[120.8825,30.9506],
[121.4108,31.1434],
[121.4387,31.0148],
[121.6429,30.9506],
[121.5952,30.822],
[121.8993,30.822],
[121.9953,31.0791],
[121.7366,31.4005],
[121.5843,31.4005],
[121.9135,31.4647],
[121.9631,31.5933],
[121.8356,31.6575],
[121.9368,31.7218],
[121.9613,31.9789],
[121.5033,32.1717],
[121.4026,32.4931],
[120.9192,32.6216],
[120.9263,33.2002],
[120.5505,33.5859],
[120.4894,34.1647],
[120.3418,34.3577],
[119.7323,34.5506],
[119.7113,34.6793],
[119.4309,34.7436],
[119.459,34.8079],
[119.2276,34.8079],
[119.6187,35.5158],
[119.9865,35.6445],
[120.3185,36.0308],
[120.6585,36.0952],
[120.7318,36.4172],
[120.9648,36.4172],
[120.9789,36.6105],
[121.2121,36.6105],
[121.9121,36.9326],
[122.3939,36.8037],
[122.5664,36.9971],
[122.4742,37.126],
[122.7129,37.4483],
[122.1211,37.5128],
[122.1535,37.5773],
[121.4969,37.5128],
[121.4833,37.6417],
[121.171,37.6417],
[121.112,37.8352],
[120.7538,37.8998],
[120.1881,37.7062],
[120.2022,37.5773],
[119.8266,37.4483],
[119.7011,37.1904],
[119.1557,37.1904],
[119.14,37.3193],
[118.984,37.3193],
[119.2366,37.8352],
[119.3928,37.8352],
[119.4571,37.9643],
[118.7718,38.1578],
[118.8042,38.2224],
[118.6476,38.2224],
[118.583,38.0933],
[118.0674,38.1578],
[118.0536,38.2869],
[117.6025,38.4806],
[117.6549,38.7389],
[117.5764,38.7389],
[117.8884,39.1911],
[118.0457,39.1911],
[118.0569,39.0618],
[118.4498,39.0618],
[119.2153,39.3203],
[119.3804,39.7729],
[120.5003,40.2259],
[120.6473,40.4849],
[120.9967,40.6792],
[121.1098,40.8736],
[121.8237,40.8736],
[121.827,40.744],
[122.1061,40.6792],
[122.2306,40.4849],
[121.7765,39.967],
[121.5033,39.9023],
[121.4383,39.6436],
[121.2807,39.6436],
[121.2096,39.5143],
[121.2965,39.385],
[121.6901,39.385],
[121.5151,39.0618],
[121.2007,39.0618],
[121.0293,38.7389],
[121.4217,38.7389],
[121.7162,38.9972],
[121.9519,38.9972],
[122.1704,39.2557],
[122.936,39.6436],
[123.5974,39.8376],
[124.2286,39.8376],
[124.2657,39.9023],
[124.57,40.2906],
[126.1071,41.0032],
[126.833,41.7816],
[127.0722,41.7816],
[127.1075,41.5869],
[127.3848,41.522],
[127.3437,41.4571],
[128.0982,41.3922],
[128.3436,41.6518],
[128.2678,41.7816],
[128.1084,41.7816],
[128.1503,41.8465],
[127.9908,41.8465],
[128.0749,41.9764],
[128.8355,42.0413],
[129.1664,42.3012],
[129.6963,42.4962],
[129.8433,42.9515],
[130.084,42.9515],
[130.0397,42.8864],
[130.2001,42.8864],
[130.3002,42.5612],
[130.5404,42.5612],
[130.5484,42.6912],
[130.4683,42.6912],
[130.5567,42.8213],
[131.0022,42.8864],
[131.2716,43.2769],
[131.1561,43.3421],
[131.2794,43.8634],
[131.1641,43.9286],
[131.2217,44.1243],
[131.141,44.1243],
[131.2457,44.3854],
[131.0617,44.5813],
[131.0742,44.7119],
[130.912,44.7119],
[131.0527,44.908],
[131.3433,44.9734],
[131.6952,45.235],
[132.7378,45.1042],
[132.69,45.0388],
[132.9815,45.1042],
[133.9089,46.3489],
[133.827,46.3489],
[133.9268,46.4802],
[133.8448,46.4802],
[134.0456,46.7429],
[133.9635,46.7429],
[134.0645,46.8743],
[133.9824,46.8743],
[134.1859,47.1374],
[134.1036,47.1374],
[134.3608,47.4665],
[134.682,47.6641],
[134.5089,47.8619],
[134.6379,48.1257],
[134.4961,48.2578],
[134.5203,48.3899],
[134.1886,48.3899],
[133.5616,48.1257],
[133.0648,48.1257],
[132.123,47.6641],
[130.853,47.73],
[130.9038,47.7959],
[130.6243,47.8619],
[130.7361,48.3238],
[130.4995,48.6542],
[130.5748,48.8527],
[130.0453,48.9189],
[130.0984,48.9851],
[129.8184,49.0513],
[129.812,49.25],
[129.4485,49.3163],
[129.5023,49.3826],
[129.0848,49.3826],
[129.1386,49.4489],
[128.6911,49.5152],
[128.7451,49.5816],
[128.0226,49.5152],
[128.0762,49.5816],
[127.8254,49.5816],
[127.8791,49.6479],
[127.4848,49.7807],
[127.4799,49.98],
[127.3961,49.98],
[127.5054,50.113],
[127.3636,50.246],
[127.4188,50.3125],
[127.2508,50.3125],
[127.2776,50.4457],
[127.1935,50.4457],
[127.3052,50.5789],
[127.1648,50.7121],
[127.1935,50.8455],
[127.0248,50.8455],
[127.0265,51.0457],
[126.8576,51.0457],
[126.7797,51.4465],
[126.695,51.4465],
[126.7531,51.5134],
[126.6683,51.5134],
[126.7266,51.5803],
[126.6418,51.5803],
[126.7002,51.6472],
[126.6153,51.6472],
[126.6739,51.7142],
[126.589,51.7142],
[126.6477,51.7811],
[126.5627,51.7811],
[126.6216,51.8481],
[126.4516,51.8481],
[126.4077,52.1833],
[126.3225,52.1833],
[126.3823,52.2505],
[126.297,52.2505],
[126.3569,52.3176],
[126.2716,52.3176],
[126.3317,52.3847],
[126.2463,52.3847],
[126.3065,52.4519],
[126.0252,52.5191],
[126.0608,52.6535],
[125.8897,52.6535],
[125.901,52.8554],
[125.6194,52.9227],
[125.6561,53.0574],
[125.4846,53.0574],
[125.546,53.1248],
[124.4053,53.1922],
[124.4665,53.2596],
[124.1839,53.3271],
[124.2453,53.3946],
[123.7904,53.4621],
[123.8519,53.5296],
[121.897,53.4621],
[120.8576,53.2596],
[120.0768,52.8554],
[119.9036,52.6535],
[120.5301,52.5863],
[120.5006,52.4519],
[120.6706,52.2505],
[120.5571,52.1163],
[120.6709,52.0492],
[120.1919,51.7811],
[119.6457,51.1124],
[119.7303,51.1124],
[119.1509,50.3791],
[119.235,50.3791],
[119.2816,50.113],
[118.5429,49.9136],
[117.8274,49.5152],
[116.6848,49.7807],
[115.4226,47.9938],
[115.5881,47.9938],
[115.5814,47.8619],
[115.8674,47.7959],
[115.8229,47.73],
[116.16,47.8619],
[116.9865,47.8619],
[116.9414,47.7959],
[117.3093,47.73],
[117.7389,47.9938],
[118.4834,47.9938],
[118.4374,47.9278],
[118.6855,47.9278],
[118.6396,47.8619],
[119.0436,47.73],
[119.0347,47.5982],
[119.3191,47.5323],
[119.2736,47.4665],
[119.4754,47.4006],
[119.4671,47.269],
[119.7512,47.2032],
[119.7431,47.0716],
[119.9371,46.8743],
[119.8031,46.6772],
[119.2666,46.6115],
[119.3108,46.6772],
[119.0647,46.6772],
[119.109,46.7429],
[118.6166,46.7429],
[117.4191,46.5459],
[117.1258,46.3489],
[116.7164,46.3489],
[116.4673,46.2177],
[116.1297,45.6933],
[115.8832,45.5623],
[115.1889,45.3659],
[114.7417,45.4313],
[113.6859,44.7773],
[113.1182,44.7773],
[113.1581,44.8426],
[112.9148,44.8426],
[112.9547,44.908],
[112.3849,45.0388],
[112.4247,45.1042],
[112.0185,45.1042],
[111.7768,44.9734],
[111.385,44.3201],
[111.5468,44.3201],
[111.592,44.1243],
[111.7536,44.1243],
[111.9637,43.7982],
[111.8868,43.6678],
[110.8166,43.2118],
[110.2792,42.6912],
[109.3332,42.4312],
[107.8132,42.4312],
[106.8631,42.3012],
[105.8118,41.9764]
]
]
]}
}
