{
"type": "Feature",
"properties": {"id":"cliopatria-kingdom-of-gwent-0577","edge_precision":"unknown","cliopatria_name":"Kingdom of Gwent","cliopatria_from_year":577,"cliopatria_to_year":586,"cliopatria_area_km2":1420,"cliopatria_wikidata":"Q2594661","cliopatria_wikipedia":"Kingdom of Gwent","cliopatria_seshat_id":"gb_brythonic_k","cliopatria_member_of":"(Brythonic Kingdoms)"},
"geometry": {"type": "MultiPolygon", "coordinates": [
[
[
[-3.3184,51.7811],
[-3.3115,51.7142],
[-3.1214,51.5134],
[-2.7889,51.5803],
[-2.7955,51.6472],
[-2.5474,51.7142],
[-2.737,51.9151],
[-2.822,51.9151],
[-3.3184,51.7811]
]
]
]}
}
