{
"type": "Feature",
"properties": {"id":"cliopatria-achaean-league-231bce","edge_precision":"unknown","cliopatria_name":"Achaean League","cliopatria_from_year":-230,"cliopatria_to_year":-226,"cliopatria_area_km2":9033,"cliopatria_wikidata":"Q244796","cliopatria_wikipedia":"Achaean League"},
"geometry": {"type": "MultiPolygon", "coordinates": [
[
[
[21.3937,37.7062],
[21.4718,37.7062],
[21.4687,37.6417],
[21.5468,37.6417],
[21.5436,37.5773],
[21.6217,37.5773],
[21.6186,37.5128],
[22.0867,37.5128],
[22.2362,37.3838],
[22.572,37.8352],
[23.0409,37.8352],
[23.0445,37.8998],
[23.2008,37.8998],
[23.2901,38.0933],
[23.059,38.1578],
[22.9699,37.9643],
[22.6572,37.9643],
[22.5895,38.1578],
[22.4329,38.1578],
[22.4399,38.2869],
[22.2798,38.2224],
[22.2868,38.3515],
[22.1335,38.416],
[21.7417,38.416],
[21.7286,38.1578],
[21.4156,38.1578],
[21.4124,38.0933],
[21.6375,37.8998],
[21.6311,37.7707],
[21.3968,37.7707],
[21.3937,37.7062]
]
]
]}
}
