{
"type": "Feature",
"properties": {"id":"cliopatria-eastern-kara-khanids-1072","edge_precision":"unknown","cliopatria_name":"Eastern Kara-Khanids","cliopatria_from_year":1072,"cliopatria_to_year":1084,"cliopatria_area_km2":917185,"cliopatria_wikidata":"Q494354","cliopatria_wikipedia":"Kara-Khanid Khanate"},
"geometry": {"type": "MultiPolygon", "coordinates": [
[
[
[69.5369,43.2769],
[70.1132,43.0816],
[70.4178,42.5612],
[70.716,42.4962],
[70.7521,42.3662],
[71.0499,42.3012],
[71.086,42.1712],
[71.3257,42.1712],
[71.8764,41.9114],
[72.7662,41.0032],
[72.7815,40.8088],
[73.2938,40.6792],
[73.3305,40.5496],
[73.4889,40.5496],
[73.5257,40.4201],
[73.684,40.4201],
[73.858,40.2259],
[73.8162,40.0964],
[73.9533,40.0317],
[73.8502,39.7083],
[73.929,39.7083],
[73.7104,39.5143],
[73.5713,38.8034],
[73.2241,38.1578],
[73.2081,38.1026],
[74.5394,37.9254],
[76.7017,36.9793],
[76.6336,36.4102],
[76.7319,35.7089],
[76.8499,35.8377],
[77.3507,35.9664],
[79.0714,36.2884],
[81.2644,36.6105],
[81.7125,36.8037],
[82.1014,36.8037],
[85.1134,37.4483],
[85.1349,37.5128],
[85.8129,37.8998],
[86.0814,38.2224],
[86.4173,38.2869],
[86.6257,38.868],
[86.2964,39.2557],
[85.9817,39.2557],
[84.7739,38.7389],
[83.9218,38.5451],
[82.4322,38.5451],
[80.9938,38.9326],
[80.4625,39.4496],
[80.5072,39.5789],
[80.3157,39.7083],
[80.3609,39.8376],
[80.2258,39.9023],
[80.2384,40.1612],
[80.1593,40.1612],
[80.4832,41.2625],
[81.3941,41.9764],
[81.8444,42.1063],
[82.0817,42.3012],
[82.5613,42.3012],
[83.2268,42.5612],
[83.2535,42.6262],
[82.3464,43.733],
[82.247,44.6466],
[82.1659,44.6466],
[82.2494,44.8426],
[82.1429,44.9734],
[82.1989,45.1042],
[82.1176,45.1042],
[82.2832,45.3004],
[82.0672,45.3659],
[82.2333,45.5623],
[82.1518,45.5623],
[82.2085,45.6933],
[81.6479,46.2833],
[81.7052,46.4145],
[81.2672,46.3489],
[81.2957,46.4145],
[80.9146,46.4802],
[80.8327,46.4802],
[80.3156,46.6115],
[80.0725,46.8086],
[79.6057,46.6772],
[79.3055,46.7429],
[79.2775,46.6772],
[79.0856,46.6115],
[78.9748,46.3489],
[78.4563,46.2833],
[77.8016,46.2833],
[77.8287,46.3489],
[77.3644,46.4145],
[77.3914,46.4802],
[75.4512,46.5459],
[75.3168,46.4145],
[74.8814,46.3489],
[74.7526,46.0209],
[74.3186,45.9554],
[74.117,45.4313],
[74.2547,45.3659],
[74.1301,45.0388],
[73.8617,44.9734],
[73.9112,45.1042],
[73.7416,45.3004],
[73.3276,45.4968],
[73.5019,45.9554],
[73.6401,45.8898],
[73.7157,46.0865],
[73.527,46.0209],
[73.628,46.2833],
[73.8735,46.2833],
[73.9501,46.4802],
[74.3295,46.6115],
[74.3554,46.6772],
[73.8889,46.7429],
[73.9148,46.8086],
[73.1759,46.8086],
[72.0334,46.6115],
[70.9557,45.6933],
[69.9318,44.1896],
[69.9444,43.9938],
[69.8637,43.9938],
[69.5369,43.2769]
]
],
[
[
[82.2333,45.5623],
[82.3148,45.5623],
[82.3431,45.6278],
[82.2616,45.6278],
[82.2333,45.5623]
]
]
]}
}
