{
"type": "Feature",
"properties": {"id":"cliopatria-crown-of-castile-1250","edge_precision":"unknown","cliopatria_name":"Crown of Castile","cliopatria_from_year":1250,"cliopatria_to_year":1259,"cliopatria_area_km2":354308,"cliopatria_wikidata":"Q217196","cliopatria_wikipedia":"Crown of Castile","cliopatria_seshat_id":"es_castile_crown"},
"geometry": {"type": "MultiPolygon", "coordinates": [
[
[
[-9.3046,43.1467],
[-9.0787,42.5612],
[-8.6574,42.3662],
[-8.9561,42.1712],
[-8.9281,41.9114],
[-8.47,42.1063],
[-8.1505,42.1063],
[-8.1371,41.9764],
[-8.2169,41.9764],
[-8.1172,41.7816],
[-6.7008,41.9764],
[-6.3516,41.6518],
[-6.2719,41.6518],
[-6.2542,41.4571],
[-6.9277,41.0032],
[-6.8684,40.3554],
[-7.0149,40.2259],
[-7.0032,40.0964],
[-6.8395,40.0317],
[-6.8955,39.7729],
[-7.4358,39.6436],
[-7.4184,39.4496],
[-7.2552,39.385],
[-6.9854,38.9972],
[-7.1203,38.7389],
[-7.2717,38.6743],
[-7.2442,38.3515],
[-6.9984,38.2224],
[-6.9877,38.0933],
[-7.1442,38.0933],
[-7.2791,37.8352],
[-7.5027,37.7062],
[-7.3874,37.2549],
[-6.8418,37.2549],
[-6.588,36.9971],
[-6.3495,36.9326],
[-6.238,36.4816],
[-5.9863,36.224],
[-5.9087,36.224],
[-5.7269,36.9326],
[-5.1226,37.1904],
[-4.655,37.1904],
[-3.8972,37.5128],
[-3.5851,37.5128],
[-3.5155,37.6417],
[-3.0429,37.5773],
[-2.8289,37.8998],
[-2.1216,37.8352],
[-1.939,37.3838],
[-1.7794,37.3193],
[-1.6235,37.3193],
[-1.7087,37.4483],
[-1.4038,37.5773],
[-0.7048,37.6417],
[-0.8035,38.0288],
[-0.5077,38.3515],
[-0.5895,38.416],
[-0.6678,38.416],
[-0.8993,38.3515],
[-0.714,39.2557],
[-1.2127,39.7083],
[-1.157,40.0964],
[-1.7265,40.3554],
[-1.7347,40.4849],
[-1.5054,40.6144],
[-1.6012,40.8736],
[-2.0989,41.1977],
[-2.1165,41.4571],
[-1.8822,41.522],
[-1.9795,41.7816],
[-1.82,41.7816],
[-1.8288,41.9114],
[-1.7756,42.3012],
[-2.0199,42.3662],
[-2.2031,42.6912],
[-1.8391,43.2118],
[-1.8531,43.4072],
[-3.2959,43.3421],
[-3.4672,43.4723],
[-4.9904,43.4072],
[-5.6461,43.5375],
[-7.1757,43.5375],
[-7.3435,43.6027],
[-7.2765,43.733],
[-8.2436,43.733],
[-8.3904,43.6027],
[-8.369,43.4072],
[-8.8517,43.4072],
[-9.3046,43.1467]
]
]
]}
}
