{
"type": "Feature",
"properties": {"id":"cliopatria-indo-scythians-145bce","edge_precision":"unknown","cliopatria_name":"Indo-Scythians","cliopatria_from_year":-144,"cliopatria_to_year":-127,"cliopatria_area_km2":182869,"cliopatria_wikidata":"Q240123","cliopatria_wikipedia":"Indo-Scythians"},
"geometry": {"type": "MultiPolygon", "coordinates": [
[
[
[60.3203,38.868],
[60.4314,38.6743],
[60.3708,38.416],
[60.5608,38.2224],
[60.531,38.0933],
[60.736,37.9643],
[60.6626,37.6417],
[60.8041,37.5773],
[60.7751,37.4483],
[60.9658,37.2549],
[60.9514,37.1904],
[61.5378,36.6749],
[61.5034,36.1596],
[61.581,36.1596],
[61.4849,35.7089],
[61.303,35.5802],
[61.804,35.3871],
[62.1906,35.3871],
[62.3045,35.194],
[63.0549,35.4514],
[63.1881,35.7089],
[63.1107,35.7089],
[63.1389,35.8377],
[63.6179,35.902],
[64.4804,36.2884],
[64.6952,36.546],
[64.9252,37.1904],
[65.4706,37.1904],
[65.7214,37.5773],
[65.209,38.0288],
[65.1505,38.416],
[65.0721,38.416],
[65.1551,38.7389],
[65.0767,38.7389],
[65.1441,38.9972],
[65.0655,38.9972],
[65.2819,39.5143],
[65.2031,39.5143],
[65.2558,39.7083],
[65.2735,39.7729],
[65.5638,39.967],
[65.8497,40.4201],
[66.8518,41.1328],
[66.8714,41.1977],
[66.6525,41.2625],
[65.5888,40.6144],
[65.4304,40.6144],
[65.449,40.6792],
[65.3697,40.6792],
[65.3511,40.6144],
[65.2719,40.6144],
[65.235,40.4849],
[64.3894,40.2906],
[64.0199,40.0964],
[62.8795,39.967],
[62.5018,40.0317],
[60.7919,39.5143],
[60.7131,39.5143],
[60.4135,39.2557],
[60.3203,38.868]
]
]
]}
}
