{
"type": "Feature",
"properties": {"id":"cliopatria-united-principalities-of-moldavia-and-wallachia-1900","edge_precision":"unknown","cliopatria_name":"United Principalities of Moldavia and Wallachia","cliopatria_from_year":1900,"cliopatria_to_year":1912,"cliopatria_area_km2":130284,"cliopatria_wikidata":"Q958291","cliopatria_wikipedia":"United Principalities of Moldavia and Wallachia"},
"geometry": {"type": "MultiPolygon", "coordinates": [
[
[
[22.5044,44.3201],
[22.6569,44.1896],
[22.8946,44.1243],
[22.9518,43.7982],
[23.6018,43.8634],
[24.1509,43.6678],
[24.8814,43.733],
[25.4343,43.6027],
[25.8486,43.733],
[26.114,43.9938],
[26.6106,44.1243],
[27.3376,44.1243],
[28.5082,43.733],
[28.515,43.7982],
[28.6163,43.9938],
[28.5356,43.9938],
[28.5769,44.3854],
[28.8407,44.5813],
[28.802,44.9734],
[29.0456,44.9734],
[29.0241,44.7773],
[29.5253,44.908],
[29.6584,45.3659],
[29.577,45.3659],
[29.5845,45.4313],
[29.096,45.4313],
[28.6677,45.235],
[28.3494,45.3004],
[28.1259,45.4968],
[28.1534,45.7588],
[28.0719,45.7588],
[28.2443,46.6115],
[28.0944,46.7429],
[28.1086,46.8743],
[27.4311,47.4665],
[27.2323,47.9278],
[26.8532,48.2578],
[26.2665,48.1917],
[26.0681,47.8619],
[26.3095,47.7959],
[26.379,47.6641],
[25.9598,47.5982],
[25.7698,47.3348],
[25.4525,47.4665],
[25.0166,47.2032],
[25.6689,47.1374],
[25.7266,46.8743],
[25.9668,46.8086],
[25.9421,46.5459],
[26.4779,46.1521],
[26.4404,45.7588],
[25.9389,45.6278],
[25.8455,45.4968],
[25.4382,45.4968],
[25.3453,45.3659],
[25.0423,45.6278],
[24.6348,45.6278],
[24.1351,45.4968],
[23.4836,45.4968],
[23.4735,45.3659],
[23.1382,45.235],
[22.7364,45.3004],
[22.532,44.7119],
[22.6895,44.6466],
[22.5182,44.516],
[22.5044,44.3201]
]
]
]}
}
