{
"type": "Feature",
"properties": {"id":"cliopatria-kingdom-of-belgium-1885","edge_precision":"unknown","cliopatria_name":"Kingdom of Belgium","cliopatria_from_year":1885,"cliopatria_to_year":1899,"cliopatria_area_km2":46364,"cliopatria_wikidata":"Q31","cliopatria_wikipedia":"Belgium"},
"geometry": {"type": "MultiPolygon", "coordinates": [
[
[
[2.4933,51.1792],
[2.6008,50.7788],
[3.1067,50.7788],
[3.5482,50.3791],
[3.9686,50.3791],
[4.1428,50.246],
[4.1548,49.98],
[4.4902,49.98],
[4.7362,50.113],
[4.8309,49.8471],
[4.9984,49.8471],
[5.5128,49.5152],
[5.7635,49.5152],
[5.7612,49.5816],
[5.8448,49.5816],
[5.7455,50.0465],
[6.0768,50.1795],
[5.9756,50.7121],
[5.7205,50.7788],
[5.7067,51.1792],
[5.6198,51.246],
[5.366,51.246],
[5.0196,51.4465],
[4.3417,51.4465],
[4.0123,51.246],
[3.5046,51.246],
[3.4097,51.4465],
[3.3249,51.4465],
[2.7394,51.3128],
[2.5778,51.1792],
[2.4933,51.1792]
]
],
[
[
[12.0762,-5.8217],
[12.0763,-5.8859],
[12.2224,-6.0145],
[12.587,-6.0145],
[12.8054,-5.8859],
[12.8783,-5.8859],
[13.6064,-5.5645],
[13.6785,-5.3074],
[13.6783,-5.2431],
[13.5317,-4.9859],
[13.0205,-4.6002],
[12.9477,-4.6002],
[12.4386,-4.9859],
[12.4402,-5.6288],
[12.0762,-5.8217]
]
]
]}
}
