{
"type": "Feature",
"properties": {"id":"cliopatria-kingdom-of-mrauk-u-1429","edge_precision":"unknown","cliopatria_name":"Kingdom of Mrauk U","cliopatria_from_year":1429,"cliopatria_to_year":1481,"cliopatria_area_km2":84574,"cliopatria_wikidata":"Q10791211","cliopatria_wikipedia":"Kingdom of Mrauk U"},
"geometry": {"type": "MultiPolygon", "coordinates": [
[
[
[92.2498,20.7934],
[92.6313,20.3434],
[92.8537,20.3434],
[92.8265,20.1505],
[93.0579,20.2148],
[93.0215,19.9577],
[93.401,20.022],
[93.3827,19.8934],
[93.605,19.8934],
[93.5774,19.7005],
[93.7996,19.7005],
[93.6795,19.3791],
[93.5315,19.3791],
[93.5132,19.2505],
[93.7633,18.9291],
[93.5414,18.9291],
[93.514,18.7362],
[93.8006,18.6719],
[93.828,18.8648],
[94.1238,18.8648],
[94.2258,18.5434],
[94.3645,18.4791],
[94.5222,18.0291],
[94.5327,17.579],
[94.6065,17.579],
[94.4353,16.8719],
[94.4266,16.8076],
[94.574,16.8076],
[95.0583,17.6433],
[95.0391,18.0291],
[95.1589,18.3505],
[94.9649,18.5434],
[94.9559,18.9934],
[94.7897,19.3791],
[94.8363,19.7005],
[94.3735,20.6005],
[94.3644,21.0505],
[94.2902,21.0505],
[94.371,22.5934],
[94.2966,22.5934],
[94.3263,22.7863],
[94.0686,23.0434],
[93.4182,23.172],
[93.3437,23.172],
[93.1548,22.9148],
[93.2292,22.9148],
[93.1871,22.1434],
[93.0194,22.0148],
[92.7314,22.0791],
[92.694,21.3077],
[92.3318,21.372],
[92.3513,20.9862],
[92.2498,20.7934]
]
]
]}
}
