{
"type": "Feature",
"properties": {"id":"cliopatria-goguryeo-0476","edge_precision":"unknown","cliopatria_name":"Goguryeo","cliopatria_from_year":476,"cliopatria_to_year":479,"cliopatria_area_km2":390562,"cliopatria_wikidata":"Q28370","cliopatria_wikipedia":"Goguryeo","cliopatria_seshat_id":"kr_goguryeo_k"},
"geometry": {"type": "MultiPolygon", "coordinates": [
[
[
[121.0293,38.7389],
[121.4217,38.7389],
[121.7162,38.9972],
[121.9519,38.9972],
[122.1704,39.2557],
[122.936,39.6436],
[123.5974,39.8376],
[124.034,39.7729],
[124.3446,39.9023],
[124.5124,39.6436],
[124.8646,39.7083],
[124.8697,39.5789],
[125.3057,39.5143],
[125.39,39.385],
[125.0316,38.7389],
[125.1885,38.7389],
[125.1533,38.6743],
[124.9614,38.6097],
[124.7881,38.2869],
[124.8664,38.2869],
[124.7637,38.0933],
[125.0767,38.0933],
[124.8967,37.8998],
[125.2093,37.8998],
[125.2981,37.7707],
[125.231,37.6417],
[125.3871,37.6417],
[125.6783,37.8998],
[125.8347,37.8998],
[125.8449,37.7707],
[126.3477,37.8352],
[126.2459,37.6417],
[126.6025,37.5773],
[126.5352,37.4483],
[126.7023,37.3193],
[126.6027,37.126],
[126.8033,37.0615],
[126.7374,36.9326],
[127.7045,36.9971],
[127.6714,36.9326],
[127.9944,36.8037],
[128.6954,37.2549],
[129.207,37.1904],
[129.353,37.3193],
[129.3872,37.3838],
[129.2563,37.5773],
[129.1002,37.5773],
[128.3638,38.8034],
[127.9234,38.9972],
[127.7978,39.1911],
[127.4414,39.2557],
[127.6653,39.6436],
[127.5833,39.7729],
[127.9346,39.967],
[128.368,40.0317],
[128.6822,40.2906],
[129.0777,40.4201],
[129.2378,40.6792],
[129.7558,40.8736],
[129.8822,41.1977],
[129.6932,41.522],
[129.7823,41.7816],
[130.3221,42.2362],
[130.6054,42.3012],
[130.9048,42.6262],
[131.2251,42.6262],
[131.7539,43.2769],
[131.9147,43.2769],
[131.7787,43.0816],
[132.0999,43.0816],
[132.6042,43.7982],
[132.0517,43.9286],
[132.0981,43.9938],
[131.2563,44.0591],
[131.3025,44.1243],
[131.014,44.0591],
[131.0602,44.1243],
[130.864,44.1896],
[130.7832,44.1896],
[130.4713,44.3201],
[130.4137,44.5813],
[129.9857,44.7773],
[129.9976,44.908],
[129.36,45.0388],
[129.4064,45.1042],
[129.1627,45.1042],
[128.6882,44.7773],
[127.7051,44.6466],
[127.4264,44.7119],
[127.3357,44.5813],
[126.9667,44.516],
[125.1336,44.3201],
[125.0527,44.3201],
[125.0087,44.2548],
[125.1632,44.1243],
[125.0688,43.8634],
[125.1495,43.8634],
[125.0624,43.733],
[125.143,43.733],
[125.0562,43.6027],
[125.1367,43.6027],
[124.9589,43.2118],
[125.0392,43.2118],
[124.9066,42.8864],
[124.9868,42.8864],
[124.8182,42.6262],
[125.0129,42.4312],
[124.9296,42.3012],
[122.6084,41.7816],
[122.49,41.4571],
[121.9363,41.1977],
[121.8237,40.8736],
[121.7856,40.8088],
[122.1061,40.6792],
[122.2306,40.4849],
[121.7765,39.967],
[121.5033,39.9023],
[121.4383,39.6436],
[121.2807,39.6436],
[121.2096,39.5143],
[121.2965,39.385],
[121.6901,39.385],
[121.5151,39.0618],
[121.2007,39.0618],
[121.0293,38.7389]
]
]
]}
}
