{
"type": "Feature",
"properties": {"id":"cliopatria-spanish-empire-1572","edge_precision":"unknown","cliopatria_name":"Spanish Empire","cliopatria_from_year":1572,"cliopatria_to_year":1578,"cliopatria_area_km2":4409345,"cliopatria_wikidata":"Q80702","cliopatria_wikipedia":"Spanish Empire","cliopatria_seshat_id":"es_spanish_emp_1","cliopatria_member_of":"(Spanish Empire)"},
"geometry": {"type": "MultiPolygon", "coordinates": [
[
[
[-108.0395,24.9078],
[-107.8653,24.5221],
[-107.7158,24.5221],
[-107.5927,24.3292],
[-106.9757,23.9435],
[-106.4373,23.2363],
[-105.6985,22.5934],
[-105.5344,21.822],
[-105.1315,21.3077],
[-105.3151,21.1148],
[-105.2892,20.9862],
[-105.486,20.8577],
[-105.4603,20.7291],
[-105.2249,20.6648],
[-105.6315,20.472],
[-105.5425,20.022],
[-105.3691,19.8934],
[-105.3313,19.7005],
[-104.8738,19.2505],
[-103.8264,18.8005],
[-103.4347,18.2862],
[-102.2565,17.9005],
[-101.8989,17.9648],
[-101.11,17.2576],
[-100.023,16.9362],
[-99.6854,16.679],
[-98.8539,16.5504],
[-98.4341,16.229],
[-98.0559,16.1647],
[-97.8786,15.9718],
[-97.0493,15.8433],
[-96.7261,15.6504],
[-96.211,15.6504],
[-95.3662,15.9076],
[-94.9536,16.1004],
[-94.772,16.3576],
[-94.6688,16.1647],
[-94.1534,16.1647],
[-93.9773,15.9718],
[-93.8301,15.9718],
[-92.7546,15.1361],
[-92.4741,14.6861],
[-91.3497,13.9146],
[-90.4689,13.9146],
[-89.9106,13.5289],
[-89.2431,13.4646],
[-88.8482,13.2075],
[-87.7412,13.1432],
[-87.7618,13.336],
[-87.4684,13.336],
[-87.2811,12.9503],
[-87.4411,13.0789],
[-87.6611,13.0789],
[-87.5482,12.6932],
[-86.924,12.3074],
[-86.5833,11.7931],
[-85.7171,11.086],
[-85.853,10.9574],
[-85.8376,10.7645],
[-85.6812,10.636],
[-85.8857,10.4431],
[-85.7793,9.9931],
[-85.4777,9.8645],
[-85.2406,9.6074],
[-84.8795,9.6717],
[-84.902,9.9931],
[-84.8288,9.9931],
[-84.5742,9.4788],
[-84.2819,9.4788],
[-84.1231,9.2859],
[-83.6725,9.0931],
[-83.5876,8.9002],
[-83.7259,8.7716],
[-83.7072,8.4502],
[-83.2618,8.3216],
[-83.2764,8.5788],
[-83.2034,8.5788],
[-83.1924,8.3859],
[-82.9627,8.193],
[-82.4587,8.3216],
[-82.2327,8.193],
[-81.9406,8.193],
[-81.4732,7.6145],
[-81.1812,7.6145],
[-81.0479,7.8716],
[-80.9414,7.1644],
[-80.5766,7.1644],
[-80.3664,7.3573],
[-80.0045,7.4216],
[-80.0197,7.743],
[-80.3213,7.9359],
[-80.4109,8.2573],
[-79.9762,8.3216],
[-79.7676,8.5145],
[-79.6432,8.9002],
[-79.0625,8.9645],
[-78.5296,8.5788],
[-78.5227,8.4502],
[-78.2306,8.4502],
[-78.287,8.1288],
[-78.506,8.1288],
[-78.4964,7.9359],
[-78.3321,7.5502],
[-77.7258,7.0359],
[-77.4137,6.5216],
[-77.5434,6.0715],
[-77.3162,5.8144],
[-77.5308,5.6858],
[-77.421,4.2715],
[-77.5667,4.2715],
[-77.5628,4.0786],
[-77.4123,3.8215],
[-77.2667,3.8215],
[-77.2634,3.6286],
[-77.7656,3.1143],
[-77.9055,2.6],
[-78.4874,2.5357],
[-78.777,2.3429],
[-78.701,1.8286],
[-79.1375,1.7643],
[-79.1369,1.5714],
[-78.9911,1.5071],
[-79.0636,1.25],
[-80.2284,0.8643],
[-80.1581,0.2214],
[-80.3045,0.0928],
[-80.2899,-0.0358],
[-80.5825,-0.2286],
[-80.6613,-0.8072],
[-81.0268,-0.9358],
[-81.0304,-1.193],
[-80.8867,-1.3215],
[-80.9605,-1.3858],
[-80.9004,-2.093],
[-81.1202,-2.1573],
[-81.1229,-2.2858],
[-80.5491,-2.6716],
[-80.3307,-2.6716],
[-80.4132,-3.0573],
[-80.1947,-3.0573],
[-80.1898,-2.8644],
[-80.0441,-2.8644],
[-80.0508,-3.1216],
[-80.9413,-3.7002],
[-80.9453,-3.8287],
[-81.1679,-3.9573],
[-81.4747,-4.4073],
[-81.4186,-4.8573],
[-81.2753,-4.9216],
[-81.2909,-5.3074],
[-81.0132,-5.6288],
[-81.0218,-5.8217],
[-81.3164,-5.8859],
[-81.3284,-6.1431],
[-80.7544,-6.336],
[-79.9815,-6.9145],
[-79.8529,-7.236],
[-79.7105,-7.3003],
[-79.5901,-7.7503],
[-78.9762,-8.4575],
[-78.8637,-8.9718],
[-78.3425,-9.8718],
[-78.3568,-10.0646],
[-77.7744,-11.029],
[-77.8014,-11.3504],
[-77.3166,-11.6718],
[-77.2836,-12.1218],
[-76.941,-12.379],
[-76.892,-12.6361],
[-76.7516,-12.7004],
[-76.6427,-13.0862],
[-76.3817,-13.4076],
[-76.3485,-13.7933],
[-76.4219,-13.7933],
[-76.4636,-14.179],
[-76.1912,-14.3719],
[-76.0806,-14.6933],
[-75.4716,-15.1434],
[-75.2239,-15.5291],
[-74.7982,-15.6577],
[-74.7405,-15.7862],
[-74.3148,-15.9148],
[-73.9871,-16.2363],
[-73.2095,-16.4934],
[-73.0132,-16.6863],
[-72.4402,-16.8148],
[-72.0479,-17.2006],
[-71.6221,-17.3292],
[-71.639,-17.4577],
[-71.4999,-17.522],
[-71.3297,-17.9077],
[-70.9777,-18.0363],
[-70.5863,-18.422],
[-70.4386,-18.422],
[-70.5085,-18.9363],
[-70.4345,-18.9363],
[-70.3752,-19.5792],
[-70.3011,-19.5792],
[-70.3369,-19.8364],
[-70.2628,-19.8364],
[-70.371,-20.6078],
[-70.2968,-20.6078],
[-70.2958,-21.1221],
[-70.2216,-21.1221],
[-70.2586,-21.3792],
[-70.1843,-21.3792],
[-70.269,-21.9578],
[-70.3955,-22.7935],
[-70.5102,-23.0507],
[-70.7541,-23.1793],
[-70.8059,-23.5007],
[-70.5286,-23.6293],
[-70.6243,-23.7579],
[-70.7378,-24.8508],
[-70.5718,-25.1722],
[-70.6196,-25.4294],
[-70.8808,-25.6223],
[-70.8934,-26.0723],
[-70.7819,-26.2652],
[-71.1848,-27.8082],
[-71.2602,-27.8082],
[-71.3174,-28.3868],
[-71.6507,-28.8368],
[-71.7292,-29.1582],
[-71.4904,-29.4153],
[-71.4958,-29.7367],
[-71.4201,-29.7367],
[-71.6289,-30.2509],
[-71.7976,-30.3152],
[-71.9358,-30.8293],
[-71.8598,-30.8293],
[-71.8497,-31.3434],
[-71.7736,-31.3434],
[-71.8278,-31.5362],
[-71.7118,-31.6648],
[-71.7649,-32.1147],
[-71.611,-32.3718],
[-71.7062,-32.6932],
[-71.6297,-32.6932],
[-71.9213,-33.4003],
[-71.8076,-33.5289],
[-71.9082,-33.8504],
[-72.1026,-33.979],
[-72.4242,-35.2013],
[-72.7646,-35.5231],
[-72.977,-36.3601],
[-73.2469,-36.6822],
[-73.3324,-37.1332],
[-73.7456,-37.1977],
[-73.8413,-37.4556],
[-73.7633,-37.4556],
[-73.8307,-37.8425],
[-73.6163,-38.1006],
[-73.7409,-38.4233],
[-73.6345,-38.5524],
[-73.6851,-38.6816],
[-73.4204,-39.0045],
[-73.445,-39.4569],
[-73.3663,-39.4569],
[-73.5776,-39.7803],
[-73.5255,-39.8449],
[-73.8162,-39.9743],
[-74.1312,-41.0753],
[-74.0518,-41.0753],
[-74.0946,-41.5293],
[-73.8849,-41.5942],
[-73.8929,-41.7889],
[-73.8132,-41.7889],
[-73.8425,-41.8538],
[-74.132,-41.7889],
[-74.34,-42.2435],
[-73.5615,-42.1136],
[-73.6033,-41.8538],
[-73.2843,-41.8538],
[-73.0886,-41.5942],
[-72.9966,-41.205],
[-73.0761,-41.205],
[-72.9073,-40.8161],
[-72.5865,-40.6217],
[-72.6109,-40.4922],
[-72.1057,-40.039],
[-72.0263,-39.8449],
[-71.6066,-39.5862],
[-71.3362,-38.4879],
[-71.4146,-38.4879],
[-71.1431,-37.9716],
[-71.2213,-37.9716],
[-70.8947,-37.0688],
[-70.9726,-37.0688],
[-70.8144,-36.6177],
[-70.8922,-36.6177],
[-70.6815,-36.2313],
[-70.7591,-36.2313],
[-70.5293,-35.7805],
[-70.4787,-35.3943],
[-69.7867,-34.6866],
[-69.3204,-34.4292],
[-68.469,-33.6575],
[-67.7363,-32.179],
[-67.7417,-31.9219],
[-67.3065,-31.1506],
[-67.1209,-31.0221],
[-66.7386,-29.4796],
[-66.6629,-29.4796],
[-66.5289,-28.9011],
[-66.3488,-28.7725],
[-66.3386,-28.3868],
[-66.2631,-28.3868],
[-65.756,-26.2652],
[-65.681,-26.2652],
[-65.6845,-25.8795],
[-65.4427,-25.3651],
[-65.2706,-25.2365],
[-65.1413,-24.465],
[-65.0666,-24.465],
[-65.0594,-23.9507],
[-64.8411,-23.5007],
[-64.0758,-22.8578],
[-63.9196,-22.2792],
[-63.7442,-22.0864],
[-63.8098,-22.0221],
[-63.6573,-21.4435],
[-63.5489,-21.1864],
[-63.4004,-21.1864],
[-63.4325,-20.8649],
[-63.325,-20.6078],
[-63.1766,-20.6078],
[-63.2012,-20.2221],
[-63.1271,-20.2221],
[-62.9309,-19.2578],
[-63.0049,-19.2578],
[-62.9831,-18.4863],
[-62.5794,-17.5863],
[-62.4829,-16.7506],
[-62.5566,-16.7506],
[-62.5872,-16.3648],
[-63.1202,-15.8505],
[-63.7482,-15.5291],
[-63.8015,-15.3362],
[-64.3163,-15.3362],
[-64.8711,-15.0148],
[-65.6664,-14.8862],
[-66.0012,-14.5648],
[-66.4291,-14.4362],
[-66.7647,-14.1148],
[-67.6881,-13.7933],
[-67.8166,-13.6005],
[-67.9633,-13.6005],
[-68.0921,-13.4076],
[-68.3737,-13.279],
[-68.7404,-13.279],
[-69.0279,-13.2147],
[-69.0161,-13.0862],
[-69.242,-13.1504],
[-69.3769,-13.0219],
[-70.3918,-12.8933],
[-70.6734,-12.7647],
[-71.2599,-12.7647],
[-71.4915,-12.8933],
[-71.5034,-13.0219],
[-71.6441,-12.9576],
[-71.6561,-13.0862],
[-71.8821,-13.1504],
[-71.9434,-13.0219],
[-72.1634,-13.0219],
[-72.512,-12.829],
[-73.4531,-12.7004],
[-74.0718,-12.2504],
[-74.0604,-12.1218],
[-74.4719,-11.8004],
[-74.461,-11.6718],
[-74.6645,-11.479],
[-75.1662,-11.3504],
[-75.4175,-10.8361],
[-75.3343,-10.7075],
[-75.4806,-10.7075],
[-75.5292,-10.3861],
[-75.921,-9.7432],
[-75.9075,-9.5503],
[-76.0492,-9.4861],
[-76.2424,-9.1003],
[-76.3435,-8.3932],
[-76.5626,-8.3932],
[-76.6239,-8.2003],
[-76.97,-7.8789],
[-77.6886,-6.2717],
[-77.6068,-6.0788],
[-77.8085,-5.6931],
[-77.717,-5.2431],
[-77.8503,-4.9216],
[-77.8695,-3.2502],
[-77.7966,-3.2502],
[-77.7884,-2.9287],
[-77.6428,-2.9287],
[-77.7109,-2.7359],
[-77.6381,-2.7359],
[-77.6256,-2.1573],
[-77.5528,-2.1573],
[-77.6244,-2.093],
[-77.5404,-1.4501],
[-77.3893,-1.0644],
[-77.2438,-1.0644],
[-77.3141,-0.8715],
[-77.0943,-0.7429],
[-77.1644,-0.4858],
[-77.0156,-0.1001],
[-76.87,-0.1001],
[-76.9569,0.0928],
[-76.8832,0.2214],
[-76.7377,0.2214],
[-76.8093,0.4142],
[-76.2977,1.1857],
[-76.3705,1.3143],
[-76.1521,1.3786],
[-76.225,1.4428],
[-76.1527,1.7],
[-75.8625,1.9571],
[-75.7911,2.2143],
[-75.4294,2.5357],
[-75.4305,2.6643],
[-75.2133,2.7929],
[-75.2147,2.9215],
[-75.1418,2.9215],
[-75.1412,2.8572],
[-75.0683,2.8572],
[-75.069,2.9215],
[-74.9962,2.9215],
[-74.9984,3.1143],
[-74.7815,3.2429],
[-74.4987,3.8215],
[-74.3541,3.8858],
[-74.3588,4.1429],
[-74.1494,4.5929],
[-73.7924,4.9144],
[-73.7243,5.1072],
[-73.5785,5.1072],
[-73.3008,5.6215],
[-73.1569,5.6858],
[-73.0937,6.0073],
[-72.952,6.1358],
[-73.0448,6.7144],
[-72.9718,6.7144],
[-72.916,7.1644],
[-72.7675,7.1002],
[-72.7778,7.3573],
[-72.6426,7.6145],
[-72.494,7.5502],
[-72.4378,7.9359],
[-72.2977,8.0645],
[-72.3097,8.3216],
[-72.1,8.5145],
[-72.0399,8.7716],
[-71.8938,8.7716],
[-71.8873,8.6431],
[-71.23,8.6431],
[-70.7317,8.9002],
[-70.8113,9.0288],
[-70.5432,9.4788],
[-70.258,9.6074],
[-69.8124,9.4788],
[-69.8926,9.6074],
[-69.5308,9.6717],
[-69.3918,9.8002],
[-69.1689,9.7359],
[-69.1762,9.8645],
[-68.9606,9.9288],
[-68.6681,9.9288],
[-68.4416,9.8002],
[-67.568,9.8645],
[-66.8996,9.6717],
[-66.9726,9.6717],
[-66.9692,9.6074],
[-66.8961,9.6074],
[-66.8996,9.6716],
[-66.6769,9.6074],
[-65.8101,9.8002],
[-65.7301,9.6717],
[-64.6371,9.7359],
[-64.355,9.9288],
[-64.1322,9.8645],
[-64.1391,9.9931],
[-63.9267,10.1217],
[-63.7039,10.0574],
[-63.5682,10.2502],
[-63.2828,10.3788],
[-62.8404,10.3145],
[-62.8512,10.5074],
[-61.9771,10.5717],
[-61.9148,10.7645],
[-64.0326,10.7003],
[-64.0946,10.5074],
[-64.3834,10.4431],
[-64.3761,10.3145],
[-64.5955,10.3145],
[-64.8041,10.1217],
[-65.093,10.0574],
[-65.2464,10.186],
[-65.8387,10.3145],
[-66.1502,10.636],
[-66.3736,10.7003],
[-67.1743,10.636],
[-67.4591,10.5074],
[-68.1905,10.5074],
[-68.3088,11.2146],
[-68.4639,11.3431],
[-68.9897,11.536],
[-69.5708,11.4717],
[-69.6577,11.6646],
[-69.7996,11.6003],
[-69.7904,11.4717],
[-70.0878,11.536],
[-70.1519,11.4074],
[-71.0168,11.2146],
[-71.5028,10.8288],
[-71.6491,10.8288],
[-71.5934,11.086],
[-71.8219,11.2146],
[-71.9228,11.6003],
[-71.2781,11.7931],
[-71.0729,11.986],
[-71.0978,12.3074],
[-71.3279,12.436],
[-71.8409,12.436],
[-71.9038,12.3074],
[-72.1918,12.2432],
[-72.2399,11.9217],
[-72.8111,11.7289],
[-73.1532,11.4074],
[-74.1733,11.3431],
[-74.3606,10.8931],
[-74.5206,11.086],
[-74.9643,11.1503],
[-75.2386,10.8931],
[-75.2296,10.7645],
[-75.4446,10.7003],
[-75.5777,10.5074],
[-75.496,10.3788],
[-75.638,10.3145],
[-75.6587,9.4788],
[-76.0933,9.4145],
[-76.2903,9.0288],
[-76.9264,8.6431],
[-76.8301,8.193],
[-77.132,8.3859],
[-77.2951,8.7073],
[-77.5142,8.7073],
[-77.744,8.9002],
[-77.9855,9.2859],
[-78.5087,9.4788],
[-78.9472,9.4788],
[-78.9552,9.6074],
[-79.6861,9.6074],
[-79.9583,9.2859],
[-80.535,9.1574],
[-81.0273,8.8359],
[-81.4655,8.8359],
[-81.777,9.1574],
[-81.9231,9.1574],
[-81.8383,8.9645],
[-82.2075,9.0288],
[-82.3088,9.4788],
[-82.6095,9.6074],
[-82.8417,9.8002],
[-82.8505,9.9288],
[-83.2341,10.186],
[-83.5647,10.7003],
[-83.5847,10.9574],
[-83.7413,11.086],
[-84.0288,11.0217],
[-84.421,11.3431],
[-84.5385,11.8574],
[-84.4767,11.986],
[-84.629,12.0503],
[-84.677,12.5646],
[-84.7503,12.5646],
[-84.7818,12.886],
[-84.6351,12.886],
[-84.7344,13.1432],
[-84.6677,13.2075],
[-84.9215,13.5289],
[-84.9423,13.7218],
[-84.7433,13.9146],
[-84.7577,14.0432],
[-84.552,14.1718],
[-84.5816,14.4289],
[-84.7945,14.3646],
[-84.8171,14.5575],
[-85.0607,14.7504],
[-85.6884,15.0718],
[-85.8683,15.329],
[-85.8803,15.9718],
[-86.4428,15.779],
[-87.2523,15.779],
[-87.4908,15.9076],
[-87.9324,15.9076],
[-87.9882,15.779],
[-88.209,15.779],
[-88.3004,15.9076],
[-88.6594,15.8433],
[-89.1191,15.9718],
[-89.4135,15.9718],
[-89.5426,15.8433],
[-89.5607,15.9718],
[-89.938,16.0361],
[-90.3797,16.0361],
[-90.3528,16.3576],
[-90.6024,16.5504],
[-90.5705,17.7719],
[-89.168,17.7719],
[-89.0509,17.9648],
[-88.7556,17.9648],
[-88.3945,18.4791],
[-88.1728,18.4791],
[-88.13,18.6719],
[-87.9925,18.7362],
[-87.9614,18.5434],
[-88.0353,18.5434],
[-87.9101,18.2219],
[-87.6987,18.2862],
[-87.7294,18.4791],
[-87.453,19.0577],
[-87.495,19.3148],
[-87.368,19.4434],
[-87.3891,19.5719],
[-87.5478,19.6362],
[-87.294,19.8934],
[-87.3474,20.2148],
[-87.041,20.6005],
[-86.8293,20.6648],
[-86.8508,20.7934],
[-86.6607,20.9862],
[-86.7484,21.5005],
[-86.9192,21.6291],
[-87.2164,21.6291],
[-87.3427,21.5005],
[-88.4795,21.6291],
[-89.1771,21.372],
[-89.9827,21.3077],
[-90.1715,21.1148],
[-90.3199,21.1148],
[-90.4194,20.4077],
[-90.4935,20.4077],
[-90.4794,19.8934],
[-90.7427,19.7005],
[-90.8143,19.2505],
[-91.3519,18.9291],
[-91.298,18.6076],
[-91.4459,18.6076],
[-91.4984,18.4791],
[-91.794,18.4791],
[-91.8371,18.7362],
[-92.5024,18.7362],
[-92.6177,18.5434],
[-93.4937,18.4791],
[-94.0413,18.2219],
[-94.4845,18.2219],
[-94.7722,18.6076],
[-95.7668,18.8005],
[-96.2506,19.4434],
[-96.5147,20.0862],
[-97.0775,20.7291],
[-97.3465,21.372],
[-98.3494,21.1791],
[-98.4249,20.7934],
[-98.6474,20.7934],
[-98.8568,21.1148],
[-99.0428,20.922],
[-99.1912,20.922],
[-99.2899,21.0505],
[-99.6487,20.9862],
[-99.9085,21.1791],
[-100.2055,21.1791],
[-100.3043,20.922],
[-100.5146,20.8577],
[-101.0472,21.3077],
[-101.2574,21.2434],
[-101.5437,21.5648],
[-101.7666,21.5648],
[-101.741,21.4363],
[-102.1231,21.1148],
[-102.3839,21.3077],
[-102.5939,21.2434],
[-102.7195,21.5005],
[-102.8809,21.5648],
[-102.9725,22.0148],
[-103.1478,22.1434],
[-103.331,21.9505],
[-103.4797,21.9505],
[-103.4587,22.2077],
[-103.5735,22.4005],
[-103.7223,22.4005],
[-103.7294,22.0791],
[-103.8037,22.0791],
[-103.8576,22.3363],
[-103.7832,22.3363],
[-103.9122,22.5934],
[-104.1961,22.5291],
[-104.0807,22.3363],
[-104.1146,22.1434],
[-104.3377,22.1434],
[-104.7171,22.5291],
[-104.9872,22.4005],
[-105.0148,22.5291],
[-104.8193,22.6577],
[-104.8613,22.8506],
[-105.2906,23.1077],
[-105.3403,22.6577],
[-105.4148,22.6577],
[-105.7521,23.172],
[-106.0793,23.3006],
[-106.1982,23.4934],
[-106.2131,23.5577],
[-106.4533,23.9435],
[-107.2838,24.5864],
[-107.3166,24.7149],
[-107.5908,24.9078],
[-108.0395,24.9078]
]
],
[
[
[-87.0195,20.472],
[-86.9874,20.2791],
[-86.7016,20.3434],
[-86.6702,20.6005],
[-86.7443,20.6005],
[-87.0195,20.472]
]
],
[
[
[-84.7974,21.822],
[-84.4368,21.8863],
[-84.4148,21.7577],
[-84.2662,21.7577],
[-84.0761,21.9505],
[-83.9164,21.8863],
[-83.8118,22.1434],
[-83.2279,22.2077],
[-83.1756,22.3363],
[-83.0269,22.3363],
[-82.9115,22.5291],
[-82.6363,22.6577],
[-81.743,22.6577],
[-81.6353,22.4648],
[-82.0818,22.4648],
[-82.0487,22.272],
[-80.89,22.0148],
[-80.3695,22.0148],
[-79.9453,21.6934],
[-79.6481,21.6934],
[-79.2457,21.5005],
[-78.6616,21.5648],
[-78.2445,20.7934],
[-77.9281,20.6648],
[-77.1864,20.6648],
[-77.1381,20.3434],
[-77.554,20.1505],
[-77.683,20.022],
[-77.6543,19.8291],
[-76.9136,19.8291],
[-76.4881,19.9577],
[-75.7472,19.9577],
[-75.21,19.8291],
[-74.0708,20.1505],
[-74.0986,20.3434],
[-74.321,20.3434],
[-74.748,20.7291],
[-75.4994,20.7934],
[-75.6313,21.1791],
[-75.9928,21.1148],
[-76.2448,21.3077],
[-76.7745,21.372],
[-76.7943,21.5005],
[-77.0272,21.5648],
[-77.0574,21.7577],
[-77.6621,21.822],
[-77.5236,21.8863],
[-77.6391,22.1434],
[-78.0006,22.0791],
[-78.5737,22.4005],
[-79.2541,22.4648],
[-79.7772,22.9148],
[-79.8517,22.9148],
[-80.4699,23.0434],
[-80.5671,23.172],
[-81.0772,23.1077],
[-81.1001,23.2363],
[-82.2925,23.2363],
[-82.7792,23.0434],
[-83.2262,23.0434],
[-83.9991,22.7863],
[-84.3773,22.4005],
[-84.3212,22.0791],
[-84.7563,22.0148],
[-84.7974,21.822]
]
],
[
[
[-83.0879,21.822],
[-82.9493,21.4363],
[-82.5036,21.4363],
[-82.4826,21.7577],
[-82.4933,21.822],
[-82.6636,21.9505],
[-83.0353,21.9505],
[-83.0879,21.822]
]
],
[
[
[-81.911,7.6145],
[-81.8988,7.3573],
[-81.6069,7.3573],
[-81.6129,7.4859],
[-81.6859,7.4859],
[-81.6952,7.6787],
[-81.911,7.6145]
]
],
[
[
[-81.5701,30.0508],
[-81.4949,29.7937],
[-81.3249,29.7294],
[-81.2491,29.7294],
[-81.1549,29.6652],
[-81.248,30.2436],
[-81.5701,30.0508]
]
],
[
[
[-80.8164,32.4931],
[-80.6759,32.3002],
[-80.3703,32.3002],
[-80.4128,32.4288],
[-80.4341,32.4931],
[-80.8164,32.4931]
]
],
[
[
[-79.027,8.3216],
[-78.8776,8.2573],
[-78.8046,8.2573],
[-78.8148,8.4502],
[-78.9608,8.4502],
[-79.027,8.3216]
]
],
[
[
[-78.5951,22.5291],
[-78.4249,22.4005],
[-78.2017,22.4005],
[-78.2336,22.5934],
[-78.5951,22.5291]
]
],
[
[
[-78.39,18.2862],
[-78.2978,18.1576],
[-78.0762,18.1576],
[-77.7355,17.8362],
[-77.3664,17.8362],
[-77.2748,17.7076],
[-77.0534,17.7076],
[-77.0711,17.8362],
[-76.8585,17.9005],
[-76.5544,17.8362],
[-76.4805,17.8362],
[-76.1202,17.9005],
[-76.2296,18.1576],
[-77.0136,18.4791],
[-78.0575,18.5434],
[-78.39,18.2862]
]
],
[
[
[-76.2977,1.3143],
[-76.2977,1.25],
[-76.2249,1.25],
[-76.2249,1.3143],
[-76.2977,1.3143]
]
],
[
[
[-75.3443,-10.8361],
[-75.2712,-10.8361],
[-75.2661,-10.7718],
[-75.3393,-10.7718],
[-75.3443,-10.8361]
]
],
[
[
[-74.4448,18.6076],
[-74.4006,18.2862],
[-74.179,18.2862],
[-73.9225,18.0291],
[-73.701,18.0291],
[-73.6531,18.2219],
[-72.1018,18.2219],
[-71.7071,18.0291],
[-71.5916,17.7076],
[-71.2799,17.579],
[-70.9938,18.2219],
[-70.7151,18.3505],
[-70.5673,18.3505],
[-70.5506,18.2219],
[-69.9596,18.2219],
[-69.8368,18.4148],
[-69.0979,18.4148],
[-68.5561,18.2219],
[-68.4328,18.4148],
[-68.285,18.4148],
[-68.244,18.6719],
[-68.5647,18.8648],
[-68.5814,18.9934],
[-69.486,19.1219],
[-69.1246,19.1862],
[-69.0761,19.3791],
[-69.6596,19.3148],
[-69.8595,19.7005],
[-70.2298,19.7005],
[-70.7746,19.8934],
[-70.7834,19.9577],
[-71.6724,19.9577],
[-71.7198,19.7648],
[-72.3953,19.8291],
[-72.6356,19.9577],
[-73.2283,19.9577],
[-73.4323,19.8291],
[-73.405,19.6362],
[-72.7947,19.5077],
[-72.7147,18.9291],
[-72.3012,18.6076],
[-73.1708,18.4791],
[-74.2409,18.7362],
[-74.4448,18.6076]
]
],
[
[
[-73.3152,18.9934],
[-73.2974,18.8648],
[-72.9013,18.6719],
[-72.6796,18.6719],
[-72.7886,18.9291],
[-73.3152,18.9934]
]
],
[
[
[-70.277,12.1146],
[-70.2389,11.6003],
[-69.7309,11.6646],
[-69.7642,12.1146],
[-69.8473,12.2432],
[-70.1404,12.2432],
[-70.277,12.1146]
]
],
[
[
[-70.0191,12.5646],
[-69.9306,12.3717],
[-69.784,12.3717],
[-69.7891,12.436],
[-69.8725,12.5646],
[-70.0191,12.5646]
]
],
[
[
[-69.1245,12.3717],
[-69.1098,12.1789],
[-68.9584,12.1146],
[-68.9536,12.0503],
[-68.6559,11.986],
[-68.7435,12.1789],
[-69.1245,12.3717]
]
],
[
[
[-68.3869,12.3074],
[-68.382,12.2432],
[-68.2944,12.0503],
[-68.1479,12.0503],
[-68.1622,12.2432],
[-68.3869,12.3074]
]
],
[
[
[-67.2586,18.4791],
[-67.1207,17.9648],
[-66.153,17.9005],
[-65.7178,17.9648],
[-65.5196,18.1576],
[-65.551,18.4148],
[-66.1581,18.5434],
[-67.2586,18.4791]
]
],
[
[
[-64.3486,11.086],
[-64.2636,10.8931],
[-64.0403,10.8288],
[-63.9671,10.8288],
[-63.7553,10.9574],
[-63.8443,11.2146],
[-64.0519,11.0217],
[-64.3486,11.086]
]
],
[
[
[-63.4219,10.2502],
[-63.4184,10.186],
[-63.3453,10.186],
[-63.3488,10.2502],
[-63.4219,10.2502]
]
],
[
[
[-61.7298,10.0574],
[-60.9987,10.0574],
[-60.9391,10.3145],
[-61.0262,10.5717],
[-60.8943,10.8288],
[-61.5527,10.8288],
[-61.6149,10.636],
[-61.4615,10.5074],
[-61.451,10.3145],
[-61.6669,10.2502],
[-61.7298,10.0574]
]
],
[
[
[-58.8329,-26.1366],
[-58.8242,-26.5224],
[-58.3099,-26.5867],
[-58.2656,-26.3295],
[-57.901,-25.9437],
[-57.8904,-25.8795],
[-57.5082,-25.3651],
[-57.3485,-25.3008],
[-57.3088,-25.0437],
[-57.1494,-24.9794],
[-57.1952,-24.7865],
[-57.0266,-24.6579],
[-56.9984,-24.465],
[-57.2693,-24.2722],
[-57.5026,-24.3365],
[-57.8584,-24.7222],
[-57.8875,-24.9151],
[-58.0568,-25.0437],
[-58.0019,-25.1722],
[-58.1616,-25.2365],
[-58.3833,-25.6866],
[-58.8329,-26.1366]
]
],
[
[
[-18.0575,27.6724],
[-17.9018,27.6081],
[-17.8469,27.8652],
[-17.9976,27.8652],
[-17.9924,27.8009],
[-18.0575,27.6724]
]
],
[
[
[-18.0022,28.8295],
[-17.9858,28.6367],
[-17.8995,28.5081],
[-17.6732,28.5081],
[-17.7056,28.8938],
[-17.8567,28.8938],
[-18.0022,28.8295]
]
],
[
[
[-17.3452,28.1867],
[-17.2545,27.9938],
[-17.1791,27.9938],
[-17.0335,28.0581],
[-17.1242,28.251],
[-17.3452,28.1867]
]
],
[
[
[-16.9082,28.3795],
[-16.6467,27.9295],
[-16.3552,28.0581],
[-16.3651,28.1867],
[-16.0834,28.4438],
[-16.0935,28.5724],
[-16.3954,28.5724],
[-16.3903,28.5081],
[-16.9082,28.3795]
]
],
[
[
[-15.8276,28.0581],
[-15.7283,27.7367],
[-15.4318,27.8009],
[-15.3565,27.8009],
[-15.3048,28.1224],
[-15.7619,28.1867],
[-15.8276,28.0581]
]
],
[
[
[-14.3203,28.0581],
[-13.8062,28.251],
[-13.763,28.701],
[-13.7677,28.7652],
[-14.065,28.701],
[-14.1171,28.3795],
[-14.2633,28.3153],
[-14.3203,28.0581]
]
],
[
[
[-13.8621,29.0224],
[-13.8479,28.8295],
[-13.4749,28.8938],
[-13.4228,29.2152],
[-13.6497,29.2152],
[-13.8621,29.0224]
]
],
[
[
[-2.9926,35.4514],
[-2.9816,35.2584],
[-2.827,35.2584],
[-2.8379,35.4514],
[-2.9926,35.4514]
]
],
[
[
[-0.9171,35.7089],
[-0.9076,35.5158],
[-0.6724,35.4514],
[-0.4465,35.5802],
[-0.53,35.7089],
[-0.9171,35.7089]
]
],
[
[
[119.8477,15.9076],
[120.0406,14.8147],
[120.3149,14.6861],
[120.2859,14.4932],
[120.6436,14.4289],
[120.6187,14.7504],
[120.9664,14.6218],
[120.947,14.4932],
[120.6245,14.3004],
[120.587,14.0432],
[120.9183,14.3004],
[121.212,14.3004],
[121.3734,14.8789],
[121.2365,14.9432],
[121.163,14.9432],
[120.9525,15.0075],
[120.6681,15.9718],
[120.4258,15.8433],
[120.4045,15.7147],
[120.1529,15.9718],
[119.8477,15.9076]
]
],
[
[
[120.101,13.7218],
[120.3122,13.6575],
[120.3212,13.7218],
[120.2659,13.8503],
[120.1191,13.8503],
[120.101,13.7218]
]
],
[
[
[120.3414,13.336],
[120.6737,13.0789],
[120.7049,12.7575],
[120.8432,12.6932],
[120.949,12.3717],
[121.218,12.1789],
[121.2913,12.1789],
[121.5514,12.5003],
[121.5623,13.1432],
[121.4243,13.2075],
[121.4417,13.336],
[121.3127,13.4646],
[120.7435,13.5932],
[120.3678,13.5289],
[120.3414,13.336]
]
],
[
[
[121.2365,14.9432],
[121.31,14.9432],
[121.3201,15.0075],
[121.2466,15.0075],
[121.2365,14.9432]
]
],
[
[
[121.744,13.4003],
[121.8643,13.2075],
[122.1577,13.2075],
[122.202,13.5289],
[121.7529,13.4646],
[121.744,13.4003]
]
],
[
[
[121.8226,11.7289],
[122.0346,11.6646],
[121.9458,10.8931],
[121.8727,10.8931],
[121.8967,10.4431],
[122.5027,10.636],
[122.4749,10.3788],
[122.6212,10.3788],
[122.7883,10.5717],
[122.7364,10.7645],
[122.7435,10.8288],
[122.8383,11.0217],
[123.1384,11.086],
[123.1176,11.536],
[122.5395,11.6003],
[122.4161,11.7931],
[121.9269,11.986],
[121.8226,11.7289]
]
],
[
[
[121.8774,12.1789],
[121.9506,12.1789],
[121.9427,12.1146],
[122.0892,12.1146],
[122.1295,12.436],
[121.9015,12.3717],
[121.8774,12.1789]
]
],
[
[
[121.9911,12.5003],
[122.146,12.5646],
[122.2193,12.5646],
[122.2359,12.6932],
[122.016,12.6932],
[121.9911,12.5003]
]
],
[
[
[122.3285,9.6717],
[122.5888,9.3502],
[122.8685,9.2216],
[122.85,9.0288],
[123.2152,9.0288],
[123.3069,9.2216],
[123.3132,9.2859],
[123.1455,9.8002],
[123.3525,10.3788],
[123.5127,10.5074],
[123.5628,10.9574],
[123.0579,11.0217],
[122.897,10.8931],
[122.7883,10.5717],
[122.8133,10.1217],
[122.3612,9.9931],
[122.3285,9.6717]
]
],
[
[
[122.4145,12.3717],
[122.5448,12.2432],
[122.6913,12.2432],
[122.7157,12.436],
[122.5124,12.5646],
[122.4145,12.3717]
]
],
[
[
[122.9296,12.9503],
[123.0677,12.886],
[123.0591,12.8217],
[123.3439,12.7575],
[123.361,12.886],
[123.2229,12.9503],
[123.1757,13.1432],
[122.9557,13.1432],
[122.9296,12.9503]
]
],
[
[
[123.172,11.986],
[123.3265,12.0503],
[123.3997,12.0503],
[123.5543,12.1146],
[123.8075,11.7931],
[124.0926,11.7289],
[124.0671,12.1146],
[123.7252,12.3074],
[123.8316,12.5646],
[123.7667,12.6289],
[123.6201,12.6289],
[123.6034,12.5003],
[123.237,12.5003],
[123.172,11.986]
]
],
[
[
[123.2592,9.4788],
[123.4785,9.4788],
[123.6041,9.9931],
[123.8506,10.2502],
[123.9969,10.2502],
[124.1121,11.2788],
[123.885,11.2146],
[123.659,10.5074],
[123.4119,10.2502],
[123.2786,9.6717],
[123.2592,9.4788]
]
],
[
[
[123.4406,9.0931],
[123.5805,9.0288],
[123.739,9.1574],
[123.7453,9.2216],
[123.6849,9.3502],
[123.5387,9.3502],
[123.4406,9.0931]
]
],
[
[
[123.5162,12.9503],
[123.7922,12.8217],
[123.8965,12.5003],
[124.1164,12.5003],
[124.1848,13.0146],
[124.1115,13.0146],
[124.1379,13.2075],
[123.9179,13.2075],
[123.5162,12.9503]
]
],
[
[
[123.5701,11.0217],
[123.7896,11.0217],
[123.8193,11.2788],
[123.6729,11.2788],
[123.6655,11.2146],
[123.5701,11.0217]
]
],
[
[
[123.7369,9.8645],
[123.7772,9.5431],
[124.5942,9.6717],
[124.6209,9.9288],
[124.5019,10.186],
[124.0563,10.1217],
[123.9832,10.1217],
[123.7369,9.8645]
]
]
]}
}
