{
"type": "Feature",
"properties": {"id":"cliopatria-beylik-of-karaman-1333","edge_precision":"unknown","cliopatria_name":"Beylik of Karaman","cliopatria_from_year":1333,"cliopatria_to_year":1343,"cliopatria_area_km2":99333,"cliopatria_wikidata":"Q1469100","cliopatria_wikipedia":"Karamanids","cliopatria_seshat_id":"tr_karaman_bey"},
"geometry": {"type": "MultiPolygon", "coordinates": [
[
[
[30.9338,38.6743],
[31.5551,38.6097],
[31.8495,38.416],
[31.8368,38.2869],
[31.5174,38.2224],
[30.9998,37.7062],
[31.6844,37.5128],
[31.8043,37.126],
[31.9601,37.126],
[31.7689,36.7393],
[31.763,36.6749],
[32.0681,36.6105],
[32.4985,36.224],
[32.5583,36.0308],
[33.5848,36.224],
[33.6624,36.224],
[33.6098,36.4816],
[33.7779,36.6105],
[33.7517,37.126],
[34.3036,37.1904],
[34.5647,37.4483],
[34.8767,37.4483],
[35.0609,37.7062],
[35.395,37.8998],
[35.3459,38.1578],
[35.2041,38.2869],
[34.8908,38.2869],
[34.6776,38.4806],
[35.0571,39.7083],
[34.4341,39.7729],
[34.3706,39.9023],
[34.2917,39.9023],
[33.4014,39.7083],
[33.0932,39.7729],
[32.6288,39.1265],
[32.3794,38.9972],
[32.2222,38.9972],
[31.7838,39.3203],
[31.804,39.5143],
[31.1738,39.5143],
[31.0373,38.9326],
[31.0248,38.8034],
[30.9463,38.8034],
[30.9338,38.6743]
]
]
]}
}
