{
"type": "Feature",
"properties": {"id":"cliopatria-grand-duchy-of-lithuania-1326","edge_precision":"unknown","cliopatria_name":"Grand Duchy of Lithuania","cliopatria_from_year":1326,"cliopatria_to_year":1351,"cliopatria_area_km2":282763,"cliopatria_wikidata":"Q49683","cliopatria_wikipedia":"Grand Duchy of Lithuania","cliopatria_seshat_id":"lt_lithuania_grand_duc"},
"geometry": {"type": "MultiPolygon", "coordinates": [
[
[
[20.9098,55.9766],
[20.9977,55.9766],
[20.9913,55.9082],
[21.2482,55.8398],
[21.2352,55.7031],
[21.6401,55.3618],
[22.0703,55.2936],
[22.3114,55.0892],
[22.573,55.0892],
[22.813,54.8851],
[22.7045,54.6811],
[22.6623,54.2739],
[22.4822,54.2061],
[22.4618,54.0029],
[22.5482,54.0029],
[22.4214,53.5971],
[22.4942,53.4621],
[22.3025,53.2596],
[22.6462,53.2596],
[22.6329,53.1248],
[22.3432,52.7881],
[22.4033,52.5191],
[22.147,52.5191],
[22.2015,52.1833],
[22.3719,52.1833],
[22.6874,51.9151],
[22.6686,51.7142],
[22.9955,51.5803],
[23.9284,51.5803],
[24.2959,51.8481],
[24.6431,51.9151],
[24.6577,52.0492],
[24.9281,52.1833],
[25.0833,52.0492],
[25.1307,51.7142],
[25.478,51.7811],
[25.6095,51.4465],
[26.0254,51.3797],
[25.9868,51.0457],
[26.4937,51.0457],
[26.9487,51.3128],
[27.6431,51.4465],
[28.1023,51.7142],
[28.4122,52.1163],
[29.2638,52.1163],
[29.3005,51.7811],
[29.6767,51.4465],
[30.2698,51.4465],
[30.3347,51.3128],
[30.504,51.3128],
[30.5986,51.3797],
[30.524,51.4465],
[30.585,51.8481],
[30.4355,51.9822],
[30.4561,52.1163],
[30.402,52.3176],
[30.1667,52.4519],
[30.2084,52.7208],
[29.9621,52.7881],
[29.9817,53.4621],
[30.3919,53.8676],
[30.4818,54.4095],
[30.4064,54.4774],
[30.8116,54.8171],
[30.9698,55.2255],
[30.8825,55.2255],
[30.9305,55.4983],
[30.7674,55.5665],
[30.8035,55.7715],
[30.6521,55.9082],
[30.6763,56.0451],
[30.5125,56.1136],
[30.4728,56.3877],
[30.1081,56.3191],
[29.9555,56.4563],
[29.9792,56.5937],
[29.5844,56.8686],
[28.3778,57.0751],
[27.891,56.7998],
[27.8803,56.7311],
[28.1239,56.5937],
[28.1477,56.1821],
[27.9716,56.1821],
[27.47,55.7715],
[26.8658,55.8398],
[26.5832,55.7031],
[25.8309,55.9766],
[25.7615,56.1136],
[25.0665,56.1821],
[24.8286,56.3877],
[24.1065,56.2506],
[22.1902,56.4563],
[21.8372,56.4563],
[21.8302,56.3877],
[21.5656,56.3877],
[20.9162,56.0451],
[20.9098,55.9766]
]
]
]}
}
