{
"type": "Feature",
"properties": {"id":"cliopatria-estado-novo-1946","edge_precision":"unknown","cliopatria_name":"Estado Novo","cliopatria_from_year":1946,"cliopatria_to_year":1948,"cliopatria_area_km2":2201770,"cliopatria_wikidata":"Q824489","cliopatria_wikipedia":"Estado Novo (Portugal)"},
"geometry": {"type": "MultiPolygon", "coordinates": [
[
[
[73,20.0862],
[73.1802,20.0862],
[73.1871,20.1505],
[73,20.1921],
[73,20.0862]
]
],
[
[
[73.7901,15.329],
[73.8636,15.329],
[73.8575,15.2647],
[73.9311,15.2647],
[73.919,15.1361],
[74.2391,14.6218],
[74.3126,14.6218],
[74.5506,14.8147],
[74.5194,15.2647],
[74.1028,15.5218],
[73.8023,15.4575],
[73.7901,15.329]
]
],
[
[
[113.4156,22.1434],
[113.6387,22.1434],
[113.6866,22.4005],
[113.4514,22.3363],
[113.4156,22.1434]
]
]
]}
}
