{
"type": "Feature",
"properties": {"id":"cliopatria-emirate-of-diriyah-1814","edge_precision":"unknown","cliopatria_name":"Emirate of Diriyah","cliopatria_from_year":1814,"cliopatria_to_year":1814,"cliopatria_area_km2":1843860,"cliopatria_wikidata":"Q146871","cliopatria_wikipedia":"Emirate of Diriyah"},
"geometry": {"type": "MultiPolygon", "coordinates": [
[
[
[37.1924,30.4364],
[37.2195,29.858],
[37.6763,28.9581],
[37.9581,28.701],
[38.0136,28.4438],
[38.2299,28.3153],
[38.4217,27.8652],
[38.7037,27.6081],
[38.7599,27.3509],
[38.9057,27.2866],
[38.8963,27.158],
[39.3148,26.708],
[39.4379,26.3222],
[39.5835,26.258],
[39.7778,25.8079],
[39.9234,25.7436],
[40.2475,24.9721],
[40.393,24.9078],
[40.5186,24.5221],
[40.8686,24.1363],
[41.2672,23.3006],
[41.5506,23.0434],
[41.5961,22.5291],
[41.7342,22.3363],
[41.4657,21.5005],
[41.155,21.2434],
[40.9896,20.922],
[40.7602,20.7934],
[40.5952,20.472],
[40.2112,20.2148],
[40.2079,20.1505],
[40.851,19.7005],
[40.8408,19.5077],
[40.9854,19.4434],
[41.0421,19.1219],
[41.2501,18.8648],
[41.2361,18.6076],
[41.4508,18.4791],
[41.7849,17.8362],
[42.2802,17.4505],
[42.3363,17.129],
[42.4837,17.129],
[42.817,16.4861],
[42.8135,16.4219],
[43.4242,16.8076],
[43.5898,17.129],
[43.9622,17.1933],
[44.9947,17.1933],
[45.2974,17.3219],
[46.6171,17.1933],
[46.9161,17.2576],
[46.9242,17.3862],
[47.2274,17.5148],
[47.4447,17.4505],
[47.457,17.6433],
[47.6087,17.7076],
[47.826,17.6433],
[47.8343,17.7719],
[48.4332,17.9005],
[48.5198,18.0933],
[48.6675,18.0933],
[49.5192,18.6719],
[53.3922,19.0577],
[54.3735,19.3148],
[54.9262,19.7648],
[54.9361,19.8934],
[55.1633,19.9577],
[55.198,20.4077],
[55.5646,21.3077],
[55.5307,21.822],
[55.6998,22.0791],
[55.699,22.9791],
[55.5662,23.172],
[55.5771,23.3006],
[55.7261,23.3006],
[55.6626,23.4291],
[55.7595,23.6863],
[55.8341,23.6863],
[55.8511,23.8792],
[56.0119,24.0077],
[56.0653,24.5864],
[56.4016,24.9721],
[56.408,25.0364],
[56.4957,25.165],
[56.4208,25.165],
[56.4603,25.5507],
[56.3854,25.5507],
[56.3921,25.615],
[56.249,25.6793],
[56.2831,26.0008],
[56.0651,26.0651],
[56.0582,26.0008],
[55.6431,25.615],
[55.4119,25.5507],
[55.1427,25.1007],
[54.7442,24.8435],
[54.5591,24.4578],
[54.3178,24.2649],
[54.0995,24.3292],
[54.0825,24.1363],
[53.112,24.1363],
[52.6003,24.2649],
[52.2801,24.0077],
[51.907,24.0077],
[51.8535,24.2649],
[51.4108,24.3292],
[51.5236,24.7792],
[51.69,24.9721],
[51.7188,25.2936],
[51.575,25.3579],
[51.6979,25.8722],
[51.4228,26.1294],
[51.1229,26.1294],
[50.9545,25.9365],
[50.9246,25.615],
[50.769,25.5507],
[50.7289,25.1007],
[50.6541,25.1007],
[50.6076,25.4221],
[50.3255,25.615],
[50.211,26.0008],
[50.067,26.0651],
[50.223,26.1294],
[50.2537,26.4508],
[50.116,26.5794],
[50.135,26.7723],
[49.3596,27.2866],
[49.2419,27.6081],
[48.8722,27.6724],
[48.9741,27.9295],
[48.5627,28.3153],
[48.5834,28.5081],
[48.4394,28.5724],
[48.392,28.8295],
[47.8632,28.8295],
[47.4449,29.1509],
[47.4805,29.4723],
[47.7443,29.7937],
[47.3118,29.9865],
[47.2509,30.1151],
[45.68,30.3079],
[45.1235,30.7578],
[45.1382,30.8863],
[44.7188,31.2076],
[44.7337,31.3362],
[44.5127,31.4005],
[44.5277,31.529],
[44.108,31.8503],
[44.1004,31.7861],
[43.6969,31.5933],
[43.5844,31.2719],
[43.2657,31.1434],
[43.1205,31.2076],
[43.1064,31.0791],
[42.4149,31.0148],
[41.3903,31.4005],
[41.397,31.4647],
[41.2447,31.4647],
[40.8975,31.7861],
[40.3142,32.0431],
[39.4878,32.1717],
[39.1823,32.1717],
[38.9339,31.9789],
[38.0759,31.7861],
[37.9996,31.7861],
[37.3076,30.8863],
[37.1924,30.4364]
]
],
[
[
[43.1967,31.2076],
[43.2728,31.2076],
[43.2799,31.2719],
[43.2038,31.2719],
[43.1967,31.2076]
]
],
[
[
[55.5999,21.7577],
[55.6742,21.7577],
[55.6793,21.822],
[55.605,21.822],
[55.5999,21.7577]
]
],
[
[
[55.7316,23.3649],
[55.8062,23.3649],
[55.8117,23.4291],
[55.7372,23.4291],
[55.7316,23.3649]
]
]
]}
}
