{
"type": "Feature",
"properties": {"id":"cliopatria-grand-duchy-of-tuscany-1848","edge_precision":"unknown","cliopatria_name":"Grand Duchy of Tuscany","cliopatria_from_year":1848,"cliopatria_to_year":1848,"cliopatria_area_km2":24632,"cliopatria_wikidata":"Q154849","cliopatria_wikipedia":"Grand Duchy of Tuscany"},
"geometry": {"type": "MultiPolygon", "coordinates": [
[
[
[9.9697,44.1243],
[9.9699,44.0591],
[10.1314,44.0591],
[10.2933,43.8634],
[10.5353,43.0816],
[11.0163,42.8213],
[11.0158,42.6262],
[11.176,42.6262],
[11.2552,42.4312],
[11.4949,42.3662],
[11.5748,42.3662],
[11.7366,42.6262],
[12.058,42.7563],
[12.1448,43.4723],
[12.3071,43.6027],
[12.3097,43.8634],
[11.9887,44.0591],
[11.7464,44.0591],
[11.5059,44.3854],
[10.8585,44.2548],
[10.6159,44.1243],
[9.9697,44.1243]
]
],
[
[
[10.1343,42.8864],
[10.2148,42.6912],
[10.4552,42.6912],
[10.4551,42.8864],
[10.1343,42.8864]
]
]
]}
}
