{
"type": "Feature",
"properties": {"id":"cliopatria-kingdom-of-jerusalem-1111","edge_precision":"unknown","cliopatria_name":"Kingdom of Jerusalem","cliopatria_from_year":1111,"cliopatria_to_year":1125,"cliopatria_area_km2":36749,"cliopatria_wikidata":"Q55502","cliopatria_wikipedia":"Kingdom of Jerusalem","cliopatria_seshat_id":"il_jerusalem_k_1"},
"geometry": {"type": "MultiPolygon", "coordinates": [
[
[
[33.5873,30.9506],
[33.8816,30.822],
[34.1609,30.5007],
[34.6774,30.3079],
[34.9176,29.4723],
[34.9933,29.4723],
[35.5152,31.2719],
[35.5207,31.3362],
[35.4664,31.5933],
[35.6356,31.7861],
[35.6639,32.1074],
[35.5283,32.3002],
[35.5456,32.4931],
[35.8929,32.943],
[35.911,33.1359],
[35.7698,33.2645],
[35.8251,33.8432],
[35.7482,33.8432],
[35.447,33.9075],
[35.4993,33.6502],
[35.3458,33.6502],
[35.3984,33.3931],
[35.2154,33.0716],
[35.0563,33.0073],
[35.0218,32.6216],
[34.7698,32.3645],
[34.813,31.9789],
[34.5733,31.8503],
[34.6388,31.7218],
[34.5466,31.529],
[34.3076,31.4005],
[34.2972,31.2719],
[33.6733,31.0791],
[33.5972,31.0791],
[33.5873,30.9506]
]
]
]}
}
