{
"type": "Feature",
"properties": {"id":"cliopatria-phoenicia-751bce","edge_precision":"unknown","cliopatria_name":"Phoenicia","cliopatria_from_year":-750,"cliopatria_to_year":-676,"cliopatria_area_km2":28357,"cliopatria_wikidata":"Q41642","cliopatria_wikipedia":"Phoenicia","cliopatria_seshat_id":"lb_phoenician_emp","cliopatria_member_of":"(Phoenician Empire)"},
"geometry": {"type": "MultiPolygon", "coordinates": [
[
[
[-6.2475,36.6105],
[-6.0638,36.224],
[-5.8311,36.224],
[-5.5848,36.0308],
[-5.5162,36.1596],
[-5.2879,36.224],
[-5.2282,36.4816],
[-4.6888,36.546],
[-4.4686,36.7393],
[-3.8507,36.8037],
[-4.5551,36.8682],
[-5.3104,36.546],
[-5.3059,36.4816],
[-5.4521,36.3528],
[-5.9179,36.3528],
[-6.2475,36.6105]
]
],
[
[
[7.2715,36.8682],
[7.6651,36.546],
[7.9709,36.9326],
[7.6596,36.9326],
[7.6587,36.9971],
[7.3463,37.0615],
[7.2715,36.8682]
]
],
[
[
[8.8265,36.9971],
[8.9827,36.9326],
[8.9833,36.8682],
[9.2954,36.7393],
[9.6828,36.9971],
[9.9945,36.9326],
[10.0716,37.126],
[10.2276,37.0615],
[10.227,37.2549],
[9.9934,37.1904],
[9.6031,37.3193],
[9.0595,37.0615],
[8.9032,37.126],
[8.8265,36.9971]
]
],
[
[
[9.8397,36.7393],
[10.2295,36.4172],
[10.2299,36.2884],
[10.5405,36.224],
[10.4625,36.4172],
[11.0062,36.8037],
[11.0063,36.9971],
[10.8506,36.9971],
[10.5396,36.7393],
[10.2282,36.8682],
[9.9175,36.7393],
[9.8397,36.7393]
]
],
[
[
[10.228,36.9326],
[10.2282,36.8682],
[10.306,36.8682],
[10.3058,36.9326],
[10.228,36.9326]
]
],
[
[
[10.5416,35.5158],
[10.6192,35.3227],
[11.0058,35.4514],
[11.0057,35.3871],
[11.083,35.3871],
[11.0832,35.5802],
[10.851,35.6445],
[10.851,35.7733],
[10.5416,35.5158]
]
],
[
[
[14.3688,32.5574],
[14.5166,32.1717],
[14.8248,32.3645],
[14.9013,32.3645],
[14.6747,32.5574],
[14.3688,32.5574]
]
],
[
[
[33.2382,35.001],
[33.292,34.7436],
[33.5234,34.7436],
[33.8557,35.001],
[34.0873,35.001],
[34.0995,35.1297],
[33.9511,35.194],
[33.9571,35.2584],
[33.8086,35.3227],
[33.4698,35.001],
[33.2382,35.001]
]
],
[
[
[35.2213,33.1359],
[35.4452,33.0716],
[35.7759,33.3288],
[36.0244,33.5217],
[36.0493,33.7789],
[36.2347,34.1004],
[36.2799,34.5506],
[36.2029,34.5506],
[36.3128,34.8723],
[36.165,34.9366],
[36.1849,35.1297],
[36.3527,35.2584],
[36.373,35.4514],
[36.2318,35.5802],
[35.9929,35.5158],
[35.9863,35.4514],
[35.8825,35.194],
[35.9597,35.194],
[35.927,34.8723],
[36.0682,34.7436],
[36.0488,34.5506],
[35.7921,34.2933],
[35.6445,34.3577],
[35.6838,33.9718],
[35.447,33.9075],
[35.4993,33.6502],
[35.3458,33.6502],
[35.3984,33.3931],
[35.2272,33.2002],
[35.2213,33.1359]
]
]
]}
}
