{
"type": "Feature",
"properties": {"id":"cliopatria-turks-0755","edge_precision":"unknown","cliopatria_name":"Turks","cliopatria_from_year":755,"cliopatria_to_year":756,"cliopatria_area_km2":161454,"cliopatria_wikidata":"Q2118293","cliopatria_wikipedia":"Turk"},
"geometry": {"type": "MultiPolygon", "coordinates": [
[
[
[71.4791,36.9326],
[71.5834,36.7393],
[71.8945,36.7393],
[72.3352,36.9326],
[72.2489,36.6105],
[72.2585,36.3528],
[72.5014,36.0952],
[72.4678,35.9664],
[72.7443,35.8377],
[72.711,35.7089],
[73.1369,35.2584],
[73.1735,35.2584],
[73.3009,35.3382],
[73.2744,35.8992],
[73.155,36.1461],
[73.2943,36.4936],
[73.2545,36.9828],
[73.8849,36.9775],
[74.137,36.7758],
[74.6877,36.7066],
[74.847,36.3173],
[75.8423,35.6462],
[76.0859,35.5921],
[76.5998,35.7733],
[77.489,37.2549],
[77.8415,38.1578],
[77.667,38.3515],
[77.5104,38.3515],
[77.4144,38.5451],
[77.2576,38.5451],
[77.1618,38.7389],
[76.5951,38.9326],
[74.0053,39.4496],
[73.3753,39.4496],
[72.0233,38.6097],
[71.7922,38.3515],
[71.4973,37.5773],
[71.5754,37.5773],
[71.4791,36.9326]
]
]
]}
}
