{
"type": "Feature",
"properties": {"id":"cliopatria-sumerian-city-states-2501bce","edge_precision":"unknown","cliopatria_name":"Sumerian City-States","cliopatria_from_year":-2500,"cliopatria_to_year":-2301,"cliopatria_area_km2":106576,"cliopatria_wikidata":"Q2345840","cliopatria_wikipedia":"History of Sumer"},
"geometry": {"type": "MultiPolygon", "coordinates": [
[
[
[40.5181,34.5506],
[40.7881,34.229],
[42.3804,34.0361],
[42.8866,33.7789],
[42.9475,33.6502],
[43.2467,33.5859],
[43.3075,33.4574],
[43.4609,33.4574],
[43.5217,33.3288],
[43.8204,33.2645],
[43.9497,33.0716],
[44.103,33.0716],
[44.322,32.3645],
[44.712,32.4288],
[44.8333,32.1717],
[45.0624,32.1717],
[45.1993,32.0431],
[45.1836,31.9146],
[45.3968,31.7861],
[45.305,31.6575],
[45.4497,31.5933],
[45.6779,30.9506],
[46.2944,30.3722],
[46.5906,30.3079],
[46.6965,30.565],
[47.2358,30.6292],
[47.2513,30.7578],
[47.799,30.8863],
[48.2552,30.8863],
[48.915,30.6935],
[48.9476,30.9506],
[48.8716,30.9506],
[48.5752,32.1717],
[47.8545,32.4931],
[47.693,32.4288],
[47.0221,32.5574],
[46.7587,32.8788],
[46.1631,33.0073],
[46.1464,33.4574],
[45.7372,33.2645],
[45.5503,33.0073],
[45.0224,33.0716],
[44.7487,33.3288],
[44.5954,33.3288],
[44.4999,33.7789],
[44.2612,33.7146],
[43.8415,34.0361],
[43.3277,34.229],
[43.2672,34.3577],
[42.9674,34.422],
[42.9756,34.4863],
[42.7364,34.422],
[42.5215,34.5506],
[42.5378,34.6793],
[41.836,34.615],
[41.235,34.7436],
[40.9959,34.6793],
[40.8572,34.8079],
[40.6181,34.7436],
[40.5181,34.5506]
]
]
]}
}
