{
"type": "Feature",
"properties": {"id":"cliopatria-sikh-empire-1820","edge_precision":"unknown","cliopatria_name":"Sikh Empire","cliopatria_from_year":1820,"cliopatria_to_year":1821,"cliopatria_area_km2":202529,"cliopatria_wikidata":"Q83572","cliopatria_wikipedia":"Sikh Empire"},
"geometry": {"type": "MultiPolygon", "coordinates": [
[
[
[70.6857,28.8938],
[71.1096,29.1509],
[71.1329,29.2795],
[71.9132,29.4081],
[72.24,29.5366],
[72.6171,29.9223],
[73.9205,30.3722],
[73.9469,30.5007],
[74.7812,31.2076],
[75.39,31.2076],
[75.576,31.0148],
[76.4887,31.0148],
[76.3794,31.2076],
[76.4989,31.4005],
[76.3904,31.5933],
[76.6021,31.8503],
[76.8609,31.9789],
[77.2425,31.9789],
[77.2729,32.1074],
[77.5327,32.236],
[77.8228,32.1717],
[77.9458,32.3645],
[78.0986,32.3645],
[78.1438,32.236],
[78.4807,32.3645],
[78.5123,32.4931],
[78.3306,32.6859],
[78.0852,32.6216],
[77.8109,32.7502],
[77.8428,32.8788],
[77.7217,33.0073],
[77.3228,32.943],
[76.8503,33.2002],
[75.3172,33.2002],
[75.3485,33.3288],
[75.5019,33.3288],
[75.7029,33.5217],
[75.7671,33.7789],
[75.5688,33.9075],
[75.585,33.9718],
[75.4413,34.615],
[75.3038,34.6793],
[75.2767,34.8723],
[74.5823,34.8723],
[74.4777,35.0653],
[74.1688,35.0653],
[73.3442,34.5506],
[73.3398,33.9075],
[73.4167,33.9075],
[73.4927,33.2645],
[73.5694,33.2645],
[73.5088,33.0073],
[73.0025,33.1359],
[73.201,33.6502],
[72.6946,34.1004],
[71.2174,34.3577],
[71.0793,34.1004],
[70.8184,33.9718],
[71.3731,33.7146],
[71.3432,33.5859],
[71.6353,33.5217],
[71.8207,33.3288],
[71.7911,33.2002],
[71.9149,33.0716],
[71.751,32.6859],
[71.8752,32.5574],
[71.8182,32.3002],
[72.005,32.1074],
[72.4489,32.0431],
[72.3929,31.7861],
[72.4691,31.7861],
[72.2341,31.4005],
[72.2295,31.0148],
[72.0509,30.8863],
[72.0116,30.6935],
[71.8467,30.6292],
[71.7068,30.3079],
[71.0012,29.7937],
[70.7782,29.4081],
[70.6857,28.8938]
]
]
]}
}
