{
"type": "Feature",
"properties": {"id":"cliopatria-timurid-empire-1526","edge_precision":"unknown","cliopatria_name":"Timurid Empire","cliopatria_from_year":1526,"cliopatria_to_year":1528,"cliopatria_area_km2":606125,"cliopatria_wikidata":"","cliopatria_wikipedia":""},
"geometry": {"type": "MultiPolygon", "coordinates": [
[
[
[63.8927,29.4081],
[63.9683,29.4081],
[64.5298,29.6009],
[65.1247,29.5366],
[66.3156,29.858],
[66.6229,30.3079],
[67.3817,30.3079],
[67.7449,30.6292],
[67.8942,31.0148],
[68.2995,31.1434],
[68.4778,30.8863],
[68.6298,30.8863],
[68.8843,30.6292],
[69.067,29.9865],
[69.2589,29.7937],
[69.4104,29.7937],
[69.783,29.3438],
[70.01,29.3438],
[70.3421,29.0867],
[72.1506,28.6367],
[72.3771,28.6367],
[72.7255,28.8938],
[72.7373,28.9581],
[72.5064,29.3438],
[72.5797,29.7294],
[73.214,30.6292],
[73.8578,30.4364],
[73.9701,30.2436],
[74.4749,30.1151],
[74.4489,29.9865],
[76.6666,28.9581],
[77.0318,28.8938],
[77.2837,29.0224],
[77.2854,29.4081],
[76.2284,29.7937],
[76.1165,29.9865],
[73.6258,31.1434],
[74.2663,31.9789],
[74.419,31.9789],
[74.9805,32.4288],
[74.7811,32.5574],
[74.3988,32.5574],
[74.2142,32.7502],
[73.77,32.8145],
[73.5088,33.0073],
[73.5694,33.2645],
[73.4927,33.2645],
[73.4167,33.9075],
[73.3398,33.9075],
[73.3282,34.4863],
[73.2511,34.4863],
[71.6503,34.8723],
[71.6558,35.5158],
[71.0444,36.1596],
[71.0497,36.4816],
[70.972,36.4816],
[70.9782,36.8037],
[70.9004,36.8037],
[70.9855,37.126],
[70.8469,37.1904],
[70.8814,37.3193],
[70.1532,37.5128],
[70.1704,37.5773],
[69.546,37.5773],
[69.3498,37.126],
[69.1161,37.126],
[69.0103,37.3193],
[68.5094,37.1904],
[68.4765,37.0615],
[68.7101,37.0615],
[68.6773,36.9326],
[68.878,36.8037],
[68.624,36.0952],
[68.4228,36.224],
[67.3832,36.0952],
[66.964,36.2884],
[66.3279,36.224],
[65.6951,34.8079],
[65.1751,33.4574],
[64.7636,32.943],
[64.6743,32.4931],
[64.5978,32.4931],
[63.8927,29.4081]
]
]
]}
}
