{
"type": "Feature",
"properties": {"id":"cliopatria-republic-of-nicaragua-1846","edge_precision":"unknown","cliopatria_name":"Republic of Nicaragua","cliopatria_from_year":1846,"cliopatria_to_year":1852,"cliopatria_area_km2":111716,"cliopatria_wikidata":"Q811","cliopatria_wikipedia":"Nicaragua"},
"geometry": {"type": "MultiPolygon", "coordinates": [
[
[
[-87.6611,13.0789],
[-87.5482,12.6932],
[-86.924,12.3074],
[-86.5833,11.7931],
[-85.8796,11.2788],
[-85.7903,11.086],
[-85.7171,11.086],
[-85.3565,11.1503],
[-85.1213,10.9574],
[-84.4679,11.0217],
[-83.9305,10.7003],
[-83.5746,10.8288],
[-83.5847,10.9574],
[-83.6579,10.9574],
[-83.663,11.0217],
[-84.0288,11.0217],
[-83.966,11.1503],
[-84.1229,11.2788],
[-84.139,11.4717],
[-84.0658,11.4717],
[-83.9753,12.886],
[-83.8479,13.0789],
[-83.908,13.6575],
[-83.612,14.3004],
[-83.6342,14.4932],
[-83.8927,14.8147],
[-84.3105,14.6218],
[-84.9137,14.7504],
[-85.111,14.5575],
[-85.0958,14.4289],
[-85.6904,13.8503],
[-86.1453,13.9789],
[-86.2704,13.7861],
[-86.6374,13.7861],
[-86.6615,13.336],
[-86.8083,13.336],
[-86.9945,13.0146],
[-87.2811,12.9503],
[-87.3544,12.9503],
[-87.4411,13.0789],
[-87.6611,13.0789]
]
]
]}
}
