{
"type": "Feature",
"properties": {"id":"cliopatria-ottoman-tripolitania-1885","edge_precision":"unknown","cliopatria_name":"Ottoman Tripolitania","cliopatria_from_year":1885,"cliopatria_to_year":1894,"cliopatria_area_km2":881872,"cliopatria_wikidata":"Q1529261","cliopatria_wikipedia":"Ottoman Tripolitania"},
"geometry": {"type": "MultiPolygon", "coordinates": [
[
[
[9.3342,30.1794],
[9.4873,29.858],
[9.7144,29.9223],
[10.1696,29.7294],
[10.2456,29.6009],
[11.6073,29.0224],
[11.6071,28.8938],
[11.7583,28.9581],
[12.3614,28.5724],
[12.889,28.4438],
[12.9635,28.251],
[13.1889,28.1224],
[13.0365,27.8009],
[11.9802,26.8366],
[11.98,26.708],
[11.6043,26.5151],
[11.6793,26.3865],
[11.5292,26.258],
[11.3792,26.3222],
[11.3792,26.1294],
[10.8549,25.6793],
[10.8551,25.5507],
[10.2577,24.9721],
[10.2581,24.8435],
[10.1083,24.9078],
[10.1839,24.6506],
[10.4086,24.4578],
[10.9315,24.5221],
[11.3051,24.3935],
[11.9776,24.6506],
[13.2487,24.8435],
[14.1452,24.7149],
[14.2936,24.5221],
[14.285,22.8506],
[14.5077,22.722],
[15.1045,22.9148],
[15.2548,23.1077],
[15.928,23.4291],
[16.3741,23.3006],
[16.3753,23.4291],
[17.2734,23.7506],
[17.4994,23.9435],
[18.7009,24.4578],
[18.924,24.3935],
[18.9781,27.4152],
[19.1285,27.4152],
[19.056,27.5438],
[19.1326,27.6081],
[19.2832,27.6081],
[19.5149,27.8652],
[19.9715,28.0581],
[20.2042,28.3153],
[20.3551,28.3153],
[21.1262,28.8938],
[21.2773,28.8938],
[21.2812,29.0224],
[21.5059,28.9581],
[21.7185,28.5081],
[22.1612,28.1867],
[22.9862,28.0581],
[22.9151,28.1867],
[23.2189,28.251],
[23.6853,28.6367],
[23.9314,29.1509],
[23.9339,29.2152],
[23.8055,29.7937],
[23.7297,29.7937],
[23.9106,30.5007],
[24.0737,30.7578],
[24.3074,30.8863],
[24.3132,31.0148],
[25.102,31.5933],
[25.1117,31.7861],
[24.8925,31.9789],
[24.1294,31.9789],
[23.6803,32.1717],
[23.1486,32.236],
[23.0894,32.6216],
[22.7098,32.6859],
[22.5623,32.8145],
[21.8787,32.943],
[21.4117,32.7502],
[21.108,32.8145],
[20.8712,32.6216],
[20.6441,32.6859],
[20.7159,32.5574],
[20.563,32.5574],
[20.482,32.4288],
[20.3313,32.4931],
[20.2461,32.236],
[20.017,32.236],
[20.0891,32.1074],
[19.9961,31.5933],
[20.2143,31.2719],
[20.1341,31.1434],
[20.2021,30.8863],
[19.9682,30.6935],
[19.9643,30.565],
[19.5014,30.3079],
[18.9686,30.2436],
[18.8961,30.3722],
[18.5925,30.3722],
[18.2223,30.7578],
[17.8468,30.9506],
[16.8635,31.2076],
[16.1786,31.2076],
[15.649,31.4005],
[15.576,31.5933],
[15.4246,31.6575],
[15.2069,32.3645],
[14.7493,32.4288],
[14.6747,32.5574],
[14.4444,32.4931],
[14.2175,32.6859],
[13.8357,32.7502],
[13.7591,32.7502],
[13.7605,32.8788],
[13.4537,32.8145],
[13.3017,32.943],
[13.072,32.943],
[12.8418,32.8788],
[12.8408,32.7502],
[12.5347,32.7502],
[12.6121,32.8788],
[12.229,32.8145],
[11.6176,33.1359],
[11.5409,33.1359],
[11.5394,32.5574],
[11.6159,32.5574],
[11.5389,32.3645],
[11.0039,32.236],
[10.4698,31.7218],
[10.1652,31.5933],
[10.319,30.822],
[9.9403,30.3722],
[9.4853,30.3079],
[9.4856,30.2436],
[9.3342,30.1794]
]
],
[
[
[11.5292,26.3865],
[11.6043,26.3865],
[11.6043,26.4508],
[11.5293,26.4508],
[11.5292,26.3865]
]
],
[
[
[12.0596,28.6367],
[12.1351,28.6367],
[12.1353,28.701],
[12.0598,28.701],
[12.0596,28.6367]
]
]
]}
}
