{
"type": "Feature",
"properties": {"id":"cliopatria-teng-481bce","edge_precision":"unknown","cliopatria_name":"Teng","cliopatria_from_year":-480,"cliopatria_to_year":-451,"cliopatria_area_km2":4225,"cliopatria_wikidata":"Q1356151","cliopatria_wikipedia":"Teng (state)","cliopatria_member_of":"(Warring States China)"},
"geometry": {"type": "MultiPolygon", "coordinates": [
[
[
[116.0975,35.0653],
[116.1969,34.9366],
[116.5056,34.9366],
[116.7045,34.6793],
[117.1785,35.0653],
[116.9253,35.194],
[116.9813,35.3227],
[116.904,35.3227],
[116.9603,35.4514],
[116.6721,35.3227],
[116.2856,35.3227],
[116.2578,35.2584],
[116.1805,35.2584],
[116.0975,35.0653]
]
]
]}
}
