{
"type": "Feature",
"properties": {"id":"cliopatria-new-netherland-1642","edge_precision":"unknown","cliopatria_name":"New Netherland","cliopatria_from_year":1642,"cliopatria_to_year":1644,"cliopatria_area_km2":344164,"cliopatria_wikidata":"Q382593","cliopatria_wikipedia":"New Netherland"},
"geometry": {"type": "MultiPolygon", "coordinates": [
[
[
[-75.154,40.0317],
[-75.1207,39.7729],
[-74.5222,40.0317],
[-74.5559,40.2906],
[-74.404,40.4849],
[-74.1665,40.4849],
[-74.1445,40.6144],
[-73.6408,40.5496],
[-73.4601,40.6792],
[-73.3809,40.6792],
[-73.7415,41.1328],
[-73.4529,41.1977],
[-73.3947,41.068],
[-73.2359,41.068],
[-73.2649,41.1328],
[-73.106,41.1328],
[-73.1351,41.1977],
[-73.3022,41.3922],
[-73.1725,41.4571],
[-73.0929,41.4571],
[-72.825,41.3922],
[-72.7667,41.2625],
[-72.4488,41.2625],
[-72.553,41.8465],
[-72.5827,41.9114],
[-72.752,42.1063],
[-73.5506,42.1063],
[-73.8446,42.5612],
[-74.2582,42.7563],
[-74.263,42.4312],
[-74.343,42.4312],
[-74.2388,42.0413],
[-74.3186,42.0413],
[-74.1386,41.1328],
[-74.4689,40.8088],
[-74.411,40.6792],
[-74.5118,40.5496],
[-74.9799,40.3554],
[-74.8155,40.1612],
[-75.154,40.0317]
]
],
[
[
[-70.0191,12.5646],
[-69.9306,12.3717],
[-69.784,12.3717],
[-69.7891,12.436],
[-69.8725,12.5646],
[-70.0191,12.5646]
]
],
[
[
[-69.1245,12.3717],
[-69.1098,12.1789],
[-68.9584,12.1146],
[-68.9536,12.0503],
[-68.6559,11.986],
[-68.7435,12.1789],
[-69.1245,12.3717]
]
],
[
[
[-68.3869,12.3074],
[-68.382,12.2432],
[-68.2944,12.0503],
[-68.1479,12.0503],
[-68.1622,12.2432],
[-68.3869,12.3074]
]
],
[
[
[-63.1635,18.2219],
[-63.1409,18.0291],
[-62.9194,18.0291],
[-62.9269,18.0933],
[-63.1635,18.2219]
]
],
[
[
[-58.8946,6.7144],
[-58.8793,6.1358],
[-58.7319,6.0715],
[-58.7288,5.943],
[-58.3643,5.943],
[-57.77,5.4287],
[-57.2598,5.4287],
[-57.1908,5.6215],
[-57.1921,5.6858],
[-57.1248,5.943],
[-57.2037,6.2001],
[-57.2798,6.3287],
[-57.4986,6.3287],
[-57.8005,6.7144],
[-58.4624,6.9073],
[-58.4663,7.0359],
[-58.6832,6.9716],
[-58.7505,6.7787],
[-58.8946,6.7144]
]
],
[
[
[-45.8233,-3.0573],
[-45.6786,-3.1216],
[-45.6828,-3.3787],
[-45.5382,-3.443],
[-45.5404,-3.5716],
[-45.0364,-3.893],
[-42.8546,-4.0859],
[-42.7113,-4.2145],
[-42.4187,-4.1502],
[-41.4049,-4.4716],
[-41.3359,-4.6645],
[-41.116,-4.6002],
[-40.1038,-4.9859],
[-39.3194,-5.7574],
[-38.4854,-7.3003],
[-38.5622,-7.4288],
[-38.4182,-7.4931],
[-38.3452,-7.4931],
[-36.0887,-7.686],
[-35.5105,-7.8789],
[-35.2974,-8.0717],
[-35.3095,-8.4575],
[-35.537,-8.7146],
[-35.5435,-8.9075],
[-35.3309,-9.1003],
[-35.2579,-9.1003],
[-35.1718,-8.7146],
[-35.0215,-8.586],
[-34.8337,-7.1717],
[-34.9066,-7.1717],
[-35.0313,-6.336],
[-35.1757,-6.2717],
[-35.1654,-5.8217],
[-35.303,-5.4359],
[-35.5881,-5.1145],
[-36.6813,-5.1145],
[-37.2592,-4.8573],
[-37.3296,-4.7288],
[-37.6915,-4.6002],
[-38.5504,-3.7002],
[-38.9126,-3.5716],
[-39.1273,-3.3144],
[-39.273,-3.3144],
[-39.4159,-3.1216],
[-39.9223,-2.8644],
[-40.9409,-2.8001],
[-41.5979,-2.9287],
[-41.8866,-2.7359],
[-42.3243,-2.8001],
[-43.1924,-2.3501],
[-43.8493,-2.4787],
[-43.9221,-2.4787],
[-44.0685,-2.543],
[-44.1397,-2.4144],
[-44.4309,-2.4144],
[-44.4286,-2.2216],
[-44.6463,-2.1573],
[-44.57,-1.8358],
[-44.86,-1.7073],
[-44.9304,-1.4501],
[-45.2944,-1.4501],
[-45.3683,-1.5787],
[-45.3689,-1.643],
[-45.5899,-1.9001],
[-45.8223,-2.993],
[-45.8233,-3.0573]
]
]
]}
}
