{
"type": "Feature",
"properties": {"id":"cliopatria-kingdom-of-france-1018","edge_precision":"unknown","cliopatria_name":"Kingdom of France","cliopatria_from_year":1018,"cliopatria_to_year":1027,"cliopatria_area_km2":32887,"cliopatria_wikidata":"Q207162","cliopatria_wikipedia":"Kingdom of France","cliopatria_seshat_id":"fr_capetian_k_1","cliopatria_member_of":"(Kingdom of France)"},
"geometry": {"type": "MultiPolygon", "coordinates": [
[
[
[1.4334,50.5789],
[1.4464,50.3791],
[1.7909,50.246],
[1.7827,50.3791],
[1.7785,50.4457],
[1.6944,50.4457],
[1.6018,50.5789],
[1.4334,50.5789]
]
],
[
[
[1.6855,47.8619],
[1.7681,47.8619],
[1.8923,47.1374],
[2.547,47.2032],
[2.5366,47.4006],
[2.3682,47.4665],
[2.3575,47.6641],
[2.5876,47.9938],
[2.6703,47.9938],
[2.8255,48.1917],
[3.0707,48.2578],
[3.0538,48.5881],
[2.8843,48.6542],
[2.7907,48.8527],
[3.0334,48.9851],
[3.03,49.0513],
[2.9467,49.0513],
[2.9432,49.1175],
[2.6135,49.0513],
[2.4394,49.1838],
[2.1893,49.1838],
[2.1251,48.8527],
[1.8003,48.7204],
[1.733,48.4559],
[1.6855,47.8619]
]
],
[
[
[3.7548,47.7959],
[3.7638,47.5982],
[3.8463,47.5982],
[3.7727,47.4006],
[3.9404,47.3348],
[3.9491,47.1374],
[3.8668,47.1374],
[3.9633,46.8086],
[3.8049,46.6772],
[4.051,46.6772],
[4.2258,46.4145],
[4.2312,46.2833],
[4.5661,46.0865],
[5.0378,46.6115],
[5.0354,46.6772],
[5.5945,47.1374],
[5.5769,47.6641],
[5.249,47.5982],
[4.8212,47.9938],
[4.573,47.9938],
[4.5783,47.8619],
[4.3386,47.6641],
[4.1735,47.6641],
[3.9142,47.9278],
[3.7548,47.7959]
]
]
]}
}
