{
"type": "Feature",
"properties": {"id":"cliopatria-county-of-foix-1502","edge_precision":"unknown","cliopatria_name":"County of Foix","cliopatria_from_year":1502,"cliopatria_to_year":1511,"cliopatria_area_km2":41053,"cliopatria_wikidata":"Q1481436","cliopatria_wikipedia":"County of Foix","cliopatria_seshat_id":"fr_valois_k_2","cliopatria_member_of":"(Kingdom of France)"},
"geometry": {"type": "MultiPolygon", "coordinates": [
[
[
[-2.2031,42.6912],
[-2.0199,42.3662],
[-1.7756,42.3012],
[-1.8288,41.9114],
[-1.43,41.9114],
[-1.4602,42.3662],
[-1.0056,42.7563],
[-0.9381,42.9515],
[-0.3685,42.8213],
[-0.2883,42.8213],
[0.0401,42.6912],
[0.1966,42.7563],
[0.3494,42.8864],
[0.2462,43.2769],
[0.3228,43.3421],
[0.0815,43.3421],
[0.0894,43.2118],
[-0.0713,43.2118],
[-0.2482,43.4723],
[-0.4938,43.5375],
[-0.892,43.4723],
[-1.1203,43.2769],
[-1.6876,43.3421],
[-1.8484,43.3421],
[-1.8391,43.2118],
[-2.2031,42.6912]
]
],
[
[
[-0.1781,44.908],
[-0.0718,44.516],
[1.0654,44.4507],
[1.3784,44.6466],
[1.4487,44.8426],
[1.7766,44.7773],
[2.101,44.7773],
[2.1688,45.0388],
[2.4027,45.235],
[2.3928,45.4313],
[2.0568,45.6278],
[0.9038,45.8243],
[0.8381,45.5623],
[0.5243,45.3659],
[0.5324,45.235],
[0.2236,44.9734],
[-0.1781,44.908]
]
],
[
[
[0.6407,43.4072],
[0.9661,43.3421],
[0.8125,43.2118],
[0.9839,43.0165],
[0.9945,42.8213],
[1.0747,42.8213],
[1.4855,42.6262],
[1.7258,42.6262],
[1.8732,42.8864],
[1.3886,42.9515],
[1.305,43.0165],
[1.2773,43.5375],
[0.8674,43.6678],
[0.6407,43.4072]
]
],
[
[
[2.6607,43.2118],
[2.7497,43.0165],
[2.9905,43.0165],
[3.14,43.2769],
[3.3008,43.2769],
[3.2981,43.3421],
[3.1317,43.4723],
[2.8903,43.4723],
[2.6607,43.2118]
]
]
]}
}
