{
"type": "Feature",
"properties": {"id":"cliopatria-vandals-0414","edge_precision":"unknown","cliopatria_name":"Vandals","cliopatria_from_year":414,"cliopatria_to_year":416,"cliopatria_area_km2":102892,"cliopatria_wikidata":"Q42211","cliopatria_wikipedia":"Vandals"},
"geometry": {"type": "MultiPolygon", "coordinates": [
[
[
[-9.3046,43.1467],
[-9.0787,42.5612],
[-8.6574,42.3662],
[-8.8103,42.3012],
[-8.8033,42.2362],
[-8.4768,42.1712],
[-7.5313,42.3012],
[-7.2179,42.3662],
[-7.1508,42.4962],
[-6.7507,42.4962],
[-5.8143,42.7563],
[-5.8203,42.8213],
[-5.7643,43.0816],
[-5.8568,43.2118],
[-5.9372,43.2118],
[-6.0486,43.5375],
[-7.1757,43.5375],
[-7.3435,43.6027],
[-7.2765,43.733],
[-8.2436,43.733],
[-8.3904,43.6027],
[-8.369,43.4072],
[-8.8517,43.4072],
[-9.3046,43.1467]
]
],
[
[
[-7.5027,37.7062],
[-7.3874,37.2549],
[-6.8418,37.2549],
[-6.588,36.9971],
[-6.4323,36.9971],
[-6.0638,36.224],
[-5.8311,36.224],
[-5.6623,36.0308],
[-5.2879,36.224],
[-5.2282,36.4816],
[-4.6888,36.546],
[-4.4686,36.7393],
[-2.6801,36.7393],
[-2.4543,36.8682],
[-2.3765,36.8682],
[-2.7032,37.126],
[-2.8048,37.5128],
[-2.8828,37.5128],
[-2.9689,37.6417],
[-3.4416,37.7062],
[-3.6106,37.8998],
[-3.7669,37.8998],
[-3.932,38.0288],
[-4.0326,38.3515],
[-4.9086,38.5451],
[-5.0557,38.416],
[-5.5308,38.4806],
[-6.1373,38.2224],
[-6.8418,38.2224],
[-7.1442,38.0933],
[-7.2791,37.8352],
[-7.5027,37.7062]
]
]
]}
}
