{
"type": "Feature",
"properties": {"id":"cliopatria-tumed-1547","edge_precision":"unknown","cliopatria_name":"Tümed","cliopatria_from_year":1547,"cliopatria_to_year":1551,"cliopatria_area_km2":2080980,"cliopatria_wikidata":"Q3402317","cliopatria_wikipedia":"Tumed"},
"geometry": {"type": "MultiPolygon", "coordinates": [
[
[
[79.9509,44.9734],
[79.9779,44.8426],
[80.4103,44.7119],
[80.3023,44.4507],
[80.3832,44.4507],
[80.3572,43.9938],
[80.7354,43.5375],
[80.6825,43.4072],
[80.7907,43.2769],
[80.6317,43.0816],
[80.4711,43.0816],
[80.4734,42.8864],
[80.2872,42.8213],
[80.1884,42.3662],
[80.5338,42.4312],
[80.9625,42.3012],
[82.0557,42.2362],
[84.1085,42.7563],
[85.7915,42.7563],
[85.7638,42.6912],
[86.9615,42.4962],
[87.0416,42.4962],
[88.8482,42.2362],
[88.8199,42.1712],
[89.6416,42.0413],
[89.6132,41.9764],
[90.223,41.9114],
[90.4566,41.7167],
[90.4947,41.068],
[90.6258,41.0032],
[90.5708,40.8736],
[90.7021,40.8088],
[90.6475,40.6792],
[90.7517,40.5496],
[91.8305,40.2906],
[92.6947,39.7083],
[92.5901,39.2557],
[92.4856,39.1911],
[90.9487,38.6743],
[90.8752,38.4806],
[91.0374,38.2869],
[90.9414,38.0288],
[91.2847,37.8998],
[91.4479,37.7062],
[91.4008,37.5773],
[91.5334,37.5128],
[91.4634,37.3193],
[91.0046,37.126],
[90.9363,36.9326],
[91.3578,36.8037],
[91.3126,36.6749],
[91.3904,36.6749],
[91.7924,36.9326],
[92.3603,36.9971],
[92.6023,36.8037],
[93.544,36.6105],
[94.1281,36.2884],
[94.2057,36.2884],
[95.7694,35.4514],
[96.552,35.2584],
[97.4528,34.7436],
[97.6841,34.7436],
[97.7164,34.615],
[98.2881,34.4863],
[98.3205,34.3577],
[98.8473,34.1004],
[100.8563,33.9075],
[101.1956,33.7789],
[101.5255,33.8432],
[101.6933,34.1004],
[101.5313,34.2933],
[101.0695,34.2933],
[100.8534,34.5506],
[100.923,34.7436],
[101.2315,34.7436],
[101.7548,34.4863],
[102.0327,34.615],
[102.1034,34.8079],
[101.7413,34.8723],
[101.7114,35.001],
[102.0919,35.194],
[102.0869,35.3871],
[102.2372,35.5802],
[102.5713,35.6445],
[102.6175,35.9664],
[102.7975,36.0308],
[102.9235,36.3528],
[102.7926,36.6105],
[102.8441,36.7393],
[102.6106,36.9326],
[102.6889,37.126],
[102.534,37.3193],
[102.2485,37.3838],
[102.094,37.5773],
[102.0961,37.7707],
[101.8598,37.5773],
[101.5741,37.6417],
[101.5492,37.7707],
[101.2634,37.8352],
[101.2387,37.9643],
[100.8745,38.0288],
[100.4138,38.6097],
[99.998,38.7389],
[99.8962,38.868],
[100.0638,39.2557],
[100.6086,39.7729],
[100.4305,39.9023],
[100.44,40.0964],
[100.282,40.0964],
[100.2481,40.8736],
[99.9747,41.1328],
[99.9885,41.3274],
[99.4943,41.4571],
[99.5256,41.522],
[98.9996,41.5869],
[99.0309,41.6518],
[97.7744,41.522],
[97.6767,41.6518],
[97.1988,41.6518],
[97.3534,41.9764],
[97.1276,42.1712],
[97.125,42.4962],
[96.9966,42.5612],
[97.092,42.7563],
[97.2523,42.7563],
[97.4287,42.9515],
[97.3485,42.9515],
[97.4454,43.1467],
[97.3651,43.1467],
[97.4627,43.3421],
[97.3823,43.3421],
[97.6928,43.7982],
[97.6122,43.7982],
[97.7646,44.2548],
[97.6838,44.2548],
[98.1159,44.7773],
[98.0218,44.908],
[98.4124,45.4968],
[98.331,45.4968],
[98.5637,46.0865],
[98.4707,46.2177],
[98.5415,46.3489],
[98.4596,46.3489],
[98.5307,46.4802],
[98.3455,46.7429],
[97.9245,46.8743],
[97.9141,47.0058],
[97.7497,47.0058],
[97.657,47.1374],
[98.0134,47.9278],
[98.3739,48.1257],
[98.2386,48.3238],
[98.3528,48.522],
[98.8836,48.7204],
[99.2855,49.1175],
[99.7747,49.6479],
[100.2768,50.4457],
[101.0555,51.246],
[101.4903,51.5134],
[103.1179,51.7811],
[103.3545,52.1163],
[103.2693,52.1163],
[103.365,52.2505],
[103.2797,52.2505],
[103.3759,52.3847],
[103.2906,52.3847],
[103.3992,52.6535],
[103.2402,52.7881],
[103.3154,53.1248],
[103.1212,53.3271],
[103.2214,53.4621],
[103.0637,53.5971],
[103.1142,53.6647],
[102.9418,53.6647],
[102.9567,53.7999],
[102.7841,53.7999],
[102.7993,53.9352],
[102.6265,53.9352],
[102.6419,54.0706],
[102.3469,54.1384],
[102.398,54.2061],
[102.1382,54.2061],
[102.1893,54.2739],
[102.016,54.2739],
[102.0672,54.3417],
[101.8071,54.3417],
[101.8583,54.4095],
[101.6848,54.4095],
[101.736,54.4774],
[101.2307,54.6132],
[101.1438,54.6132],
[100.6376,54.7491],
[100.6888,54.8171],
[99.4485,55.0211],
[99.4995,55.0892],
[97.1326,54.9531],
[96.5608,54.8851],
[96.463,54.7491],
[96.1536,54.6811],
[94.9282,54.5453],
[91.5187,53.5971],
[89.9732,52.6535],
[88.5655,51.4465],
[88.3961,51.4465],
[88.3646,51.246],
[87.9582,50.9789],
[86.7964,49.7807],
[86.6289,49.7807],
[86.5732,49.5152],
[86.1854,49.25],
[85.67,48.3899],
[85.4767,47.9938],
[85.5594,47.9938],
[85.5149,47.73],
[85.2868,47.5982],
[84.7005,46.8743],
[84.2296,46.7429],
[84.2597,46.8086],
[83.7971,46.8743],
[83.8572,47.0058],
[83.6106,47.0058],
[83.6406,47.0716],
[83.0351,47.0058],
[82.5433,46.0865],
[82.2122,45.8898],
[81.8231,45.3659],
[79.9509,44.9734]
]
]
]}
}
