{
"type": "Feature",
"properties": {"id":"cliopatria-ottoman-empire-1385","edge_precision":"unknown","cliopatria_name":"Ottoman Empire","cliopatria_from_year":1385,"cliopatria_to_year":1394,"cliopatria_area_km2":276994,"cliopatria_wikidata":"Q12560","cliopatria_wikipedia":"Ottoman Empire"},
"geometry": {"type": "MultiPolygon", "coordinates": [
[
[
[22.8203,43.0816],
[22.9486,42.6262],
[23.1796,42.4962],
[23.1658,42.3012],
[23.4761,42.1712],
[23.4668,42.0413],
[22.8282,42.0413],
[22.8903,41.7816],
[22.97,41.7816],
[23.0364,41.5869],
[23.4164,41.3274],
[23.1301,40.6144],
[23.3635,40.5496],
[23.6891,40.6792],
[23.6935,40.744],
[24.0106,40.744],
[24.3466,41.0032],
[25.3785,41.0032],
[26.1615,40.8736],
[26.2248,40.6792],
[26.6264,40.744],
[26.9214,40.4849],
[27.0172,40.6792],
[27.5275,41.068],
[28.0773,41.0032],
[28.432,41.3922],
[28.2792,41.4571],
[28.2183,41.6518],
[27.9794,41.6518],
[27.937,42.0413],
[27.4949,42.4312],
[27.5198,42.6912],
[27.4397,42.6912],
[26.6267,42.5612],
[26.5584,42.6912],
[26.3982,42.6912],
[25.9749,42.4312],
[24.6898,42.3662],
[24.215,42.4312],
[24.1449,42.5612],
[23.9047,42.5612],
[23.6839,42.8213],
[22.9005,43.0816],
[22.8203,43.0816]
]
],
[
[
[26.1325,39.5143],
[26.8466,39.5789],
[26.7422,39.2557],
[26.8945,39.1911],
[26.8793,38.9972],
[26.9579,38.9972],
[26.9528,38.9326],
[28.5238,38.9326],
[28.6191,39.1265],
[28.7763,39.1265],
[28.8953,39.5789],
[29.3013,39.7083],
[30.9505,39.6436],
[31.1804,39.5789],
[31.1543,39.3203],
[31.6133,39.1911],
[32.4852,39.2557],
[32.499,39.385],
[32.6565,39.385],
[32.7777,39.7729],
[32.7423,40.1612],
[32.7496,40.2259],
[32.6706,40.2259],
[32.6779,40.2906],
[32.757,40.2906],
[32.7644,40.3554],
[32.6135,40.4201],
[32.6358,40.6144],
[32.5566,40.6144],
[32.6017,41.0032],
[32.3711,41.068],
[32.3068,41.1977],
[31.9815,41.1328],
[31.6933,41.3922],
[31.6137,41.3922],
[31.1801,41.068],
[30.6242,41.068],
[30.4792,41.1977],
[29.2079,41.1977],
[29.0426,41.1328],
[29.1028,40.9384],
[29.2486,40.8088],
[29.493,40.8736],
[29.4801,40.744],
[28.9127,40.6144],
[28.9004,40.4849],
[29.0463,40.3554],
[27.9388,40.3554],
[27.9446,40.4201],
[27.7921,40.4849],
[27.6958,40.2906],
[27.5376,40.2906],
[27.4698,40.4201],
[26.6731,40.3554],
[26.6839,40.4849],
[26.6047,40.4849],
[26.2723,40.2906],
[26.1325,39.5143]
]
],
[
[
[26.1403,40.6144],
[26.2195,40.6144],
[26.2248,40.6792],
[26.1455,40.6792],
[26.1403,40.6144]
]
],
[
[
[33.5665,39.7729],
[34.3706,39.9023],
[34.4341,39.7729],
[35.0571,39.7083],
[34.6776,38.4806],
[34.8908,38.2869],
[35.2041,38.2869],
[35.3459,38.1578],
[35.395,37.8998],
[35.4731,37.8998],
[35.4658,37.8352],
[35.6221,37.8352],
[35.7224,38.0288],
[36.0503,38.1578],
[36.1591,38.416],
[36.4803,38.4806],
[36.8257,38.7389],
[38.8488,38.6097],
[38.8747,38.8034],
[40.7457,39.2557],
[40.7648,39.385],
[41.03,39.5789],
[41.0594,39.7729],
[40.0436,39.8376],
[39.7375,39.9023],
[39.6776,40.0317],
[38.9855,40.1612],
[38.8462,40.2906],
[38.2136,40.2906],
[37.8732,40.6792],
[37.169,40.744],
[36.879,40.9384],
[36.632,40.8736],
[36.4733,40.8736],
[36.4118,41.0032],
[36.2442,40.9384],
[36.2354,40.8736],
[36.0767,40.8736],
[34.8786,40.8088],
[34.5919,40.4201],
[33.9432,40.2906],
[33.7696,40.1612],
[33.5665,39.7729]
]
]
]}
}
