{
"type": "Feature",
"properties": {"id":"cliopatria-shirvan-1126","edge_precision":"unknown","cliopatria_name":"Shirvan","cliopatria_from_year":1126,"cliopatria_to_year":1138,"cliopatria_area_km2":5591,"cliopatria_wikidata":"Q638064","cliopatria_wikipedia":"Shirvan"},
"geometry": {"type": "MultiPolygon", "coordinates": [
[
[
[46.7906,40.4849],
[46.9368,40.4201],
[46.7974,40.0964],
[46.9986,39.9023],
[47.3143,39.9023],
[47.4008,39.5143],
[47.4795,39.5143],
[47.4913,39.5789],
[47.6489,39.5789],
[48.0913,39.8376],
[47.8546,39.8376],
[47.5874,40.0964],
[47.2835,40.1612],
[47.2112,40.6144],
[47.1319,40.6144],
[47.1693,40.8088],
[46.9314,40.8088],
[46.7906,40.4849]
]
]
]}
}
