{
"type": "Feature",
"properties": {"id":"cliopatria-byzantine-empire-1326","edge_precision":"unknown","cliopatria_name":"Byzantine Empire","cliopatria_from_year":1326,"cliopatria_to_year":1332,"cliopatria_area_km2":154753,"cliopatria_wikidata":"Q112039853","cliopatria_wikipedia":"Byzantine Empire"},
"geometry": {"type": "MultiPolygon", "coordinates": [
[
[
[19.3338,40.744],
[19.6417,40.5496],
[19.5504,40.2906],
[20.0094,39.967],
[19.9184,39.7083],
[20.4703,39.7083],
[20.7989,39.967],
[21.3586,40.0964],
[21.9982,40.2259],
[22.0887,40.4201],
[22.5595,40.3554],
[22.5635,40.4201],
[22.6549,40.6144],
[22.8925,40.6144],
[22.9592,40.4201],
[23.7374,40.2259],
[23.8386,40.5496],
[23.6846,40.6144],
[23.698,40.8088],
[24.0106,40.744],
[24.3466,41.0032],
[25.8495,40.9384],
[26.0822,40.8736],
[26.1403,40.6144],
[26.6264,40.744],
[26.9214,40.4849],
[27.0172,40.6792],
[27.5275,41.068],
[28.0773,41.0032],
[28.1688,41.1328],
[28.6329,41.0032],
[29.1156,41.068],
[29.1028,40.9384],
[29.2486,40.8088],
[29.493,40.8736],
[29.3944,40.6792],
[28.9127,40.6144],
[28.9734,40.4201],
[29.0525,40.4201],
[29.3565,40.2906],
[29.4959,40.0964],
[31.2452,40.9384],
[31.2523,41.0032],
[31.5049,41.1328],
[31.5268,41.3274],
[31.1801,41.068],
[30.783,41.068],
[30.4792,41.1977],
[28.9631,41.1328],
[28.9759,41.2625],
[28.5053,41.3274],
[28.2792,41.4571],
[28.2183,41.6518],
[27.9794,41.6518],
[28.0043,41.9114],
[27.6486,42.3662],
[27.5687,42.3662],
[27.0589,42.0413],
[26.5742,41.9764],
[26.2325,41.7167],
[25.9935,41.7167],
[25.5531,42.1712],
[25.0738,42.1712],
[25.0791,42.2362],
[23.4855,42.3012],
[23.2273,42.0413],
[22.5132,42.1063],
[22.4334,42.1063],
[22.4163,41.8465],
[22.5672,41.7167],
[22.3868,41.3922],
[21.4323,41.3922],
[21.042,41.522],
[20.9551,41.3922],
[20.6369,41.3922],
[20.0106,41.5869],
[19.7816,41.7816],
[19.536,41.6518],
[19.4564,41.6518],
[19.5297,41.522],
[19.4222,40.9384],
[19.4985,40.8736],
[19.3338,40.744]
]
],
[
[
[20.3199,38.1578],
[20.7865,38.0933],
[20.7954,38.2869],
[20.5664,38.416],
[20.4881,38.416],
[20.3285,38.3515],
[20.3199,38.1578]
]
],
[
[
[20.6127,37.7062],
[20.9221,37.6417],
[20.934,37.8998],
[20.6213,37.8998],
[20.6127,37.7062]
]
],
[
[
[21.2436,37.8352],
[21.6966,37.5128],
[21.6124,37.3838],
[21.6718,36.9971],
[22.0642,37.0615],
[22.22,37.0615],
[22.3563,36.6749],
[22.5118,36.6749],
[22.5994,36.8682],
[22.8328,36.8682],
[23.056,36.6749],
[22.9953,36.9971],
[22.7007,37.3193],
[22.7144,37.5773],
[22.8705,37.5773],
[23.1011,37.5128],
[23.1685,37.3193],
[23.4024,37.3193],
[23.3425,37.6417],
[23.1083,37.6417],
[23.0373,37.7707],
[23.0517,38.0288],
[22.6572,37.9643],
[22.5895,38.1578],
[22.4329,38.1578],
[22.4399,38.2869],
[22.2798,38.2224],
[22.2868,38.3515],
[22.1335,38.416],
[21.7417,38.416],
[21.7286,38.1578],
[21.4156,38.1578],
[21.2436,37.8352]
]
],
[
[
[22.874,36.1596],
[23.1068,36.1596],
[23.1168,36.3528],
[22.9649,36.4172],
[22.8872,36.4172],
[22.874,36.1596]
]
],
[
[
[24.2013,37.6417],
[24.2716,37.5128],
[24.4316,37.5773],
[24.3614,37.7062],
[24.2833,37.7062],
[24.2013,37.6417]
]
],
[
[
[24.3565,38.868],
[24.662,38.7389],
[24.6749,38.9326],
[24.4435,38.9972],
[24.365,38.9972],
[24.3565,38.868]
]
],
[
[
[24.491,40.8088],
[24.5513,40.5496],
[24.7936,40.6144],
[24.8081,40.8088],
[24.491,40.8088]
]
],
[
[
[24.6819,37.8352],
[24.83,37.7062],
[25.0685,37.7707],
[24.7724,38.0288],
[24.6942,38.0288],
[24.6819,37.8352]
]
],
[
[
[24.9739,39.8376],
[25.4473,39.8376],
[25.4619,40.0317],
[25.067,40.0317],
[24.9739,39.8376]
]
],
[
[
[25.3308,36.9971],
[25.5644,36.9971],
[25.5727,37.126],
[25.339,37.126],
[25.3308,36.9971]
]
],
[
[
[25.7038,40.0964],
[26.0249,40.1612],
[26.0351,40.2906],
[25.7188,40.2906],
[25.7038,40.0964]
]
],
[
[
[25.7934,39.1911],
[26.1032,39.1265],
[26.0936,38.9972],
[26.2459,38.9326],
[26.6436,38.9972],
[26.5112,39.3203],
[26.1226,39.385],
[26.0439,39.385],
[25.7934,39.1911]
]
],
[
[
[26.2568,40.0964],
[26.6731,40.3554],
[26.6785,40.4201],
[26.6047,40.4849],
[26.3567,40.3554],
[26.3514,40.2906],
[26.2723,40.2906],
[26.2568,40.0964]
]
],
[
[
[26.5574,37.8352],
[26.6217,37.6417],
[27.012,37.6417],
[27.0263,37.8352],
[26.5574,37.8352]
]
],
[
[
[31.5268,41.3274],
[31.6063,41.3274],
[31.6137,41.3922],
[31.5342,41.3922],
[31.5268,41.3274]
]
]
]}
}
