{
"type": "Feature",
"properties": {"id":"cliopatria-srivijaya-1285","edge_precision":"unknown","cliopatria_name":"Srivijaya","cliopatria_from_year":1285,"cliopatria_to_year":1293,"cliopatria_area_km2":456772,"cliopatria_wikidata":"Q234197","cliopatria_wikipedia":"Srivijaya"},
"geometry": {"type": "MultiPolygon", "coordinates": [
[
[
[99.4902,1.4428],
[99.7658,0.9928],
[99.6785,0.5428],
[99.8261,0.6071],
[99.9616,0.2857],
[100.6291,-0.3572],
[100.9317,-1.0001],
[101.0786,-1.0644],
[101.3807,-1.5787],
[101.3867,-1.8358],
[101.5308,-1.7715],
[101.7692,-2.543],
[101.7001,-2.6716],
[101.9321,-3.1216],
[101.874,-3.5716],
[102.097,-3.7002],
[102.1814,-4.0216],
[102.6332,-4.4073],
[103.7588,-5.1788],
[103.7646,-5.3074],
[103.9953,-5.5645],
[104.141,-5.5645],
[104.3025,-5.8859],
[104.5973,-5.9502],
[104.5055,-5.5645],
[104.8064,-5.7574],
[105.171,-5.7574],
[105.2345,-5.5645],
[105.3929,-5.8217],
[105.6877,-5.8859],
[105.7795,-4.7288],
[105.8524,-4.7288],
[105.7558,-4.1502],
[105.8941,-3.9573],
[105.7342,-3.5716],
[105.946,-3.3787],
[106.008,-3.0573],
[105.6358,-2.8001],
[105.477,-2.3501],
[104.8199,-2.2858],
[104.8131,-2.0287],
[104.5202,-1.9644],
[104.3566,-1.193],
[104.207,-1.0001],
[103.6247,-1.0001],
[103.3286,-0.7429],
[103.3229,-0.4215],
[103.6129,-0.3572],
[103.6108,-0.2286],
[103.3915,-0.1643],
[103.7534,-0.0358],
[103.7421,0.1571],
[103.3174,0.5428],
[103.0991,0.5428],
[102.9494,0.4142],
[102.9619,0.8],
[103.1074,0.8],
[103.1117,0.9285],
[102.8272,1.1214],
[102.3904,1.1214],
[102.4065,1.5714],
[101.6809,1.6357],
[101.6129,1.7643],
[101.6857,1.7643],
[101.698,2.0857],
[101.334,2.0857],
[101.2587,2.0214],
[100.9073,2.3429],
[100.6889,2.3429],
[100.6813,2.15],
[100.5357,2.15],
[100.3926,2.2143],
[100.2625,2.6],
[100.1143,2.5357],
[100.1196,2.6643],
[99.831,2.7286],
[99.5968,2.3429],
[99.4902,1.4428]
]
],
[
[
[100.3719,4.9144],
[100.5108,4.7858],
[100.4811,4.2072],
[100.8145,3.5643],
[101.2339,3.1786],
[101.2172,2.7929],
[101.4275,2.6],
[101.7161,2.5357],
[101.7108,2.4072],
[101.9917,2.15],
[102.3532,2.0857],
[102.632,1.7643],
[103.064,1.6357],
[103.2753,1.4428],
[103.2707,1.3143],
[103.5641,1.3786],
[103.6323,1.25],
[103.8507,1.25],
[103.9281,1.3786],
[104.2192,1.3786],
[104.2311,1.7],
[103.9548,2.0857],
[103.8276,2.5357],
[103.4044,2.8572],
[103.3667,3.6286],
[103.4812,4.4644],
[103.3561,4.8501],
[103.3596,4.9144],
[103.1662,5.3644],
[102.1993,6.2644],
[101.9806,6.2644],
[101.8036,5.7501],
[101.4506,5.943],
[101.2167,5.6858],
[100.998,5.6858],
[100.9067,5.3644],
[100.6809,5.2358],
[100.6773,5.1715],
[100.5315,5.1715],
[100.3753,4.9787],
[100.3719,4.9144]
]
],
[
[
[101.6236,-2.543],
[101.6254,-2.6073],
[101.6982,-2.6073],
[101.6964,-2.543],
[101.6236,-2.543]
]
],
[
[
[103.176,0.6714],
[103.3943,0.6714],
[103.4007,0.8643],
[103.1823,0.8643],
[103.176,0.6714]
]
],
[
[
[103.7668,0.9285],
[104.0601,0.9928],
[104.0668,1.1857],
[103.9235,1.25],
[103.7734,1.1214],
[103.7668,0.9285]
]
],
[
[
[104.1224,-0.3572],
[104.1268,-0.6144],
[104.4191,-0.6786],
[104.4863,-0.3572],
[104.4124,-0.2929],
[104.9229,-0.3572],
[104.9208,-0.2286],
[104.5537,0.0285],
[104.3354,0.0285],
[104.3396,-0.2929],
[104.2669,-0.2929],
[104.2679,-0.3572],
[104.1224,-0.3572]
]
],
[
[
[104.1307,0.9285],
[104.2762,0.9285],
[104.3447,0.8],
[104.4903,0.8],
[104.574,1.1214],
[104.2123,1.1857],
[104.1307,0.9285]
]
],
[
[
[104.957,-1.9644],
[105.1077,-2.1573],
[105.6173,-2.1573],
[105.77,-2.4144],
[105.7815,-2.8001],
[106.4492,-3.1859],
[106.8091,-3.0573],
[106.8029,-2.8644],
[106.5844,-2.8644],
[106.5804,-2.7359],
[106.7241,-2.6716],
[106.7222,-2.6073],
[106.2069,-2.4144],
[105.9651,-1.5144],
[105.6011,-1.5144],
[105.6042,-1.643],
[105.2372,-1.5144],
[105.2449,-1.8358],
[104.957,-1.9644]
]
],
[
[
[107.4503,-2.6073],
[107.4687,-3.1859],
[108.1242,-3.1859],
[108.1804,-2.6716],
[108.0308,-2.543],
[107.5212,-2.543],
[107.5231,-2.6073],
[107.4503,-2.6073]
]
]
]}
}
