{
"type": "Feature",
"properties": {"id":"cliopatria-neo-babylonian-empire-551bce","edge_precision":"unknown","cliopatria_name":"Neo-Babylonian Empire","cliopatria_from_year":-550,"cliopatria_to_year":-541,"cliopatria_area_km2":569654,"cliopatria_wikidata":"Q624887","cliopatria_wikipedia":"Neo-Babylonian Empire","cliopatria_seshat_id":"iq_neo_babylonian_emp"},
"geometry": {"type": "MultiPolygon", "coordinates": [
[
[
[33.2929,31.0791],
[33.5734,29.7294],
[33.7824,29.4723],
[33.769,29.2795],
[33.9781,29.0224],
[34.1614,28.3795],
[34.4419,28.0581],
[34.5173,28.0581],
[34.7523,29.2795],
[34.9129,29.4081],
[34.8535,28.5724],
[34.6054,28.251],
[34.5927,28.0581],
[35.0492,28.1224],
[35.2666,27.9938],
[35.5559,28.8938],
[35.7117,28.9581],
[35.6503,29.1509],
[35.8063,29.2152],
[35.7749,29.7937],
[35.8506,29.7937],
[36.0697,30.6292],
[36.4009,30.9506],
[36.2709,31.2076],
[36.4231,31.2076],
[36.3866,31.6575],
[36.6623,32.1717],
[36.5155,32.236],
[36.7507,32.3002],
[36.7168,32.7502],
[36.901,33.0716],
[37.0542,33.0716],
[37.0732,33.2645],
[37.5726,33.6502],
[37.7261,33.6502],
[37.7395,33.7789],
[37.9902,33.9718],
[39.1238,34.4863],
[40.2569,34.2933],
[40.4033,34.229],
[40.3115,34.1004],
[40.7036,34.1647],
[40.9117,33.9718],
[41.2116,33.9075],
[41.2733,33.7789],
[41.427,33.7789],
[41.4886,33.6502],
[42.0031,33.4574],
[42.0645,33.3288],
[42.5783,33.1359],
[42.7085,32.943],
[43.1526,32.8145],
[44.459,31.5933],
[44.5814,31.3362],
[44.9546,31.2719],
[45.7705,30.4364],
[46.5906,30.3079],
[46.6151,29.858],
[46.8497,29.9223],
[46.994,29.858],
[46.9794,29.7294],
[47.2897,29.7937],
[47.8662,29.5366],
[48.4035,29.6009],
[48.3654,29.9223],
[48.9873,30.0508],
[48.9428,30.3079],
[49.0427,30.5007],
[49.2705,30.5007],
[49.2867,30.6292],
[48.2528,31.4647],
[48.1516,32.4288],
[47.931,32.4931],
[47.966,32.7502],
[47.5596,33.1359],
[46.6748,33.3931],
[46.71,33.6502],
[46.1485,34.0361],
[46.1752,34.229],
[45.9711,34.422],
[45.5356,34.615],
[45.5034,34.9366],
[44.7436,35.5802],
[44.6433,35.9664],
[44.3607,36.1596],
[44.379,36.2884],
[44.1645,36.4172],
[44.1146,36.6105],
[43.0626,36.8682],
[42.9251,36.9971],
[42.3891,37.0615],
[42.2602,37.2549],
[41.6103,37.0615],
[40.7623,37.126],
[40.2698,36.9326],
[40.0529,37.0615],
[39.6635,37.0615],
[39.4056,36.8682],
[39.0865,36.8037],
[38.4798,36.9326],
[38.3711,37.3193],
[38.2932,37.3193],
[38.317,37.5128],
[37.8332,37.3838],
[37.685,37.4483],
[37.6069,37.4483],
[37.2093,37.3838],
[37.1087,37.1904],
[36.9528,37.1904],
[36.6897,36.9326],
[36.3856,36.9971],
[36.449,36.8682],
[36.2934,36.8682],
[36.2649,36.6105],
[35.8486,36.3528],
[35.9901,36.224],
[35.8449,35.5802],
[35.9929,35.5158],
[35.8825,35.194],
[35.9597,35.194],
[35.927,34.8723],
[36.0682,34.7436],
[36.0488,34.5506],
[35.7921,34.2933],
[35.6445,34.3577],
[35.6838,33.9718],
[35.447,33.9075],
[35.4993,33.6502],
[35.3458,33.6502],
[35.3984,33.3931],
[35.2154,33.0716],
[35.0563,33.0073],
[35.0218,32.6216],
[34.7698,32.3645],
[34.813,31.9789],
[34.5733,31.8503],
[34.6388,31.7218],
[34.5466,31.529],
[34.3076,31.4005],
[34.2972,31.2719],
[33.9826,31.1434],
[33.369,31.0791],
[33.2929,31.0791]
]
]
]}
}
