{
"type": "Feature",
"properties": {"id":"cliopatria-principality-of-kiev-1188","edge_precision":"unknown","cliopatria_name":"Principality of Kiev","cliopatria_from_year":1188,"cliopatria_to_year":1201,"cliopatria_area_km2":77639,"cliopatria_wikidata":"Q1483430","cliopatria_wikipedia":"Principality of Kiev"},
"geometry": {"type": "MultiPolygon", "coordinates": [
[
[
[25.6599,50.3791],
[25.8208,50.3125],
[25.7992,50.113],
[25.967,50.113],
[26.1131,49.9136],
[26.4409,49.8471],
[26.67,49.6479],
[26.9209,49.6479],
[27.2327,49.4489],
[29.3875,49.3163],
[31.5668,49.3826],
[31.4281,49.5816],
[31.1125,49.7143],
[31.1698,50.113],
[30.8725,50.3791],
[30.8568,50.8455],
[30.6881,50.8455],
[30.5886,51.3128],
[30.3347,51.3128],
[30.2698,51.4465],
[29.253,51.4465],
[29.1117,51.6472],
[28.942,51.6472],
[28.8386,51.5134],
[27.7452,51.5803],
[27.4651,51.3797],
[26.5941,51.1792],
[26.4937,51.0457],
[25.9868,51.0457],
[25.9641,50.8455],
[25.6889,50.6455],
[25.6599,50.3791]
]
]
]}
}
