{
"type": "Feature",
"properties": {"id":"cliopatria-emirate-of-afghanistan-1836","edge_precision":"unknown","cliopatria_name":"Emirate of Afghanistan","cliopatria_from_year":1836,"cliopatria_to_year":1839,"cliopatria_area_km2":789408,"cliopatria_wikidata":"Q1335260","cliopatria_wikipedia":"Emirate of Afghanistan","cliopatria_seshat_id":"af_afghanistan_emirate"},
"geometry": {"type": "MultiPolygon", "coordinates": [
[
[
[60.5314,33.6502],
[60.8906,33.5217],
[60.6884,33.2645],
[60.6164,32.8788],
[60.693,32.8788],
[60.6574,32.6859],
[60.8814,32.236],
[60.8439,31.5933],
[61.1151,31.4005],
[61.7243,31.4005],
[61.9191,31.2076],
[61.8746,30.9506],
[61.3872,30.3079],
[60.9562,29.9865],
[60.9257,29.7937],
[61.0015,29.7937],
[62.3037,29.4081],
[63.7517,29.4723],
[63.7622,29.5366],
[63.8379,29.5366],
[63.8274,29.4723],
[64.1197,29.4081],
[64.5298,29.6009],
[65.1247,29.5366],
[65.9903,29.7294],
[66.251,29.9223],
[66.2623,29.9865],
[66.3381,29.9865],
[66.4371,30.9506],
[66.8783,31.2719],
[67.551,31.2076],
[67.817,31.4005],
[67.6646,31.4005],
[67.6137,31.529],
[67.9312,31.5933],
[68.1223,31.7861],
[68.6561,31.7861],
[68.7825,31.6575],
[69.0874,31.6575],
[69.2927,31.9146],
[69.5979,31.9146],
[69.734,31.4647],
[69.9757,31.529],
[69.9929,31.9789],
[69.9165,31.9789],
[70.0336,32.1717],
[70.3528,32.236],
[70.4569,32.3645],
[71.0682,32.3645],
[71.2297,32.7502],
[71.7911,33.2002],
[71.8207,33.3288],
[71.6353,33.5217],
[71.3432,33.5859],
[71.3731,33.7146],
[70.8034,33.9075],
[71.0793,34.1004],
[71.2174,34.3577],
[72.7715,34.1004],
[73.0519,34.615],
[73.4212,34.5506],
[73.6401,34.8079],
[73.965,34.8723],
[74.1688,35.0653],
[74.4777,35.0653],
[74.5823,34.8723],
[74.8743,34.8079],
[75.2767,34.8723],
[75.3038,34.6793],
[75.5623,34.4863],
[76.8027,34.8079],
[76.8198,34.8723],
[77.1031,35.0653],
[77.1728,35.3227],
[77.0533,35.4514],
[77.0886,35.5802],
[76.5998,35.7733],
[76.5756,35.9664],
[76.1704,35.902],
[75.991,36.0952],
[75.9849,36.3528],
[76.0029,36.4172],
[75.7826,36.7393],
[75.4119,36.8037],
[75.311,36.9971],
[74.5506,37.0615],
[74.5869,37.1904],
[74.917,37.2549],
[74.7979,37.3838],
[74.0961,37.3838],
[73.8258,37.2549],
[73.7243,37.4483],
[73.3343,37.4483],
[72.2401,36.8682],
[71.5834,36.7393],
[71.4184,36.9971],
[71.5685,37.8352],
[71.2738,37.8998],
[71.364,38.2224],
[71.1838,38.416],
[70.7137,38.416],
[70.4246,38.2224],
[70.197,37.9643],
[70.2658,37.6417],
[70.0752,37.5128],
[69.546,37.5773],
[69.3498,37.126],
[69.1161,37.126],
[69.0103,37.3193],
[68.7764,37.3193],
[68.1487,36.9971],
[67.9152,36.9971],
[67.7465,37.2549],
[67.123,37.2549],
[66.9995,37.3838],
[66.5155,37.3193],
[65.7055,37.5128],
[65.5642,37.2549],
[64.8318,37.126],
[64.6952,36.546],
[64.2959,36.1596],
[63.1389,35.8377],
[63.1601,35.5802],
[62.9638,35.3871],
[62.3045,35.194],
[62.1906,35.3871],
[61.804,35.3871],
[61.303,35.5802],
[61.0539,34.7436],
[60.784,34.5506],
[60.8227,34.3577],
[60.5664,34.229],
[60.5314,33.6502]
]
]
]}
}
