{
"type": "Feature",
"properties": {"id":"cliopatria-principality-of-vladimir-suzdal-1294","edge_precision":"unknown","cliopatria_name":"Principality of Vladimir-Suzdal","cliopatria_from_year":1294,"cliopatria_to_year":1304,"cliopatria_area_km2":215168,"cliopatria_wikidata":"Q83546","cliopatria_wikipedia":"Vladimir-Suzdal","cliopatria_seshat_id":"ru_vladimir_suzdal"},
"geometry": {"type": "MultiPolygon", "coordinates": [
[
[
[35.7255,60.0653],
[35.8166,60.0653],
[35.7653,59.8547],
[35.9131,59.7145],
[35.959,59.1551],
[36.4502,58.9458],
[36.4221,58.4587],
[36.512,58.4587],
[36.4618,58.2504],
[36.5515,58.2504],
[36.5015,58.0423],
[36.591,58.0423],
[36.5485,57.4889],
[37.2054,57.6271],
[37.2559,57.8346],
[37.8467,57.6962],
[37.7992,57.144],
[37.2831,57.2129],
[37.0725,57.0751],
[36.8064,57.0751],
[36.6692,56.8686],
[36.2991,56.7998],
[36.2106,56.7998],
[35.8411,56.7311],
[35.8256,56.6623],
[36.0752,56.5937],
[36.0442,56.4563],
[36.2777,56.3191],
[36.2467,56.1821],
[36.3917,56.0451],
[37.111,56.1136],
[37.3192,56.2506],
[37.8477,56.2506],
[38.1668,56.1136],
[38.3095,55.9766],
[38.2764,55.8398],
[38.4354,55.7715],
[38.4024,55.6348],
[37.8445,55.4983],
[37.8125,55.3618],
[37.185,55.2936],
[37.0976,55.2936],
[37.0821,55.2255],
[36.8202,55.2255],
[36.8615,55.0211],
[37.1948,54.9531],
[37.3129,55.0892],
[38.1299,55.2255],
[38.9449,55.7031],
[39.2956,55.7031],
[39.3297,55.8398],
[39.9441,55.8398],
[40.1549,55.9766],
[40.332,56.3191],
[41.9754,56.525],
[42.102,56.6623],
[42.0328,56.7311],
[42.3371,56.8686],
[42.4155,57.144],
[42.8105,57.2819],
[42.8306,57.3509],
[43.0287,57.4199],
[43.0006,57.6271],
[43.1994,57.6962],
[43.1926,57.9731],
[43.282,57.9731],
[43.5399,58.5282],
[43.9613,59.0155],
[44.9324,59.5045],
[45.2045,59.5045],
[45.1598,59.6445],
[45.6844,59.8547],
[46.0152,60.5577],
[46.0395,60.6282],
[46.2368,61.1935],
[46.354,61.2643],
[46.2617,61.2643],
[46.3876,61.619],
[46.2531,61.7611],
[44.7261,61.9034],
[44.6333,61.9034],
[44.2827,61.69],
[43.4258,61.619],
[43.0123,60.9105],
[42.1994,60.0653],
[41.6386,59.7145],
[41.5971,59.5745],
[40.7905,59.2947],
[40.6094,59.2947],
[40.2754,59.7145],
[39.8604,59.8547],
[39.7375,60.0653],
[39.3206,60.2058],
[39.2881,60.4168],
[38.8696,60.5577],
[38.5487,59.7145],
[38.1297,59.5045],
[38.039,59.5045],
[38.0574,59.5745],
[37.6943,59.5745],
[37.6581,59.7846],
[37.4943,59.8547],
[37.5308,59.995],
[37.3667,60.0653],
[37.3485,60.3465],
[37.2571,60.3465],
[37.2945,60.8399],
[36.7433,60.8399],
[35.8464,60.5577],
[35.7255,60.0653]
]
]
]}
}
