{
"type": "Feature",
"properties": {"id":"cliopatria-almoravid-dynasty-1066","edge_precision":"unknown","cliopatria_name":"Almoravid Dynasty","cliopatria_from_year":1066,"cliopatria_to_year":1071,"cliopatria_area_km2":1461361,"cliopatria_wikidata":"Q75613","cliopatria_wikipedia":"Almoravid dynasty","cliopatria_seshat_id":"ma_almoravid_dyn"},
"geometry": {"type": "MultiPolygon", "coordinates": [
[
[
[-17.0605,21.3077],
[-17.0449,20.9862],
[-16.8254,21.0505],
[-16.6557,20.6005],
[-16.3561,20.5362],
[-16.1961,20.2791],
[-16.2502,19.8291],
[-16.4695,19.7648],
[-16.3813,19.4434],
[-16.5294,19.4434],
[-16.4442,19.1862],
[-16.1373,18.9291],
[-16.116,18.4148],
[-16.0421,18.4148],
[-16.0115,17.6433],
[-16.2798,16.9362],
[-16.2774,16.8719],
[-14.0704,17.0005],
[-14.0726,17.0647],
[-13.6281,17.0005],
[-12.4545,17.1933],
[-11.9363,17.129],
[-11.6453,17.2576],
[-11.2746,17.1933],
[-11.1309,17.3219],
[-10.9077,17.2576],
[-9.5135,17.5148],
[-9.2166,17.4505],
[-9.2939,17.579],
[-8.9987,17.579],
[-8.8563,17.7719],
[-8.4169,17.9005],
[-7.766,18.4148],
[-7.7695,18.5434],
[-7.6234,18.6076],
[-7.6269,18.7362],
[-7.4808,18.8005],
[-7.4843,18.9291],
[-7.3381,18.9934],
[-7.1268,19.3791],
[-6.5784,20.922],
[-6.3231,22.272],
[-6.1764,22.3363],
[-5.786,24.0077],
[-5.5058,24.5221],
[-5.4477,24.9721],
[-5.2982,24.9721],
[-5.3802,25.165],
[-5.0931,25.4864],
[-5.1729,25.615],
[-5.0281,25.7436],
[-4.8337,26.5151],
[-4.7586,26.5151],
[-4.769,26.7723],
[-4.6267,26.9652],
[-4.4529,28.1867],
[-4.3134,28.4438],
[-4.3945,28.5724],
[-4.2551,28.8295],
[-4.1484,29.7937],
[-4.0726,29.7937],
[-4.037,30.6292],
[-3.8977,30.8863],
[-3.9834,31.0791],
[-3.768,31.3362],
[-3.781,31.5933],
[-3.5556,31.6575],
[-3.6383,31.7861],
[-3.416,31.9146],
[-3.3494,32.1074],
[-3.1935,32.0431],
[-3.2796,32.236],
[-3.6582,32.1717],
[-3.7413,32.3002],
[-5.3419,32.236],
[-5.8041,32.3002],
[-5.8118,32.4288],
[-6.3468,32.4288],
[-6.3509,32.4931],
[-6.8944,32.6216],
[-6.8262,32.7502],
[-7.1323,32.7502],
[-7.4559,33.0073],
[-7.5502,33.2645],
[-7.478,33.3288],
[-7.5637,33.4574],
[-7.7171,33.4574],
[-7.7262,33.5859],
[-8.5517,33.3288],
[-9.1985,32.7502],
[-9.3325,32.4931],
[-9.3091,32.1717],
[-9.8015,31.5933],
[-9.8815,30.565],
[-9.6494,30.5007],
[-9.628,30.1794],
[-9.8301,29.7937],
[-10.0489,29.6652],
[-10.0405,29.5366],
[-10.3307,29.3438],
[-10.4653,29.0867],
[-10.9776,28.8295],
[-11.6194,28.251],
[-12.9593,27.9938],
[-13.3727,27.4152],
[-13.4897,26.9009],
[-14.4958,26.1937],
[-14.8228,25.4221],
[-14.9309,24.7149],
[-15.8581,23.9435],
[-15.7693,23.6863],
[-15.9045,23.4291],
[-16.1212,23.3006],
[-16.1785,22.9791],
[-16.3241,22.9148],
[-16.3751,22.4648],
[-16.5951,22.4005],
[-16.944,21.9505],
[-16.9894,21.372],
[-16.912,21.3077],
[-17.0605,21.3077]
]
],
[
[
[-5.098,25.615],
[-5.0955,25.5507],
[-5.0206,25.5507],
[-5.0231,25.615],
[-5.098,25.615]
]
]
]}
}
