{
"type": "Feature",
"properties": {"id":"cliopatria-golden-horde-1670","edge_precision":"unknown","cliopatria_name":"Golden Horde","cliopatria_from_year":1670,"cliopatria_to_year":1676,"cliopatria_area_km2":2267894,"cliopatria_wikidata":"Q79965","cliopatria_wikipedia":"Golden Horde"},
"geometry": {"type": "MultiPolygon", "coordinates": [
[
[
[86.5242,49.5816],
[86.6078,49.5816],
[86.7546,49.3826],
[86.9216,49.3826],
[86.8871,49.3163],
[87.054,49.3163],
[87.0196,49.25],
[87.1864,49.25],
[87.201,49.1175],
[87.4168,49.0513],
[87.4511,49.1175],
[87.7844,49.1175],
[87.7305,48.8527],
[87.8969,48.8527],
[88.0595,48.522],
[88.3085,48.522],
[88.324,48.3899],
[88.622,48.3238],
[88.6376,48.1917],
[88.8033,48.1917],
[88.7697,48.1257],
[88.9353,48.1257],
[89.0338,47.9938],
[89.6129,47.9938],
[89.711,47.8619],
[90.1732,47.7959],
[91.0086,46.6772],
[90.9126,46.1521],
[90.9944,46.1521],
[90.6888,45.6933],
[90.3494,45.4968],
[88.2734,44.7119],
[87.5488,44.1896],
[86.7493,42.5612],
[90.223,41.9114],
[90.2645,42.3662],
[90.1846,42.3662],
[90.2718,42.5612],
[90.1918,42.5612],
[90.2796,42.7563],
[90.1782,42.8864],
[90.7079,43.3421],
[91.4925,43.4723],
[92.941,43.4723],
[92.91,43.4072],
[94.5363,43.2769],
[94.6341,43.1467],
[95.9213,42.8213],
[96.1474,42.6262],
[96.5163,42.5612],
[96.5197,42.2362],
[96.6484,42.1712],
[96.5863,42.0413],
[97.2115,41.8465],
[97.3534,41.9764],
[97.0619,42.3662],
[97.125,42.4962],
[96.9966,42.5612],
[97.092,42.7563],
[98.9504,42.6262],
[98.918,42.5612],
[101.5599,42.5612],
[101.5266,42.4962],
[101.8133,42.4312],
[101.8269,42.3012],
[102.32,42.1712],
[102.2869,42.1063],
[103.2583,41.9764],
[103.2251,41.9114],
[103.7502,41.8465],
[103.7169,41.7816],
[104.4678,41.8465],
[104.527,41.6518],
[104.8456,41.6518],
[104.8123,41.5869],
[106.8631,42.3012],
[107.8132,42.4312],
[109.3332,42.4312],
[110.2792,42.6912],
[110.8166,43.2118],
[111.8868,43.6678],
[111.9637,43.7982],
[111.7569,43.9938],
[112.0711,44.3854],
[113.4437,44.6466],
[114.1313,44.9734],
[114.7417,45.4313],
[115.1889,45.3659],
[115.8832,45.5623],
[116.1297,45.6933],
[116.4673,46.2177],
[116.7164,46.3489],
[117.1258,46.3489],
[117.4191,46.5459],
[118.6166,46.7429],
[119.6766,46.6115],
[119.9371,46.8743],
[119.7431,47.0716],
[119.7512,47.2032],
[119.4671,47.269],
[119.4754,47.4006],
[119.2736,47.4665],
[119.3191,47.5323],
[119.0347,47.5982],
[119.0436,47.73],
[118.6396,47.8619],
[118.6855,47.9278],
[118.4374,47.9278],
[118.4834,47.9938],
[117.7389,47.9938],
[117.3093,47.73],
[116.9414,47.7959],
[116.9865,47.8619],
[116.16,47.8619],
[115.8229,47.73],
[115.8674,47.7959],
[115.5814,47.8619],
[115.5881,47.9938],
[115.4226,47.9938],
[116.6848,49.7807],
[117.8274,49.5152],
[118.5429,49.9136],
[119.2816,50.113],
[119.235,50.3791],
[119.1509,50.3791],
[119.7303,51.1124],
[119.6457,51.1124],
[120.1919,51.7811],
[120.6709,52.0492],
[120.5571,52.1163],
[120.6706,52.2505],
[120.5006,52.4519],
[120.5301,52.5863],
[119.9036,52.6535],
[120.6267,53.1922],
[119.4519,53.1248],
[118.8777,52.8554],
[117.7366,52.7208],
[117.2263,52.5191],
[116.6704,52.0492],
[116.3608,51.9822],
[113.5008,51.9151],
[113.5534,51.9822],
[111.7335,52.0492],
[111.1713,51.9822],
[110.7629,51.7811],
[109.9135,51.7811],
[109.6434,51.6472],
[109.184,51.7142],
[108.915,51.5803],
[105.8309,51.1792],
[103.3328,51.1124],
[103.3786,51.1792],
[102.0315,51.3128],
[102.0379,51.4465],
[101.8685,51.4465],
[101.9142,51.5134],
[101.2754,51.4465],
[101.3208,51.5134],
[100.9422,51.5803],
[100.9877,51.6472],
[100.7331,51.6472],
[100.7787,51.7142],
[100.0995,51.7142],
[100.1448,51.7811],
[99.6804,51.8481],
[99.7258,51.9151],
[99.3856,51.9151],
[99.431,51.9822],
[99.2608,51.9822],
[99.3063,52.0492],
[98.8012,52.1833],
[98.7677,52.3847],
[98.6823,52.3847],
[98.7813,52.6535],
[98.6958,52.6535],
[98.8355,52.8554],
[98.7109,52.9227],
[98.7578,52.99],
[97.8147,52.99],
[97.8612,53.0574],
[97.393,53.1248],
[97.4395,53.1922],
[97.0173,53.3271],
[97.064,53.3946],
[96.806,53.3946],
[96.8527,53.4621],
[96.5551,53.5296],
[96.602,53.5971],
[95.9127,53.5971],
[95.9593,53.6647],
[95.6611,53.7323],
[95.6682,53.8676],
[95.3696,53.9352],
[95.3376,54.1384],
[94.6599,54.4095],
[94.5732,54.4095],
[91.5187,53.5971],
[91.4307,53.4621],
[90.698,53.1248],
[89.9732,52.6535],
[88.5655,51.4465],
[88.3961,51.4465],
[88.3646,51.246],
[87.9582,50.9789],
[86.7964,49.7807],
[86.6289,49.7807],
[86.5242,49.5816]
]
]
]}
}
