{
"type": "Feature",
"properties": {"id":"cliopatria-kingdom-of-cappadocia-111bce","edge_precision":"unknown","cliopatria_name":"Kingdom of Cappadocia","cliopatria_from_year":-110,"cliopatria_to_year":-92,"cliopatria_area_km2":88757,"cliopatria_wikidata":"Q29654286","cliopatria_wikipedia":"Kingdom of Cappadocia"},
"geometry": {"type": "MultiPolygon", "coordinates": [
[
[
[32.7579,37.3193],
[32.7983,36.9326],
[32.8637,36.8037],
[33.0971,36.8037],
[33.4337,37.0615],
[34.3036,37.1904],
[34.5647,37.4483],
[34.8767,37.4483],
[35.0538,37.6417],
[35.6712,37.5773],
[35.9981,37.7062],
[36.3481,38.0288],
[37.1146,37.8998],
[37.1302,38.0288],
[37.764,38.0933],
[38.147,38.0288],
[38.3116,38.0933],
[38.423,38.3515],
[38.658,38.3515],
[38.8677,38.1578],
[39.1807,38.1578],
[39.1978,38.2869],
[38.9799,38.416],
[38.9272,38.6097],
[38.622,38.6743],
[38.6392,38.8034],
[38.3595,39.0618],
[38.5341,39.1911],
[38.2282,39.2557],
[38.167,39.385],
[36.9326,39.5789],
[35.4354,39.5789],
[35.2937,39.7083],
[34.8284,39.7729],
[34.7263,39.5789],
[34.7667,39.2557],
[34.4787,38.8034],
[33.6796,38.6743],
[33.2668,38.4806],
[33.3044,38.0933],
[33.1281,37.8998],
[33.0954,37.5773],
[32.7579,37.3193]
]
]
]}
}
