{
"type": "Feature",
"properties": {"id":"cliopatria-chola-empire-1000","edge_precision":"unknown","cliopatria_name":"Chola Empire","cliopatria_from_year":1000,"cliopatria_to_year":1009,"cliopatria_area_km2":216377,"cliopatria_wikidata":"Q6806806","cliopatria_wikipedia":"Chola Empire","cliopatria_seshat_id":"in_chola_emp"},
"geometry": {"type": "MultiPolygon", "coordinates": [
[
[
[74.8109,12.6932],
[75.0647,12.1789],
[75.3385,11.9217],
[75.5849,11.2788],
[75.7268,11.2146],
[75.9021,10.5717],
[76.2338,10.0574],
[76.2214,9.8645],
[76.3635,9.8002],
[76.3553,9.6717],
[76.2092,9.6717],
[76.1971,9.4788],
[76.3353,9.3502],
[76.3888,9.0288],
[76.531,8.9645],
[76.7236,8.5145],
[77.2819,8.0645],
[77.8733,8.193],
[78.1803,8.4502],
[78.2842,8.9645],
[78.5883,9.1574],
[78.9577,9.2216],
[78.9865,9.6717],
[79.2959,9.9288],
[79.3176,10.2502],
[79.9026,10.2502],
[79.8794,11.9217],
[79.8844,11.986],
[80.2137,12.436],
[80.4147,13.0789],
[80.3754,13.4646],
[80.161,13.5289],
[80.1668,13.5932],
[78.2422,13.4003],
[76.1985,12.6289],
[75.2507,12.6932],
[75.0409,12.8217],
[74.8159,12.7575],
[74.8109,12.6932]
]
]
]}
}
