{
"type": "Feature",
"properties": {"id":"cliopatria-haripunjaya-1066","edge_precision":"unknown","cliopatria_name":"Haripuñjaya","cliopatria_from_year":1066,"cliopatria_to_year":1187,"cliopatria_area_km2":141821,"cliopatria_wikidata":"Q255931","cliopatria_wikipedia":"Haripuñjaya","cliopatria_seshat_id":"th_haribhunjaya_k"},
"geometry": {"type": "MultiPolygon", "coordinates": [
[
[
[97.4494,18.3505],
[97.7259,18.2219],
[97.9179,17.5148],
[98.6276,16.8076],
[98.6382,16.3576],
[98.9328,16.3576],
[98.8236,16.1004],
[99.0357,16.0361],
[99.0918,15.9076],
[99.9102,15.9718],
[100.0842,16.1647],
[100.2136,16.0361],
[100.4344,16.0361],
[100.5531,16.3576],
[100.8016,16.5504],
[100.8387,16.8076],
[101.3282,17.129],
[101.3377,17.1933],
[101.264,17.1933],
[101.3665,17.3862],
[101.2382,17.5148],
[101.0168,17.5148],
[101.2422,18.0291],
[101.2816,18.2862],
[101.1437,18.3505],
[101.1733,18.5434],
[101.341,18.6719],
[101.4109,19.1219],
[101.1949,19.6362],
[101.1209,19.6362],
[100.8788,19.5077],
[100.5285,19.6362],
[100.4843,19.8291],
[100.6722,20.0862],
[100.534,20.1505],
[100.4255,20.4077],
[99.684,20.4077],
[99.4964,20.1505],
[99.2,20.1505],
[99.0322,20.022],
[99.0029,19.8291],
[98.6131,19.7005],
[98.1141,19.8291],
[97.9466,19.7005],
[97.8532,19.5719],
[97.8598,19.1219],
[97.7858,19.1219],
[97.783,18.6076],
[97.5517,18.5434],
[97.4778,18.5434],
[97.4494,18.3505]
]
]
]}
}
