{
"type": "Feature",
"properties": {"id":"cliopatria-ngo-dynasty-1375","edge_precision":"unknown","cliopatria_name":"Ngô Dynasty","cliopatria_from_year":1375,"cliopatria_to_year":1384,"cliopatria_area_km2":134542,"cliopatria_wikidata":"Q703919","cliopatria_wikipedia":"Ngô dynasty"},
"geometry": {"type": "MultiPolygon", "coordinates": [
[
[
[103.9571,19.3148],
[104.5077,19.0577],
[104.6247,18.8648],
[105.1216,18.7362],
[105.2487,18.6076],
[105.2074,18.3505],
[106.6074,16.9362],
[106.6857,16.4861],
[106.9706,16.4219],
[107.1527,16.1647],
[107.5016,16.0361],
[108.3114,16.0361],
[108.3211,16.1004],
[108.1393,16.3576],
[107.8447,16.3576],
[107.8644,16.4861],
[107.6532,16.5504],
[107.6731,16.679],
[107.482,16.8719],
[107.3346,16.8719],
[107.1002,17.2576],
[106.7517,17.3862],
[106.7721,17.5148],
[106.5179,17.7719],
[106.5696,18.0933],
[106.2949,18.2219],
[106.1783,18.4148],
[106.0305,18.4148],
[106.0513,18.5434],
[105.7339,18.8648],
[105.9655,19.8291],
[106.5369,20.1505],
[106.6854,20.6005],
[106.8337,20.6005],
[106.8764,20.8577],
[107.4174,20.9862],
[107.7903,21.4363],
[108.0874,21.4363],
[108.0984,21.5005],
[107.9719,21.6291],
[107.5894,21.5648],
[107.4627,21.6934],
[107.2398,21.6934],
[106.7113,22.0791],
[106.607,22.3363],
[106.7722,22.8506],
[106.7093,22.9148],
[106.3254,22.8506],
[106.1995,22.9791],
[105.7526,22.9791],
[105.4379,23.3006],
[105.3634,23.3006],
[105.226,23.3649],
[104.8816,23.1077],
[104.8474,22.9148],
[104.6015,22.7863],
[104.1659,22.8506],
[103.9726,22.5934],
[103.9616,22.5291],
[104.2573,22.0791],
[104.3317,22.0791],
[104.3209,22.0148],
[104.4481,21.8863],
[104.4161,21.6934],
[104.5647,21.6934],
[104.6177,21.5648],
[104.5859,21.372],
[104.7345,21.372],
[104.6923,21.1148],
[104.8197,20.9862],
[104.5033,20.4077],
[104.6516,20.4077],
[104.9806,20.1505],
[104.9493,19.9577],
[104.6855,19.7005],
[104.0827,19.6362],
[103.9571,19.3148]
]
]
]}
}
