{
"type": "Feature",
"properties": {"id":"cliopatria-new-netherland-1718","edge_precision":"unknown","cliopatria_name":"New Netherland","cliopatria_from_year":1718,"cliopatria_to_year":1780,"cliopatria_area_km2":43818,"cliopatria_wikidata":"Q382593","cliopatria_wikipedia":"New Netherland"},
"geometry": {"type": "MultiPolygon", "coordinates": [
[
[
[-70.0191,12.5646],
[-69.9306,12.3717],
[-69.784,12.3717],
[-69.7891,12.436],
[-69.8725,12.5646],
[-70.0191,12.5646]
]
],
[
[
[-69.1245,12.3717],
[-69.1098,12.1789],
[-68.9584,12.1146],
[-68.9536,12.0503],
[-68.6559,11.986],
[-68.7435,12.1789],
[-69.1245,12.3717]
]
],
[
[
[-68.3869,12.3074],
[-68.382,12.2432],
[-68.2944,12.0503],
[-68.1479,12.0503],
[-68.1622,12.2432],
[-68.3869,12.3074]
]
],
[
[
[-63.1635,18.2219],
[-63.1409,18.0291],
[-62.9194,18.0291],
[-62.9269,18.0933],
[-63.1635,18.2219]
]
],
[
[
[-58.7334,6.1358],
[-58.5892,6.2001],
[-58.5101,5.943],
[-58.0683,5.7501],
[-57.77,5.4287],
[-56.3147,5.5572],
[-56.0948,5.493],
[-56.0911,5.3001],
[-55.9453,5.3001],
[-55.8702,5.1715],
[-54.9238,5.2358],
[-54.6346,5.3644],
[-54.4159,5.3644],
[-54.3408,5.2358],
[-54.2679,5.2358],
[-54.0538,5.493],
[-54.06,5.8144],
[-54.2085,5.943],
[-54.9404,6.0715],
[-55.0862,6.0715],
[-55.1563,5.943],
[-55.8868,6.0073],
[-55.9555,5.8144],
[-56.543,6.0073],
[-56.6159,6.0073],
[-57.1248,5.943],
[-57.2798,6.3287],
[-57.4986,6.3287],
[-57.8005,6.7144],
[-58.2436,6.9073],
[-58.6065,6.843],
[-58.7334,6.1358]
]
]
]}
}
