{
"type": "Feature",
"properties": {"id":"cliopatria-kingdom-of-sophene-0023","edge_precision":"unknown","cliopatria_name":"Kingdom of Sophene","cliopatria_from_year":23,"cliopatria_to_year":42,"cliopatria_area_km2":23785,"cliopatria_wikidata":"Q2626105","cliopatria_wikipedia":"Kingdom of Sophene"},
"geometry": {"type": "MultiPolygon", "coordinates": [
[
[
[38.7263,38.868],
[39.1102,38.8034],
[39.2496,38.6743],
[39.2322,38.5451],
[39.3803,38.4806],
[39.363,38.3515],
[39.511,38.2869],
[39.4155,38.1578],
[39.4597,37.8998],
[39.4958,37.5773],
[40.1812,37.4483],
[40.0506,37.6417],
[40.0937,37.9643],
[40.4152,38.0288],
[40.5716,38.0288],
[40.547,38.416],
[40.4686,38.416],
[40.6576,39.1911],
[40.5097,39.2557],
[40.4784,39.5789],
[39.848,39.5789],
[39.7506,39.4496],
[39.2085,39.5143],
[38.9542,39.385],
[38.9274,39.1911],
[38.7525,39.0618],
[38.7263,38.868]
]
]
]}
}
