{
"type": "Feature",
"properties": {"id":"cliopatria-zululand-1856","edge_precision":"unknown","cliopatria_name":"Zululand","cliopatria_from_year":1856,"cliopatria_to_year":1884,"cliopatria_area_km2":25464,"cliopatria_wikidata":"Q13558877","cliopatria_wikipedia":"Zululand"},
"geometry": {"type": "MultiPolygon", "coordinates": [
[
[
[30.1235,-28.0011],
[30.1378,-28.2582],
[30.4617,-28.6439],
[31.1529,-28.8368],
[31.4714,-29.0939],
[31.547,-29.0939],
[31.6899,-28.9654],
[31.9166,-28.9654],
[31.9083,-28.8368],
[32.1349,-28.8368],
[32.2021,-28.7082],
[32.198,-28.6439],
[32.3449,-28.5797],
[32.4595,-28.0011],
[32.3127,-28.0654],
[32.075,-27.8725],
[31.7699,-27.8082],
[31.6835,-27.6153],
[31.7588,-27.6153],
[31.8122,-27.2296],
[31.5149,-27.2939],
[31.4397,-27.2939],
[31.2355,-27.6796],
[30.1235,-28.0011]
]
]
]}
}
