{
"type": "Feature",
"properties": {"id":"cliopatria-ottoman-empire-1402","edge_precision":"unknown","cliopatria_name":"Ottoman Empire","cliopatria_from_year":1402,"cliopatria_to_year":1406,"cliopatria_area_km2":387699,"cliopatria_wikidata":"Q12560","cliopatria_wikipedia":"Ottoman Empire","cliopatria_seshat_id":"tr_ottoman_emirate"},
"geometry": {"type": "MultiPolygon", "coordinates": [
[
[
[20.4674,41.1977],
[20.5296,40.8736],
[20.609,40.8736],
[20.5987,40.6792],
[20.9984,40.744],
[21.2147,40.3554],
[21.7213,39.5143],
[22.0219,39.2557],
[22.1614,38.9326],
[22.4756,38.9326],
[22.9431,38.868],
[23.0216,38.868],
[22.9583,39.1265],
[22.7973,39.0618],
[22.8163,39.385],
[23.1352,39.4496],
[22.6109,39.9023],
[22.7017,40.0964],
[22.5437,40.0964],
[22.5716,40.5496],
[22.8925,40.6144],
[22.9592,40.4201],
[23.1373,40.4201],
[23.1133,40.3554],
[23.7374,40.2259],
[23.8386,40.5496],
[23.6846,40.6144],
[23.698,40.8088],
[24.0106,40.744],
[24.3466,41.0032],
[25.8495,40.9384],
[26.1615,40.8736],
[26.2248,40.6792],
[26.7795,40.6792],
[26.8422,40.4849],
[27.5275,41.068],
[28.0773,41.0032],
[28.432,41.3922],
[28.2792,41.4571],
[28.2183,41.6518],
[27.9794,41.6518],
[28.0043,41.9114],
[27.7835,42.1063],
[27.796,42.2362],
[27.4949,42.4312],
[27.5135,42.6262],
[27.8466,42.7563],
[27.8049,43.1467],
[27.8982,43.2769],
[28.2264,43.3421],
[28.1592,43.4723],
[28.4811,43.4723],
[28.6163,43.9938],
[28.5356,43.9938],
[28.5769,44.3854],
[28.8407,44.5813],
[28.802,44.9734],
[29.0456,44.9734],
[29.0241,44.7773],
[29.1052,44.7773],
[29.1124,44.8426],
[29.5253,44.908],
[29.6584,45.3659],
[29.577,45.3659],
[29.5845,45.4313],
[29.096,45.4313],
[28.6677,45.235],
[28.3494,45.3004],
[28.2819,45.4313],
[28.0376,45.4313],
[27.8613,45.3004],
[27.8479,45.1696],
[27.9969,45.0388],
[27.9699,44.7773],
[27.801,44.7119],
[27.7877,44.5813],
[27.943,44.516],
[27.8289,44.1896],
[27.4927,44.0591],
[26.2814,44.0591],
[25.8486,43.733],
[25.4343,43.6027],
[24.8814,43.733],
[24.1509,43.6678],
[23.6018,43.8634],
[22.9518,43.7982],
[22.8946,44.1243],
[22.5044,44.3201],
[22.5182,44.516],
[22.6895,44.6466],
[22.532,44.7119],
[22.1134,44.516],
[22.0956,44.2548],
[21.9296,44.1896],
[21.8993,43.733],
[22.128,43.5375],
[22.289,43.5375],
[22.3562,43.3421],
[22.517,43.3421],
[22.5035,43.1467],
[22.5839,43.1467],
[22.4637,42.5612],
[22.5394,42.4962],
[22.1265,42.3012],
[21.3232,42.2362],
[21.2356,42.1063],
[20.8363,42.1063],
[20.5787,41.7816],
[20.4813,41.4571],
[20.5574,41.3922],
[20.5469,41.1977],
[20.4674,41.1977]
]
],
[
[
[22.1421,37.0615],
[22.22,37.0615],
[22.3563,36.6749],
[22.5118,36.6749],
[22.5994,36.8682],
[22.8328,36.8682],
[23.056,36.6749],
[22.9953,36.9971],
[22.7007,37.3193],
[22.7144,37.5773],
[22.6364,37.5773],
[22.6398,37.6417],
[22.3242,37.5773],
[22.155,37.3193],
[22.1421,37.0615]
]
],
[
[
[23.8999,40.2906],
[24.4397,40.0964],
[24.4489,40.2259],
[24.0716,40.4849],
[23.9924,40.4849],
[23.8999,40.2906]
]
],
[
[
[24.491,40.8088],
[24.5513,40.5496],
[24.7936,40.6144],
[24.8081,40.8088],
[24.491,40.8088]
]
],
[
[
[24.9739,39.8376],
[25.4473,39.8376],
[25.4619,40.0317],
[25.067,40.0317],
[24.9739,39.8376]
]
],
[
[
[25.7038,40.0964],
[26.0249,40.1612],
[26.0351,40.2906],
[25.7188,40.2906],
[25.7038,40.0964]
]
],
[
[
[26.1325,39.5143],
[26.8466,39.5789],
[26.7422,39.2557],
[26.8945,39.1911],
[26.8793,38.9972],
[26.9579,38.9972],
[26.9528,38.9326],
[28.5238,38.9326],
[28.6191,39.1265],
[28.7763,39.1265],
[28.8953,39.5789],
[29.3013,39.7083],
[30.9505,39.6436],
[31.1804,39.5789],
[31.1543,39.3203],
[31.6133,39.1911],
[32.4852,39.2557],
[32.499,39.385],
[32.6565,39.385],
[32.7777,39.7729],
[32.4411,39.5789],
[32.0609,39.7083],
[32.2609,40.0964],
[32.7644,40.3554],
[32.6135,40.4201],
[32.6358,40.6144],
[32.5566,40.6144],
[32.6017,41.0032],
[32.3711,41.068],
[32.3068,41.1977],
[31.9815,41.1328],
[31.6933,41.3922],
[31.6137,41.3922],
[31.1801,41.068],
[30.6242,41.068],
[30.4792,41.1977],
[29.2079,41.1977],
[29.0426,41.1328],
[29.1028,40.9384],
[29.2486,40.8088],
[29.493,40.8736],
[29.4801,40.744],
[28.9127,40.6144],
[28.9004,40.4849],
[29.0463,40.3554],
[27.9388,40.3554],
[27.9446,40.4201],
[27.7921,40.4849],
[27.6958,40.2906],
[27.5376,40.2906],
[27.4698,40.4201],
[26.6731,40.3554],
[26.6839,40.4849],
[26.6047,40.4849],
[26.2723,40.2906],
[26.1325,39.5143]
]
],
[
[
[26.1403,40.6144],
[26.2195,40.6144],
[26.2248,40.6792],
[26.1455,40.6792],
[26.1403,40.6144]
]
],
[
[
[28.2482,41.1328],
[28.871,41.0032],
[29.0362,41.068],
[28.9759,41.2625],
[28.8964,41.2625],
[28.432,41.3922],
[28.2482,41.1328]
]
],
[
[
[34.4256,40.3554],
[36.2732,39.967],
[36.6765,40.0317],
[37.9834,39.7729],
[38.6143,39.7729],
[39.5196,40.0317],
[39.3016,40.1612],
[38.9855,40.1612],
[38.8462,40.2906],
[38.3717,40.2906],
[38.0646,40.3554],
[38.0223,40.6144],
[37.8732,40.6792],
[37.169,40.744],
[36.879,40.9384],
[36.632,40.8736],
[36.4733,40.8736],
[36.4118,41.0032],
[36.253,41.0032],
[36.156,40.8736],
[34.8786,40.8088],
[34.6791,40.4849],
[34.4256,40.3554]
]
],
[
[
[34.6776,38.4806],
[34.8908,38.2869],
[35.2041,38.2869],
[35.3459,38.1578],
[35.395,37.8998],
[35.4731,37.8998],
[35.4658,37.8352],
[35.6221,37.8352],
[35.7224,38.0288],
[36.0503,38.1578],
[36.1591,38.416],
[36.4803,38.4806],
[36.8257,38.7389],
[37.8458,38.7389],
[38.0645,38.6097],
[38.7005,38.6743],
[38.4381,39.0618],
[38.2809,39.0618],
[37.9308,39.385],
[37.8521,39.385],
[35.0571,39.7083],
[34.6776,38.4806]
]
]
]}
}
