{
"type": "Feature",
"properties": {"id":"cliopatria-ghurid-dynasty-1188","edge_precision":"unknown","cliopatria_name":"Ghurid Dynasty","cliopatria_from_year":1188,"cliopatria_to_year":1191,"cliopatria_area_km2":1951817,"cliopatria_wikidata":"Q199443","cliopatria_wikipedia":"Ghurid dynasty","cliopatria_seshat_id":"af_ghur_principality"},
"geometry": {"type": "MultiPolygon", "coordinates": [
[
[
[53.5424,36.7393],
[53.8175,36.546],
[53.7937,36.4172],
[54.1581,36.2884],
[54.2001,36.0952],
[54.409,35.9664],
[54.5052,35.6445],
[54.6483,35.5802],
[54.625,35.4514],
[55.0076,35.001],
[54.9846,34.8723],
[55.1702,34.615],
[55.1362,34.422],
[55.322,34.1647],
[55.0146,33.2645],
[54.568,32.8788],
[54.3531,32.4931],
[53.9406,32.3002],
[53.7482,32.0431],
[53.7469,31.529],
[53.8706,31.3362],
[53.7475,31.0148],
[53.8236,31.0148],
[53.8661,30.2436],
[54.1575,29.6009],
[54.3589,29.4081],
[54.5102,29.4081],
[54.7031,29.1509],
[54.8543,29.1509],
[55.0557,28.9581],
[55.0389,28.8295],
[55.2488,28.701],
[55.2323,28.5724],
[55.5096,28.3795],
[55.4933,28.251],
[55.838,27.9938],
[55.8063,27.7367],
[56.2788,27.2866],
[56.2636,27.158],
[56.7147,27.158],
[56.7746,27.0295],
[56.9249,27.0295],
[56.9097,26.9009],
[57.0524,26.8366],
[57.1757,25.9365],
[57.3795,25.7436],
[57.6792,25.7436],
[57.7402,25.615],
[57.958,25.5507],
[58.7817,25.5507],
[59.0602,25.3579],
[60.6321,25.3579],
[60.6178,25.2293],
[60.9171,25.2293],
[61.1274,25.1007],
[61.6582,25.165],
[61.7187,25.0364],
[62.0179,25.0364],
[62.182,25.165],
[62.4739,25.1007],
[62.5634,25.2293],
[63.5362,25.2293],
[63.6262,25.3579],
[64.225,25.3579],
[64.2845,25.2293],
[64.8006,25.165],
[64.8161,25.2936],
[66.0215,25.3579],
[66.3451,25.5507],
[66.6203,25.3579],
[66.6398,24.9078],
[66.632,24.8435],
[66.6616,24.8435],
[66.6714,25.0274],
[67.0343,25.5535],
[67.1566,26.0993],
[67.168,27.448],
[67.502,28.366],
[67.522,29.123],
[67.643,29.277],
[68.1316,29.3902],
[68.698,29.191],
[69.638,29.361],
[70.003,29.812],
[70.2792,29.9543],
[71.4925,29.9628],
[72.1209,29.8478],
[72.3413,29.4081],
[72.3672,29.4081],
[72.3914,29.5366],
[72.8194,29.7937],
[73.0341,30.1151],
[73.2874,30.2436],
[73.3133,30.3722],
[73.5673,30.5007],
[73.5938,30.6292],
[73.8485,30.7578],
[73.8755,30.8863],
[74.6233,31.529],
[74.6333,31.9146],
[75.2116,32.1074],
[75.3177,32.236],
[75.3326,32.3002],
[75.2098,32.4288],
[74.7661,32.4931],
[74.6734,32.7502],
[74.3824,32.8145],
[74.0754,33.1359],
[74.1679,33.5217],
[74.03,33.5859],
[74.0927,33.8432],
[74.2781,33.9718],
[73.9253,34.1004],
[73.9732,34.2933],
[73.8353,34.3577],
[73.916,34.6793],
[73.701,34.7436],
[73.805,34.8496],
[72.9123,35.5493],
[71.8606,35.7198],
[70.1836,35.4356],
[69.4543,36.4497],
[69.91,36.5654],
[70.4501,37.276],
[70.3648,37.8445],
[70.2976,38.046],
[70.2929,38.0288],
[70.1619,37.8352],
[70.2658,37.6417],
[70.0752,37.5128],
[69.546,37.5773],
[69.3498,37.126],
[69.1161,37.126],
[69.0103,37.3193],
[68.6039,37.2549],
[68.4929,37.126],
[68.1916,36.546],
[67.8031,36.546],
[66.623,36.1596],
[64.6062,36.1596],
[64.1553,36.224],
[63.5928,36.4816],
[63.4961,36.7393],
[62.6508,37.126],
[60.9658,37.2549],
[60.9166,37.3838],
[60.3214,37.5128],
[59.123,37.3838],
[58.6139,37.1904],
[58.3158,37.2549],
[58.2108,37.126],
[57.3143,36.9326],
[55.8483,36.9971],
[55.3413,37.1904],
[55.0297,37.1904],
[54.8338,37.3838],
[54.0415,37.3193],
[54.0291,37.2549],
[54.0333,36.8682],
[53.6443,36.8682],
[53.5424,36.7393]
],
[
[63.1598,31.3362],
[63.2063,31.5933],
[63.347,31.529],
[63.3237,31.4005],
[63.2475,31.4005],
[63.1598,31.3362]
]
]
]}
}
