{
"type": "Feature",
"properties": {"id":"cliopatria-kingdom-of-england-1564","edge_precision":"unknown","cliopatria_name":"Kingdom of England","cliopatria_from_year":1564,"cliopatria_to_year":1578,"cliopatria_area_km2":218051,"cliopatria_wikidata":"Q179876","cliopatria_wikipedia":"Kingdom of England","cliopatria_seshat_id":"gb_tudor_stuart","cliopatria_member_of":"(Kingdom of England)"},
"geometry": {"type": "MultiPolygon", "coordinates": [
[
[
[-10.5281,52.2505],
[-10.5067,52.1163],
[-10.2512,52.1163],
[-10.4854,51.9822],
[-10.4538,51.7811],
[-10.1886,51.7142],
[-10.168,51.5803],
[-9.9237,51.6472],
[-9.8085,51.4465],
[-8.7261,51.5803],
[-8.4811,51.6472],
[-8.4151,51.7811],
[-8.0753,51.7811],
[-7.6112,52.1163],
[-6.4275,52.1833],
[-6.2317,52.6535],
[-6.1461,52.6535],
[-6.172,52.8554],
[-6.0863,52.8554],
[-6.1471,53.3271],
[-6.2419,53.3946],
[-6.0875,53.5296],
[-6.2865,53.7323],
[-6.3316,54.0706],
[-6.9182,53.9352],
[-6.8532,53.4621],
[-7.0928,53.3271],
[-7.1509,53.1248],
[-7.8665,53.3271],
[-8.0385,53.3271],
[-8.1809,53.1248],
[-8.2766,53.1922],
[-8.3625,53.1922],
[-8.7466,53.4621],
[-8.5948,53.5971],
[-8.6152,53.7323],
[-8.8188,53.9352],
[-8.6564,54.0029],
[-8.6113,54.2739],
[-9.4995,54.4095],
[-10.0086,54.3417],
[-10.0505,54.0706],
[-9.8336,53.7999],
[-10.0062,53.7999],
[-9.9842,53.6647],
[-10.2318,53.5971],
[-10.2097,53.4621],
[-9.3826,53.1248],
[-9.4684,53.1248],
[-9.4371,52.9227],
[-9.7483,52.7208],
[-9.7273,52.5863],
[-9.9732,52.5191],
[-9.9418,52.3176],
[-10.5281,52.2505]
]
],
[
[
[-5.9888,54.7491],
[-5.7279,54.7491],
[-5.7369,54.8171],
[-5.7458,54.8851],
[-5.8329,54.8851],
[-5.842,54.9531],
[-5.9291,54.9531],
[-5.9888,54.7491]
]
],
[
[
[-5.7686,50.246],
[-5.7456,50.0465],
[-5.1511,49.98],
[-4.9287,50.246],
[-4.3548,50.3791],
[-4.1866,50.3791],
[-4.0887,50.246],
[-3.5847,50.246],
[-3.4566,50.6455],
[-3.1262,50.7121],
[-2.1028,50.5789],
[-2.0306,50.7121],
[-1.525,50.7121],
[-1.5134,50.5789],
[-1.1766,50.5789],
[-1.1092,50.7788],
[-1.3678,50.8455],
[0.4929,50.7788],
[1.3138,51.1124],
[1.3806,51.3797],
[0.5239,51.5134],
[0.863,51.5134],
[0.8439,51.7811],
[1.1837,51.7811],
[1.1698,51.9822],
[1.425,51.9822],
[1.5863,52.1163],
[1.6537,52.3847],
[1.739,52.3847],
[1.7168,52.7208],
[1.532,52.9227],
[1.0938,53.0574],
[0.4933,53.0574],
[0.3375,52.8554],
[0.0751,52.9227],
[0.3165,53.1248],
[0.2953,53.3946],
[0.0208,53.5971],
[0.0043,53.7999],
[-0.1796,53.9352],
[-0.2024,54.2061],
[-0.3814,54.2739],
[-0.3873,54.3417],
[-0.6714,54.6132],
[-1.286,54.6811],
[-1.3989,54.9531],
[-1.486,54.9531],
[-1.6336,55.5665],
[-2.019,55.9082],
[-2.1069,55.9082],
[-2.2681,55.7715],
[-2.2394,55.4983],
[-2.5603,55.2255],
[-2.7349,55.2255],
[-2.8075,55.0892],
[-3.1413,54.9531],
[-3.4026,54.9531],
[-3.395,54.8851],
[-3.6484,54.8171],
[-3.7042,54.5453],
[-3.6174,54.5453],
[-3.5868,54.2739],
[-3.3194,54.2061],
[-3.3045,54.0706],
[-2.9658,54.1384],
[-3.196,53.8676],
[-3.0952,53.7323],
[-3.1525,53.4621],
[-4.1621,53.2596],
[-4.2713,53.4621],
[-4.7017,53.4621],
[-4.6697,53.1922],
[-4.4901,53.1248],
[-4.8095,52.9227],
[-4.7937,52.7881],
[-4.2953,52.9227],
[-4.1567,52.4519],
[-4.553,52.1833],
[-5.2187,52.0492],
[-5.2643,51.7142],
[-4.9093,51.5803],
[-4.4152,51.7142],
[-4.3083,51.5134],
[-3.8915,51.5803],
[-3.7008,51.3797],
[-3.2774,51.3797],
[-3.1214,51.5134],
[-2.9452,51.4465],
[-3.108,51.3797],
[-3.0946,51.246],
[-4.2017,51.3128],
[-4.4264,51.0457],
[-4.6799,51.0457],
[-4.6578,50.8455],
[-4.8191,50.7788],
[-4.8812,50.5789],
[-5.1338,50.5789],
[-5.2796,50.3791],
[-5.7686,50.246]
]
],
[
[
[-4.8613,54.0706],
[-4.3584,54.2061],
[-4.3826,54.4095],
[-4.8079,54.3417],
[-4.7996,54.2739],
[-4.8613,54.0706]
]
],
[
[
[1.5761,50.9789],
[1.5804,50.9122],
[1.7576,50.7788],
[2.0106,50.7788],
[2.0065,50.8455],
[2.0908,50.8455],
[2.0745,51.1124],
[1.8252,51.0457],
[1.6562,51.0457],
[1.6605,50.9789],
[1.5761,50.9789]
]
]
]}
}
