{
"type": "Feature",
"properties": {"id":"cliopatria-grand-duchy-of-saxe-weimar-eisenach-1828","edge_precision":"unknown","cliopatria_name":"Grand Duchy of Saxe-Weimar-Eisenach","cliopatria_from_year":1828,"cliopatria_to_year":1865,"cliopatria_area_km2":4095,"cliopatria_wikidata":"Q155570","cliopatria_wikipedia":"Saxe-Weimar-Eisenach"},
"geometry": {"type": "MultiPolygon", "coordinates": [
[
[
[9.6845,50.5789],
[9.6849,50.5122],
[9.7691,50.5122],
[9.7694,50.4457],
[10.0218,50.4457],
[10.0215,50.5122],
[9.9364,50.7788],
[10.1048,50.8455],
[10.1047,50.9122],
[10.3578,50.9789],
[10.3578,51.1124],
[10.1886,51.1792],
[10.0195,51.1792],
[9.8523,50.7121],
[9.6845,50.5789]
]
],
[
[
[10.8643,50.9122],
[11.033,50.9122],
[11.0328,50.8455],
[11.2015,50.8455],
[11.2018,50.9122],
[11.2862,50.9122],
[11.2854,50.7788],
[11.5389,50.8455],
[11.792,50.8455],
[11.875,50.7121],
[12.2138,50.8455],
[12.2146,50.9122],
[11.877,50.9122],
[11.4561,51.0457],
[11.2871,51.0457],
[11.2038,51.246],
[10.8651,51.1792],
[10.8643,50.9122]
]
],
[
[
[12.299,50.9122],
[12.5522,50.9122],
[12.5554,51.1124],
[12.3027,51.1792],
[12.299,50.9122]
]
]
]}
}
