{
"type": "Feature",
"properties": {"id":"cliopatria-nepal-1807","edge_precision":"unknown","cliopatria_name":"Nepal","cliopatria_from_year":1807,"cliopatria_to_year":1808,"cliopatria_area_km2":221672,"cliopatria_wikidata":"Q837","cliopatria_wikipedia":"Nepal"},
"geometry": {"type": "MultiPolygon", "coordinates": [
[
[
[76.2646,32.3645],
[76.6925,32.236],
[77.4743,31.3362],
[77.2637,31.0791],
[77.387,30.9506],
[77.254,30.6935],
[77.4059,30.6935],
[77.3918,30.6292],
[77.5775,30.4364],
[77.7359,30.4666],
[77.7433,30.5007],
[77.8952,30.5007],
[77.8671,30.3722],
[78.1427,30.2436],
[77.9358,29.9865],
[77.9573,29.7294],
[78.198,29.7937],
[78.2333,29.6009],
[78.6389,29.7294],
[78.6876,29.6009],
[78.9634,29.4723],
[78.9102,29.2152],
[79.0482,29.1509],
[79.022,29.0224],
[79.65,28.7652],
[80.0276,28.7652],
[80.1526,28.6367],
[80.1269,28.5081],
[80.6417,28.0581],
[81.5588,27.7367],
[82.6758,27.6724],
[82.9395,27.4795],
[83.291,27.3509],
[84.4318,27.4152],
[84.7579,27.158],
[84.7333,27.0295],
[84.8836,27.0295],
[84.9972,26.8366],
[85.2735,26.708],
[85.7362,26.7723],
[85.787,26.6437],
[86.3126,26.6437],
[86.6516,26.4508],
[87.1141,26.5151],
[87.2399,26.3865],
[87.9903,26.3865],
[88.1649,26.5151],
[88.165,26.9009],
[88.0898,26.9009],
[88.1154,27.0295],
[88.0402,27.0295],
[88.079,27.2223],
[88.1371,27.8652],
[87.4456,27.8009],
[86.8971,28.0581],
[86.2807,27.9938],
[86.2323,28.1224],
[85.9793,27.9938],
[85.7454,28.3153],
[85.3547,28.251],
[85.1556,28.3795],
[85.1967,28.5724],
[84.8193,28.5724],
[84.4077,28.7652],
[84.2228,28.9581],
[84.2651,29.1509],
[84.1423,29.2795],
[83.8397,29.2795],
[83.6602,29.1509],
[83.4474,29.2152],
[83.4286,29.4723],
[83.3059,29.6009],
[82.4693,29.9223],
[82.0413,30.3722],
[81.586,30.3722],
[81.2999,30.1151],
[81.0724,30.1151],
[80.8417,30.4364],
[80.2636,30.565],
[79.9724,30.9506],
[79.5922,30.9506],
[79.1645,31.4005],
[78.9971,31.3362],
[78.982,31.2719],
[79.1044,31.1434],
[78.5104,31.2076],
[78.2043,31.529],
[77.9608,31.4647],
[77.9311,31.3362],
[77.7936,31.4005],
[77.8085,31.4647],
[76.8913,32.4288],
[76.9379,32.6216],
[76.8161,32.7502],
[76.3414,32.6859],
[76.2646,32.3645]
],
[
[76.4635,32.5574],
[76.4789,32.6216],
[76.6319,32.6216],
[76.601,32.4931],
[76.4635,32.5574]
]
]
]}
}
