{
"type": "Feature",
"properties": {"id":"cliopatria-france-antarctique-1556","edge_precision":"unknown","cliopatria_name":"France Antarctique","cliopatria_from_year":1556,"cliopatria_to_year":1563,"cliopatria_area_km2":10750,"cliopatria_wikidata":"Q1353951","cliopatria_wikipedia":"France Antarctique"},
"geometry": {"type": "MultiPolygon", "coordinates": [
[
[
[-44.1322,-22.9864],
[-43.8343,-22.9864],
[-43.848,-23.115],
[-43.401,-23.115],
[-43.2384,-22.9864],
[-43.1707,-23.0507],
[-43.0962,-23.0507],
[-42.1211,-22.9864],
[-42.0138,-22.665],
[-42.2242,-22.5364],
[-43.3339,-22.4721],
[-43.4215,-22.6007],
[-43.8748,-22.665],
[-44.1322,-22.9864]
]
]
]}
}
