{
"type": "Feature",
"properties": {"id":"cliopatria-wadai-empire-1908","edge_precision":"unknown","cliopatria_name":"Wadai Empire","cliopatria_from_year":1908,"cliopatria_to_year":1910,"cliopatria_area_km2":278553,"cliopatria_wikidata":"Q1132786","cliopatria_wikipedia":"Wadai Empire"},
"geometry": {"type": "MultiPolygon", "coordinates": [
[
[
[14.9444,14.3004],
[15.8172,13.6575],
[15.8881,13.4646],
[16.5403,12.886],
[16.6064,12.3717],
[17.0414,12.0503],
[17.0395,11.9217],
[17.401,11.6003],
[17.5474,11.6003],
[17.8315,11.0217],
[17.8276,10.7645],
[19.1486,11.0217],
[19.4413,11.0217],
[19.6587,10.8931],
[19.8072,11.0217],
[22.2927,10.8931],
[22.8793,10.9574],
[22.9589,11.2788],
[22.598,11.536],
[22.6803,11.986],
[22.5351,12.0503],
[22.4657,12.2432],
[22.4735,12.6289],
[22.1856,12.886],
[22.2802,13.9146],
[22.2068,13.9146],
[22.2136,14.2361],
[22.287,14.2361],
[22.4596,15.3933],
[20.9165,15.4575],
[20.3255,15.329],
[18.9146,14.5575],
[18.0299,14.3646],
[14.9444,14.3004]
]
]
]}
}
