{
"type": "Feature",
"properties": {"id":"cliopatria-phrygia-901bce","edge_precision":"unknown","cliopatria_name":"Phrygia","cliopatria_from_year":-900,"cliopatria_to_year":-751,"cliopatria_area_km2":29488,"cliopatria_wikidata":"Q32579","cliopatria_wikipedia":"Phrygia","cliopatria_seshat_id":"tr_phrygian_k"},
"geometry": {"type": "MultiPolygon", "coordinates": [
[
[
[30.6743,40.0317],
[30.727,39.7729],
[31.6735,39.7729],
[31.6599,39.6436],
[31.8108,39.5789],
[31.7052,39.3203],
[31.7838,39.3203],
[31.7573,39.0618],
[31.8359,39.0618],
[31.6592,38.868],
[31.7968,38.6743],
[32.1956,38.7389],
[32.2609,38.6097],
[32.4178,38.6097],
[33.001,38.9326],
[33.1442,38.8034],
[33.1952,38.5451],
[33.5872,38.5451],
[33.7581,38.6743],
[33.7008,38.868],
[33.7865,38.9326],
[33.4794,38.9972],
[33.3578,39.3203],
[33.2075,39.385],
[33.1288,39.385],
[33.1648,39.7083],
[33.4161,39.8376],
[33.525,40.0964],
[33.209,40.0964],
[32.9942,40.2906],
[33.0092,40.4201],
[32.146,40.4849],
[32.1962,40.2259],
[31.9591,40.2259],
[31.7869,40.0964],
[31.3129,40.0964],
[31.2476,40.2259],
[31.0172,40.2906],
[30.9179,40.0964],
[30.6743,40.0317]
]
]
]}
}
