{
"type": "Feature",
"properties": {"id":"cliopatria-khmer-empire-1206","edge_precision":"unknown","cliopatria_name":"Khmer Empire","cliopatria_from_year":1206,"cliopatria_to_year":1219,"cliopatria_area_km2":953197,"cliopatria_wikidata":"Q201705","cliopatria_wikipedia":"Khmer Empire","cliopatria_seshat_id":"kh_angkor_2"},
"geometry": {"type": "MultiPolygon", "coordinates": [
[
[
[97.7983,17.7076],
[97.9365,17.6433],
[97.9179,17.5148],
[98.6276,16.8076],
[98.6382,16.3576],
[98.9328,16.3576],
[98.9061,16.1647],
[98.6676,16.0361],
[98.6723,15.5218],
[98.2628,15.2004],
[98.2303,14.9432],
[98.4844,14.6218],
[98.4688,14.4932],
[98.8052,14.2361],
[98.79,14.1075],
[99.1271,13.8503],
[99.2445,13.5932],
[99.2086,13.2718],
[99.282,13.2718],
[99.1668,12.886],
[99.4262,12.5646],
[99.4665,12.2432],
[99.6605,11.986],
[99.5683,11.7931],
[99.562,11.7289],
[99.3788,11.3431],
[99.1472,11.2146],
[98.8136,10.7645],
[98.6117,10.1217],
[98.9773,10.1217],
[98.9882,10.2502],
[99.2021,10.186],
[99.2862,10.3145],
[99.6044,11.4074],
[99.8549,11.7289],
[99.8802,11.986],
[100.0331,12.0503],
[100.1031,13.4003],
[100.5579,13.5289],
[100.9908,13.4646],
[100.8255,12.6289],
[101.5516,12.5646],
[101.7852,12.6932],
[102.1107,12.3074],
[102.2573,12.3074],
[102.2241,11.986],
[102.4438,11.986],
[102.6035,12.1146],
[102.7434,12.0503],
[102.7302,11.9217],
[102.8701,11.8574],
[102.8443,11.6003],
[103.0512,11.4717],
[103.0628,10.8288],
[103.3554,10.8288],
[103.5993,11.086],
[103.6421,10.7645],
[103.4898,10.7003],
[103.5452,10.5074],
[103.9168,10.5717],
[104.1244,10.4431],
[104.417,10.4431],
[104.5399,10.186],
[105.0345,9.9931],
[104.7926,9.7359],
[104.7122,8.7716],
[104.8583,8.7716],
[104.702,8.6431],
[104.7649,8.5145],
[105.1351,8.5788],
[105.6203,9.1574],
[106.1425,9.2859],
[106.2321,9.4788],
[106.603,9.5431],
[106.5525,9.8002],
[106.6987,9.8002],
[106.6429,9.9931],
[106.7949,10.0574],
[106.8066,10.186],
[106.6663,10.2502],
[106.8185,10.3145],
[106.7574,10.4431],
[106.9828,10.5074],
[107.0012,10.7003],
[107.0743,10.7003],
[107.0499,10.4431],
[107.3364,10.3788],
[108.0253,10.7003],
[108.1173,10.8931],
[108.5691,11.0217],
[108.582,11.1503],
[108.7284,11.1503],
[109.2141,11.6003],
[109.2251,12.3717],
[109.3203,12.5646],
[109.4669,12.5646],
[109.5119,12.9503],
[109.3306,13.2718],
[109.3544,14.0432],
[109.1764,14.3646],
[109.1553,14.7504],
[108.9706,15.0075],
[109.0164,15.329],
[108.6767,15.5218],
[108.6955,15.6504],
[108.3657,15.9076],
[108.3308,16.1647],
[108.1393,16.3576],
[107.8447,16.3576],
[107.8644,16.4861],
[107.717,16.4861],
[107.6731,16.679],
[107.482,16.8719],
[107.3346,16.8719],
[107.291,17.0647],
[107.0264,17.2576],
[106.9527,17.2576],
[106.6911,17.0005],
[106.47,17.0005],
[105.7059,17.7719],
[105.7264,17.9005],
[105.2074,18.3505],
[105.2487,18.6076],
[105.1216,18.7362],
[104.8998,18.7362],
[104.6247,18.8648],
[104.5077,19.0577],
[104.3598,19.0577],
[104.3908,19.2505],
[104.2531,19.3148],
[104.2738,19.4434],
[104.8544,19.8291],
[104.9806,20.1505],
[104.6516,20.4077],
[104.5033,20.4077],
[104.6191,20.6648],
[104.364,20.922],
[103.993,20.922],
[103.8135,20.7291],
[103.5909,20.7291],
[103.0385,20.9862],
[103.0592,21.1148],
[102.9849,21.1148],
[102.9313,21.2434],
[102.5088,20.922],
[102.2221,20.9862],
[102.1814,20.7291],
[102.0128,20.6005],
[102.0061,20.0862],
[101.8377,19.9577],
[101.6155,19.9577],
[101.5213,19.8291],
[100.5683,19.8934],
[100.4644,19.7005],
[100.5186,19.5719],
[100.6667,19.5719],
[100.6269,19.3148],
[100.745,19.1219],
[100.6711,19.1219],
[100.5673,18.9291],
[100.1877,18.8648],
[99.7593,18.4791],
[99.6115,18.4791],
[99.5824,18.2862],
[98.6411,18.4148],
[98.2883,18.0291],
[97.8358,17.9648],
[97.7983,17.7076]
]
],
[
[
[103.8144,10.2502],
[103.9435,10.0574],
[104.0897,10.0574],
[104.1244,10.4431],
[103.905,10.4431],
[103.8144,10.2502]
]
]
]}
}
