{
"type": "Feature",
"properties": {"id":"cliopatria-kingdom-of-jerusalem-1126","edge_precision":"unknown","cliopatria_name":"Kingdom of Jerusalem","cliopatria_from_year":1126,"cliopatria_to_year":1168,"cliopatria_area_km2":53895,"cliopatria_wikidata":"Q55502","cliopatria_wikipedia":"Kingdom of Jerusalem","cliopatria_seshat_id":"il_jerusalem_k_1"},
"geometry": {"type": "MultiPolygon", "coordinates": [
[
[
[33.5873,30.9506],
[33.8816,30.822],
[34.1609,30.5007],
[34.6774,30.3079],
[34.9176,29.4723],
[34.9933,29.4723],
[35.3352,29.9865],
[35.5626,29.9865],
[35.4968,30.1151],
[35.7346,30.2436],
[35.9937,30.6292],
[35.9338,30.822],
[36.0098,30.822],
[36.0426,31.2076],
[36.1187,31.2076],
[36.2514,31.8503],
[35.9337,32.5574],
[36.0704,33.2002],
[35.7698,33.2645],
[35.8251,33.8432],
[35.7482,33.8432],
[35.447,33.9075],
[35.4993,33.6502],
[35.3458,33.6502],
[35.3984,33.3931],
[35.2154,33.0716],
[35.0563,33.0073],
[35.0218,32.6216],
[34.7698,32.3645],
[34.813,31.9789],
[34.5733,31.8503],
[34.6388,31.7218],
[34.5466,31.529],
[34.3076,31.4005],
[34.2972,31.2719],
[33.6733,31.0791],
[33.5972,31.0791],
[33.5873,30.9506]
]
]
]}
}
