{
"type": "Feature",
"properties": {"id":"cliopatria-kalinga-292bce","edge_precision":"unknown","cliopatria_name":"Kalinga","cliopatria_from_year":-291,"cliopatria_to_year":-257,"cliopatria_area_km2":129276,"cliopatria_wikidata":"Q356524","cliopatria_wikipedia":"Kalinga"},
"geometry": {"type": "MultiPolygon", "coordinates": [
[
[
[81.4394,18.5434],
[81.5717,18.4148],
[81.4667,18.1576],
[81.6927,17.579],
[81.8988,17.4505],
[81.8836,17.3219],
[82.0821,17.129],
[82.3619,17.0005],
[82.4356,17.0005],
[82.6135,17.2576],
[82.9163,17.3219],
[83.5612,17.7719],
[83.7485,18.0933],
[84.0519,18.1576],
[84.3796,18.4148],
[84.7487,18.9934],
[85.4149,19.5719],
[85.374,19.8291],
[85.5221,19.8291],
[85.4972,19.6362],
[85.6453,19.6362],
[86.4278,19.9577],
[86.4362,20.022],
[86.1565,20.1505],
[86.1409,20.6005],
[85.1356,20.8577],
[83.371,20.9862],
[82.7532,20.7934],
[82.3345,20.4077],
[82.2286,20.1505],
[81.9085,19.9577],
[81.5996,19.2505],
[81.4394,18.5434]
]
]
]}
}
