{
"type": "Feature",
"properties": {"id":"cliopatria-ottoman-empire-1842","edge_precision":"unknown","cliopatria_name":"Ottoman Empire","cliopatria_from_year":1842,"cliopatria_to_year":1847,"cliopatria_area_km2":2113589,"cliopatria_wikidata":"Q12560","cliopatria_wikipedia":"Ottoman Empire","cliopatria_seshat_id":"tr_ottoman_emp_4"},
"geometry": {"type": "MultiPolygon", "coordinates": [
[
[
[15.8038,44.7119],
[16.1984,44.3854],
[16.2684,44.0591],
[16.4299,44.0591],
[16.8194,43.6678],
[16.9805,43.6678],
[17.3654,43.2118],
[17.3628,43.1467],
[17.5959,42.9515],
[18.0801,43.0165],
[18.2321,42.8213],
[18.2292,42.7563],
[18.3866,42.6912],
[18.7131,42.8213],
[18.852,42.3662],
[18.849,42.3012],
[19.5424,41.7816],
[19.4501,41.522],
[19.5297,41.522],
[19.4438,41.3922],
[19.5233,41.3922],
[19.4376,41.2625],
[19.4985,40.8736],
[19.2545,40.744],
[19.2487,40.6144],
[19.4863,40.6144],
[19.4714,40.2906],
[19.6295,40.2906],
[20.0094,39.967],
[19.9184,39.7083],
[20.155,39.7083],
[20.4485,39.2557],
[20.9896,39.0618],
[21.0682,39.0618],
[21.1566,39.2557],
[21.7107,39.3203],
[21.9292,38.9972],
[22.7973,39.0618],
[22.8163,39.385],
[23.1352,39.4496],
[22.6109,39.9023],
[22.7017,40.0964],
[22.5437,40.0964],
[22.5595,40.3554],
[22.6549,40.6144],
[22.8925,40.6144],
[22.8842,40.4849],
[23.2673,40.2906],
[23.7374,40.2259],
[23.8386,40.5496],
[23.6846,40.6144],
[23.698,40.8088],
[24.0106,40.744],
[24.3466,41.0032],
[25.8495,40.9384],
[26.0822,40.8736],
[26.1403,40.6144],
[26.6264,40.744],
[26.9214,40.4849],
[27.0172,40.6792],
[27.5275,41.068],
[29.1156,41.068],
[29.1028,40.9384],
[29.2486,40.8088],
[29.493,40.8736],
[29.3944,40.6792],
[28.9127,40.6144],
[28.9004,40.4849],
[29.0463,40.3554],
[27.9388,40.3554],
[27.9505,40.4849],
[27.7921,40.4849],
[27.6958,40.2906],
[27.5376,40.2906],
[27.4698,40.4201],
[26.6731,40.3554],
[26.6839,40.4849],
[26.6047,40.4849],
[26.2723,40.2906],
[26.2465,39.967],
[26.1675,39.967],
[26.1325,39.5143],
[26.8466,39.5789],
[26.7422,39.2557],
[26.8945,39.1911],
[26.8793,38.9972],
[26.9579,38.9972],
[26.8495,38.6097],
[27.0798,38.5451],
[27.065,38.3515],
[26.595,38.3515],
[26.5358,38.6097],
[26.3837,38.6743],
[26.4289,38.2224],
[26.8203,38.2224],
[26.889,38.0933],
[27.2753,38.0288],
[27.1777,37.7707],
[27.2559,37.7707],
[27.1634,37.5773],
[27.31,37.4483],
[27.2225,37.3193],
[27.5392,37.3838],
[27.598,37.126],
[28.0653,37.126],
[28.1383,37.0615],
[28.0314,36.6749],
[28.1869,36.6749],
[28.3571,36.8682],
[28.5905,36.8682],
[28.7361,36.7393],
[29.1249,36.7393],
[29.2397,36.224],
[29.938,36.224],
[30.0261,36.3528],
[30.4919,36.3528],
[30.6191,36.9326],
[31.086,36.9326],
[32.0681,36.6105],
[32.4985,36.224],
[32.5583,36.0308],
[32.7134,36.0308],
[33.2744,36.224],
[33.9791,36.2884],
[34.2507,36.6749],
[34.5816,36.8682],
[34.8929,36.8682],
[34.9504,36.6749],
[35.1127,36.7393],
[35.4877,36.6105],
[35.8336,36.9326],
[36.1449,36.9326],
[36.2862,36.8037],
[36.2649,36.6105],
[35.8417,36.2884],
[35.9901,36.224],
[35.8449,35.5802],
[35.9929,35.5158],
[35.8825,35.194],
[35.9597,35.194],
[35.927,34.8723],
[36.0682,34.7436],
[36.0488,34.5506],
[35.7921,34.2933],
[35.6445,34.3577],
[35.6838,33.9718],
[35.447,33.9075],
[35.4993,33.6502],
[35.3458,33.6502],
[35.3984,33.3931],
[35.2154,33.0716],
[35.0563,33.0073],
[35.0218,32.6216],
[34.7698,32.3645],
[34.813,31.9789],
[34.5733,31.8503],
[34.6334,31.6575],
[34.3024,31.3362],
[34.2972,31.2719],
[34.434,31.0791],
[34.5405,30.5007],
[34.6824,30.3722],
[34.6676,30.1794],
[34.8094,30.0508],
[34.9129,29.4081],
[34.8535,28.5724],
[34.6054,28.251],
[34.5927,28.0581],
[35.0492,28.1224],
[35.4087,27.8652],
[35.4669,27.6081],
[35.6132,27.5438],
[35.6717,27.2866],
[36.1649,26.7723],
[36.4291,26.1937],
[36.7173,26.0008],
[36.773,25.6793],
[37.2707,25.2293],
[37.3308,24.9721],
[37.1776,24.9078],
[37.1705,24.7792],
[37.3876,24.6506],
[37.4448,24.3292],
[38.0318,24.1363],
[38.6011,23.622],
[38.8688,23.0434],
[38.8589,22.8506],
[39.1402,22.5291],
[39.0271,21.7577],
[39.1693,21.6291],
[39.147,21.1791],
[39.3506,20.7934],
[39.8439,20.2791],
[40.1404,20.2791],
[40.5616,19.8291],
[40.851,19.7005],
[40.8408,19.5077],
[40.9854,19.4434],
[41.0421,19.1219],
[41.2501,18.8648],
[41.2361,18.6076],
[41.4508,18.4791],
[41.7849,17.8362],
[42.2802,17.4505],
[42.3363,17.129],
[42.4837,17.129],
[42.4767,17.0005],
[42.5504,17.0005],
[43.4644,17.5148],
[43.468,17.579],
[43.6417,18.0291],
[43.5089,18.2862],
[44.1303,18.8005],
[44.2782,18.8005],
[44.4414,19.0577],
[44.3827,19.3148],
[44.4644,19.4434],
[44.3125,19.3791],
[44.2499,19.5719],
[44.1056,19.6362],
[44.1872,19.7648],
[43.9726,19.8934],
[43.98,20.022],
[43.8281,19.9577],
[43.8356,20.0862],
[43.6911,20.1505],
[43.6948,20.2148],
[43.2719,20.6005],
[43.1416,20.922],
[42.7849,21.1791],
[42.4493,21.822],
[42.1662,22.0791],
[42.1734,22.2077],
[41.8194,22.5291],
[41.5506,23.0434],
[41.4053,23.1077],
[41.4126,23.2363],
[41.2672,23.3006],
[41.1405,23.6863],
[40.995,23.7506],
[40.4597,24.7792],
[40.385,24.7792],
[39.9234,25.7436],
[39.7778,25.8079],
[39.5835,26.258],
[39.4379,26.3222],
[39.3763,26.5151],
[39.4559,26.5794],
[39.3057,26.5794],
[39.042,27.0938],
[38.8963,27.158],
[38.9057,27.2866],
[38.7599,27.3509],
[38.7037,27.6081],
[38.4217,27.8652],
[38.361,28.0581],
[38.4462,28.1867],
[38.2201,28.1867],
[38.2299,28.3153],
[38.0136,28.4438],
[37.9683,28.8295],
[37.8122,28.7652],
[37.8223,28.8938],
[37.6763,28.9581],
[37.2195,29.858],
[37.306,29.9865],
[37.1598,30.0508],
[37.3076,30.8863],
[37.3951,31.0148],
[37.5472,31.0148],
[37.4828,31.1434],
[37.8349,31.6575],
[38.0697,31.7218],
[38.0119,31.9146],
[38.266,32.1717],
[38.285,32.3645],
[38.6431,32.8788],
[38.893,33.0716],
[38.9134,33.2645],
[39.2478,33.5217],
[39.4013,33.5217],
[39.4154,33.6502],
[39.6458,33.6502],
[39.905,33.9075],
[40.6191,34.1004],
[40.9268,34.1004],
[41.3654,33.9075],
[41.7113,33.5859],
[41.8649,33.5859],
[42.0645,33.3288],
[42.3636,33.2645],
[42.7085,32.943],
[43.1526,32.8145],
[44.459,31.5933],
[44.444,31.4647],
[44.6576,31.3362],
[44.6353,31.1434],
[44.7949,31.2076],
[45.1382,30.8863],
[45.1235,30.7578],
[45.68,30.3079],
[46.5832,30.2436],
[46.5684,30.1151],
[46.955,30.1794],
[47.2509,30.1151],
[47.1602,29.9865],
[47.7517,29.858],
[47.7443,29.7937],
[48.0176,29.5366],
[48.0933,29.5366],
[48.4035,29.6009],
[48.3654,29.9223],
[48.5928,29.9223],
[48.6005,29.9865],
[48.3884,30.1151],
[48.4117,30.3079],
[48.2755,30.4364],
[48.0478,30.4364],
[48.1031,30.8863],
[47.739,31.0148],
[47.7957,31.4647],
[47.9813,31.7218],
[47.5824,32.1717],
[47.5994,32.3002],
[47.3194,32.4931],
[46.9456,32.5574],
[46.6821,32.8788],
[46.2312,32.943],
[46.1378,33.3931],
[45.5928,33.9075],
[45.439,33.9075],
[45.6453,34.2933],
[45.5002,34.3577],
[45.5356,34.615],
[45.6898,34.615],
[45.8121,34.9366],
[46.1484,35.1297],
[46.0591,35.5802],
[46.2518,35.8377],
[45.787,35.8377],
[45.3502,36.0308],
[45.3785,36.224],
[45.0964,36.4172],
[45.0567,36.6749],
[44.8521,36.8682],
[44.7738,37.3838],
[44.6276,37.4483],
[44.5889,37.7062],
[44.306,37.8998],
[44.4545,38.3515],
[44.308,38.416],
[44.3119,38.9326],
[44.1652,38.9972],
[44.071,39.385],
[44.3967,39.4496],
[44.5189,39.7083],
[44.7554,39.7083],
[44.4162,40.0317],
[43.8633,40.0317],
[43.6482,40.1612],
[43.6354,40.5496],
[43.7709,40.8736],
[43.5556,41.0032],
[43.5785,41.1328],
[43.1926,41.1977],
[42.8633,41.5869],
[42.6244,41.5869],
[42.4426,41.4571],
[41.5783,41.522],
[41.5674,41.4571],
[41.4082,41.4571],
[41.3071,41.3274],
[41.1588,41.3922],
[41.0473,41.1977],
[40.5393,41.0032],
[40.3909,41.068],
[40.3703,40.9384],
[39.7355,40.9384],
[39.0509,41.1328],
[38.7834,40.9384],
[38.2977,40.8736],
[38.1581,41.0032],
[37.8312,40.9384],
[37.7706,41.068],
[37.2147,41.068],
[37.2332,41.1977],
[37.0651,41.1328],
[36.7748,41.3274],
[36.2092,41.2625],
[35.9538,41.7167],
[35.3075,41.6518],
[35.086,41.7816],
[35.1212,42.0413],
[34.8817,42.0413],
[34.7845,41.9114],
[32.6308,41.9114],
[32.6947,41.7816],
[32.1934,41.5869],
[32.0417,41.6518],
[32.0265,41.522],
[31.5342,41.3922],
[31.1801,41.068],
[30.6242,41.068],
[30.4792,41.1977],
[28.9631,41.1328],
[28.9759,41.2625],
[28.5053,41.3274],
[28.2792,41.4571],
[28.2183,41.6518],
[27.9794,41.6518],
[27.937,42.0413],
[27.4949,42.4312],
[27.5135,42.6262],
[27.8466,42.7563],
[27.8049,43.1467],
[27.8982,43.2769],
[28.2264,43.3421],
[28.1592,43.4723],
[28.4811,43.4723],
[28.6163,43.9938],
[28.5356,43.9938],
[28.5769,44.3854],
[28.8407,44.5813],
[28.7949,44.908],
[28.802,44.9734],
[29.0456,44.9734],
[29.0241,44.7773],
[29.363,44.908],
[29.4442,44.908],
[29.2152,45.0388],
[29.2297,45.1696],
[28.9858,45.1696],
[28.8375,45.3004],
[28.5051,45.235],
[28.2819,45.4313],
[28.0376,45.4313],
[28.0308,45.3659],
[27.8681,45.3659],
[27.8479,45.1696],
[27.9969,45.0388],
[27.9699,44.7773],
[27.801,44.7119],
[27.7877,44.5813],
[27.943,44.516],
[27.8289,44.1896],
[27.4927,44.0591],
[26.2814,44.0591],
[25.8486,43.733],
[25.4343,43.6027],
[24.8814,43.733],
[24.1509,43.6678],
[23.6018,43.8634],
[22.9518,43.7982],
[22.8946,44.1243],
[22.6569,44.1896],
[22.4009,43.9938],
[22.374,43.6027],
[22.6824,43.4072],
[22.6733,43.2769],
[22.1822,43.1467],
[22.1106,43.2769],
[21.789,43.2769],
[21.375,43.0816],
[20.7479,43.3421],
[20.3421,43.2769],
[19.4009,43.733],
[19.4984,44.0591],
[19.1077,44.3201],
[19.2962,44.8426],
[19.1406,44.9734],
[18.8906,44.8426],
[18.5784,45.1042],
[17.7631,45.0388],
[17.1209,45.235],
[16.4703,45.235],
[16.2199,45.0388],
[15.9824,45.235],
[15.8198,45.235],
[15.8038,44.7119]
],
[
[34.8407,32.3002],
[34.8463,32.3645],
[34.9227,32.3645],
[34.9171,32.3002],
[34.8407,32.3002]
],
[
[35.5177,33.8432],
[35.5239,33.9075],
[35.6007,33.9075],
[35.5946,33.8432],
[35.5177,33.8432]
]
],
[
[
[20.0701,39.5789],
[20.1489,39.5789],
[20.1519,39.6436],
[20.0731,39.6436],
[20.0701,39.5789]
]
],
[
[
[23.6154,35.5158],
[23.6792,35.2584],
[24.4484,35.194],
[24.7574,35.194],
[24.8237,35.001],
[26.1401,35.0653],
[26.2253,35.194],
[25.6806,35.1297],
[25.6923,35.3227],
[24.301,35.3227],
[24.1499,35.3871],
[24.1569,35.5158],
[23.6154,35.5158]
]
],
[
[
[24.491,40.8088],
[24.5513,40.5496],
[24.7936,40.6144],
[24.8081,40.8088],
[24.491,40.8088]
]
],
[
[
[24.9739,39.8376],
[25.4473,39.8376],
[25.4619,40.0317],
[25.067,40.0317],
[24.9739,39.8376]
]
],
[
[
[25.7038,40.0964],
[26.0249,40.1612],
[26.0351,40.2906],
[25.7188,40.2906],
[25.7038,40.0964]
]
],
[
[
[25.7934,39.1911],
[26.1032,39.1265],
[26.0936,38.9972],
[26.2459,38.9326],
[26.6436,38.9972],
[26.5112,39.3203],
[26.1226,39.385],
[26.0439,39.385],
[25.7934,39.1911]
]
],
[
[
[25.8208,38.4806],
[25.8991,38.4806],
[25.8764,38.1578],
[26.1112,38.1578],
[26.2173,38.5451],
[25.9914,38.6743],
[25.913,38.6743],
[25.8208,38.4806]
]
],
[
[
[25.9882,37.5128],
[26.3049,37.5773],
[26.3139,37.7062],
[26.0796,37.7062],
[25.9882,37.5128]
]
],
[
[
[26.8653,36.6749],
[27.1854,36.8037],
[27.1168,36.9326],
[27.0389,36.9326],
[26.8653,36.6749]
]
],
[
[
[27.6925,36.2884],
[27.7426,35.902],
[28.1393,36.0308],
[28.2502,36.4816],
[28.0171,36.4816],
[27.6925,36.2884]
]
],
[
[
[32.229,34.9366],
[32.3667,34.7436],
[33.0436,34.5506],
[33.1321,34.6793],
[33.5234,34.7436],
[33.6954,34.9366],
[34.0873,35.001],
[33.9571,35.2584],
[34.5294,35.5802],
[34.5421,35.7089],
[34.3098,35.7089],
[33.7374,35.3871],
[32.8869,35.3871],
[32.8752,35.2584],
[32.5547,35.1297],
[32.2458,35.1297],
[32.229,34.9366]
]
],
[
[
[40.0561,25.4864],
[40.131,25.4864],
[40.1353,25.5507],
[40.0604,25.5507],
[40.0561,25.4864]
]
],
[
[
[43.2356,13.0789],
[43.447,12.886],
[43.4386,12.6932],
[43.6585,12.6932],
[43.5908,12.8217],
[43.8194,13.0146],
[43.8223,13.0789],
[43.6785,13.1432],
[43.6139,13.336],
[43.3968,13.4003],
[43.25,13.4003],
[43.2356,13.0789]
]
],
[
[
[44.1797,19.6362],
[44.2537,19.6362],
[44.2575,19.7005],
[44.1835,19.7005],
[44.1797,19.6362]
]
],
[
[
[44.2499,19.5719],
[44.324,19.5719],
[44.3278,19.6362],
[44.2537,19.6362],
[44.2499,19.5719]
]
]
]}
}
