{
"type": "Feature",
"properties": {"id":"cliopatria-turgesh-0724","edge_precision":"unknown","cliopatria_name":"Türgesh","cliopatria_from_year":724,"cliopatria_to_year":740,"cliopatria_area_km2":4040713,"cliopatria_wikidata":"Q1277895","cliopatria_wikipedia":"Türgesh"},
"geometry": {"type": "MultiPolygon", "coordinates": [
[
[
[62.5807,40.0317],
[62.6538,39.7083],
[63.0883,39.2557],
[63.2457,39.2557],
[63.4155,38.9972],
[63.8374,38.8034],
[64.0075,38.5451],
[64.3669,38.416],
[64.6615,38.0288],
[65.2388,37.8352],
[65.6274,37.5128],
[66.5155,37.3193],
[66.9995,37.3838],
[67.123,37.2549],
[67.7465,37.2549],
[67.9152,36.9971],
[68.1487,36.9971],
[68.7764,37.3193],
[69.0103,37.3193],
[69.1161,37.126],
[69.3498,37.126],
[69.546,37.5773],
[70.0752,37.5128],
[70.2658,37.6417],
[70.1619,37.8352],
[70.2147,38.0288],
[70.7137,38.416],
[71.1838,38.416],
[71.3039,38.2869],
[71.4558,38.5451],
[71.2949,38.8034],
[71.3513,38.9972],
[71.2727,38.9972],
[71.643,39.967],
[72.0807,40.3554],
[73.0773,40.744],
[73.3218,41.0032],
[74.7506,41.0032],
[77.4299,41.3922],
[80.0032,42.3012],
[80.1338,42.4312],
[82.0557,42.2362],
[84.1886,42.7563],
[85.7915,42.7563],
[85.7638,42.6912],
[87.0416,42.4962],
[87.1216,42.4962],
[90.223,41.9114],
[90.1945,41.8465],
[90.4337,41.8465],
[90.5362,41.7167],
[90.7753,41.7167],
[91.2702,41.3922],
[92.3493,41.1328],
[92.321,41.068],
[93.2962,40.9384],
[93.2678,40.8736],
[93.7153,40.8088],
[93.6869,40.744],
[95.2297,41.0032],
[97.2141,41.0032],
[97.1843,40.9384],
[97.8881,40.744],
[98.0369,40.5496],
[98.2745,40.5496],
[98.5026,40.3554],
[98.9478,40.2906],
[98.9184,40.2259],
[99.2842,40.1612],
[99.3837,40.0317],
[100.1735,40.0317],
[100.1441,39.967],
[100.3809,39.967],
[100.7372,39.7083],
[101.2599,39.6436],
[101.2804,39.5143],
[101.438,39.5143],
[101.5375,39.385],
[101.4799,39.2557],
[101.6301,39.0618],
[102.1232,38.9326],
[102.1169,38.7389],
[102.4026,38.6743],
[102.6042,38.416],
[102.7609,38.416],
[103.3774,38.0288],
[103.6902,38.0288],
[103.764,37.8352],
[104.3616,37.7707],
[104.4629,37.6417],
[105.2209,37.7707],
[105.433,37.8998],
[106.1647,37.9643],
[106.378,38.0933],
[107.3937,39.4496],
[107.4392,39.7083],
[107.6443,39.967],
[108.51,40.744],
[109.7898,41.068],
[110.8668,41.0032],
[110.8323,40.9384],
[111.3084,40.9384],
[111.2738,40.8736],
[112.9747,40.9384],
[113.01,41.0032],
[113.4342,41.1977],
[114.6642,42.1063],
[114.8493,42.5612],
[116.44,44.3854],
[116.9296,44.7773],
[118.0216,46.2177],
[118.4905,46.6772],
[118.6295,47.0058],
[118.5473,47.0058],
[118.8161,47.4006],
[118.7337,47.4006],
[119.0436,47.73],
[118.961,47.73],
[119.1452,47.9938],
[119.0625,47.9938],
[119.3427,48.3899],
[119.2598,48.3899],
[120.168,49.8471],
[120.0842,49.8471],
[120.5382,50.6455],
[120.454,50.6455],
[120.7209,50.9789],
[120.6365,50.9789],
[120.7988,51.1792],
[120.7143,51.1792],
[120.8234,51.3128],
[120.7088,51.3797],
[120.7638,51.4465],
[120.026,51.5803],
[120.1364,51.7142],
[119.8265,51.6472],
[119.8817,51.7142],
[119.6822,51.7811],
[119.7376,51.8481],
[119.5676,51.8481],
[119.5937,51.9822],
[119.4235,51.9822],
[119.45,52.1163],
[119.0508,52.2505],
[119.107,52.3176],
[118.8511,52.3176],
[118.9073,52.3847],
[118.7366,52.3847],
[118.793,52.4519],
[118.3369,52.5191],
[118.3933,52.5863],
[118.2224,52.5863],
[118.2788,52.6535],
[117.5947,52.6535],
[117.651,52.7208],
[116.6541,52.6535],
[114.9902,52.1833],
[113.8615,52.0492],
[112.274,51.6472],
[110.3569,51.5803],
[110.4071,51.6472],
[109.9828,51.6472],
[109.9984,51.7811],
[109.5236,51.7142],
[109.539,51.8481],
[109.2689,51.7142],
[108.7243,51.7811],
[107.2187,51.5803],
[104.9306,50.9789],
[104.2938,50.9122],
[103.4952,50.9789],
[103.4631,51.1792],
[103.294,51.1792],
[103.3012,51.3128],
[103.2166,51.3128],
[103.3171,51.5803],
[103.1941,51.6472],
[103.2408,51.7142],
[103.1559,51.7142],
[103.212,51.9151],
[102.834,51.9822],
[102.8812,52.0492],
[102.465,52.1833],
[102.5125,52.2505],
[101.7924,52.3176],
[101.802,52.4519],
[101.6312,52.4519],
[101.6033,52.6535],
[101.4323,52.6535],
[101.4801,52.7208],
[100.5962,52.9227],
[99.6752,52.5863],
[99.0112,52.1163],
[98.25,52.2505],
[98.2954,52.3176],
[97.8744,52.4519],
[97.92,52.5191],
[96.3824,52.5191],
[94.5843,52.2505],
[92.3757,51.5803],
[91.1035,51.5803],
[91.144,51.6472],
[90.9743,51.6472],
[91.0149,51.7142],
[90.6753,51.7142],
[90.6716,51.8481],
[90.2467,51.8481],
[90.0008,51.5803],
[89.3281,51.4465],
[87.8648,50.5122],
[86.5386,49.4489],
[85.2849,48.7865],
[85.2193,48.6542],
[84.4133,48.1917],
[82.894,47.5982],
[79.3077,46.9401],
[79.2496,46.6115],
[79.0856,46.6115],
[78.9748,46.3489],
[77.8016,46.2833],
[77.8287,46.3489],
[77.3644,46.4145],
[77.3914,46.4802],
[75.5069,46.4802],
[75.5332,46.5459],
[74.8814,46.3489],
[74.7526,46.0209],
[74.3186,45.9554],
[74.117,45.4313],
[74.2547,45.3659],
[74.1301,45.0388],
[73.8617,44.9734],
[73.9112,45.1042],
[73.7416,45.3004],
[73.2461,45.4968],
[73.1154,45.3659],
[71.2739,44.7773],
[69.854,43.733],
[69.7153,43.7982],
[69.6257,43.5375],
[68.273,42.3662],
[68.1096,42.1063],
[66.891,41.2625],
[66.6525,41.2625],
[66.693,41.1328],
[66.2793,40.8088],
[65.6867,40.6792],
[65.3884,40.744],
[65.3511,40.6144],
[62.6597,40.0317],
[62.5807,40.0317]
]
]
]}
}
