{
"type": "Feature",
"properties": {"id":"cliopatria-french-indochina-1885","edge_precision":"unknown","cliopatria_name":"French Indochina","cliopatria_from_year":1885,"cliopatria_to_year":1889,"cliopatria_area_km2":443434,"cliopatria_wikidata":"Q185682","cliopatria_wikipedia":"French Indochina","cliopatria_seshat_id":"fr_france_modern_1","cliopatria_member_of":"(French Third Republic)"},
"geometry": {"type": "MultiPolygon", "coordinates": [
[
[
[55.0771,-20.9935],
[55.0963,-21.2507],
[55.408,-21.4435],
[55.6308,-21.4435],
[55.7695,-21.3149],
[55.5918,-20.9292],
[55.5869,-20.8649],
[55.2159,-20.8649],
[55.0771,-20.9935]
]
],
[
[
[75.5254,11.4717],
[75.5986,11.4717],
[75.6032,11.536],
[75.6765,11.536],
[75.6811,11.6003],
[75.5347,11.6003],
[75.5254,11.4717]
]
],
[
[
[79.7228,11.7931],
[79.8693,11.7931],
[79.8794,11.9217],
[79.8061,11.9217],
[79.7228,11.7931]
]
],
[
[
[79.7286,10.8931],
[79.8749,10.8931],
[79.8843,11.0217],
[79.8111,11.0217],
[79.7286,10.8931]
]
],
[
[
[82.2581,16.7433],
[82.4055,16.7433],
[82.4205,16.8719],
[82.3468,16.8719],
[82.2581,16.7433]
]
],
[
[
[88.3421,22.5934],
[88.491,22.5934],
[88.5187,22.7863],
[88.4442,22.7863],
[88.3421,22.5934]
]
],
[
[
[103.4898,10.7003],
[103.5452,10.5074],
[103.9168,10.5717],
[104.1244,10.4431],
[104.417,10.4431],
[104.5399,10.186],
[105.0345,9.9931],
[104.7926,9.7359],
[104.7122,8.7716],
[104.8532,8.7073],
[104.6969,8.5788],
[104.984,8.5145],
[105.3696,8.7716],
[105.6203,9.1574],
[106.1425,9.2859],
[106.2321,9.4788],
[106.603,9.5431],
[106.5525,9.8002],
[106.6987,9.8002],
[106.6429,9.9931],
[106.7949,10.0574],
[106.8066,10.186],
[106.6663,10.2502],
[106.8185,10.3145],
[106.7574,10.4431],
[106.9828,10.5074],
[107.0012,10.7003],
[107.0743,10.7003],
[107.0499,10.4431],
[107.3364,10.3788],
[108.0253,10.7003],
[108.1173,10.8931],
[108.5691,11.0217],
[108.582,11.1503],
[108.7284,11.1503],
[109.2141,11.6003],
[109.2251,12.3717],
[109.3203,12.5646],
[109.4669,12.5646],
[109.5119,12.9503],
[109.3306,13.2718],
[109.3544,14.0432],
[109.1764,14.3646],
[109.1553,14.7504],
[108.9706,15.0075],
[109.0164,15.329],
[108.6767,15.5218],
[108.6955,15.6504],
[108.3657,15.9076],
[108.3308,16.1647],
[108.1393,16.3576],
[107.8447,16.3576],
[107.8644,16.4861],
[107.6532,16.5504],
[107.6731,16.679],
[107.482,16.8719],
[107.3346,16.8719],
[107.1002,17.2576],
[106.7517,17.3862],
[106.7721,17.5148],
[106.5179,17.7719],
[106.5696,18.0933],
[106.2949,18.2219],
[106.1783,18.4148],
[106.0305,18.4148],
[106.0513,18.5434],
[105.7339,18.8648],
[105.9655,19.8291],
[106.5369,20.1505],
[106.6854,20.6005],
[106.8337,20.6005],
[106.8764,20.8577],
[107.4174,20.9862],
[107.7903,21.4363],
[108.0874,21.4363],
[108.0984,21.5005],
[107.9719,21.6291],
[107.5894,21.5648],
[107.4627,21.6934],
[107.1022,21.7577],
[106.6591,22.2077],
[106.6702,22.272],
[106.7093,22.9148],
[106.3254,22.8506],
[106.1995,22.9791],
[105.7526,22.9791],
[105.4379,23.3006],
[105.2143,23.3006],
[104.9561,23.1077],
[104.8361,22.8506],
[104.5158,22.722],
[104.1547,22.7863],
[103.9616,22.5291],
[104.0667,22.272],
[104.2046,22.2077],
[104.183,22.0791],
[104.4481,21.8863],
[104.4161,21.6934],
[104.5647,21.6934],
[104.5859,21.372],
[104.7345,21.372],
[104.7883,20.7934],
[104.5033,20.4077],
[104.6516,20.4077],
[104.9806,20.1505],
[104.8544,19.8291],
[104.527,19.6362],
[104.0827,19.6362],
[103.9674,19.3791],
[104.0208,19.2505],
[104.5077,19.0577],
[104.561,18.9291],
[105.2487,18.6076],
[105.2074,18.3505],
[106.6074,16.9362],
[106.6857,16.4861],
[106.9706,16.4219],
[107.0248,16.2933],
[107.5016,16.0361],
[107.2976,15.6504],
[107.6927,15.329],
[107.574,15.0075],
[107.6035,14.6861],
[106.8913,14.3004],
[106.6311,14.5575],
[106.1735,14.4289],
[106.0751,14.2361],
[106.116,13.9789],
[105.8958,13.9789],
[105.8064,13.8503],
[105.5049,13.7861],
[105.466,13.4646],
[105.1573,13.336],
[105.1423,13.2075],
[104.8415,13.1432],
[104.7906,13.336],
[104.4971,13.336],
[104.3355,13.2075],
[104.1097,12.5003],
[103.8556,12.1789],
[103.777,11.4074],
[103.618,11.2788],
[103.5932,11.0217],
[103.6664,11.0217],
[103.6421,10.7645],
[103.4898,10.7003]
]
],
[
[
[103.8144,10.2502],
[103.9435,10.0574],
[104.0897,10.0574],
[104.1244,10.4431],
[103.905,10.4431],
[103.8144,10.2502]
]
],
[
[
[117.1692,39.3203],
[117.4286,39.5143],
[117.2265,39.5789],
[117.1923,39.5143],
[117.1692,39.3203]
]
],
[
[
[163.885,-20.1578],
[164.0933,-20.6721],
[165.0004,-21.5721],
[165.8489,-21.9578],
[166.087,-22.2792],
[166.8672,-22.4078],
[166.8511,-22.0864],
[166.518,-21.9578],
[166.3904,-21.7649],
[165.8571,-21.4435],
[165.7828,-21.4435],
[165.4167,-21.1864],
[165.1657,-20.8007],
[164.744,-20.6078],
[164.4374,-20.2864],
[163.885,-20.1578]
]
],
[
[
[166.9066,-20.9292],
[167.05,-21.1864],
[167.1243,-21.1864],
[167.3296,-21.1221],
[167.2604,-20.8649],
[167.0604,-20.6721],
[166.912,-20.6721],
[166.9066,-20.9292]
]
],
[
[
[167.6222,-21.3792],
[167.6927,-21.6364],
[168.0076,-21.7007],
[168.0111,-21.4435],
[167.7707,-21.3792],
[167.6222,-21.3792]
]
]
]}
}
