{
"type": "Feature",
"properties": {"id":"cliopatria-kingdom-of-spain-1811","edge_precision":"unknown","cliopatria_name":"Kingdom of Spain","cliopatria_from_year":1811,"cliopatria_to_year":1811,"cliopatria_area_km2":132136,"cliopatria_wikidata":"Q29","cliopatria_wikipedia":"Spain","cliopatria_seshat_id":"es_spanish_emp_2","cliopatria_member_of":"(Spanish Empire)"},
"geometry": {"type": "MultiPolygon", "coordinates": [
[
[
[-9.3046,43.1467],
[-9.0787,42.5612],
[-8.6574,42.3662],
[-8.9561,42.1712],
[-8.9281,41.9114],
[-8.47,42.1063],
[-8.1505,42.1063],
[-8.2035,41.8465],
[-8.0375,41.7816],
[-7.3264,41.8465],
[-6.9465,42.0413],
[-6.9107,42.4962],
[-7.1508,42.4962],
[-7.1768,42.7563],
[-7.0294,42.8864],
[-7.0425,43.0165],
[-7.2096,43.0816],
[-7.2361,43.3421],
[-7.4037,43.4072],
[-7.4377,43.733],
[-8.2436,43.733],
[-8.3904,43.6027],
[-8.369,43.4072],
[-8.8517,43.4072],
[-9.3046,43.1467]
]
],
[
[
[-7.4358,39.6436],
[-7.4184,39.4496],
[-6.991,39.0618],
[-7.0474,38.8034],
[-6.4979,38.8034],
[-6.4462,39.1265],
[-6.1693,39.5789],
[-6.8898,39.7083],
[-7.4358,39.6436]
]
],
[
[
[-5.8311,36.224],
[-5.8265,36.1596],
[-5.7489,36.1596],
[-5.7444,36.0952],
[-5.5848,36.0308],
[-5.5207,36.224],
[-5.37,36.2884],
[-5.3745,36.3528],
[-5.8311,36.224]
]
],
[
[
[-5.5713,35.8377],
[-5.485,35.7089],
[-5.3345,35.7733],
[-5.3389,35.8377],
[-5.5713,35.8377]
]
],
[
[
[-3.9243,36.7393],
[-2.6801,36.7393],
[-2.5321,36.8682],
[-2.0616,36.8037],
[-1.8574,37.3193],
[-1.6235,37.3193],
[-1.7087,37.4483],
[-0.7048,37.6417],
[-0.8035,38.0288],
[-0.6609,38.2869],
[0.0994,38.7389],
[-0.3137,39.1265],
[-0.3454,39.7083],
[-0.4387,39.967],
[-0.8448,40.1612],
[-1.1925,40.6792],
[-1.5887,40.6792],
[-1.9142,40.8088],
[-2.5441,40.744],
[-2.7593,40.4201],
[-2.7108,39.7083],
[-2.5319,39.385],
[-2.5771,38.868],
[-3.0227,38.4806],
[-3.1794,38.4806],
[-3.1752,38.416],
[-3.2535,38.416],
[-3.6149,37.9643],
[-3.9243,36.7393]
]
],
[
[
[-2.9926,35.4514],
[-2.9816,35.2584],
[-2.827,35.2584],
[-2.8379,35.4514],
[-2.9926,35.4514]
]
],
[
[
[1.1831,39.0618],
[1.2735,38.8034],
[1.4305,38.8034],
[1.6575,38.9972],
[1.6518,39.1265],
[1.2587,39.1265],
[1.1831,39.0618]
]
],
[
[
[2.3381,39.6436],
[2.3461,39.4496],
[2.6586,39.5143],
[2.8237,39.3203],
[3.2958,39.3203],
[3.5158,39.7729],
[3.1979,39.8376],
[3.193,39.967],
[2.8772,39.967],
[2.3381,39.6436]
]
],
[
[
[3.7411,40.0964],
[3.8268,39.9023],
[4.3024,39.8376],
[4.2151,40.0964],
[3.7411,40.0964]
]
]
]}
}
