{
"type": "Feature",
"properties": {"id":"cliopatria-taifa-of-murcia-1152","edge_precision":"unknown","cliopatria_name":"Taifa of Murcia","cliopatria_from_year":1152,"cliopatria_to_year":1168,"cliopatria_area_km2":77918,"cliopatria_wikidata":"Q921067","cliopatria_wikipedia":"Taifa of Murcia","cliopatria_seshat_id":"es_taifas","cliopatria_member_of":"(Taifas of Iberia)"},
"geometry": {"type": "MultiPolygon", "coordinates": [
[
[
[-3.4458,37.7707],
[-3.1251,37.6417],
[-2.9771,37.7707],
[-2.5904,37.8352],
[-2.5746,37.5773],
[-2.3175,37.1904],
[-2.3878,37.0615],
[-1.9911,36.9326],
[-1.9948,36.9971],
[-1.9169,36.9971],
[-1.8574,37.3193],
[-1.6235,37.3193],
[-1.7087,37.4483],
[-1.6307,37.4483],
[-1.4038,37.5773],
[-0.7048,37.6417],
[-0.8035,38.0288],
[-0.6609,38.2869],
[0.0994,38.7389],
[-0.3137,39.1265],
[-0.3454,39.7083],
[-0.1265,40.0317],
[0.1825,40.1612],
[0.2478,40.4201],
[0.475,40.6144],
[0.5542,40.6144],
[0.6027,41.1977],
[0.3643,41.1977],
[0.267,41.522],
[-0.1273,41.4571],
[-0.2789,41.3274],
[-0.4151,40.9384],
[-0.7286,40.8736],
[-0.7133,40.6144],
[-0.8717,40.6144],
[-1.0184,40.4201],
[-1.2518,40.3554],
[-1.5805,40.5496],
[-1.7347,40.4849],
[-1.8722,40.1612],
[-2.2504,39.9023],
[-2.3912,39.6436],
[-2.7022,39.5789],
[-2.4365,39.1265],
[-2.6639,38.9972],
[-2.6556,38.868],
[-2.8827,38.7389],
[-3.1625,38.2224],
[-3.3888,38.0933],
[-3.4458,37.7707]
]
]
]}
}
