{
"type": "Feature",
"properties": {"id":"cliopatria-zengid-dynasty-1188","edge_precision":"unknown","cliopatria_name":"Zengid dynasty","cliopatria_from_year":1188,"cliopatria_to_year":1191,"cliopatria_area_km2":208670,"cliopatria_wikidata":"Q189545","cliopatria_wikipedia":"Zengid dynasty"},
"geometry": {"type": "MultiPolygon", "coordinates": [
[
[
[38.6135,38.6097],
[38.7448,38.416],
[38.9015,38.416],
[39.242,38.0288],
[39.438,37.126],
[40.356,36.9971],
[40.918,37.126],
[40.9618,36.8682],
[41.1004,36.7393],
[41.9298,36.546],
[41.6711,36.3528],
[41.5598,36.0952],
[40.9394,36.0952],
[40.7519,35.8377],
[40.603,35.2584],
[40.5257,35.2584],
[40.5333,34.6793],
[40.6104,34.6793],
[40.5799,34.422],
[40.4108,34.2933],
[40.4728,34.1647],
[40.5497,34.1647],
[40.8499,34.1004],
[40.9117,33.9718],
[41.2116,33.9075],
[41.2733,33.7789],
[42.287,33.2645],
[42.3636,33.2645],
[42.5715,33.7146],
[42.8946,33.8432],
[43.2426,34.1647],
[43.3965,34.1647],
[43.6606,34.422],
[43.8146,34.422],
[43.9256,34.6793],
[44.1741,34.8079],
[44.4073,35.3871],
[44.8984,35.5802],
[44.9534,35.9664],
[44.5934,36.1596],
[44.6119,36.2884],
[44.3384,36.546],
[44.3571,36.6749],
[43.4107,37.126],
[43.3203,37.5773],
[43.564,37.6417],
[43.8957,37.7707],
[44.0422,37.7062],
[44.4426,37.7707],
[44.306,37.8998],
[44.4545,38.3515],
[44.308,38.416],
[44.3593,38.7389],
[44.223,38.868],
[43.2122,38.9326],
[43.017,39.1911],
[41.513,39.1265],
[41.07,39.3203],
[40.2644,39.1911],
[39.9918,38.9326],
[39.7471,38.868],
[39.0669,39.0618],
[38.6565,38.9326],
[38.6135,38.6097]
]
]
]}
}
