{
"type": "Feature",
"properties": {"id":"cliopatria-sultanate-of-sulu-1529","edge_precision":"unknown","cliopatria_name":"Sultanate of Sulu","cliopatria_from_year":1529,"cliopatria_to_year":1672,"cliopatria_area_km2":3844,"cliopatria_wikidata":"Q422065","cliopatria_wikipedia":"Sultanate of Sulu"},
"geometry": {"type": "MultiPolygon", "coordinates": [
[
[
[119.691,5.0429],
[120.1364,5.1715],
[120.1489,5.3644],
[119.9261,5.3001],
[119.9219,5.2358],
[119.6991,5.1715],
[119.691,5.0429]
]
],
[
[
[120.8397,5.8787],
[121.3455,5.8144],
[121.359,6.0073],
[120.8532,6.0715],
[120.8397,5.8787]
]
],
[
[
[121.7563,6.4573],
[121.9703,6.393],
[122.0432,6.393],
[122.1938,6.4573],
[122.2862,6.7144],
[121.8535,6.7787],
[121.7563,6.4573]
]
]
]}
}
