{
"type": "Feature",
"properties": {"id":"cliopatria-principality-of-smolensk-1402","edge_precision":"unknown","cliopatria_name":"Principality of Smolensk","cliopatria_from_year":1402,"cliopatria_to_year":1406,"cliopatria_area_km2":74479,"cliopatria_wikidata":"Q1483495","cliopatria_wikipedia":"Principality of Smolensk"},
"geometry": {"type": "MultiPolygon", "coordinates": [
[
[
[30.7999,54.7491],
[30.8869,54.7491],
[30.9387,54.5453],
[31.6454,54.6132],
[31.7948,54.4774],
[31.7485,52.7208],
[31.9938,52.6535],
[32.0451,52.4519],
[32.2159,52.4519],
[32.4681,52.9227],
[32.8712,53.2596],
[33.3008,53.2596],
[33.6824,53.4621],
[33.8457,53.8676],
[34.0446,54.0029],
[34.0109,54.2739],
[34.4253,54.6132],
[35.7284,54.6132],
[36.0328,54.8171],
[36.0194,55.1573],
[35.9322,55.1573],
[35.9618,55.2936],
[35.7871,55.2936],
[35.6862,55.6348],
[35.5257,55.7031],
[35.4996,56.3877],
[34.9267,56.5937],
[33.9719,56.2506],
[33.9437,56.1136],
[33.6798,56.1136],
[33.01,55.8398],
[32.6589,55.8398],
[32.3566,55.6348],
[31.8562,55.7715],
[30.8791,55.7031],
[30.8825,55.2255],
[30.9698,55.2255],
[30.7999,54.7491]
]
]
]}
}
