{
"type": "Feature",
"properties": {"id":"cliopatria-swiss-confederation-1475","edge_precision":"unknown","cliopatria_name":"Swiss Confederation","cliopatria_from_year":1475,"cliopatria_to_year":1481,"cliopatria_area_km2":17562,"cliopatria_wikidata":"Q39","cliopatria_wikipedia":"Switzerland","cliopatria_seshat_id":"ch_swiss_conf_1"},
"geometry": {"type": "MultiPolygon", "coordinates": [
[
[
[6.671,46.8743],
[6.6727,46.8086],
[6.7548,46.8086],
[6.7531,46.8743],
[6.671,46.8743]
]
],
[
[
[6.6778,46.6115],
[6.9238,46.6115],
[6.9222,46.6772],
[6.8402,46.6772],
[6.8369,46.8086],
[6.7548,46.8086],
[6.6778,46.6115]
]
],
[
[
[6.8286,47.1374],
[7.0785,47.0058],
[7.0801,46.9401],
[7.1623,46.9401],
[7.1743,46.4145],
[7.4214,46.3489],
[7.7451,46.5459],
[8.155,46.5459],
[8.3168,46.6772],
[8.3989,46.6772],
[8.4019,46.4802],
[8.6477,46.4802],
[8.8958,46.2833],
[8.8099,46.6115],
[8.645,46.6772],
[8.7235,46.9401],
[9.3809,46.9401],
[9.2124,47.3348],
[9.6233,47.4665],
[9.5397,47.5982],
[9.0431,47.73],
[8.5476,47.73],
[8.467,47.5982],
[8.2184,47.6641],
[8.0545,47.5982],
[8.1381,47.5323],
[8.0592,47.3348],
[7.7297,47.3348],
[7.569,47.1374],
[7.3222,47.1374],
[7.3178,47.3348],
[6.9899,47.269],
[6.9076,47.269],
[6.8286,47.1374]
]
]
]}
}
