{
"type": "Feature",
"properties": {"id":"cliopatria-kingdom-of-the-franks-0775","edge_precision":"unknown","cliopatria_name":"Kingdom of the Franks","cliopatria_from_year":775,"cliopatria_to_year":777,"cliopatria_area_km2":979957,"cliopatria_wikidata":"Q146246","cliopatria_wikipedia":"Francia","cliopatria_seshat_id":"fr_carolingian_emp_1","cliopatria_member_of":"(Carolingian Empire);(Kingdom of the Franks)"},
"geometry": {"type": "MultiPolygon", "coordinates": [
[
[
[-2.8373,47.5982],
[-2.8315,47.5323],
[-2.5784,47.4665],
[-2.5616,47.269],
[-2.2322,47.269],
[-2.1391,47.1374],
[-2.1944,46.8086],
[-2.0249,46.7429],
[-2.0144,46.6115],
[-1.666,46.3489],
[-1.2518,46.2833],
[-1.2227,45.8898],
[-1.1411,45.8898],
[-1.2131,45.7588],
[-1.0453,45.6933],
[-1.0312,45.4968],
[-1.1894,45.4313],
[-1.2238,44.7773],
[-1.2192,44.7119],
[-1.0616,44.7773],
[-0.6386,44.516],
[0.0174,44.3854],
[0.28,44.0591],
[0.4415,44.0591],
[0.5414,43.733],
[1.2143,43.2118],
[1.322,42.6912],
[1.4855,42.6262],
[1.4921,42.4962],
[1.6554,42.4312],
[1.8891,42.5612],
[2.4583,42.3662],
[3.0927,42.4962],
[3.09,42.5612],
[3.0099,42.5612],
[2.9849,43.1467],
[3.8509,43.6027],
[4.173,43.6027],
[4.1778,43.4723],
[5.0631,43.4723],
[5.3869,43.4072],
[5.3908,43.2769],
[5.6319,43.2769],
[5.7962,43.1467],
[6.2782,43.1467],
[6.5176,43.2118],
[6.6726,43.4723],
[6.9931,43.5375],
[7.1502,43.733],
[8.0339,43.9286],
[8.4315,44.3854],
[9.1591,44.4507],
[9.7274,44.1243],
[9.9697,44.1243],
[9.8895,43.9938],
[10.2123,43.9938],
[10.5353,43.0816],
[11.0163,42.8213],
[11.0158,42.6262],
[11.176,42.6262],
[11.2552,42.4312],
[11.7343,42.3012],
[11.7339,42.2362],
[12.0535,42.2362],
[12.1346,42.3662],
[12.1358,42.4962],
[11.9763,42.5612],
[12.0598,42.9515],
[11.8219,43.3421],
[12.2246,43.4072],
[12.5472,43.4723],
[12.5487,43.6027],
[13.192,43.5375],
[13.2704,43.4072],
[13.5129,43.4723],
[13.514,43.5375],
[13.0338,43.733],
[13.0356,43.8634],
[12.8734,43.7982],
[12.313,44.1896],
[12.1537,44.4507],
[12.1572,44.8426],
[12.3999,44.7773],
[12.4026,45.0388],
[12.16,45.1696],
[12.1617,45.3659],
[11.9989,45.3659],
[12.0004,45.5623],
[12.1644,45.6933],
[12.7367,45.8243],
[12.9816,45.8243],
[13.0614,45.6933],
[13.1448,45.8243],
[13.7149,45.7588],
[13.7102,45.4968],
[13.6288,45.4968],
[13.9457,45.0388],
[14.1894,45.0388],
[14.1962,45.3659],
[14.2776,45.3659],
[14.203,45.6933],
[14.1214,45.6933],
[14.207,45.8898],
[14.1254,45.8898],
[14.0502,46.2177],
[13.806,46.2833],
[13.8084,46.4145],
[13.7265,46.4145],
[13.7276,46.4802],
[12.0905,46.6772],
[11.9251,46.4802],
[10.5323,46.4145],
[10.3679,46.6115],
[10.0399,46.6115],
[10.1231,46.3489],
[9.8779,46.2833],
[9.3857,46.4145],
[9.3833,46.6772],
[9.6274,46.9401],
[9.5414,47.4006],
[9.9519,47.6641],
[9.8681,47.8619],
[9.9508,47.8619],
[10.1134,48.4559],
[11.3595,48.8527],
[11.8612,49.1838],
[12.6091,48.9851],
[12.7729,48.7865],
[13.1045,48.7204],
[13.1025,48.5881],
[13.6007,48.5881],
[14.1762,48.3238],
[14.2591,48.3238],
[14.5062,48.2578],
[14.5094,48.3899],
[14.3466,48.522],
[14.1806,48.522],
[14.2666,48.6542],
[13.6889,48.8527],
[13.1964,49.25],
[12.7812,49.3826],
[12.3685,49.7807],
[12.4548,49.98],
[12.0391,50.3125],
[12.042,50.5789],
[12.2955,50.6455],
[12.2972,50.7788],
[12.1294,50.8455],
[12.1319,51.0457],
[11.2893,51.3797],
[11.3755,51.5803],
[11.5458,51.6472],
[11.5476,51.8481],
[11.8041,51.9822],
[11.5508,52.1833],
[11.5522,52.3176],
[11.6374,52.3176],
[11.818,53.1248],
[11.4747,53.1248],
[11.4761,53.2596],
[11.1329,53.3271],
[10.703,53.3271],
[10.5315,53.4621],
[10.1872,53.3946],
[10.015,53.5296],
[9.4115,53.6647],
[9.2375,53.8676],
[8.8058,53.8676],
[8.4595,53.9352],
[8.377,53.6647],
[8.2057,53.5971],
[7.9448,53.7323],
[7.0823,53.7323],
[6.9133,53.5971],
[6.9168,53.4621],
[6.2262,53.5296],
[5.5423,53.3946],
[5.2089,53.1248],
[5.3857,52.99],
[5.3908,52.8554],
[5.1366,52.7881],
[5.0564,52.6535],
[4.8797,52.7881],
[4.8713,52.99],
[4.6998,52.99],
[4.4547,52.7208],
[4.4638,52.5191],
[4.2169,52.3176],
[4.2232,52.1833],
[3.974,52.0492],
[3.9805,51.9151],
[3.8104,51.9151],
[3.817,51.7811],
[3.6471,51.7811],
[3.7387,51.6472],
[3.3993,51.6472],
[3.4062,51.5134],
[3.7486,51.4465],
[3.1555,51.4465],
[2.5778,51.1792],
[1.6562,51.0457],
[1.4247,50.7121],
[1.455,50.246],
[1.0528,49.98],
[0.2241,49.8471],
[-0.0124,49.6479],
[0.007,49.3826],
[-1.2508,49.4489],
[-1.3618,49.7807],
[-2.0316,49.7807],
[-1.9133,49.3826],
[-1.6517,49.25],
[-1.635,49.0513],
[-1.7183,49.0513],
[-1.6076,48.7204],
[-1.6022,48.6542],
[-1.5083,48.522],
[-1.6689,48.4559],
[-1.6473,48.1917],
[-1.7967,47.9938],
[-2.4472,47.8619],
[-2.8373,47.5982]
]
],
[
[
[8.5346,42.4962],
[8.5388,42.1063],
[8.7005,41.9114],
[8.6227,41.7167],
[8.7821,41.7167],
[8.7839,41.522],
[9.1038,41.3274],
[9.2624,41.3922],
[9.4989,41.7816],
[9.4978,41.9764],
[9.5776,41.9764],
[9.5736,42.7563],
[9.4934,42.7563],
[9.4919,43.0165],
[9.2511,43.0165],
[9.1728,42.7563],
[8.7727,42.6912],
[8.5346,42.4962]
]
],
[
[
[10.1343,42.8864],
[10.2148,42.6912],
[10.4552,42.6912],
[10.4551,42.8864],
[10.1343,42.8864]
]
]
]}
}
