{
"type": "Feature",
"properties": {"id":"cliopatria-wusun-0165","edge_precision":"unknown","cliopatria_name":"Wusun","cliopatria_from_year":165,"cliopatria_to_year":386,"cliopatria_area_km2":39947,"cliopatria_wikidata":"Q854062","cliopatria_wikipedia":"Wusun"},
"geometry": {"type": "MultiPolygon", "coordinates": [
[
[
[75.7015,42.5612],
[75.8139,42.4312],
[76.1578,42.4962],
[76.1423,42.2362],
[76.2784,42.1712],
[76.1276,41.9764],
[76.1604,41.8465],
[76.7983,41.8465],
[76.6153,41.7816],
[76.6247,41.5869],
[76.8635,41.5869],
[76.8168,41.4571],
[77.3738,41.4571],
[77.8749,41.522],
[80.0285,42.3662],
[80.0538,42.4312],
[79.519,42.4962],
[79.4894,42.6262],
[79.3293,42.6262],
[79.2998,42.7563],
[79.0298,42.8864],
[78.6287,42.8864],
[77.7161,43.0165],
[75.7656,42.9515],
[75.8776,42.8213],
[75.7015,42.5612]
]
]
]}
}
