{
"type": "Feature",
"properties": {"id":"cliopatria-prome-kingdom-1502","edge_precision":"unknown","cliopatria_name":"Prome Kingdom","cliopatria_from_year":1502,"cliopatria_to_year":1539,"cliopatria_area_km2":19690,"cliopatria_wikidata":"Q13576027","cliopatria_wikipedia":"Prome Kingdom"},
"geometry": {"type": "MultiPolygon", "coordinates": [
[
[
[94.827,19.6362],
[94.9649,18.5434],
[95.1589,18.3505],
[95.0391,18.0291],
[95.0583,17.6433],
[96.4974,17.9005],
[96.5253,18.0933],
[96.3869,18.1576],
[96.4056,18.2862],
[95.9538,18.7362],
[95.8059,18.7362],
[95.3631,19.2505],
[94.827,19.6362]
]
]
]}
}
