{
"type": "Feature",
"properties": {"id":"cliopatria-norman-italy-1046","edge_precision":"unknown","cliopatria_name":"Norman Italy","cliopatria_from_year":1046,"cliopatria_to_year":1055,"cliopatria_area_km2":24721,"cliopatria_wikidata":"Q74011","cliopatria_wikipedia":"Norman conquest of southern Italy"},
"geometry": {"type": "MultiPolygon", "coordinates": [
[
[
[13.7918,41.1328],
[13.9506,41.1328],
[14.1046,40.8736],
[14.4245,41.0032],
[15.5358,41.0032],
[15.61,40.8088],
[16.393,40.4849],
[16.4762,40.6144],
[16.7138,40.6144],
[16.7972,40.744],
[17.2774,40.8736],
[17.2798,40.9384],
[17.0462,41.068],
[16.6471,41.0032],
[16.4966,41.2625],
[16.2581,41.2625],
[15.8663,41.4571],
[15.8738,41.7167],
[16.1149,41.7816],
[16.1189,41.9114],
[15.2414,41.9114],
[15.165,42.0413],
[14.924,41.9764],
[14.7674,42.1063],
[14.6876,42.1063],
[14.3654,41.9764],
[14.1208,41.7167],
[13.9615,41.7167],
[14.0374,41.522],
[13.7952,41.3274],
[13.7918,41.1328]
]
]
]}
}
