{
"type": "Feature",
"properties": {"id":"cliopatria-khwarezmid-empire-1210","edge_precision":"unknown","cliopatria_name":"Khwarezmid Empire","cliopatria_from_year":1210,"cliopatria_to_year":1215,"cliopatria_area_km2":2805068,"cliopatria_wikidata":"Q63134381","cliopatria_wikipedia":"Khwarazmian Empire","cliopatria_seshat_id":"tm_khwarezmid_emp"},
"geometry": {"type": "MultiPolygon", "coordinates": [
[
[
[45.439,33.9075],
[45.5928,33.9075],
[46.1378,33.3931],
[46.1631,33.0073],
[46.6821,32.8788],
[46.9456,32.5574],
[47.4637,32.4288],
[47.5824,32.1717],
[47.7267,32.1074],
[47.7098,31.9789],
[47.9218,31.8503],
[47.9729,31.6575],
[47.7957,31.4647],
[47.739,31.0148],
[48.1031,30.8863],
[48.0478,30.4364],
[48.2755,30.4364],
[48.4117,30.3079],
[48.3884,30.1151],
[48.6005,29.9865],
[48.6763,29.9865],
[48.9873,30.0508],
[48.9428,30.3079],
[49.5859,29.9865],
[50.0648,30.1794],
[50.2363,29.7294],
[50.6513,29.4081],
[50.6203,29.1509],
[50.915,29.0867],
[50.809,28.8295],
[51.0281,28.7652],
[51.0662,28.4438],
[51.3313,28.1224],
[51.3168,27.9938],
[51.5967,27.8009],
[52.0486,27.8009],
[52.4787,27.6081],
[52.737,27.2223],
[53.4606,26.9652],
[53.6581,26.708],
[54.2589,26.708],
[54.4632,26.5151],
[54.8316,26.4508],
[55.2423,26.7723],
[55.5427,26.7723],
[55.3102,26.708],
[55.2889,26.5151],
[55.439,26.5151],
[55.6034,26.6437],
[56.0612,26.708],
[56.3086,26.9009],
[56.3236,27.0295],
[56.0981,27.0295],
[56.1884,27.158],
[56.7147,27.158],
[57.0524,26.8366],
[57.1148,26.0651],
[57.3795,25.7436],
[57.6792,25.7436],
[57.7402,25.615],
[57.958,25.5507],
[58.7817,25.5507],
[59.0602,25.3579],
[60.6321,25.3579],
[60.6178,25.2293],
[60.9171,25.2293],
[61.1274,25.1007],
[61.5834,25.165],
[61.6582,25.165],
[61.854,26.1937],
[62.4277,26.5794],
[62.8782,26.5794],
[63.2789,26.7723],
[63.3308,27.158],
[62.822,27.2866],
[62.8551,28.0581],
[62.6291,28.5724],
[62.4877,28.6367],
[62.7231,29.6652],
[63.0349,30.1794],
[63.156,30.8863],
[63.08,30.8863],
[63.2359,31.3362],
[63.1598,31.3362],
[63.2063,31.5933],
[63.1301,31.5933],
[63.185,32.3002],
[63.5398,32.5574],
[63.832,33.2645],
[64.2939,33.6502],
[65.3823,33.7146],
[66.0795,34.1004],
[66.3872,34.1004],
[66.6668,33.9718],
[66.7158,33.8432],
[67.1,33.8432],
[67.3025,33.7146],
[67.5469,33.7789],
[67.826,33.6502],
[68.2099,33.6502],
[68.5744,33.9075],
[68.6325,34.1647],
[69.0614,34.3577],
[68.8898,34.615],
[69.0422,34.9366],
[69.5667,35.194],
[69.8757,35.194],
[69.9841,35.3227],
[69.9697,35.7733],
[69.6435,36.2883],
[69.4543,36.4497],
[69.7182,36.4815],
[69.91,36.5654],
[70.385,37.1904],
[70.3794,37.1904],
[70.4308,37.3838],
[70.2485,37.5773],
[69.546,37.5773],
[69.3498,37.126],
[69.1161,37.126],
[69.0103,37.3193],
[68.7764,37.3193],
[68.1487,36.9971],
[67.9152,36.9971],
[67.7465,37.2549],
[66.4536,37.3838],
[66.5638,37.5128],
[66.502,37.5773],
[66.5838,37.8998],
[66.6619,37.8998],
[66.7176,38.416],
[67.2223,39.1265],
[67.7108,40.2906],
[68.3811,41.1977],
[68.3016,41.1977],
[68.5508,42.2362],
[68.4708,42.2362],
[68.4964,42.5612],
[68.4163,42.5612],
[68.5573,43.4723],
[68.3814,43.6678],
[68.4253,43.7982],
[68.286,43.8634],
[68.2935,44.1243],
[68.154,44.1896],
[68.1618,44.4507],
[68.0808,44.4507],
[68.1116,45.9554],
[67.9941,46.0865],
[67.0724,46.0209],
[65.995,46.2177],
[64.3805,46.2833],
[64.2601,46.4145],
[63.2806,46.6772],
[63.1808,46.8743],
[62.8737,46.9401],
[62.509,47.3348],
[61.8075,47.2032],
[61.5589,46.9401],
[61.6411,46.9401],
[61.5779,46.4802],
[61.2512,45.9554],
[61.3329,45.9554],
[61.2523,45.6933],
[61.3339,45.6933],
[61.3352,45.4313],
[61.7222,45.3659],
[61.5823,44.908],
[61.42,44.908],
[61.3805,44.7773],
[60.8969,44.516],
[60.7808,44.1243],
[60.6001,44.0591],
[60.3865,43.6027],
[60.1075,43.4723],
[59.1235,43.4072],
[58.6329,43.6678],
[58.4175,43.4723],
[58.3371,43.4723],
[58.0515,43.0165],
[57.957,42.3662],
[57.5644,41.7816],
[57.4649,41.3922],
[56.8274,40.744],
[54.3851,40.8088],
[54.3701,40.744],
[53.4044,40.6792],
[53.4482,40.8736],
[53.3397,40.744],
[52.9433,40.744],
[52.9723,40.8736],
[52.893,40.8736],
[52.6994,40.3554],
[52.7785,40.3554],
[52.7877,40.0317],
[53.4985,40.0317],
[53.5449,39.5143],
[53.1375,39.4496],
[53.5176,39.385],
[53.9868,38.9972],
[53.8298,37.8352],
[53.9079,37.8352],
[53.9105,37.4483],
[54.0947,37.1904],
[54.0333,36.8682],
[53.4887,36.8682],
[52.586,36.6105],
[51.642,36.546],
[50.532,36.8682],
[50.6323,36.9971],
[50.5657,37.0615],
[50.3209,36.9971],
[49.8541,37.4483],
[49.0851,37.5128],
[49.0293,37.6417],
[48.9512,37.6417],
[47.9392,37.1904],
[47.5037,36.4172],
[47.3283,36.2884],
[46.0779,35.7089],
[46.031,35.3871],
[45.8671,35.3227],
[45.7531,35.0653],
[45.7939,34.8079],
[45.6898,34.615],
[45.5356,34.615],
[45.5002,34.3577],
[45.6453,34.2933],
[45.439,33.9075]
]
],
[
[
[69.7453,28.251],
[69.8961,28.251],
[69.9069,28.3153],
[69.756,28.3153],
[69.7453,28.251]
]
]
]}
}
