{
"type": "Feature",
"properties": {"id":"cliopatria-republic-of-florence-1402","edge_precision":"unknown","cliopatria_name":"Republic of Florence","cliopatria_from_year":1402,"cliopatria_to_year":1486,"cliopatria_area_km2":14118,"cliopatria_wikidata":"Q148540","cliopatria_wikipedia":"Republic of Florence","cliopatria_seshat_id":"it_florence_rep","cliopatria_member_of":"(Holy Roman Empire)"},
"geometry": {"type": "MultiPolygon", "coordinates": [
[
[
[10.2125,43.9286],
[10.2126,43.8634],
[10.3742,43.6678],
[10.5353,43.0816],
[10.6958,42.9515],
[10.776,42.9515],
[10.7766,43.3421],
[11.0182,43.4723],
[11.2596,43.4723],
[11.5807,43.3421],
[11.6599,43.1467],
[11.9008,43.1467],
[11.8219,43.3421],
[12.1442,43.4072],
[12.2265,43.6027],
[11.7447,43.7982],
[11.7469,44.1243],
[11.5059,44.3854],
[10.8585,44.2548],
[10.6965,43.7982],
[10.2125,43.9286]
]
],
[
[
[21.9904,38.6743],
[22.0552,38.416],
[22.2119,38.416],
[22.2084,38.3515],
[22.2868,38.3515],
[22.2902,38.416],
[22.5253,38.416],
[22.3827,38.6743],
[22.4756,38.9326],
[22.1614,38.9326],
[21.9904,38.6743]
]
]
]}
}
