{
"type": "Feature",
"properties": {"id":"cliopatria-gurjara-pratihara-dynasty-0806","edge_precision":"unknown","cliopatria_name":"Gurjara-Pratihara Dynasty","cliopatria_from_year":806,"cliopatria_to_year":813,"cliopatria_area_km2":626087,"cliopatria_wikidata":"Q5324","cliopatria_wikipedia":"Gurjara-Pratihara dynasty","cliopatria_seshat_id":"in_gurjara_pratihara_dyn"},
"geometry": {"type": "MultiPolygon", "coordinates": [
[
[
[68.3359,23.4291],
[68.5525,23.3649],
[68.8083,22.9791],
[69.2342,22.7863],
[69.7484,22.722],
[70.0674,22.9148],
[70.3653,22.9148],
[70.7887,23.3649],
[71.6388,23.622],
[72.6006,23.5577],
[73.5312,23.2363],
[74.2003,22.5934],
[74.2524,22.4005],
[74.6766,22.2077],
[76.4922,22.4648],
[77.2364,22.4648],
[78.0122,22.722],
[79.6747,22.9148],
[79.9695,25.0364],
[80.1686,25.3579],
[80.7775,25.4221],
[80.8321,25.2936],
[81.2165,25.3579],
[81.271,25.2293],
[81.9547,25.2936],
[82.4581,25.165],
[82.8322,25.165],
[83.3124,25.3579],
[83.3872,25.3579],
[83.89,25.6793],
[84.129,26.1937],
[84.054,26.1937],
[83.9616,26.5151],
[83.1943,26.8366],
[78.9114,27.6724],
[78.3092,27.6724],
[78.3209,27.7367],
[77.7185,27.7367],
[77.4407,27.8652],
[76.6991,27.9295],
[75.4937,27.9295],
[73.3402,27.6724],
[71.5461,27.2866],
[70.9667,26.4508],
[70.479,26.1937],
[70.0199,26.1294],
[69.6751,25.8079],
[69.2898,25.165],
[68.8417,23.9435],
[68.3502,23.5577],
[68.3359,23.4291]
]
]
]}
}
