{
"type": "Feature",
"properties": {"id":"cliopatria-polish-armed-forces-1918","edge_precision":"unknown","cliopatria_name":"Polish Armed Forces","cliopatria_from_year":1918,"cliopatria_to_year":1918,"cliopatria_area_km2":50817,"cliopatria_wikidata":"Q248989","cliopatria_wikipedia":"Polish Land Forces"},
"geometry": {"type": "MultiPolygon", "coordinates": [
[
[
[27.7746,56.0451],
[27.7759,54.8851],
[27.863,54.8851],
[27.9567,54.3417],
[28.1101,54.2061],
[28.1738,52.8554],
[28.2595,52.8554],
[28.2977,52.5191],
[28.4591,52.4519],
[28.4695,51.9151],
[28.8478,51.5803],
[29.1117,51.6472],
[29.253,51.4465],
[29.9309,51.4465],
[29.9406,51.5134],
[29.8952,51.7811],
[29.8102,51.7811],
[29.8399,51.9822],
[29.7549,51.9822],
[29.7848,52.1833],
[29.569,52.4519],
[29.5993,52.6535],
[29.5138,52.6535],
[29.5306,53.3271],
[29.4446,53.3271],
[29.8009,55.0211],
[29.7137,55.0211],
[29.77,55.3618],
[29.5527,55.6348],
[29.5218,55.9766],
[28.7309,55.9766],
[28.5769,56.1136],
[28.1477,56.1821],
[27.9716,56.1821],
[27.8626,56.0451],
[27.7746,56.0451]
]
]
]}
}
