{
"type": "Feature",
"properties": {"id":"cliopatria-emirate-of-nejd-1830","edge_precision":"unknown","cliopatria_name":"Emirate of Nejd","cliopatria_from_year":1830,"cliopatria_to_year":1845,"cliopatria_area_km2":563058,"cliopatria_wikidata":"Q146862","cliopatria_wikipedia":"Emirate of Nejd"},
"geometry": {"type": "MultiPolygon", "coordinates": [
[
[
[39.3808,26.5794],
[39.4379,26.3222],
[39.5835,26.258],
[39.7778,25.8079],
[39.9234,25.7436],
[40.2475,24.9721],
[40.393,24.9078],
[40.5186,24.5221],
[40.6641,24.4578],
[40.995,23.7506],
[41.1405,23.6863],
[41.2672,23.3006],
[41.4126,23.2363],
[41.4053,23.1077],
[41.5506,23.0434],
[41.8194,22.5291],
[42.1734,22.2077],
[42.1662,22.0791],
[42.4493,21.822],
[42.7849,21.1791],
[43.1416,20.922],
[43.2719,20.6005],
[43.6948,20.2148],
[43.6985,20.2791],
[43.639,20.5362],
[43.8615,20.5362],
[43.8021,20.7934],
[44.0321,20.922],
[44.047,21.1791],
[44.5114,21.5005],
[44.5228,21.6934],
[44.6752,21.7577],
[44.7766,22.2077],
[44.9372,22.4005],
[44.9531,22.6577],
[45.5113,23.2363],
[46.7211,23.4934],
[47.1865,23.7506],
[47.5549,23.6863],
[48.1704,23.9435],
[48.3895,23.8792],
[48.563,24.2006],
[48.7969,24.3292],
[49.4741,24.3935],
[50.3601,24.2649],
[50.4347,24.2649],
[50.7926,24.9721],
[50.7178,24.9721],
[50.6076,25.4221],
[50.3255,25.615],
[50.211,26.0008],
[50.067,26.0651],
[50.223,26.1294],
[50.2537,26.4508],
[50.116,26.5794],
[50.135,26.7723],
[49.3596,27.2866],
[49.2419,27.6081],
[48.8722,27.6724],
[48.9741,27.9295],
[48.5627,28.3153],
[48.5834,28.5081],
[48.4394,28.5724],
[48.392,28.8295],
[47.9387,28.8295],
[47.6915,28.6367],
[47.5623,28.1224],
[47.5796,27.5438],
[47.01,27.0938],
[45.8073,27.0938],
[45.1422,27.2223],
[44.6561,27.6724],
[44.0654,27.8009],
[44.083,27.9938],
[43.8805,28.251],
[43.7179,28.1224],
[43.4281,28.251],
[43.3527,28.251],
[43.3069,28.5724],
[42.9178,28.4438],
[42.7209,28.7652],
[42.4307,28.8938],
[42.0471,28.8295],
[41.9834,28.9581],
[41.687,29.0224],
[41.5242,28.8938],
[41.0652,28.8295],
[40.7744,28.9581],
[40.6064,28.7652],
[40.4553,28.7652],
[40.5253,28.701],
[40.4118,28.251],
[40.0892,27.9938],
[40.0687,27.7367],
[40.2142,27.6724],
[40.2041,27.5438],
[40.7157,27.3509],
[40.6156,27.0295],
[40.0658,26.708],
[39.9203,26.7723],
[39.9109,26.6437],
[39.4559,26.5794],
[39.3808,26.5794]
]
],
[
[
[39.9954,26.7723],
[40.0705,26.7723],
[40.0752,26.8366],
[40.0001,26.8366],
[39.9954,26.7723]
]
],
[
[
[54.8621,19.8934],
[55.0102,19.8934],
[55.0942,20.022],
[55.0201,20.022],
[54.8621,19.8934]
]
]
]}
}
