{
"type": "Feature",
"properties": {"id":"cliopatria-portuguese-empire-1502","edge_precision":"unknown","cliopatria_name":"Portuguese Empire","cliopatria_from_year":1502,"cliopatria_to_year":1506,"cliopatria_area_km2":102966,"cliopatria_wikidata":"Q200464","cliopatria_wikipedia":"Portuguese Empire","cliopatria_seshat_id":"pt_portuguese_emp_1","cliopatria_member_of":"(Portuguese Empire)"},
"geometry": {"type": "MultiPolygon", "coordinates": [
[
[
[-42.2306,-22.6007],
[-42.1627,-22.665],
[-41.9265,-22.5364],
[-41.8328,-22.3435],
[-41.1445,-22.1507],
[-41.0393,-21.8292],
[-41.0712,-21.3792],
[-40.9048,-21.1864],
[-40.8811,-20.9292],
[-40.4068,-20.6078],
[-40.1956,-19.9006],
[-39.7972,-19.5792],
[-39.7669,-18.3578],
[-39.5924,-18.0363],
[-39.2761,-17.7792],
[-39.2885,-17.0077],
[-39.0231,-16.4291],
[-38.9532,-15.4648],
[-39.1385,-14.9505],
[-39.011,-14.1148],
[-39.0343,-13.279],
[-38.8766,-13.0862],
[-38.3597,-13.0219],
[-38.1292,-12.829],
[-37.7291,-12.1861],
[-37.6368,-11.8004],
[-37.4842,-11.6718],
[-37.4721,-11.4147],
[-37.2465,-11.2861],
[-37.2378,-11.0932],
[-36.7792,-10.6432],
[-36.2565,-10.3861],
[-35.7124,-9.5503],
[-35.4131,-9.3575],
[-35.1718,-8.7146],
[-35.0215,-8.586],
[-35.0073,-8.136],
[-34.9343,-8.136],
[-34.8337,-7.1717],
[-34.9678,-6.7217],
[-34.9662,-6.6574],
[-35.0313,-6.336],
[-35.1757,-6.2717],
[-35.1654,-5.8217],
[-35.3733,-5.3074],
[-35.5881,-5.1145],
[-36.097,-5.0502],
[-35.9563,-5.3074],
[-35.6661,-5.3716],
[-35.5959,-5.5002],
[-35.4658,-6.2074],
[-35.3929,-6.2074],
[-35.4704,-6.4002],
[-35.3246,-6.4002],
[-35.268,-7.0431],
[-35.122,-7.0431],
[-35.2954,-8.0074],
[-35.4494,-8.2646],
[-35.3825,-8.4575],
[-35.4639,-8.7146],
[-35.6143,-8.8432],
[-35.7007,-9.2289],
[-36.2263,-9.6146],
[-36.4681,-10.1932],
[-37.3672,-10.7075],
[-37.7679,-11.479],
[-37.9173,-11.5433],
[-37.8503,-11.6718],
[-37.9361,-11.929],
[-38.2553,-12.4433],
[-38.5518,-12.5076],
[-38.6882,-12.3147],
[-39.1346,-12.4433],
[-39.3314,-13.3433],
[-39.4048,-13.3433],
[-39.4845,-14.6291],
[-39.4111,-14.6291],
[-39.3945,-15.4648],
[-39.2611,-15.6577],
[-39.3081,-16.3005],
[-39.5784,-16.9434],
[-39.5661,-17.7149],
[-40.0516,-18.2292],
[-40.1581,-18.6149],
[-40.0842,-18.6149],
[-40.1338,-19.1935],
[-40.0598,-19.1935],
[-40.1674,-19.5792],
[-40.4806,-19.7721],
[-40.6977,-20.5435],
[-41.172,-20.8649],
[-41.2641,-21.0578],
[-41.294,-21.3792],
[-41.4669,-21.6364],
[-41.349,-21.9578],
[-42.124,-22.2792],
[-42.2306,-22.6007]
]
],
[
[
[-25.3537,17.0647],
[-25.2701,16.8719],
[-25.0522,16.9362],
[-24.9688,16.7433],
[-24.8214,16.7433],
[-24.831,16.9362],
[-24.9817,17.0005],
[-24.908,17.0005],
[-24.9949,17.2576],
[-25.2866,17.1933],
[-25.3537,17.0647]
]
],
[
[
[-24.4503,15.0718],
[-24.3636,14.7504],
[-24.2901,14.7504],
[-24.2298,15.0718],
[-24.4503,15.0718]
]
],
[
[
[-24.3761,16.679],
[-24.3668,16.4861],
[-24.0752,16.5504],
[-24.0813,16.679],
[-24.3761,16.679]
]
],
[
[
[-23.786,15.0075],
[-23.7834,14.9432],
[-23.4134,14.8789],
[-23.4237,15.1361],
[-23.5787,15.329],
[-23.7258,15.329],
[-23.786,15.0075]
]
],
[
[
[-23.2819,15.2647],
[-23.2005,15.0718],
[-23.127,15.0718],
[-22.9852,15.2004],
[-23.064,15.329],
[-23.2819,15.2647]
]
],
[
[
[-22.982,16.8076],
[-22.976,16.679],
[-22.8286,16.679],
[-22.8376,16.8719],
[-22.982,16.8076]
]
],
[
[
[-22.9441,15.9718],
[-22.6497,15.9718],
[-22.5816,16.1004],
[-22.5845,16.1647],
[-22.8818,16.229],
[-22.9441,15.9718]
]
],
[
[
[-9.3855,32.1717],
[-9.3808,32.1074],
[-8.8555,32.236],
[-8.802,32.5574],
[-8.3613,32.8145],
[-8.2356,33.2002],
[-8.3983,33.3288],
[-8.475,33.3288],
[-9.1985,32.7502],
[-9.3325,32.4931],
[-9.3091,32.1717],
[-9.3855,32.1717]
]
],
[
[
[-6.0088,35.4514],
[-6.0043,35.3871],
[-5.8453,35.3227],
[-5.7083,35.5802],
[-5.2441,35.5802],
[-5.2484,35.6445],
[-5.3258,35.6445],
[-5.3389,35.8377],
[-5.4164,35.8377],
[-5.8766,35.7733],
[-6.0088,35.4514]
]
],
[
[
[-2.5964,4.9144],
[-2.4506,4.9144],
[-2.4511,4.8501],
[-2.3054,4.8501],
[-2.3034,5.1072],
[-2.5221,5.1072],
[-2.5964,4.9144]
]
],
[
[
[-1.6485,4.9787],
[-1.2836,5.0429],
[-1.4274,5.3001],
[-1.5003,5.3001],
[-1.6465,5.2358],
[-1.6485,4.9787]
]
],
[
[
[6.2996,0.2857],
[6.3828,0.0285],
[6.6612,0.1571],
[6.6657,0.4142],
[6.3007,0.35],
[6.2996,0.2857]
]
],
[
[
[7.1934,1.5071],
[7.339,1.5071],
[7.3421,1.7],
[7.2693,1.7],
[7.1934,1.5071]
]
],
[
[
[8.3119,3.2429],
[8.6751,3.1786],
[8.8992,3.5643],
[8.9001,3.6286],
[8.83,3.8215],
[8.5377,3.7572],
[8.4613,3.5],
[8.3147,3.4358],
[8.3119,3.2429]
]
],
[
[
[75.5849,11.2788],
[75.6581,11.2788],
[75.6536,11.2146],
[75.7268,11.2146],
[75.7178,11.086],
[75.7909,11.086],
[75.782,10.9574],
[75.9284,10.9574],
[75.8822,11.3431],
[75.5895,11.3431],
[75.5849,11.2788]
]
],
[
[
[80.1325,13.2075],
[80.3414,13.0789],
[80.4147,13.0789],
[80.3754,13.4646],
[80.302,13.4646],
[80.1495,13.4003],
[80.1325,13.2075]
]
]
]}
}
