{
"type": "Feature",
"properties": {"id":"cliopatria-philistia-1001bce","edge_precision":"unknown","cliopatria_name":"Philistia","cliopatria_from_year":-1000,"cliopatria_to_year":-901,"cliopatria_area_km2":7635,"cliopatria_wikidata":"Q7185566","cliopatria_wikipedia":"Philistia"},
"geometry": {"type": "MultiPolygon", "coordinates": [
[
[
[34.287,31.1434],
[34.4289,31.0148],
[34.9115,31.3362],
[34.9877,31.3362],
[35.0038,31.529],
[34.8567,31.5933],
[34.8675,31.7218],
[35.031,31.8503],
[35.1406,32.236],
[35.0643,32.236],
[35.0812,32.4288],
[35.2397,32.4931],
[35.4452,33.0716],
[35.3686,33.0716],
[35.2213,33.1359],
[35.0563,33.0073],
[35.0218,32.6216],
[34.7698,32.3645],
[34.813,31.9789],
[34.5733,31.8503],
[34.6334,31.6575],
[34.3076,31.4005],
[34.287,31.1434]
]
]
]}
}
