{
"type": "Feature",
"properties": {"id":"cliopatria-kazakh-khanate-1556","edge_precision":"unknown","cliopatria_name":"Kazakh Khanate","cliopatria_from_year":1556,"cliopatria_to_year":1571,"cliopatria_area_km2":2400902,"cliopatria_wikidata":"Q1433867","cliopatria_wikipedia":"Kazakh Khanate","cliopatria_seshat_id":"kz_kazakh_khanate_1"},
"geometry": {"type": "MultiPolygon", "coordinates": [
[
[
[50.1939,44.4507],
[50.8757,44.2548],
[51.0716,44.0591],
[51.0407,43.9286],
[51.3169,43.733],
[51.3051,43.3421],
[51.4353,43.2118],
[51.7722,43.2769],
[51.9361,42.9515],
[52.4175,42.9515],
[52.7873,42.8213],
[52.7407,42.6262],
[55.5299,42.8864],
[55.9943,42.8213],
[56.3489,42.9515],
[57.2488,43.0165],
[57.3291,43.0165],
[58.3371,43.4723],
[58.3551,43.5375],
[58.1857,43.7982],
[57.9618,43.8634],
[58.0707,44.2548],
[57.9899,44.2548],
[58.0447,44.4507],
[57.9638,44.4507],
[58.2668,45.235],
[58.4858,45.4313],
[58.6377,45.9554],
[59.3105,46.0209],
[59.49,46.3489],
[59.8374,46.4145],
[60.1215,46.8086],
[60.9837,46.9401],
[60.9426,46.8086],
[61.0862,46.7429],
[61.2303,46.9401],
[61.6411,46.9401],
[61.5779,46.4802],
[61.2512,45.9554],
[61.3329,45.9554],
[61.2523,45.6933],
[61.3339,45.6933],
[61.3352,45.4313],
[61.7222,45.3659],
[61.5823,44.908],
[61.42,44.908],
[61.3805,44.7773],
[60.8969,44.516],
[60.8775,44.4507],
[61.1008,44.3854],
[61.7556,43.6027],
[61.9778,43.5375],
[62.0583,43.5375],
[62.0002,43.3421],
[62.2027,43.2118],
[62.1834,43.1467],
[63.7341,42.4312],
[68.2836,40.3554],
[68.7181,40.4849],
[69.3733,41.068],
[70.5474,41.2625],
[70.7484,41.3922],
[70.812,41.5869],
[72.3066,42.2362],
[72.7411,42.1063],
[73.3799,42.1063],
[73.9048,42.2362],
[73.9508,42.3662],
[74.2707,42.3662],
[74.4642,42.2362],
[74.9339,42.4312],
[75.4139,42.4312],
[75.8055,42.6262],
[76.4947,42.7563],
[78.3881,42.8864],
[79.0846,42.8213],
[79.2492,42.6262],
[79.4094,42.6262],
[79.439,42.4962],
[79.9738,42.4312],
[80.0032,42.3012],
[80.1631,42.3012],
[80.1884,42.3662],
[80.2872,42.8213],
[80.4734,42.8864],
[80.4711,43.0816],
[80.6317,43.0816],
[80.7907,43.2769],
[80.6825,43.4072],
[80.7354,43.5375],
[80.3572,43.9938],
[80.3832,44.4507],
[80.3023,44.4507],
[80.4103,44.7119],
[79.9779,44.8426],
[79.9509,44.9734],
[81.8231,45.3659],
[82.2122,45.8898],
[82.5433,46.0865],
[83.0351,47.0058],
[83.6406,47.0716],
[83.6106,47.0058],
[83.8572,47.0058],
[83.7971,46.8743],
[84.2597,46.8086],
[84.2296,46.7429],
[84.7005,46.8743],
[85.2868,47.5982],
[85.5149,47.73],
[85.5594,47.9938],
[85.4767,47.9938],
[85.6375,48.3238],
[85.4717,48.3238],
[85.5189,48.5881],
[85.3352,48.7204],
[85.4011,48.8527],
[85.3009,48.9851],
[84.3334,49.3826],
[84.3668,49.4489],
[83.7652,49.5816],
[83.9161,49.7143],
[84.4864,49.8471],
[84.827,50.1795],
[84.7431,50.1795],
[84.225,50.3125],
[83.8823,50.7788],
[82.4838,50.8455],
[82.3852,50.9789],
[81.3569,51.1124],
[81.3918,51.1792],
[80.2079,51.1792],
[79.4298,50.9789],
[79.3284,51.1124],
[78.7195,51.246],
[78.7533,51.3128],
[78.4147,51.3128],
[78.1605,51.6472],
[77.8042,51.7811],
[77.737,51.9822],
[77.3801,52.1163],
[77.3133,52.3176],
[77.1427,52.3176],
[76.8388,52.7208],
[76.909,52.8554],
[76.5711,53.1922],
[76.9448,53.7323],
[77.6614,54.4095],
[77.6502,54.5453],
[77.4765,54.5453],
[77.5143,54.6132],
[76.8687,54.5453],
[75.5211,54.1384],
[74.3389,53.5296],
[74.0805,53.5296],
[73.4275,53.2596],
[69.3173,52.9227],
[67.891,52.99],
[67.9217,53.0574],
[66.3817,53.2596],
[66.2701,53.3946],
[65.2676,53.4621],
[65.2974,53.5296],
[64.409,53.6647],
[64.2956,53.7999],
[64.123,53.7999],
[64.1525,53.8676],
[63.9799,53.8676],
[64.0094,53.9352],
[63.8366,53.9352],
[63.8661,54.0029],
[63.2039,54.0706],
[63.2332,54.1384],
[61.9645,54.0029],
[61.7916,54.0029],
[61.8213,53.8676],
[61.1056,53.5971],
[61.1365,53.4621],
[60.7966,53.2596],
[60.1179,52.1833],
[59.8966,52.0492],
[59.9311,51.9151],
[58.5822,51.7142],
[58.4973,51.7142],
[57.9639,51.6472],
[57.9879,51.7142],
[57.5634,51.7142],
[57.4412,51.8481],
[56.5534,51.9822],
[56.5446,51.7142],
[56.6295,51.7142],
[56.5598,51.5134],
[56.2369,51.3128],
[55.9955,50.8455],
[56.3067,50.5122],
[56.2607,50.113],
[55.5065,49.5816],
[55.2381,49.25],
[55.4914,48.9851],
[55.4517,48.8527],
[55.5349,48.8527],
[55.4954,48.7204],
[55.5785,48.7204],
[55.5391,48.5881],
[55.6222,48.5881],
[55.7347,48.1257],
[55.0606,47.7959],
[55.0401,47.1374],
[54.0171,47.0058],
[53.2723,46.6772],
[53.255,46.6115],
[53.268,46.3489],
[53.3499,46.3489],
[53.2474,45.9554],
[53.0671,45.8898],
[53.0646,45.5623],
[53.4214,45.3659],
[53.6656,45.3659],
[53.8794,45.5623],
[54.2868,45.5623],
[54.2181,45.3004],
[54.3636,45.235],
[54.2952,44.9734],
[53.8081,44.9734],
[53.8757,45.235],
[52.0868,45.235],
[51.8752,45.3659],
[51.4683,45.3659],
[51.0635,45.0388],
[51.0162,44.8426],
[51.4712,44.7119],
[51.4237,44.516],
[50.8569,44.516],
[50.4019,44.6466],
[50.2245,44.5813],
[50.1939,44.4507]
]
],
[
[
[53.084,45.9554],
[53.1657,45.9554],
[53.1827,46.0209],
[53.101,46.0209],
[53.084,45.9554]
]
]
]}
}
