{
"type": "Feature",
"properties": {"id":"cliopatria-etruscans-451bce","edge_precision":"unknown","cliopatria_name":"Etruscans","cliopatria_from_year":-450,"cliopatria_to_year":-384,"cliopatria_area_km2":65359,"cliopatria_wikidata":"Q17161","cliopatria_wikipedia":"Etruscan civilization"},
"geometry": {"type": "MultiPolygon", "coordinates": [
[
[
[8.5346,42.4962],
[8.5388,42.1063],
[8.7005,41.9114],
[8.6227,41.7167],
[8.7821,41.7167],
[8.7839,41.522],
[9.1038,41.3274],
[9.2624,41.3922],
[9.4989,41.7816],
[9.4978,41.9764],
[9.5776,41.9764],
[9.5736,42.7563],
[9.4934,42.7563],
[9.4919,43.0165],
[9.2511,43.0165],
[9.1728,42.7563],
[8.7727,42.6912],
[8.5346,42.4962]
]
],
[
[
[9.3926,45.6278],
[9.558,45.3004],
[9.7207,45.3004],
[9.8844,45.1042],
[10.0469,45.1042],
[10.0474,44.9734],
[10.6159,44.7119],
[10.535,44.3854],
[10.2925,44.3201],
[10.2927,44.1896],
[10.1313,44.1243],
[10.4549,43.2769],
[10.5353,43.2769],
[10.5353,43.0816],
[11.0163,42.8213],
[11.0158,42.6262],
[11.176,42.6262],
[11.2552,42.4312],
[11.6548,42.3662],
[11.7334,42.1712],
[11.8927,42.1063],
[12.4517,42.1063],
[12.4524,42.1712],
[12.3732,42.2362],
[12.3064,43.5375],
[11.9054,43.733],
[11.9887,44.0591],
[12.313,44.1896],
[12.1537,44.4507],
[12.1572,44.8426],
[12.3999,44.7773],
[12.4026,45.0388],
[12.2413,45.1696],
[12.16,45.1696],
[12.1617,45.3659],
[10.5338,45.5623],
[10.5336,45.6933],
[10.2892,45.6278],
[9.7177,45.7588],
[9.3926,45.6278]
]
],
[
[
[9.6398,45.235],
[9.6402,45.1696],
[9.7215,45.1696],
[9.7211,45.235],
[9.6398,45.235]
]
],
[
[
[9.8892,44.0591],
[9.8895,43.9938],
[10.0509,43.9938],
[10.0505,44.1243],
[9.8892,44.0591]
]
],
[
[
[10.1343,42.8864],
[10.1346,42.7563],
[10.4551,42.7563],
[10.4551,42.9515],
[10.3748,42.9515],
[10.1343,42.8864]
]
]
]}
}
