{
"type": "Feature",
"properties": {"id":"cliopatria-minyue-334bce","edge_precision":"unknown","cliopatria_name":"Minyue","cliopatria_from_year":-333,"cliopatria_to_year":-219,"cliopatria_area_km2":376736,"cliopatria_wikidata":"Q1936158","cliopatria_wikipedia":"Minyue"},
"geometry": {"type": "MultiPolygon", "coordinates": [
[
[
[114.4462,23.622],
[114.9016,22.9148],
[114.7401,22.8506],
[114.7527,22.5291],
[114.9016,22.5291],
[115.1744,22.7863],
[115.3729,22.6577],
[115.6706,22.6577],
[115.6956,22.7863],
[116.54,22.9148],
[116.5914,23.172],
[116.815,23.172],
[116.7796,23.3649],
[116.8939,23.5577],
[117.1788,23.4934],
[117.47,23.8149],
[117.6938,23.8149],
[117.7213,23.9435],
[118.0757,24.2006],
[118.1474,24.5221],
[118.7597,24.5864],
[118.8191,24.8435],
[119.0737,24.9721],
[119.0295,25.1007],
[119.3442,25.165],
[119.3911,25.3579],
[119.2731,25.4864],
[119.4229,25.4864],
[119.466,25.3579],
[119.8721,25.4864],
[119.9044,25.615],
[119.5299,25.615],
[119.7784,26.0008],
[119.587,26.1294],
[119.846,26.258],
[119.8399,26.5151],
[120.1577,26.5794],
[120.1715,26.9009],
[120.3011,27.0938],
[120.545,27.158],
[120.7325,27.5438],
[120.6573,27.5438],
[120.7146,27.7367],
[120.8677,27.9938],
[121.0382,28.0581],
[121.118,28.3153],
[121.1934,28.3153],
[121.1533,28.1867],
[121.6459,28.3153],
[121.6521,28.5724],
[121.5218,28.6367],
[121.7143,28.7652],
[121.7443,29.0867],
[121.5931,29.0867],
[121.9384,29.2152],
[122.016,29.6652],
[121.8645,29.6652],
[122.0298,29.9223],
[121.6202,30.0508],
[121.4841,30.3079],
[121.1047,30.3079],
[120.8088,30.1151],
[120.7025,30.2436],
[120.7253,30.3079],
[120.5205,30.3722],
[119.7026,29.9865],
[118.3597,29.6009],
[116.7364,29.7294],
[116.27,29.9223],
[116.1289,30.1794],
[116.053,30.1794],
[115.8038,30.1151],
[115.6425,29.858],
[115.2591,28.8938],
[115.3347,28.8938],
[114.9532,26.7723],
[115.0283,26.7723],
[114.9611,26.5151],
[115.2281,26.3865],
[114.8556,25.4864],
[114.6604,25.2936],
[114.7203,25.2293],
[114.4724,24.4578],
[114.5471,24.4578],
[114.4462,23.622]
]
],
[
[
[121.9766,29.9865],
[122.2798,29.9865],
[122.2726,30.1794],
[122.045,30.1794],
[121.9766,29.9865]
]
]
]}
}
