{
"type": "Feature",
"properties": {"id":"cliopatria-kingdom-of-portugal-1236","edge_precision":"unknown","cliopatria_name":"Kingdom of Portugal","cliopatria_from_year":1236,"cliopatria_to_year":1240,"cliopatria_area_km2":69672,"cliopatria_wikidata":"Q45670","cliopatria_wikipedia":"Kingdom of Portugal","cliopatria_seshat_id":"pt_portugal_k"},
"geometry": {"type": "MultiPolygon", "coordinates": [
[
[
[-9.572,38.9326],
[-9.5531,38.7389],
[-9.3837,38.6097],
[-9.233,38.6743],
[-9.2085,38.416],
[-8.8227,38.4806],
[-8.8049,38.2869],
[-8.0161,38.2224],
[-7.9492,38.3515],
[-8.1173,38.4806],
[-8.1405,38.7389],
[-7.9836,38.7389],
[-7.9167,38.868],
[-7.367,38.868],
[-7.2773,38.7389],
[-7.1203,38.7389],
[-6.991,39.0618],
[-7.4184,39.4496],
[-7.4358,39.6436],
[-6.8955,39.7729],
[-6.8395,40.0317],
[-7.0032,40.0964],
[-7.0149,40.2259],
[-6.8684,40.3554],
[-6.9277,41.0032],
[-6.2542,41.4571],
[-6.2719,41.6518],
[-6.3516,41.6518],
[-6.7008,41.9764],
[-8.1172,41.7816],
[-8.2169,41.9764],
[-8.1371,41.9764],
[-8.1505,42.1063],
[-8.47,42.1063],
[-8.9281,41.9114],
[-8.727,40.744],
[-8.8723,40.6144],
[-8.8461,40.3554],
[-8.9252,40.3554],
[-9.025,39.7729],
[-9.1039,39.7729],
[-9.1572,39.5143],
[-9.387,39.4496],
[-9.4275,39.0618],
[-9.572,38.9326]
]
],
[
[
[1.4247,50.7121],
[1.4334,50.5789],
[1.686,50.5789],
[1.8461,50.7121],
[1.5804,50.9122],
[1.496,50.9122],
[1.509,50.7121],
[1.4247,50.7121]
]
]
]}
}
