{
"type": "Feature",
"properties": {"id":"ohm-r2889785","edge_precision":"unknown","ohm_relation":2889785,"ohm_version":22,"ohm_timestamp":"2026-08-26T19:04:09Z"},
"geometry": {"type": "MultiPolygon", "coordinates": [
[
[
[139.5071,10.0314],
[139.5147,10.0142],
[139.5423,10],
[139.8498,10],
[139.8512,10.0304],
[139.8378,10.0507],
[139.8031,10.0642],
[139.7784,10.119],
[139.7337,10.1426],
[139.6716,10.1386],
[139.5861,10.1014],
[139.5192,10.0628],
[139.5071,10.0314]
]
],
[
[
[144.564,13.4389],
[144.5739,13.4112],
[144.593,13.3924],
[144.578,13.3346],
[144.5847,13.3125],
[144.603,13.2952],
[144.6084,13.2706],
[144.5934,13.25],
[144.5899,13.2289],
[144.6064,13.1957],
[144.6382,13.1823],
[144.7369,13.1941],
[144.7632,13.2085],
[144.8027,13.2512],
[144.8202,13.2884],
[144.8266,13.3815],
[144.972,13.5],
[145.0092,13.5911],
[144.9956,13.6274],
[144.9756,13.6443],
[144.9405,13.6506],
[144.8891,13.6982],
[144.8453,13.7051],
[144.8164,13.6888],
[144.7896,13.6533],
[144.7774,13.5986],
[144.75,13.5519],
[144.7255,13.5317],
[144.693,13.529],
[144.6631,13.5152],
[144.6166,13.5131],
[144.5767,13.4811],
[144.564,13.4389]
]
],
[
[
[144.8356,20.5546],
[144.8364,20.5308],
[144.8477,20.5093],
[144.8871,20.4882],
[144.9245,20.4967],
[144.9492,20.5368],
[144.9496,20.5596],
[144.9397,20.5802],
[144.9034,20.6006],
[144.8577,20.5889],
[144.8356,20.5546]
]
],
[
[
[145.067,14.1282],
[145.0678,14.1092],
[145.0932,14.0736],
[145.1713,14.0605],
[145.2212,14.0683],
[145.3234,14.1334],
[145.3407,14.1911],
[145.3311,14.2179],
[145.3122,14.2354],
[145.2543,14.2507],
[145.2199,14.2459],
[145.1317,14.21],
[145.0799,14.158],
[145.067,14.1282]
]
],
[
[
[145.1569,20.0339],
[145.1591,20.0048],
[145.1883,19.9691],
[145.2339,19.9635],
[145.2735,19.9861],
[145.2883,20.0125],
[145.2868,20.038],
[145.2555,20.0766],
[145.2055,20.0822],
[145.1811,20.0709],
[145.1637,20.0512],
[145.1569,20.0339]
]
],
[
[
[145.3386,19.6984],
[145.3517,19.6535],
[145.3877,19.632],
[145.4348,19.64],
[145.4667,19.677],
[145.4691,19.7027],
[145.4595,19.7287],
[145.4416,19.746],
[145.4177,19.755],
[145.3864,19.7549],
[145.3641,19.7449],
[145.3508,19.7313],
[145.3386,19.6984]
]
],
[
[
[145.4901,14.8342],
[145.5049,14.8098],
[145.5264,14.7953],
[145.5821,14.8008],
[145.6204,14.8288],
[145.6312,14.8536],
[145.6292,14.8763],
[145.6737,14.8896],
[145.7034,14.9271],
[145.7235,15.0071],
[145.7104,15.055],
[145.7484,15.0448],
[145.776,15.0541],
[145.7893,15.068],
[145.8033,15.1074],
[145.8372,15.1402],
[145.8436,15.1679],
[145.8323,15.1964],
[145.871,15.2367],
[145.8828,15.2719],
[145.8694,15.3081],
[145.844,15.3335],
[145.8157,15.3406],
[145.7874,15.3345],
[145.7342,15.2903],
[145.6987,15.2903],
[145.6735,15.276],
[145.6608,15.2507],
[145.6608,15.1911],
[145.6454,15.155],
[145.6144,15.1442],
[145.5683,15.1007],
[145.5347,15.0438],
[145.5337,14.9874],
[145.5772,14.9367],
[145.5783,14.9167],
[145.5302,14.904],
[145.5041,14.8855],
[145.4918,14.8624],
[145.4901,14.8342]
]
],
[
[
[145.5835,18.7731],
[145.5915,18.7391],
[145.6202,18.6981],
[145.6493,18.6812],
[145.6785,18.6796],
[145.7166,18.6975],
[145.7364,18.7229],
[145.7435,18.7464],
[145.7492,18.7789],
[145.7426,18.8077],
[145.7183,18.8363],
[145.6823,18.8577],
[145.6456,18.8606],
[145.6209,18.8496],
[145.5879,18.7976],
[145.5835,18.7731]
]
],
[
[
[145.5872,16.3793],
[145.5918,16.322],
[145.6256,16.2893],
[145.6826,16.2844],
[145.7287,16.2931],
[145.7583,16.3148],
[145.773,16.3469],
[145.7659,16.3813],
[145.7396,16.4078],
[145.713,16.4172],
[145.6492,16.4204],
[145.6188,16.4134],
[145.5872,16.3793]
]
],
[
[
[145.6554,18.0567],
[145.6595,18.0246],
[145.6878,17.9998],
[145.7366,18.0009],
[145.7723,18.024],
[145.7943,18.0539],
[145.8335,18.0691],
[145.8495,18.1139],
[145.856,18.1569],
[145.8381,18.1989],
[145.8046,18.2156],
[145.7524,18.2121],
[145.713,18.1799],
[145.7064,18.1306],
[145.6809,18.114],
[145.6655,18.0919],
[145.6554,18.0567]
]
],
[
[
[145.7179,16.7177],
[145.7194,16.693],
[145.7355,16.6634],
[145.7684,16.6442],
[145.7966,16.6459],
[145.8178,16.6567],
[145.8318,16.6709],
[145.841,16.6968],
[145.831,16.7399],
[145.7916,16.7644],
[145.7661,16.7643],
[145.7432,16.7544],
[145.7179,16.7177]
]
],
[
[
[145.766,17.6047],
[145.7805,17.5575],
[145.8206,17.5318],
[145.8678,17.5435],
[145.8902,17.566],
[145.8997,17.5917],
[145.8986,17.6186],
[145.8862,17.6435],
[145.8667,17.661],
[145.8434,17.6688],
[145.7909,17.6569],
[145.7733,17.6347],
[145.766,17.6047]
]
],
[
[
[145.7826,17.3315],
[145.7872,17.2839],
[145.8268,17.2505],
[145.8462,17.2476],
[145.8738,17.2567],
[145.8977,17.2916],
[145.8957,17.3364],
[145.8793,17.3574],
[145.8564,17.3701],
[145.8128,17.366],
[145.7826,17.3315]
]
],
[
[
[146.0022,16.0172],
[146.0107,15.9771],
[146.034,15.9602],
[146.0534,15.9572],
[146.081,15.9665],
[146.0967,15.9825],
[146.116,16.018],
[146.1056,16.0571],
[146.0728,16.0764],
[146.0314,16.0666],
[146.0022,16.0172]
]
]
]}
}
