{
"type": "Feature",
"properties": {"id":"ohm-r2693255","edge_precision":"unknown","ohm_relation":2693255,"ohm_version":79,"ohm_timestamp":"2026-09-27T06:58:08Z"},
"geometry": {"type": "MultiPolygon", "coordinates": [
[
[
[20.2638,46.1181],
[20.283,46.1174],
[20.2646,46.1094],
[20.2734,46.0982],
[20.3022,46.0866],
[20.3093,46.072],
[20.346,46.0474],
[20.3406,46.0363],
[20.3578,46.0056],
[20.348,45.9997],
[20.4054,45.9652],
[20.4474,45.9702],
[20.4831,45.9535],
[20.5159,45.8922],
[20.5694,45.9102],
[20.5814,45.8694],
[20.6117,45.864],
[20.6604,45.8292],
[20.6507,45.8118],
[20.6628,45.7941],
[20.6814,45.7973],
[20.6929,45.7599],
[20.714,45.7489],
[20.7327,45.7559],
[20.7741,45.7545],
[20.7835,45.7859],
[20.8231,45.775],
[20.8175,45.7521],
[20.8026,45.7378],
[20.7961,45.6871],
[20.803,45.682],
[20.8049,45.6572],
[20.7657,45.6125],
[20.7719,45.5829],
[20.7953,45.5875],
[20.8325,45.5359],
[20.8072,45.5158],
[20.7688,45.5003],
[20.7771,45.4906],
[20.7711,45.4799],
[20.833,45.48],
[20.8663,45.465],
[20.8809,45.4462],
[20.8717,45.4458],
[20.8752,45.4385],
[20.8648,45.4319],
[20.9003,45.417],
[20.9203,45.4173],
[20.9355,45.393],
[20.9312,45.3868],
[20.9484,45.3856],
[20.9603,45.3668],
[21.01,45.3413],
[21.0165,45.3246],
[21.0636,45.3319],
[21.0612,45.3158],
[21.081,45.3178],
[21.0965,45.2957],
[21.1446,45.3048],
[21.162,45.3251],
[21.1665,45.3196],
[21.1762,45.3251],
[21.1837,45.3208],
[21.18,45.3126],
[21.1913,45.2868],
[21.2088,45.2753],
[21.2029,45.2655],
[21.219,45.2506],
[21.2755,45.2294],
[21.2927,45.2427],
[21.3393,45.2356],
[21.3599,45.2222],
[21.3953,45.2189],
[21.4031,45.2292],
[21.4388,45.2029],
[21.4839,45.1903],
[21.4931,45.1732],
[21.5148,45.1711],
[21.5264,45.1527],
[21.5273,45.1379],
[21.4783,45.1213],
[21.4697,45.1045],
[21.4834,45.0913],
[21.4476,45.0576],
[21.4561,45.0404],
[21.4258,45.0351],
[21.4123,45.0364],
[21.4038,45.0338],
[21.3853,45.0286],
[21.3812,45.0272],
[21.3603,45.0204],
[21.4146,44.9868],
[21.4067,44.9785],
[21.4382,44.9605],
[21.4692,44.9585],
[21.5197,44.938],
[21.5466,44.9306],
[21.5504,44.9167],
[21.5583,44.9014],
[21.5602,44.8891],
[21.4855,44.8684],
[21.4469,44.874],
[21.4434,44.8665],
[21.4178,44.8735],
[21.4054,44.8662],
[21.3712,44.8666],
[21.3579,44.8499],
[21.3621,44.84],
[21.3532,44.841],
[21.3642,44.8296],
[21.3583,44.8222],
[21.3791,44.814],
[21.3911,44.7837],
[21.4012,44.7773],
[21.5407,44.772],
[21.5869,44.7589],
[21.6151,44.7164],
[21.6119,44.6835],
[21.6367,44.6596],
[21.6887,44.6653],
[21.7271,44.6534],
[21.7904,44.6634],
[21.8142,44.6504],
[21.9169,44.6475],
[21.9522,44.6349],
[21.9933,44.6325],
[22.0045,44.6079],
[22.0258,44.5929],
[22.0254,44.5689],
[22.036,44.5489],
[22.07,44.5285],
[22.0756,44.5056],
[22.1389,44.4735],
[22.1689,44.4751],
[22.1864,44.4843],
[22.195,44.5095],
[22.2305,44.5613],
[22.2645,44.596],
[22.2747,44.6264],
[22.3003,44.6403],
[22.3034,44.6553],
[22.3283,44.6735],
[22.3791,44.6749],
[22.4284,44.7122],
[22.4642,44.717],
[22.4797,44.711],
[22.5713,44.6358],
[22.627,44.614],
[22.6757,44.6184],
[22.6858,44.6076],
[22.7095,44.6014],
[22.7619,44.5566],
[22.7601,44.5372],
[22.6962,44.5161],
[22.6267,44.5503],
[22.5867,44.5503],
[22.5644,44.5356],
[22.5498,44.4819],
[22.5208,44.4719],
[22.4692,44.4803],
[22.4571,44.4718],
[22.468,44.4408],
[22.5015,44.4174],
[22.5031,44.3825],
[22.5259,44.3372],
[22.5637,44.3057],
[22.6466,44.2935],
[22.6791,44.2798],
[22.6864,44.2585],
[22.6725,44.2271],
[22.6763,44.2155],
[22.6951,44.2053],
[22.7518,44.1981],
[22.809,44.1561],
[22.869,44.1343],
[22.9192,44.1023],
[23.0026,44.0955],
[23.0403,44.0798],
[23.0479,44.0606],
[23.0112,44.0136],
[22.895,43.9927],
[22.8797,43.9808],
[22.8373,43.8832],
[22.8439,43.8604],
[22.8668,43.8389],
[22.9811,43.8089],
[23.0755,43.7979],
[23.1317,43.8062],
[23.2707,43.8493],
[23.4176,43.8532],
[23.5114,43.8334],
[23.5567,43.8063],
[23.6121,43.7932],
[23.6985,43.8044],
[23.755,43.7999],
[23.7725,43.7824],
[23.8649,43.7556],
[23.9858,43.7414],
[24.0627,43.7189],
[24.0881,43.7024],
[24.1746,43.6831],
[24.3112,43.701],
[24.349,43.6977],
[24.4081,43.737],
[24.5125,43.7654],
[24.6254,43.7428],
[24.6988,43.6969],
[24.7291,43.6863],
[24.7512,43.6874],
[24.8052,43.7111],
[24.8761,43.7073],
[24.9625,43.7312],
[25.0076,43.7248],
[25.0539,43.6927],
[25.0925,43.6857],
[25.1722,43.6998],
[25.2494,43.6847],
[25.2867,43.6561],
[25.3515,43.6273],
[25.3901,43.6195],
[25.4482,43.6278],
[25.5097,43.6481],
[25.5644,43.6457],
[25.667,43.6903],
[25.7331,43.6928],
[25.7811,43.7109],
[25.8103,43.7455],
[25.8459,43.7563],
[25.8853,43.7843],
[25.8914,43.8006],
[25.9395,43.8516],
[26.0497,43.9069],
[26.1132,43.9745],
[26.1476,43.9853],
[26.1968,43.984],
[26.305,44.0279],
[26.3614,44.04],
[26.4567,44.035],
[26.5298,44.0547],
[26.5947,44.0511],
[26.6913,44.0755],
[26.763,44.0778],
[26.9097,44.1339],
[26.9899,44.1348],
[27.0418,44.1449],
[27.0764,44.1335],
[27.1408,44.1401],
[27.1825,44.1214],
[27.2154,44.1163],
[27.2728,44.1266],
[27.2844,44.1098],
[27.2765,44.101],
[27.291,44.0752],
[27.3562,44.0587],
[27.3994,44.0122],
[27.4689,44.0225],
[27.612,44.0122],
[27.6436,44.048],
[27.6736,44.0298],
[27.7101,43.9593],
[27.738,43.9535],
[27.8434,43.9663],
[27.9169,44.0083],
[27.9444,43.9848],
[27.9542,43.94],
[27.9765,43.9009],
[27.9943,43.8429],
[28.2363,43.7585],
[28.3486,43.7522],
[28.4463,43.7337],
[28.6288,43.7389],
[28.6321,43.7388],
[28.6322,43.7665],
[28.6535,43.7912],
[28.6444,43.8217],
[28.66,43.8427],
[28.66,43.8738],
[28.6848,43.9084],
[28.6917,43.9402],
[28.7207,43.9847],
[28.7012,44.0511],
[28.7389,44.0698],
[28.7606,44.1018],
[28.7515,44.133],
[28.7183,44.1717],
[28.7016,44.2256],
[28.6783,44.2463],
[28.6771,44.2843],
[28.7105,44.2843],
[28.7388,44.2994],
[28.7549,44.3545],
[28.9,44.489],
[29.0129,44.6348],
[29.1186,44.7196],
[29.175,44.7414],
[29.2577,44.76],
[29.4113,44.7754],
[29.4288,44.7524],
[29.4528,44.7401],
[29.4928,44.7336],
[29.5356,44.7392],
[29.5801,44.7587],
[29.6152,44.7859],
[29.6565,44.8322],
[29.6703,44.8682],
[29.7052,45.0872],
[29.7222,45.1178],
[29.7631,45.1517],
[29.76,45.1861],
[29.8001,45.2012],
[29.8128,45.2229],
[29.7918,45.2641],
[29.8166,45.3248],
[29.8089,45.4052],
[29.8282,45.4238],
[29.8353,45.4431],
[29.8364,45.4601],
[29.8243,45.4809],
[29.8024,45.4923],
[29.7954,45.5126],
[29.7688,45.5282],
[29.7266,45.5273],
[29.7097,45.5187],
[29.7472,45.5471],
[30.0976,45.7478],
[30.201,45.8039],
[30.2757,45.8482],
[30.3947,45.9597],
[30.5171,46.0521],
[30.5574,46.1032],
[30.603,46.1399],
[30.729,46.308],
[30.7547,46.3344],
[30.7971,46.3579],
[30.8248,46.4456],
[30.8158,46.4882],
[30.7914,46.5198],
[30.8571,46.5178],
[30.9431,46.5435],
[31.1725,46.5903],
[31.2299,46.574],
[31.3743,46.5685],
[31.4081,46.5577],
[31.4551,46.5726],
[31.4567,46.5765],
[31.4954,46.5919],
[31.5343,46.591],
[31.6609,46.5964],
[31.7992,46.5813],
[31.9274,46.5818],
[31.9297,46.6525],
[31.9386,46.7154],
[31.9002,46.7756],
[31.9029,46.8151],
[31.9936,46.8808],
[32.0071,46.905],
[32.0114,46.9203],
[32.0018,46.94],
[31.9414,46.9296],
[31.9098,46.9475],
[31.9702,46.9981],
[31.9688,47.0102],
[31.9582,47.0135],
[31.8837,46.9969],
[31.8644,47.0122],
[31.8558,47.0322],
[31.8662,47.0512],
[31.8984,47.0747],
[31.9,47.0934],
[31.8896,47.1044],
[31.8538,47.1118],
[31.8363,47.1244],
[31.8353,47.1371],
[31.8507,47.1602],
[31.8356,47.1808],
[31.758,47.2086],
[31.7458,47.2195],
[31.7461,47.2525],
[31.7769,47.2842],
[31.7621,47.2944],
[31.7442,47.2932],
[31.7226,47.3143],
[31.7198,47.3308],
[31.6642,47.3368],
[31.6341,47.3483],
[31.5921,47.3795],
[31.526,47.3914],
[31.515,47.4021],
[31.5218,47.4123],
[31.5115,47.4225],
[31.4765,47.4499],
[31.4388,47.4629],
[31.423,47.4838],
[31.4127,47.5237],
[31.3824,47.5334],
[31.3186,47.5376],
[31.2973,47.5585],
[31.1991,47.5858],
[31.1826,47.5983],
[31.1964,47.6275],
[31.2211,47.6312],
[31.2238,47.6622],
[31.2685,47.6746],
[31.2547,47.7098],
[31.2108,47.7024],
[31.1902,47.7204],
[31.1875,47.7431],
[31.1874,47.779],
[31.1696,47.8132],
[31.1181,47.8279],
[31.1092,47.886],
[31.0474,47.9301],
[31.0209,47.9864],
[30.9723,48.0117],
[30.9554,48.032],
[30.9415,48.0268],
[30.8742,48.0328],
[30.849,48.0496],
[30.8111,48.0079],
[30.7765,48.016],
[30.7514,48.0423],
[30.7164,48.0308],
[30.7088,48.0854],
[30.6285,48.1116],
[30.6045,48.1432],
[30.5804,48.1249],
[30.5969,48.1134],
[30.5901,48.0992],
[30.4946,48.1702],
[30.4095,48.1633],
[30.3834,48.1757],
[30.3257,48.1597],
[30.3236,48.1432],
[30.1856,48.1505],
[30.1067,48.1432],
[30.0524,48.1533],
[30.0071,48.1876],
[29.9597,48.2795],
[29.9336,48.2978],
[29.8883,48.2937],
[29.8746,48.3266],
[29.8176,48.3311],
[29.8052,48.3608],
[29.7891,48.3708],
[29.7434,48.3745],
[29.7372,48.4415],
[29.6706,48.4907],
[29.5553,48.5057],
[29.4736,48.4889],
[29.3954,48.5102],
[29.3053,48.6016],
[29.2992,48.6633],
[29.2126,48.7168],
[29.157,48.7118],
[29.0849,48.7422],
[29.0685,48.7698],
[29.1158,48.7815],
[29.0966,48.8168],
[29.1405,48.8109],
[29.1172,48.8462],
[29.0654,48.8787],
[28.9812,48.8256],
[28.8247,48.8475],
[28.8273,48.8743],
[28.8092,48.8728],
[28.8044,48.899],
[28.7947,48.9037],
[28.7268,48.8579],
[28.7083,48.8741],
[28.6661,48.871],
[28.6549,48.8885],
[28.6327,48.8951],
[28.6693,48.9303],
[28.6812,48.9588],
[28.6559,48.9781],
[28.6556,48.9926],
[28.6657,49.0016],
[28.6578,49.0083],
[28.6594,49.0187],
[28.6065,49.0169],
[28.5984,49.011],
[28.5763,49.0201],
[28.5746,49.0033],
[28.5653,48.9999],
[28.5203,49.0299],
[28.5078,49.0215],
[28.4745,49.0355],
[28.435,49.0374],
[28.4254,49.0306],
[28.4041,49.0376],
[28.3919,49.0315],
[28.3276,49.0486],
[28.3186,49.0677],
[28.3252,49.0898],
[28.3054,49.0987],
[28.296,49.1203],
[28.2584,49.1287],
[28.2522,49.1217],
[28.2592,49.1124],
[28.2525,49.11],
[28.2397,49.1155],
[28.2282,49.107],
[28.1959,49.1165],
[28.1532,49.1007],
[28.1305,49.1125],
[28.1102,49.1074],
[28.1132,49.0913],
[28.0869,49.0912],
[28.0816,49.0792],
[28.0323,49.0821],
[28.0215,49.0893],
[28.0096,49.0752],
[27.9897,49.079],
[27.9475,49.0637],
[27.9496,49.0582],
[27.9101,49.0549],
[27.8576,49.0622],
[27.8313,49.0799],
[27.7887,49.0716],
[27.7899,49.0838],
[27.7611,49.0754],
[27.7594,49.0639],
[27.7353,49.0601],
[27.712,49.07],
[27.6696,49.0651],
[27.6543,49.0797],
[27.6406,49.0797],
[27.5441,48.9726],
[27.6725,48.8706],
[27.7055,48.7874],
[27.6924,48.7191],
[27.6996,48.6653],
[27.6313,48.6095],
[27.6383,48.5219],
[27.6276,48.5129],
[27.6341,48.5065],
[27.6303,48.4888],
[27.6098,48.5007],
[27.6026,48.4891],
[27.5814,48.4911],
[27.5338,48.47],
[27.5111,48.4747],
[27.4787,48.5073],
[27.4833,48.5284],
[27.4754,48.5566],
[27.4406,48.6065],
[27.3611,48.6306],
[27.3374,48.6067],
[27.3175,48.601],
[27.2825,48.622],
[27.261,48.6239],
[27.2444,48.6119],
[27.26,48.5804],
[27.248,48.5675],
[27.1656,48.5826],
[27.1088,48.5571],
[27.0919,48.5568],
[26.997,48.5734],
[26.9862,48.5916],
[26.9776,48.591],
[26.9661,48.5775],
[26.9234,48.5765],
[26.9069,48.5524],
[26.8841,48.5432],
[26.8398,48.5588],
[26.8207,48.581],
[26.8259,48.6057],
[26.8053,48.6102],
[26.7799,48.6007],
[26.7977,48.5507],
[26.7613,48.5489],
[26.751,48.5775],
[26.7352,48.5866],
[26.7222,48.5816],
[26.7414,48.568],
[26.7414,48.5412],
[26.7174,48.5302],
[26.6635,48.5603],
[26.6233,48.5573],
[26.6285,48.5396],
[26.6697,48.5434],
[26.717,48.4989],
[26.6975,48.4861],
[26.6147,48.5066],
[26.6243,48.4647],
[26.6158,48.4508],
[26.5649,48.4563],
[26.4891,48.5443],
[26.4435,48.5387],
[26.3938,48.5363],
[26.3569,48.5077],
[26.3214,48.5169],
[26.3061,48.5081],
[26.2735,48.5396],
[26.1938,48.5248],
[26.1698,48.5289],
[26.1471,48.5443],
[26.1454,48.5977],
[26.12,48.6195],
[26.1059,48.6179],
[26.0956,48.5993],
[26.1045,48.5918],
[26.1032,48.5821],
[26.1221,48.5716],
[26.1289,48.555],
[26.12,48.5448],
[26.0936,48.5385],
[26.0615,48.5694],
[26.0437,48.5876],
[26.064,48.6035],
[26.0636,48.6122],
[26.0591,48.6192],
[26.0605,48.6293],
[26.0551,48.6461],
[26.0455,48.6491],
[26.0314,48.6432],
[26.0273,48.617],
[26.0224,48.6116],
[25.9727,48.6211],
[25.9338,48.5915],
[25.9059,48.587],
[25.8749,48.6001],
[25.8487,48.5974],
[25.8549,48.62],
[25.8057,48.6653],
[25.7828,48.6754],
[25.7589,48.6662],
[25.7382,48.633],
[25.7266,48.637],
[25.711,48.6631],
[25.6406,48.6696],
[25.5854,48.6352],
[25.5896,48.5965],
[25.5874,48.5898],
[25.6022,48.5705],
[25.6,48.5424],
[25.6093,48.531],
[25.5981,48.4729],
[25.607,48.4598],
[25.6026,48.4461],
[25.6111,48.4195],
[25.6014,48.4133],
[25.6194,48.4131],
[25.6111,48.3982],
[25.6195,48.3839],
[25.6104,48.3782],
[25.5596,48.3818],
[25.5036,48.3993],
[25.4605,48.3925],
[25.4147,48.3957],
[25.3967,48.3936],
[25.3679,48.3881],
[25.3016,48.3638],
[25.2988,48.3605],
[25.2455,48.312],
[25.1849,48.2507],
[25.1433,48.2461],
[25.1059,48.2245],
[25.1194,48.2176],
[25.1146,48.209],
[25.1408,48.1935],
[25.1302,48.1785],
[25.083,48.1795],
[25.093,48.1619],
[25.0651,48.1568],
[25.063,48.1505],
[25.0725,48.1461],
[25.0684,48.1333],
[25.0406,48.1289],
[25.0375,48.1124],
[24.9954,48.1202],
[24.9842,48.1145],
[24.9799,48.11],
[24.9946,48.0867],
[24.9109,48.0258],
[24.9202,48.0091],
[24.9086,47.9962],
[24.9143,47.9682],
[24.9233,47.9648],
[24.9156,47.9623],
[24.9288,47.953],
[24.9191,47.9455],
[24.9573,47.9201],
[24.9604,47.9033],
[24.945,47.8972],
[24.9574,47.8789],
[24.985,47.8679],
[24.9816,47.86],
[24.9983,47.8568],
[24.9825,47.8263],
[24.9608,47.8085],
[24.9465,47.7937],
[24.9226,47.7342],
[24.9223,47.7268],
[24.9331,47.7207],
[24.9449,47.718],
[24.9467,47.7171],
[24.9545,47.7059],
[24.9804,47.6958],
[24.9819,47.6939],
[25.0052,47.6787],
[25.0548,47.6557],
[25.055,47.6347],
[25.0739,47.61],
[25.0768,47.575],
[25.093,47.5714],
[25.0959,47.5722],
[25.128,47.5705],
[25.1428,47.5664],
[25.1583,47.5553],
[25.1575,47.5536],
[25.1856,47.5329],
[25.1655,47.5188],
[25.1582,47.4989],
[25.139,47.4807],
[25.1454,47.4653],
[25.1759,47.4427],
[25.1812,47.4391],
[25.1835,47.4181],
[25.1955,47.409],
[25.1807,47.3689],
[25.1651,47.3729],
[25.0979,47.3622],
[25.0767,47.3414],
[25.0775,47.3116],
[25.0467,47.3035],
[25.0325,47.284],
[25.0373,47.2837],
[25.0516,47.2702],
[25.1285,47.2307],
[25.1733,47.2333],
[25.1838,47.2119],
[25.1983,47.205],
[25.2977,47.1601],
[25.3588,47.1773],
[25.4224,47.1825],
[25.4334,47.1639],
[25.4466,47.1532],
[25.474,47.1539],
[25.5079,47.1311],
[25.5322,47.1307],
[25.5593,47.1106],
[25.5882,47.1085],
[25.5999,47.1148],
[25.6009,47.1323],
[25.6383,47.1145],
[25.6596,47.0923],
[25.7362,47.0739],
[25.741,47.0535],
[25.7688,47.0355],
[25.7684,47.0183],
[25.7897,46.9969],
[25.8017,46.9674],
[25.8186,46.9758],
[25.8387,46.9634],
[25.8545,46.9241],
[25.878,46.9218],
[25.8931,46.9021],
[25.9157,46.8945],
[25.9425,46.8669],
[25.9636,46.8736],
[25.9809,46.8409],
[25.9785,46.8238],
[26.0033,46.8035],
[26.0012,46.783],
[26.0347,46.7749],
[26.03,46.7687],
[26.0469,46.7563],
[26.0481,46.7414],
[26.0673,46.7219],
[26.1044,46.7142],
[26.1178,46.6848],
[26.1236,46.6854],
[26.1222,46.6755],
[26.1595,46.6415],
[26.1667,46.6046],
[26.1411,46.5914],
[26.1231,46.5541],
[26.0929,46.5527],
[26.0575,46.5291],
[26.0733,46.5253],
[26.0812,46.5112],
[26.0747,46.4854],
[26.1118,46.4691],
[26.1093,46.4424],
[26.1524,46.4349],
[26.1697,46.4492],
[26.2209,46.4582],
[26.2225,46.4409],
[26.2056,46.4247],
[26.2072,46.4175],
[26.237,46.392],
[26.2692,46.3977],
[26.2748,46.3873],
[26.2675,46.3772],
[26.2934,46.3706],
[26.2819,46.3582],
[26.2808,46.3387],
[26.293,46.3348],
[26.2724,46.2968],
[26.2747,46.2886],
[26.2532,46.2778],
[26.2634,46.2464],
[26.3236,46.2381],
[26.3408,46.2009],
[26.3918,46.202],
[26.4033,46.1926],
[26.421,46.1925],
[26.4045,46.1721],
[26.4102,46.1599],
[26.3982,46.1498],
[26.4346,46.1679],
[26.4503,46.1495],
[26.4945,46.1338],
[26.5004,46.1189],
[26.4952,46.0895],
[26.5038,46.0702],
[26.4925,46.0603],
[26.4931,46.0462],
[26.4839,46.0341],
[26.4903,46.0154],
[26.4683,46.0033],
[26.4685,45.9923],
[26.4567,45.9857],
[26.4654,45.9404],
[26.4565,45.9342],
[26.4427,45.8874],
[26.3809,45.8375],
[26.3239,45.7486],
[26.2992,45.7304],
[26.2244,45.74],
[26.1931,45.7148],
[26.1663,45.7263],
[26.0314,45.7496],
[25.8793,45.7515],
[25.8333,45.7643],
[25.7883,45.7639],
[25.7671,45.784],
[25.6737,45.8391],
[25.6551,45.8858],
[25.5552,45.9307],
[25.5487,45.9667],
[25.5755,46.0089],
[25.5535,46.057],
[25.4258,46.0956],
[25.3722,46.0985],
[25.3496,46.1175],
[25.3036,46.1332],
[25.2054,46.2122],
[25.0585,46.2446],
[25.0062,46.2635],
[25.0051,46.2784],
[24.9234,46.3194],
[24.7844,46.344],
[24.7734,46.3656],
[24.7274,46.3765],
[24.6927,46.396],
[24.6153,46.4015],
[24.6147,46.4165],
[24.575,46.4166],
[24.4861,46.4392],
[24.3471,46.5711],
[24.3347,46.7944],
[24.3594,46.8367],
[24.1576,46.8715],
[24.045,46.8686],
[24.0147,46.8339],
[23.909,46.7954],
[23.8348,46.7328],
[23.714,46.7464],
[23.5094,46.7003],
[22.8708,46.8386],
[22.7184,46.8142],
[22.5742,46.8423],
[22.4107,46.999],
[22.2089,47.035],
[22.0667,47.0065],
[22.0599,46.9723],
[21.9905,46.954],
[21.9328,46.9582],
[21.8312,46.9268],
[21.6994,46.7949],
[21.529,46.7323],
[21.5293,46.7207],
[21.5112,46.7118],
[21.4942,46.6867],
[21.473,46.6956],
[21.4512,46.6885],
[21.4301,46.6938],
[21.4381,46.6701],
[21.4557,46.667],
[21.4415,46.6515],
[21.4164,46.6425],
[21.41,46.6218],
[21.3656,46.6378],
[21.3534,46.6304],
[21.33,46.6316],
[21.3141,46.6176],
[21.3012,46.5908],
[21.3208,46.5829],
[21.3035,46.5643],
[21.2897,46.5443],
[21.2743,46.5407],
[21.2605,46.5019],
[21.2743,46.4764],
[21.2964,46.4762],
[21.3025,46.4685],
[21.3178,46.4507],
[21.2897,46.4151],
[21.2962,46.4066],
[21.2253,46.4136],
[21.2164,46.4018],
[21.2064,46.4032],
[21.1966,46.3708],
[21.1995,46.3477],
[21.1762,46.3356],
[21.1731,46.3184],
[21.1805,46.3041],
[21.1516,46.2976],
[21.1455,46.3047],
[21.1226,46.3009],
[21.1155,46.3017],
[21.1032,46.2623],
[21.0711,46.2539],
[21.066,46.2427],
[21.0367,46.2479],
[21.025,46.2665],
[21.0158,46.2632],
[20.9903,46.2595],
[20.9525,46.2648],
[20.9466,46.2792],
[20.9251,46.2763],
[20.9221,46.2619],
[20.8906,46.2714],
[20.8734,46.2874],
[20.8065,46.2763],
[20.7756,46.2759],
[20.7489,46.2507],
[20.7619,46.2045],
[20.7274,46.2074],
[20.7258,46.1965],
[20.7332,46.192],
[20.7251,46.188],
[20.7052,46.1613],
[20.6848,46.1451],
[20.653,46.1482],
[20.6479,46.1339],
[20.6355,46.1266],
[20.5506,46.1764],
[20.5016,46.1901],
[20.4919,46.1808],
[20.4952,46.1709],
[20.4591,46.1429],
[20.4263,46.1452],
[20.3975,46.1574],
[20.3685,46.1528],
[20.3556,46.1697],
[20.3126,46.1502],
[20.3092,46.1565],
[20.2969,46.1522],
[20.2643,46.1264],
[20.2638,46.1181]
]
]
]}
}
