{
"type": "Feature",
"properties": {"id":"ohm-r2697988","edge_precision":"unknown","ohm_relation":2697988,"ohm_version":13,"ohm_timestamp":"2026-09-09T02:50:18Z"},
"geometry": {"type": "MultiPolygon", "coordinates": [
[
[
[44.7639,39.703],
[44.7803,39.7009],
[44.7843,39.6858],
[44.8023,39.6833],
[44.7942,39.6704],
[44.8056,39.6731],
[44.7989,39.6579],
[44.8168,39.6557],
[44.8093,39.6274],
[44.8193,39.613],
[44.8552,39.6025],
[44.8755,39.6153],
[44.8811,39.6082],
[44.8739,39.5936],
[44.8911,39.5964],
[44.8954,39.6057],
[44.8996,39.5985],
[44.8883,39.5813],
[44.9155,39.5671],
[44.9068,39.5394],
[44.9186,39.5328],
[44.9096,39.5251],
[44.9365,39.512],
[44.952,39.4916],
[44.9384,39.4887],
[44.9509,39.4841],
[44.9369,39.4809],
[44.9486,39.4716],
[44.9398,39.4599],
[44.9476,39.4516],
[44.9769,39.4494],
[44.9607,39.4419],
[44.9642,39.4221],
[45,39.4114],
[45,39.7572],
[44.9508,39.7271],
[44.9066,39.7285],
[44.8875,39.7492],
[44.7639,39.7145],
[44.77,39.7119],
[44.7639,39.703]
]
]
]}
}
