{
"type": "Feature",
"properties": {"id":"ohm-r2957462","edge_precision":"unknown","ohm_relation":2957462,"ohm_version":4,"ohm_timestamp":"2026-09-11T03:10:15Z"},
"geometry": {"type": "MultiPolygon", "coordinates": [
[
[
[41.4408,41.4884],
[41.481,41.4625],
[41.4947,41.4257],
[41.5263,41.4108],
[41.5283,41.3753],
[41.494,41.3485],
[41.4809,41.318],
[41.4919,41.2437],
[41.4487,41.1812],
[41.4487,41.1425],
[41.47,41.1088],
[41.5146,41.1016],
[41.6039,41.0566],
[41.7652,41.1337],
[41.8339,41.0861],
[41.8497,41.0633],
[41.8469,41.0322],
[41.8181,41.0032],
[41.8888,40.9426],
[41.8795,40.9177],
[41.8493,40.8938],
[41.8363,40.8587],
[41.8675,40.8359],
[41.8754,40.8065],
[41.8679,40.7868],
[41.8545,40.785],
[41.8277,40.7379],
[41.8195,40.702],
[41.8222,40.6635],
[41.8861,40.6113],
[41.9163,40.4919],
[41.9595,40.4198],
[42.0076,40.4355],
[42.0351,40.4668],
[42.1374,40.4783],
[42.1827,40.4945],
[42.2309,40.4885],
[42.25,40.4618],
[42.2877,40.4908],
[42.3427,40.5649],
[42.3537,40.5983],
[42.4127,40.6629],
[42.4374,40.7285],
[42.4388,40.9301],
[42.5308,41.039],
[42.7052,41.1001],
[43.1461,41.19],
[43.1735,41.2097],
[43.1845,41.2427],
[43.2216,41.2644],
[43.2683,41.2613],
[43.3012,41.2344],
[43.3397,41.1838],
[43.396,41.1745],
[43.4741,41.123],
[43.5642,41.1448],
[43.5912,41.1395],
[43.5972,41.1289],
[43.6843,41.1338],
[43.7509,41.1091],
[43.8371,41.1602],
[43.9378,41.1763],
[43.9636,41.1649],
[43.9941,41.1804],
[44.0888,41.2025],
[44.092,41.1889],
[44.162,41.1891],
[44.1834,41.2338],
[44.1782,41.2483],
[44.2111,41.2332],
[44.2371,41.239],
[44.2721,41.2124],
[44.3148,41.214],
[44.3269,41.2039],
[44.3458,41.2026],
[44.345,41.2265],
[44.3558,41.2318],
[44.4673,41.1808],
[44.5104,41.1946],
[44.5343,41.2265],
[44.5472,41.2247],
[44.5361,41.2144],
[44.5431,41.2122],
[44.5405,41.2057],
[44.532,41.2022],
[44.5467,41.1969],
[44.5429,41.1911],
[44.5574,41.2038],
[44.58,41.2068],
[44.5785,41.2126],
[44.5932,41.2122],
[44.5834,41.1964],
[44.5946,41.1928],
[44.6109,41.2409],
[44.6471,41.2333],
[44.6878,41.2407],
[44.6823,41.2225],
[44.6961,41.2142],
[44.7269,41.2252],
[44.722,41.2153],
[44.7277,41.2032],
[44.7499,41.2202],
[44.7934,41.2208],
[44.794,41.23],
[44.8082,41.2151],
[44.8422,41.2164],
[44.8654,41.2049],
[44.9014,41.2117],
[44.8914,41.2218],
[44.8677,41.2179],
[44.854,41.2285],
[44.8138,41.2378],
[44.8023,41.2617],
[44.8061,41.2882],
[44.8181,41.3011],
[44.8481,41.2847],
[44.8499,41.2746],
[44.8711,41.2766],
[44.8872,41.268],
[44.8979,41.2748],
[44.9128,41.2572],
[44.9393,41.2556],
[44.96,41.2564],
[44.9774,41.281],
[45,41.2905],
[45,42.7257],
[44.9791,42.7455],
[44.8866,42.7469],
[44.8696,42.7258],
[44.8685,42.6914],
[44.8568,42.6769],
[44.8354,42.6731],
[44.823,42.6413],
[44.8295,42.6179],
[44.803,42.6149],
[44.7659,42.6443],
[44.7467,42.6892],
[44.7444,42.7059],
[44.7518,42.7139],
[44.7458,42.7212],
[44.68,42.7559],
[44.6502,42.7461],
[44.58,42.7451],
[44.5529,42.7665],
[44.5346,42.7534],
[44.5129,42.7539],
[44.5009,42.7345],
[44.521,42.7041],
[44.5173,42.6968],
[44.4171,42.7189],
[44.4109,42.7092],
[44.3932,42.7051],
[44.3816,42.7152],
[44.3498,42.7108],
[44.3128,42.7215],
[44.3005,42.7059],
[44.2495,42.6811],
[44.2309,42.6401],
[44.2324,42.6269],
[44.1939,42.6351],
[44.1632,42.6063],
[44.1498,42.6043],
[44.1162,42.618],
[44.09,42.6051],
[44.0221,42.5973],
[43.9636,42.547],
[43.945,42.5498],
[43.9436,42.5628],
[43.8755,42.58],
[43.8389,42.5984],
[43.8262,42.5931],
[43.7987,42.5991],
[43.77,42.5887],
[43.7522,42.6006],
[43.7543,42.6166],
[43.7148,42.632],
[43.7379,42.6495],
[43.7582,42.6538],
[43.7783,42.6774],
[43.8076,42.7206],
[43.8046,42.7431],
[43.7622,42.7656],
[43.706,42.778],
[43.6894,42.7871],
[43.6853,42.8018],
[43.6528,42.795],
[43.6438,42.7977],
[43.6374,42.8129],
[43.6073,42.8143],
[43.6105,42.8341],
[43.5602,42.8684],
[43.5076,42.8677],
[43.4778,42.8899],
[43.3985,42.8969],
[43.3348,42.8901],
[43.3175,42.9148],
[43.3004,42.9073],
[43.2907,42.918],
[43.1863,42.9376],
[43.1732,42.9628],
[43.1437,42.9693],
[43.1128,43.0003],
[43.0867,42.9997],
[43.035,43.0299],
[43.0387,43.0387],
[43.0258,43.048],
[43.0156,43.0711],
[43.0415,43.0904],
[42.9936,43.1167],
[42.9635,43.1251],
[42.9275,43.1241],
[42.9214,43.1357],
[42.9321,43.1484],
[42.898,43.1588],
[42.8811,43.1535],
[42.8775,43.1697],
[42.8603,43.1786],
[42.8116,43.1673],
[42.7766,43.1888],
[42.6816,43.1699],
[42.6716,43.1456],
[42.6753,43.1354],
[42.6665,43.136],
[42.6156,43.1646],
[42.5433,43.1766],
[42.51,43.1991],
[42.4572,43.2129],
[42.4442,43.2265],
[42.4521,43.2376],
[42.4421,43.2508],
[42.4138,43.257],
[42.3881,43.2438],
[42.3582,43.2468],
[42.3411,43.2204],
[42.3067,43.2233],
[42.2952,43.2109],
[42.2528,43.2123],
[42.2464,43.2281],
[42.2162,43.231],
[42.1806,43.215],
[42.1634,43.2224],
[42.1319,43.2103],
[42.0954,43.214],
[42.0807,43.2047],
[42.111,43.2035],
[42.109,43.198],
[42.1407,43.1887],
[42.1335,43.1875],
[42.1332,43.1743],
[42.1149,43.1689],
[42.1211,43.1487],
[42.1012,43.1214],
[42.0885,43.1178],
[42.0788,43.0939],
[42.0569,43.0839],
[42.0381,43.0547],
[42.0009,43.051],
[41.9394,43.0257],
[41.8982,43.0272],
[41.8665,42.9944],
[41.8678,42.9851],
[41.9097,42.9663],
[41.8942,42.9417],
[41.9121,42.9062],
[41.9469,42.8984],
[41.9356,42.8814],
[41.8938,42.8678],
[41.8768,42.8385],
[41.8917,42.8367],
[41.8955,42.8065],
[41.907,42.7958],
[41.9034,42.7849],
[41.9133,42.7767],
[41.9005,42.7621],
[41.925,42.7056],
[41.9394,42.6956],
[41.9364,42.6619],
[41.9498,42.6383],
[41.8966,42.6215],
[41.8619,42.5975],
[41.8301,42.5528],
[41.7262,42.5078],
[41.6979,42.5112],
[41.6671,42.4948],
[41.6482,42.4753],
[41.6545,42.4641],
[41.6518,42.4432],
[41.6611,42.4447],
[41.6594,42.437],
[41.6066,42.4343],
[41.5597,42.4114],
[41.4978,42.4102],
[41.5159,42.3706],
[41.5512,42.3484],
[41.5774,42.2898],
[41.5899,42.2408],
[41.5798,42.2079],
[41.6121,42.1222],
[41.7061,42.0007],
[41.7187,41.908],
[41.7277,41.8584],
[41.7225,41.8189],
[41.6755,41.7272],
[41.6472,41.6942],
[41.618,41.6922],
[41.5935,41.6804],
[41.5272,41.6212],
[41.5151,41.5642],
[41.4999,41.5381],
[41.4832,41.5091],
[41.4408,41.4884]
]
]
]}
}
