{
"type": "Feature",
"properties": {"id":"ohm-r2748545","edge_precision":"unknown","ohm_relation":2748545,"ohm_version":31,"ohm_timestamp":"2026-08-15T20:07:49Z"},
"geometry": {"type": "MultiPolygon", "coordinates": [
[
[
[5.7357,49.8969],
[5.7706,49.8873],
[5.7826,49.8757],
[5.7745,49.8673],
[5.7539,49.8719],
[5.7608,49.8565],
[5.7487,49.852],
[5.7583,49.8464],
[5.7487,49.8467],
[5.7503,49.8397],
[5.7393,49.8337],
[5.7483,49.8246],
[5.7434,49.821],
[5.7512,49.8149],
[5.7531,49.7934],
[5.7884,49.7967],
[5.7933,49.7906],
[5.8315,49.7452],
[5.8263,49.7235],
[5.8651,49.727],
[5.8869,49.7093],
[5.8667,49.6944],
[5.8618,49.6811],
[5.8901,49.6703],
[5.9107,49.6625],
[5.9017,49.6514],
[5.9068,49.6387],
[5.9032,49.6362],
[5.8869,49.635],
[5.8868,49.6273],
[5.8761,49.62],
[5.8765,49.6084],
[5.8478,49.5959],
[5.8501,49.5869],
[5.871,49.5884],
[5.8707,49.5762],
[5.8653,49.5717],
[5.8428,49.5609],
[5.842,49.5531],
[5.8186,49.5464],
[5.8181,49.5458],
[5.8122,49.5418],
[5.8172,49.537],
[5.8369,49.5427],
[5.8458,49.5299],
[5.8343,49.5237],
[5.8505,49.5082],
[5.8919,49.4968],
[5.9073,49.5001],
[5.9275,49.4984],
[5.9414,49.5006],
[5.9432,49.5002],
[5.9462,49.4976],
[5.9721,49.4914],
[5.974,49.4655],
[5.9873,49.4626],
[5.982,49.4511],
[6.0281,49.4557],
[6.0268,49.4486],
[6.0326,49.4495],
[6.0416,49.4479],
[6.0499,49.4597],
[6.0722,49.4656],
[6.1008,49.4529],
[6.0998,49.4675],
[6.1234,49.4735],
[6.128,49.4939],
[6.1281,49.4939],
[6.1418,49.4917],
[6.1408,49.4867],
[6.1618,49.4927],
[6.156,49.5037],
[6.1808,49.508],
[6.2362,49.5082],
[6.2407,49.5149],
[6.2799,49.5033],
[6.2795,49.4947],
[6.2864,49.4936],
[6.2888,49.4848],
[6.2995,49.488],
[6.2962,49.4802],
[6.313,49.4804],
[6.334,49.4669],
[6.3426,49.4691],
[6.3427,49.4691],
[6.3644,49.4595],
[6.3677,49.4694],
[6.3688,49.4692],
[6.3684,49.5035],
[6.3577,49.5306],
[6.381,49.5511],
[6.3827,49.5583],
[6.3587,49.5737],
[6.3823,49.5769],
[6.3769,49.5928],
[6.423,49.6224],
[6.4413,49.6562],
[6.4289,49.6663],
[6.4939,49.7074],
[6.5072,49.7135],
[6.496,49.7255],
[6.5177,49.7237],
[6.5024,49.7329],
[6.501,49.7524],
[6.5191,49.7626],
[6.5101,49.7741],
[6.5172,49.783],
[6.5062,49.7899],
[6.5312,49.806],
[6.5208,49.8135],
[6.5116,49.8025],
[6.4728,49.8224],
[6.4634,49.8194],
[6.4542,49.8116],
[6.4292,49.811],
[6.3981,49.822],
[6.3641,49.851],
[6.3412,49.8489],
[6.336,49.8387],
[6.3249,49.8371],
[6.3127,49.8688],
[6.2972,49.8664],
[6.2827,49.8787],
[6.262,49.8811],
[6.2337,49.9003],
[6.2272,49.9105],
[6.2341,49.9126],
[6.2317,49.9186],
[6.2182,49.9233],
[6.224,49.9277],
[6.2273,49.9366],
[6.2165,49.9445],
[6.2239,49.9501],
[6.2056,49.9552],
[6.1983,49.9484],
[6.1926,49.9688],
[6.1816,49.966],
[6.1878,49.9563],
[6.1788,49.9536],
[6.1652,49.9706],
[6.1727,49.9846],
[6.1381,49.9984],
[6.1499,50.009],
[6.1297,50.0185],
[6.1461,50.0226],
[6.1302,50.0296],
[6.1346,50.0401],
[6.1216,50.0527],
[6.1241,50.0598],
[6.1125,50.0597],
[6.1294,50.0734],
[6.1162,50.0746],
[6.1203,50.0918],
[6.1333,50.0935],
[6.1256,50.1009],
[6.1358,50.1035],
[6.128,50.1161],
[6.1378,50.1299],
[6.1377,50.1299],
[6.1123,50.136],
[6.1257,50.1501],
[6.1152,50.1551],
[6.1198,50.1634],
[6.1024,50.1705],
[6.0792,50.1708],
[6.0788,50.1565],
[6.0457,50.1577],
[6.0294,50.166],
[6.0247,50.1828],
[5.9711,50.175],
[5.9637,50.1726],
[5.9671,50.155],
[5.9581,50.1514],
[5.9613,50.1314],
[5.954,50.1302],
[5.9008,50.1161],
[5.8883,50.0934],
[5.8867,50.0787],
[5.8607,50.0692],
[5.8542,50.0589],
[5.8673,50.0503],
[5.8525,50.0229],
[5.819,50.0128],
[5.8227,49.9979],
[5.8401,49.9894],
[5.8358,49.9789],
[5.8123,49.9721],
[5.8101,49.9638],
[5.775,49.9608],
[5.7752,49.9377],
[5.7639,49.9315],
[5.764,49.9158],
[5.7357,49.8969]
]
]
]}
}
