{
"type": "Feature",
"properties": {"id":"ohm-r2692219","edge_precision":"unknown","ohm_relation":2692219,"ohm_version":68,"ohm_timestamp":"2026-09-27T06:58:08Z"},
"geometry": {"type": "MultiPolygon", "coordinates": [
[
[
[22.4225,44.7989],
[22.4306,44.7743],
[22.4266,44.7649],
[22.4451,44.7502],
[22.4639,44.7441],
[22.4719,44.7224],
[22.4666,44.7125],
[22.4799,44.7105],
[22.6022,44.6217],
[22.7018,44.608],
[22.7568,44.5617],
[22.7637,44.5474],
[22.7631,44.539],
[22.6948,44.5185],
[22.6351,44.5496],
[22.5884,44.5518],
[22.5633,44.5338],
[22.5574,44.4989],
[22.5391,44.4799],
[22.4574,44.4766],
[22.4661,44.4486],
[22.4994,44.4109],
[22.5088,44.3722],
[22.5293,44.3373],
[22.5584,44.3103],
[22.6119,44.2927],
[22.6614,44.2884],
[22.6806,44.2775],
[22.6847,44.2584],
[22.6723,44.2302],
[22.6751,44.2161],
[22.6951,44.2047],
[22.7578,44.1934],
[22.7887,44.1659],
[22.8639,44.1365],
[22.9242,44.1005],
[22.993,44.0983],
[23.0299,44.0865],
[23.043,44.0746],
[23.042,44.0532],
[23.0062,44.0115],
[22.944,44.0068],
[22.8958,43.9931],
[22.8798,43.9832],
[22.8364,43.8764],
[22.8694,43.8373],
[22.9001,43.8259],
[23.0649,43.7962],
[23.138,43.8051],
[23.2678,43.846],
[23.4139,43.8532],
[23.4955,43.8341],
[23.5296,43.8165],
[23.6073,43.7916],
[23.6738,43.8016],
[23.7181,43.8063],
[23.778,43.8003],
[23.8133,43.7728],
[23.8516,43.7586],
[23.9786,43.7426],
[24.0579,43.7194],
[24.0865,43.7035],
[24.1749,43.6813],
[24.2936,43.6981],
[24.3414,43.6957],
[24.3798,43.7107],
[24.4094,43.7177],
[24.4377,43.7366],
[24.4484,43.743],
[24.5125,43.7618],
[24.6114,43.7447],
[24.6533,43.7255],
[24.7111,43.6896],
[24.746,43.6839],
[24.8008,43.7079],
[24.8464,43.709],
[24.8987,43.7097],
[24.9658,43.722],
[25.0214,43.7105],
[25.1058,43.6837],
[25.1795,43.6981],
[25.2427,43.6857],
[25.3429,43.6295],
[25.3944,43.6184],
[25.492,43.6491],
[25.5609,43.648],
[25.6181,43.6697],
[25.6667,43.6896],
[25.7298,43.6899],
[25.78,43.7088],
[25.8064,43.7427],
[25.8637,43.7685],
[25.8881,43.7928],
[25.9535,43.8595],
[25.9968,43.8833],
[26.0526,43.9013],
[26.0728,43.9261],
[26.1072,43.9698],
[26.1442,43.9833],
[26.1971,43.9846],
[26.2637,44.0029],
[26.3183,44.0292],
[26.3447,44.0302],
[26.4261,44.0364],
[26.6493,44.0604],
[26.6874,44.0576],
[26.7554,44.0771],
[26.9169,44.1385],
[26.9918,44.1338],
[27.0664,44.1489],
[27.2302,44.1152],
[27.2531,44.1212],
[27.2702,44.1284],
[27.2728,44.1266],
[27.2844,44.1098],
[27.2765,44.101],
[27.291,44.0752],
[27.3562,44.0587],
[27.3994,44.0122],
[27.4689,44.0225],
[27.612,44.0122],
[27.6436,44.048],
[27.6736,44.0298],
[27.7101,43.9593],
[27.738,43.9535],
[27.8434,43.9663],
[27.9169,44.0083],
[27.9444,43.9848],
[27.9542,43.94],
[27.9765,43.9009],
[27.9943,43.8429],
[28.2363,43.7585],
[28.3486,43.7522],
[28.4463,43.7337],
[28.6288,43.7389],
[28.6321,43.7388],
[28.6322,43.7665],
[28.6535,43.7912],
[28.6444,43.8217],
[28.66,43.8427],
[28.66,43.8738],
[28.6848,43.9084],
[28.6917,43.9402],
[28.7207,43.9847],
[28.7012,44.0511],
[28.7389,44.0698],
[28.7606,44.1018],
[28.7515,44.133],
[28.7183,44.1717],
[28.7016,44.2256],
[28.6783,44.2463],
[28.6771,44.2843],
[28.7105,44.2843],
[28.7388,44.2994],
[28.7549,44.3545],
[28.9,44.489],
[29.0129,44.6348],
[29.1186,44.7196],
[29.175,44.7414],
[29.2577,44.76],
[29.4113,44.7754],
[29.4288,44.7524],
[29.4528,44.7401],
[29.4928,44.7336],
[29.5356,44.7392],
[29.5801,44.7587],
[29.6152,44.7859],
[29.6565,44.8322],
[29.6703,44.8682],
[29.7052,45.0872],
[29.7222,45.1178],
[29.7631,45.1517],
[29.76,45.1861],
[29.7563,45.1867],
[29.6913,45.192],
[29.6892,45.2034],
[29.6709,45.2206],
[29.6598,45.2484],
[29.664,45.2604],
[29.6785,45.2684],
[29.6576,45.3322],
[29.594,45.3885],
[29.5523,45.4072],
[29.5395,45.4353],
[29.5127,45.4516],
[29.4792,45.4549],
[29.4307,45.4426],
[29.3529,45.4362],
[29.3294,45.4479],
[29.2862,45.4261],
[29.246,45.434],
[29.1876,45.4126],
[29.1794,45.3997],
[29.1478,45.387],
[29.0819,45.3863],
[29.0422,45.3617],
[28.9887,45.3559],
[28.9482,45.3098],
[28.9557,45.2951],
[28.9444,45.2801],
[28.9255,45.2811],
[28.8726,45.3159],
[28.8441,45.3181],
[28.8228,45.3335],
[28.7868,45.3308],
[28.7803,45.3241],
[28.8057,45.306],
[28.7947,45.2927],
[28.76,45.2905],
[28.7511,45.283],
[28.7614,45.2644],
[28.7916,45.2555],
[28.794,45.2429],
[28.7366,45.2295],
[28.7074,45.2241],
[28.6549,45.2389],
[28.5602,45.2495],
[28.3552,45.3176],
[28.3391,45.3261],
[28.2858,45.3941],
[28.2855,45.4312],
[28.2749,45.4481],
[28.2144,45.4673],
[28.1866,45.4739],
[28.1636,45.5048],
[28.154,45.5099],
[28.166,45.5182],
[28.1567,45.5241],
[28.1658,45.5252],
[28.1656,45.5448],
[28.1555,45.554],
[28.1589,45.561],
[28.1481,45.5622],
[28.157,45.575],
[28.1456,45.5659],
[28.1398,45.5772],
[28.1216,45.5719],
[28.1022,45.5937],
[28.0884,45.6059],
[28.1009,45.6185],
[28.1139,45.6265],
[28.1443,45.6214],
[28.1739,45.6446],
[28.1578,45.6498],
[28.1656,45.6534],
[28.1706,45.6793],
[28.1599,45.7049],
[28.1697,45.7104],
[28.1606,45.7258],
[28.166,45.7367],
[28.1507,45.7523],
[28.1439,45.7614],
[28.1537,45.7827],
[28.1352,45.7788],
[28.114,45.7911],
[28.1213,45.8064],
[28.1084,45.8163],
[28.1119,45.8347],
[28.1056,45.8442],
[28.1134,45.85],
[28.1058,45.8594],
[28.1274,45.8639],
[28.1325,45.877],
[28.1281,45.8852],
[28.113,45.885],
[28.1204,45.9183],
[28.1257,45.9225],
[28.1143,45.9365],
[28.1137,45.9553],
[28.1021,45.9728],
[28.107,45.9787],
[28.0982,45.979],
[28.1052,45.9895],
[28.0853,46.0082],
[28.0953,46.015],
[28.0878,46.0207],
[28.0907,46.0361],
[28.103,46.0427],
[28.1042,46.0526],
[28.0895,46.0562],
[28.1002,46.0638],
[28.0892,46.07],
[28.0921,46.0791],
[28.1078,46.0779],
[28.1067,46.0833],
[28.111,46.087],
[28.1025,46.0988],
[28.123,46.105],
[28.1157,46.1096],
[28.1242,46.1115],
[28.1247,46.1258],
[28.1342,46.1306],
[28.1237,46.1502],
[28.1431,46.1644],
[28.1285,46.1784],
[28.1443,46.1789],
[28.1311,46.1834],
[28.1404,46.1831],
[28.1411,46.1924],
[28.1181,46.1924],
[28.1258,46.2085],
[28.117,46.2119],
[28.1126,46.2024],
[28.107,46.2219],
[28.1108,46.2444],
[28.1187,46.2388],
[28.1291,46.2477],
[28.1466,46.2518],
[28.1262,46.2621],
[28.1365,46.2693],
[28.141,46.2857],
[28.1523,46.2793],
[28.1511,46.2926],
[28.1694,46.2827],
[28.1732,46.2979],
[28.1803,46.2855],
[28.1872,46.2932],
[28.1784,46.3003],
[28.1953,46.3034],
[28.2091,46.3198],
[28.187,46.327],
[28.1914,46.3306],
[28.1851,46.3347],
[28.1968,46.3339],
[28.1996,46.3439],
[28.1865,46.3475],
[28.1839,46.3535],
[28.1963,46.3501],
[28.1925,46.3594],
[28.208,46.3594],
[28.1994,46.365],
[28.207,46.3693],
[28.1977,46.3711],
[28.221,46.3813],
[28.2168,46.3947],
[28.2349,46.3898],
[28.243,46.396],
[28.2246,46.4013],
[28.2384,46.4065],
[28.231,46.4156],
[28.2495,46.4154],
[28.2582,46.4256],
[28.2579,46.4455],
[28.2457,46.4474],
[28.2408,46.4529],
[28.258,46.4617],
[28.2458,46.4632],
[28.2525,46.4673],
[28.2434,46.4782],
[28.2244,46.4793],
[28.2303,46.4946],
[28.2203,46.503],
[28.2115,46.4988],
[28.2096,46.5055],
[28.223,46.5116],
[28.2146,46.5232],
[28.2257,46.5206],
[28.2306,46.53],
[28.2153,46.5362],
[28.2211,46.5425],
[28.2266,46.5535],
[28.2358,46.5517],
[28.2229,46.5795],
[28.2405,46.5808],
[28.2315,46.5857],
[28.2503,46.604],
[28.2447,46.607],
[28.2521,46.6123],
[28.2509,46.6232],
[28.2393,46.6293],
[28.2443,46.6367],
[28.2359,46.6805],
[28.2301,46.6823],
[28.2291,46.6739],
[28.2209,46.6902],
[28.2094,46.6856],
[28.215,46.6945],
[28.2033,46.7003],
[28.2097,46.7122],
[28.1874,46.7238],
[28.1959,46.7328],
[28.1805,46.7372],
[28.1845,46.7455],
[28.1734,46.7509],
[28.1852,46.7598],
[28.1778,46.7589],
[28.1777,46.7706],
[28.1676,46.7699],
[28.1726,46.7755],
[28.161,46.7762],
[28.1766,46.7779],
[28.1644,46.7916],
[28.1597,46.785],
[28.1487,46.7948],
[28.1527,46.798],
[28.1405,46.8022],
[28.1288,46.8066],
[28.1259,46.8227],
[28.1147,46.8219],
[28.116,46.8362],
[28.1078,46.843],
[28.1153,46.847],
[28.1261,46.8528],
[28.1178,46.8537],
[28.1234,46.8563],
[28.1075,46.8659],
[28.1115,46.8699],
[28.0983,46.8705],
[28.1184,46.8774],
[28.1134,46.8931],
[28.0862,46.895],
[28.0845,46.9049],
[28.1042,46.9103],
[28.1111,46.9232],
[28.081,46.9377],
[28.0884,46.9348],
[28.0876,46.9418],
[28.0967,46.9429],
[28.0975,46.9498],
[28.0896,46.9482],
[28.0932,46.9567],
[28.079,46.964],
[28.0961,46.9787],
[28.0325,47.011],
[28.0399,47.0188],
[28.0539,47.0141],
[28.0369,47.0292],
[28.0186,47.0229],
[27.987,47.0346],
[27.973,47.0444],
[27.9593,47.0414],
[27.9637,47.0495],
[27.9446,47.0499],
[27.9603,47.0558],
[27.9457,47.0601],
[27.9285,47.0637],
[27.9057,47.0769],
[27.8976,47.0734],
[27.8932,47.0871],
[27.8798,47.0918],
[27.8838,47.0989],
[27.8669,47.1027],
[27.8748,47.1079],
[27.8598,47.1035],
[27.8569,47.1126],
[27.8291,47.1183],
[27.8259,47.123],
[27.8383,47.13],
[27.8505,47.125],
[27.8426,47.1356],
[27.7813,47.1424],
[27.7996,47.142],
[27.7848,47.1509],
[27.8017,47.1519],
[27.8114,47.165],
[27.7963,47.1705],
[27.8037,47.1883],
[27.7869,47.19],
[27.7899,47.2079],
[27.7772,47.2042],
[27.7863,47.2183],
[27.7694,47.2216],
[27.7747,47.231],
[27.7562,47.23],
[27.7593,47.2399],
[27.7451,47.2429],
[27.7569,47.2488],
[27.7527,47.2549],
[27.7586,47.2579],
[27.7447,47.2646],
[27.7479,47.2769],
[27.7378,47.2756],
[27.7361,47.2882],
[27.705,47.3001],
[27.7057,47.2893],
[27.6905,47.2918],
[27.6863,47.2843],
[27.6797,47.2988],
[27.6762,47.3101],
[27.6735,47.2993],
[27.6634,47.3082],
[27.647,47.3073],
[27.6475,47.2998],
[27.634,47.303],
[27.6386,47.3115],
[27.6274,47.311],
[27.6216,47.3261],
[27.607,47.317],
[27.6085,47.3284],
[27.5999,47.3173],
[27.595,47.3274],
[27.5806,47.3284],
[27.6008,47.329],
[27.6165,47.3391],
[27.606,47.3393],
[27.6065,47.3492],
[27.5958,47.3472],
[27.5978,47.3711],
[27.5906,47.365],
[27.5737,47.3693],
[27.584,47.3763],
[27.5705,47.3731],
[27.569,47.3871],
[27.5852,47.4084],
[27.5752,47.412],
[27.5703,47.4247],
[27.5526,47.4327],
[27.561,47.4385],
[27.5572,47.4467],
[27.5697,47.4495],
[27.5737,47.459],
[27.5444,47.4757],
[27.5398,47.4881],
[27.5327,47.4853],
[27.5374,47.4786],
[27.5217,47.4824],
[27.5154,47.474],
[27.5165,47.4903],
[27.5071,47.4781],
[27.4921,47.4811],
[27.4934,47.4891],
[27.4734,47.487],
[27.455,47.5072],
[27.4565,47.5189],
[27.4677,47.5264],
[27.4524,47.5215],
[27.4444,47.5304],
[27.4572,47.5361],
[27.4432,47.5363],
[27.4303,47.5449],
[27.4389,47.5501],
[27.4241,47.5541],
[27.4327,47.5623],
[27.4202,47.5639],
[27.4172,47.5726],
[27.4268,47.5838],
[27.401,47.5847],
[27.3912,47.5899],
[27.3715,47.5984],
[27.3632,47.6128],
[27.3173,47.6411],
[27.3076,47.6608],
[27.2948,47.6631],
[27.2957,47.68],
[27.2726,47.6895],
[27.2817,47.7007],
[27.2712,47.6995],
[27.2667,47.7117],
[27.2502,47.7189],
[27.2633,47.7324],
[27.289,47.7224],
[27.2949,47.7281],
[27.2805,47.7346],
[27.2975,47.7476],
[27.2791,47.7502],
[27.2851,47.7574],
[27.2784,47.7641],
[27.2643,47.7604],
[27.2664,47.7797],
[27.2524,47.7787],
[27.2492,47.794],
[27.2312,47.7991],
[27.2403,47.8163],
[27.2216,47.8149],
[27.2174,47.8279],
[27.2332,47.825],
[27.248,47.8331],
[27.2292,47.8385],
[27.229,47.8449],
[27.2108,47.8381],
[27.195,47.8482],
[27.2172,47.8528],
[27.1971,47.8727],
[27.21,47.8954],
[27.1926,47.9105],
[27.1418,47.9171],
[27.179,47.9441],
[27.1784,47.9522],
[27.1492,47.9598],
[27.1452,47.9683],
[27.1662,47.9952],
[27.1255,47.9936],
[27.1209,48.0009],
[27.1272,48.0147],
[27.0925,48.0083],
[27.0926,48.0187],
[27.1083,48.0318],
[27.0851,48.0352],
[27.0804,48.0503],
[27.054,48.0652],
[27.0271,48.0884],
[27.0407,48.1034],
[27.0338,48.1151],
[27.0401,48.1293],
[27.0226,48.1263],
[27.0294,48.1362],
[27.0179,48.1376],
[27.0023,48.1219],
[26.9549,48.1362],
[26.9531,48.151],
[26.9818,48.1438],
[26.9917,48.1497],
[26.9851,48.1573],
[26.9349,48.1644],
[26.9329,48.1709],
[26.9499,48.1859],
[26.9394,48.1978],
[26.9138,48.1984],
[26.9209,48.1832],
[26.9061,48.18],
[26.8924,48.1914],
[26.909,48.2011],
[26.8862,48.2014],
[26.8604,48.2185],
[26.8518,48.2339],
[26.8379,48.2263],
[26.8297,48.228],
[26.8274,48.2437],
[26.8139,48.2453],
[26.8095,48.2541],
[26.7859,48.2496],
[26.7833,48.2431],
[26.7385,48.2445],
[26.7413,48.2547],
[26.7275,48.2578],
[26.7316,48.2497],
[26.7251,48.2454],
[26.7082,48.2531],
[26.7036,48.2647],
[26.6878,48.2534],
[26.667,48.2463],
[26.6619,48.2642],
[26.6458,48.2524],
[26.6302,48.2596],
[26.6303,48.2532],
[26.6266,48.2461],
[26.618,48.2511],
[26.6186,48.2386],
[26.5975,48.2377],
[26.588,48.2463],
[26.5761,48.2422],
[26.5687,48.2312],
[26.5722,48.2191],
[26.5498,48.225],
[26.5504,48.2161],
[26.529,48.2092],
[26.4718,48.2194],
[26.4578,48.2139],
[26.4578,48.2064],
[26.4359,48.2042],
[26.4367,48.1934],
[26.4215,48.2009],
[26.403,48.1889],
[26.3829,48.1871],
[26.3862,48.1949],
[26.375,48.1984],
[26.3601,48.185],
[26.3483,48.1911],
[26.3497,48.1835],
[26.3342,48.1841],
[26.3338,48.185],
[26.2926,48.188],
[26.2941,48.202],
[26.2693,48.2103],
[26.2552,48.2069],
[26.2472,48.2166],
[26.2181,48.2068],
[26.2176,48.2142],
[26.1822,48.2273],
[26.1848,48.2507],
[26.1575,48.2541],
[26.1535,48.2401],
[26.1288,48.2392],
[26.0864,48.2014],
[26.0691,48.1958],
[26.0695,48.1838],
[26.0422,48.1719],
[26.0567,48.1466],
[26.0513,48.1335],
[26.0835,48.1207],
[26.0723,48.0917],
[26.1001,48.0774],
[26.1105,48.0469],
[26.1123,48.0324],
[26.1211,48.0292],
[26.1161,48.0093],
[26.137,47.9829],
[26.1363,47.9661],
[26.1789,47.9273],
[26.2245,47.9012],
[26.1989,47.8843],
[26.1949,47.893],
[26.1829,47.8943],
[26.1907,47.9084],
[26.1833,47.9218],
[26.1665,47.9192],
[26.1613,47.9325],
[26.147,47.9268],
[26.1418,47.9387],
[26.1378,47.9291],
[26.1166,47.9513],
[26.0969,47.9551],
[26.0844,47.9161],
[26.1112,47.8999],
[26.1242,47.8815],
[26.1214,47.8736],
[26.1415,47.8604],
[26.1654,47.829],
[26.1835,47.8237],
[26.1982,47.8092],
[26.2314,47.8021],
[26.2513,47.7714],
[26.2516,47.754],
[26.2449,47.749],
[26.269,47.7065],
[26.2535,47.6981],
[26.2484,47.6731],
[26.253,47.6727],
[26.2615,47.6634],
[26.2546,47.6598],
[26.2686,47.658],
[26.2631,47.6524],
[26.2709,47.6477],
[26.2828,47.6561],
[26.3069,47.6471],
[26.2981,47.6448],
[26.3097,47.631],
[26.3242,47.6371],
[26.3186,47.6292],
[26.3308,47.6274],
[26.3196,47.6173],
[26.3324,47.6192],
[26.3255,47.6126],
[26.3436,47.6109],
[26.3484,47.6016],
[26.3759,47.6022],
[26.3799,47.6098],
[26.396,47.6036],
[26.3955,47.5972],
[26.4499,47.6009],
[26.4595,47.5935],
[26.4556,47.5873],
[26.4696,47.5844],
[26.4652,47.5761],
[26.4745,47.5684],
[26.4832,47.5714],
[26.4867,47.5635],
[26.4901,47.5598],
[26.4343,47.5503],
[26.4084,47.5583],
[26.3829,47.5356],
[26.3565,47.5385],
[26.3558,47.5527],
[26.3412,47.5566],
[26.3364,47.5331],
[26.2955,47.5505],
[26.2849,47.5036],
[26.2758,47.4962],
[26.2705,47.5083],
[26.2456,47.5213],
[26.2334,47.537],
[26.2352,47.548],
[26.179,47.5673],
[26.1809,47.5581],
[26.1464,47.5522],
[26.1521,47.5412],
[26.1191,47.5285],
[26.1107,47.516],
[26.1313,47.4892],
[26.1581,47.4742],
[26.1329,47.4585],
[26.1212,47.4629],
[26.1077,47.4616],
[26.0828,47.4792],
[26.056,47.4853],
[26.0162,47.4606],
[25.9464,47.4635],
[25.8979,47.4531],
[25.8659,47.4588],
[25.84,47.4368],
[25.8415,47.4147],
[25.859,47.4055],
[25.8542,47.3948],
[25.8682,47.3799],
[25.8272,47.3565],
[25.8327,47.3388],
[25.8246,47.3246],
[25.8103,47.3161],
[25.7719,47.3207],
[25.7289,47.3038],
[25.6887,47.3238],
[25.6731,47.3406],
[25.6727,47.3633],
[25.662,47.3844],
[25.622,47.387],
[25.6167,47.4031],
[25.6299,47.4182],
[25.6282,47.4291],
[25.6179,47.4344],
[25.5738,47.4534],
[25.542,47.4335],
[25.5405,47.4266],
[25.553,47.4178],
[25.5522,47.4035],
[25.5207,47.4082],
[25.5049,47.3937],
[25.4833,47.392],
[25.4748,47.376],
[25.4486,47.3685],
[25.4289,47.3536],
[25.431,47.3452],
[25.4006,47.3418],
[25.3674,47.2978],
[25.3575,47.2985],
[25.3536,47.2888],
[25.2678,47.2783],
[25.239,47.2392],
[25.213,47.2272],
[25.1983,47.205],
[25.2977,47.1601],
[25.3588,47.1773],
[25.4224,47.1825],
[25.4334,47.1639],
[25.4466,47.1532],
[25.474,47.1539],
[25.5079,47.1311],
[25.5322,47.1307],
[25.5593,47.1106],
[25.5882,47.1085],
[25.5999,47.1148],
[25.6009,47.1323],
[25.6383,47.1145],
[25.6596,47.0923],
[25.7362,47.0739],
[25.741,47.0535],
[25.7688,47.0355],
[25.7684,47.0183],
[25.7897,46.9969],
[25.8017,46.9674],
[25.8186,46.9758],
[25.8387,46.9634],
[25.8545,46.9241],
[25.878,46.9218],
[25.8931,46.9021],
[25.9157,46.8945],
[25.9425,46.8669],
[25.9636,46.8736],
[25.9809,46.8409],
[25.9785,46.8238],
[26.0033,46.8035],
[26.0012,46.783],
[26.0347,46.7749],
[26.03,46.7687],
[26.0469,46.7563],
[26.0481,46.7414],
[26.0673,46.7219],
[26.1044,46.7142],
[26.1178,46.6848],
[26.1236,46.6854],
[26.1222,46.6755],
[26.1595,46.6415],
[26.1667,46.6046],
[26.1411,46.5914],
[26.1231,46.5541],
[26.0929,46.5527],
[26.0575,46.5291],
[26.0733,46.5253],
[26.0812,46.5112],
[26.0747,46.4854],
[26.1118,46.4691],
[26.1093,46.4424],
[26.1524,46.4349],
[26.1697,46.4492],
[26.2209,46.4582],
[26.2225,46.4409],
[26.2056,46.4247],
[26.2072,46.4175],
[26.237,46.392],
[26.2692,46.3977],
[26.2748,46.3873],
[26.2675,46.3772],
[26.2934,46.3706],
[26.2819,46.3582],
[26.2808,46.3387],
[26.293,46.3348],
[26.2724,46.2968],
[26.2747,46.2886],
[26.2532,46.2778],
[26.2634,46.2464],
[26.3236,46.2381],
[26.3408,46.2009],
[26.3918,46.202],
[26.4033,46.1926],
[26.421,46.1925],
[26.4045,46.1721],
[26.4102,46.1599],
[26.3982,46.1498],
[26.4346,46.1679],
[26.4503,46.1495],
[26.4945,46.1338],
[26.5004,46.1189],
[26.4952,46.0895],
[26.5038,46.0702],
[26.4925,46.0603],
[26.4931,46.0462],
[26.4839,46.0341],
[26.4903,46.0154],
[26.4683,46.0033],
[26.4685,45.9923],
[26.4567,45.9857],
[26.4654,45.9404],
[26.4565,45.9342],
[26.4427,45.8874],
[26.3809,45.8375],
[26.4216,45.8285],
[26.4225,45.8202],
[26.4452,45.807],
[26.4507,45.7973],
[26.4242,45.7775],
[26.4247,45.7681],
[26.4183,45.7693],
[26.4216,45.7526],
[26.4067,45.737],
[26.4267,45.7278],
[26.4221,45.7173],
[26.4299,45.692],
[26.4231,45.6884],
[26.4241,45.6701],
[26.4042,45.6588],
[26.4096,45.6522],
[26.3783,45.6522],
[26.3495,45.6403],
[26.3538,45.6215],
[26.3355,45.5916],
[26.3109,45.603],
[26.3043,45.6069],
[26.2814,45.6219],
[26.2495,45.6101],
[26.238,45.6226],
[26.2192,45.6222],
[26.1857,45.6086],
[26.1719,45.5633],
[26.1548,45.5776],
[26.1559,45.5844],
[26.1477,45.585],
[26.0932,45.5162],
[26.0661,45.5039],
[26.0648,45.4852],
[26.0469,45.4783],
[26.0135,45.4903],
[25.9953,45.5144],
[25.9811,45.5117],
[25.9685,45.5078],
[25.9202,45.5214],
[25.89,45.485],
[25.8969,45.4772],
[25.8895,45.4477],
[25.867,45.4364],
[25.868,45.424],
[25.8232,45.4312],
[25.8265,45.44],
[25.8124,45.4662],
[25.7861,45.4815],
[25.7658,45.4653],
[25.7259,45.4654],
[25.7119,45.4755],
[25.6999,45.4903],
[25.6992,45.5036],
[25.675,45.5265],
[25.6439,45.5346],
[25.6484,45.5267],
[25.6381,45.5059],
[25.6251,45.4988],
[25.5964,45.5145],
[25.536,45.5094],
[25.5257,45.4986],
[25.5108,45.5017],
[25.5117,45.4704],
[25.4549,45.4477],
[25.4109,45.4283],
[25.4052,45.3882],
[25.3679,45.3915],
[25.3216,45.381],
[25.311,45.3874],
[25.3142,45.429],
[25.288,45.4392],
[25.273,45.4323],
[25.2744,45.443],
[25.2379,45.4754],
[25.2426,45.5],
[25.2367,45.5163],
[25.2123,45.5269],
[25.2046,45.5197],
[25.1891,45.5225],
[25.1041,45.5845],
[25.08,45.581],
[25.0343,45.5919],
[24.9893,45.5861],
[24.958,45.5935],
[24.9459,45.5801],
[24.9174,45.5942],
[24.8376,45.5912],
[24.83,45.606],
[24.8116,45.6107],
[24.7942,45.603],
[24.7706,45.6113],
[24.7373,45.6026],
[24.693,45.6051],
[24.6708,45.5935],
[24.6275,45.604],
[24.5966,45.596],
[24.5708,45.5773],
[24.556,45.5863],
[24.524,45.58],
[24.506,45.585],
[24.4826,45.5727],
[24.4465,45.591],
[24.4327,45.5811],
[24.3877,45.5842],
[24.3135,45.5677],
[24.2661,45.556],
[24.2552,45.5438],
[24.2266,45.5483],
[24.2059,45.5242],
[24.1639,45.5137],
[24.0809,45.5129],
[24.0206,45.5308],
[24.0014,45.5258],
[23.9803,45.5327],
[23.9871,45.4918],
[23.9783,45.4853],
[23.936,45.4978],
[23.9384,45.4783],
[23.9289,45.4572],
[23.8787,45.4594],
[23.8635,45.4725],
[23.8307,45.476],
[23.7844,45.4602],
[23.7777,45.4486],
[23.743,45.4307],
[23.6971,45.4249],
[23.6899,45.4696],
[23.7059,45.482],
[23.7037,45.4962],
[23.7121,45.5003],
[23.6909,45.5202],
[23.6694,45.5093],
[23.6542,45.5114],
[23.6489,45.5268],
[23.5926,45.5128],
[23.5732,45.5133],
[23.5954,45.4925],
[23.5982,45.4792],
[23.595,45.4517],
[23.572,45.4276],
[23.5941,45.421],
[23.589,45.4015],
[23.6016,45.3904],
[23.601,45.3773],
[23.587,45.3703],
[23.5861,45.3578],
[23.4923,45.3147],
[23.4576,45.3232],
[23.4294,45.3076],
[23.4221,45.3227],
[23.402,45.3369],
[23.362,45.3396],
[23.3338,45.3273],
[23.3326,45.3149],
[23.3123,45.3006],
[23.2913,45.3096],
[23.2486,45.3092],
[23.2335,45.3015],
[23.1758,45.2984],
[23.1443,45.2823],
[23.0964,45.2924],
[23.0872,45.284],
[22.9986,45.2816],
[22.9752,45.2709],
[22.9188,45.2799],
[22.8729,45.2648],
[22.8429,45.2742],
[22.8341,45.285],
[22.7776,45.2594],
[22.7743,45.2702],
[22.7643,45.2696],
[22.7342,45.2541],
[22.7006,45.2572],
[22.699,45.2508],
[22.6819,45.2497],
[22.6652,45.2351],
[22.6039,45.2151],
[22.5731,45.1745],
[22.5575,45.1566],
[22.5671,45.1441],
[22.6483,45.1267],
[22.6561,45.1049],
[22.6025,45.0543],
[22.5623,45.0336],
[22.5345,44.9998],
[22.5008,44.9794],
[22.4989,44.9704],
[22.5112,44.9647],
[22.4855,44.9346],
[22.4942,44.9207],
[22.4818,44.9056],
[22.4862,44.8814],
[22.4433,44.8314],
[22.4426,44.8164],
[22.4225,44.7989]
]
],
[
[
[30.1493,45.2649],
[30.1524,45.2429],
[30.1636,45.2293],
[30.2149,45.2172],
[30.2433,45.2276],
[30.2568,45.2412],
[30.2598,45.2695],
[30.2396,45.2893],
[30.2068,45.2964],
[30.1773,45.2914],
[30.1493,45.2649]
]
]
]}
}
