{
"type": "Feature",
"properties": {"id":"ohm-r2959467","edge_precision":"unknown","ohm_relation":2959467,"ohm_version":1,"ohm_timestamp":"2026-09-16T21:03:54Z"},
"geometry": {"type": "MultiPolygon", "coordinates": [
[
[
[-25,36.8943],
[-24.9735,36.9113],
[-24.9645,36.936],
[-24.9666,36.9644],
[-24.9754,36.9829],
[-25,37.0046],
[-25,36.8943]
]
],
[
[
[-9.6037,39.4804],
[-9.6017,39.4543],
[-9.5779,39.434],
[-9.581,39.4174],
[-9.5681,39.3928],
[-9.5152,39.3702],
[-9.4581,39.3871],
[-9.4437,39.4109],
[-9.4523,39.4371],
[-9.4921,39.4586],
[-9.4864,39.4705],
[-9.4914,39.4962],
[-9.5306,39.5172],
[-9.564,39.5129],
[-9.6037,39.4804]
]
],
[
[
[-9.548,38.7706],
[-9.5257,38.7362],
[-9.5353,38.7157],
[-9.5305,38.6912],
[-9.5118,38.6741],
[-9.4734,38.6581],
[-9.4307,38.6512],
[-9.3934,38.6578],
[-9.3289,38.6274],
[-9.3051,38.6185],
[-9.28,38.6197],
[-9.2382,38.5476],
[-9.2352,38.4873],
[-9.2642,38.4405],
[-9.2714,38.4118],
[-9.2489,38.3809],
[-9.1938,38.3708],
[-9.1487,38.3914],
[-9.0537,38.3976],
[-8.9798,38.4235],
[-8.9481,38.4454],
[-8.9301,38.4467],
[-8.8738,38.4052],
[-8.8602,38.3866],
[-8.8303,38.301],
[-8.8287,38.1935],
[-8.8663,38.0751],
[-8.9006,38.0091],
[-8.9337,37.9729],
[-8.9398,37.9473],
[-8.9367,37.9298],
[-8.9166,37.9087],
[-8.8462,37.8842],
[-8.8445,37.8189],
[-8.861,37.7506],
[-8.8572,37.729],
[-8.8438,37.7138],
[-8.8431,37.694],
[-8.8684,37.5962],
[-8.8435,37.5484],
[-8.8395,37.524],
[-8.8569,37.4248],
[-8.9267,37.3251],
[-8.9249,37.2938],
[-8.9127,37.2669],
[-8.9326,37.2343],
[-8.9489,37.2275],
[-8.9657,37.2066],
[-8.9584,37.1674],
[-8.977,37.1336],
[-9.0036,37.1096],
[-9.0088,37.0899],
[-9.0423,37.0399],
[-9.0462,37.0154],
[-9.0312,36.9938],
[-8.9963,36.9802],
[-8.9803,36.9626],
[-8.946,36.9541],
[-8.9001,36.971],
[-8.8647,37.0028],
[-8.8414,37.007],
[-8.8187,37.0242],
[-8.7773,37.0245],
[-8.7164,37.0451],
[-8.6526,37.0421],
[-8.6287,37.0561],
[-8.6188,37.0816],
[-8.5538,37.0771],
[-8.4387,37.046],
[-8.3665,37.0599],
[-8.329,37.0395],
[-8.2965,37.0327],
[-8.2424,37.0442],
[-8.1745,37.0457],
[-8.1077,37.0238],
[-7.9636,36.9385],
[-7.8776,36.9211],
[-7.8464,36.928],
[-7.7369,36.999],
[-7.5353,37.1128],
[-7.4569,37.137],
[-7.3954,37.1294],
[-7.3949,37.1662],
[-7.4031,37.1744],
[-7.4139,37.2266],
[-7.4335,37.2497],
[-7.4217,37.2738],
[-7.4422,37.3113],
[-7.4389,37.3794],
[-7.4512,37.4022],
[-7.4627,37.409],
[-7.4456,37.4187],
[-7.4583,37.431],
[-7.4567,37.4523],
[-7.4696,37.4717],
[-7.4657,37.49],
[-7.4842,37.4982],
[-7.4928,37.5227],
[-7.5113,37.5244],
[-7.5227,37.5531],
[-7.519,37.5596],
[-7.5068,37.5573],
[-7.5076,37.567],
[-7.5159,37.5694],
[-7.5036,37.5771],
[-7.5011,37.5785],
[-7.5011,37.5838],
[-7.4963,37.5944],
[-7.5039,37.6047],
[-7.4887,37.6042],
[-7.4824,37.6239],
[-7.4703,37.6252],
[-7.4673,37.6494],
[-7.4548,37.6463],
[-7.4557,37.6624],
[-7.4438,37.6644],
[-7.4526,37.6778],
[-7.444,37.6875],
[-7.4477,37.6978],
[-7.4391,37.7011],
[-7.4286,37.741],
[-7.4184,37.7447],
[-7.4211,37.7592],
[-7.4076,37.7672],
[-7.3966,37.7639],
[-7.3664,37.7928],
[-7.3251,37.8153],
[-7.3006,37.8429],
[-7.2866,37.8655],
[-7.2796,37.8764],
[-7.2822,37.8977],
[-7.2736,37.8991],
[-7.262,37.9243],
[-7.2549,37.9232],
[-7.2497,37.9669],
[-7.2624,37.9799],
[-7.2457,37.9922],
[-7.2267,37.9881],
[-7.2023,38.0034],
[-7.1735,37.9928],
[-7.1451,38.0029],
[-7.1329,38],
[-7.1207,38.0046],
[-7.1291,38.0107],
[-7.1279,38.03],
[-7.0932,38.0407],
[-7.0672,38.0336],
[-7.0632,38.0192],
[-7.0468,38.0143],
[-7.025,38.0247],
[-7.002,38.0224],
[-7.0021,38.0447],
[-6.9898,38.0556],
[-6.9895,38.0918],
[-6.9868,38.1039],
[-6.9707,38.1105],
[-6.9589,38.1504],
[-6.9522,38.1528],
[-6.9684,38.1593],
[-6.9691,38.1663],
[-6.9316,38.2082],
[-6.9385,38.2076],
[-6.9364,38.2205],
[-6.9464,38.2117],
[-6.9564,38.2171],
[-6.9719,38.2022],
[-6.9829,38.2112],
[-7.0112,38.2045],
[-7.0103,38.1959],
[-7.0286,38.1825],
[-7.0454,38.185],
[-7.0593,38.1777],
[-7.0564,38.1859],
[-7.0666,38.1865],
[-7.0662,38.179],
[-7.0851,38.1692],
[-7.0995,38.1807],
[-7.1399,38.2355],
[-7.143,38.2616],
[-7.1589,38.2795],
[-7.1695,38.2791],
[-7.2023,38.329],
[-7.2688,38.3916],
[-7.2797,38.4197],
[-7.3173,38.4403],
[-7.3356,38.436],
[-7.2973,38.4733],
[-7.3007,38.4827],
[-7.3207,38.4767],
[-7.3111,38.5161],
[-7.2866,38.5722],
[-7.2743,38.5765],
[-7.2626,38.5956],
[-7.2593,38.6064],
[-7.243,38.6246],
[-7.265,38.6275],
[-7.2718,38.6379],
[-7.2592,38.7233],
[-7.2071,38.7456],
[-7.1903,38.7685],
[-7.1587,38.7849],
[-7.1267,38.8146],
[-7.0913,38.8191],
[-7.0684,38.8542],
[-7.0392,38.8647],
[-7.0335,38.8788],
[-7.0519,38.9071],
[-7.0275,38.9229],
[-6.9511,39.0236],
[-6.9653,39.0425],
[-6.9594,39.0545],
[-6.9809,39.0878],
[-7.0304,39.1166],
[-7.0537,39.1177],
[-7.1053,39.0992],
[-7.144,39.1086],
[-7.1493,39.1216],
[-7.1323,39.1655],
[-7.1712,39.1805],
[-7.2079,39.1873],
[-7.2415,39.2083],
[-7.248,39.2534],
[-7.2315,39.2783],
[-7.3103,39.3409],
[-7.3063,39.3563],
[-7.3229,39.3819],
[-7.3026,39.4124],
[-7.3085,39.4303],
[-7.2943,39.4568],
[-7.3229,39.4747],
[-7.3438,39.4781],
[-7.3478,39.488],
[-7.3625,39.4814],
[-7.3819,39.4913],
[-7.3791,39.4964],
[-7.3903,39.5033],
[-7.3909,39.5299],
[-7.4303,39.5346],
[-7.466,39.5749],
[-7.4993,39.5896],
[-7.5101,39.6188],
[-7.5274,39.6349],
[-7.5276,39.6559],
[-7.5413,39.6637],
[-7.4555,39.6625],
[-7.4258,39.6513],
[-7.3248,39.6443],
[-7.2515,39.6668],
[-7.1924,39.6601],
[-7.1466,39.6532],
[-7.1228,39.6638],
[-7.065,39.6581],
[-7.0154,39.6706],
[-6.9995,39.7142],
[-6.9873,39.7276],
[-6.9939,39.7403],
[-6.9872,39.7632],
[-6.9768,39.7723],
[-6.9895,39.7947],
[-6.9872,39.81],
[-6.9709,39.825],
[-6.9487,39.8273],
[-6.9296,39.8541],
[-6.9163,39.8584],
[-6.9028,39.8727],
[-6.8995,39.9107],
[-6.9066,39.9238],
[-6.885,39.9407],
[-6.8881,39.964],
[-6.8796,39.9723],
[-6.8868,39.9793],
[-6.8739,39.9949],
[-6.8738,40.0075],
[-6.8664,40.0095],
[-6.877,40.0181],
[-6.8811,40.0421],
[-6.8972,40.0521],
[-6.8919,40.0606],
[-6.9168,40.0656],
[-6.92,40.0841],
[-6.9337,40.1036],
[-6.9429,40.104],
[-6.941,40.1126],
[-6.9867,40.1192],
[-6.9931,40.1124],
[-6.9932,40.1193],
[-7.0129,40.1261],
[-7.009,40.1301],
[-7.0212,40.144],
[-7.0143,40.1493],
[-7.022,40.1673],
[-7.0165,40.1765],
[-7.0299,40.1841],
[-7.0189,40.1973],
[-7.0123,40.2261],
[-6.9791,40.2407],
[-6.9633,40.2382],
[-6.9514,40.2576],
[-6.9073,40.2539],
[-6.8763,40.26],
[-6.8649,40.2703],
[-6.8614,40.2996],
[-6.7907,40.3338],
[-6.7939,40.3554],
[-6.781,40.3646],
[-6.8003,40.3788],
[-6.8345,40.4077],
[-6.845,40.4363],
[-6.8488,40.4541],
[-6.8199,40.4879],
[-6.8147,40.5016],
[-6.7953,40.5114],
[-6.8032,40.5299],
[-6.8051,40.5546],
[-6.8454,40.566],
[-6.8381,40.5942],
[-6.8131,40.6224],
[-6.794,40.6613],
[-6.8056,40.6685],
[-6.8108,40.7169],
[-6.8295,40.7402],
[-6.8285,40.7595],
[-6.8196,40.7944],
[-6.8259,40.8436],
[-6.802,40.8456],
[-6.8019,40.8604],
[-6.8071,40.8766],
[-6.8491,40.9028],
[-6.8476,40.9246],
[-6.8562,40.943],
[-6.8567,40.9441],
[-6.9088,40.9989],
[-6.9216,41.0025],
[-6.9312,41.0294],
[-6.9161,41.0384],
[-6.8531,41.0273],
[-6.8274,41.0307],
[-6.8086,41.0368],
[-6.809,41.0447],
[-6.775,41.0742],
[-6.7546,41.1023],
[-6.771,41.1246],
[-6.7688,41.1335],
[-6.7092,41.1727],
[-6.6968,41.1892],
[-6.6915,41.2096],
[-6.6529,41.2354],
[-6.648,41.2479],
[-6.6292,41.2427],
[-6.6083,41.2495],
[-6.5998,41.2435],
[-6.5916,41.2552],
[-6.5813,41.2395],
[-6.5713,41.2391],
[-6.5516,41.2456],
[-6.5471,41.258],
[-6.5219,41.2758],
[-6.5124,41.2649],
[-6.5011,41.2654],
[-6.4789,41.2751],
[-6.4915,41.2853],
[-6.4796,41.2942],
[-6.4372,41.3056],
[-6.4338,41.3202],
[-6.4181,41.3262],
[-6.4265,41.3333],
[-6.4153,41.348],
[-6.3868,41.3531],
[-6.3763,41.3616],
[-6.3935,41.3699],
[-6.3883,41.3856],
[-6.3666,41.3934],
[-6.3525,41.3785],
[-6.3182,41.3857],
[-6.3172,41.3971],
[-6.3333,41.4103],
[-6.3001,41.4287],
[-6.2949,41.4363],
[-6.3054,41.4497],
[-6.286,41.4665],
[-6.284,41.479],
[-6.2621,41.487],
[-6.2664,41.4977],
[-6.2508,41.5009],
[-6.2578,41.5141],
[-6.2398,41.5204],
[-6.2118,41.5592],
[-6.1892,41.5748],
[-6.2015,41.5946],
[-6.2358,41.6071],
[-6.2545,41.633],
[-6.3035,41.6621],
[-6.3547,41.6764],
[-6.44,41.6839],
[-6.4512,41.6815],
[-6.4574,41.6666],
[-6.4996,41.6571],
[-6.5538,41.6933],
[-6.5537,41.7017],
[-6.5425,41.7012],
[-6.555,41.721],
[-6.5488,41.7255],
[-6.569,41.7434],
[-6.5435,41.7785],
[-6.5471,41.795],
[-6.538,41.8131],
[-6.5274,41.8208],
[-6.5325,41.8347],
[-6.5155,41.8717],
[-6.5712,41.8835],
[-6.546,41.9309],
[-6.5494,41.9445],
[-6.5777,41.9613],
[-6.5883,41.9676],
[-6.5994,41.9483],
[-6.6214,41.9397],
[-6.7,41.9333],
[-6.7506,41.9436],
[-6.7687,41.9841],
[-6.8052,41.9909],
[-6.8113,41.9925],
[-6.81,41.9695],
[-6.8216,41.946],
[-6.8305,41.9435],
[-6.9415,41.9439],
[-6.9578,41.9689],
[-6.9858,41.971],
[-7.0065,41.9505],
[-7.0431,41.955],
[-7.0683,41.949],
[-7.0875,41.9735],
[-7.1152,41.984],
[-7.1414,41.9908],
[-7.1584,41.9763],
[-7.1775,41.9802],
[-7.1854,41.9723],
[-7.1822,41.9518],
[-7.1895,41.9416],
[-7.1734,41.9192],
[-7.1822,41.9119],
[-7.1967,41.88],
[-7.2317,41.8675],
[-7.2578,41.8659],
[-7.315,41.8428],
[-7.3564,41.8405],
[-7.3639,41.8528],
[-7.3904,41.8424],
[-7.3976,41.8264],
[-7.4282,41.8072],
[-7.4272,41.8331],
[-7.4437,41.8394],
[-7.4463,41.8569],
[-7.4525,41.8651],
[-7.4853,41.8613],
[-7.4913,41.8712],
[-7.5022,41.8694],
[-7.5133,41.8621],
[-7.5055,41.8508],
[-7.5213,41.8418],
[-7.5739,41.8297],
[-7.6139,41.8297],
[-7.6019,41.8665],
[-7.584,41.8771],
[-7.6184,41.8851],
[-7.6539,41.8812],
[-7.7041,41.9073],
[-7.7333,41.8923],
[-7.7635,41.899],
[-7.7784,41.8869],
[-7.8024,41.882],
[-7.8452,41.8813],
[-7.8415,41.8665],
[-7.8663,41.8589],
[-7.8728,41.8449],
[-7.8879,41.8556],
[-7.8847,41.9243],
[-7.9063,41.9271],
[-7.9212,41.8778],
[-7.9808,41.8722],
[-8.0141,41.829],
[-8.0387,41.83],
[-8.0577,41.8157],
[-8.0939,41.808],
[-8.1255,41.8085],
[-8.165,41.8181],
[-8.1618,41.861],
[-8.1716,41.879],
[-8.1877,41.8756],
[-8.1997,41.8739],
[-8.2014,41.888],
[-8.2141,41.9007],
[-8.2168,41.9136],
[-8.1979,41.9395],
[-8.1749,41.9549],
[-8.1629,41.9827],
[-8.1408,41.9887],
[-8.1279,42.0056],
[-8.0947,42.0112],
[-8.0828,42.0283],
[-8.0872,42.0536],
[-8.1037,42.0751],
[-8.1187,42.0823],
[-8.1496,42.0793],
[-8.1822,42.0651],
[-8.1932,42.1254],
[-8.188,42.1435],
[-8.1987,42.1543],
[-8.2228,42.1337],
[-8.245,42.1399],
[-8.2563,42.134],
[-8.259,42.1213],
[-8.2735,42.124],
[-8.2992,42.106],
[-8.3229,42.1014],
[-8.3319,42.0838],
[-8.37,42.0883],
[-8.3816,42.0763],
[-8.4051,42.0804],
[-8.4225,42.0726],
[-8.4538,42.082],
[-8.5246,42.0778],
[-8.5248,42.0629],
[-8.5553,42.053],
[-8.5947,42.0566],
[-8.63,42.0499],
[-8.6564,42.0318],
[-8.6576,42.0215],
[-8.6613,42.0043],
[-8.677,41.9921],
[-8.7438,41.9656],
[-8.7478,41.9417],
[-8.7716,41.9245],
[-8.8296,41.8987],
[-8.8688,41.8696],
[-8.8732,41.8634],
[-8.9313,41.8645],
[-8.9212,41.8097],
[-8.9296,41.7473],
[-8.8921,41.6626],
[-8.8759,41.6459],
[-8.8564,41.5975],
[-8.8391,41.4995],
[-8.8257,41.4687],
[-8.8384,41.4153],
[-8.8354,41.3888],
[-8.7904,41.3156],
[-8.7642,41.1947],
[-8.7193,41.1303],
[-8.7068,41.0833],
[-8.706,41.0434],
[-8.695,41.0217],
[-8.6973,40.9917],
[-8.7322,40.858],
[-8.8055,40.657],
[-8.8077,40.6012],
[-8.8711,40.4059],
[-8.9584,40.192],
[-8.9513,40.1622],
[-8.9212,40.1402],
[-8.915,40.127],
[-8.9267,40.0951],
[-9.0972,39.733],
[-9.1333,39.6288],
[-9.1331,39.592],
[-9.2471,39.4923],
[-9.2687,39.4577],
[-9.3086,39.4293],
[-9.3255,39.4193],
[-9.3501,39.4212],
[-9.4285,39.4014],
[-9.4577,39.3684],
[-9.4533,39.342],
[-9.4093,39.317],
[-9.3957,39.2962],
[-9.3858,39.2696],
[-9.3906,39.23],
[-9.4077,39.1831],
[-9.4701,39.083],
[-9.4663,39.0478],
[-9.4772,39.0046],
[-9.4668,38.9495],
[-9.5008,38.8684],
[-9.5472,38.7911],
[-9.548,38.7706]
]
]
]}
}
