{
"type": "Feature",
"properties": {"id":"ohm-r2801982","edge_precision":"unknown","ohm_relation":2801982,"ohm_version":5,"ohm_timestamp":"2026-04-05T02:27:15Z"},
"geometry": {"type": "MultiPolygon", "coordinates": [
[
[
[-24.6904,65.5011],
[-24.6857,65.483],
[-24.6686,65.4662],
[-24.6026,65.4417],
[-24.458,65.4275],
[-24.3204,65.441],
[-24.19,65.4388],
[-24.1262,65.4232],
[-24.0809,65.3863],
[-24.0401,65.3679],
[-23.878,65.3457],
[-23.7998,65.3463],
[-23.6617,65.3614],
[-23.5922,65.3813],
[-23.5309,65.412],
[-23.3927,65.4304],
[-23.2873,65.4223],
[-23.3063,65.3993],
[-23.3058,65.381],
[-23.2857,65.3582],
[-23.2564,65.3436],
[-23.1776,65.3285],
[-23.0805,65.3364],
[-23.002,65.3084],
[-23.038,65.2847],
[-23.0449,65.2537],
[-22.9906,65.2005],
[-22.9514,65.1794],
[-22.9753,65.1529],
[-22.9717,65.1283],
[-23.0409,65.1063],
[-23.0689,65.0764],
[-23.1125,65.0685],
[-23.1851,65.0756],
[-23.2582,65.0696],
[-23.3107,65.0524],
[-23.3823,65.0435],
[-23.4961,65.0095],
[-23.5732,65.0006],
[-23.6274,64.9769],
[-23.6999,64.9631],
[-23.7981,64.9862],
[-23.9006,64.9898],
[-23.9572,64.9837],
[-24.1536,64.9319],
[-24.1943,64.8996],
[-24.2028,64.8743],
[-24.1458,64.7988],
[-24.1085,64.7746],
[-24.0455,64.715],
[-23.9619,64.6885],
[-23.8278,64.6651],
[-23.7696,64.664],
[-23.6987,64.6772],
[-23.5874,64.6841],
[-23.5269,64.7013],
[-23.4854,64.7327],
[-23.3817,64.728],
[-23.2663,64.7599],
[-23.0485,64.7372],
[-22.8368,64.7321],
[-22.7066,64.7097],
[-22.5749,64.7109],
[-22.5637,64.7046],
[-22.5932,64.6795],
[-22.5928,64.6476],
[-22.5664,64.6245],
[-22.5089,64.5996],
[-22.5263,64.5772],
[-22.5184,64.5462],
[-22.533,64.5208],
[-22.5182,64.4902],
[-22.4704,64.4656],
[-22.3835,64.4513],
[-22.3221,64.4229],
[-22.1935,64.3984],
[-22.1762,64.3803],
[-22.2104,64.368],
[-22.2402,64.3463],
[-22.2487,64.3269],
[-22.2396,64.3019],
[-22.2091,64.2756],
[-22.1683,64.2564],
[-22.0528,64.2422],
[-22.0536,64.2338],
[-22.1109,64.2177],
[-22.1453,64.1972],
[-22.1829,64.1536],
[-22.1862,64.0979],
[-22.2063,64.0944],
[-22.2789,64.0943],
[-22.4383,64.0646],
[-22.468,64.0867],
[-22.5491,64.1245],
[-22.609,64.1424],
[-22.7486,64.1464],
[-22.8335,64.1214],
[-22.854,64.1045],
[-22.8709,64.0703],
[-22.8652,64.0319],
[-22.8984,63.9987],
[-22.8965,63.9578],
[-22.8647,63.9264],
[-22.8915,63.8883],
[-22.8911,63.869],
[-22.8806,63.8533],
[-22.8954,63.8204],
[-22.8738,63.7897],
[-22.8184,63.7585],
[-22.7539,63.7436],
[-22.6567,63.7425],
[-22.5892,63.7514],
[-22.5075,63.7468],
[-22.2999,63.7731],
[-22.2328,63.7631],
[-22.1101,63.7595],
[-21.9321,63.7686],
[-21.7971,63.7847],
[-21.7394,63.7685],
[-21.6144,63.7595],
[-21.3077,63.7894],
[-21.2407,63.8107],
[-21.1652,63.7843],
[-21.0398,63.7669],
[-20.8334,63.7096],
[-20.6097,63.625],
[-20.4598,63.5551],
[-20.5223,63.5595],
[-20.5789,63.5532],
[-20.627,63.5371],
[-20.661,63.5085],
[-20.6606,63.4753],
[-20.6342,63.4511],
[-20.5775,63.4309],
[-20.5169,63.4247],
[-20.5239,63.407],
[-20.5197,63.3887],
[-20.6948,63.36],
[-20.7255,63.346],
[-20.7598,63.3155],
[-20.7625,63.2885],
[-20.7424,63.2639],
[-20.7016,63.244],
[-20.6294,63.2268],
[-20.5428,63.2289],
[-20.468,63.2554],
[-20.345,63.2673],
[-20.295,63.2807],
[-20.2088,63.3406],
[-20.1664,63.355],
[-20.0568,63.4135],
[-20.0249,63.4456],
[-20.0157,63.4709],
[-19.7895,63.4608],
[-19.4042,63.3901],
[-19.182,63.3404],
[-19.0216,63.3331],
[-18.9423,63.3455],
[-18.8743,63.3429],
[-18.7666,63.3256],
[-18.6802,63.3264],
[-18.5707,63.337],
[-18.3467,63.375],
[-18.0889,63.4004],
[-17.9113,63.4489],
[-17.7907,63.5],
[-17.748,63.5345],
[-17.7115,63.5874],
[-17.6766,63.621],
[-17.6251,63.6499],
[-17.5685,63.6665],
[-17.2253,63.7184],
[-17.0001,63.7145],
[-16.7131,63.7236],
[-16.611,63.7323],
[-16.5497,63.7466],
[-16.5185,63.7603],
[-16.4916,63.7868],
[-16.4033,63.8413],
[-16.1957,63.9474],
[-15.8337,64.0948],
[-15.6843,64.1121],
[-15.623,64.1293],
[-15.5851,64.15],
[-15.41,64.1711],
[-15.0047,64.1759],
[-14.8736,64.1905],
[-14.826,64.2111],
[-14.7697,64.2516],
[-14.7479,64.284],
[-14.6525,64.2967],
[-14.6131,64.3154],
[-14.5955,64.334],
[-14.4893,64.3425],
[-14.4195,64.3648],
[-14.3584,64.422],
[-14.356,64.4552],
[-14.331,64.4776],
[-14.3217,64.504],
[-14.2863,64.5212],
[-14.2693,64.5383],
[-14.2024,64.526],
[-14.1442,64.5249],
[-14.0893,64.5334],
[-14.0253,64.5555],
[-14.0044,64.572],
[-13.9952,64.5968],
[-14.0084,64.6211],
[-14.0361,64.6387],
[-13.8919,64.6772],
[-13.8481,64.7062],
[-13.8332,64.7325],
[-13.7353,64.7558],
[-13.6901,64.7836],
[-13.6763,64.8039],
[-13.6265,64.8328],
[-13.5115,64.8599],
[-13.4812,64.881],
[-13.4721,64.9064],
[-13.3978,64.9327],
[-13.3806,64.9498],
[-13.3691,64.9836],
[-13.3728,65.002],
[-13.3945,65.023],
[-13.3699,65.0443],
[-13.3485,65.0775],
[-13.3522,65.0959],
[-13.3775,65.1227],
[-13.3664,65.1601],
[-13.3741,65.1844],
[-13.4146,65.2106],
[-13.4659,65.2236],
[-13.4257,65.2634],
[-13.4318,65.2937],
[-13.4723,65.3198],
[-13.5508,65.338],
[-13.51,65.3708],
[-13.4875,65.405],
[-13.491,65.4453],
[-13.4637,65.5129],
[-13.4846,65.5425],
[-13.5643,65.5902],
[-13.6307,65.6095],
[-13.7075,65.6195],
[-13.8142,65.6683],
[-13.9278,65.6786],
[-14.0029,65.6723],
[-14.0636,65.6828],
[-14.2056,65.7307],
[-14.1634,65.7674],
[-14.1598,65.7913],
[-14.1875,65.8196],
[-14.2509,65.8414],
[-14.3073,65.8499],
[-14.3901,65.8477],
[-14.5819,65.8213],
[-14.5707,65.8373],
[-14.5252,65.8578],
[-14.4782,65.9005],
[-14.4554,65.95],
[-14.4632,65.9985],
[-14.5248,66.0583],
[-14.5833,66.0943],
[-14.6857,66.1154],
[-14.7842,66.1193],
[-14.8391,66.1114],
[-14.8968,66.0917],
[-14.9145,66.0968],
[-14.9239,66.1134],
[-14.8312,66.1415],
[-14.7828,66.18],
[-14.7764,66.2196],
[-14.7988,66.2477],
[-14.7049,66.2751],
[-14.4862,66.313],
[-14.3987,66.3536],
[-14.384,66.3762],
[-14.3917,66.3994],
[-14.4219,66.4202],
[-14.4684,66.4343],
[-14.5576,66.4397],
[-14.7029,66.4235],
[-14.8141,66.4463],
[-14.928,66.4374],
[-15.0975,66.3942],
[-15.2308,66.3194],
[-15.3253,66.3198],
[-15.3933,66.3113],
[-15.4415,66.2969],
[-15.4757,66.2708],
[-15.5552,66.2887],
[-15.534,66.3095],
[-15.5266,66.3365],
[-15.5401,66.373],
[-15.5386,66.3923],
[-15.5506,66.4092],
[-15.6148,66.4435],
[-15.6996,66.4557],
[-15.749,66.4714],
[-15.7528,66.4966],
[-15.7649,66.5134],
[-15.8282,66.5495],
[-15.9801,66.5947],
[-16.2001,66.599],
[-16.255,66.5911],
[-16.326,66.5685],
[-16.4807,66.5756],
[-16.5498,66.5683],
[-16.6271,66.5536],
[-16.6879,66.5257],
[-16.7076,66.4951],
[-16.7087,66.473],
[-16.6708,66.427],
[-16.6773,66.4086],
[-16.67,66.3633],
[-16.636,66.3249],
[-16.6229,66.2957],
[-16.5736,66.2679],
[-16.6116,66.2387],
[-16.8389,66.1893],
[-16.8901,66.2336],
[-16.9691,66.2596],
[-17.133,66.2679],
[-17.2061,66.2622],
[-17.3014,66.2391],
[-17.3896,66.2044],
[-17.4173,66.1741],
[-17.4191,66.1485],
[-17.4653,66.1294],
[-17.5105,66.097],
[-17.5239,66.0437],
[-17.5823,66.0887],
[-17.6835,66.1357],
[-17.6942,66.1454],
[-17.6892,66.1769],
[-17.7088,66.1999],
[-17.7597,66.2208],
[-17.8251,66.2313],
[-17.8995,66.2313],
[-17.9602,66.2186],
[-18.2276,66.2359],
[-18.287,66.2324],
[-18.4243,66.1968],
[-18.454,66.1765],
[-18.4742,66.1436],
[-18.5491,66.1932],
[-18.6443,66.2318],
[-18.7795,66.2545],
[-18.8855,66.2573],
[-19.0271,66.239],
[-19.1278,66.212],
[-19.2024,66.1756],
[-19.2359,66.1434],
[-19.431,66.1264],
[-19.5549,66.091],
[-19.6442,66.0787],
[-19.6954,66.0503],
[-19.704,66.032],
[-19.6997,66.0152],
[-19.7931,66.0008],
[-19.8499,66.0468],
[-19.9253,66.1266],
[-19.9796,66.1578],
[-20.0261,66.1721],
[-20.2005,66.1871],
[-20.4874,66.143],
[-20.5227,66.1313],
[-20.5524,66.111],
[-20.561,66.0928],
[-20.5579,66.0639],
[-20.5841,66.0144],
[-20.5695,65.9914],
[-20.5426,65.9756],
[-20.526,65.9142],
[-20.4776,65.8696],
[-20.4754,65.8184],
[-20.423,65.7453],
[-20.4536,65.7112],
[-20.4608,65.6676],
[-20.4812,65.6636],
[-20.4877,65.6918],
[-20.518,65.7132],
[-20.6235,65.7447],
[-20.7127,65.7503],
[-20.7937,65.7366],
[-21.0481,65.6249],
[-21.0894,65.5912],
[-21.0967,65.5531],
[-21.1277,65.5132],
[-21.1552,65.5081],
[-21.1392,65.5563],
[-21.1443,65.5943],
[-21.1831,65.6333],
[-21.2545,65.6572],
[-21.2383,65.6767],
[-21.2384,65.6963],
[-21.2043,65.7223],
[-21.194,65.752],
[-21.2038,65.7718],
[-21.1647,65.8033],
[-21.1466,65.8288],
[-21.1282,65.8889],
[-21.1305,65.9292],
[-21.1752,65.976],
[-21.1732,65.9966],
[-21.1868,66.027],
[-21.2119,66.0492],
[-21.2986,66.0781],
[-21.3759,66.0925],
[-21.4175,66.124],
[-21.5088,66.1467],
[-21.5411,66.1706],
[-21.5976,66.1866],
[-21.6612,66.2231],
[-21.7901,66.2496],
[-21.7938,66.2641],
[-21.8197,66.2919],
[-21.8548,66.3115],
[-21.9731,66.3288],
[-22.0448,66.348],
[-22.0808,66.3784],
[-22.2416,66.4367],
[-22.2791,66.4853],
[-22.3453,66.5153],
[-22.4139,66.5269],
[-22.6106,66.528],
[-22.6861,66.5185],
[-22.7355,66.4993],
[-22.8411,66.5265],
[-22.9642,66.5328],
[-23.0184,66.5225],
[-23.0769,66.5001],
[-23.1609,66.4934],
[-23.2123,66.4809],
[-23.2646,66.4512],
[-23.2732,66.4333],
[-23.2701,66.419],
[-23.3173,66.4048],
[-23.3512,66.3791],
[-23.3554,66.3609],
[-23.3454,66.3361],
[-23.2984,66.3],
[-23.2135,66.2735],
[-23.1156,66.2566],
[-23.1318,66.2315],
[-23.1252,66.2116],
[-23.175,66.227],
[-23.2956,66.2465],
[-23.4571,66.2597],
[-23.5265,66.2511],
[-23.684,66.2051],
[-23.7741,66.155],
[-23.8014,66.1281],
[-23.9044,66.1021],
[-23.9636,66.062],
[-23.975,66.0281],
[-23.9702,66.0104],
[-23.9146,65.9669],
[-23.9718,65.9421],
[-24.0062,65.9094],
[-24.0148,65.8911],
[-24.0133,65.8658],
[-24.1426,65.861],
[-24.2175,65.8371],
[-24.252,65.8178],
[-24.2648,65.7998],
[-24.2701,65.7653],
[-24.2614,65.7376],
[-24.221,65.6956],
[-24.3506,65.7018],
[-24.4304,65.686],
[-24.458,65.6719],
[-24.4789,65.6422],
[-24.5115,65.623],
[-24.5252,65.5918],
[-24.6614,65.5357],
[-24.6819,65.5197],
[-24.6904,65.5011]
]
],
[
[
[-18.1809,66.5462],
[-18.1517,66.5082],
[-18.0949,66.4832],
[-18.0168,66.4675],
[-17.9441,66.4677],
[-17.88,66.4813],
[-17.8349,66.5109],
[-17.8272,66.5528],
[-17.8575,66.5816],
[-17.9001,66.6058],
[-17.9466,66.6198],
[-18.0588,66.6251],
[-18.113,66.6147],
[-18.1518,66.5975],
[-18.1684,66.5813],
[-18.1809,66.5462]
]
],
[
[
[-13.4294,64.5987],
[-13.4139,64.5677],
[-13.3405,64.5367],
[-13.2361,64.5326],
[-13.1523,64.5566],
[-13.1269,64.5791],
[-13.1218,64.5982],
[-13.1351,64.6226],
[-13.1815,64.6475],
[-13.2529,64.6605],
[-13.3153,64.6591],
[-13.3695,64.648],
[-13.4152,64.6238],
[-13.4294,64.5987]
]
]
]}
}
