{
"type": "Feature",
"properties": {"id":"ohm-r2694462","edge_precision":"unknown","ohm_relation":2694462,"ohm_version":5,"ohm_timestamp":"2026-08-06T15:35:24Z"},
"geometry": {"type": "MultiPolygon", "coordinates": [
[
[
[113.5282,22.183],
[113.5306,22.1754],
[113.532,22.1733],
[113.5493,22.14],
[113.5493,22.1399],
[113.5483,22.1156],
[113.571,22.0988],
[113.571,22.0767],
[113.6102,22.0767],
[113.6301,22.1089],
[113.6301,22.1656],
[113.6053,22.2041],
[113.5804,22.204],
[113.5802,22.204],
[113.5711,22.204],
[113.5623,22.2122],
[113.5509,22.2154],
[113.5476,22.2166],
[113.5331,22.2123],
[113.5334,22.2113],
[113.5334,22.2112],
[113.5347,22.2074],
[113.5355,22.2048],
[113.5342,22.1968],
[113.5282,22.183]
]
]
]}
}
