{
"type": "Feature",
"properties": {"id":"ohm-r2797729","edge_precision":"unknown","ohm_relation":2797729,"ohm_version":41,"ohm_timestamp":"2026-09-09T06:28:48Z"},
"geometry": {"type": "MultiPolygon", "coordinates": [
[
[
[2.5004,51.1407],
[2.5028,51.1379],
[2.5452,51.0894],
[2.5591,51.07],
[2.562,51.0584],
[2.5659,51.0461],
[2.5741,51.0032],
[2.6071,50.9912],
[2.6109,50.9736],
[2.6329,50.9462],
[2.5902,50.9188],
[2.608,50.9102],
[2.6043,50.8863],
[2.6129,50.8675],
[2.5991,50.8489],
[2.6167,50.848],
[2.6351,50.8129],
[2.6562,50.8136],
[2.6693,50.8227],
[2.6789,50.8134],
[2.7106,50.8135],
[2.7259,50.809],
[2.7213,50.8023],
[2.7384,50.7804],
[2.762,50.7711],
[2.7565,50.7627],
[2.7831,50.7515],
[2.7901,50.7258],
[2.8192,50.7155],
[2.848,50.723],
[2.8697,50.7033],
[2.8794,50.7028],
[2.8854,50.7065],
[2.9012,50.6929],
[2.9288,50.709],
[2.9312,50.7275],
[2.9447,50.7323],
[2.9377,50.744],
[2.9509,50.7518],
[2.973,50.7504],
[3.0148,50.7739],
[3.0339,50.7699],
[3.0553,50.7805],
[3.0881,50.7731],
[3.1127,50.7946],
[3.1328,50.7873],
[3.1534,50.7857],
[3.1873,50.7407],
[3.2,50.7346],
[3.1915,50.7247],
[3.2084,50.7187],
[3.2061,50.7114],
[3.2323,50.7129],
[3.2366,50.7122],
[3.2453,50.713],
[3.2606,50.7021],
[3.2615,50.692],
[3.2529,50.6897],
[3.2653,50.6771],
[3.2411,50.6688],
[3.2401,50.6587],
[3.2495,50.6474],
[3.2441,50.6407],
[3.2592,50.6297],
[3.2553,50.6227],
[3.2796,50.5959],
[3.2777,50.5643],
[3.2852,50.5617],
[3.276,50.5585],
[3.2864,50.5279],
[3.3206,50.5187],
[3.3292,50.5083],
[3.3618,50.504],
[3.377,50.491],
[3.4386,50.5108],
[3.4489,50.5066],
[3.4696,50.532],
[3.52,50.5236],
[3.4963,50.4988],
[3.5007,50.4867],
[3.5709,50.5005],
[3.5853,50.4906],
[3.6075,50.4972],
[3.6435,50.4633],
[3.662,50.4572],
[3.6584,50.4468],
[3.6698,50.4372],
[3.6729,50.3955],
[3.6687,50.3845],
[3.6654,50.3797],
[3.6649,50.3783],
[3.6571,50.3693],
[3.6672,50.3609],
[3.6647,50.3477],
[3.6939,50.3218],
[3.6839,50.3203],
[3.7021,50.3109],
[3.7099,50.3032],
[3.7201,50.305],
[3.709,50.3189],
[3.7286,50.3094],
[3.7274,50.3153],
[3.7338,50.3428],
[3.7461,50.3507],
[3.814,50.3532],
[3.8114,50.345],
[3.822,50.3458],
[3.8244,50.3534],
[3.8381,50.3543],
[3.8424,50.3534],
[3.8572,50.3422],
[3.8872,50.341],
[3.8857,50.327],
[3.9006,50.327],
[3.9682,50.35],
[3.9674,50.3406],
[3.9733,50.348],
[3.9855,50.3422],
[4.028,50.3584],
[4.0428,50.3401],
[4.0783,50.3208],
[4.0789,50.3096],
[4.0972,50.3135],
[4.1098,50.3019],
[4.117,50.3042],
[4.1253,50.2807],
[4.1241,50.273],
[4.1365,50.2746],
[4.1355,50.2574],
[4.1636,50.2574],
[4.1687,50.2666],
[4.1493,50.2768],
[4.1534,50.2849],
[4.1699,50.2881],
[4.1774,50.2751],
[4.2083,50.273],
[4.2213,50.2586],
[4.2123,50.2461],
[4.1817,50.2325],
[4.1729,50.2171],
[4.1504,50.2136],
[4.1605,50.2023],
[4.148,50.1743],
[4.1557,50.1721],
[4.1554,50.163],
[4.1271,50.1356],
[4.1545,50.1277],
[4.1571,50.1352],
[4.1988,50.1345],
[4.2041,50.1155],
[4.1974,50.1093],
[4.2253,50.0856],
[4.2306,50.0693],
[4.1943,50.0494],
[4.1609,50.0483],
[4.1358,50.0199],
[4.1424,50.0057],
[4.1631,49.995],
[4.142,49.979],
[4.1969,49.9677],
[4.1974,49.9546],
[4.3096,49.9696],
[4.351,49.9523],
[4.3814,49.9545],
[4.4328,49.9417],
[4.4457,49.9372],
[4.4812,49.9482],
[4.5114,49.9465],
[4.541,49.9695],
[4.5646,49.9704],
[4.5817,49.9836],
[4.693,49.9955],
[4.6862,50.0136],
[4.6971,50.0591],
[4.6862,50.0575],
[4.6795,50.0669],
[4.7021,50.0955],
[4.7517,50.1119],
[4.7481,50.1223],
[4.7562,50.1216],
[4.7622,50.1364],
[4.8066,50.1527],
[4.8232,50.1688],
[4.8326,50.1533],
[4.8758,50.154],
[4.88,50.1469],
[4.8971,50.138],
[4.867,50.1188],
[4.8724,50.0878],
[4.8497,50.1012],
[4.8377,50.0933],
[4.8469,50.0836],
[4.8406,50.083],
[4.8378,50.0672],
[4.8195,50.066],
[4.821,50.0597],
[4.8415,50.0428],
[4.8199,50.0259],
[4.8208,50.0102],
[4.8184,49.9939],
[4.7933,49.9818],
[4.7911,49.9581],
[4.847,49.949],
[4.8902,49.9089],
[4.8776,49.9045],
[4.8874,49.8986],
[4.8727,49.8882],
[4.8627,49.867],
[4.8474,49.868],
[4.8568,49.8414],
[4.8672,49.842],
[4.8692,49.834],
[4.8761,49.8174],
[4.8653,49.8133],
[4.8628,49.8031],
[4.8517,49.7935],
[4.8711,49.7893],
[4.9309,49.7869],
[4.9568,49.8019],
[4.9687,49.8016],
[4.9978,49.7999],
[5.0086,49.7821],
[5.0631,49.7623],
[5.0939,49.7638],
[5.125,49.7269],
[5.126,49.7124],
[5.1437,49.7091],
[5.1534,49.7188],
[5.1658,49.7118],
[5.1644,49.6934],
[5.2057,49.6964],
[5.2427,49.6854],
[5.2685,49.6966],
[5.2839,49.6858],
[5.3323,49.6542],
[5.305,49.6302],
[5.3135,49.6108],
[5.3404,49.6167],
[5.3471,49.6313],
[5.3981,49.6158],
[5.4251,49.5983],
[5.4376,49.5699],
[5.457,49.567],
[5.4414,49.5523],
[5.4653,49.5389],
[5.467,49.5259],
[5.4475,49.5179],
[5.4614,49.5104],
[5.4705,49.4974],
[5.4838,49.5074],
[5.541,49.5152],
[5.5566,49.5292],
[5.5913,49.5229],
[5.6111,49.506],
[5.6215,49.5197],
[5.6157,49.5272],
[5.6433,49.5506],
[5.6643,49.553],
[5.7006,49.5398],
[5.7567,49.5426],
[5.7583,49.5614],
[5.7745,49.5632],
[5.8186,49.5464],
[5.842,49.5531],
[5.8428,49.5609],
[5.8653,49.5717],
[5.8707,49.5762],
[5.871,49.5884],
[5.8501,49.5869],
[5.8478,49.5959],
[5.8765,49.6084],
[5.8761,49.62],
[5.8868,49.6273],
[5.8869,49.635],
[5.9032,49.6362],
[5.9068,49.6387],
[5.9017,49.6514],
[5.9107,49.6625],
[5.8901,49.6703],
[5.8618,49.6811],
[5.8667,49.6944],
[5.8869,49.7093],
[5.8651,49.727],
[5.8263,49.7235],
[5.8315,49.7452],
[5.7933,49.7906],
[5.7884,49.7967],
[5.7531,49.7934],
[5.7512,49.8149],
[5.7434,49.821],
[5.7483,49.8246],
[5.7393,49.8337],
[5.7503,49.8397],
[5.7487,49.8467],
[5.7583,49.8464],
[5.7487,49.852],
[5.7608,49.8565],
[5.7539,49.8719],
[5.7745,49.8673],
[5.7826,49.8757],
[5.7706,49.8873],
[5.7357,49.8969],
[5.764,49.9158],
[5.7639,49.9315],
[5.7752,49.9377],
[5.775,49.9608],
[5.8101,49.9638],
[5.8123,49.9721],
[5.8358,49.9789],
[5.8401,49.9894],
[5.8227,49.9979],
[5.819,50.0128],
[5.8525,50.0229],
[5.8673,50.0503],
[5.8542,50.0589],
[5.8607,50.0692],
[5.8867,50.0787],
[5.8883,50.0934],
[5.9008,50.1161],
[5.954,50.1302],
[5.9613,50.1314],
[5.9581,50.1514],
[5.9671,50.155],
[5.9637,50.1726],
[5.9711,50.175],
[6.0247,50.1828],
[6.0206,50.1934],
[6.0342,50.2059],
[6.0124,50.206],
[6.0087,50.2384],
[6.0168,50.2527],
[6.0116,50.2703],
[6.0174,50.3001],
[6.0102,50.3138],
[5.9832,50.3204],
[5.9802,50.3298],
[5.999,50.3302],
[5.9979,50.3372],
[6.0228,50.3443],
[6.0308,50.3687],
[6.0028,50.3803],
[6.0004,50.3881],
[5.9757,50.3914],
[5.9907,50.4134],
[5.9709,50.4429],
[6.0088,50.4445],
[6.0236,50.4564],
[6.015,50.4632],
[6.0153,50.4822],
[6.0054,50.4964],
[6.0632,50.519],
[6.124,50.5281],
[6.1396,50.5448],
[6.1192,50.5701],
[6.1169,50.5843],
[6.0998,50.5972],
[6.0586,50.5977],
[6.0425,50.6151],
[6.017,50.6127],
[6.0045,50.6226],
[6.0093,50.6331],
[6.0012,50.6394],
[6.0078,50.645],
[5.9547,50.6844],
[5.9964,50.708],
[6.0201,50.7182],
[6.0213,50.7535],
[6.021,50.7543],
[5.9832,50.7528],
[5.9607,50.7625],
[5.939,50.7579],
[5.8967,50.7533],
[5.8921,50.7552],
[5.8865,50.7702],
[5.8489,50.7534],
[5.845,50.7654],
[5.8074,50.7561],
[5.7932,50.7702],
[5.7845,50.7672],
[5.7736,50.7832],
[5.7449,50.7688],
[5.7392,50.7571],
[5.7203,50.7647],
[5.699,50.7553],
[5.6821,50.7575],
[5.6983,50.7775],
[5.6939,50.8115],
[5.654,50.8201],
[5.6389,50.8477],
[5.6417,50.8642],
[5.6495,50.8683],
[5.6442,50.8714],
[5.6793,50.8805],
[5.6974,50.9095],
[5.7228,50.9092],
[5.7281,50.9256],
[5.7588,50.9517],
[5.7505,50.9608],
[5.7312,50.9549],
[5.7198,50.9615],
[5.7665,50.9981],
[5.7749,51.026],
[5.7584,51.035],
[5.7736,51.0624],
[5.8004,51.0612],
[5.7966,51.0718],
[5.8049,51.0797],
[5.796,51.0915],
[5.8333,51.0991],
[5.829,51.107],
[5.8109,51.1089],
[5.8099,51.1185],
[5.8558,51.1446],
[5.8243,51.1678],
[5.815,51.1588],
[5.8049,51.1629],
[5.7777,51.1513],
[5.7794,51.1633],
[5.7696,51.1691],
[5.7797,51.1718],
[5.773,51.1734],
[5.7767,51.1785],
[5.7491,51.1887],
[5.7093,51.1804],
[5.658,51.1847],
[5.6527,51.1977],
[5.5661,51.2209],
[5.5549,51.2445],
[5.5564,51.2664],
[5.5158,51.2952],
[5.483,51.3002],
[5.4174,51.2623],
[5.3461,51.2758],
[5.3365,51.2631],
[5.2631,51.2668],
[5.2379,51.2614],
[5.226,51.2683],
[5.2422,51.3052],
[5.2002,51.3227],
[5.1626,51.3103],
[5.1343,51.3155],
[5.1317,51.347],
[5.0712,51.3935],
[5.1046,51.4313],
[5.0793,51.4713],
[5.0458,51.4711],
[5.0402,51.4865],
[5.033,51.4866],
[5.0108,51.4722],
[5.0047,51.444],
[4.9278,51.3954],
[4.9139,51.3951],
[4.9247,51.3969],
[4.9032,51.4136],
[4.8861,51.4166],
[4.8674,51.4091],
[4.8393,51.4146],
[4.7874,51.4093],
[4.7712,51.4149],
[4.7666,51.4305],
[4.8122,51.4261],
[4.8365,51.4173],
[4.8415,51.4224],
[4.8282,51.4222],
[4.8234,51.4486],
[4.844,51.459],
[4.8361,51.4612],
[4.8419,51.4807],
[4.8211,51.4831],
[4.8157,51.4946],
[4.7787,51.5045],
[4.7527,51.4998],
[4.7169,51.4689],
[4.7033,51.467],
[4.6931,51.4517],
[4.6666,51.4444],
[4.6697,51.4264],
[4.6413,51.422],
[4.5747,51.4329],
[4.5354,51.423],
[4.5299,51.4495],
[4.5482,51.4733],
[4.5437,51.4774],
[4.4753,51.4778],
[4.3793,51.4468],
[4.3966,51.442],
[4.3952,51.4269],
[4.3836,51.4211],
[4.4317,51.375],
[4.4251,51.3713],
[4.4313,51.3639],
[4.3846,51.3544],
[4.3412,51.3576],
[4.3345,51.3777],
[4.2703,51.3758],
[4.2176,51.3739],
[4.2268,51.3598],
[4.2421,51.3539],
[4.2343,51.3478],
[4.1662,51.2929],
[4.0933,51.2602],
[4.09,51.2587],
[4.0876,51.2576],
[4.0866,51.2572],
[4.0785,51.2536],
[4.0714,51.2502],
[4.0619,51.2446],
[4.0148,51.2451],
[3.9587,51.2159],
[3.936,51.2119],
[3.9294,51.2203],
[3.9171,51.212],
[3.9186,51.2078],
[3.9158,51.2083],
[3.8863,51.2002],
[3.8776,51.208],
[3.8901,51.2139],
[3.8885,51.223],
[3.8647,51.2134],
[3.805,51.2101],
[3.7897,51.2179],
[3.7885,51.2264],
[3.7955,51.256],
[3.7854,51.2585],
[3.7731,51.2619],
[3.6213,51.2928],
[3.59,51.306],
[3.5811,51.2983],
[3.5879,51.293],
[3.5818,51.2869],
[3.5627,51.2959],
[3.5381,51.2837],
[3.5154,51.2872],
[3.5276,51.246],
[3.4275,51.2446],
[3.4169,51.26],
[3.4076,51.2569],
[3.3769,51.276],
[3.3808,51.2869],
[3.366,51.2982],
[3.378,51.3027],
[3.3584,51.315],
[3.3853,51.3341],
[3.3661,51.3693],
[3.3184,51.4207],
[3.2289,51.4031],
[3.0235,51.3502],
[2.8966,51.2859],
[2.6671,51.1985],
[2.5004,51.1407]
]
],
[
[
[4.915,51.4353],
[4.9362,51.4295],
[4.94,51.4361],
[4.9337,51.4409],
[4.9381,51.4447],
[4.9283,51.4385],
[4.923,51.4474],
[4.915,51.4353]
]
],
[
[
[4.9331,51.4495],
[4.9401,51.4452],
[4.9527,51.4516],
[4.9331,51.4495]
]
]
]}
}
