{
"type": "Feature",
"properties": {"id":"ohm-r2855433","edge_precision":"unknown","ohm_relation":2855433,"ohm_version":20,"ohm_timestamp":"2026-09-26T02:09:46Z"},
"geometry": {"type": "MultiPolygon", "coordinates": [
[
[
[7.774,50.0579],
[7.8064,50.038],
[7.855,50.0101],
[7.8711,49.9772],
[7.8877,49.9718],
[7.9765,49.9802],
[8.0356,50.0028],
[8.0879,50.0091],
[8.1584,50.0298],
[8.1903,50.0355],
[8.2434,50.0284],
[8.2905,49.9935],
[8.3213,49.9744],
[8.3274,49.9691],
[8.3546,49.9182],
[8.3432,49.8947],
[8.3409,49.8848],
[8.3532,49.8663],
[8.3766,49.8609],
[8.3852,49.8526],
[8.3801,49.8212],
[8.3846,49.8174],
[8.4,49.8035],
[8.4152,49.7755],
[8.4174,49.7727],
[8.4381,49.7653],
[8.4729,49.7684],
[8.4775,49.7571],
[8.4327,49.7194],
[8.4256,49.7167],
[8.3809,49.7066],
[8.3559,49.6869],
[8.3762,49.6396],
[8.384,49.6247],
[8.4146,49.595],
[8.4225,49.5837],
[8.422,49.5727],
[8.4142,49.5591],
[8.4233,49.5411],
[8.44,49.5007],
[8.4639,49.4715],
[8.4596,49.4643],
[8.4431,49.458],
[8.4447,49.4479],
[8.4996,49.4426],
[8.5062,49.4283],
[8.4973,49.4112],
[8.4963,49.4068],
[8.4964,49.4023],
[8.4666,49.3883],
[8.4637,49.3778],
[8.472,49.3733],
[8.5006,49.389],
[8.4918,49.357],
[8.4705,49.3407],
[8.4556,49.3321],
[8.4514,49.3186],
[8.4655,49.3113],
[8.4878,49.3002],
[8.4871,49.2902],
[8.467,49.2831],
[8.4457,49.2668],
[8.413,49.2498],
[8.3965,49.2412],
[8.3952,49.2401],
[8.3956,49.2399],
[8.4024,49.2256],
[8.3986,49.2075],
[8.3846,49.1983],
[8.3806,49.185],
[8.3682,49.1682],
[8.3725,49.1499],
[8.358,49.0976],
[8.3155,49.0595],
[8.2955,49.0101],
[8.2729,48.9873],
[8.2615,48.981],
[8.2606,48.9582],
[8.3545,48.9345],
[8.3484,48.9234],
[8.3165,48.9231],
[8.2964,48.9136],
[8.2961,48.8934],
[8.288,48.8864],
[8.3086,48.8645],
[8.3594,48.8399],
[8.3652,48.8538],
[8.3901,48.8497],
[8.4051,48.8588],
[8.4166,48.8357],
[8.4361,48.8126],
[8.4459,48.821],
[8.4929,48.8203],
[8.5136,48.8214],
[8.5091,48.8389],
[8.5149,48.8449],
[8.5036,48.8558],
[8.5124,48.8636],
[8.5126,48.8637],
[8.5261,48.8787],
[8.5752,48.8967],
[8.6139,48.8744],
[8.6334,48.8857],
[8.631,48.8993],
[8.6374,48.8994],
[8.6483,48.8738],
[8.64,48.858],
[8.6244,48.8552],
[8.6587,48.8347],
[8.6692,48.8413],
[8.6979,48.8372],
[8.7135,48.8267],
[8.7269,48.7985],
[8.7418,48.8026],
[8.7688,48.777],
[8.8046,48.7779],
[8.8011,48.7721],
[8.8352,48.7543],
[8.8294,48.7364],
[8.8774,48.7234],
[8.8551,48.7068],
[8.8632,48.6974],
[8.8511,48.6845],
[8.8364,48.683],
[8.8193,48.6648],
[8.7987,48.6587],
[8.8015,48.6439],
[8.7899,48.6291],
[8.8007,48.6148],
[8.7949,48.5941],
[8.7486,48.605],
[8.7554,48.5829],
[8.7503,48.5707],
[8.7564,48.5708],
[8.7655,48.5485],
[8.7733,48.5498],
[8.7584,48.5445],
[8.7638,48.5342],
[8.7589,48.5294],
[8.7561,48.5251],
[8.7691,48.5224],
[8.79,48.5203],
[8.8031,48.5088],
[8.8394,48.4976],
[8.8447,48.4985],
[8.8442,48.5075],
[8.8659,48.5148],
[8.8558,48.519],
[8.8608,48.5272],
[8.8586,48.5294],
[8.8514,48.537],
[8.8838,48.5411],
[8.89,48.5643],
[8.9128,48.5727],
[8.9325,48.5644],
[8.9455,48.5674],
[8.9359,48.5775],
[8.949,48.5801],
[8.9507,48.5875],
[8.9853,48.5913],
[9.0351,48.5763],
[9.052,48.5932],
[9.0788,48.5899],
[9.0779,48.5981],
[9.0893,48.6034],
[9.083,48.6122],
[9.1049,48.6226],
[9.1156,48.6147],
[9.1135,48.6029],
[9.1514,48.6049],
[9.1811,48.6053],
[9.1858,48.5983],
[9.2052,48.6033],
[9.1978,48.5881],
[9.2221,48.5665],
[9.2412,48.5786],
[9.2605,48.5661],
[9.2952,48.5655],
[9.2945,48.5736],
[9.3147,48.5804],
[9.3225,48.5737],
[9.3112,48.5633],
[9.3207,48.5565],
[9.314,48.5467],
[9.3272,48.5407],
[9.3396,48.5492],
[9.3939,48.5308],
[9.4509,48.5466],
[9.4903,48.5305],
[9.4658,48.5156],
[9.4724,48.5124],
[9.4974,48.5217],
[9.5038,48.5134],
[9.5097,48.5179],
[9.5046,48.5268],
[9.531,48.5136],
[9.5367,48.5205],
[9.5319,48.5268],
[9.5825,48.539],
[9.6325,48.5372],
[9.6556,48.5189],
[9.6675,48.5248],
[9.6881,48.5178],
[9.6818,48.5244],
[9.6875,48.5285],
[9.711,48.5132],
[9.7117,48.4825],
[9.6856,48.4635],
[9.7002,48.4441],
[9.6894,48.4408],
[9.6799,48.4241],
[9.7071,48.4198],
[9.7372,48.3973],
[9.7623,48.3907],
[9.7534,48.3852],
[9.7576,48.3738],
[9.7738,48.3674],
[9.7645,48.368],
[9.759,48.3572],
[9.8152,48.3641],
[9.8586,48.3535],
[9.8494,48.3522],
[9.8495,48.3436],
[9.8783,48.3122],
[9.8823,48.294],
[9.9215,48.2861],
[9.9264,48.2686],
[9.9822,48.2691],
[9.9767,48.2643],
[9.9892,48.2626],
[9.9843,48.2555],
[9.9903,48.2439],
[10.0132,48.2485],
[10.0202,48.2313],
[10.0409,48.2286],
[10.0288,48.2176],
[10.0406,48.211],
[10.0382,48.1959],
[10.0841,48.1979],
[10.1072,48.1323],
[10.1367,48.1083],
[10.1403,48.0953],
[10.1351,48.0826],
[10.144,48.0744],
[10.144,48.059],
[10.128,48.033],
[10.1349,48.0174],
[10.1197,48.0042],
[10.116,47.9763],
[10.0922,47.9718],
[10.0849,47.9604],
[10.0902,47.9474],
[10.1108,47.936],
[10.1086,47.9156],
[10.1032,47.8891],
[10.0956,47.8849],
[10.107,47.8781],
[10.0915,47.8674],
[10.077,47.8678],
[10.0831,47.8556],
[10.1023,47.8655],
[10.1054,47.8563],
[10.0924,47.8444],
[10.1071,47.8532],
[10.1101,47.847],
[10.1027,47.8425],
[10.132,47.8201],
[10.138,47.8097],
[10.1197,47.8126],
[10.1107,47.8065],
[10.1167,47.8008],
[10.0915,47.8045],
[10.0654,47.7857],
[10.0797,47.7812],
[10.0827,47.7711],
[10.1161,47.7614],
[10.1172,47.7525],
[10.1156,47.719],
[10.1396,47.7036],
[10.1283,47.6907],
[10.1302,47.6768],
[10.1138,47.6663],
[10.09,47.6734],
[10.0946,47.6652],
[10.0815,47.6547],
[10.077,47.6391],
[10.0757,47.6181],
[10.0687,47.6127],
[10.0612,47.6069],
[10.0493,47.6008],
[10.0106,47.614],
[9.9899,47.6021],
[9.9708,47.6056],
[9.9557,47.5912],
[9.9628,47.5656],
[9.9681,47.5463],
[9.9651,47.5214],
[9.9956,47.5027],
[9.9875,47.4986],
[9.995,47.4863],
[10.0451,47.4875],
[10.0568,47.4656],
[10.0708,47.4558],
[10.0897,47.4603],
[10.0954,47.4519],
[10.0932,47.4416],
[10.1038,47.4288],
[10.0945,47.4171],
[10.0686,47.4095],
[10.0861,47.399],
[10.0998,47.3548],
[10.1192,47.3756],
[10.1657,47.3688],
[10.1692,47.3858],
[10.1818,47.3924],
[10.2126,47.3804],
[10.2276,47.3886],
[10.2369,47.3735],
[10.1995,47.3265],
[10.2163,47.3122],
[10.2025,47.2995],
[10.1805,47.2953],
[10.1721,47.2791],
[10.1782,47.27],
[10.2015,47.2768],
[10.2319,47.2707],
[10.3144,47.3063],
[10.3304,47.3048],
[10.3487,47.3174],
[10.3568,47.337],
[10.3863,47.3572],
[10.3892,47.3704],
[10.4195,47.3848],
[10.4368,47.3804],
[10.4291,47.3912],
[10.4356,47.4103],
[10.4759,47.4327],
[10.4659,47.453],
[10.4678,47.4769],
[10.442,47.4858],
[10.4315,47.5028],
[10.4544,47.5558],
[10.4885,47.5403],
[10.5628,47.536],
[10.5733,47.534],
[10.5807,47.5561],
[10.5972,47.5695],
[10.6783,47.5562],
[10.6912,47.5588],
[10.69,47.5553],
[10.6948,47.5447],
[10.7577,47.5345],
[10.7627,47.5214],
[10.7752,47.5158],
[10.8865,47.5368],
[10.9055,47.5178],
[10.9182,47.5178],
[10.8711,47.4992],
[10.8696,47.4837],
[10.9383,47.4801],
[10.9278,47.4719],
[10.9834,47.4306],
[10.9846,47.4207],
[10.9723,47.4176],
[10.9693,47.4004],
[10.9832,47.3965],
[11.1192,47.397],
[11.1279,47.4121],
[11.2067,47.4337],
[11.2534,47.4279],
[11.2234,47.3958],
[11.2728,47.3979],
[11.2893,47.4103],
[11.2919,47.427],
[11.3327,47.4383],
[11.3381,47.4511],
[11.4206,47.4452],
[11.4088,47.4662],
[11.3849,47.4741],
[11.4122,47.4959],
[11.4436,47.5177],
[11.4508,47.5066],
[11.5739,47.5142],
[11.5873,47.5253],
[11.5877,47.5561],
[11.6062,47.5819],
[11.6326,47.5806],
[11.6373,47.5941],
[11.6562,47.5852],
[11.7751,47.5904],
[11.8474,47.5824],
[11.855,47.6023],
[11.8943,47.6087],
[11.9334,47.6127],
[12.0093,47.6242],
[12.0285,47.6111],
[12.0607,47.6188],
[12.1298,47.6056],
[12.1791,47.6144],
[12.1781,47.6009],
[12.202,47.6062],
[12.2083,47.6129],
[12.2018,47.633],
[12.1993,47.6398],
[12.1983,47.6421],
[12.1867,47.6574],
[12.1647,47.6901],
[12.1624,47.7012],
[12.1839,47.7007],
[12.2271,47.718],
[12.2571,47.7427],
[12.2649,47.7332],
[12.2417,47.6942],
[12.2549,47.6802],
[12.3375,47.6971],
[12.3385,47.6907],
[12.3639,47.6841],
[12.4396,47.6952],
[12.4391,47.6765],
[12.4994,47.6251],
[12.5363,47.6361],
[12.5751,47.6325],
[12.6058,47.6739],
[12.6538,47.6723],
[12.6621,47.6795],
[12.6947,47.6818],
[12.7356,47.6786],
[12.7596,47.6638],
[12.7843,47.672],
[12.7592,47.6537],
[12.7798,47.6337],
[12.8248,47.6116],
[12.7919,47.5983],
[12.7812,47.5735],
[12.7975,47.5539],
[12.8197,47.5454],
[12.847,47.5463],
[12.8506,47.5322],
[12.884,47.5206],
[12.9208,47.4934],
[12.9687,47.4742],
[12.9745,47.4841],
[12.9948,47.478],
[12.9948,47.4708],
[13.0094,47.465],
[13.0298,47.487],
[13.0475,47.4922],
[13.0452,47.5255],
[13.0315,47.5369],
[13.0578,47.561],
[13.0415,47.5763],
[13.0432,47.5835],
[13.07,47.5861],
[13.0636,47.6035],
[13.0964,47.6295],
[13.0981,47.6423],
[13.0737,47.6917],
[13.018,47.723],
[13.0057,47.7168],
[12.9868,47.7073],
[12.9252,47.7103],
[12.9135,47.7172],
[12.9044,47.7273],
[12.9362,47.7491],
[12.9352,47.758],
[12.9449,47.7644],
[12.9424,47.7709],
[12.9278,47.7699],
[12.9999,47.8399],
[13.0014,47.8543],
[12.9427,47.9284],
[12.9391,47.9423],
[12.9229,47.9395],
[12.9164,47.9553],
[12.8757,47.963],
[12.8605,47.997],
[12.8458,48.0206],
[12.7606,48.0767],
[12.7517,48.0887],
[12.7512,48.1131],
[12.7588,48.1271],
[12.7864,48.1232],
[12.802,48.1485],
[12.8273,48.1522],
[12.8725,48.2018],
[12.9363,48.2077],
[12.9569,48.2096],
[13.0167,48.2555],
[13.0808,48.2777],
[13.124,48.2774],
[13.2036,48.2955],
[13.2554,48.2937],
[13.3199,48.3186],
[13.3763,48.3573],
[13.4179,48.3834],
[13.4218,48.4069],
[13.4392,48.4308],
[13.428,48.4579],
[13.4474,48.4944],
[13.4572,48.5115],
[13.437,48.5564],
[13.45,48.5639],
[13.4639,48.554],
[13.4754,48.5562],
[13.4746,48.5623],
[13.5041,48.5724],
[13.5017,48.5809],
[13.5093,48.5907],
[13.5242,48.5886],
[13.5621,48.5644],
[13.5799,48.5595],
[13.6012,48.5689],
[13.6573,48.5443],
[13.6626,48.5349],
[13.7165,48.5155],
[13.7271,48.513],
[13.7331,48.525],
[13.7478,48.5294],
[13.7436,48.5441],
[13.7548,48.5512],
[13.7467,48.5524],
[13.7549,48.5643],
[13.7683,48.5535],
[13.8021,48.5744],
[13.8023,48.5948],
[13.8244,48.6184],
[13.8263,48.6304],
[13.8143,48.6504],
[13.8191,48.6721],
[13.8134,48.6923],
[13.8334,48.6919],
[13.8374,48.7005],
[13.8141,48.7009],
[13.796,48.7135],
[13.8201,48.7325],
[13.8213,48.7548],
[13.8396,48.7716],
[13.807,48.7794],
[13.8044,48.7808],
[13.8036,48.7809],
[13.8043,48.7813],
[13.8097,48.7857],
[13.8147,48.7977],
[13.796,48.8198],
[13.7879,48.8253],
[13.793,48.8298],
[13.765,48.8339],
[13.7509,48.8658],
[13.7398,48.878],
[13.7306,48.8871],
[13.7241,48.8811],
[13.7058,48.8806],
[13.6905,48.8785],
[13.6805,48.8788],
[13.6543,48.8956],
[13.6453,48.9112],
[13.6379,48.921],
[13.6225,48.9388],
[13.626,48.9437],
[13.6311,48.947],
[13.6099,48.9445],
[13.6102,48.9386],
[13.5903,48.953],
[13.5885,48.9653],
[13.5509,48.9676],
[13.5481,48.9669],
[13.5337,48.974],
[13.5071,48.9691],
[13.508,48.9483],
[13.5083,48.9421],
[13.4899,48.9447],
[13.4639,48.9582],
[13.4614,48.9605],
[13.4328,48.9719],
[13.4171,48.9797],
[13.4027,48.9872],
[13.4058,48.9988],
[13.4066,48.9998],
[13.4086,49.0073],
[13.4004,49.0164],
[13.4058,49.0238],
[13.3996,49.0362],
[13.3917,49.0422],
[13.3974,49.0507],
[13.3762,49.0583],
[13.3266,49.0968],
[13.3127,49.1045],
[13.2863,49.1194],
[13.2792,49.1205],
[13.2712,49.1196],
[13.248,49.1158],
[13.2359,49.1138],
[13.2135,49.1206],
[13.2057,49.1222],
[13.1703,49.144],
[13.1769,49.1642],
[13.1709,49.1736],
[13.1469,49.1845],
[13.1099,49.2031],
[13.1142,49.2183],
[13.094,49.225],
[13.086,49.2294],
[13.0873,49.2388],
[13.081,49.2473],
[13.0604,49.2502],
[13.0562,49.2633],
[13.0473,49.2636],
[13.0431,49.265],
[13.0426,49.2649],
[13.034,49.2639],
[13.029,49.2852],
[13.0291,49.3043],
[13.0077,49.3062],
[13.0013,49.314],
[12.9886,49.3238],
[12.9672,49.3358],
[12.9359,49.3427],
[12.9193,49.3434],
[12.9137,49.345],
[12.9028,49.3491],
[12.88,49.3504],
[12.8877,49.3348],
[12.8435,49.3451],
[12.8372,49.3407],
[12.7858,49.3455],
[12.7787,49.3482],
[12.7813,49.3604],
[12.7581,49.3752],
[12.7577,49.3948],
[12.733,49.4099],
[12.7044,49.425],
[12.6556,49.4348],
[12.6572,49.4448],
[12.6485,49.4683],
[12.6337,49.4761],
[12.644,49.4842],
[12.6409,49.4978],
[12.6427,49.5188],
[12.6442,49.523],
[12.6414,49.5269],
[12.6145,49.5284],
[12.5885,49.5385],
[12.5939,49.5422],
[12.5879,49.5458],
[12.5879,49.5465],
[12.5808,49.5542],
[12.5708,49.5694],
[12.5767,49.5863],
[12.5641,49.5968],
[12.5622,49.6091],
[12.5607,49.6196],
[12.5281,49.6181],
[12.5343,49.6261],
[12.5235,49.6283],
[12.5285,49.6399],
[12.5176,49.6437],
[12.5236,49.6574],
[12.53,49.6663],
[12.5217,49.6867],
[12.515,49.6878],
[12.4851,49.6879],
[12.4607,49.7006],
[12.4401,49.7058],
[12.435,49.7131],
[12.4329,49.717],
[12.4277,49.7261],
[12.4275,49.7265],
[12.4125,49.7359],
[12.4044,49.745],
[12.4015,49.7586],
[12.4041,49.7624],
[12.4742,49.7889],
[12.4654,49.7951],
[12.4707,49.8002],
[12.4655,49.8118],
[12.4734,49.8151],
[12.4775,49.8377],
[12.486,49.8418],
[12.498,49.8376],
[12.4979,49.8569],
[12.5158,49.8647],
[12.5216,49.8817],
[12.5399,49.8912],
[12.5483,49.8992],
[12.5507,49.9053],
[12.5446,49.9225],
[12.5362,49.9249],
[12.4943,49.9368],
[12.4783,49.9355],
[12.47,49.9483],
[12.4906,49.9586],
[12.4937,49.9688],
[12.4996,49.972],
[12.4701,49.9908],
[12.4546,49.9936],
[12.4315,49.9844],
[12.4257,49.991],
[12.4357,49.9943],
[12.4316,50.0025],
[12.4241,50.0005],
[12.4232,50.0008],
[12.4017,50.0052],
[12.4022,50.0146],
[12.3764,50.0192],
[12.3623,50.0247],
[12.3574,50.0256],
[12.3379,50.0397],
[12.3252,50.0332],
[12.3181,50.053],
[12.2979,50.0584],
[12.2667,50.0605],
[12.261,50.0585],
[12.2754,50.0765],
[12.27,50.0778],
[12.2642,50.0807],
[12.2464,50.0922],
[12.2476,50.0961],
[12.2461,50.0975],
[12.2404,50.0962],
[12.2336,50.0941],
[12.2292,50.1005],
[12.1999,50.1105],
[12.1965,50.1273],
[12.1952,50.1432],
[12.2034,50.1459],
[12.2001,50.1515],
[12.216,50.1682],
[12.2086,50.1715],
[12.2012,50.1886],
[12.1889,50.1955],
[12.1975,50.1979],
[12.1827,50.1992],
[12.1754,50.2128],
[12.1597,50.2112],
[12.1603,50.2198],
[12.1585,50.2265],
[12.1456,50.2299],
[12.1518,50.2343],
[12.1466,50.2356],
[12.1405,50.2304],
[12.1144,50.237],
[12.0906,50.2524],
[12.1023,50.2555],
[12.0976,50.2623],
[12.1279,50.2702],
[12.1401,50.2778],
[12.127,50.2883],
[12.1193,50.2989],
[12.126,50.3072],
[12.101,50.3182],
[12.0903,50.3244],
[12.0911,50.3324],
[12.08,50.327],
[12.0465,50.3309],
[12.0483,50.324],
[12.0143,50.3477],
[11.9737,50.3523],
[11.9843,50.3654],
[11.9788,50.369],
[11.9839,50.3896],
[11.9648,50.3997],
[11.9506,50.3941],
[11.9539,50.4075],
[11.9458,50.4111],
[11.9362,50.4221],
[11.92,50.4244],
[11.8248,50.3895],
[11.8189,50.3952],
[11.8264,50.4036],
[11.8179,50.4006],
[11.7975,50.4173],
[11.7789,50.4185],
[11.7739,50.4116],
[11.7523,50.4158],
[11.7634,50.4061],
[11.7439,50.4105],
[11.7323,50.4041],
[11.7134,50.3968],
[11.7022,50.4022],
[11.6829,50.3929],
[11.6254,50.3872],
[11.5928,50.4027],
[11.5726,50.4001],
[11.5616,50.3843],
[11.5207,50.374],
[11.519,50.3956],
[11.4787,50.4011],
[11.4883,50.4167],
[11.482,50.4315],
[11.4625,50.4318],
[11.4436,50.4206],
[11.4515,50.4303],
[11.4205,50.4435],
[11.4174,50.4819],
[11.4254,50.4839],
[11.4198,50.4943],
[11.4392,50.4953],
[11.4337,50.5095],
[11.3707,50.5231],
[11.3461,50.5214],
[11.3463,50.5155],
[11.3236,50.5094],
[11.3212,50.4889],
[11.301,50.4878],
[11.2909,50.4751],
[11.2897,50.4846],
[11.2488,50.4794],
[11.245,50.4707],
[11.2551,50.4564],
[11.2463,50.4499],
[11.2636,50.4428],
[11.2691,50.4199],
[11.2582,50.3995],
[11.2701,50.394],
[11.2646,50.3874],
[11.277,50.3804],
[11.2847,50.3601],
[11.2627,50.352],
[11.2775,50.3363],
[11.2618,50.3376],
[11.2558,50.322],
[11.2703,50.3068],
[11.2514,50.2988],
[11.2622,50.2749],
[11.249,50.2669],
[11.1982,50.2916],
[11.1893,50.2707],
[11.1753,50.2696],
[11.1844,50.281],
[11.1451,50.2857],
[11.1326,50.3002],
[11.1321,50.3121],
[11.1594,50.3305],
[11.1387,50.3535],
[11.1168,50.3492],
[11.1152,50.3673],
[11.0872,50.3644],
[11.0865,50.3518],
[11.0433,50.3449],
[11.0304,50.3514],
[11.0428,50.3522],
[11.034,50.3605],
[10.9934,50.3652],
[10.9988,50.3511],
[10.9852,50.348],
[10.9577,50.3688],
[10.9623,50.3771],
[10.9369,50.3923],
[10.8921,50.3805],
[10.8879,50.3929],
[10.876,50.3967],
[10.8607,50.3877],
[10.8301,50.3932],
[10.8044,50.3801],
[10.7841,50.3853],
[10.7515,50.3577],
[10.7158,50.3654],
[10.7137,50.3477],
[10.7281,50.3463],
[10.7268,50.3367],
[10.7137,50.3338],
[10.7178,50.3205],
[10.7418,50.3159],
[10.7695,50.2931],
[10.8026,50.2919],
[10.8043,50.2797],
[10.8467,50.2762],
[10.8518,50.2514],
[10.827,50.2378],
[10.8013,50.2516],
[10.7822,50.2519],
[10.7687,50.2413],
[10.729,50.2507],
[10.7318,50.2129],
[10.7235,50.2046],
[10.6959,50.2126],
[10.6868,50.226],
[10.6576,50.2239],
[10.6597,50.2311],
[10.6124,50.224],
[10.5987,50.2457],
[10.6114,50.2497],
[10.5987,50.2631],
[10.6037,50.2719],
[10.5915,50.2698],
[10.6051,50.2935],
[10.5932,50.3068],
[10.6009,50.334],
[10.5622,50.3379],
[10.5512,50.3441],
[10.5546,50.3569],
[10.5434,50.3639],
[10.5326,50.3646],
[10.5151,50.3502],
[10.5139,50.359],
[10.4918,50.3554],
[10.4957,50.3669],
[10.4889,50.375],
[10.47,50.3744],
[10.459,50.3821],
[10.4492,50.4032],
[10.4262,50.3936],
[10.3946,50.3948],
[10.3845,50.406],
[10.4039,50.4249],
[10.3716,50.4323],
[10.3819,50.4387],
[10.3683,50.439],
[10.3356,50.4662],
[10.3423,50.4831],
[10.3306,50.4936],
[10.3012,50.494],
[10.2563,50.513],
[10.2303,50.511],
[10.2314,50.5315],
[10.2205,50.5389],
[10.2045,50.5442],
[10.1984,50.5547],
[10.178,50.552],
[10.1772,50.5423],
[10.1508,50.5523],
[10.1506,50.552],
[10.1469,50.5434],
[10.1372,50.5428],
[10.1207,50.5558],
[10.1273,50.5595],
[10.1206,50.5643],
[10.1206,50.5647],
[10.0998,50.5552],
[10.0699,50.5354],
[10.0734,50.5269],
[10.0412,50.5165],
[10.0421,50.5339],
[10.0568,50.5546],
[10.0613,50.5567],
[10.051,50.5632],
[10.0473,50.6005],
[10.0373,50.6126],
[10.0593,50.6268],
[10.0813,50.6198],
[10.083,50.6336],
[10.0741,50.6432],
[10.0715,50.6514],
[10.0506,50.6737],
[10.0022,50.6767],
[9.9492,50.6642],
[9.9687,50.6413],
[9.9606,50.6292],
[9.9279,50.6296],
[9.9074,50.6401],
[9.8788,50.6347],
[9.876,50.6431],
[9.8858,50.6546],
[9.8792,50.6704],
[9.9229,50.6943],
[9.9074,50.7031],
[9.9352,50.724],
[9.9415,50.7392],
[9.9393,50.7559],
[9.92,50.7593],
[9.9254,50.7674],
[9.9296,50.7773],
[9.949,50.7791],
[9.9435,50.7713],
[9.9538,50.7792],
[9.9493,50.7799],
[9.9547,50.786],
[9.9443,50.7999],
[9.9566,50.8096],
[9.9522,50.8215],
[9.97,50.8299],
[9.9913,50.8293],
[9.9967,50.826],
[10.0053,50.8377],
[10.0231,50.8307],
[10.0388,50.8533],
[10.0216,50.8479],
[10.0216,50.8645],
[10.0558,50.8801],
[10.0588,50.89],
[10.0447,50.8945],
[10.0512,50.9001],
[10.0138,50.9206],
[9.9859,50.9096],
[9.9683,50.9111],
[9.992,50.9342],
[9.9661,50.9339],
[9.956,50.9223],
[9.952,50.927],
[9.9566,50.9338],
[9.9501,50.9445],
[9.9909,50.9434],
[10.0135,50.9348],
[10.0247,50.9438],
[10.0295,50.9372],
[10.0631,50.9437],
[10.0319,50.9591],
[10.0411,50.9676],
[10.0194,50.9806],
[10.0212,50.9933],
[10.0305,51.0094],
[10.0492,51.0133],
[10.104,51.005],
[10.1268,51.0112],
[10.1333,50.9968],
[10.1913,50.9996],
[10.2054,51.0071],
[10.1928,51.0186],
[10.2143,51.0253],
[10.1848,51.0491],
[10.1404,51.0586],
[10.1552,51.0706],
[10.1438,51.0851],
[10.1656,51.0995],
[10.1604,51.108],
[10.1719,51.1052],
[10.1741,51.1108],
[10.1726,51.1184],
[10.1531,51.1183],
[10.118,51.1398],
[10.1648,51.154],
[10.1773,51.1416],
[10.186,51.1384],
[10.1792,51.1276],
[10.1851,51.1244],
[10.1975,51.1121],
[10.2066,51.1222],
[10.2093,51.1259],
[10.2038,51.1325],
[10.2095,51.1433],
[10.2005,51.1482],
[10.2068,51.1644],
[10.229,51.1744],
[10.2363,51.1872],
[10.1955,51.1925],
[10.1816,51.2081],
[10.1646,51.2124],
[10.1497,51.2062],
[10.1398,51.2196],
[10.1129,51.2153],
[10.091,51.2264],
[10.073,51.2244],
[10.0673,51.2301],
[10.0788,51.2428],
[10.0471,51.2537],
[10.0576,51.2769],
[10.0707,51.2809],
[10.0669,51.2881],
[10.0752,51.2857],
[10.0798,51.2993],
[10.0308,51.3088],
[10.0222,51.3035],
[10.029,51.2919],
[9.9871,51.2944],
[9.978,51.2849],
[9.9742,51.2867],
[9.9683,51.3004],
[9.9395,51.3087],
[9.9344,51.3148],
[9.9165,51.3178],
[9.9113,51.3262],
[9.8965,51.3172],
[9.8858,51.3204],
[9.8862,51.322],
[9.8876,51.3245],
[9.9044,51.3371],
[9.9123,51.3505],
[9.9254,51.3538],
[9.9285,51.3753],
[9.9314,51.3922],
[9.9091,51.4071],
[9.9138,51.4109],
[9.9072,51.4221],
[9.8827,51.415],
[9.8783,51.4037],
[9.8685,51.4139],
[9.8507,51.4144],
[9.8661,51.3719],
[9.8504,51.3741],
[9.8403,51.3837],
[9.8408,51.4028],
[9.8255,51.4079],
[9.812,51.4108],
[9.8026,51.4103],
[9.7924,51.4024],
[9.8021,51.3895],
[9.79,51.3901],
[9.7823,51.3897],
[9.7641,51.3847],
[9.7487,51.3733],
[9.7019,51.3645],
[9.7364,51.3296],
[9.7382,51.3193],
[9.7716,51.3374],
[9.7633,51.3242],
[9.7752,51.3248],
[9.7683,51.3074],
[9.7678,51.3067],
[9.7321,51.2949],
[9.7188,51.2978],
[9.6759,51.3098],
[9.6694,51.3178],
[9.6679,51.3154],
[9.6684,51.3151],
[9.6666,51.3117],
[9.6613,51.3116],
[9.6571,51.3123],
[9.644,51.319],
[9.6394,51.3163],
[9.6389,51.3153],
[9.6356,51.3173],
[9.6355,51.317],
[9.6285,51.3119],
[9.6297,51.3206],
[9.63,51.3209],
[9.6354,51.3235],
[9.6086,51.3257],
[9.6046,51.3247],
[9.5818,51.3421],
[9.568,51.3401],
[9.5573,51.3518],
[9.5486,51.3591],
[9.5507,51.362],
[9.5663,51.3618],
[9.5765,51.3704],
[9.5582,51.3796],
[9.5767,51.3987],
[9.6051,51.4039],
[9.6319,51.4039],
[9.6301,51.4107],
[9.6448,51.4183],
[9.6274,51.4444],
[9.6292,51.4576],
[9.6384,51.4636],
[9.6437,51.4706],
[9.6181,51.4819],
[9.585,51.5169],
[9.6175,51.5286],
[9.6219,51.5427],
[9.614,51.5479],
[9.6114,51.5528],
[9.6093,51.5576],
[9.6224,51.5487],
[9.6489,51.5512],
[9.6251,51.5735],
[9.6266,51.5818],
[9.6386,51.583],
[9.672,51.5682],
[9.6842,51.5665],
[9.6909,51.5761],
[9.6853,51.582],
[9.6362,51.613],
[9.637,51.6238],
[9.6262,51.6297],
[9.6317,51.6341],
[9.6133,51.6327],
[9.5904,51.629],
[9.5967,51.6267],
[9.5698,51.6245],
[9.5578,51.6324],
[9.5391,51.638],
[9.5185,51.6259],
[9.4967,51.6309],
[9.4918,51.6401],
[9.4979,51.6549],
[9.4839,51.6565],
[9.4799,51.656],
[9.4661,51.6532],
[9.465,51.6539],
[9.4529,51.6471],
[9.4506,51.6465],
[9.4507,51.6488],
[9.4407,51.6504],
[9.4385,51.6491],
[9.437,51.6485],
[9.4454,51.6439],
[9.4158,51.6285],
[9.3988,51.6245],
[9.3752,51.6264],
[9.3709,51.6195],
[9.3367,51.6121],
[9.3736,51.5915],
[9.3164,51.5525],
[9.31,51.531],
[9.3159,51.5229],
[9.3086,51.5124],
[9.3015,51.5144],
[9.2673,51.5051],
[9.2642,51.4979],
[9.2402,51.4973],
[9.2236,51.4862],
[9.2164,51.4811],
[9.2166,51.4615],
[9.1771,51.4641],
[9.1622,51.4445],
[9.1549,51.4426],
[9.1356,51.4503],
[9.0893,51.4467],
[9.087,51.4613],
[9.0786,51.4636],
[9.0925,51.4944],
[9.077,51.5034],
[9.039,51.5019],
[9.0205,51.5189],
[8.9703,51.5063],
[8.8988,51.4878],
[8.8943,51.4833],
[8.8936,51.4715],
[8.9217,51.4459],
[8.9186,51.4302],
[8.9488,51.4249],
[8.9516,51.4132],
[8.9409,51.4103],
[8.9393,51.3888],
[8.8897,51.3925],
[8.8544,51.377],
[8.8365,51.3884],
[8.792,51.3875],
[8.7321,51.3721],
[8.7008,51.3773],
[8.6766,51.3704],
[8.6828,51.3627],
[8.6585,51.3537],
[8.6533,51.3397],
[8.6376,51.3437],
[8.6178,51.3274],
[8.6049,51.3235],
[8.5981,51.3094],
[8.5706,51.2893],
[8.5564,51.2773],
[8.5844,51.2575],
[8.5976,51.2469],
[8.6413,51.2634],
[8.6954,51.2745],
[8.7214,51.2749],
[8.7217,51.2676],
[8.7335,51.2639],
[8.7273,51.25],
[8.741,51.2188],
[8.7684,51.209],
[8.7494,51.1979],
[8.7499,51.1814],
[8.7578,51.1777],
[8.6944,51.1364],
[8.7011,51.117],
[8.7136,51.116],
[8.7201,51.1141],
[8.673,51.1012],
[8.6496,51.0948],
[8.5486,51.1027],
[8.5017,51.0797],
[8.519,51.0688],
[8.5241,51.0569],
[8.5037,51.0406],
[8.5208,51.0432],
[8.5337,51.0251],
[8.5379,51.0201],
[8.5307,51.0136],
[8.5144,51.0108],
[8.4971,50.9932],
[8.485,50.9839],
[8.4736,50.9755],
[8.4778,50.9692],
[8.4651,50.9691],
[8.4578,50.9655],
[8.4623,50.9499],
[8.4494,50.94],
[8.4562,50.9165],
[8.4334,50.9182],
[8.4057,50.9021],
[8.3875,50.8911],
[8.3855,50.8759],
[8.3554,50.862],
[8.3055,50.861],
[8.2919,50.8822],
[8.2846,50.8824],
[8.2706,50.8825],
[8.1982,50.834],
[8.1654,50.8032],
[8.1272,50.7888],
[8.1422,50.7713],
[8.1359,50.7671],
[8.153,50.7615],
[8.1471,50.7557],
[8.167,50.7356],
[8.1424,50.6955],
[8.1316,50.6967],
[8.1258,50.6859],
[8.1104,50.6713],
[8.1133,50.654],
[8.1405,50.6314],
[8.1377,50.6182],
[8.126,50.61],
[8.1517,50.5994],
[8.1305,50.5575],
[8.1374,50.5521],
[8.1099,50.5411],
[8.1213,50.5396],
[8.103,50.5325],
[8.0705,50.5379],
[8.0663,50.549],
[8.0414,50.557],
[7.9959,50.5251],
[7.9966,50.5175],
[7.983,50.5114],
[7.9901,50.4984],
[7.979,50.4954],
[7.9792,50.4848],
[8.0104,50.4604],
[8.0011,50.4451],
[7.9754,50.4376],
[7.9893,50.4338],
[7.9817,50.4182],
[7.964,50.4118],
[7.971,50.4065],
[7.9841,50.4056],
[7.9859,50.3978],
[8.0242,50.401],
[8.0137,50.3848],
[8.0411,50.3853],
[8.0597,50.3742],
[8.0787,50.3386],
[8.0713,50.33],
[8.0942,50.3296],
[8.1062,50.3211],
[8.1026,50.3095],
[8.1182,50.301],
[8.1217,50.2773],
[8.1031,50.2598],
[8.0916,50.2654],
[8.0791,50.2607],
[8.0827,50.2657],
[8.0723,50.2737],
[8.0386,50.2719],
[8.0335,50.2637],
[8.0217,50.2583],
[8.0583,50.2343],
[8.0298,50.2151],
[8.0119,50.218],
[7.9902,50.2388],
[7.9867,50.2278],
[7.953,50.2204],
[7.9477,50.21],
[7.9066,50.2016],
[7.9132,50.1956],
[7.8837,50.1814],
[7.8861,50.1663],
[7.9325,50.1439],
[7.9229,50.1354],
[7.9272,50.1035],
[7.9036,50.122],
[7.8856,50.1151],
[7.8542,50.1286],
[7.8298,50.0979],
[7.8372,50.0841],
[7.8028,50.0848],
[7.7747,50.067],
[7.774,50.0579]
],
[
[10.4544,47.5558],
[10.4291,47.5776],
[10.4724,47.5869],
[10.482,47.5845],
[10.4544,47.5558]
]
],
[
[
[8.4816,53.2265],
[8.5027,53.2036],
[8.5154,53.198],
[8.528,53.1898],
[8.5732,53.176],
[8.5867,53.1728],
[8.6095,53.1707],
[8.6207,53.1662],
[8.626,53.148],
[8.6455,53.1275],
[8.6573,53.1176],
[8.6542,53.1089],
[8.6705,53.1025],
[8.665,53.0945],
[8.6746,53.0862],
[8.7039,53.0815],
[8.7116,53.0442],
[8.72,53.0393],
[8.7301,53.0341],
[8.7566,53.0391],
[8.762,53.0477],
[8.7705,53.0531],
[8.7777,53.0395],
[8.7917,53.0364],
[8.8175,53.023],
[8.8242,53.0205],
[8.8324,53.0208],
[8.8528,53.0204],
[8.868,53.0253],
[8.862,53.0356],
[8.8666,53.0408],
[8.8669,53.0328],
[8.8961,53.0131],
[8.9158,53.0111],
[8.9359,53.0135],
[8.9369,53.0179],
[8.9458,53.0306],
[8.978,53.0456],
[8.9765,53.0515],
[8.966,53.0575],
[8.9641,53.0596],
[8.9658,53.0626],
[8.9638,53.0703],
[8.9642,53.0892],
[8.9907,53.0966],
[8.9632,53.1004],
[8.9472,53.1162],
[8.9833,53.1257],
[8.9566,53.1472],
[8.9429,53.1524],
[8.9225,53.1431],
[8.913,53.1332],
[8.9115,53.1325],
[8.9041,53.1385],
[8.8943,53.1339],
[8.8627,53.1315],
[8.8465,53.1452],
[8.8296,53.1642],
[8.7817,53.1633],
[8.7762,53.1582],
[8.7421,53.1639],
[8.7394,53.1708],
[8.7143,53.1832],
[8.7056,53.1758],
[8.6994,53.1854],
[8.6749,53.1788],
[8.659,53.1774],
[8.6551,53.187],
[8.628,53.1983],
[8.5934,53.1842],
[8.5802,53.1931],
[8.5952,53.2064],
[8.5983,53.2101],
[8.5992,53.211],
[8.5991,53.2128],
[8.5788,53.2172],
[8.5722,53.2108],
[8.554,53.2078],
[8.5175,53.2285],
[8.4854,53.2272],
[8.4816,53.2265]
]
],
[
[
[8.4831,53.6005],
[8.5167,53.563],
[8.5388,53.5492],
[8.559,53.5316],
[8.5553,53.5249],
[8.5483,53.5198],
[8.5526,53.5163],
[8.5743,53.4998],
[8.5717,53.4879],
[8.5769,53.4859],
[8.587,53.4929],
[8.5921,53.4854],
[8.6094,53.4843],
[8.6105,53.4875],
[8.6246,53.4942],
[8.6288,53.5017],
[8.6377,53.5037],
[8.6523,53.516],
[8.6396,53.5249],
[8.6437,53.5549],
[8.6311,53.5556],
[8.6194,53.5739],
[8.623,53.5806],
[8.6526,53.6024],
[8.6228,53.6053],
[8.591,53.5934],
[8.5574,53.6027],
[8.5232,53.6067],
[8.4831,53.6005]
]
],
[
[
[8.6426,53.6092],
[8.6539,53.6024],
[8.6579,53.6057],
[8.6426,53.6092]
]
],
[
[
[9.1639,48.5974],
[9.1719,48.6044],
[9.1642,48.6044],
[9.1639,48.5974]
]
]
]}
}
