{
"type": "Feature",
"properties": {"id":"ohm-r2693257","edge_precision":"unknown","ohm_relation":2693257,"ohm_version":58,"ohm_timestamp":"2026-09-27T06:58:08Z"},
"geometry": {"type": "MultiPolygon", "coordinates": [
[
[
[20.2638,46.1181],
[20.283,46.1174],
[20.2646,46.1094],
[20.2734,46.0982],
[20.3022,46.0866],
[20.3093,46.072],
[20.346,46.0474],
[20.3406,46.0363],
[20.3578,46.0056],
[20.348,45.9997],
[20.4054,45.9652],
[20.4474,45.9702],
[20.4831,45.9535],
[20.5159,45.8922],
[20.5694,45.9102],
[20.5814,45.8694],
[20.6117,45.864],
[20.6604,45.8292],
[20.6507,45.8118],
[20.6628,45.7941],
[20.6814,45.7973],
[20.6929,45.7599],
[20.714,45.7489],
[20.7327,45.7559],
[20.7741,45.7545],
[20.7835,45.7859],
[20.8231,45.775],
[20.8175,45.7521],
[20.8026,45.7378],
[20.7961,45.6871],
[20.803,45.682],
[20.8049,45.6572],
[20.7657,45.6125],
[20.7719,45.5829],
[20.7953,45.5875],
[20.8325,45.5359],
[20.8072,45.5158],
[20.7688,45.5003],
[20.7771,45.4906],
[20.7711,45.4799],
[20.833,45.48],
[20.8663,45.465],
[20.8809,45.4462],
[20.8717,45.4458],
[20.8752,45.4385],
[20.8648,45.4319],
[20.9003,45.417],
[20.9203,45.4173],
[20.9355,45.393],
[20.9312,45.3868],
[20.9484,45.3856],
[20.9603,45.3668],
[21.01,45.3413],
[21.0165,45.3246],
[21.0636,45.3319],
[21.0612,45.3158],
[21.081,45.3178],
[21.0965,45.2957],
[21.1446,45.3048],
[21.162,45.3251],
[21.1665,45.3196],
[21.1762,45.3251],
[21.1837,45.3208],
[21.18,45.3126],
[21.1913,45.2868],
[21.2088,45.2753],
[21.2029,45.2655],
[21.219,45.2506],
[21.2755,45.2294],
[21.2927,45.2427],
[21.3393,45.2356],
[21.3599,45.2222],
[21.3953,45.2189],
[21.4031,45.2292],
[21.4388,45.2029],
[21.4839,45.1903],
[21.4931,45.1732],
[21.5148,45.1711],
[21.5264,45.1527],
[21.5273,45.1379],
[21.4783,45.1213],
[21.4697,45.1045],
[21.4834,45.0913],
[21.4476,45.0576],
[21.4561,45.0404],
[21.4258,45.0351],
[21.4123,45.0364],
[21.4038,45.0338],
[21.3853,45.0286],
[21.3812,45.0272],
[21.3603,45.0204],
[21.4146,44.9868],
[21.4067,44.9785],
[21.4382,44.9605],
[21.4692,44.9585],
[21.5197,44.938],
[21.5466,44.9306],
[21.5504,44.9167],
[21.5583,44.9014],
[21.5602,44.8891],
[21.4855,44.8684],
[21.4469,44.874],
[21.4434,44.8665],
[21.4178,44.8735],
[21.4054,44.8662],
[21.3712,44.8666],
[21.3579,44.8499],
[21.3621,44.84],
[21.3532,44.841],
[21.3642,44.8296],
[21.3583,44.8222],
[21.3791,44.814],
[21.3911,44.7837],
[21.4012,44.7773],
[21.5407,44.772],
[21.5869,44.7589],
[21.6151,44.7164],
[21.6119,44.6835],
[21.6367,44.6596],
[21.6887,44.6653],
[21.7271,44.6534],
[21.7904,44.6634],
[21.8142,44.6504],
[21.9169,44.6475],
[21.9522,44.6349],
[21.9933,44.6325],
[22.0045,44.6079],
[22.0258,44.5929],
[22.0254,44.5689],
[22.036,44.5489],
[22.07,44.5285],
[22.0756,44.5056],
[22.1389,44.4735],
[22.1689,44.4751],
[22.1864,44.4843],
[22.195,44.5095],
[22.2305,44.5613],
[22.2645,44.596],
[22.2747,44.6264],
[22.3003,44.6403],
[22.3034,44.6553],
[22.3283,44.6735],
[22.3791,44.6749],
[22.4284,44.7122],
[22.4642,44.717],
[22.4797,44.711],
[22.5713,44.6358],
[22.627,44.614],
[22.6757,44.6184],
[22.6858,44.6076],
[22.7095,44.6014],
[22.7619,44.5566],
[22.7601,44.5372],
[22.6962,44.5161],
[22.6267,44.5503],
[22.5867,44.5503],
[22.5644,44.5356],
[22.5498,44.4819],
[22.5208,44.4719],
[22.4692,44.4803],
[22.4571,44.4718],
[22.468,44.4408],
[22.5015,44.4174],
[22.5031,44.3825],
[22.5259,44.3372],
[22.5637,44.3057],
[22.6466,44.2935],
[22.6791,44.2798],
[22.6864,44.2585],
[22.6725,44.2271],
[22.6763,44.2155],
[22.6951,44.2053],
[22.7518,44.1981],
[22.809,44.1561],
[22.869,44.1343],
[22.9192,44.1023],
[23.0026,44.0955],
[23.0403,44.0798],
[23.0479,44.0606],
[23.0112,44.0136],
[22.895,43.9927],
[22.8797,43.9808],
[22.8373,43.8832],
[22.8439,43.8604],
[22.8668,43.8389],
[22.9811,43.8089],
[23.0755,43.7979],
[23.1317,43.8062],
[23.2707,43.8493],
[23.4176,43.8532],
[23.5114,43.8334],
[23.5567,43.8063],
[23.6121,43.7932],
[23.6985,43.8044],
[23.755,43.7999],
[23.7725,43.7824],
[23.8649,43.7556],
[23.9858,43.7414],
[24.0627,43.7189],
[24.0881,43.7024],
[24.1746,43.6831],
[24.3112,43.701],
[24.349,43.6977],
[24.4081,43.737],
[24.5125,43.7654],
[24.6254,43.7428],
[24.6988,43.6969],
[24.7291,43.6863],
[24.7512,43.6874],
[24.8052,43.7111],
[24.8761,43.7073],
[24.9625,43.7312],
[25.0076,43.7248],
[25.0539,43.6927],
[25.0925,43.6857],
[25.1722,43.6998],
[25.2494,43.6847],
[25.2867,43.6561],
[25.3515,43.6273],
[25.3901,43.6195],
[25.4482,43.6278],
[25.5097,43.6481],
[25.5644,43.6457],
[25.667,43.6903],
[25.7331,43.6928],
[25.7811,43.7109],
[25.8103,43.7455],
[25.8459,43.7563],
[25.8853,43.7843],
[25.8914,43.8006],
[25.9395,43.8516],
[26.0497,43.9069],
[26.1132,43.9745],
[26.1476,43.9853],
[26.1968,43.984],
[26.305,44.0279],
[26.3614,44.04],
[26.3762,44.0195],
[26.3962,43.9496],
[26.4314,43.9533],
[26.4648,43.9468],
[26.4916,43.925],
[26.5457,43.9449],
[26.5683,43.937],
[26.586,43.919],
[26.6172,43.8694],
[26.7355,43.8449],
[26.7674,43.8072],
[26.7751,43.8193],
[26.8081,43.8264],
[26.8222,43.8422],
[26.8372,43.8437],
[26.8598,43.8062],
[26.9031,43.7755],
[26.9033,43.753],
[26.9133,43.7414],
[26.9313,43.75],
[27.0008,43.6996],
[27.0704,43.7283],
[27.1289,43.6538],
[27.1917,43.6796],
[27.2562,43.6353],
[27.2769,43.6049],
[27.3059,43.5949],
[27.3856,43.6094],
[27.4088,43.5986],
[27.4189,43.5712],
[27.4585,43.5627],
[27.4884,43.5321],
[27.495,43.508],
[27.5199,43.4992],
[27.5779,43.5185],
[27.5883,43.5378],
[27.6038,43.5419],
[27.6382,43.5059],
[27.678,43.4789],
[27.7151,43.4733],
[27.7409,43.4568],
[27.8087,43.3877],
[27.8677,43.3654],
[27.9338,43.3943],
[27.9655,43.3928],
[28.0135,43.3531],
[28.1277,43.3484],
[28.1301,43.3466],
[28.1605,43.3621],
[28.2288,43.3608],
[28.3142,43.3786],
[28.3615,43.3698],
[28.4168,43.347],
[28.4446,43.3252],
[28.4768,43.3228],
[28.505,43.3343],
[28.5331,43.3784],
[28.5634,43.3937],
[28.6001,43.4281],
[28.6535,43.5114],
[28.656,43.5601],
[28.6226,43.6026],
[28.6317,43.6425],
[28.6178,43.6774],
[28.6295,43.6957],
[28.6321,43.7388],
[28.6322,43.7665],
[28.6535,43.7912],
[28.6444,43.8217],
[28.66,43.8427],
[28.66,43.8738],
[28.6848,43.9084],
[28.6917,43.9402],
[28.7207,43.9847],
[28.7012,44.0511],
[28.7389,44.0698],
[28.7606,44.1018],
[28.7515,44.133],
[28.7183,44.1717],
[28.7016,44.2256],
[28.6783,44.2463],
[28.6771,44.2843],
[28.7105,44.2843],
[28.7388,44.2994],
[28.7549,44.3545],
[28.9,44.489],
[29.0129,44.6348],
[29.1186,44.7196],
[29.175,44.7414],
[29.2577,44.76],
[29.4113,44.7754],
[29.4288,44.7524],
[29.4528,44.7401],
[29.4928,44.7336],
[29.5356,44.7392],
[29.5801,44.7587],
[29.6152,44.7859],
[29.6565,44.8322],
[29.6703,44.8682],
[29.7052,45.0872],
[29.7222,45.1178],
[29.7631,45.1517],
[29.76,45.1861],
[29.7563,45.1867],
[29.6913,45.192],
[29.6892,45.2034],
[29.6709,45.2206],
[29.6598,45.2484],
[29.664,45.2604],
[29.6785,45.2684],
[29.6576,45.3322],
[29.594,45.3885],
[29.55,45.4092],
[29.4756,45.4232],
[29.4276,45.4431],
[29.3537,45.4372],
[29.3271,45.4482],
[29.2883,45.4269],
[29.2483,45.4353],
[29.1856,45.4108],
[29.1742,45.3961],
[29.083,45.3735],
[28.9846,45.3313],
[28.9689,45.3317],
[28.951,45.3112],
[28.9552,45.2934],
[28.9451,45.2807],
[28.9259,45.2814],
[28.8775,45.3148],
[28.8448,45.3172],
[28.8155,45.3362],
[28.7839,45.3293],
[28.7816,45.3226],
[28.804,45.3141],
[28.805,45.3047],
[28.7908,45.2918],
[28.7581,45.2902],
[28.7527,45.2785],
[28.7638,45.2634],
[28.7891,45.2593],
[28.794,45.2447],
[28.7367,45.2303],
[28.7088,45.2239],
[28.6521,45.2411],
[28.5649,45.2484],
[28.3498,45.3202],
[28.2866,45.3991],
[28.2868,45.4302],
[28.2787,45.4456],
[28.2144,45.4673],
[28.1864,45.474],
[28.1639,45.5061],
[28.1539,45.5099],
[28.1662,45.519],
[28.1567,45.5245],
[28.1658,45.5252],
[28.1633,45.5461],
[28.1553,45.5545],
[28.1589,45.5609],
[28.1482,45.562],
[28.1565,45.5755],
[28.1457,45.5659],
[28.139,45.5774],
[28.1211,45.5721],
[28.1138,45.5858],
[28.0918,45.5987],
[28.0922,45.6118],
[28.1139,45.6268],
[28.1304,45.6187],
[28.1374,45.6257],
[28.1445,45.6214],
[28.1725,45.6481],
[28.1578,45.6509],
[28.166,45.6534],
[28.1621,45.6602],
[28.1713,45.6794],
[28.1662,45.6856],
[28.16,45.7037],
[28.1707,45.7091],
[28.1608,45.7251],
[28.1669,45.7362],
[28.1513,45.7441],
[28.1509,45.7523],
[28.1435,45.7611],
[28.1539,45.7826],
[28.1355,45.7783],
[28.1248,45.786],
[28.1129,45.7923],
[28.1226,45.7981],
[28.1186,45.8148],
[28.1075,45.8162],
[28.1101,45.8374],
[28.1053,45.8433],
[28.1139,45.8493],
[28.1057,45.8597],
[28.1269,45.8627],
[28.1327,45.8766],
[28.1269,45.8853],
[28.1125,45.8844],
[28.1202,45.9176],
[28.1256,45.9225],
[28.1142,45.9359],
[28.1151,45.9532],
[28.1017,45.9723],
[28.1069,45.9786],
[28.0982,45.9786],
[28.1052,45.9873],
[28.0854,46.0082],
[28.0957,46.0148],
[28.0877,46.0203],
[28.0902,46.0343],
[28.1038,46.0432],
[28.1051,46.053],
[28.0912,46.0543],
[28.0891,46.0597],
[28.1006,46.0644],
[28.089,46.0694],
[28.0928,46.0793],
[28.109,46.0782],
[28.1072,46.0949],
[28.1024,46.0986],
[28.1228,46.1053],
[28.1161,46.1102],
[28.1241,46.1114],
[28.1245,46.1259],
[28.1344,46.1301],
[28.1255,46.1364],
[28.124,46.1504],
[28.1429,46.1642],
[28.1282,46.1778],
[28.1427,46.1765],
[28.131,46.1856],
[28.1406,46.1832],
[28.1345,46.1957],
[28.1183,46.1919],
[28.1256,46.2085],
[28.1173,46.2118],
[28.1125,46.2023],
[28.1149,46.2113],
[28.1064,46.2215],
[28.1122,46.2457],
[28.119,46.2387],
[28.1336,46.2512],
[28.1391,46.2482],
[28.1462,46.2533],
[28.1263,46.2621],
[28.1359,46.2645],
[28.1404,46.2854],
[28.1522,46.2786],
[28.1495,46.292],
[28.1693,46.2826],
[28.1724,46.298],
[28.1806,46.2854],
[28.1871,46.2939],
[28.1787,46.3005],
[28.196,46.3034],
[28.2091,46.3195],
[28.1866,46.3265],
[28.1927,46.3297],
[28.1846,46.3339],
[28.1971,46.334],
[28.1999,46.3433],
[28.1828,46.3528],
[28.1966,46.3504],
[28.1926,46.3595],
[28.2011,46.3595],
[28.2078,46.369],
[28.1993,46.3737],
[28.2086,46.3727],
[28.2236,46.3884],
[28.2174,46.3959],
[28.235,46.3902],
[28.2433,46.3955],
[28.2249,46.3993],
[28.2388,46.4069],
[28.2309,46.4077],
[28.2306,46.4156],
[28.25,46.4159],
[28.2584,46.4263],
[28.2577,46.4454],
[28.2412,46.4485],
[28.2584,46.462],
[28.2456,46.4636],
[28.251,46.4669],
[28.2416,46.4796],
[28.2249,46.4794],
[28.2321,46.4839],
[28.2308,46.495],
[28.2214,46.5031],
[28.2111,46.4991],
[28.2108,46.5081],
[28.2229,46.5118],
[28.2142,46.5221],
[28.2246,46.5204],
[28.2304,46.5296],
[28.2152,46.5364],
[28.2183,46.5408],
[28.2269,46.5537],
[28.2358,46.5516],
[28.2227,46.5794],
[28.241,46.5809],
[28.231,46.5846],
[28.238,46.5881],
[28.2525,46.6122],
[28.2481,46.6279],
[28.2393,46.6295],
[28.2447,46.6372],
[28.238,46.6437],
[28.2461,46.6454],
[28.2374,46.6512],
[28.2364,46.6775],
[28.2305,46.6819],
[28.2312,46.6741],
[28.2239,46.6758],
[28.2206,46.6906],
[28.2146,46.683],
[28.2073,46.6865],
[28.2148,46.6941],
[28.2021,46.7003],
[28.2095,46.7118],
[28.2024,46.7213],
[28.1865,46.7237],
[28.1955,46.7317],
[28.1804,46.7371],
[28.1827,46.7472],
[28.173,46.7507],
[28.1853,46.7595],
[28.1777,46.7585],
[28.1786,46.764],
[28.1775,46.7709],
[28.1672,46.7704],
[28.1727,46.7757],
[28.1604,46.7771],
[28.1765,46.7774],
[28.171,46.7826],
[28.1646,46.7916],
[28.1612,46.7843],
[28.1494,46.7934],
[28.1532,46.7996],
[28.1286,46.8066],
[28.1259,46.8221],
[28.115,46.8212],
[28.1154,46.8364],
[28.1074,46.8424],
[28.1274,46.8527],
[28.1173,46.8537],
[28.1236,46.8565],
[28.1073,46.866],
[28.112,46.8696],
[28.0984,46.8701],
[28.1188,46.8778],
[28.1131,46.8815],
[28.1114,46.8953],
[28.1086,46.8891],
[28.1035,46.8959],
[28.086,46.895],
[28.0845,46.9049],
[28.1031,46.9096],
[28.1114,46.9232],
[28.0961,46.9286],
[28.1038,46.9323],
[28.0811,46.9372],
[28.0969,46.944],
[28.0971,46.9501],
[28.0896,46.9481],
[28.0937,46.9566],
[28.0783,46.9628],
[28.096,46.9767],
[28.0913,46.9807],
[28.0531,47.0058],
[28.032,47.0114],
[28.0409,47.0192],
[28.0536,47.0142],
[28.0367,47.029],
[28.0202,47.023],
[27.995,47.0292],
[27.9947,47.0362],
[27.9818,47.0352],
[27.9739,47.0442],
[27.9587,47.042],
[27.964,47.0495],
[27.9482,47.048],
[27.9456,47.0525],
[27.9602,47.0558],
[27.9461,47.0602],
[27.9056,47.0768],
[27.8979,47.0734],
[27.8943,47.0862],
[27.8798,47.0918],
[27.8835,47.0992],
[27.8667,47.1028],
[27.8747,47.1079],
[27.8602,47.1037],
[27.8566,47.1128],
[27.8293,47.1182],
[27.8257,47.1225],
[27.8383,47.1299],
[27.8508,47.1251],
[27.8424,47.1357],
[27.7815,47.1421],
[27.7992,47.1418],
[27.7842,47.15],
[27.8005,47.1516],
[27.8111,47.1638],
[27.7974,47.1754],
[27.8031,47.1899],
[27.787,47.1906],
[27.7901,47.208],
[27.7776,47.2044],
[27.7865,47.2163],
[27.7696,47.2216],
[27.7749,47.2308],
[27.7553,47.2305],
[27.7593,47.2396],
[27.7464,47.2416],
[27.7568,47.2512],
[27.7427,47.2566],
[27.7588,47.2578],
[27.7451,47.2645],
[27.7482,47.2765],
[27.7378,47.276],
[27.7361,47.2883],
[27.7051,47.3001],
[27.7062,47.2898],
[27.6908,47.2919],
[27.6858,47.2847],
[27.6798,47.2987],
[27.678,47.3098],
[27.674,47.2998],
[27.6631,47.3083],
[27.6461,47.3068],
[27.6463,47.2997],
[27.6332,47.3032],
[27.6385,47.3116],
[27.6281,47.3104],
[27.6221,47.326],
[27.606,47.317],
[27.6108,47.326],
[27.604,47.3288],
[27.5997,47.3171],
[27.5951,47.3272],
[27.5812,47.3277],
[27.6008,47.3289],
[27.6152,47.3394],
[27.6051,47.3394],
[27.6053,47.3498],
[27.595,47.3475],
[27.5967,47.372],
[27.5888,47.3648],
[27.5734,47.3686],
[27.5837,47.3761],
[27.5704,47.3721],
[27.5673,47.3803],
[27.5696,47.3951],
[27.5818,47.3991],
[27.5843,47.4084],
[27.5536,47.4299],
[27.5609,47.4383],
[27.5571,47.4468],
[27.5699,47.4498],
[27.5736,47.459],
[27.5463,47.4741],
[27.5377,47.4886],
[27.5318,47.4852],
[27.5365,47.4785],
[27.5215,47.4823],
[27.5153,47.4738],
[27.5146,47.49],
[27.5039,47.4783],
[27.4924,47.4808],
[27.494,47.4886],
[27.4734,47.4874],
[27.4542,47.508],
[27.4671,47.5268],
[27.4528,47.5214],
[27.444,47.5304],
[27.4565,47.5357],
[27.4439,47.5356],
[27.43,47.5449],
[27.4383,47.55],
[27.4237,47.5538],
[27.432,47.5631],
[27.4204,47.5634],
[27.4164,47.5713],
[27.4263,47.5836],
[27.4009,47.5846],
[27.3741,47.5962],
[27.3632,47.6128],
[27.3173,47.6411],
[27.3076,47.6604],
[27.2948,47.6621],
[27.2958,47.6806],
[27.2733,47.6891],
[27.2821,47.701],
[27.2711,47.7002],
[27.2665,47.7123],
[27.2499,47.7204],
[27.2652,47.733],
[27.2865,47.7234],
[27.2948,47.7281],
[27.2809,47.7344],
[27.2984,47.7481],
[27.2795,47.7502],
[27.2854,47.7575],
[27.2792,47.7643],
[27.2658,47.7596],
[27.2665,47.7796],
[27.2528,47.7782],
[27.25,47.7936],
[27.2316,47.7983],
[27.2417,47.8158],
[27.2211,47.8144],
[27.2143,47.8215],
[27.2226,47.8318],
[27.2325,47.8252],
[27.2448,47.8294],
[27.2456,47.8366],
[27.2297,47.8379],
[27.2281,47.8451],
[27.2078,47.8387],
[27.1948,47.8486],
[27.2174,47.8533],
[27.1968,47.8738],
[27.2109,47.8915],
[27.2034,47.9029],
[27.1673,47.9179],
[27.142,47.9164],
[27.179,47.9441],
[27.1784,47.9523],
[27.14,47.9658],
[27.1535,47.9727],
[27.1545,47.9875],
[27.1671,47.9906],
[27.1216,47.9945],
[27.117,48.0005],
[27.1284,48.0117],
[27.118,48.0147],
[27.0917,48.0081],
[27.0933,48.0229],
[27.1065,48.0308],
[27.0844,48.0358],
[27.0784,48.0536],
[27.0453,48.0699],
[27.0406,48.0828],
[27.0261,48.0895],
[27.0402,48.1071],
[27.0333,48.1171],
[27.0388,48.1298],
[27.0221,48.126],
[27.0285,48.1355],
[27.0175,48.1373],
[27.0001,48.122],
[26.9631,48.1318],
[26.951,48.1437],
[26.9561,48.1522],
[26.986,48.1449],
[26.9914,48.1508],
[26.9851,48.1571],
[26.9362,48.1633],
[26.9329,48.1698],
[26.9462,48.1797],
[26.9471,48.1928],
[26.9295,48.1999],
[26.9128,48.1975],
[26.9201,48.1813],
[26.9032,48.1805],
[26.8926,48.1926],
[26.9089,48.2012],
[26.8865,48.2014],
[26.8702,48.2126],
[26.852,48.2341],
[26.8318,48.2265],
[26.827,48.243],
[26.8114,48.2523],
[26.8074,48.2544],
[26.7832,48.2431],
[26.7378,48.245],
[26.7336,48.2479],
[26.7423,48.2548],
[26.7294,48.2586],
[26.731,48.2485],
[26.7226,48.2464],
[26.7,48.2652],
[26.6877,48.2524],
[26.6651,48.2474],
[26.661,48.2641],
[26.6463,48.2526],
[26.6302,48.2596],
[26.6292,48.2474],
[26.6149,48.2513],
[26.62,48.239],
[26.5969,48.2389],
[26.5872,48.2468],
[26.5712,48.2386],
[26.5723,48.2195],
[26.5507,48.2254],
[26.5485,48.2159],
[26.5236,48.213],
[26.468,48.2209],
[26.4561,48.2138],
[26.4569,48.2064],
[26.4339,48.2034],
[26.4389,48.1938],
[26.4214,48.2019],
[26.4016,48.1887],
[26.3841,48.1866],
[26.3843,48.1953],
[26.3757,48.1974],
[26.3614,48.1851],
[26.3508,48.1917],
[26.3485,48.1831],
[26.3338,48.1851],
[26.3278,48.1762],
[26.3343,48.1592],
[26.298,48.1337],
[26.2668,48.0765],
[26.2123,48.051],
[26.1989,48.0071],
[26.1877,47.9956],
[26.101,47.9783],
[26.0611,47.988],
[25.9753,47.9753],
[25.952,47.9709],
[25.9147,47.9774],
[25.9079,47.9649],
[25.892,47.9613],
[25.8614,47.9701],
[25.8376,47.9672],
[25.7752,47.9395],
[25.6426,47.9496],
[25.5921,47.9384],
[25.4424,47.9262],
[25.3111,47.9144],
[25.27,47.8924],
[25.2302,47.893],
[25.2216,47.8808],
[25.2221,47.8586],
[25.2012,47.8504],
[25.1985,47.8342],
[25.1803,47.8258],
[25.1775,47.8139],
[25.1671,47.8089],
[25.1679,47.7925],
[25.1344,47.7826],
[25.1169,47.7691],
[25.1158,47.7549],
[25.0647,47.7406],
[25.0533,47.7467],
[25.0399,47.7253],
[25.0074,47.7344],
[24.995,47.7251],
[24.9465,47.7292],
[24.9467,47.7171],
[24.9545,47.7059],
[24.9804,47.6958],
[24.9819,47.6939],
[25.0052,47.6787],
[25.0548,47.6557],
[25.055,47.6347],
[25.0739,47.61],
[25.0768,47.575],
[25.093,47.5714],
[25.0959,47.5722],
[25.128,47.5705],
[25.1428,47.5664],
[25.1583,47.5553],
[25.1575,47.5536],
[25.1856,47.5329],
[25.1655,47.5188],
[25.1582,47.4989],
[25.139,47.4807],
[25.1454,47.4653],
[25.1759,47.4427],
[25.1812,47.4391],
[25.1835,47.4181],
[25.1955,47.409],
[25.1807,47.3689],
[25.1651,47.3729],
[25.0979,47.3622],
[25.0767,47.3414],
[25.0775,47.3116],
[25.0467,47.3035],
[25.0325,47.284],
[25.0373,47.2837],
[25.0516,47.2702],
[25.1285,47.2307],
[25.1733,47.2333],
[25.1838,47.2119],
[25.1983,47.205],
[25.2977,47.1601],
[25.3588,47.1773],
[25.4224,47.1825],
[25.4334,47.1639],
[25.4466,47.1532],
[25.474,47.1539],
[25.5079,47.1311],
[25.5322,47.1307],
[25.5593,47.1106],
[25.5882,47.1085],
[25.5999,47.1148],
[25.6009,47.1323],
[25.6383,47.1145],
[25.6596,47.0923],
[25.7362,47.0739],
[25.741,47.0535],
[25.7688,47.0355],
[25.7684,47.0183],
[25.7897,46.9969],
[25.8017,46.9674],
[25.8186,46.9758],
[25.8387,46.9634],
[25.8545,46.9241],
[25.878,46.9218],
[25.8931,46.9021],
[25.9157,46.8945],
[25.9425,46.8669],
[25.9636,46.8736],
[25.9809,46.8409],
[25.9785,46.8238],
[26.0033,46.8035],
[26.0012,46.783],
[26.0347,46.7749],
[26.03,46.7687],
[26.0469,46.7563],
[26.0481,46.7414],
[26.0673,46.7219],
[26.1044,46.7142],
[26.1178,46.6848],
[26.1236,46.6854],
[26.1222,46.6755],
[26.1595,46.6415],
[26.1667,46.6046],
[26.1411,46.5914],
[26.1231,46.5541],
[26.0929,46.5527],
[26.0575,46.5291],
[26.0733,46.5253],
[26.0812,46.5112],
[26.0747,46.4854],
[26.1118,46.4691],
[26.1093,46.4424],
[26.1524,46.4349],
[26.1697,46.4492],
[26.2209,46.4582],
[26.2225,46.4409],
[26.2056,46.4247],
[26.2072,46.4175],
[26.237,46.392],
[26.2692,46.3977],
[26.2748,46.3873],
[26.2675,46.3772],
[26.2934,46.3706],
[26.2819,46.3582],
[26.2808,46.3387],
[26.293,46.3348],
[26.2724,46.2968],
[26.2747,46.2886],
[26.2532,46.2778],
[26.2634,46.2464],
[26.3236,46.2381],
[26.3408,46.2009],
[26.3918,46.202],
[26.4033,46.1926],
[26.421,46.1925],
[26.4045,46.1721],
[26.4102,46.1599],
[26.3982,46.1498],
[26.4346,46.1679],
[26.4503,46.1495],
[26.4945,46.1338],
[26.5004,46.1189],
[26.4952,46.0895],
[26.5038,46.0702],
[26.4925,46.0603],
[26.4931,46.0462],
[26.4839,46.0341],
[26.4903,46.0154],
[26.4683,46.0033],
[26.4685,45.9923],
[26.4567,45.9857],
[26.4654,45.9404],
[26.4565,45.9342],
[26.4427,45.8874],
[26.3809,45.8375],
[26.3239,45.7486],
[26.2992,45.7304],
[26.2244,45.74],
[26.1931,45.7148],
[26.1663,45.7263],
[26.0314,45.7496],
[25.8793,45.7515],
[25.8333,45.7643],
[25.7883,45.7639],
[25.7671,45.784],
[25.6737,45.8391],
[25.6551,45.8858],
[25.5552,45.9307],
[25.5487,45.9667],
[25.5755,46.0089],
[25.5535,46.057],
[25.4258,46.0956],
[25.3722,46.0985],
[25.3496,46.1175],
[25.3036,46.1332],
[25.2054,46.2122],
[25.0585,46.2446],
[25.0062,46.2635],
[25.0051,46.2784],
[24.9234,46.3194],
[24.7844,46.344],
[24.7734,46.3656],
[24.7274,46.3765],
[24.6927,46.396],
[24.6153,46.4015],
[24.6147,46.4165],
[24.575,46.4166],
[24.4861,46.4392],
[24.3471,46.5711],
[24.3347,46.7944],
[24.3594,46.8367],
[24.1576,46.8715],
[24.045,46.8686],
[24.0147,46.8339],
[23.909,46.7954],
[23.8348,46.7328],
[23.714,46.7464],
[23.5094,46.7003],
[22.8708,46.8386],
[22.7184,46.8142],
[22.5742,46.8423],
[22.4107,46.999],
[22.2089,47.035],
[22.0667,47.0065],
[22.0599,46.9723],
[21.9905,46.954],
[21.9328,46.9582],
[21.8312,46.9268],
[21.6994,46.7949],
[21.529,46.7323],
[21.5293,46.7207],
[21.5112,46.7118],
[21.4942,46.6867],
[21.473,46.6956],
[21.4512,46.6885],
[21.4301,46.6938],
[21.4381,46.6701],
[21.4557,46.667],
[21.4415,46.6515],
[21.4164,46.6425],
[21.41,46.6218],
[21.3656,46.6378],
[21.3534,46.6304],
[21.33,46.6316],
[21.3141,46.6176],
[21.3012,46.5908],
[21.3208,46.5829],
[21.3035,46.5643],
[21.2897,46.5443],
[21.2743,46.5407],
[21.2605,46.5019],
[21.2743,46.4764],
[21.2964,46.4762],
[21.3025,46.4685],
[21.3178,46.4507],
[21.2897,46.4151],
[21.2962,46.4066],
[21.2253,46.4136],
[21.2164,46.4018],
[21.2064,46.4032],
[21.1966,46.3708],
[21.1995,46.3477],
[21.1762,46.3356],
[21.1731,46.3184],
[21.1805,46.3041],
[21.1516,46.2976],
[21.1455,46.3047],
[21.1226,46.3009],
[21.1155,46.3017],
[21.1032,46.2623],
[21.0711,46.2539],
[21.066,46.2427],
[21.0367,46.2479],
[21.025,46.2665],
[21.0158,46.2632],
[20.9903,46.2595],
[20.9525,46.2648],
[20.9466,46.2792],
[20.9251,46.2763],
[20.9221,46.2619],
[20.8906,46.2714],
[20.8734,46.2874],
[20.8065,46.2763],
[20.7756,46.2759],
[20.7489,46.2507],
[20.7619,46.2045],
[20.7274,46.2074],
[20.7258,46.1965],
[20.7332,46.192],
[20.7251,46.188],
[20.7052,46.1613],
[20.6848,46.1451],
[20.653,46.1482],
[20.6479,46.1339],
[20.6355,46.1266],
[20.5506,46.1764],
[20.5016,46.1901],
[20.4919,46.1808],
[20.4952,46.1709],
[20.4591,46.1429],
[20.4263,46.1452],
[20.3975,46.1574],
[20.3685,46.1528],
[20.3556,46.1697],
[20.3126,46.1502],
[20.3092,46.1565],
[20.2969,46.1522],
[20.2643,46.1264],
[20.2638,46.1181]
]
],
[
[
[28.2008,46.3591],
[28.2088,46.3596],
[28.2011,46.3595],
[28.2008,46.3591]
]
]
]}
}
