{
"type": "Feature",
"properties": {"id":"ohm-r2746467","edge_precision":"unknown","ohm_relation":2746467,"ohm_version":5,"ohm_timestamp":"2026-01-12T15:34:32Z"},
"geometry": {"type": "MultiPolygon", "coordinates": [
[
[
[9.4724,47.065],
[9.4758,47.0518],
[9.5398,47.0651],
[9.5589,47.0484],
[9.6071,47.0608],
[9.6116,47.0794],
[9.6266,47.0915],
[9.6227,47.1081],
[9.635,47.1281],
[9.6247,47.1326],
[9.6258,47.1459],
[9.6053,47.1492],
[9.5794,47.1711],
[9.5646,47.1703],
[9.5849,47.2053],
[9.5518,47.2237],
[9.5672,47.2419],
[9.5307,47.2706],
[9.4858,47.1814],
[9.5117,47.1325],
[9.5193,47.0966],
[9.5135,47.0856],
[9.4724,47.065]
]
]
]}
}
