{
"type": "Feature",
"properties": {"id":"ohm-r2693085","edge_precision":"unknown","ohm_relation":2693085,"ohm_version":290,"ohm_timestamp":"2026-09-22T01:48:20Z"},
"geometry": {"type": "MultiPolygon", "coordinates": [
[
[
[5.8667,51.0516],
[5.878,51.038],
[5.8784,51.0178],
[5.8957,51.011],
[5.9055,51.0022],
[5.9037,50.9872],
[5.8926,50.9803],
[5.897,50.9749],
[5.9552,50.9884],
[5.9673,50.9794],
[5.9893,50.9823],
[6.0265,50.9833],
[6.0052,50.9568],
[6.0169,50.9527],
[6.0182,50.9347],
[6.0509,50.9299],
[6.054,50.9223],
[6.0937,50.9212],
[6.0752,50.893],
[6.0881,50.8723],
[6.0867,50.8702],
[6.086,50.8684],
[6.081,50.8645],
[6.0742,50.8465],
[6.0575,50.851],
[6.0551,50.8572],
[6.0189,50.8463],
[6.0163,50.8339],
[6.0253,50.8277],
[6.025,50.8141],
[6.0241,50.8135],
[6.0036,50.8015],
[5.9855,50.8106],
[5.9749,50.798],
[6.0276,50.7742],
[6.0184,50.7634],
[6.021,50.7543],
[6.0213,50.7535],
[6.0298,50.7498],
[6.0394,50.7424],
[6.0368,50.7201],
[6.0445,50.7284],
[6.0731,50.7209],
[6.1095,50.723],
[6.1108,50.7235],
[6.121,50.7175],
[6.123,50.7072],
[6.1659,50.6622],
[6.1798,50.6625],
[6.166,50.6618],
[6.1845,50.6487],
[6.1937,50.6629],
[6.1948,50.663],
[6.1836,50.6462],
[6.1876,50.6421],
[6.1676,50.6433],
[6.1835,50.6324],
[6.1759,50.6274],
[6.1821,50.6239],
[6.1942,50.6339],
[6.2692,50.625],
[6.2737,50.6299],
[6.2653,50.6423],
[6.245,50.6405],
[6.2378,50.6452],
[6.2454,50.6408],
[6.2651,50.6428],
[6.2741,50.6298],
[6.262,50.6117],
[6.2483,50.6047],
[6.2408,50.5871],
[6.2359,50.5659],
[6.2246,50.5548],
[6.2105,50.5542],
[6.1968,50.5308],
[6.1972,50.5303],
[6.1964,50.5311],
[6.1873,50.5272],
[6.2036,50.522],
[6.2248,50.4948],
[6.2699,50.5047],
[6.3166,50.4964],
[6.3513,50.4882],
[6.3375,50.4747],
[6.3405,50.4621],
[6.3747,50.4519],
[6.3701,50.4095],
[6.3429,50.3804],
[6.3611,50.3711],
[6.3682,50.3581],
[6.3997,50.3448],
[6.4081,50.3357],
[6.4055,50.3233],
[6.3615,50.3148],
[6.3628,50.3055],
[6.3346,50.3163],
[6.3329,50.3235],
[6.3066,50.3202],
[6.3094,50.3116],
[6.2961,50.309],
[6.2979,50.3023],
[6.2859,50.2941],
[6.2909,50.2765],
[6.2769,50.266],
[6.2158,50.257],
[6.1969,50.2378],
[6.1758,50.2355],
[6.1765,50.2258],
[6.1663,50.2202],
[6.179,50.2146],
[6.1889,50.2052],
[6.1858,50.1841],
[6.1926,50.182],
[6.1637,50.1786],
[6.1604,50.1716],
[6.1469,50.1778],
[6.1475,50.1703],
[6.1396,50.1686],
[6.1475,50.1601],
[6.1319,50.1535],
[6.1525,50.15],
[6.154,50.1417],
[6.1378,50.1299],
[6.1377,50.1299],
[6.1278,50.1163],
[6.1356,50.1035],
[6.1254,50.1008],
[6.133,50.0934],
[6.12,50.092],
[6.1158,50.0746],
[6.1291,50.0734],
[6.1123,50.0605],
[6.1167,50.0567],
[6.1239,50.0598],
[6.1214,50.0527],
[6.1342,50.0404],
[6.1301,50.0293],
[6.146,50.0225],
[6.1295,50.0186],
[6.1497,50.0088],
[6.1451,49.9982],
[6.1377,49.9985],
[6.1723,49.9848],
[6.1663,49.9768],
[6.1797,49.9521],
[6.1889,49.9567],
[6.1822,49.9658],
[6.1926,49.9673],
[6.1977,49.9482],
[6.1983,49.9484],
[6.2056,49.9552],
[6.2239,49.9501],
[6.2165,49.9445],
[6.2273,49.9366],
[6.224,49.9277],
[6.218,49.9231],
[6.231,49.9193],
[6.2339,49.9128],
[6.2269,49.9106],
[6.2354,49.8991],
[6.2969,49.8662],
[6.3106,49.8698],
[6.3141,49.8599],
[6.3225,49.8515],
[6.32,49.8399],
[6.3298,49.836],
[6.3411,49.8485],
[6.3636,49.8507],
[6.3845,49.8326],
[6.4296,49.8105],
[6.4519,49.8113],
[6.471,49.8223],
[6.5111,49.8014],
[6.5199,49.8128],
[6.5272,49.8108],
[6.5297,49.8041],
[6.5057,49.7898],
[6.5169,49.7826],
[6.5137,49.7716],
[6.5181,49.7621],
[6.5003,49.7524],
[6.5016,49.7332],
[6.5171,49.7235],
[6.4955,49.7261],
[6.5063,49.7135],
[6.4611,49.6923],
[6.4253,49.6638],
[6.4399,49.6564],
[6.4211,49.6208],
[6.3739,49.59],
[6.3817,49.5777],
[6.3568,49.5722],
[6.3752,49.5615],
[6.3794,49.5514],
[6.3604,49.5367],
[6.3559,49.5297],
[6.3673,49.5015],
[6.3677,49.4694],
[6.3688,49.4692],
[6.4033,49.4659],
[6.4299,49.4764],
[6.4405,49.4668],
[6.4509,49.4659],
[6.4643,49.4662],
[6.4856,49.4518],
[6.5043,49.4479],
[6.5424,49.4311],
[6.5575,49.4194],
[6.5372,49.4098],
[6.5522,49.3942],
[6.5799,49.3856],
[6.5877,49.3834],
[6.5829,49.3684],
[6.6023,49.3671],
[6.5851,49.3533],
[6.5739,49.359],
[6.5636,49.356],
[6.5655,49.3491],
[6.5788,49.3348],
[6.5913,49.3359],
[6.5956,49.3303],
[6.5891,49.3222],
[6.6048,49.3123],
[6.6533,49.2812],
[6.6703,49.2802],
[6.6624,49.2572],
[6.6907,49.2477],
[6.6854,49.2437],
[6.6934,49.2169],
[6.7198,49.2214],
[6.7233,49.219],
[6.7283,49.2108],
[6.7314,49.2063],
[6.7112,49.1883],
[6.7293,49.1694],
[6.7479,49.1661],
[6.7839,49.1682],
[6.8104,49.158],
[6.8342,49.1513],
[6.8472,49.157],
[6.8444,49.1731],
[6.8592,49.175],
[6.8617,49.1819],
[6.8363,49.211],
[6.8585,49.2226],
[6.8925,49.209],
[6.9185,49.2225],
[6.9379,49.2225],
[6.9592,49.2028],
[6.9754,49.2094],
[7.0109,49.1881],
[7.035,49.1914],
[7.0296,49.1767],
[7.0318,49.1586],
[7.0468,49.1369],
[7.0442,49.1207],
[7.0504,49.1138],
[7.0666,49.1143],
[7.072,49.1242],
[7.0902,49.1309],
[7.0826,49.1522],
[7.0982,49.1553],
[7.101,49.1555],
[7.1134,49.1518],
[7.104,49.1384],
[7.1263,49.142],
[7.1354,49.1286],
[7.1594,49.1203],
[7.1641,49.1281],
[7.1854,49.1303],
[7.1984,49.1151],
[7.2056,49.1236],
[7.245,49.13],
[7.2819,49.1246],
[7.2825,49.117],
[7.2935,49.115],
[7.3103,49.1296],
[7.3299,49.1451],
[7.3628,49.1432],
[7.369,49.1617],
[7.3653,49.1721],
[7.4456,49.1843],
[7.4357,49.1801],
[7.4417,49.1724],
[7.4324,49.1659],
[7.494,49.1695],
[7.4949,49.1554],
[7.5059,49.1515],
[7.4889,49.1369],
[7.5153,49.1217],
[7.5289,49.097],
[7.5632,49.0803],
[7.6007,49.0833],
[7.6294,49.0736],
[7.6348,49.0541],
[7.6756,49.045],
[7.6977,49.0497],
[7.696,49.0578],
[7.7216,49.0511],
[7.7319,49.0556],
[7.7319,49.0439],
[7.7572,49.0453],
[7.7838,49.0583],
[7.7945,49.0658],
[7.8183,49.0542],
[7.8677,49.0331],
[7.8888,49.0492],
[7.8952,49.0466],
[7.9107,49.0452],
[7.9232,49.0438],
[7.9318,49.0581],
[7.9458,49.0555],
[7.9496,49.0472],
[7.9666,49.0423],
[7.9746,49.0271],
[8.0313,49.0189],
[8.0545,49.0111],
[8.0684,48.9994],
[8.0685,48.9989],
[8.0686,48.9987],
[8.0919,48.9893],
[8.1327,48.9812],
[8.1621,48.9776],
[8.1632,48.9777],
[8.1658,48.978],
[8.1708,48.9766],
[8.1877,48.9763],
[8.1962,48.9764],
[8.1994,48.9669],
[8.2119,48.9734],
[8.2234,48.9757],
[8.2325,48.9664],
[8.1986,48.9581],
[8.1877,48.9457],
[8.1872,48.945],
[8.1685,48.9243],
[8.1677,48.9236],
[8.1618,48.9184],
[8.1413,48.8959],
[8.1216,48.8653],
[8.1148,48.8511],
[8.1108,48.8425],
[8.1013,48.816],
[8.0864,48.8015],
[8.0836,48.7994],
[8.0641,48.7896],
[8.0386,48.7903],
[8.0268,48.7843],
[8.0171,48.7625],
[7.9831,48.7612],
[7.9689,48.7539],
[7.9677,48.7322],
[7.9593,48.7185],
[7.955,48.715],
[7.9525,48.713],
[7.9411,48.7038],
[7.9247,48.6903],
[7.8983,48.6689],
[7.8958,48.6669],
[7.8443,48.6453],
[7.8361,48.6335],
[7.8314,48.6217],
[7.8179,48.6058],
[7.8067,48.5946],
[7.8002,48.5815],
[7.8042,48.5323],
[7.8061,48.5167],
[7.7969,48.5032],
[7.792,48.5002],
[7.7768,48.495],
[7.7675,48.4882],
[7.7667,48.4641],
[7.7437,48.4178],
[7.7331,48.3957],
[7.734,48.3625],
[7.7368,48.3581],
[7.7458,48.3331],
[7.74,48.3217],
[7.7053,48.3099],
[7.6909,48.2977],
[7.6809,48.2572],
[7.6721,48.2346],
[7.6661,48.2209],
[7.6496,48.2112],
[7.6371,48.1958],
[7.6108,48.1675],
[7.6,48.156],
[7.5974,48.1339],
[7.5774,48.1205],
[7.5772,48.1156],
[7.579,48.1005],
[7.5696,48.0809],
[7.5742,48.0504],
[7.5682,48.0357],
[7.5809,48.0232],
[7.5859,48.0192],
[7.6138,47.9941],
[7.6217,47.9717],
[7.5831,47.9313],
[7.5828,47.8999],
[7.5575,47.8804],
[7.5553,47.8692],
[7.5627,47.8411],
[7.5291,47.7806],
[7.549,47.7345],
[7.5402,47.7185],
[7.5117,47.7001],
[7.5195,47.6735],
[7.5213,47.6628],
[7.5425,47.6458],
[7.5674,47.6323],
[7.5736,47.6167],
[7.591,47.6047],
[7.589,47.5899],
[7.5907,47.5895],
[7.6191,47.5769],
[7.6456,47.597],
[7.6751,47.592],
[7.6933,47.601],
[7.6717,47.5872],
[7.6897,47.5714],
[7.6833,47.5685],
[7.634,47.5612],
[7.6665,47.5369],
[7.695,47.5325],
[7.7135,47.5398],
[7.7728,47.5522],
[7.7887,47.5552],
[7.8101,47.5683],
[7.8191,47.5872],
[7.8438,47.5821],
[7.8724,47.5886],
[7.9057,47.5777],
[7.9077,47.5559],
[7.918,47.5472],
[7.9462,47.5439],
[7.9598,47.5583],
[8.0222,47.5504],
[8.0661,47.5644],
[8.087,47.5574],
[8.0996,47.5634],
[8.1088,47.5822],
[8.1354,47.5836],
[8.1468,47.5951],
[8.1656,47.5945],
[8.2039,47.6211],
[8.219,47.6181],
[8.2238,47.6064],
[8.252,47.6143],
[8.2946,47.608],
[8.2975,47.5893],
[8.3322,47.5705],
[8.3828,47.5658],
[8.3979,47.5772],
[8.4328,47.5666],
[8.4947,47.5811],
[8.4887,47.5878],
[8.4669,47.5842],
[8.4567,47.6023],
[8.4792,47.6152],
[8.5083,47.6175],
[8.5167,47.6341],
[8.5693,47.6172],
[8.5745,47.612],
[8.5616,47.6013],
[8.5666,47.5972],
[8.5826,47.5961],
[8.5957,47.6056],
[8.6053,47.6153],
[8.5961,47.6435],
[8.6079,47.6524],
[8.6138,47.6441],
[8.6034,47.6388],
[8.6148,47.6377],
[8.6283,47.6488],
[8.6145,47.6616],
[8.6067,47.6721],
[8.5776,47.6615],
[8.5608,47.6704],
[8.5399,47.6651],
[8.5416,47.6569],
[8.5269,47.6605],
[8.5318,47.6457],
[8.4924,47.6421],
[8.4764,47.6501],
[8.471,47.6424],
[8.478,47.6398],
[8.4722,47.6386],
[8.4659,47.6573],
[8.4451,47.6539],
[8.4122,47.6663],
[8.4063,47.6762],
[8.4208,47.6839],
[8.4046,47.698],
[8.4171,47.7102],
[8.4549,47.7225],
[8.4498,47.7381],
[8.4562,47.7488],
[8.489,47.7732],
[8.5103,47.7762],
[8.5202,47.7705],
[8.5264,47.778],
[8.5773,47.7817],
[8.5749,47.7896],
[8.562,47.7926],
[8.568,47.8085],
[8.5753,47.7996],
[8.6139,47.8012],
[8.6221,47.7949],
[8.6151,47.784],
[8.6277,47.7594],
[8.6529,47.7734],
[8.6454,47.7872],
[8.6533,47.7999],
[8.6574,47.7917],
[8.681,47.7866],
[8.6886,47.7735],
[8.6836,47.7706],
[8.6928,47.7562],
[8.714,47.7654],
[8.7411,47.752],
[8.7236,47.7457],
[8.7111,47.7301],
[8.7363,47.7163],
[8.7281,47.6927],
[8.796,47.6754],
[8.7971,47.6884],
[8.8101,47.6934],
[8.794,47.7043],
[8.7694,47.7069],
[8.7697,47.7178],
[8.7992,47.7271],
[8.7994,47.7361],
[8.8122,47.7304],
[8.8048,47.7245],
[8.8262,47.7179],
[8.819,47.7128],
[8.8709,47.7047],
[8.8744,47.6943],
[8.8515,47.6976],
[8.8577,47.6927],
[8.8504,47.6818],
[8.8734,47.6702],
[8.8754,47.6547],
[8.8994,47.6478],
[9.0252,47.6864],
[9.1014,47.678],
[9.1261,47.6673],
[9.1505,47.6675],
[9.176,47.654],
[9.2562,47.659],
[9.3682,47.6214],
[9.4451,47.5948],
[9.5028,47.5472],
[9.5147,47.5369],
[9.5319,47.5357],
[9.5507,47.5371],
[9.6611,47.5344],
[9.7308,47.5341],
[9.7472,47.5559],
[9.7481,47.5705],
[9.7552,47.5722],
[9.7762,47.5945],
[9.8023,47.5959],
[9.8201,47.5878],
[9.8238,47.5871],
[9.8249,47.5586],
[9.8151,47.5487],
[9.8745,47.5286],
[9.8801,47.5479],
[9.9066,47.5421],
[9.9206,47.5297],
[9.941,47.5383],
[9.9636,47.5347],
[9.9589,47.5433],
[9.9681,47.5463],
[9.9651,47.5214],
[9.9956,47.5027],
[9.9875,47.4986],
[9.995,47.4863],
[10.0451,47.4875],
[10.0568,47.4656],
[10.0708,47.4558],
[10.0897,47.4603],
[10.0954,47.4519],
[10.0932,47.4416],
[10.1038,47.4288],
[10.0945,47.4171],
[10.0686,47.4095],
[10.0861,47.399],
[10.0998,47.3548],
[10.1192,47.3756],
[10.1657,47.3688],
[10.1692,47.3858],
[10.1818,47.3924],
[10.2126,47.3804],
[10.2276,47.3886],
[10.2369,47.3735],
[10.1995,47.3265],
[10.2163,47.3122],
[10.2025,47.2995],
[10.1805,47.2953],
[10.1721,47.2791],
[10.1782,47.27],
[10.2015,47.2768],
[10.2319,47.2707],
[10.3144,47.3063],
[10.3304,47.3048],
[10.3487,47.3174],
[10.3568,47.337],
[10.3863,47.3572],
[10.3892,47.3704],
[10.4195,47.3848],
[10.4368,47.3804],
[10.4291,47.3912],
[10.4356,47.4103],
[10.4759,47.4327],
[10.4659,47.453],
[10.4678,47.4769],
[10.442,47.4858],
[10.4315,47.5028],
[10.4544,47.5558],
[10.4885,47.5403],
[10.5628,47.536],
[10.5733,47.534],
[10.5807,47.5561],
[10.5972,47.5695],
[10.6783,47.5562],
[10.6912,47.5588],
[10.69,47.5553],
[10.6948,47.5447],
[10.7577,47.5345],
[10.7627,47.5214],
[10.7752,47.5158],
[10.8865,47.5368],
[10.9055,47.5178],
[10.9182,47.5178],
[10.8711,47.4992],
[10.8696,47.4837],
[10.9383,47.4801],
[10.9278,47.4719],
[10.9834,47.4306],
[10.9846,47.4207],
[10.9723,47.4176],
[10.9693,47.4004],
[10.9832,47.3965],
[11.1192,47.397],
[11.1279,47.4121],
[11.2067,47.4337],
[11.2534,47.4279],
[11.2234,47.3958],
[11.2728,47.3979],
[11.2893,47.4103],
[11.2919,47.427],
[11.3327,47.4383],
[11.3381,47.4511],
[11.4206,47.4452],
[11.4088,47.4662],
[11.3849,47.4741],
[11.4122,47.4959],
[11.4436,47.5177],
[11.4508,47.5066],
[11.5739,47.5142],
[11.5873,47.5253],
[11.5877,47.5561],
[11.6062,47.5819],
[11.6326,47.5806],
[11.6373,47.5941],
[11.6562,47.5852],
[11.7751,47.5904],
[11.8474,47.5824],
[11.855,47.6023],
[11.8943,47.6087],
[11.9334,47.6127],
[12.0093,47.6242],
[12.0285,47.6111],
[12.0607,47.6188],
[12.1298,47.6056],
[12.1791,47.6144],
[12.1781,47.6009],
[12.202,47.6062],
[12.2083,47.6129],
[12.2018,47.633],
[12.1993,47.6398],
[12.1983,47.6421],
[12.1867,47.6574],
[12.1647,47.6901],
[12.1624,47.7012],
[12.1839,47.7007],
[12.2271,47.718],
[12.2571,47.7427],
[12.2649,47.7332],
[12.2417,47.6942],
[12.2549,47.6802],
[12.3375,47.6971],
[12.3385,47.6907],
[12.3639,47.6841],
[12.4396,47.6952],
[12.4391,47.6765],
[12.4994,47.6251],
[12.5363,47.6361],
[12.5751,47.6325],
[12.6058,47.6739],
[12.6538,47.6723],
[12.6621,47.6795],
[12.6947,47.6818],
[12.7356,47.6786],
[12.7596,47.6638],
[12.7843,47.672],
[12.7592,47.6537],
[12.7798,47.6337],
[12.8248,47.6116],
[12.7919,47.5983],
[12.7812,47.5735],
[12.7975,47.5539],
[12.8197,47.5454],
[12.847,47.5463],
[12.8506,47.5322],
[12.884,47.5206],
[12.9208,47.4934],
[12.9687,47.4742],
[12.9745,47.4841],
[12.9948,47.478],
[12.9948,47.4708],
[13.0094,47.465],
[13.0298,47.487],
[13.0475,47.4922],
[13.0452,47.5255],
[13.0315,47.5369],
[13.0578,47.561],
[13.0415,47.5763],
[13.0432,47.5835],
[13.07,47.5861],
[13.0636,47.6035],
[13.0964,47.6295],
[13.0981,47.6423],
[13.0737,47.6917],
[13.018,47.723],
[13.0057,47.7168],
[12.9868,47.7073],
[12.9252,47.7103],
[12.9135,47.7172],
[12.9044,47.7273],
[12.9362,47.7491],
[12.9352,47.758],
[12.9449,47.7644],
[12.9424,47.7709],
[12.9278,47.7699],
[12.9999,47.8399],
[13.0014,47.8543],
[12.9427,47.9284],
[12.9391,47.9423],
[12.9229,47.9395],
[12.9164,47.9553],
[12.8757,47.963],
[12.8605,47.997],
[12.8458,48.0206],
[12.7606,48.0767],
[12.7517,48.0887],
[12.7512,48.1131],
[12.7588,48.1271],
[12.7864,48.1232],
[12.802,48.1485],
[12.8273,48.1522],
[12.8725,48.2018],
[12.9363,48.2077],
[12.9569,48.2096],
[13.0167,48.2555],
[13.0808,48.2777],
[13.124,48.2774],
[13.2036,48.2955],
[13.2554,48.2937],
[13.3199,48.3186],
[13.3763,48.3573],
[13.4179,48.3834],
[13.4218,48.4069],
[13.4392,48.4308],
[13.428,48.4579],
[13.4474,48.4944],
[13.4572,48.5115],
[13.437,48.5564],
[13.45,48.5639],
[13.4639,48.554],
[13.4754,48.5562],
[13.4746,48.5623],
[13.5041,48.5724],
[13.5017,48.5809],
[13.5093,48.5907],
[13.5242,48.5886],
[13.5621,48.5644],
[13.5799,48.5595],
[13.6012,48.5689],
[13.6573,48.5443],
[13.6626,48.5349],
[13.7165,48.5155],
[13.7271,48.513],
[13.7331,48.525],
[13.7478,48.5294],
[13.7436,48.5441],
[13.7548,48.5512],
[13.7467,48.5524],
[13.7549,48.5643],
[13.7683,48.5535],
[13.8021,48.5744],
[13.8023,48.5948],
[13.8244,48.6184],
[13.8263,48.6304],
[13.8143,48.6504],
[13.8191,48.6721],
[13.8134,48.6923],
[13.8334,48.6919],
[13.8374,48.7005],
[13.8141,48.7009],
[13.796,48.7135],
[13.8201,48.7325],
[13.8213,48.7548],
[13.8396,48.7716],
[13.807,48.7794],
[13.8044,48.7808],
[13.8036,48.7809],
[13.8043,48.7813],
[13.8097,48.7857],
[13.8147,48.7977],
[13.796,48.8198],
[13.7879,48.8253],
[13.793,48.8298],
[13.765,48.8339],
[13.7509,48.8658],
[13.7398,48.878],
[13.7306,48.8871],
[13.7241,48.8811],
[13.7058,48.8806],
[13.6905,48.8785],
[13.6805,48.8788],
[13.6543,48.8956],
[13.6453,48.9112],
[13.6379,48.921],
[13.6225,48.9388],
[13.626,48.9437],
[13.6311,48.947],
[13.6099,48.9445],
[13.6102,48.9386],
[13.5903,48.953],
[13.5885,48.9653],
[13.5509,48.9676],
[13.5481,48.9669],
[13.5337,48.974],
[13.5071,48.9691],
[13.508,48.9483],
[13.5083,48.9421],
[13.4899,48.9447],
[13.4639,48.9582],
[13.4614,48.9605],
[13.4328,48.9719],
[13.4171,48.9797],
[13.4027,48.9872],
[13.4058,48.9988],
[13.4066,48.9998],
[13.4086,49.0073],
[13.4004,49.0164],
[13.4058,49.0238],
[13.3996,49.0362],
[13.3917,49.0422],
[13.3974,49.0507],
[13.3762,49.0583],
[13.3266,49.0968],
[13.3127,49.1045],
[13.2863,49.1194],
[13.2792,49.1205],
[13.2712,49.1196],
[13.248,49.1158],
[13.2359,49.1138],
[13.2135,49.1206],
[13.2057,49.1222],
[13.1703,49.144],
[13.1769,49.1642],
[13.1709,49.1736],
[13.1469,49.1845],
[13.1099,49.2031],
[13.1142,49.2183],
[13.094,49.225],
[13.086,49.2294],
[13.0873,49.2388],
[13.081,49.2473],
[13.0604,49.2502],
[13.0562,49.2633],
[13.0473,49.2636],
[13.0431,49.265],
[13.0426,49.2649],
[13.034,49.2639],
[13.029,49.2852],
[13.0291,49.3043],
[13.0077,49.3062],
[13.0013,49.314],
[12.9886,49.3238],
[12.9672,49.3358],
[12.9359,49.3427],
[12.9193,49.3434],
[12.9137,49.345],
[12.9028,49.3491],
[12.88,49.3504],
[12.8877,49.3348],
[12.8435,49.3451],
[12.8372,49.3407],
[12.7858,49.3455],
[12.7787,49.3482],
[12.7813,49.3604],
[12.7581,49.3752],
[12.7577,49.3948],
[12.733,49.4099],
[12.7044,49.425],
[12.6556,49.4348],
[12.6572,49.4448],
[12.6485,49.4683],
[12.6337,49.4761],
[12.644,49.4842],
[12.6409,49.4978],
[12.6427,49.5188],
[12.6442,49.523],
[12.6414,49.5269],
[12.6145,49.5284],
[12.5885,49.5385],
[12.5939,49.5422],
[12.5879,49.5458],
[12.5879,49.5465],
[12.5808,49.5542],
[12.5708,49.5694],
[12.5767,49.5863],
[12.5641,49.5968],
[12.5622,49.6091],
[12.5607,49.6196],
[12.5281,49.6181],
[12.5343,49.6261],
[12.5235,49.6283],
[12.5285,49.6399],
[12.5176,49.6437],
[12.5236,49.6574],
[12.53,49.6663],
[12.5217,49.6867],
[12.515,49.6878],
[12.4851,49.6879],
[12.4607,49.7006],
[12.4401,49.7058],
[12.435,49.7131],
[12.4329,49.717],
[12.4277,49.7261],
[12.4275,49.7265],
[12.4125,49.7359],
[12.4044,49.745],
[12.4015,49.7586],
[12.4041,49.7624],
[12.4742,49.7889],
[12.4654,49.7951],
[12.4707,49.8002],
[12.4655,49.8118],
[12.4734,49.8151],
[12.4775,49.8377],
[12.486,49.8418],
[12.498,49.8376],
[12.4979,49.8569],
[12.5158,49.8647],
[12.5216,49.8817],
[12.5399,49.8912],
[12.5483,49.8992],
[12.5507,49.9053],
[12.5446,49.9225],
[12.5362,49.9249],
[12.4943,49.9368],
[12.4783,49.9355],
[12.47,49.9483],
[12.4906,49.9586],
[12.4937,49.9688],
[12.4996,49.972],
[12.4701,49.9908],
[12.4546,49.9936],
[12.4315,49.9844],
[12.4257,49.991],
[12.4357,49.9943],
[12.4316,50.0025],
[12.4241,50.0005],
[12.4232,50.0008],
[12.4017,50.0052],
[12.4022,50.0146],
[12.3764,50.0192],
[12.3623,50.0247],
[12.3574,50.0256],
[12.3379,50.0397],
[12.3252,50.0332],
[12.3181,50.053],
[12.2979,50.0584],
[12.2667,50.0605],
[12.261,50.0585],
[12.2754,50.0765],
[12.27,50.0778],
[12.2642,50.0807],
[12.2464,50.0922],
[12.2476,50.0961],
[12.2461,50.0975],
[12.2404,50.0962],
[12.2336,50.0941],
[12.2292,50.1005],
[12.1999,50.1105],
[12.1965,50.1273],
[12.1952,50.1432],
[12.2034,50.1459],
[12.2001,50.1515],
[12.216,50.1682],
[12.2086,50.1715],
[12.2012,50.1886],
[12.1889,50.1955],
[12.1975,50.1979],
[12.1827,50.1992],
[12.1754,50.2128],
[12.1597,50.2112],
[12.1603,50.2198],
[12.1585,50.2265],
[12.1456,50.2299],
[12.1518,50.2343],
[12.1466,50.2356],
[12.1405,50.2304],
[12.1144,50.237],
[12.0906,50.2524],
[12.1023,50.2555],
[12.0976,50.2623],
[12.1279,50.2702],
[12.1401,50.2778],
[12.127,50.2883],
[12.1193,50.2989],
[12.126,50.3072],
[12.101,50.3182],
[12.1051,50.3218],
[12.123,50.3158],
[12.1301,50.3185],
[12.1309,50.319],
[12.1632,50.3215],
[12.1761,50.3227],
[12.2009,50.3091],
[12.1963,50.2955],
[12.1977,50.2915],
[12.2002,50.2742],
[12.2364,50.2692],
[12.2538,50.271],
[12.2662,50.2589],
[12.2659,50.2502],
[12.2469,50.2572],
[12.2479,50.2564],
[12.2416,50.2508],
[12.2395,50.2475],
[12.2551,50.2367],
[12.257,50.2362],
[12.2641,50.2334],
[12.2939,50.221],
[12.2825,50.208],
[12.2851,50.2088],
[12.288,50.2031],
[12.2777,50.1995],
[12.2922,50.1762],
[12.2957,50.1747],
[12.335,50.172],
[12.3375,50.1729],
[12.3235,50.182],
[12.3383,50.1926],
[12.3365,50.1942],
[12.3233,50.2073],
[12.3267,50.2185],
[12.3345,50.217],
[12.3313,50.2424],
[12.3512,50.237],
[12.3566,50.2453],
[12.3505,50.2536],
[12.3613,50.2708],
[12.3617,50.2762],
[12.3689,50.2813],
[12.3756,50.2864],
[12.3824,50.289],
[12.4005,50.2949],
[12.4006,50.2976],
[12.4007,50.3187],
[12.398,50.3209],
[12.431,50.3227],
[12.4353,50.3331],
[12.4368,50.3348],
[12.4621,50.3525],
[12.4807,50.3472],
[12.4842,50.3472],
[12.4926,50.3559],
[12.4864,50.3708],
[12.5143,50.3971],
[12.5166,50.3974],
[12.5602,50.3999],
[12.5853,50.3977],
[12.5836,50.407],
[12.6156,50.4141],
[12.6168,50.4158],
[12.637,50.413],
[12.6382,50.4123],
[12.667,50.4143],
[12.7072,50.3973],
[12.7079,50.4084],
[12.7345,50.4323],
[12.7536,50.4376],
[12.7949,50.4494],
[12.7969,50.4467],
[12.8025,50.4394],
[12.8105,50.4309],
[12.8067,50.4433],
[12.819,50.4603],
[12.8932,50.4302],
[12.9159,50.4215],
[12.9192,50.42],
[12.9361,50.407],
[12.9405,50.4052],
[12.9482,50.4047],
[12.9415,50.411],
[12.9766,50.4177],
[12.9936,50.4305],
[13.0162,50.4437],
[13.0224,50.4516],
[13.0234,50.4545],
[13.0184,50.467],
[13.031,50.5089],
[13.0443,50.5106],
[13.0516,50.506],
[13.0592,50.5011],
[13.0997,50.5026],
[13.1325,50.5186],
[13.1367,50.5064],
[13.1758,50.5038],
[13.1862,50.5038],
[13.1937,50.5032],
[13.1951,50.5161],
[13.2183,50.5378],
[13.2268,50.5481],
[13.2226,50.5627],
[13.2363,50.5713],
[13.2331,50.5791],
[13.2523,50.5948],
[13.2787,50.593],
[13.2847,50.5841],
[13.2911,50.5749],
[13.3096,50.5789],
[13.3251,50.5827],
[13.3193,50.6019],
[13.3279,50.6083],
[13.3415,50.6126],
[13.3642,50.618],
[13.3778,50.6283],
[13.3711,50.6508],
[13.392,50.6465],
[13.4136,50.6205],
[13.4206,50.616],
[13.4625,50.6018],
[13.4785,50.6157],
[13.502,50.6337],
[13.5182,50.637],
[13.5234,50.6442],
[13.5259,50.6494],
[13.5139,50.6555],
[13.5406,50.6695],
[13.5405,50.6897],
[13.5252,50.7044],
[13.5397,50.7079],
[13.5437,50.7103],
[13.5867,50.713],
[13.6019,50.71],
[13.627,50.7159],
[13.6249,50.723],
[13.6517,50.7303],
[13.6605,50.7312],
[13.6651,50.7322],
[13.7076,50.7169],
[13.7124,50.7199],
[13.7083,50.7254],
[13.7281,50.7337],
[13.7468,50.7283],
[13.7583,50.7358],
[13.7862,50.7337],
[13.8256,50.7245],
[13.8575,50.7282],
[13.862,50.7428],
[13.8735,50.7401],
[13.8842,50.739],
[13.9028,50.753],
[13.8873,50.7702],
[13.9003,50.7848],
[13.8965,50.7892],
[13.9203,50.7897],
[13.9209,50.7893],
[13.9273,50.7886],
[13.9431,50.7916],
[13.9561,50.8006],
[13.9544,50.8076],
[13.9825,50.8152],
[13.9908,50.82],
[14.0035,50.8102],
[14.0312,50.8042],
[14.0396,50.8103],
[14.0444,50.8102],
[14.0491,50.8104],
[14.0785,50.8125],
[14.087,50.8251],
[14.115,50.8308],
[14.1294,50.8341],
[14.1493,50.8423],
[14.182,50.8491],
[14.2235,50.8591],
[14.227,50.8632],
[14.2362,50.8769],
[14.2334,50.8876],
[14.2344,50.8879],
[14.2452,50.8866],
[14.2674,50.8953],
[14.2893,50.886],
[14.3125,50.887],
[14.3269,50.8895],
[14.3491,50.8927],
[14.3488,50.9006],
[14.3566,50.8981],
[14.3571,50.8987],
[14.3599,50.8986],
[14.3883,50.9003],
[14.3891,50.9175],
[14.3947,50.919],
[14.4021,50.9239],
[14.4017,50.9241],
[14.397,50.9362],
[14.397,50.9364],
[14.3734,50.9383],
[14.3608,50.9414],
[14.3106,50.9549],
[14.3173,50.9581],
[14.3026,50.9653],
[14.3281,50.9731],
[14.3297,50.9822],
[14.3235,50.9854],
[14.3187,50.9854],
[14.318,50.9853],
[14.3091,50.9834],
[14.2925,50.9784],
[14.2586,50.9885],
[14.2611,50.9937],
[14.2687,51],
[14.2605,51.0088],
[14.282,51.0156],
[14.286,51.031],
[14.2738,51.0396],
[14.2883,51.0391],
[14.3017,51.055],
[14.3179,51.0547],
[14.3451,51.039],
[14.362,51.0453],
[14.374,51.0386],
[14.3827,51.0385],
[14.3918,51.0238],
[14.4052,51.0209],
[14.4178,51.0191],
[14.429,51.0228],
[14.4318,51.0234],
[14.4538,51.0359],
[14.4746,51.0265],
[14.4765,51.0251],
[14.4927,51.0234],
[14.4908,51.0436],
[14.4965,51.0446],
[14.497,51.0449],
[14.4988,51.0464],
[14.5004,51.0465],
[14.5014,51.0461],
[14.505,51.0444],
[14.4986,51.0221],
[14.5095,51.0207],
[14.5325,51.0163],
[14.5398,51.0104],
[14.5348,51.0037],
[14.557,51.0072],
[14.56,51.0072],
[14.5881,50.9904],
[14.5991,50.9872],
[14.5982,50.9765],
[14.5922,50.9667],
[14.5962,50.9627],
[14.5605,50.9251],
[14.5819,50.9135],
[14.6035,50.9212],
[14.6043,50.9211],
[14.6473,50.9316],
[14.6519,50.9267],
[14.6503,50.9047],
[14.65,50.9047],
[14.6448,50.9027],
[14.6443,50.9024],
[14.6337,50.8873],
[14.6306,50.8816],
[14.6299,50.8809],
[14.6189,50.8578],
[14.6579,50.8495],
[14.6648,50.8492],
[14.6795,50.8432],
[14.7116,50.8382],
[14.7223,50.8221],
[14.7447,50.8295],
[14.7499,50.8243],
[14.7905,50.824],
[14.7929,50.82],
[14.8056,50.8398],
[14.8212,50.8593],
[14.8214,50.8595],
[14.8215,50.8603],
[14.8214,50.8632],
[14.8234,50.8706],
[14.8455,50.8698],
[14.8493,50.8696],
[14.8557,50.8689],
[14.8572,50.8692],
[14.8579,50.8695],
[14.8593,50.8698],
[14.8601,50.8697],
[14.8603,50.8697],
[14.8614,50.8697],
[14.8658,50.8751],
[14.8661,50.8758],
[14.873,50.8772],
[14.8973,50.8674],
[14.9002,50.876],
[14.9139,50.8739],
[14.9356,50.8696],
[14.9605,50.862],
[14.9943,50.8694],
[15.0019,50.8688],
[15.0012,50.8766],
[15.001,50.8768],
[14.9942,50.8916],
[14.9948,50.8928],
[15.0068,50.9072],
[14.9982,50.9077],
[14.983,50.9235],
[14.9938,50.9256],
[15.0032,50.9304],
[15.0143,50.9398],
[15.0108,50.9629],
[15.0197,50.9666],
[15.0215,50.9667],
[15.0174,50.9706],
[15.0059,50.9866],
[15.0056,50.9863],
[15.0046,50.9859],
[14.9991,50.9836],
[14.9943,50.9822],
[14.9927,50.9816],
[14.9905,50.9798],
[14.99,50.979],
[14.9683,50.9902],
[14.9723,50.9946],
[14.9746,50.9969],
[14.9853,51.011],
[15.0018,51.0115],
[15.0159,51.0204],
[15.017,51.0221],
[15.0185,51.0312],
[15.02,51.0231],
[15.0274,51.0231],
[15.0336,51.0146],
[15.0579,51.0135],
[15.0576,51.0218],
[15.0683,51.0197],
[15.0804,51.0137],
[15.0993,51.0129],
[15.1074,51.0083],
[15.0987,51.0044],
[15.0978,51.0004],
[15.0995,50.997],
[15.1027,50.9931],
[15.111,50.9918],
[15.1123,50.9921],
[15.1421,50.9914],
[15.1331,50.9939],
[15.142,51.0104],
[15.1427,51.0112],
[15.1682,51.0185],
[15.1719,51.02],
[15.1736,51.0148],
[15.1772,50.9933],
[15.1713,50.9865],
[15.1771,50.9851],
[15.1995,50.9835],
[15.1976,50.9893],
[15.2195,50.9956],
[15.2226,50.9957],
[15.2419,50.9974],
[15.2393,50.986],
[15.2485,50.9797],
[15.2762,50.9749],
[15.2739,50.9629],
[15.2922,50.953],
[15.2901,50.9485],
[15.2856,50.9448],
[15.2714,50.9365],
[15.2708,50.9363],
[15.267,50.921],
[15.277,50.8946],
[15.2776,50.8937],
[15.3103,50.8615],
[15.3147,50.8599],
[15.3536,50.8515],
[15.3669,50.8382],
[15.3682,50.836],
[15.3761,50.8212],
[15.3704,50.8155],
[15.3699,50.7811],
[15.3914,50.7605],
[15.3964,50.7618],
[15.3958,50.7777],
[15.4254,50.8063],
[15.4405,50.8156],
[15.4502,50.8071],
[15.4589,50.8017],
[15.4996,50.7889],
[15.511,50.7908],
[15.5243,50.777],
[15.5353,50.7794],
[15.5779,50.7787],
[15.5788,50.779],
[15.5843,50.7787],
[15.62,50.7678],
[15.6317,50.7632],
[15.6355,50.7624],
[15.6401,50.7612],
[15.6669,50.7571],
[15.6803,50.7547],
[15.6977,50.7392],
[15.7115,50.7369],
[15.7403,50.7363],
[15.8083,50.7544],
[15.8207,50.749],
[15.8231,50.7472],
[15.8243,50.7465],
[15.8319,50.7427],
[15.8318,50.7325],
[15.8346,50.7203],
[15.8373,50.7185],
[15.8533,50.7004],
[15.8586,50.692],
[15.8609,50.6749],
[15.861,50.6744],
[15.8753,50.6718],
[15.884,50.6712],
[15.9005,50.6783],
[15.9089,50.6806],
[15.9097,50.6811],
[15.9195,50.6846],
[15.9461,50.6887],
[15.9582,50.6915],
[15.9672,50.6917],
[15.9909,50.6834],
[16.0005,50.6647],
[16.003,50.6594],
[16.0027,50.6469],
[16.007,50.6367],
[16.0218,50.6302],
[15.9874,50.6158],
[15.9864,50.6148],
[15.9914,50.6102],
[16.0131,50.6063],
[16.025,50.5987],
[16.0426,50.6142],
[16.0561,50.6097],
[16.0709,50.6405],
[16.0854,50.6476],
[16.1073,50.6621],
[16.14,50.651],
[16.1471,50.6531],
[16.1709,50.645],
[16.1799,50.6317],
[16.1791,50.6287],
[16.2172,50.6332],
[16.2209,50.6399],
[16.2213,50.6439],
[16.2357,50.6717],
[16.2687,50.6673],
[16.2721,50.6675],
[16.2788,50.6682],
[16.2828,50.6607],
[16.2992,50.6608],
[16.3222,50.6666],
[16.3431,50.6615],
[16.3561,50.6467],
[16.3708,50.6396],
[16.3779,50.6369],
[16.3836,50.628],
[16.3949,50.6187],
[16.4033,50.6179],
[16.4236,50.6057],
[16.4449,50.5796],
[16.4492,50.5731],
[16.4236,50.5702],
[16.4175,50.5685],
[16.4047,50.5693],
[16.4062,50.563],
[16.411,50.548],
[16.4003,50.5452],
[16.3875,50.5426],
[16.3943,50.5375],
[16.3982,50.5345],
[16.4001,50.528],
[16.3743,50.5166],
[16.368,50.5088],
[16.3516,50.498],
[16.3207,50.5076],
[16.3162,50.5073],
[16.2907,50.5043],
[16.3112,50.4979],
[16.3007,50.4914],
[16.2941,50.4792],
[16.2878,50.4809],
[16.2866,50.4807],
[16.2712,50.4847],
[16.2746,50.4766],
[16.2676,50.4765],
[16.2597,50.4801],
[16.2492,50.474],
[16.2557,50.4677],
[16.2503,50.466],
[16.2458,50.4646],
[16.2318,50.4662],
[16.2363,50.4608],
[16.2242,50.4562],
[16.2241,50.4549],
[16.2267,50.4554],
[16.2334,50.4471],
[16.2318,50.4435],
[16.224,50.4421],
[16.2216,50.4503],
[16.2109,50.4501],
[16.2049,50.4485],
[16.2014,50.4444],
[16.1933,50.4345],
[16.1941,50.4322],
[16.1961,50.4304],
[16.214,50.4233],
[16.2114,50.4137],
[16.2109,50.4123],
[16.2145,50.4091],
[16.2166,50.4034],
[16.2218,50.4069],
[16.2371,50.4141],
[16.2538,50.4034],
[16.2504,50.3937],
[16.2667,50.388],
[16.2663,50.381],
[16.2817,50.367],
[16.2965,50.3769],
[16.3068,50.3828],
[16.329,50.3807],
[16.361,50.3792],
[16.3639,50.3758],
[16.3641,50.372],
[16.3621,50.3498],
[16.373,50.3433],
[16.3855,50.3272],
[16.3899,50.324],
[16.3907,50.3234],
[16.3993,50.3192],
[16.4071,50.3217],
[16.4126,50.3245],
[16.4365,50.321],
[16.4382,50.3162],
[16.4492,50.3046],
[16.4543,50.3025],
[16.4548,50.3018],
[16.4552,50.3013],
[16.4604,50.2979],
[16.4652,50.2937],
[16.4663,50.2875],
[16.475,50.2808],
[16.4974,50.2599],
[16.5035,50.2609],
[16.5128,50.2475],
[16.5158,50.2451],
[16.528,50.2379],
[16.5374,50.239],
[16.5496,50.2277],
[16.549,50.227],
[16.5611,50.2061],
[16.5563,50.2026],
[16.5572,50.1925],
[16.5624,50.1777],
[16.5614,50.1636],
[16.5814,50.1541],
[16.5802,50.1424],
[16.5999,50.1372],
[16.6119,50.1324],
[16.6265,50.1193],
[16.6499,50.1103],
[16.664,50.1064],
[16.6933,50.0982],
[16.706,50.0966],
[16.7243,50.1079],
[16.7286,50.1149],
[16.7287,50.1161],
[16.7446,50.1336],
[16.7506,50.1354],
[16.7584,50.1358],
[16.7757,50.1427],
[16.7835,50.1466],
[16.7994,50.1774],
[16.8129,50.1914],
[16.8228,50.1887],
[16.8352,50.2024],
[16.8376,50.2034],
[16.8451,50.2066],
[16.8628,50.1982],
[16.8819,50.1996],
[16.8875,50.2156],
[16.9135,50.2254],
[16.9562,50.2225],
[16.9659,50.2298],
[16.9629,50.2388],
[16.9765,50.2449],
[16.9959,50.2182],
[17.0148,50.2194],
[17.0283,50.23],
[17.0032,50.2574],
[17.0173,50.2685],
[17.014,50.2889],
[17.0126,50.2905],
[16.9972,50.3022],
[16.9717,50.3102],
[16.9642,50.315],
[16.9512,50.3133],
[16.9393,50.3221],
[16.9375,50.3422],
[16.9281,50.3481],
[16.9193,50.3602],
[16.9151,50.3825],
[16.9149,50.3826],
[16.9082,50.391],
[16.899,50.3896],
[16.8856,50.3984],
[16.871,50.4037],
[16.8603,50.4077],
[16.8761,50.4287],
[16.8811,50.4424],
[16.8866,50.4442],
[16.896,50.4456],
[16.9004,50.4489],
[16.9027,50.4482],
[16.9079,50.4494],
[16.9206,50.4419],
[16.9362,50.436],
[16.935,50.4428],
[16.9396,50.4353],
[16.9511,50.4316],
[16.9741,50.4177],
[16.9983,50.4277],
[17.0137,50.4186],
[17.0243,50.4215],
[17.0383,50.4143],
[17.0374,50.4057],
[17.0526,50.4137],
[17.0533,50.4069],
[17.0539,50.4069],
[17.1107,50.405],
[17.1111,50.3937],
[17.1235,50.3941],
[17.1434,50.3804],
[17.148,50.381],
[17.1625,50.3837],
[17.1795,50.3862],
[17.1912,50.3889],
[17.1968,50.3878],
[17.1995,50.3873],
[17.1997,50.3873],
[17.1995,50.3766],
[17.1879,50.3715],
[17.2011,50.364],
[17.213,50.3575],
[17.2131,50.3563],
[17.2177,50.3515],
[17.2323,50.3418],
[17.2898,50.3175],
[17.3487,50.3283],
[17.3521,50.3225],
[17.3223,50.3151],
[17.3375,50.3131],
[17.3537,50.308],
[17.3482,50.2874],
[17.3377,50.2835],
[17.3484,50.2648],
[17.3617,50.2642],
[17.3631,50.2586],
[17.3656,50.2583],
[17.363,50.265],
[17.3661,50.2821],
[17.3891,50.2827],
[17.4181,50.2919],
[17.4129,50.2817],
[17.4106,50.2823],
[17.4025,50.2794],
[17.4014,50.2791],
[17.4069,50.2739],
[17.4207,50.2774],
[17.4297,50.2542],
[17.4492,50.2552],
[17.4571,50.2598],
[17.4559,50.2695],
[17.4766,50.2709],
[17.549,50.27],
[17.5601,50.2712],
[17.5634,50.2704],
[17.5919,50.279],
[17.6055,50.2671],
[17.6175,50.267],
[17.6346,50.2728],
[17.6416,50.2761],
[17.6471,50.2768],
[17.6689,50.2912],
[17.6948,50.3025],
[17.6871,50.3058],
[17.6869,50.328],
[17.6926,50.327],
[17.719,50.3203],
[17.7289,50.3033],
[17.7318,50.303],
[17.7516,50.2995],
[17.7431,50.2911],
[17.7259,50.2729],
[17.7256,50.2625],
[17.7377,50.2492],
[17.7424,50.2442],
[17.7651,50.2364],
[17.7574,50.2236],
[17.7585,50.2066],
[17.7242,50.2066],
[17.7203,50.2084],
[17.7175,50.2057],
[17.7048,50.185],
[17.6906,50.1835],
[17.6371,50.1741],
[17.6197,50.1712],
[17.6012,50.1696],
[17.5927,50.16],
[17.6089,50.1444],
[17.6266,50.1348],
[17.6404,50.1307],
[17.6483,50.1164],
[17.6766,50.103],
[17.6833,50.1173],
[17.6967,50.117],
[17.7039,50.1072],
[17.7465,50.1022],
[17.7309,50.0972],
[17.7298,50.0899],
[17.7591,50.0651],
[17.7569,50.0609],
[17.7731,50.042],
[17.7753,50.0343],
[17.7713,50.0258],
[17.777,50.0214],
[17.795,50.0145],
[17.8034,50.0131],
[17.8118,49.9989],
[17.8264,49.994],
[17.8562,49.9803],
[17.8687,49.9726],
[17.8895,49.9801],
[17.9228,49.9788],
[17.9657,50.0083],
[17.9833,50.0051],
[18.0047,50.0184],
[18.0075,50.0108],
[18.0371,50.0086],
[18.0455,50.0051],
[18.0409,50.0136],
[18.0463,50.0159],
[18.0434,50.0368],
[18.0088,50.0313],
[18.0051,50.0535],
[18.0208,50.0609],
[18.035,50.0658],
[18.0617,50.0592],
[18.0638,50.0527],
[18.0676,50.0531],
[18.0662,50.0481],
[18.0893,50.0441],
[18.0852,50.0332],
[18.0957,50.0267],
[18.1031,50.0226],
[18.0933,50.015],
[18.1061,50.0001],
[18.117,49.9941],
[18.1313,49.998],
[18.1539,49.9823],
[18.169,49.9865],
[18.1679,49.9985],
[18.183,50.0004],
[18.2066,49.9979],
[18.2138,49.9861],
[18.2143,49.972],
[18.2275,49.9696],
[18.2542,49.9689],
[18.2596,49.967],
[18.2774,49.964],
[18.2812,49.9526],
[18.2792,49.9402],
[18.299,49.9287],
[18.3217,49.9159],
[18.3296,49.9281],
[18.3361,49.9262],
[18.3482,49.9297],
[18.3341,49.9302],
[18.3301,49.9324],
[18.331,49.9333],
[18.3394,49.9351],
[18.3485,49.9338],
[18.335,49.9373],
[18.3335,49.9463],
[18.3329,49.9494],
[18.3311,49.9512],
[18.2785,50.0005],
[18.2787,50.0146],
[18.2389,50.0452],
[18.2387,50.0532],
[18.2551,50.0625],
[18.2452,50.0691],
[18.2524,50.0761],
[18.2472,50.08],
[18.2577,50.0855],
[18.2963,50.1006],
[18.2989,50.1131],
[18.2842,50.122],
[18.2902,50.1304],
[18.3123,50.1272],
[18.3207,50.1382],
[18.3513,50.1448],
[18.3995,50.1369],
[18.4097,50.1401],
[18.4087,50.1549],
[18.4455,50.1561],
[18.4963,50.144],
[18.5195,50.1534],
[18.5099,50.1748],
[18.5455,50.1857],
[18.597,50.2146],
[18.6264,50.1989],
[18.6325,50.2084],
[18.626,50.2133],
[18.6431,50.2163],
[18.6438,50.2308],
[18.6663,50.2329],
[18.6783,50.2335],
[18.6852,50.2274],
[18.7041,50.2277],
[18.706,50.2362],
[18.721,50.2352],
[18.7253,50.2724],
[18.7294,50.2725],
[18.7354,50.271],
[18.7562,50.2762],
[18.7809,50.2709],
[18.8234,50.2864],
[18.8417,50.2957],
[18.8455,50.2993],
[18.8455,50.2998],
[18.8432,50.3148],
[18.8317,50.3124],
[18.8315,50.3188],
[18.8494,50.3236],
[18.8502,50.3317],
[18.8624,50.328],
[18.8638,50.3278],
[18.9058,50.3272],
[18.916,50.3359],
[18.9394,50.3315],
[18.941,50.3385],
[18.9529,50.3336],
[18.9562,50.3331],
[18.9623,50.3406],
[18.9639,50.3551],
[18.9348,50.3635],
[18.9145,50.3721],
[18.9106,50.3733],
[18.8861,50.3817],
[18.8874,50.3886],
[18.871,50.3861],
[18.86,50.3939],
[18.812,50.4048],
[18.7856,50.4382],
[18.7862,50.4496],
[18.7701,50.4697],
[18.7766,50.474],
[18.7853,50.4832],
[18.7667,50.5057],
[18.7725,50.5083],
[18.7689,50.5127],
[18.7784,50.5211],
[18.7732,50.5227],
[18.8116,50.5332],
[18.8034,50.5544],
[18.8101,50.5613],
[18.7773,50.5775],
[18.7737,50.587],
[18.7373,50.596],
[18.7077,50.5864],
[18.6725,50.5898],
[18.6017,50.6044],
[18.5131,50.6307],
[18.5168,50.6396],
[18.5643,50.6754],
[18.5563,50.691],
[18.5768,50.7292],
[18.614,50.7369],
[18.6292,50.732],
[18.6515,50.7513],
[18.6935,50.7579],
[18.7153,50.7719],
[18.7634,50.7719],
[18.7649,50.7729],
[18.6791,50.8175],
[18.6294,50.8308],
[18.6159,50.8424],
[18.6162,50.8536],
[18.6544,50.9147],
[18.6492,50.9313],
[18.6302,50.9312],
[18.6124,50.9551],
[18.6247,50.9659],
[18.6252,50.9716],
[18.5773,50.9903],
[18.5426,50.9892],
[18.5171,51.0071],
[18.4617,51.007],
[18.4291,51.0236],
[18.4351,51.0348],
[18.43,51.0438],
[18.4465,51.0593],
[18.4302,51.0723],
[18.4311,51.0891],
[18.4072,51.1021],
[18.413,51.1118],
[18.4026,51.1245],
[18.3673,51.1386],
[18.315,51.1341],
[18.259,51.1577],
[18.2186,51.1559],
[18.1873,51.1575],
[18.1679,51.1638],
[18.1637,51.1725],
[18.1244,51.1686],
[18.1044,51.1534],
[18.0856,51.1559],
[18.0755,51.1469],
[18.0035,51.1218],
[17.9394,51.1089],
[17.9223,51.114],
[17.8851,51.1039],
[17.863,51.1149],
[17.8233,51.1179],
[17.8132,51.138],
[17.8313,51.1375],
[17.8513,51.172],
[17.8425,51.189],
[17.8268,51.194],
[17.8119,51.1867],
[17.8006,51.1923],
[17.7949,51.194],
[17.7743,51.1992],
[17.7443,51.2427],
[17.7495,51.2705],
[17.7386,51.2758],
[17.7664,51.3008],
[17.7602,51.3097],
[17.7626,51.3202],
[17.7437,51.3283],
[17.7436,51.3465],
[17.7043,51.3667],
[17.7317,51.3898],
[17.7185,51.4034],
[17.703,51.3994],
[17.6682,51.416],
[17.6606,51.4102],
[17.6407,51.4233],
[17.6127,51.4229],
[17.6034,51.4093],
[17.5661,51.4053],
[17.5534,51.4111],
[17.5405,51.4215],
[17.5515,51.4354],
[17.5479,51.4435],
[17.5208,51.4626],
[17.529,51.4696],
[17.5161,51.4882],
[17.5262,51.4999],
[17.5126,51.5058],
[17.5219,51.5147],
[17.5458,51.5172],
[17.5545,51.5175],
[17.565,51.5243],
[17.5726,51.5299],
[17.5762,51.5396],
[17.5719,51.5668],
[17.5602,51.5705],
[17.5562,51.5843],
[17.5228,51.5895],
[17.5213,51.6057],
[17.4662,51.6268],
[17.4599,51.6282],
[17.3299,51.6479],
[17.2575,51.6428],
[17.24,51.642],
[17.2184,51.631],
[17.2083,51.6111],
[17.2155,51.5993],
[17.2148,51.5739],
[17.2066,51.5671],
[17.1879,51.5765],
[17.1254,51.5654],
[17.1085,51.5761],
[17.0647,51.5663],
[17.0701,51.5551],
[17.06,51.5455],
[17.0458,51.556],
[16.982,51.5508],
[16.9626,51.5512],
[16.9279,51.5524],
[16.8874,51.581],
[16.8282,51.5722],
[16.8156,51.5847],
[16.8088,51.601],
[16.8025,51.6009],
[16.7719,51.6136],
[16.766,51.6277],
[16.7799,51.635],
[16.783,51.641],
[16.7842,51.6474],
[16.7675,51.6584],
[16.7169,51.6688],
[16.7092,51.6752],
[16.7137,51.6957],
[16.681,51.7007],
[16.6826,51.705],
[16.645,51.7219],
[16.6394,51.733],
[16.6479,51.7442],
[16.5832,51.7507],
[16.5766,51.7686],
[16.5415,51.7659],
[16.5453,51.7801],
[16.4163,51.7849],
[16.4076,51.7851],
[16.3937,51.7864],
[16.388,51.7944],
[16.4017,51.8047],
[16.3937,51.8196],
[16.4006,51.8306],
[16.4007,51.8379],
[16.3795,51.839],
[16.387,51.8465],
[16.335,51.8713],
[16.3517,51.8805],
[16.3126,51.8866],
[16.2849,51.9001],
[16.2727,51.8952],
[16.2481,51.9008],
[16.2291,51.8761],
[16.2003,51.872],
[16.1929,51.8851],
[16.1857,51.892],
[16.1561,51.8928],
[16.1036,51.8936],
[16.0996,51.896],
[16.0993,51.9009],
[16.1051,51.9046],
[16.1183,51.9134],
[16.1382,51.9254],
[16.1262,51.9339],
[16.1308,51.9404],
[16.1241,51.9514],
[16.1372,51.9544],
[16.1334,51.9723],
[16.1228,51.993],
[16.1075,51.9958],
[16.1281,52.0087],
[16.0813,52.0314],
[16.0682,52.0274],
[16.0566,52.0352],
[16.0045,52.0254],
[15.9893,52.0279],
[15.9945,52.0353],
[15.9915,52.0504],
[16.0054,52.0543],
[15.9672,52.0821],
[15.9321,52.0876],
[15.9244,52.0676],
[15.898,52.0769],
[15.8981,52.0784],
[15.9099,52.0939],
[15.8715,52.0956],
[15.8624,52.1091],
[15.8449,52.1081],
[15.8554,52.1168],
[15.875,52.1306],
[15.8807,52.1467],
[15.8831,52.1629],
[15.8584,52.169],
[15.8611,52.183],
[15.853,52.2101],
[15.889,52.1993],
[15.8961,52.2106],
[15.8938,52.2242],
[15.861,52.2274],
[15.8525,52.2622],
[15.881,52.2905],
[15.8879,52.3222],
[15.8811,52.3521],
[15.8903,52.3533],
[15.8886,52.363],
[15.8879,52.3721],
[15.9,52.3912],
[15.8437,52.4028],
[15.8274,52.4264],
[15.8064,52.4351],
[15.8038,52.4435],
[15.8101,52.4446],
[15.7929,52.4536],
[15.7952,52.4618],
[15.8276,52.4711],
[15.8213,52.4905],
[15.7957,52.4975],
[15.7956,52.5081],
[15.7888,52.5066],
[15.7878,52.5156],
[15.8016,52.5284],
[15.835,52.5293],
[15.8586,52.5444],
[15.8582,52.5467],
[15.8248,52.5672],
[15.8361,52.5871],
[15.8115,52.5937],
[15.7854,52.6171],
[15.8004,52.6237],
[15.7959,52.6364],
[15.8079,52.6405],
[15.8186,52.6578],
[15.814,52.6679],
[15.7934,52.7069],
[15.9065,52.7143],
[15.9249,52.7248],
[15.9449,52.7293],
[15.9469,52.7546],
[15.9255,52.784],
[15.9386,52.786],
[15.9344,52.8],
[15.9585,52.812],
[15.9469,52.8269],
[15.9533,52.8368],
[15.9749,52.8402],
[15.9664,52.8536],
[15.9701,52.8537],
[15.9907,52.8579],
[16.0559,52.861],
[16.1645,52.8989],
[16.1998,52.8989],
[16.2267,52.8844],
[16.3631,52.8931],
[16.3937,52.8869],
[16.408,52.8912],
[16.4738,52.8824],
[16.5471,52.8988],
[16.5615,52.9155],
[16.5545,52.9606],
[16.5665,52.9743],
[16.5686,52.9953],
[16.6076,53.0419],
[16.6242,53.0517],
[16.6429,53.0592],
[16.7265,53.0544],
[16.7641,53.1064],
[16.7765,53.1019],
[16.8187,53.1026],
[16.8529,53.1693],
[16.9139,53.179],
[16.9061,53.197],
[16.926,53.2128],
[16.9491,53.2195],
[16.9509,53.227],
[16.9828,53.229],
[16.9935,53.2333],
[16.9987,53.2326],
[17.0329,53.2308],
[17.0452,53.2239],
[17.0689,53.229],
[17.0907,53.2517],
[17.1389,53.2613],
[17.19,53.2704],
[17.1852,53.2836],
[17.1945,53.2976],
[17.2198,53.306],
[17.2557,53.3191],
[17.2493,53.3235],
[17.2608,53.3267],
[17.2648,53.3375],
[17.2574,53.3627],
[17.2471,53.3746],
[17.2556,53.3812],
[17.2651,53.3858],
[17.2959,53.4037],
[17.2912,53.4164],
[17.2915,53.4175],
[17.2944,53.42],
[17.2994,53.4225],
[17.3164,53.4319],
[17.3453,53.4508],
[17.3504,53.4542],
[17.3829,53.4689],
[17.3907,53.4908],
[17.404,53.5216],
[17.4223,53.5361],
[17.4217,53.5548],
[17.4135,53.5602],
[17.418,53.5665],
[17.4314,53.5925],
[17.4665,53.6016],
[17.4701,53.6179],
[17.4905,53.6313],
[17.4706,53.6337],
[17.4762,53.6502],
[17.4964,53.6552],
[17.5211,53.7157],
[17.5061,53.7191],
[17.4672,53.7178],
[17.4567,53.727],
[17.475,53.7396],
[17.4726,53.7457],
[17.4374,53.788],
[17.3764,53.792],
[17.3658,53.8134],
[17.3736,53.8264],
[17.3411,53.8337],
[17.3424,53.8609],
[17.3302,53.8603],
[17.3208,53.8779],
[17.3066,53.8687],
[17.298,53.8729],
[17.2644,53.8902],
[17.276,53.9061],
[17.2263,53.9567],
[17.2315,53.9816],
[17.1775,53.9917],
[17.1836,54.0097],
[17.2048,54.0046],
[17.2119,54.0418],
[17.2702,54.0454],
[17.3498,54.0533],
[17.3417,54.0601],
[17.3556,54.0708],
[17.3545,54.0835],
[17.362,54.0844],
[17.4096,54.0787],
[17.5096,54.0425],
[17.5481,54.0476],
[17.5522,54.0441],
[17.5437,54.0363],
[17.5494,54.0327],
[17.5822,54.0312],
[17.6472,54.0259],
[17.6673,54.0566],
[17.6702,54.0683],
[17.6633,54.0778],
[17.6642,54.0998],
[17.6841,54.1028],
[17.6873,54.1206],
[17.6656,54.1367],
[17.6555,54.1737],
[17.6381,54.1805],
[17.6155,54.1761],
[17.6105,54.191],
[17.6199,54.2015],
[17.5999,54.2036],
[17.5956,54.2145],
[17.6323,54.23],
[17.6542,54.2269],
[17.636,54.2456],
[17.711,54.3014],
[17.7125,54.3031],
[17.7096,54.3124],
[17.7223,54.3224],
[17.7392,54.3236],
[17.743,54.3298],
[17.7477,54.3426],
[17.7412,54.35],
[17.7505,54.3543],
[17.7652,54.3541],
[17.7792,54.3651],
[17.7964,54.3706],
[17.7892,54.3753],
[17.8017,54.3859],
[17.7927,54.3946],
[17.7989,54.4115],
[17.8252,54.4158],
[17.8544,54.4038],
[17.8728,54.4065],
[17.8813,54.41],
[17.8582,54.4404],
[17.8474,54.4544],
[17.85,54.4687],
[17.8869,54.4794],
[17.8813,54.4849],
[17.959,54.5],
[17.9561,54.4811],
[17.9446,54.4687],
[17.9783,54.4698],
[17.9817,54.4894],
[18.0021,54.5016],
[17.999,54.5116],
[18.0067,54.5237],
[18.0515,54.5323],
[18.0474,54.5454],
[18.022,54.5537],
[18.0075,54.5996],
[18.0559,54.6105],
[18.0511,54.625],
[18.0643,54.6353],
[18.08,54.6475],
[18.1476,54.6517],
[18.1291,54.6644],
[18.1304,54.6799],
[18.1228,54.6803],
[18.1173,54.6991],
[18.0877,54.7308],
[18.0636,54.7319],
[18.0461,54.7431],
[18.0251,54.7385],
[18.0237,54.7548],
[18.0421,54.7583],
[18.024,54.7752],
[18.0316,54.7799],
[18.0383,54.7924],
[18.0519,54.796],
[18.0565,54.8273],
[18.0634,54.8427],
[18.0596,54.8849],
[18.0592,54.8882],
[17.8938,54.879],
[17.606,54.8286],
[17.4792,54.8138],
[17.3519,54.8038],
[17.1966,54.7755],
[17.0117,54.7207],
[16.9256,54.67],
[16.8567,54.6452],
[16.7379,54.6259],
[16.6247,54.6198],
[16.4762,54.5893],
[16.3714,54.5336],
[16.3305,54.4898],
[16.3013,54.4746],
[16.2466,54.4226],
[16.1515,54.3618],
[16.0962,54.3348],
[16.0247,54.314],
[15.8207,54.2944],
[15.6819,54.2588],
[15.5224,54.2386],
[15.4685,54.2202],
[15.3529,54.2135],
[15.2408,54.197],
[14.8593,54.1041],
[14.7055,54.0771],
[14.4655,54.0129],
[14.3808,53.9732],
[14.3455,53.9667],
[14.3047,53.9764],
[14.2611,53.9801],
[14.2406,53.9932],
[14.0547,54.1035],
[13.9714,54.1208],
[13.9109,54.1676],
[14.0035,54.2132],
[14.016,54.2379],
[14.0093,54.2657],
[13.9825,54.2922],
[13.9428,54.3047],
[13.8452,54.2948],
[13.8636,54.3353],
[13.8509,54.365],
[13.7957,54.3947],
[13.7607,54.429],
[13.6821,54.4595],
[13.7403,54.4829],
[13.7675,54.5098],
[13.774,54.5461],
[13.7569,54.5912],
[13.721,54.6158],
[13.6573,54.6351],
[13.5053,54.6326],
[13.5259,54.6688],
[13.521,54.6957],
[13.4939,54.7223],
[13.4543,54.7347],
[13.3712,54.7363],
[13.2475,54.722],
[13.194,54.7033],
[13.1405,54.6613],
[13.0674,54.6483],
[13.0132,54.6143],
[13.0052,54.5944],
[13.0064,54.5654],
[12.9736,54.5106],
[12.8674,54.4959],
[12.6678,54.4969],
[12.6297,54.5027],
[12.6057,54.5257],
[12.5684,54.5403],
[12.5237,54.5428],
[12.476,54.5339],
[12.4181,54.4993],
[12.378,54.4348],
[12.3404,54.4149],
[12.3152,54.3897],
[12.2723,54.3337],
[12.1499,54.2888],
[12.0778,54.2391],
[11.9825,54.2311],
[11.838,54.1983],
[11.7238,54.2075],
[11.6446,54.1975],
[11.5557,54.1518],
[11.4908,54.1345],
[11.4509,54.1044],
[11.4285,54.0762],
[11.3068,54.0306],
[11.2649,54.0404],
[11.2215,54.0634],
[11.1665,54.0693],
[11.0144,54.0571],
[10.9231,54.0294],
[10.9051,54.0375],
[10.943,54.0495],
[11.0292,54.1071],
[11.112,54.1383],
[11.1717,54.1734],
[11.1846,54.1993],
[11.1841,54.2401],
[11.18,54.2905],
[11.1664,54.3248],
[11.2091,54.3536],
[11.2288,54.3581],
[11.2985,54.3471],
[11.3423,54.3516],
[11.3969,54.3835],
[11.4064,54.4036],
[11.3991,54.436],
[11.3194,54.5297],
[11.2784,54.5533],
[11.2006,54.5725],
[11.0884,54.5919],
[11.0336,54.5879],
[10.997,54.5725],
[10.9341,54.5206],
[10.9133,54.4776],
[10.916,54.4319],
[10.8181,54.403],
[10.7468,54.3633],
[10.6762,54.4021],
[10.5073,54.4431],
[10.4238,54.4744],
[10.3585,54.4888],
[10.2666,54.4911],
[10.1807,54.5334],
[10.114,54.5404],
[10.1148,54.5781],
[10.1285,54.6137],
[10.1294,54.6965],
[10.1047,54.7296],
[10.0772,54.7445],
[10.0692,54.7651],
[10.0328,54.8094],
[10.0248,54.8105],
[9.9112,54.8362],
[9.8528,54.8302],
[9.7702,54.8198],
[9.6221,54.8468],
[9.6153,54.8618],
[9.6319,54.8783],
[9.607,54.8896],
[9.5887,54.8875],
[9.5377,54.8592],
[9.4424,54.8244],
[9.4203,54.8319],
[9.4146,54.8401],
[9.4047,54.8398],
[9.4037,54.8389],
[9.3975,54.8393],
[9.3828,54.8392],
[9.3739,54.8211],
[9.3628,54.8166],
[9.3609,54.8162],
[9.342,54.8036],
[9.3454,54.8021],
[9.3295,54.8056],
[9.2935,54.809],
[9.2949,54.8017],
[9.2842,54.8096],
[9.2501,54.8097],
[9.2359,54.831],
[9.2445,54.8443],
[9.2404,54.8499],
[9.1555,54.871],
[9.1135,54.8738],
[9.0478,54.8721],
[9.0269,54.8815],
[8.973,54.8967],
[8.8917,54.9049],
[8.8489,54.8973],
[8.8239,54.9068],
[8.7987,54.9046],
[8.777,54.8927],
[8.735,54.8931],
[8.681,54.9105],
[8.6356,54.9116],
[8.5559,54.9207],
[8.5574,54.9929],
[8.519,54.9926],
[8.5015,55.0002],
[8.4722,55.0253],
[8.478,55.0465],
[8.472,55.0547],
[8.4531,55.0581],
[8.3955,55.0694],
[8.3467,55.0654],
[8.3292,55.0836],
[8.3227,55.0845],
[8.2153,54.9407],
[8.1946,54.872],
[8.1876,54.7768],
[8.1954,54.7364],
[8.2152,54.7138],
[8.1705,54.6901],
[8.1578,54.6706],
[8.1574,54.6548],
[8.1691,54.6352],
[8.2031,54.6132],
[8.2639,54.6024],
[8.2993,54.5774],
[8.3621,54.5607],
[8.3524,54.4568],
[8.3662,54.4237],
[8.4325,54.3823],
[8.4977,54.3698],
[8.4939,54.2909],
[8.5245,54.2393],
[8.5253,54.2212],
[8.5241,54.1882],
[8.535,54.1691],
[8.5229,54.1533],
[8.5207,54.1246],
[8.5056,54.0974],
[8.5152,54.0601],
[8.5136,54.0249],
[8.5167,54.0122],
[8.3866,54.0281],
[8.3131,54.0198],
[8.2654,53.9832],
[8.259,53.9585],
[8.2715,53.9249],
[8.2811,53.9127],
[8.2531,53.9016],
[8.2246,53.8777],
[8.2181,53.8576],
[8.2263,53.8296],
[8.1758,53.8197],
[8.1245,53.8221],
[8.0834,53.8145],
[8.0479,53.8273],
[7.9966,53.832],
[7.8838,53.8467],
[7.8059,53.8348],
[7.6831,53.8352],
[7.6183,53.8146],
[7.4942,53.81],
[7.4121,53.7894],
[7.3272,53.7801],
[7.1811,53.7756],
[7.1239,53.7646],
[7.0658,53.7415],
[6.8419,53.722],
[6.7569,53.6921],
[6.7299,53.6699],
[6.6051,53.6503],
[6.5673,53.6272],
[6.5526,53.6],
[6.5571,53.5957],
[6.5512,53.5827],
[6.6131,53.5482],
[6.6138,53.5385],
[6.6219,53.5402],
[6.6285,53.5304],
[6.6567,53.528],
[6.6878,53.5039],
[6.6835,53.4967],
[6.6969,53.4998],
[6.6986,53.4937],
[6.8843,53.4459],
[6.8937,53.4357],
[6.8828,53.4193],
[6.8994,53.3577],
[6.9245,53.3396],
[7.0479,53.3071],
[7.1918,53.315],
[7.2118,53.2314],
[7.219,53.2057],
[7.2175,53.2024],
[7.2115,53.1925],
[7.208,53.1885],
[7.2276,53.1803],
[7.2174,53.178],
[7.2037,53.1765],
[7.1789,53.1385],
[7.1829,53.1218],
[7.2027,53.1129],
[7.2016,53.1026],
[7.1992,53.0813],
[7.2174,53.007],
[7.2012,52.983],
[7.1824,52.9434],
[7.1531,52.913],
[7.1193,52.8789],
[7.0873,52.85],
[7.0927,52.8382],
[7.0716,52.8104],
[7.067,52.7549],
[7.0557,52.6434],
[7.0421,52.6329],
[7.0418,52.6327],
[7.0066,52.6389],
[6.9781,52.6466],
[6.9418,52.6367],
[6.8734,52.6544],
[6.7689,52.6492],
[6.7555,52.6472],
[6.7101,52.6278],
[6.7273,52.6149],
[6.7188,52.5886],
[6.7667,52.5616],
[6.726,52.5633],
[6.7163,52.5485],
[6.6809,52.5533],
[6.7053,52.521],
[6.7046,52.518],
[6.6976,52.4863],
[6.7177,52.4781],
[6.7746,52.4596],
[6.8543,52.4597],
[6.8525,52.4499],
[6.9473,52.4366],
[6.9876,52.4698],
[6.9985,52.4568],
[7.0108,52.4291],
[7.0326,52.4072],
[7.0359,52.4028],
[7.0536,52.4008],
[7.0585,52.3962],
[7.0722,52.3728],
[7.0723,52.3519],
[7.0458,52.3164],
[7.0413,52.3111],
[7.0326,52.3007],
[7.0262,52.2873],
[7.0275,52.278],
[7.0321,52.2717],
[7.0658,52.2412],
[7.0391,52.2276],
[6.9919,52.2272],
[6.9811,52.2207],
[6.9547,52.184],
[6.9081,52.176],
[6.8898,52.1612],
[6.8805,52.156],
[6.8735,52.1303],
[6.8555,52.1205],
[6.7606,52.1188],
[6.7554,52.0952],
[6.7446,52.0931],
[6.7475,52.0819],
[6.6948,52.0699],
[6.6953,52.0643],
[6.6869,52.0559],
[6.6879,52.0399],
[6.753,52.0284],
[6.8078,51.9949],
[6.8266,51.9935],
[6.8285,51.9641],
[6.7988,51.9587],
[6.7889,51.9297],
[6.7326,51.8987],
[6.722,51.8961],
[6.6842,51.9176],
[6.5498,51.8834],
[6.5401,51.881],
[6.5001,51.8622],
[6.4727,51.8542],
[6.4512,51.8653],
[6.4323,51.8594],
[6.3905,51.874],
[6.3879,51.8619],
[6.4092,51.8524],
[6.4057,51.8495],
[6.4075,51.8281],
[6.3682,51.8333],
[6.3471,51.8507],
[6.3065,51.8491],
[6.299,51.8678],
[6.2799,51.8741],
[6.215,51.8676],
[6.2045,51.869],
[6.1969,51.8834],
[6.1914,51.8874],
[6.191,51.8917],
[6.168,51.901],
[6.1574,51.9051],
[6.1178,51.9017],
[6.1038,51.8925],
[6.1381,51.8836],
[6.1445,51.8698],
[6.167,51.8616],
[6.1666,51.8407],
[6.1013,51.849],
[6.0635,51.8655],
[6.0514,51.8567],
[6.0553,51.8524],
[6.002,51.8324],
[5.963,51.8369],
[5.9399,51.8347],
[5.944,51.8289],
[5.9425,51.8234],
[5.9293,51.8275],
[5.9238,51.8188],
[5.948,51.8113],
[5.9658,51.8056],
[5.9783,51.7979],
[5.9746,51.7851],
[5.9896,51.7823],
[5.9818,51.7739],
[5.9921,51.7703],
[5.9533,51.748],
[5.9524,51.744],
[5.9552,51.7381],
[5.9942,51.7383],
[6.0323,51.7238],
[6.0449,51.7169],
[6.026,51.7084],
[6.0298,51.6781],
[6.032,51.6762],
[6.0349,51.674],
[6.1181,51.656],
[6.0943,51.6163],
[6.0914,51.6059],
[6.157,51.5666],
[6.1769,51.5386],
[6.2074,51.5193],
[6.2142,51.5029],
[6.219,51.485],
[6.2228,51.4695],
[6.2222,51.4628],
[6.2139,51.4463],
[6.2053,51.3995],
[6.2267,51.4003],
[6.2144,51.3896],
[6.2244,51.365],
[6.1899,51.3395],
[6.1942,51.3349],
[6.1789,51.3336],
[6.1686,51.333],
[6.1592,51.3154],
[6.1538,51.3074],
[6.0999,51.2576],
[6.0727,51.2426],
[6.0833,51.2275],
[6.0863,51.2225],
[6.0681,51.221],
[6.0731,51.1828],
[6.0822,51.1716],
[6.1,51.1698],
[6.1652,51.1944],
[6.1808,51.1864],
[6.1747,51.1846],
[6.1391,51.1733],
[6.1754,51.1585],
[6.1628,51.1527],
[6.1211,51.1423],
[6.1094,51.1376],
[6.0922,51.135],
[6.0868,51.1243],
[6.0605,51.1159],
[6.0364,51.0961],
[5.9978,51.0844],
[5.9699,51.0608],
[5.9685,51.048],
[5.9576,51.0348],
[5.938,51.0351],
[5.9132,51.0669],
[5.8923,51.0533],
[5.8667,51.0516]
],
[
[10.4544,47.5558],
[10.4291,47.5776],
[10.4724,47.5869],
[10.482,47.5845],
[10.4544,47.5558]
],
[
[6.2141,50.6405],
[6.221,50.6407],
[6.2202,50.6401],
[6.2141,50.6405]
],
[
[6.2241,50.643],
[6.2305,50.6493],
[6.2318,50.6486],
[6.2241,50.643]
]
],
[
[
[6.1744,50.5578],
[6.1779,50.5414],
[6.1972,50.5363],
[6.2109,50.5549],
[6.2255,50.5557],
[6.2405,50.587],
[6.2254,50.5908],
[6.203,50.5694],
[6.1744,50.5578]
]
],
[
[
[8.6437,47.7584],
[8.6521,47.7573],
[8.653,47.7659],
[8.6437,47.7584]
]
],
[
[
[8.6586,47.6913],
[8.6635,47.6859],
[8.6694,47.6849],
[8.6902,47.6953],
[8.7179,47.6907],
[8.703,47.7146],
[8.6863,47.7086],
[8.6647,47.7134],
[8.6764,47.6981],
[8.6586,47.6913]
]
],
[
[
[18.7458,53.6426],
[18.7671,53.6246],
[18.7682,53.6059],
[18.8581,53.6021],
[18.8902,53.5995],
[18.9058,53.5944],
[18.9027,53.5781],
[18.9267,53.5916],
[18.9767,53.5874],
[18.9893,53.5951],
[19.024,53.5908],
[19.0851,53.5983],
[19.1297,53.5883],
[19.1611,53.5845],
[19.1995,53.5701],
[19.1893,53.5477],
[19.2076,53.548],
[19.2196,53.529],
[19.1893,53.5115],
[19.2246,53.4841],
[19.2526,53.4897],
[19.2913,53.495],
[19.3497,53.4876],
[19.3552,53.5162],
[19.3943,53.5277],
[19.3943,53.5395],
[19.371,53.5509],
[19.3922,53.5733],
[19.4637,53.5668],
[19.4527,53.5493],
[19.4904,53.5411],
[19.4925,53.5481],
[19.6106,53.524],
[19.6106,53.5056],
[19.6296,53.5048],
[19.6861,53.5317],
[19.6868,53.5636],
[19.7385,53.617],
[19.8097,53.6008],
[19.8132,53.5825],
[19.8406,53.5695],
[19.8804,53.5618],
[19.8889,53.543],
[19.8762,53.5383],
[19.9022,53.5156],
[19.8959,53.4842],
[19.9186,53.476],
[19.948,53.4382],
[19.9541,53.4319],
[19.9795,53.4343],
[19.9718,53.4257],
[19.9927,53.4061],
[20.0201,53.4171],
[20.0414,53.4112],
[20.0456,53.3989],
[20.0307,53.3852],
[20.0332,53.3735],
[20.0261,53.3683],
[20.0451,53.3446],
[20.0648,53.343],
[20.0889,53.3722],
[20.1797,53.3308],
[20.1926,53.3268],
[20.2055,53.3126],
[20.2299,53.3063],
[20.2499,53.2878],
[20.2565,53.2776],
[20.242,53.258],
[20.2478,53.2382],
[20.3032,53.2268],
[20.3391,53.2338],
[20.3267,53.2228],
[20.3371,53.2254],
[20.3365,53.2161],
[20.3882,53.238],
[20.4111,53.2141],
[20.4235,53.222],
[20.4313,53.2273],
[20.4583,53.2468],
[20.513,53.3342],
[20.5389,53.3486],
[20.6552,53.3176],
[20.721,53.3258],
[20.7426,53.318],
[20.7557,53.3129],
[20.7914,53.3096],
[20.8514,53.2926],
[20.8755,53.2719],
[20.9777,53.3017],
[21.0533,53.3343],
[21.1143,53.3546],
[21.1755,53.3934],
[21.2813,53.4267],
[21.4311,53.4624],
[21.472,53.4696],
[21.5517,53.4781],
[21.6129,53.4808],
[21.6947,53.4922],
[21.7907,53.4795],
[21.8271,53.4641],
[21.8661,53.4594],
[21.892,53.467],
[21.9015,53.4929],
[21.9311,53.5104],
[21.9524,53.5095],
[21.9897,53.5221],
[22.0098,53.5135],
[22.0197,53.4975],
[22.0304,53.4969],
[22.0587,53.5297],
[22.0957,53.5322],
[22.1745,53.5576],
[22.2725,53.6106],
[22.2791,53.6208],
[22.3057,53.6268],
[22.3265,53.6318],
[22.3598,53.6559],
[22.423,53.6815],
[22.4673,53.699],
[22.515,53.6983],
[22.5841,53.7346],
[22.5853,53.7271],
[22.6066,53.7168],
[22.6212,53.7355],
[22.6284,53.7563],
[22.6411,53.7549],
[22.6413,53.7476],
[22.6881,53.7583],
[22.6967,53.762],
[22.7262,53.8048],
[22.7271,53.8336],
[22.7791,53.8658],
[22.7853,53.8838],
[22.7753,53.9037],
[22.7828,53.9155],
[22.7511,53.9432],
[22.7237,53.9526],
[22.6966,53.9735],
[22.6861,54.0035],
[22.6699,54.0296],
[22.5998,54.0528],
[22.6037,54.0819],
[22.6355,54.093],
[22.6367,54.1066],
[22.6128,54.12],
[22.5914,54.1507],
[22.5867,54.1792],
[22.5706,54.2037],
[22.5309,54.2211],
[22.5278,54.2296],
[22.5314,54.2477],
[22.5321,54.2491],
[22.5422,54.2689],
[22.576,54.267],
[22.6107,54.2599],
[22.6445,54.288],
[22.6942,54.2752],
[22.7538,54.2978],
[22.7641,54.3216],
[22.7764,54.328],
[22.803,54.3409],
[22.8056,54.3492],
[22.792,54.3633],
[22.7664,54.3852],
[22.736,54.4429],
[22.702,54.4572],
[22.6991,54.5064],
[22.6838,54.5195],
[22.6804,54.5331],
[22.7123,54.5637],
[22.6843,54.5873],
[22.7201,54.6066],
[22.7266,54.6227],
[22.7494,54.6317],
[22.7417,54.6425],
[22.7574,54.6514],
[22.7319,54.6655],
[22.7403,54.6749],
[22.7243,54.6868],
[22.7301,54.6981],
[22.7487,54.7065],
[22.7388,54.7187],
[22.743,54.7311],
[22.7729,54.7458],
[22.7781,54.7521],
[22.8059,54.7481],
[22.8149,54.7564],
[22.8048,54.754],
[22.8124,54.7666],
[22.8435,54.7666],
[22.8595,54.7777],
[22.8485,54.7858],
[22.8786,54.7917],
[22.8734,54.8061],
[22.887,54.8139],
[22.8705,54.8202],
[22.88,54.8255],
[22.8763,54.8341],
[22.8586,54.8388],
[22.8697,54.8525],
[22.8397,54.8645],
[22.8549,54.8855],
[22.8473,54.8967],
[22.8205,54.912],
[22.7951,54.903],
[22.7843,54.9246],
[22.7533,54.9188],
[22.7489,54.9244],
[22.7669,54.9347],
[22.7414,54.9397],
[22.7255,54.9637],
[22.7083,54.9733],
[22.6902,54.9716],
[22.6732,54.9884],
[22.6587,54.9808],
[22.6678,54.9681],
[22.653,54.9651],
[22.6352,54.9894],
[22.6264,54.9955],
[22.5966,55.0283],
[22.5976,55.046],
[22.5891,55.0705],
[22.4765,55.0447],
[22.4375,55.0509],
[22.3979,55.0533],
[22.2754,55.0643],
[22.1965,55.0551],
[22.1546,55.0545],
[22.1364,55.0474],
[22.1171,55.0267],
[22.0852,55.0241],
[22.0449,55.0355],
[22.0314,55.0568],
[22.0402,55.0693],
[22.0378,55.0818],
[22.0065,55.0873],
[21.9794,55.0816],
[21.9668,55.0743],
[21.9523,55.0766],
[21.9238,55.0798],
[21.9128,55.0818],
[21.8673,55.0949],
[21.848,55.0977],
[21.8191,55.1175],
[21.7637,55.1226],
[21.7171,55.1377],
[21.7166,55.1444],
[21.6499,55.1805],
[21.6482,55.1811],
[21.6095,55.1875],
[21.569,55.1983],
[21.4992,55.188],
[21.4477,55.2238],
[21.4336,55.2491],
[21.3836,55.2946],
[21.2712,55.2452],
[21.1643,55.2523],
[21.0287,55.2687],
[20.954,55.2808],
[20.8769,55.3073],
[20.8722,55.309],
[20.6736,55.1385],
[20.5471,55.0535],
[20.47,55.0214],
[20.3818,54.9971],
[20.3431,54.9939],
[20.2631,55.0134],
[20.1944,55.0123],
[20.1348,54.999],
[20.0565,55.0019],
[20.0124,55.0159],
[19.9766,55.0178],
[19.9098,55.0013],
[19.8571,54.9467],
[19.8451,54.9194],
[19.8419,54.8584],
[19.8747,54.7918],
[19.8546,54.7382],
[19.8067,54.6814],
[19.7569,54.623],
[19.5986,54.5151],
[19.572,54.4999],
[19.5162,54.4684],
[19.359,54.4278],
[19.3074,54.4192],
[19.3086,54.416],
[19.3318,54.3664],
[19.3468,54.3552],
[19.3463,54.3508],
[19.3515,54.349],
[19.4249,54.3243],
[19.2901,54.3008],
[19.2541,54.2704],
[19.2595,54.2668],
[19.3005,54.2457],
[19.3194,54.2144],
[19.3269,54.2063],
[19.3192,54.1904],
[19.285,54.1869],
[19.244,54.1679],
[19.2568,54.149],
[19.2173,54.1156],
[19.1957,54.0923],
[19.1449,54.0907],
[19.0985,54.0407],
[19.0803,54.039],
[19.0524,54.0514],
[19.0303,54.0448],
[19.0033,54.0135],
[18.9727,53.9934],
[18.9518,53.9899],
[18.9321,53.9695],
[18.904,53.9684],
[18.8918,53.9455],
[18.8859,53.9159],
[18.8828,53.912],
[18.8915,53.9012],
[18.8986,53.8953],
[18.8893,53.885],
[18.8826,53.8764],
[18.8719,53.843],
[18.8888,53.8361],
[18.8893,53.8356],
[18.8856,53.8281],
[18.8788,53.8201],
[18.8828,53.819],
[18.8727,53.8039],
[18.8568,53.7986],
[18.8558,53.7937],
[18.8479,53.7794],
[18.8503,53.7607],
[18.8628,53.7404],
[18.8607,53.7261],
[18.7863,53.6915],
[18.7833,53.678],
[18.7458,53.6426]
]
]
]}
}
