{
"type": "Feature",
"properties": {"id":"ohm-r2692524","edge_precision":"unknown","ohm_relation":2692524,"ohm_version":33,"ohm_timestamp":"2026-09-14T02:32:00Z"},
"geometry": {"type": "MultiPolygon", "coordinates": [
[
[
[10.7707,58.9162],
[10.8379,58.8932],
[10.8502,58.8343],
[10.8687,58.8091],
[10.8532,58.7863],
[10.8533,58.7667],
[10.8803,58.7255],
[10.9334,58.7004],
[11.0181,58.6899],
[11.0122,58.6606],
[10.9517,58.6427],
[10.9069,58.6109],
[10.8997,58.5924],
[10.9083,58.565],
[10.899,58.5438],
[10.9024,58.5195],
[10.9308,58.4918],
[10.9815,58.4704],
[11.0404,58.464],
[11.0889,58.4702],
[11.0652,58.4492],
[11.0568,58.4297],
[11.0663,58.3933],
[11.0573,58.3716],
[11.061,58.3518],
[11.1009,58.2974],
[11.1732,58.2698],
[11.2036,58.2484],
[11.1863,58.224],
[11.1839,58.1978],
[11.2003,58.1738],
[11.2273,58.1573],
[11.2221,58.1333],
[11.2034,58.1074],
[11.2052,58.0742],
[11.2429,58.0349],
[11.3113,58.0135],
[11.3193,57.9748],
[11.3556,57.947],
[11.3263,57.9106],
[11.3264,57.8778],
[11.3634,57.845],
[11.417,57.8298],
[11.424,57.8167],
[11.3998,57.7912],
[11.3974,57.7647],
[11.4138,57.7404],
[11.4609,57.7163],
[11.4758,57.6989],
[11.478,57.6619],
[11.4685,57.6335],
[11.4772,57.6094],
[11.5021,57.5872],
[11.539,57.5717],
[11.6306,57.5596],
[11.603,57.5235],
[11.6091,57.4906],
[11.6487,57.4596],
[11.7053,57.4438],
[11.6994,57.4206],
[11.7054,57.4018],
[11.7285,57.3767],
[11.7404,57.3447],
[11.7768,57.3203],
[11.7749,57.2948],
[11.7927,57.2669],
[11.857,57.2382],
[11.9353,57.2369],
[11.9656,57.1953],
[11.9894,57.1769],
[11.9811,57.1497],
[11.9988,57.1177],
[12.1174,57.0602],
[12.1414,57.0256],
[12.2217,56.976],
[12.2272,56.9249],
[12.2541,56.8887],
[12.3254,56.8506],
[12.3955,56.8315],
[12.4028,56.8069],
[12.42,56.7894],
[12.4899,56.7637],
[12.5084,56.7193],
[12.5517,56.6789],
[12.563,56.6561],
[12.6126,56.6028],
[12.6483,56.5849],
[12.7013,56.5735],
[12.7948,56.5735],
[12.8165,56.5543],
[12.8153,56.5305],
[12.7152,56.5422],
[12.5999,56.5182],
[12.5124,56.5226],
[12.4592,56.5071],
[12.4239,56.4796],
[12.412,56.447],
[12.4334,56.4003],
[12.4654,56.3733],
[12.4166,56.3721],
[12.3634,56.3565],
[12.3289,56.3282],
[12.326,56.3025],
[12.3376,56.2733],
[12.3881,56.2401],
[12.4093,56.2164],
[12.4255,56.175],
[12.4379,56.1655],
[12.4612,56.1503],
[12.4704,56.1462],
[12.5752,56.0954],
[12.6508,56.0463],
[12.6604,56.013],
[12.6075,55.9407],
[12.6068,55.9034],
[12.8107,55.7263],
[12.8897,55.6683],
[12.8959,55.6361],
[12.8842,55.6094],
[12.8063,55.578],
[12.7995,55.5747],
[12.7754,55.5353],
[12.7803,55.5025],
[12.7345,55.4726],
[12.6936,55.3952],
[12.6889,55.3745],
[12.6944,55.3498],
[12.7213,55.3127],
[12.7804,55.2935],
[12.8474,55.2941],
[12.913,55.3195],
[12.9642,55.3229],
[13.0499,55.3034],
[13.1617,55.2993],
[13.234,55.2811],
[13.3491,55.2712],
[13.4231,55.2807],
[13.534,55.3185],
[13.6357,55.3256],
[13.692,55.3505],
[13.7324,55.3576],
[13.8475,55.3538],
[13.9069,55.3654],
[13.9825,55.3258],
[14.0243,55.3152],
[14.1558,55.3086],
[14.2337,55.3178],
[14.2923,55.345],
[14.3417,55.3988],
[14.4135,55.4473],
[14.465,55.4994],
[14.4733,55.5448],
[14.4663,55.5801],
[14.3956,55.6504],
[14.394,55.6758],
[14.3808,55.7046],
[14.3123,55.7468],
[14.3231,55.7883],
[14.3533,55.8415],
[14.4162,55.8744],
[14.4406,55.8981],
[14.5224,55.9051],
[14.5766,55.9351],
[14.6814,55.924],
[14.7891,55.9413],
[14.8429,55.9335],
[14.8987,55.9401],
[14.9446,55.9592],
[14.9685,55.982],
[14.9765,56.0121],
[14.9608,56.0428],
[15.0148,56.0465],
[15.064,56.0657],
[15.1458,56.0714],
[15.2074,56.056],
[15.2701,56.061],
[15.3225,56.0554],
[15.3858,56.0338],
[15.4405,56.0249],
[15.5067,56.0205],
[15.5741,56.0267],
[15.6284,56.0118],
[15.6333,56.01],
[15.6024,55.9905],
[15.5856,55.9675],
[15.5809,55.9416],
[15.5934,55.9161],
[15.6216,55.8959],
[15.6613,55.8832],
[15.7404,55.8838],
[15.7949,55.9067],
[15.8205,55.9322],
[15.827,55.952],
[15.8628,55.9622],
[15.896,55.9825],
[15.9232,56.02],
[15.9525,56.0388],
[16.0275,56.1183],
[16.1468,56.1996],
[16.1788,56.2429],
[16.1881,56.3093],
[16.2443,56.3668],
[16.2563,56.4052],
[16.2689,56.3907],
[16.2791,56.3534],
[16.2641,56.2991],
[16.2718,56.2473],
[16.2655,56.2081],
[16.2702,56.1798],
[16.2894,56.1536],
[16.3349,56.1304],
[16.3945,56.1218],
[16.4544,56.1296],
[16.5435,56.1676],
[16.5897,56.2008],
[16.6888,56.3451],
[16.702,56.3945],
[16.7348,56.4424],
[16.7694,56.5215],
[16.8033,56.5456],
[16.8278,56.5773],
[16.8427,56.6408],
[16.8622,56.6648],
[16.8975,56.7496],
[16.9492,56.7766],
[16.9859,56.8175],
[16.9955,56.8371],
[16.9926,56.8674],
[17.0219,56.9042],
[17.0268,56.9417],
[17.0541,56.9714],
[17.0651,57.0021],
[17.0967,57.0301],
[17.1107,57.0647],
[17.1394,57.0846],
[17.1687,57.1293],
[17.1973,57.156],
[17.2058,57.2464],
[17.2486,57.264],
[17.2767,57.2945],
[17.2748,57.3277],
[17.235,57.3916],
[17.1771,57.4237],
[17.1062,57.4382],
[17.0256,57.4325],
[16.9548,57.4072],
[16.9155,57.3843],
[16.8415,57.3196],
[16.7434,57.3221],
[16.7892,57.3485],
[16.8048,57.3847],
[16.872,57.4131],
[16.9062,57.4491],
[16.9155,57.6085],
[16.9619,57.6342],
[16.9778,57.666],
[16.9579,57.7039],
[16.9085,57.728],
[16.9429,57.757],
[16.9489,57.7766],
[16.9439,57.7968],
[16.9677,57.8161],
[16.9773,57.8353],
[16.957,57.9048],
[16.9707,57.9318],
[16.9715,57.9875],
[17.0156,58.0242],
[17.0218,58.0801],
[17.0714,58.0927],
[17.138,58.1267],
[17.1543,58.1443],
[17.1602,58.1673],
[17.1891,58.1975],
[17.1888,58.2307],
[17.2136,58.3023],
[17.1977,58.3359],
[17.2209,58.3582],
[17.2266,58.384],
[17.2133,58.4089],
[17.1749,58.4375],
[17.1616,58.4594],
[17.2391,58.4698],
[17.2781,58.4865],
[17.3035,58.5106],
[17.4487,58.549],
[17.4817,58.5693],
[17.5047,58.6047],
[17.613,58.6047],
[17.6691,58.6179],
[17.7141,58.6448],
[17.7397,58.6807],
[17.8,58.6687],
[17.8863,58.6707],
[17.9424,58.6838],
[17.9776,58.7058],
[18.0442,58.7014],
[18.1072,58.7095],
[18.1461,58.7254],
[18.1724,58.7476],
[18.182,58.7662],
[18.1803,58.792],
[18.2332,58.7964],
[18.2871,58.8117],
[18.3201,58.8318],
[18.3349,58.8557],
[18.3847,58.8473],
[18.4339,58.8495],
[18.4873,58.8653],
[18.5164,58.8869],
[18.5891,58.8866],
[18.6644,58.9073],
[18.719,58.933],
[18.7478,58.9595],
[18.7579,58.982],
[18.7993,59.0158],
[18.959,59.0974],
[18.9753,59.1145],
[18.9857,59.1444],
[19.0242,59.1808],
[19.1119,59.2049],
[19.1727,59.2345],
[19.277,59.261],
[19.306,59.2824],
[19.3153,59.3166],
[19.3422,59.3372],
[19.4229,59.351],
[19.4803,59.3467],
[19.5327,59.3547],
[19.5715,59.3702],
[19.6355,59.4198],
[19.6514,59.4487],
[19.645,59.4776],
[19.6898,59.5182],
[19.6944,59.5472],
[19.7136,59.5757],
[19.7121,59.5978],
[19.6907,59.6237],
[19.6824,59.6509],
[19.636,59.6807],
[19.5664,59.6922],
[19.5872,59.731],
[19.5794,59.7617],
[19.553,59.7828],
[19.4941,59.8091],
[19.4627,59.838],
[19.4094,59.855],
[19.3367,59.8559],
[19.2868,59.8663],
[19.2569,59.8952],
[19.1925,59.9328],
[19.0533,59.9801],
[19.0433,60.0007],
[18.9983,60.0459],
[18.98,60.0878],
[18.9816,60.1208],
[18.9685,60.1426],
[19.0338,60.1798],
[19.0514,60.1986],
[19.0574,60.2191],
[19.0494,60.2423],
[19.0626,60.2825],
[19.0395,60.3148],
[18.9927,60.3368],
[18.9603,60.3519],
[18.9668,60.3729],
[18.9564,60.3993],
[18.9679,60.427],
[18.9618,60.4474],
[18.9359,60.4716],
[18.8918,60.4895],
[18.8231,60.4979],
[18.7429,60.4855],
[18.6692,60.529],
[18.5368,60.561],
[18.4821,60.5893],
[18.4199,60.6024],
[18.3113,60.593],
[18.2603,60.573],
[18.2275,60.547],
[18.2307,60.5699],
[18.2147,60.596],
[18.1322,60.6381],
[18.1159,60.674],
[18.0684,60.6997],
[18.0172,60.7101],
[17.9312,60.7112],
[17.8523,60.6945],
[17.8067,60.6749],
[17.7584,60.7015],
[17.6988,60.7125],
[17.701,60.7441],
[17.68,60.7692],
[17.6345,60.7913],
[17.5671,60.8027],
[17.5422,60.8134],
[17.5165,60.8369],
[17.4652,60.8585],
[17.4737,60.8838],
[17.4595,60.9146],
[17.4297,60.938],
[17.3877,60.9556],
[17.4288,60.9935],
[17.4238,61.0323],
[17.4359,61.0554],
[17.4368,61.0796],
[17.4823,61.1609],
[17.4708,61.1968],
[17.4331,61.2224],
[17.4565,61.2793],
[17.4542,61.2998],
[17.4795,61.3193],
[17.4902,61.3455],
[17.4841,61.3652],
[17.4582,61.3887],
[17.4123,61.4098],
[17.3629,61.4198],
[17.3554,61.4507],
[17.4325,61.453],
[17.5286,61.4755],
[17.5715,61.4923],
[17.605,61.5206],
[17.6124,61.5516],
[17.5969,61.5764],
[17.629,61.6032],
[17.6571,61.6747],
[17.6903,61.6994],
[17.701,61.7252],
[17.6932,61.7505],
[17.6631,61.7766],
[17.6191,61.7938],
[17.5709,61.8012],
[17.588,61.8467],
[17.5714,61.8782],
[17.6447,61.9038],
[17.667,61.9213],
[17.6805,61.9443],
[17.7573,61.9754],
[17.7749,61.9932],
[17.784,62.0179],
[17.7733,62.0434],
[17.7383,62.068],
[17.6909,62.083],
[17.6175,62.0875],
[17.6187,62.0925],
[17.6572,62.1155],
[17.7261,62.118],
[17.8011,62.1378],
[17.8496,62.1663],
[17.8902,62.2126],
[17.8847,62.2383],
[17.8495,62.266],
[17.7938,62.2852],
[17.6879,62.3053],
[17.7117,62.3224],
[17.782,62.3241],
[17.8507,62.3453],
[17.8809,62.375],
[17.8877,62.4041],
[17.8834,62.42],
[17.991,62.4629],
[18.0168,62.479],
[18.031,62.4985],
[18.1686,62.5599],
[18.2036,62.5974],
[18.2276,62.6154],
[18.2493,62.6532],
[18.2856,62.6836],
[18.2958,62.7043],
[18.375,62.758],
[18.5639,62.8109],
[18.6117,62.8371],
[18.6308,62.8615],
[18.633,62.8785],
[18.6983,62.8892],
[18.7385,62.9077],
[18.8,62.9738],
[18.8779,63.0406],
[18.9028,63.0732],
[18.9932,63.1152],
[19.0648,63.1205],
[19.1788,63.1545],
[19.2492,63.1936],
[19.3191,63.2186],
[19.3421,63.248],
[19.335,63.2749],
[19.3863,63.3068],
[19.3987,63.3525],
[19.508,63.3412],
[19.636,63.3468],
[19.9004,63.4132],
[19.9278,63.391],
[19.9712,63.3756],
[20.0383,63.3683],
[20.0927,63.3733],
[20.1482,63.3917],
[20.1819,63.4228],
[20.1839,63.4414],
[20.1679,63.4652],
[20.133,63.4844],
[20.0924,63.4951],
[20.1444,63.5237],
[20.1661,63.58],
[20.2621,63.5851],
[20.3607,63.5692],
[20.4803,63.5775],
[20.5451,63.6014],
[20.5661,63.6242],
[20.5673,63.6451],
[20.591,63.6589],
[20.664,63.6733],
[20.6817,63.6554],
[20.6271,63.6369],
[20.6008,63.6144],
[20.5962,63.5898],
[20.6074,63.5711],
[20.6435,63.5474],
[20.6853,63.5344],
[20.7939,63.5274],
[20.901,63.5498],
[20.9268,63.5654],
[20.9413,63.5849],
[21.0495,63.6469],
[21.0704,63.6697],
[21.0841,63.718],
[21.1086,63.7586],
[21.1512,63.788],
[21.1572,63.8186],
[21.1412,63.842],
[21.1063,63.861],
[20.9879,63.8819],
[21.0062,63.907],
[20.9985,63.934],
[21.0406,63.9635],
[21.0731,64.0219],
[21.0938,64.0404],
[21.1055,64.0748],
[21.138,64.0981],
[21.2076,64.1085],
[21.2534,64.1286],
[21.2743,64.151],
[21.2735,64.1765],
[21.3147,64.2115],
[21.3474,64.2277],
[21.4497,64.2453],
[21.5108,64.273],
[21.5738,64.2776],
[21.6293,64.2955],
[21.6595,64.3232],
[21.6615,64.3412],
[21.652,64.3582],
[21.7368,64.4026],
[21.7621,64.4372],
[21.755,64.4662],
[21.7003,64.5186],
[21.6877,64.5503],
[21.6451,64.5806],
[21.6478,64.5997],
[21.636,64.6216],
[21.5755,64.6522],
[21.4913,64.6624],
[21.4876,64.691],
[21.4457,64.724],
[21.4402,64.7669],
[21.3729,64.8141],
[21.3875,64.8295],
[21.4658,64.8734],
[21.482,64.8993],
[21.5252,64.9208],
[21.5416,64.9506],
[21.6116,64.9689],
[21.6853,65.0003],
[21.7062,65.022],
[21.7074,65.042],
[21.7194,65.0489],
[21.7738,65.0558],
[21.8245,65.075],
[21.8878,65.069],
[21.9422,65.0736],
[22.007,65.0963],
[22.0246,65.1122],
[22.0306,65.1298],
[22.077,65.1484],
[22.098,65.17],
[22.1092,65.2084],
[22.1031,65.2257],
[22.0861,65.2411],
[22.0986,65.2603],
[22.0956,65.2793],
[22.1607,65.2891],
[22.2081,65.3111],
[22.2418,65.2805],
[22.3071,65.2537],
[22.3839,65.2464],
[22.4628,65.2565],
[22.5069,65.275],
[22.5291,65.3002],
[22.6353,65.3436],
[22.6777,65.3942],
[22.8059,65.4114],
[22.8794,65.4394],
[22.9157,65.4664],
[22.9546,65.5152],
[22.9583,65.5434],
[22.9515,65.5717],
[23.0171,65.5623],
[23.1252,65.5661],
[23.1808,65.5831],
[23.2263,65.6176],
[23.3172,65.5995],
[23.3927,65.6042],
[23.4454,65.6199],
[23.486,65.6051],
[23.503,65.5874],
[23.4163,65.5616],
[23.3951,65.5396],
[23.3936,65.5178],
[23.4048,65.5004],
[23.4365,65.4815],
[23.5334,65.4626],
[23.6401,65.4716],
[23.6803,65.4885],
[23.6986,65.5052],
[23.799,65.5011],
[23.8502,65.5099],
[23.9043,65.5314],
[23.9779,65.5296],
[24.1009,65.5474],
[24.1404,65.5434],
[24.1443,65.5572],
[24.1567,65.6095],
[24.1778,65.6607],
[24.1648,65.695],
[24.1727,65.7251],
[24.128,65.7779],
[24.1339,65.7973],
[24.1541,65.8183],
[24.1222,65.8583],
[24.1497,65.8637],
[24.0548,65.9479],
[24.0553,65.9852],
[24.0196,66.0489],
[23.9746,66.0728],
[23.9114,66.1486],
[23.8893,66.1611],
[23.751,66.1924],
[23.7242,66.2066],
[23.6894,66.257],
[23.6628,66.3165],
[23.677,66.3636],
[23.6659,66.4056],
[23.6423,66.4363],
[23.6524,66.4588],
[23.6768,66.474],
[23.7311,66.4872],
[23.7311,66.5031],
[23.7859,66.5184],
[23.8061,66.5281],
[23.8077,66.5392],
[23.8819,66.5635],
[23.8932,66.596],
[23.8819,66.6318],
[23.9032,66.6863],
[23.8924,66.7509],
[23.9392,66.7911],
[23.9844,66.793],
[23.9992,66.7963],
[24.004,66.8052],
[23.9334,66.8888],
[23.8736,66.9247],
[23.8167,66.9755],
[23.7438,67.001],
[23.7203,67.0169],
[23.6767,67.0585],
[23.6666,67.0979],
[23.5813,67.1531],
[23.574,67.173],
[23.6149,67.214],
[23.5915,67.225],
[23.6027,67.2603],
[23.7354,67.2897],
[23.7632,67.3065],
[23.7857,67.3375],
[23.7514,67.3462],
[23.7652,67.4201],
[23.5946,67.4536],
[23.4772,67.4438],
[23.4437,67.461],
[23.4313,67.4855],
[23.4847,67.543],
[23.4734,67.555],
[23.5535,67.587],
[23.5503,67.6109],
[23.5188,67.6528],
[23.4846,67.7372],
[23.4767,67.8413],
[23.4813,67.8646],
[23.4989,67.8822],
[23.5325,67.8932],
[23.6361,67.9135],
[23.6612,67.9329],
[23.6622,67.9504],
[23.6431,67.9632],
[23.5737,67.9733],
[23.4847,68.0159],
[23.383,68.0512],
[23.3309,68.1278],
[23.3065,68.1456],
[23.2721,68.145],
[23.1872,68.1223],
[23.1546,68.1283],
[23.1498,68.1448],
[23.1598,68.1787],
[23.1494,68.194],
[23.1552,68.2174],
[23.14,68.2342],
[23.0816,68.2653],
[23.0669,68.2903],
[23.0522,68.2982],
[22.9037,68.3366],
[22.8083,68.3949],
[22.7486,68.3855],
[22.6622,68.4274],
[22.6076,68.4249],
[22.5652,68.4363],
[22.4569,68.4518],
[22.378,68.4541],
[22.3711,68.4684],
[22.3031,68.4761],
[22.0722,68.477],
[22.0384,68.4883],
[22.0361,68.5065],
[21.9192,68.5682],
[21.7371,68.5879],
[21.7168,68.6192],
[21.5725,68.6674],
[21.4957,68.6755],
[21.4636,68.6869],
[21.4064,68.7489],
[21.3054,68.7558],
[21.2166,68.8172],
[21.0721,68.8694],
[20.9057,68.8946],
[20.8845,68.9067],
[20.8876,68.9271],
[20.9178,68.933],
[20.9343,68.949],
[20.9346,68.967],
[20.9112,68.9807],
[20.864,68.9863],
[20.7954,69.0112],
[20.6755,69.0182],
[20.5486,69.06],
[20.06,69.0458],
[20.3066,68.9262],
[20.3359,68.8023],
[20.2028,68.6659],
[20.0522,68.5911],
[19.9375,68.5579],
[20.0259,68.5308],
[20.2265,68.4908],
[19.978,68.3882],
[19.9214,68.356],
[18.9838,68.517],
[18.6212,68.507],
[18.4057,68.5819],
[18.1259,68.5365],
[18.1011,68.406],
[18.1229,68.3093],
[18.1514,68.1988],
[17.8998,67.9694],
[17.6647,68.0384],
[17.2815,68.1188],
[17.1805,68.0505],
[16.7381,67.9142],
[16.5563,67.6472],
[16.4076,67.534],
[16.158,67.5192],
[16.0898,67.4353],
[16.4041,67.205],
[16.3878,67.0455],
[16.194,66.9826],
[16.0388,66.9124],
[15.7587,66.6988],
[15.6214,66.5943],
[15.4511,66.524],
[15.3772,66.4843],
[15.4847,66.2825],
[15.0357,66.1536],
[14.5163,66.1326],
[14.5731,65.9579],
[14.5844,65.9013],
[14.6255,65.8118],
[14.5415,65.7008],
[14.4988,65.5213],
[14.5068,65.3097],
[14.3788,65.2476],
[14.326,65.1189],
[13.9776,64.8597],
[13.7055,64.64],
[13.6543,64.5803],
[13.8912,64.5071],
[14.0852,64.4782],
[14.1139,64.4625],
[14.1571,64.1951],
[13.9675,64.008],
[13.7154,64.0463],
[13.2111,64.0954],
[12.9267,64.058],
[12.6836,63.9742],
[12.3306,63.7151],
[12.2995,63.672],
[12.1498,63.5939],
[12.2129,63.4786],
[12.0841,63.3556],
[11.9746,63.2692],
[12.2182,63.0003],
[12.0747,62.9025],
[12.1364,62.7479],
[12.0561,62.6119],
[12.2994,62.2675],
[12.1377,61.7238],
[12.2756,61.6402],
[12.3412,61.6147],
[12.4196,61.563],
[12.5693,61.5687],
[12.8708,61.3565],
[12.8338,61.2585],
[12.7903,61.197],
[12.707,61.1433],
[12.6814,61.0595],
[12.6103,61.0465],
[12.4476,61.0507],
[12.224,61.0131],
[12.3328,60.8902],
[12.3345,60.8524],
[12.3954,60.7339],
[12.511,60.6425],
[12.5158,60.6002],
[12.5819,60.5509],
[12.6069,60.5127],
[12.6061,60.4059],
[12.5453,60.3473],
[12.4988,60.3237],
[12.5044,60.2812],
[12.5419,60.1934],
[12.5006,60.0991],
[12.4486,60.0392],
[12.3957,60.0156],
[12.3411,59.9657],
[12.231,59.9276],
[12.1743,59.8898],
[12.1261,59.8939],
[12.0535,59.8859],
[11.9852,59.9007],
[11.9421,59.8901],
[11.9229,59.8825],
[11.9192,59.8736],
[11.8852,59.8721],
[11.8841,59.8558],
[11.8394,59.8414],
[11.8529,59.8303],
[11.8842,59.8252],
[11.926,59.7932],
[11.9334,59.7586],
[11.9229,59.7508],
[11.9325,59.7392],
[11.9372,59.7005],
[11.9446,59.6982],
[11.8891,59.6932],
[11.8557,59.6483],
[11.7789,59.643],
[11.7205,59.6255],
[11.6979,59.6088],
[11.691,59.5896],
[11.7286,59.5112],
[11.7531,59.4794],
[11.7609,59.4287],
[11.774,59.4143],
[11.7797,59.3865],
[11.8162,59.3448],
[11.8298,59.2418],
[11.7831,59.2071],
[11.7746,59.1707],
[11.778,59.1361],
[11.7636,59.1146],
[11.781,59.0994],
[11.7759,59.087],
[11.7105,59.0337],
[11.6981,59.0003],
[11.6838,58.9898],
[11.6935,58.9778],
[11.6846,58.9746],
[11.6888,58.9564],
[11.6733,58.9419],
[11.6758,58.935],
[11.658,58.9317],
[11.652,58.9062],
[11.6304,58.9087],
[11.5906,58.8907],
[11.5779,58.8975],
[11.5725,58.8879],
[11.5535,58.899],
[11.5337,58.8861],
[11.5363,58.8774],
[11.4998,58.8894],
[11.4557,58.8892],
[11.4636,58.9333],
[11.4623,58.9731],
[11.4538,58.9855],
[11.4646,58.9912],
[11.4142,59.0397],
[11.3684,59.0985],
[11.3399,59.115],
[11.2486,59.0936],
[11.1537,59.0792],
[11.1174,59.0154],
[11.0667,58.9774],
[10.7707,58.9162]
]
],
[
[
[17.8372,57.2971],
[17.8443,57.2586],
[17.8759,57.2316],
[17.9272,57.2157],
[18.0046,57.214],
[18.0285,57.2022],
[18.0248,57.1525],
[18.067,57.1069],
[18.0516,57.0886],
[18.0479,57.0629],
[18.074,57.029],
[18.0709,57.009],
[18.0036,56.9424],
[17.9956,56.9126],
[18.0062,56.8866],
[18.0315,56.866],
[18.0688,56.85],
[18.1672,56.8395],
[18.2631,56.8442],
[18.3741,56.8779],
[18.4118,56.9025],
[18.4359,56.9294],
[18.4955,56.9517],
[18.5223,56.9739],
[18.5307,56.9928],
[18.5258,57.0185],
[18.4856,57.0509],
[18.5861,57.075],
[18.6389,57.1167],
[18.6531,57.1502],
[18.7204,57.1512],
[18.7811,57.1716],
[18.8294,57.2211],
[18.8698,57.2495],
[18.8827,57.2854],
[18.8739,57.316],
[18.9502,57.3294],
[19.0095,57.3631],
[19.0505,57.3727],
[19.0847,57.3916],
[19.1071,57.4201],
[19.1134,57.4491],
[19.108,57.468],
[19.0856,57.4905],
[19.0257,57.5119],
[18.9075,57.5143],
[18.9272,57.5353],
[18.9358,57.5585],
[18.9377,57.5978],
[18.9255,57.6201],
[18.9942,57.6314],
[19.0412,57.6641],
[19.1005,57.6783],
[19.1881,57.7278],
[19.2029,57.7451],
[19.2123,57.7759],
[19.2467,57.7888],
[19.2735,57.8105],
[19.2823,57.8353],
[19.2762,57.8552],
[19.2836,57.866],
[19.3499,57.8772],
[19.4469,57.9225],
[19.4701,57.9659],
[19.4452,58.0099],
[19.4189,58.0307],
[19.367,58.0472],
[19.2537,58.0639],
[19.1582,58.0623],
[19.031,58.0319],
[18.9701,57.9934],
[18.8768,57.9942],
[18.7959,57.9831],
[18.725,57.9954],
[18.6638,57.9902],
[18.6082,57.9715],
[18.5377,57.934],
[18.5074,57.9058],
[18.4121,57.8835],
[18.3595,57.8574],
[18.3005,57.796],
[18.2605,57.7382],
[18.2216,57.7035],
[18.1639,57.6623],
[18.1097,57.6437],
[18.0464,57.6066],
[17.9929,57.5592],
[17.984,57.5234],
[17.9927,57.4823],
[17.9641,57.4559],
[17.9558,57.4308],
[17.9718,57.3994],
[18.0051,57.3791],
[17.9547,57.3577],
[17.8824,57.3413],
[17.8522,57.3206],
[17.8372,57.2971]
]
],
[
[
[19.0493,58.4049],
[19.0552,58.3795],
[19.1068,58.3076],
[19.1439,58.2851],
[19.1858,58.2718],
[19.2629,58.2684],
[19.3468,58.2793],
[19.395,58.2985],
[19.4204,58.3239],
[19.4417,58.3421],
[19.4501,58.3603],
[19.436,58.3965],
[19.3595,58.4368],
[19.2842,58.4545],
[19.1905,58.4675],
[19.1294,58.4624],
[19.0757,58.44],
[19.0493,58.4049]
]
]
]}
}
