{
"type": "Feature",
"properties": {"id":"ohm-r2746680","edge_precision":"unknown","ohm_relation":2746680,"ohm_version":29,"ohm_timestamp":"2026-08-28T23:33:09Z"},
"geometry": {"type": "MultiPolygon", "coordinates": [
[
[
[22.2085,42.5223],
[22.2092,42.5088],
[22.2198,42.4996],
[22.2182,42.4835],
[22.2294,42.471],
[22.2839,42.4479],
[22.2922,42.4316],
[22.3107,42.4208],
[22.3136,42.374],
[22.2975,42.3694],
[22.2927,42.3492],
[22.3598,42.3117],
[22.3783,42.3091],
[22.3984,42.2937],
[22.4248,42.2559],
[22.4346,42.2578],
[22.4506,42.2419],
[22.4688,42.201],
[22.5011,42.196],
[22.506,42.1688],
[22.5183,42.1579],
[22.5127,42.1528],
[22.5279,42.1399],
[22.5482,42.1346],
[22.5807,42.11],
[22.6087,42.1058],
[22.6047,42.0979],
[22.6307,42.0937],
[22.6799,42.0635],
[22.7177,42.0686],
[22.7394,42.0452],
[22.7805,42.0368],
[22.7987,42.0461],
[22.8245,42.0225],
[22.8671,42.0222],
[22.8704,42.0107],
[22.8639,42.0016],
[22.8758,41.997],
[22.8783,41.9761],
[22.8736,41.9358],
[22.8944,41.9144],
[22.9015,41.8778],
[22.9159,41.8762],
[22.937,41.8471],
[22.9406,41.8173],
[22.9655,41.7882],
[22.9638,41.7744],
[23.0083,41.7691],
[23.0338,41.7224],
[23.034,41.7094],
[22.9949,41.6745],
[22.9818,41.6568],
[22.9837,41.6468],
[22.9513,41.6416],
[22.9511,41.5906],
[22.9731,41.5623],
[22.9706,41.5427],
[22.9612,41.5413],
[22.8062,41.5384],
[22.6524,41.5556],
[22.487,41.4957],
[22.4437,41.4502],
[22.5082,41.3974],
[22.5433,41.3454],
[22.5893,41.3376],
[22.6826,41.349],
[22.7791,41.3273],
[22.8116,41.3436],
[22.8222,41.3347],
[22.9272,41.3385],
[23.0287,41.3337],
[23.0903,41.3181],
[23.1962,41.3223],
[23.226,41.3405],
[23.2317,41.376],
[23.2829,41.3999],
[23.3224,41.3996],
[23.3404,41.3636],
[23.4024,41.4014],
[23.4189,41.3984],
[23.4363,41.4062],
[23.4828,41.3993],
[23.5256,41.405],
[23.5514,41.3863],
[23.5782,41.3905],
[23.6159,41.3753],
[23.647,41.38],
[23.6469,41.3955],
[23.6739,41.4107],
[23.6891,41.4046],
[23.7302,41.4078],
[23.7676,41.3961],
[23.7995,41.4371],
[23.8507,41.4399],
[23.8561,41.45],
[23.8827,41.4549],
[23.8904,41.4501],
[23.9075,41.4571],
[23.915,41.4821],
[23.941,41.463],
[23.9435,41.4502],
[23.9644,41.4399],
[23.9763,41.4387],
[24.0172,41.4676],
[24.0221,41.4564],
[24.0463,41.4503],
[24.0735,41.465],
[24.072,41.4776],
[24.0602,41.4853],
[24.0664,41.5005],
[24.0597,41.5211],
[24.0756,41.5311],
[24.077,41.5414],
[24.1013,41.5504],
[24.1155,41.54],
[24.1316,41.541],
[24.1333,41.5334],
[24.1493,41.5393],
[24.1741,41.5239],
[24.1725,41.516],
[24.1864,41.515],
[24.1939,41.521],
[24.1899,41.5317],
[24.2108,41.5439],
[24.2124,41.5523],
[24.2297,41.5467],
[24.2609,41.5737],
[24.2757,41.5678],
[24.2703,41.5587],
[24.3033,41.5387],
[24.2949,41.5247],
[24.3042,41.511],
[24.3379,41.5265],
[24.3707,41.5178],
[24.3837,41.5369],
[24.3943,41.5391],
[24.4502,41.5217],
[24.4632,41.5285],
[24.4648,41.5453],
[24.4838,41.5577],
[24.4942,41.5534],
[24.5239,41.5688],
[24.5349,41.5653],
[24.5351,41.5553],
[24.5535,41.5499],
[24.5464,41.5394],
[24.5636,41.5132],
[24.5596,41.5017],
[24.5725,41.475],
[24.5947,41.4671],
[24.5969,41.446],
[24.6113,41.4252],
[24.6491,41.4348],
[24.6643,41.4325],
[24.66,41.4157],
[24.6813,41.4253],
[24.7267,41.4176],
[24.7477,41.3804],
[24.7875,41.3604],
[24.7374,41.3393],
[24.7452,41.3326],
[24.7342,41.317],
[24.7513,41.2788],
[24.7656,41.2783],
[24.7652,41.2639],
[24.774,41.2541],
[24.7749,41.1998],
[24.8006,41.1743],
[24.7632,41.1277],
[24.7755,41.0928],
[24.7316,41.0245],
[24.8017,40.8472],
[24.8007,40.8054],
[24.8447,40.8201],
[24.9177,40.8801],
[25.0246,40.9012],
[25.0495,40.9375],
[25.0723,40.9528],
[25.0958,40.9249],
[25.1564,40.902],
[25.2162,40.8995],
[25.2633,40.8819],
[25.3218,40.9025],
[25.349,40.8767],
[25.4316,40.8607],
[25.531,40.8215],
[25.5612,40.8169],
[25.6243,40.8232],
[25.6974,40.8084],
[25.8147,40.8098],
[25.9026,40.794],
[25.9407,40.7991],
[25.976,40.7543],
[25.9744,40.7251],
[25.9942,40.7031],
[26.0364,40.7302],
[26.0744,40.7276],
[26.1244,40.7423],
[26.1268,40.7705],
[26.1563,40.8087],
[26.1744,40.8176],
[26.1804,40.8125],
[26.1809,40.8202],
[26.1832,40.8195],
[26.205,40.8209],
[26.2014,40.8305],
[26.2086,40.8265],
[26.2171,40.8414],
[26.2044,40.8475],
[26.2053,40.8548],
[26.2149,40.8536],
[26.2055,40.8649],
[26.223,40.8666],
[26.2221,40.8898],
[26.2293,40.8918],
[26.2269,40.8825],
[26.2498,40.8815],
[26.2616,40.9153],
[26.276,40.8941],
[26.2941,40.8948],
[26.3017,40.9042],
[26.2854,40.9307],
[26.3039,40.9274],
[26.3273,40.944],
[26.359,40.9453],
[26.3487,40.964],
[26.3266,40.9781],
[26.3299,40.9915],
[26.345,40.9896],
[26.3579,40.9996],
[26.3667,41.018],
[26.3602,41.0262],
[26.3268,41.042],
[26.3298,41.0508],
[26.3106,41.0812],
[26.336,41.107],
[26.3068,41.1088],
[26.306,41.1186],
[26.3225,41.1241],
[26.3211,41.1347],
[26.3368,41.1434],
[26.3069,41.1732],
[26.3112,41.1829],
[26.3235,41.1861],
[26.3232,41.211],
[26.331,41.2201],
[26.3173,41.2424],
[26.3253,41.2552],
[26.339,41.2584],
[26.3572,41.2495],
[26.3938,41.2499],
[26.436,41.2788],
[26.4568,41.2811],
[26.4697,41.3019],
[26.4882,41.3055],
[26.4985,41.3287],
[26.509,41.3269],
[26.5183,41.3395],
[26.5433,41.3423],
[26.5697,41.3244],
[26.5868,41.3225],
[26.6169,41.3362],
[26.63,41.3572],
[26.6356,41.3851],
[26.6295,41.4175],
[26.6132,41.4242],
[26.6117,41.4398],
[26.6119,41.4419],
[26.6132,41.463],
[26.5974,41.4808],
[26.6042,41.4943],
[26.5912,41.5259],
[26.5985,41.5454],
[26.5872,41.5706],
[26.5997,41.5824],
[26.5952,41.6102],
[26.5294,41.6217],
[26.4865,41.659],
[26.4953,41.661],
[26.4929,41.6726],
[26.4689,41.6695],
[26.4423,41.6867],
[26.4259,41.6819],
[26.4091,41.6856],
[26.3843,41.6916],
[26.3688,41.7098],
[26.358,41.7087],
[26.3579,41.7111],
[26.3292,41.7362],
[26.3374,41.7694],
[26.3689,41.8208],
[26.5386,41.8235],
[26.5683,41.8693],
[26.5803,41.8722],
[26.5667,41.8857],
[26.5838,41.9046],
[26.5616,41.9258],
[26.6183,41.9656],
[26.6239,41.9796],
[26.6684,41.9647],
[26.7137,41.9686],
[26.754,41.958],
[26.7591,41.9705],
[26.7871,41.9896],
[26.8094,41.976],
[26.8471,41.9697],
[26.8479,41.9805],
[26.8707,41.991],
[26.9012,41.986],
[26.9313,42.0029],
[26.9661,41.9966],
[26.984,42.0191],
[26.9813,42.0379],
[27.0062,42.0388],
[27.0258,42.0562],
[27.0244,42.0818],
[27.0614,42.0899],
[27.1106,42.0858],
[27.1286,42.0695],
[27.1534,42.0721],
[27.1636,42.0647],
[27.1837,42.0701],
[27.2003,42.0595],
[27.207,42.0609],
[27.1981,42.0736],
[27.2008,42.0832],
[27.2164,42.0858],
[27.2218,42.0986],
[27.2408,42.1051],
[27.2732,42.102],
[27.3264,42.0801],
[27.336,42.0598],
[27.3633,42.0586],
[27.393,42.0068],
[27.4131,41.9999],
[27.4145,41.9907],
[27.4325,41.9912],
[27.4479,41.967],
[27.463,41.9689],
[27.4677,41.9586],
[27.4894,41.9514],
[27.511,41.9583],
[27.5404,41.9166],
[27.5601,41.9051],
[27.5723,41.9049],
[27.5716,41.9126],
[27.5613,41.9152],
[27.5766,41.9197],
[27.5665,41.9238],
[27.5743,41.9375],
[27.5888,41.9314],
[27.6042,41.9474],
[27.6126,41.9385],
[27.6296,41.9498],
[27.622,41.9589],
[27.6426,41.9541],
[27.6673,41.9622],
[27.6721,41.9564],
[27.6842,41.9716],
[27.7034,41.9701],
[27.6965,41.9781],
[27.7327,41.9737],
[27.7371,41.9799],
[27.7485,41.9725],
[27.7436,41.9678],
[27.7664,41.9677],
[27.7706,41.9597],
[27.7776,41.9661],
[27.7861,41.9614],
[27.7785,41.9537],
[27.793,41.9481],
[27.8015,41.9533],
[27.8158,41.9426],
[27.8141,41.9541],
[27.836,41.948],
[27.8336,41.9616],
[27.8203,41.9626],
[27.8261,41.9743],
[27.8188,41.9757],
[27.8186,41.9866],
[27.8311,41.9988],
[27.8452,41.9906],
[27.8523,42.0016],
[27.8552,41.9909],
[27.8619,42.0065],
[27.8999,41.9919],
[27.9,41.9818],
[27.9112,41.9729],
[27.9336,41.9849],
[27.9572,41.9762],
[27.9761,41.9899],
[28.0016,41.981],
[28.0296,41.9828],
[28.0859,41.982],
[28.0895,41.982],
[28.0667,42.0375],
[28.0335,42.0875],
[28.0127,42.0989],
[27.9837,42.1325],
[27.9602,42.1419],
[27.8834,42.2167],
[27.8356,42.2481],
[27.8184,42.2722],
[27.8451,42.2954],
[27.8351,42.3481],
[27.8155,42.3679],
[27.7751,42.3759],
[27.7823,42.4093],
[27.7727,42.4328],
[27.6467,42.4975],
[27.5892,42.5033],
[27.5534,42.495],
[27.5372,42.4964],
[27.5376,42.5035],
[27.5417,42.514],
[27.6113,42.5201],
[27.6471,42.5131],
[27.6884,42.5272],
[27.705,42.5597],
[27.685,42.5971],
[27.7698,42.6272],
[27.7898,42.6448],
[27.7933,42.6638],
[27.8917,42.6586],
[27.9388,42.6742],
[27.9482,42.6852],
[27.9539,42.717],
[27.9453,42.7458],
[27.9525,42.7812],
[27.9393,42.8256],
[27.9555,42.8483],
[27.9515,42.9091],
[27.9599,42.9269],
[27.9429,43.0271],
[27.9651,43.055],
[27.9793,43.1086],
[27.9925,43.1288],
[27.9976,43.1799],
[28.0379,43.1894],
[28.0615,43.2097],
[28.0935,43.2623],
[28.1301,43.3466],
[28.1277,43.3484],
[28.0135,43.3531],
[27.9655,43.3928],
[27.9338,43.3943],
[27.8677,43.3654],
[27.8087,43.3877],
[27.7409,43.4568],
[27.7151,43.4733],
[27.678,43.4789],
[27.6382,43.5059],
[27.6038,43.5419],
[27.5883,43.5378],
[27.5779,43.5185],
[27.5199,43.4992],
[27.495,43.508],
[27.4884,43.5321],
[27.4585,43.5627],
[27.4189,43.5712],
[27.4088,43.5986],
[27.3856,43.6094],
[27.3059,43.5949],
[27.2769,43.6049],
[27.2562,43.6353],
[27.1917,43.6796],
[27.1289,43.6538],
[27.0704,43.7283],
[27.0008,43.6996],
[26.9313,43.75],
[26.9133,43.7414],
[26.9033,43.753],
[26.9031,43.7755],
[26.8598,43.8062],
[26.8372,43.8437],
[26.8222,43.8422],
[26.8081,43.8264],
[26.7751,43.8193],
[26.7674,43.8072],
[26.7355,43.8449],
[26.6172,43.8694],
[26.586,43.919],
[26.5683,43.937],
[26.5457,43.9449],
[26.4916,43.925],
[26.4648,43.9468],
[26.4314,43.9533],
[26.3962,43.9496],
[26.3762,44.0195],
[26.3614,44.04],
[26.3447,44.0302],
[26.3183,44.0292],
[26.2637,44.0029],
[26.1971,43.9846],
[26.1442,43.9833],
[26.1072,43.9698],
[26.0728,43.9261],
[26.0526,43.9013],
[25.9968,43.8833],
[25.9535,43.8595],
[25.8881,43.7928],
[25.8637,43.7685],
[25.8064,43.7427],
[25.78,43.7088],
[25.7298,43.6899],
[25.6667,43.6896],
[25.6181,43.6697],
[25.5609,43.648],
[25.492,43.6491],
[25.3944,43.6184],
[25.3429,43.6295],
[25.2427,43.6857],
[25.1795,43.6981],
[25.1058,43.6837],
[25.0214,43.7105],
[24.9658,43.722],
[24.8987,43.7097],
[24.8464,43.709],
[24.8008,43.7079],
[24.746,43.6839],
[24.7111,43.6896],
[24.6533,43.7255],
[24.6114,43.7447],
[24.5125,43.7618],
[24.4484,43.743],
[24.4377,43.7366],
[24.4094,43.7177],
[24.3798,43.7107],
[24.3414,43.6957],
[24.2936,43.6981],
[24.1749,43.6813],
[24.0865,43.7035],
[24.0579,43.7194],
[23.9786,43.7426],
[23.8516,43.7586],
[23.8133,43.7728],
[23.778,43.8003],
[23.7181,43.8063],
[23.6738,43.8016],
[23.6073,43.7916],
[23.5296,43.8165],
[23.4955,43.8341],
[23.4139,43.8532],
[23.2678,43.846],
[23.138,43.8051],
[23.0649,43.7962],
[22.9001,43.8259],
[22.8694,43.8373],
[22.8364,43.8764],
[22.8798,43.9832],
[22.8958,43.9931],
[22.944,44.0068],
[23.0062,44.0115],
[23.042,44.0532],
[23.043,44.0746],
[23.0299,44.0865],
[22.993,44.0983],
[22.9242,44.1005],
[22.8639,44.1365],
[22.7887,44.1659],
[22.7578,44.1934],
[22.6951,44.2047],
[22.6751,44.2161],
[22.6686,44.2078],
[22.6662,44.2142],
[22.6548,44.2046],
[22.6445,44.2086],
[22.6455,44.1978],
[22.6368,44.1905],
[22.6429,44.1856],
[22.6289,44.1833],
[22.6359,44.1755],
[22.613,44.1653],
[22.6283,44.1583],
[22.627,44.1474],
[22.6204,44.1506],
[22.6186,44.1466],
[22.6035,44.1384],
[22.6136,44.1266],
[22.6065,44.1188],
[22.5793,44.1158],
[22.567,44.0945],
[22.5764,44.0966],
[22.5755,44.0903],
[22.5583,44.0721],
[22.4894,44.0856],
[22.476,44.0966],
[22.4738,44.0815],
[22.4528,44.0792],
[22.4497,44.0669],
[22.4241,44.0661],
[22.425,44.0522],
[22.4066,44.058],
[22.3944,44.0465],
[22.3943,44.0347],
[22.374,44.0379],
[22.3713,44.0316],
[22.3787,44.0306],
[22.3692,44.0238],
[22.3711,44.0163],
[22.356,44.0176],
[22.3541,44.0012],
[22.3251,43.9886],
[22.3714,43.9858],
[22.3417,43.9525],
[22.3885,43.9267],
[22.3945,43.9087],
[22.3887,43.8789],
[22.3572,43.8095],
[22.3775,43.7752],
[22.4024,43.7589],
[22.3943,43.7299],
[22.4079,43.6959],
[22.4245,43.6785],
[22.4591,43.6591],
[22.4768,43.6574],
[22.4839,43.647],
[22.4918,43.6392],
[22.4819,43.6254],
[22.4935,43.6002],
[22.487,43.5917],
[22.4966,43.5835],
[22.4877,43.5687],
[22.49,43.5559],
[22.5247,43.4914],
[22.5335,43.4711],
[22.554,43.4616],
[22.5759,43.4638],
[22.5977,43.4357],
[22.6613,43.4258],
[22.6671,43.4026],
[22.6784,43.3948],
[22.722,43.3957],
[22.7483,43.3865],
[22.7679,43.3766],
[22.77,43.3636],
[22.7941,43.3437],
[22.8277,43.329],
[22.8486,43.2756],
[22.8689,43.2674],
[22.8705,43.2546],
[22.8965,43.2267],
[22.9412,43.2025],
[22.9612,43.2069],
[22.9926,43.1972],
[22.8569,43.1463],
[22.8293,43.1477],
[22.7265,43.0395],
[22.6754,43.0089],
[22.6384,43.0234],
[22.6005,43.0214],
[22.5824,43.0106],
[22.571,43.0172],
[22.5641,43.0064],
[22.5065,43.0109],
[22.5406,42.9686],
[22.5283,42.9486],
[22.4836,42.9236],
[22.4974,42.8913],
[22.493,42.8758],
[22.5157,42.8678],
[22.515,42.856],
[22.4753,42.8319],
[22.4413,42.8253],
[22.3986,42.8167],
[22.3606,42.798],
[22.3517,42.78],
[22.3625,42.7712],
[22.3666,42.7174],
[22.3892,42.7129],
[22.3893,42.7063],
[22.3421,42.6365],
[22.3222,42.631],
[22.3122,42.6113],
[22.2889,42.6035],
[22.2835,42.612],
[22.2729,42.6076],
[22.2486,42.5806],
[22.2465,42.565],
[22.2322,42.559],
[22.227,42.5304],
[22.2085,42.5223]
]
]
]}
}
