{
"type": "Feature",
"properties": {"id":"ohm-r2861416","edge_precision":"unknown","ohm_relation":2861416,"ohm_version":10,"ohm_timestamp":"2026-03-26T18:43:52Z"},
"geometry": {"type": "MultiPolygon", "coordinates": [
[
[
[-6.9551,34],
[-1.6893,34],
[-1.6721,34.0592],
[-1.6748,34.106],
[-1.7461,34.2903],
[-1.7713,34.3347],
[-1.8096,34.3725],
[-1.703,34.4797],
[-1.7507,34.4942],
[-1.8711,34.5966],
[-1.7695,34.7413],
[-1.9797,34.8653],
[-1.9935,34.8789],
[-2.0036,34.9182],
[-2.0163,34.9262],
[-2.0612,34.9297],
[-2.1633,34.994],
[-2.1938,35.0036],
[-2.2117,35.0234],
[-2.2211,35.05],
[-2.212,35.0851],
[-2.2123,35.1408],
[-2.3184,35.1692],
[-2.3803,35.1888],
[-2.3881,35.2127],
[-2.4034,35.2268],
[-2.447,35.2361],
[-2.4781,35.2244],
[-2.4919,35.2095],
[-2.4978,35.1913],
[-2.4918,35.1677],
[-2.5191,35.1487],
[-2.5718,35.1427],
[-2.6353,35.1454],
[-2.7094,35.1688],
[-2.8707,35.2968],
[-2.8735,35.3081],
[-2.9207,35.2859],
[-2.9294,35.2719],
[-2.9505,35.2655],
[-2.9685,35.282],
[-2.9676,35.3017],
[-2.9522,35.3202],
[-2.9047,35.3564],
[-2.9063,35.3837],
[-2.8924,35.4298],
[-2.9003,35.4569],
[-2.9378,35.4837],
[-2.9935,35.487],
[-3.0246,35.4753],
[-3.0462,35.4528],
[-3.0759,35.3878],
[-3.1159,35.335],
[-3.1217,35.3327],
[-3.1771,35.3119],
[-3.2008,35.28],
[-3.2588,35.272],
[-3.3433,35.2451],
[-3.4462,35.2589],
[-3.4854,35.2507],
[-3.5283,35.2687],
[-3.5931,35.2838],
[-3.6601,35.3292],
[-3.7145,35.3381],
[-3.7519,35.3314],
[-3.7923,35.3119],
[-3.8246,35.2665],
[-3.8518,35.2552],
[-3.8652,35.2757],
[-3.906,35.3068],
[-3.9507,35.3123],
[-4.0039,35.2868],
[-4.0636,35.2832],
[-4.1304,35.2636],
[-4.147,35.2516],
[-4.1924,35.254],
[-4.316,35.223],
[-4.3255,35.218],
[-4.3605,35.2026],
[-4.4306,35.2052],
[-4.4682,35.2215],
[-4.5162,35.2232],
[-4.5743,35.2404],
[-4.5997,35.238],
[-4.6385,35.2602],
[-4.6924,35.2609],
[-4.739,35.2773],
[-4.8403,35.3433],
[-4.8843,35.3526],
[-4.9748,35.4391],
[-5.0175,35.4484],
[-5.0323,35.4724],
[-5.0742,35.5177],
[-5.0998,35.5321],
[-5.1202,35.5612],
[-5.1557,35.5787],
[-5.19,35.5865],
[-5.2036,35.6038],
[-5.2208,35.6583],
[-5.2091,35.684],
[-5.2171,35.711],
[-5.2422,35.7299],
[-5.2785,35.7362],
[-5.2851,35.7597],
[-5.283,35.7837],
[-5.2956,35.8389],
[-5.2739,35.8457],
[-5.3435,35.8707],
[-5.3718,35.8814],
[-5.3821,35.9124],
[-5.3917,35.9747],
[-5.5147,35.9503],
[-5.5957,35.8854],
[-5.6879,35.8913],
[-5.7946,35.853],
[-5.8068,35.8403],
[-5.8313,35.8436],
[-5.8783,35.8516],
[-5.9203,35.849],
[-5.9532,35.8363],
[-5.9842,35.8064],
[-6.0284,35.6442],
[-6.0799,35.4966],
[-6.1051,35.4699],
[-6.1158,35.4428],
[-6.1352,35.4107],
[-6.1826,35.2722],
[-6.199,35.2401],
[-6.2138,35.2306],
[-6.224,35.2187],
[-6.288,35.0526],
[-6.3189,34.9603],
[-6.4045,34.8045],
[-6.4554,34.6893],
[-6.5702,34.4998],
[-6.6834,34.3581],
[-6.721,34.2995],
[-6.7352,34.2681],
[-6.7657,34.204],
[-6.8197,34.1324],
[-6.9531,34.0015],
[-6.9551,34]
]
]
]}
}
