{
"type": "Feature",
"properties": {"id":"ohm-r2891769","edge_precision":"unknown","ohm_relation":2891769,"ohm_version":9,"ohm_timestamp":"2026-09-22T01:03:55Z"},
"geometry": {"type": "MultiPolygon", "coordinates": [
[
[
[40.6752,43.7158],
[40.6877,43.7128],
[40.696,43.7038],
[40.6929,43.6956],
[40.7127,43.6855],
[40.7168,43.6788],
[40.6994,43.6534],
[40.7424,43.6054],
[40.7394,43.5897],
[40.7258,43.5836],
[40.7289,43.5591],
[40.7133,43.5325],
[40.8278,43.488],
[40.891,43.4895],
[40.8994,43.4695],
[40.8929,43.4584],
[40.9236,43.4483],
[40.9292,43.4287],
[40.9499,43.4197],
[41.0043,43.4322],
[41.0468,43.3953],
[41.0964,43.3852],
[41.1012,43.401],
[41.1275,43.397],
[41.1526,43.4033],
[41.1555,43.3892],
[41.168,43.3834],
[41.2211,43.3805],
[41.2432,43.3589],
[41.2748,43.3606],
[41.2799,43.3527],
[41.2749,43.3476],
[41.291,43.337],
[41.3408,43.3475],
[41.366,43.3701],
[41.3936,43.3662],
[41.4152,43.3517],
[41.4092,43.333],
[41.4199,43.3182],
[41.4381,43.3065],
[41.4616,43.3085],
[41.4827,43.2911],
[41.5056,43.2819],
[41.5445,43.2696],
[41.5618,43.2493],
[41.5764,43.2536],
[41.5835,43.2374],
[41.6142,43.221],
[41.6345,43.222],
[41.6581,43.2378],
[41.681,43.2172],
[41.6927,43.2185],
[41.7281,43.2415],
[41.7732,43.2183],
[41.7877,43.2192],
[41.8039,43.202],
[41.8307,43.2147],
[41.8484,43.2115],
[41.8658,43.2338],
[41.8629,43.2427],
[41.8851,43.2498],
[41.9034,43.2286],
[41.9418,43.2252],
[41.9588,43.2025],
[41.9717,43.2124],
[42.0191,43.2171],
[42.0404,43.1868],
[42.0807,43.2047],
[42.0954,43.214],
[42.1319,43.2103],
[42.1634,43.2224],
[42.1806,43.215],
[42.2162,43.231],
[42.2464,43.2281],
[42.2528,43.2123],
[42.2952,43.2109],
[42.3067,43.2233],
[42.3411,43.2204],
[42.3582,43.2468],
[42.3881,43.2438],
[42.4138,43.257],
[42.4421,43.2508],
[42.4521,43.2376],
[42.4442,43.2265],
[42.4572,43.2129],
[42.51,43.1991],
[42.5433,43.1766],
[42.6156,43.1646],
[42.6665,43.136],
[42.6753,43.1354],
[42.6716,43.1456],
[42.6816,43.1699],
[42.7766,43.1888],
[42.8116,43.1673],
[42.8603,43.1786],
[42.8775,43.1697],
[42.8811,43.1535],
[42.898,43.1588],
[42.9321,43.1484],
[42.9214,43.1357],
[42.9275,43.1241],
[42.9635,43.1251],
[42.9936,43.1167],
[43.0415,43.0904],
[43.0156,43.0711],
[43.0258,43.048],
[43.0387,43.0387],
[43.035,43.0299],
[43.0867,42.9997],
[43.1128,43.0003],
[43.1437,42.9693],
[43.1732,42.9628],
[43.1863,42.9376],
[43.2907,42.918],
[43.3004,42.9073],
[43.3175,42.9148],
[43.3348,42.8901],
[43.3985,42.8969],
[43.4778,42.8899],
[43.5076,42.8677],
[43.5602,42.8684],
[43.6105,42.8341],
[43.6073,42.8143],
[43.6374,42.8129],
[43.6438,42.7977],
[43.6528,42.795],
[43.6853,42.8018],
[43.6894,42.7871],
[43.706,42.778],
[43.7622,42.7656],
[43.8046,42.7431],
[43.8076,42.7206],
[43.7783,42.6774],
[43.7582,42.6538],
[43.7379,42.6495],
[43.7148,42.632],
[43.7543,42.6166],
[43.7522,42.6006],
[43.77,42.5887],
[43.7987,42.5991],
[43.8262,42.5931],
[43.8389,42.5984],
[43.8755,42.58],
[43.9436,42.5628],
[43.945,42.5498],
[43.9636,42.547],
[44.0221,42.5973],
[44.09,42.6051],
[44.1162,42.618],
[44.1498,42.6043],
[44.1632,42.6063],
[44.1939,42.6351],
[44.2324,42.6269],
[44.2309,42.6401],
[44.2495,42.6811],
[44.3005,42.7059],
[44.3128,42.7215],
[44.3498,42.7108],
[44.3816,42.7152],
[44.3932,42.7051],
[44.4109,42.7092],
[44.4171,42.7189],
[44.5173,42.6968],
[44.521,42.7041],
[44.5009,42.7345],
[44.5129,42.7539],
[44.5346,42.7534],
[44.5529,42.7665],
[44.58,42.7451],
[44.6502,42.7461],
[44.68,42.7559],
[44.7458,42.7212],
[44.7518,42.7139],
[44.7444,42.7059],
[44.7467,42.6892],
[44.7659,42.6443],
[44.803,42.6149],
[44.8295,42.6179],
[44.823,42.6413],
[44.8354,42.6731],
[44.8568,42.6769],
[44.8685,42.6914],
[44.8696,42.7258],
[44.8866,42.7469],
[44.9791,42.7455],
[45,42.7257],
[45,43.7223],
[44.9813,43.7134],
[44.9796,43.7028],
[44.9633,43.6964],
[44.9616,43.6851],
[44.9449,43.6712],
[44.9229,43.6788],
[44.9115,43.6777],
[44.9082,43.6667],
[44.8909,43.6584],
[44.8562,43.6645],
[44.851,43.6695],
[44.8601,43.6953],
[44.8418,43.6805],
[44.8227,43.6845],
[44.8462,43.7043],
[44.8449,43.7141],
[44.8274,43.7069],
[44.8029,43.7194],
[44.7879,43.722],
[44.7966,43.7146],
[44.792,43.7092],
[44.7764,43.7171],
[44.7621,43.7078],
[44.7642,43.7234],
[44.753,43.7194],
[44.7273,43.7306],
[44.7177,43.7344],
[44.7046,43.7273],
[44.693,43.7355],
[44.6558,43.7201],
[44.6428,43.7248],
[44.6032,43.7054],
[44.6004,43.7148],
[44.5714,43.7122],
[44.5641,43.7219],
[44.5563,43.7115],
[44.5355,43.7056],
[44.4908,43.7142],
[44.4822,43.7038],
[44.4505,43.6998],
[44.4571,43.6934],
[44.4501,43.6817],
[44.4269,43.6858],
[44.3742,43.693],
[44.3623,43.6818],
[44.3385,43.6835],
[44.3333,43.6767],
[44.2972,43.6895],
[44.2674,43.7453],
[44.268,43.8109],
[44.2925,43.8097],
[44.2932,43.8912],
[44.3436,43.9044],
[44.3438,43.9458],
[44.4189,43.9455],
[44.4194,44.0165],
[44.3692,44.0046],
[44.3688,43.9726],
[44.269,43.964],
[44.2686,43.9182],
[44.2253,43.9185],
[44.2248,43.9282],
[44.1439,43.9285],
[44.144,43.9702],
[43.9873,43.9707],
[43.9872,43.9863],
[43.9447,43.9864],
[43.9445,44.0098],
[43.932,44.0099],
[43.9321,44.0183],
[43.9222,44.0203],
[43.863,43.9876],
[43.8579,43.9602],
[43.8197,43.9598],
[43.7705,43.9275],
[43.7705,43.8745],
[43.7503,43.8536],
[43.7552,43.8431],
[43.7449,43.8195],
[43.5895,43.848],
[43.5455,43.8431],
[43.4739,43.8656],
[43.4135,43.8595],
[43.3166,43.7998],
[43.225,43.959],
[43.1639,43.9615],
[43.1461,43.9595],
[43.1449,43.948],
[43.1565,43.9396],
[43.1401,43.9228],
[43.1477,43.8951],
[42.9814,43.8989],
[42.9185,43.8653],
[42.8661,43.8677],
[42.8718,43.8478],
[42.8544,43.8405],
[42.8547,43.8019],
[42.8172,43.8014],
[42.7322,43.8193],
[42.6783,43.8097],
[42.6465,43.8272],
[42.6395,43.8461],
[42.6551,43.8562],
[42.628,43.8909],
[42.6392,43.8924],
[42.6402,43.9175],
[42.6472,43.9163],
[42.6609,43.9362],
[42.6179,43.9453],
[42.6199,43.9531],
[42.6271,43.9518],
[42.6249,43.9736],
[42.5791,43.9734],
[42.5846,44.0264],
[42.5026,44.0264],
[42.4818,44.0157],
[42.477,43.9912],
[42.4813,43.9804],
[42.4957,43.9783],
[42.4908,43.9671],
[42.4793,43.9665],
[42.4689,43.9762],
[42.4625,43.968],
[42.4549,43.9766],
[42.4531,43.9698],
[42.4125,43.9789],
[42.3762,43.9725],
[42.3676,43.984],
[42.3814,43.9968],
[42.3678,44.0002],
[42.3583,44.0378],
[42.3383,44.0236],
[42.3025,44.0294],
[42.2933,44.039],
[42.2989,44.0539],
[42.3154,44.0621],
[42.325,44.0974],
[42.3516,44.1141],
[42.3352,44.1325],
[42.3787,44.1535],
[42.3794,44.1694],
[42.4412,44.1701],
[42.4403,44.2021],
[42.4715,44.1933],
[42.4674,44.2043],
[42.4778,44.2149],
[42.5032,44.215],
[42.5032,44.2244],
[42.552,44.2238],
[42.5531,44.2691],
[42.6101,44.2694],
[42.6086,44.3118],
[42.5811,44.3197],
[42.5817,44.3431],
[42.5536,44.3521],
[42.5534,44.3683],
[42.4946,44.3642],
[42.4952,44.3473],
[42.479,44.325],
[42.4078,44.3254],
[42.4084,44.3082],
[42.3414,44.3109],
[42.3013,44.3286],
[42.2396,44.3373],
[42.2145,44.3513],
[42.0297,44.3527],
[42.015,44.3725],
[41.9208,44.4099],
[41.9269,44.435],
[41.9229,44.4637],
[41.9293,44.4732],
[41.9246,44.4961],
[41.8653,44.4976],
[41.8646,44.4872],
[41.8036,44.4839],
[41.7927,44.4712],
[41.7361,44.4737],
[41.7353,44.461],
[41.7062,44.4552],
[41.6939,44.4099],
[41.6282,44.4071],
[41.6337,44.3779],
[41.5978,44.3741],
[41.592,44.3636],
[41.6905,44.3334],
[41.744,44.2684],
[41.7279,44.2493],
[41.7285,44.2327],
[41.7124,44.2148],
[41.6989,44.1712],
[41.6831,44.1677],
[41.6479,44.1245],
[41.631,44.1269],
[41.6377,44.1174],
[41.5508,44.0962],
[41.5567,44.0872],
[41.5454,44.042],
[41.4882,44.046],
[41.4831,44.0539],
[41.4798,44.0009],
[41.4443,44.0037],
[41.4053,43.9811],
[41.3785,44.0053],
[41.3687,44.0049],
[41.3729,44.0098],
[41.358,44.0114],
[41.3627,43.9998],
[41.3502,43.9933],
[41.3601,43.978],
[41.315,43.9798],
[41.3105,43.9996],
[41.3014,44.0004],
[41.3132,44.0077],
[41.2928,44.0008],
[41.3059,44.014],
[41.3047,44.0189],
[41.2979,44.0128],
[41.2962,44.0084],
[41.2862,44.0138],
[41.2845,44.0019],
[41.2736,44.0182],
[41.2466,44.0099],
[41.2502,44.022],
[41.2812,44.05],
[41.2769,44.0726],
[41.2879,44.0584],
[41.3015,44.0617],
[41.2911,44.0855],
[41.2339,44.0987],
[41.2318,44.0891],
[41.1703,44.0887],
[41.1699,44.1043],
[41.1245,44.1263],
[41.1176,44.1129],
[41.1226,44.1065],
[41.0848,44.0947],
[41.0381,44.1205],
[41.0313,44.1126],
[40.9549,44.1411],
[40.8913,44.143],
[40.8912,44.1039],
[40.9262,44.0902],
[40.9107,44.0837],
[40.9115,44.0749],
[40.9269,44.0681],
[40.9191,44.0381],
[40.9355,44.0174],
[40.9221,44.008],
[40.9115,43.9771],
[40.8857,43.9446],
[40.8608,43.9469],
[40.8343,43.921],
[40.803,43.9177],
[40.786,43.88],
[40.7658,43.8722],
[40.7557,43.8297],
[40.7228,43.7949],
[40.742,43.7827],
[40.7577,43.7498],
[40.7323,43.7387],
[40.7007,43.7412],
[40.6752,43.7158]
]
],
[
[
[41.2978,44.0127],
[41.2979,44.0128],
[41.3013,44.0215],
[41.2978,44.0127]
]
],
[
[
[41.3059,44.014],
[41.3063,44.0123],
[41.3066,44.0146],
[41.3059,44.014]
]
],
[
[
[41.3066,44.0146],
[41.3204,44.0284],
[41.3074,44.022],
[41.3066,44.0146]
]
]
]}
}
