{
"type": "Feature",
"properties": {"id":"ohm-r2741472","edge_precision":"unknown","ohm_relation":2741472,"ohm_version":117,"ohm_timestamp":"2026-09-22T21:40:57Z"},
"geometry": {"type": "MultiPolygon", "coordinates": [
[
[
[15.7854,52.6171],
[15.8115,52.5937],
[15.8361,52.5871],
[15.8248,52.5672],
[15.8582,52.5467],
[15.8586,52.5444],
[15.835,52.5293],
[15.8016,52.5284],
[15.7878,52.5156],
[15.7888,52.5066],
[15.7956,52.5081],
[15.7957,52.4975],
[15.8213,52.4905],
[15.8276,52.4711],
[15.7952,52.4618],
[15.7929,52.4536],
[15.8101,52.4446],
[15.8038,52.4435],
[15.8064,52.4351],
[15.8274,52.4264],
[15.8437,52.4028],
[15.9,52.3912],
[15.8879,52.3721],
[15.8886,52.363],
[15.8903,52.3533],
[15.8811,52.3521],
[15.8879,52.3222],
[15.881,52.2905],
[15.8525,52.2622],
[15.861,52.2274],
[15.8938,52.2242],
[15.8961,52.2106],
[15.889,52.1993],
[15.853,52.2101],
[15.8611,52.183],
[15.8584,52.169],
[15.8831,52.1629],
[15.8807,52.1467],
[15.875,52.1306],
[15.8554,52.1168],
[15.8449,52.1081],
[15.8624,52.1091],
[15.8715,52.0956],
[15.9099,52.0939],
[15.8981,52.0784],
[15.898,52.0769],
[15.9244,52.0676],
[15.9321,52.0876],
[15.9672,52.0821],
[16.0054,52.0543],
[15.9915,52.0504],
[15.9945,52.0353],
[15.9893,52.0279],
[16.0045,52.0254],
[16.0566,52.0352],
[16.0682,52.0274],
[16.0813,52.0314],
[16.1281,52.0087],
[16.1075,51.9958],
[16.1228,51.993],
[16.1334,51.9723],
[16.1372,51.9544],
[16.1241,51.9514],
[16.1308,51.9404],
[16.1262,51.9339],
[16.1382,51.9254],
[16.1183,51.9134],
[16.1051,51.9046],
[16.0993,51.9009],
[16.0996,51.896],
[16.1036,51.8936],
[16.1561,51.8928],
[16.1857,51.892],
[16.1929,51.8851],
[16.2003,51.872],
[16.2291,51.8761],
[16.2481,51.9008],
[16.2727,51.8952],
[16.2849,51.9001],
[16.3126,51.8866],
[16.3517,51.8805],
[16.335,51.8713],
[16.387,51.8465],
[16.3795,51.839],
[16.4007,51.8379],
[16.4006,51.8306],
[16.3937,51.8196],
[16.4017,51.8047],
[16.388,51.7944],
[16.3937,51.7864],
[16.4076,51.7851],
[16.4163,51.7849],
[16.5453,51.7801],
[16.5415,51.7659],
[16.5766,51.7686],
[16.5832,51.7507],
[16.6479,51.7442],
[16.6394,51.733],
[16.645,51.7219],
[16.6826,51.705],
[16.681,51.7007],
[16.7137,51.6957],
[16.7092,51.6752],
[16.7169,51.6688],
[16.7675,51.6584],
[16.7842,51.6474],
[16.783,51.641],
[16.7799,51.635],
[16.766,51.6277],
[16.7719,51.6136],
[16.8025,51.6009],
[16.8088,51.601],
[16.8156,51.5847],
[16.8282,51.5722],
[16.8874,51.581],
[16.9279,51.5524],
[16.9626,51.5512],
[16.982,51.5508],
[17.0458,51.556],
[17.06,51.5455],
[17.0701,51.5551],
[17.0647,51.5663],
[17.1085,51.5761],
[17.1254,51.5654],
[17.1879,51.5765],
[17.2066,51.5671],
[17.2148,51.5739],
[17.2155,51.5993],
[17.2083,51.6111],
[17.2184,51.631],
[17.24,51.642],
[17.2575,51.6428],
[17.3299,51.6479],
[17.4599,51.6282],
[17.4662,51.6268],
[17.5213,51.6057],
[17.5228,51.5895],
[17.5562,51.5843],
[17.5602,51.5705],
[17.5719,51.5668],
[17.5762,51.5396],
[17.5726,51.5299],
[17.565,51.5243],
[17.5545,51.5175],
[17.5458,51.5172],
[17.5219,51.5147],
[17.5126,51.5058],
[17.5262,51.4999],
[17.5161,51.4882],
[17.529,51.4696],
[17.5208,51.4626],
[17.5479,51.4435],
[17.5515,51.4354],
[17.5405,51.4215],
[17.5534,51.4111],
[17.5661,51.4053],
[17.6034,51.4093],
[17.6127,51.4229],
[17.6407,51.4233],
[17.6606,51.4102],
[17.6682,51.416],
[17.703,51.3994],
[17.7185,51.4034],
[17.7317,51.3898],
[17.7043,51.3667],
[17.7436,51.3465],
[17.7437,51.3283],
[17.7626,51.3202],
[17.7602,51.3097],
[17.7664,51.3008],
[17.7386,51.2758],
[17.7495,51.2705],
[17.7443,51.2427],
[17.7743,51.1992],
[17.7949,51.194],
[17.8006,51.1923],
[17.8119,51.1867],
[17.8268,51.194],
[17.8425,51.189],
[17.8513,51.172],
[17.8313,51.1375],
[17.8132,51.138],
[17.8233,51.1179],
[17.863,51.1149],
[17.8851,51.1039],
[17.9223,51.114],
[17.9394,51.1089],
[18.0035,51.1218],
[18.0755,51.1469],
[18.0856,51.1559],
[18.1044,51.1534],
[18.1244,51.1686],
[18.1637,51.1725],
[18.1679,51.1638],
[18.1873,51.1575],
[18.2186,51.1559],
[18.259,51.1577],
[18.315,51.1341],
[18.3673,51.1386],
[18.4026,51.1245],
[18.413,51.1118],
[18.4072,51.1021],
[18.4311,51.0891],
[18.4302,51.0723],
[18.4465,51.0593],
[18.43,51.0438],
[18.4351,51.0348],
[18.4291,51.0236],
[18.4617,51.007],
[18.5171,51.0071],
[18.5426,50.9892],
[18.5773,50.9903],
[18.6252,50.9716],
[18.6247,50.9659],
[18.6124,50.9551],
[18.6302,50.9312],
[18.6492,50.9313],
[18.6544,50.9147],
[18.6162,50.8536],
[18.6159,50.8424],
[18.6294,50.8308],
[18.6791,50.8175],
[18.7649,50.7729],
[18.7634,50.7719],
[18.7153,50.7719],
[18.6935,50.7579],
[18.6515,50.7513],
[18.6292,50.732],
[18.614,50.7369],
[18.5768,50.7292],
[18.5563,50.691],
[18.5643,50.6754],
[18.5168,50.6396],
[18.5131,50.6307],
[18.6017,50.6044],
[18.6725,50.5898],
[18.7077,50.5864],
[18.7373,50.596],
[18.7737,50.587],
[18.7773,50.5775],
[18.8101,50.5613],
[18.8034,50.5544],
[18.8116,50.5332],
[18.7732,50.5227],
[18.7784,50.5211],
[18.7689,50.5127],
[18.7725,50.5083],
[18.7667,50.5057],
[18.7853,50.4832],
[18.7766,50.474],
[18.7701,50.4697],
[18.7862,50.4496],
[18.7856,50.4382],
[18.812,50.4048],
[18.86,50.3939],
[18.871,50.3861],
[18.8874,50.3886],
[18.8861,50.3817],
[18.9106,50.3733],
[18.9145,50.3721],
[18.9348,50.3635],
[18.9639,50.3551],
[18.9623,50.3406],
[18.9562,50.3331],
[18.9529,50.3336],
[18.941,50.3385],
[18.9394,50.3315],
[18.916,50.3359],
[18.9058,50.3272],
[18.8638,50.3278],
[18.8624,50.328],
[18.8502,50.3317],
[18.8494,50.3236],
[18.8315,50.3188],
[18.8317,50.3124],
[18.8432,50.3148],
[18.8455,50.2998],
[18.8455,50.2993],
[18.8417,50.2957],
[18.8234,50.2864],
[18.7809,50.2709],
[18.7562,50.2762],
[18.7354,50.271],
[18.7294,50.2725],
[18.7253,50.2724],
[18.721,50.2352],
[18.706,50.2362],
[18.7041,50.2277],
[18.6852,50.2274],
[18.6783,50.2335],
[18.6663,50.2329],
[18.6438,50.2308],
[18.6431,50.2163],
[18.626,50.2133],
[18.6325,50.2084],
[18.6264,50.1989],
[18.597,50.2146],
[18.5455,50.1857],
[18.5099,50.1748],
[18.5195,50.1534],
[18.4963,50.144],
[18.4455,50.1561],
[18.4087,50.1549],
[18.4097,50.1401],
[18.3995,50.1369],
[18.3513,50.1448],
[18.3207,50.1382],
[18.3123,50.1272],
[18.2902,50.1304],
[18.2842,50.122],
[18.2989,50.1131],
[18.2963,50.1006],
[18.2577,50.0855],
[18.2472,50.08],
[18.2524,50.0761],
[18.2452,50.0691],
[18.2551,50.0625],
[18.2387,50.0532],
[18.2389,50.0452],
[18.2787,50.0146],
[18.2785,50.0005],
[18.3311,49.9512],
[18.3329,49.9494],
[18.3335,49.9463],
[18.3361,49.9465],
[18.3726,49.9374],
[18.3882,49.9361],
[18.4063,49.9359],
[18.417,49.9336],
[18.4258,49.9459],
[18.4393,49.9417],
[18.4236,49.9309],
[18.4391,49.9248],
[18.4329,49.9282],
[18.4578,49.9226],
[18.466,49.917],
[18.4791,49.9113],
[18.4841,49.9077],
[18.5123,49.9023],
[18.5339,49.8996],
[18.535,49.902],
[18.5425,49.9055],
[18.5471,49.9091],
[18.5399,49.9121],
[18.5396,49.9257],
[18.5597,49.9179],
[18.5728,49.9216],
[18.5737,49.9125],
[18.5757,49.9104],
[18.5801,49.9055],
[18.5658,49.8832],
[18.5695,49.8736],
[18.6058,49.8616],
[18.5836,49.8525],
[18.5898,49.8461],
[18.5691,49.8332],
[18.6132,49.7553],
[18.6292,49.7471],
[18.625,49.7223],
[18.6683,49.7035],
[18.7093,49.7046],
[18.7207,49.6861],
[18.7393,49.6773],
[18.7418,49.6764],
[18.7646,49.6852],
[18.8052,49.6781],
[18.806,49.6514],
[18.8232,49.6041],
[18.8292,49.5949],
[18.8395,49.5954],
[18.8323,49.5856],
[18.8379,49.5617],
[18.8592,49.5506],
[18.8573,49.5378],
[18.8434,49.5326],
[18.8271,49.5342],
[18.8193,49.5163],
[18.8509,49.5172],
[18.9466,49.5174],
[18.9728,49.5024],
[18.9605,49.4828],
[18.9702,49.4768],
[18.9608,49.4547],
[18.9739,49.4517],
[18.989,49.4313],
[18.9687,49.4133],
[18.9799,49.3952],
[19.035,49.3957],
[19.0539,49.4152],
[19.0702,49.4124],
[19.0727,49.418],
[19.1215,49.4027],
[19.1972,49.4137],
[19.1857,49.4347],
[19.1986,49.4482],
[19.2253,49.4543],
[19.2283,49.4637],
[19.2205,49.4735],
[19.2355,49.4957],
[19.2333,49.5105],
[19.2607,49.5312],
[19.3624,49.5361],
[19.3714,49.5674],
[19.4,49.5741],
[19.41,49.5921],
[19.442,49.5985],
[19.4463,49.6132],
[19.4674,49.6138],
[19.4747,49.6034],
[19.4684,49.5965],
[19.4784,49.588],
[19.5293,49.573],
[19.5658,49.5506],
[19.5652,49.5424],
[19.5921,49.5402],
[19.5978,49.5244],
[19.6505,49.4753],
[19.6411,49.4576],
[19.6378,49.4405],
[19.6486,49.4354],
[19.6317,49.4088],
[19.6854,49.4036],
[19.7202,49.3873],
[19.7618,49.3652],
[19.7924,49.3009],
[19.8098,49.2954],
[19.8228,49.2768],
[19.7925,49.268],
[19.785,49.2467],
[19.7668,49.2366],
[19.7669,49.2226],
[19.7584,49.216],
[19.7631,49.2076],
[19.7843,49.1993],
[19.8075,49.2057],
[19.8295,49.2017],
[19.841,49.1926],
[19.8694,49.1958],
[19.9023,49.2133],
[19.9033,49.2309],
[19.9322,49.2365],
[19.9816,49.2318],
[20.0086,49.2201],
[20.0065,49.2132],
[20.0205,49.2015],
[20.0537,49.1878],
[20.0628,49.1846],
[20.0881,49.1796],
[20.0844,49.1962],
[20.0962,49.22],
[20.1022,49.2251],
[20.102,49.2526],
[20.1251,49.2709],
[20.1342,49.3059],
[20.1515,49.3188],
[20.1577,49.3028],
[20.1758,49.3141],
[20.1706,49.3277],
[20.1842,49.3278],
[20.1901,49.3377],
[20.2194,49.3511],
[20.2316,49.3464],
[20.2532,49.3518],
[20.2677,49.346],
[20.2797,49.3517],
[20.3179,49.3458],
[20.3253,49.3647],
[20.3213,49.3759],
[20.3313,49.3914],
[20.3175,49.3887],
[20.3251,49.403],
[20.3264,49.4066],
[20.339,49.4014],
[20.3623,49.3983],
[20.3698,49.4047],
[20.378,49.4065],
[20.3824,49.391],
[20.3865,49.3908],
[20.409,49.3935],
[20.4175,49.4059],
[20.4342,49.3976],
[20.4321,49.4175],
[20.4509,49.4128],
[20.446,49.4163],
[20.4473,49.4161],
[20.4491,49.4157],
[20.4763,49.4141],
[20.5049,49.4033],
[20.5099,49.3934],
[20.5577,49.3781],
[20.5762,49.3762],
[20.5974,49.3863],
[20.6058,49.4013],
[20.6136,49.4018],
[20.6139,49.4167],
[20.6149,49.4178],
[20.6197,49.418],
[20.6218,49.4145],
[20.647,49.4007],
[20.7049,49.4192],
[20.7115,49.4194],
[20.7451,49.4137],
[20.7423,49.4038],
[20.7583,49.3995],
[20.7477,49.3905],
[20.7613,49.3843],
[20.7576,49.375],
[20.7635,49.3709],
[20.7862,49.374],
[20.7825,49.361],
[20.81,49.3583],
[20.8069,49.3531],
[20.7979,49.3587],
[20.7965,49.3438],
[20.8126,49.3474],
[20.8259,49.3344],
[20.8595,49.3484],
[20.874,49.3395],
[20.8824,49.3329],
[20.8727,49.3198],
[20.9036,49.3235],
[20.9241,49.296],
[20.9696,49.3099],
[20.9865,49.3066],
[20.9941,49.3127],
[20.9882,49.3271],
[21.0081,49.3349],
[21.0113,49.3476],
[21.0439,49.3654],
[21.0753,49.3593],
[21.0941,49.3651],
[21.1041,49.3764],
[21.0543,49.4042],
[21.0472,49.4169],
[21.0547,49.4212],
[21.0964,49.4295],
[21.1137,49.4239],
[21.124,49.4366],
[21.1522,49.427],
[21.1815,49.404],
[21.1835,49.4028],
[21.2082,49.4025],
[21.2273,49.417],
[21.2235,49.4255],
[21.2327,49.4365],
[21.2659,49.447],
[21.272,49.4598],
[21.3072,49.448],
[21.3466,49.4494],
[21.3727,49.4326],
[21.3987,49.4338],
[21.4341,49.4123],
[21.4737,49.4136],
[21.4873,49.4285],
[21.4977,49.4282],
[21.517,49.4178],
[21.5303,49.4351],
[21.5521,49.4331],
[21.564,49.4413],
[21.5906,49.4338],
[21.6309,49.4473],
[21.6589,49.4168],
[21.7205,49.4128],
[21.7269,49.3981],
[21.7504,49.3891],
[21.7634,49.3835],
[21.7715,49.3631],
[21.7726,49.3607],
[21.7892,49.3555],
[21.7878,49.3677],
[21.797,49.3785],
[21.8402,49.3915],
[21.859,49.3686],
[21.8755,49.3736],
[21.8887,49.368],
[21.8934,49.3572],
[21.909,49.3536],
[21.934,49.3461],
[21.9523,49.35],
[21.9661,49.3451],
[21.9728,49.3335],
[21.9832,49.3104],
[21.9977,49.3009],
[22.0336,49.2791],
[22.0303,49.2627],
[22.0413,49.2579],
[22.0303,49.2259],
[22.0349,49.2225],
[22.062,49.2116],
[22.1438,49.2005],
[22.1431,49.1927],
[22.1882,49.1743],
[22.2225,49.1845],
[22.2358,49.1701],
[22.2259,49.1611],
[22.2257,49.1525],
[22.3177,49.1356],
[22.3346,49.1465],
[22.3673,49.1466],
[22.3918,49.1181],
[22.4227,49.0995],
[22.4561,49.1038],
[22.497,49.0859],
[22.5456,49.092],
[22.5466,49.0918],
[22.5657,49.088],
[22.5824,49.0973],
[22.6254,49.0804],
[22.6393,49.0598],
[22.6803,49.0392],
[22.7175,49.0527],
[22.7549,49.043],
[22.7717,49.0522],
[22.7948,49.0396],
[22.8093,49.0346],
[22.8129,49.0253],
[22.8338,49.0261],
[22.8471,49.0032],
[22.8912,49.0033],
[22.8944,49.0044],
[22.9143,48.9891],
[22.9194,48.9705],
[22.8729,48.9567],
[22.8722,48.942],
[22.8861,48.9246],
[22.9028,48.9019],
[22.9706,48.8741],
[22.9748,48.8446],
[23.0001,48.8305],
[23.0203,48.8478],
[23.0473,48.8529],
[23.0596,48.8464],
[23.0981,48.863],
[23.1309,48.8536],
[23.1351,48.8439],
[23.1337,48.8342],
[23.1526,48.8322],
[23.2009,48.7604],
[23.2684,48.7617],
[23.2864,48.7756],
[23.3174,48.7535],
[23.34,48.7564],
[23.3611,48.7707],
[23.3797,48.7422],
[23.3964,48.7328],
[23.41,48.7359],
[23.4673,48.724],
[23.4691,48.7182],
[23.511,48.735],
[23.5482,48.7253],
[23.5921,48.7185],
[23.5973,48.7047],
[23.6259,48.7062],
[23.6379,48.6986],
[23.6371,48.6851],
[23.706,48.6385],
[23.7326,48.6382],
[23.7437,48.6463],
[23.7794,48.6439],
[23.7968,48.6324],
[23.7869,48.6125],
[23.7962,48.6007],
[23.7914,48.5941],
[23.8046,48.5803],
[23.8345,48.5716],
[23.8623,48.5539],
[23.8923,48.5545],
[23.907,48.5629],
[23.9289,48.5521],
[23.9139,48.5337],
[23.9253,48.5129],
[23.9159,48.5082],
[23.9189,48.4936],
[23.9076,48.4842],
[23.9252,48.4652],
[23.9631,48.4575],
[23.9809,48.4655],
[23.9737,48.477],
[24.003,48.5069],
[24.032,48.5007],
[24.0464,48.5123],
[24.0667,48.5179],
[24.0771,48.5118],
[24.0888,48.5275],
[24.1243,48.5341],
[24.1318,48.5296],
[24.1148,48.4984],
[24.1406,48.4816],
[24.127,48.4679],
[24.1322,48.4381],
[24.1458,48.4349],
[24.1414,48.4089],
[24.1521,48.4009],
[24.1546,48.3863],
[24.1819,48.3747],
[24.1776,48.366],
[24.2396,48.3592],
[24.2587,48.3494],
[24.2891,48.3807],
[24.2809,48.3918],
[24.2881,48.3985],
[24.3397,48.3859],
[24.3443,48.3833],
[24.3495,48.3817],
[24.3583,48.3732],
[24.351,48.3617],
[24.3576,48.3515],
[24.4169,48.3315],
[24.4317,48.3139],
[24.441,48.3145],
[24.4454,48.3025],
[24.4881,48.2797],
[24.4855,48.2434],
[24.5364,48.2269],
[24.5453,48.2161],
[24.5206,48.2003],
[24.5263,48.1961],
[24.5096,48.1861],
[24.5202,48.1768],
[24.5003,48.1602],
[24.5232,48.1444],
[24.5342,48.1287],
[24.5302,48.1236],
[24.5546,48.1179],
[24.5596,48.1051],
[24.5953,48.0906],
[24.6271,48.0475],
[24.5773,48.0178],
[24.5629,47.9686],
[24.5831,47.9648],
[24.597,47.9462],
[24.6285,47.948],
[24.6351,47.9245],
[24.6517,47.9192],
[24.6526,47.9107],
[24.6739,47.8964],
[24.6658,47.8764],
[24.6707,47.8655],
[24.7023,47.8527],
[24.7061,47.84],
[24.7345,47.8439],
[24.7528,47.8298],
[24.7653,47.8395],
[24.7782,47.8374],
[24.7846,47.8245],
[24.8265,47.8208],
[24.8216,47.8062],
[24.8364,47.7941],
[24.8363,47.7797],
[24.8514,47.7749],
[24.8554,47.7657],
[24.8785,47.7526],
[24.8856,47.7307],
[24.8896,47.7304],
[24.9011,47.7335],
[24.9226,47.7342],
[24.9465,47.7937],
[24.9608,47.8085],
[24.9825,47.8263],
[24.9983,47.8568],
[24.9816,47.86],
[24.985,47.8679],
[24.9574,47.8789],
[24.945,47.8972],
[24.9604,47.9033],
[24.9573,47.9201],
[24.9191,47.9455],
[24.9288,47.953],
[24.9156,47.9623],
[24.9233,47.9648],
[24.9143,47.9682],
[24.9086,47.9962],
[24.9202,48.0091],
[24.9109,48.0258],
[24.9946,48.0867],
[24.9799,48.11],
[24.9842,48.1145],
[24.9954,48.1202],
[25.0375,48.1124],
[25.0406,48.1289],
[25.0684,48.1333],
[25.0725,48.1461],
[25.063,48.1505],
[25.0651,48.1568],
[25.093,48.1619],
[25.083,48.1795],
[25.1302,48.1785],
[25.1408,48.1935],
[25.1146,48.209],
[25.1194,48.2176],
[25.1059,48.2245],
[25.1433,48.2461],
[25.1849,48.2507],
[25.2455,48.312],
[25.2988,48.3605],
[25.3016,48.3638],
[25.3679,48.3881],
[25.3967,48.3936],
[25.4147,48.3957],
[25.4605,48.3925],
[25.5036,48.3993],
[25.5596,48.3818],
[25.6104,48.3782],
[25.6195,48.3839],
[25.6111,48.3982],
[25.6194,48.4131],
[25.6014,48.4133],
[25.6111,48.4195],
[25.6026,48.4461],
[25.607,48.4598],
[25.5981,48.4729],
[25.6093,48.531],
[25.6,48.5424],
[25.6022,48.5705],
[25.5874,48.5898],
[25.5896,48.5965],
[25.5854,48.6352],
[25.6406,48.6696],
[25.711,48.6631],
[25.7266,48.637],
[25.7382,48.633],
[25.7589,48.6662],
[25.7828,48.6754],
[25.8057,48.6653],
[25.8549,48.62],
[25.8487,48.5974],
[25.8749,48.6001],
[25.9059,48.587],
[25.9338,48.5915],
[25.9727,48.6211],
[26.0224,48.6116],
[26.0273,48.617],
[26.0314,48.6432],
[26.0455,48.6491],
[26.0551,48.6461],
[26.0605,48.6293],
[26.0591,48.6192],
[26.0636,48.6122],
[26.064,48.6035],
[26.0437,48.5876],
[26.0615,48.5694],
[26.0936,48.5385],
[26.12,48.5448],
[26.1289,48.555],
[26.1221,48.5716],
[26.1032,48.5821],
[26.1045,48.5918],
[26.0956,48.5993],
[26.1059,48.6179],
[26.12,48.6195],
[26.1454,48.5977],
[26.1471,48.5443],
[26.1698,48.5289],
[26.1938,48.5248],
[26.2735,48.5396],
[26.3061,48.5081],
[26.3214,48.5169],
[26.3569,48.5077],
[26.3938,48.5363],
[26.4435,48.5387],
[26.4337,48.5476],
[26.4089,48.5421],
[26.3798,48.5647],
[26.3769,48.5472],
[26.3602,48.5419],
[26.3638,48.5593],
[26.3364,48.5694],
[26.3591,48.5807],
[26.3597,48.588],
[26.3421,48.5861],
[26.3412,48.5975],
[26.3239,48.5999],
[26.3268,48.6107],
[26.293,48.6228],
[26.3236,48.6294],
[26.3169,48.6378],
[26.2878,48.6402],
[26.3087,48.6496],
[26.3075,48.6575],
[26.2731,48.6472],
[26.2668,48.6505],
[26.2812,48.6669],
[26.2773,48.6737],
[26.2479,48.6679],
[26.2453,48.684],
[26.22,48.6879],
[26.2377,48.697],
[26.2289,48.7089],
[26.241,48.7322],
[26.2429,48.7398],
[26.2232,48.7508],
[26.2455,48.7542],
[26.2299,48.7621],
[26.2381,48.7752],
[26.2143,48.7806],
[26.2073,48.7973],
[26.2159,48.8017],
[26.2181,48.7933],
[26.2334,48.79],
[26.2255,48.8132],
[26.2496,48.8083],
[26.2585,48.8156],
[26.2515,48.8226],
[26.2332,48.8192],
[26.2187,48.8356],
[26.2218,48.8475],
[26.1998,48.8589],
[26.2115,48.8645],
[26.2058,48.8752],
[26.2141,48.8798],
[26.2039,48.8959],
[26.2236,48.903],
[26.2232,48.9109],
[26.2117,48.9135],
[26.1965,48.9035],
[26.1847,48.9144],
[26.1985,48.9182],
[26.194,48.9336],
[26.2082,48.9551],
[26.1773,48.9735],
[26.2119,48.9829],
[26.1761,48.9956],
[26.2156,49.0054],
[26.1977,49.0248],
[26.2076,49.0363],
[26.1848,49.0524],
[26.1879,49.0623],
[26.2155,49.0721],
[26.1939,49.0741],
[26.1969,49.0871],
[26.2046,49.101],
[26.1955,49.1293],
[26.2055,49.1328],
[26.1945,49.1363],
[26.199,49.1462],
[26.1899,49.1582],
[26.2038,49.1577],
[26.2092,49.1673],
[26.1898,49.1716],
[26.1962,49.1817],
[26.1843,49.1941],
[26.1921,49.2165],
[26.2074,49.2326],
[26.2029,49.2446],
[26.2432,49.2428],
[26.2417,49.2544],
[26.2584,49.2636],
[26.2413,49.2753],
[26.2576,49.2772],
[26.2488,49.2862],
[26.2595,49.2896],
[26.2461,49.3002],
[26.2507,49.3101],
[26.2254,49.3291],
[26.229,49.3503],
[26.2436,49.3472],
[26.232,49.3578],
[26.2447,49.3693],
[26.2239,49.3753],
[26.2228,49.3758],
[26.2356,49.3998],
[26.2247,49.4032],
[26.2293,49.4076],
[26.1963,49.4258],
[26.1926,49.4337],
[26.2019,49.4418],
[26.1889,49.4544],
[26.1881,49.481],
[26.1556,49.5009],
[26.1423,49.5095],
[26.1577,49.5216],
[26.1587,49.5321],
[26.1902,49.5566],
[26.2019,49.5545],
[26.2035,49.5462],
[26.219,49.5512],
[26.2073,49.5769],
[26.2143,49.5907],
[26.1994,49.609],
[26.2255,49.6235],
[26.2311,49.6365],
[26.2626,49.6375],
[26.2598,49.6537],
[26.2724,49.6569],
[26.2413,49.6936],
[26.1908,49.7142],
[26.2141,49.7353],
[26.2435,49.7453],
[26.2408,49.7756],
[26.2256,49.78],
[26.2297,49.787],
[26.2183,49.8088],
[26.188,49.8283],
[26.1854,49.8458],
[26.1782,49.8473],
[26.2009,49.8663],
[26.1327,49.8984],
[26.1405,49.9139],
[26.1661,49.9222],
[26.142,49.9718],
[26.1728,49.994],
[26.2024,49.9921],
[26.2106,50.0159],
[26.1759,50.0252],
[26.2165,50.0363],
[26.2175,50.0462],
[26.2269,50.0473],
[26.2216,50.0599],
[26.2008,50.0673],
[26.2046,50.0901],
[26.2005,50.098],
[26.2741,50.1062],
[26.2737,50.1135],
[26.2348,50.1312],
[26.2434,50.1434],
[26.2229,50.1428],
[26.2086,50.1541],
[26.2209,50.1646],
[26.2111,50.175],
[26.2205,50.1797],
[26.2297,50.1721],
[26.2876,50.1844],
[26.3049,50.1983],
[26.3055,50.213],
[26.324,50.2311],
[26.3491,50.2384],
[26.3618,50.2516],
[26.3815,50.253],
[26.3829,50.2607],
[26.4087,50.263],
[26.4387,50.2603],
[26.4587,50.269],
[26.4622,50.2645],
[26.4524,50.2599],
[26.5034,50.2628],
[26.4962,50.2757],
[26.503,50.2851],
[26.5134,50.2815],
[26.5068,50.2866],
[26.5152,50.2964],
[26.5249,50.2955],
[26.5207,50.3046],
[26.5273,50.3109],
[26.5326,50.3063],
[26.5468,50.3092],
[26.5433,50.3183],
[26.5606,50.317],
[26.5527,50.3303],
[26.5866,50.3396],
[26.6019,50.3682],
[26.648,50.3646],
[26.6595,50.3922],
[26.6825,50.3893],
[26.692,50.4201],
[26.7126,50.417],
[26.7175,50.4456],
[26.737,50.4446],
[26.7389,50.4521],
[26.7285,50.4572],
[26.7351,50.4612],
[26.7344,50.4773],
[26.7452,50.4796],
[26.743,50.4615],
[26.7865,50.4677],
[26.7892,50.4752],
[26.7616,50.4705],
[26.76,50.4767],
[26.7686,50.4775],
[26.765,50.4891],
[26.7815,50.4956],
[26.7783,50.5021],
[26.8174,50.5025],
[26.8272,50.5231],
[26.8563,50.509],
[26.8997,50.5464],
[26.9828,50.5227],
[26.9884,50.5334],
[27.0075,50.5396],
[27.0175,50.559],
[27.0714,50.5511],
[27.0758,50.5548],
[27.0647,50.562],
[27.0795,50.5837],
[27.1034,50.5836],
[27.118,50.5947],
[27.1308,50.5878],
[27.1223,50.5759],
[27.1307,50.5609],
[27.1965,50.5621],
[27.2306,50.5668],
[27.215,50.5886],
[27.2243,50.6058],
[27.1877,50.6256],
[27.2054,50.6286],
[27.2011,50.633],
[27.2133,50.6401],
[27.2076,50.6438],
[27.2128,50.6575],
[27.2021,50.663],
[27.2442,50.6736],
[27.2511,50.6931],
[27.2725,50.7123],
[27.2737,50.7256],
[27.2627,50.7459],
[27.271,50.7628],
[27.2425,50.7696],
[27.2439,50.7925],
[27.2333,50.8002],
[27.2417,50.8261],
[27.2322,50.8387],
[27.2489,50.8578],
[27.2438,50.8695],
[27.2564,50.896],
[27.2219,50.9129],
[27.2156,50.9257],
[27.238,50.9355],
[27.2387,50.9453],
[27.2229,50.9526],
[27.2258,50.9612],
[27.2032,50.991],
[27.2021,51.0021],
[27.2255,51.0107],
[27.2276,51.0302],
[27.323,51.044],
[27.3257,51.0789],
[27.3649,51.1005],
[27.4047,51.1961],
[27.472,51.2378],
[27.4432,51.307],
[27.4912,51.3165],
[27.529,51.3654],
[27.4912,51.3761],
[27.5022,51.4484],
[27.5201,51.4506],
[27.5812,51.4013],
[27.6128,51.4018],
[27.5867,51.4745],
[27.6646,51.5178],
[27.6846,51.5207],
[27.6838,51.5414],
[27.724,51.5621],
[27.7346,51.5939],
[27.7278,51.6046],
[27.6528,51.6175],
[27.6189,51.6054],
[27.5498,51.6371],
[27.5439,51.6221],
[27.517,51.6378],
[27.5263,51.641],
[27.4936,51.6681],
[27.4995,51.7302],
[27.5592,51.7496],
[27.5599,51.7606],
[27.5427,51.7725],
[27.564,51.8099],
[27.5106,51.8537],
[27.502,51.851],
[27.5048,51.8635],
[27.5262,51.8729],
[27.54,51.8963],
[27.5347,51.9284],
[27.5142,51.9467],
[27.5364,51.965],
[27.6085,51.9983],
[27.6088,52.0182],
[27.6157,52.0225],
[27.6069,52.0282],
[27.6134,52.0321],
[27.5747,52.0336],
[27.5755,52.0428],
[27.5669,52.047],
[27.575,52.0587],
[27.5486,52.0589],
[27.5264,52.0699],
[27.5245,52.138],
[27.5407,52.1655],
[27.5249,52.1828],
[27.5592,52.2047],
[27.551,52.2366],
[27.5153,52.2665],
[27.4953,52.2686],
[27.4603,52.29],
[27.6183,52.4786],
[27.6114,52.578],
[27.1664,52.5889],
[27.0318,52.781],
[26.8135,53.0639],
[26.9052,53.3774],
[26.8708,53.397],
[26.9137,53.4406],
[26.9327,53.4341],
[26.9576,53.4534],
[26.9508,53.5338],
[26.9007,53.5929],
[26.8894,53.68],
[26.9083,53.6987],
[26.8743,53.7268],
[26.9352,53.8009],
[26.9491,53.8584],
[27.0185,53.8843],
[27.0277,53.9108],
[27.0312,53.9417],
[27.0693,53.952],
[27.1246,54.012],
[27.1802,54.0045],
[27.1894,54.0285],
[27.1726,54.0646],
[27.1881,54.0745],
[27.1685,54.0761],
[27.1651,54.085],
[27.2155,54.0899],
[27.2136,54.1385],
[27.2832,54.1415],
[27.3161,54.2432],
[27.3855,54.2456],
[27.4741,54.3067],
[27.5029,54.3864],
[27.4349,54.4217],
[27.4751,54.4379],
[27.496,54.5135],
[27.4298,54.5285],
[27.4281,54.5356],
[27.4476,54.5414],
[27.4463,54.5746],
[27.4576,54.5725],
[27.5139,54.5957],
[27.5427,54.5958],
[27.563,54.6097],
[27.6013,54.6116],
[27.5922,54.6326],
[27.6193,54.648],
[27.6291,54.6644],
[27.6758,54.6868],
[27.7001,54.681],
[27.6972,54.746],
[27.7116,54.7621],
[27.7745,54.7898],
[27.8043,54.7918],
[27.8133,54.8183],
[27.9168,54.8671],
[27.9161,54.9199],
[27.9561,54.9219],
[28.0838,54.9509],
[28.1214,54.9826],
[28.1755,54.9967],
[28.2469,55.0805],
[28.2177,55.1226],
[28.2774,55.1442],
[28.2805,55.172],
[28.3159,55.1798],
[28.2998,55.2139],
[28.2592,55.2235],
[28.3155,55.2554],
[28.3633,55.3498],
[28.2527,55.3701],
[28.2644,55.3889],
[28.2953,55.3932],
[28.2809,55.4559],
[28.2555,55.4637],
[28.3262,55.5389],
[28.1411,55.5866],
[28.1219,55.6025],
[28.1104,55.6329],
[28.0843,55.66],
[27.993,55.6778],
[27.9681,55.7009],
[27.9238,55.714],
[27.9274,55.736],
[27.9185,55.7622],
[27.931,55.7876],
[27.9228,55.8099],
[27.8857,55.8262],
[27.884,55.8269],
[27.8503,55.8171],
[27.8264,55.82],
[27.7699,55.8007],
[27.6155,55.7871],
[27.5694,55.7836],
[27.4312,55.7941],
[27.3667,55.815],
[27.3327,55.8448],
[27.2652,55.8629],
[27.1972,55.856],
[27.1687,55.8666],
[27.1643,55.8838],
[27.1525,55.8953],
[27.134,55.8914],
[27.1189,55.8777],
[27.1002,55.8739],
[27.0722,55.8959],
[27.0423,55.8898],
[27.0119,55.8691],
[26.9385,55.8708],
[26.9275,55.8893],
[26.9308,55.9152],
[26.9124,55.919],
[26.8789,55.9079],
[26.8774,55.8917],
[26.853,55.8846],
[26.818,55.9106],
[26.802,55.9112],
[26.7814,55.9052],
[26.7575,55.8788],
[26.7268,55.8877],
[26.7212,55.9169],
[26.6987,55.9226],
[26.659,55.9081],
[26.6312,55.8722],
[26.6363,55.8697],
[26.6275,55.8638],
[26.5482,55.8533],
[26.5473,55.8442],
[26.5143,55.8459],
[26.5115,55.8444],
[26.5183,55.8408],
[26.5095,55.8358],
[26.516,55.8294],
[26.4999,55.83],
[26.4983,55.8207],
[26.3937,55.7667],
[26.3831,55.7527],
[26.3595,55.7548],
[26.3399,55.7504],
[26.3395,55.744],
[26.3388,55.7438],
[26.3655,55.7315],
[26.3756,55.7094],
[26.3861,55.6776],
[26.3603,55.6795],
[26.3517,55.6493],
[26.314,55.62],
[26.3359,55.5816],
[26.3016,55.5908],
[26.279,55.5847],
[26.2913,55.5593],
[26.1993,55.4718],
[26.1066,55.4391],
[26.1114,55.4147],
[26.0986,55.4033],
[26.1039,55.3825],
[26.0774,55.3344],
[26.056,55.3471],
[26.0155,55.3497],
[25.9547,55.322],
[25.8895,55.2532],
[25.8335,55.2443],
[25.7719,55.1557],
[25.776,55.1314],
[25.7588,55.1037],
[25.6836,55.0807],
[25.6579,55.0573],
[25.6338,55.0617],
[25.5365,55.0343],
[25.5178,55.0439],
[25.3113,55.0354],
[25.302,55.0458],
[25.2576,55.0451],
[25.1666,55.0308],
[25.0265,55.0248],
[25.0183,55.0038],
[24.9179,54.9367],
[24.9347,54.9327],
[24.9397,54.9166],
[24.8936,54.9173],
[24.9002,54.9029],
[24.8936,54.8876],
[24.8839,54.8905],
[24.8857,54.8792],
[24.8568,54.8737],
[24.8527,54.8594],
[24.867,54.8437],
[24.9048,54.8391],
[24.8847,54.818],
[24.8881,54.7937],
[24.9008,54.7852],
[24.9138,54.7882],
[24.9253,54.8159],
[24.9772,54.7995],
[24.9398,54.779],
[24.9469,54.7685],
[24.9154,54.7657],
[24.9099,54.7511],
[24.8764,54.7445],
[24.8777,54.7312],
[24.8278,54.6969],
[24.8121,54.6668],
[24.7652,54.6293],
[24.7578,54.61],
[24.7622,54.6024],
[24.7244,54.5876],
[24.7259,54.5813],
[24.7855,54.5039],
[24.7604,54.5012],
[24.7431,54.4764],
[24.7055,54.3504],
[24.6372,54.3053],
[24.5551,54.2462],
[24.5174,54.2341],
[24.459,54.2301],
[24.3855,54.1888],
[24.3381,54.1735],
[24.3347,54.1644],
[24.3018,54.119],
[24.2774,54.1083],
[24.2317,54.0662],
[24.1601,54.0729],
[24.1362,54.0636],
[24.0361,54.0793],
[23.9864,54.0194],
[23.9677,54.0312],
[23.9359,54.0155],
[23.9358,54.0026],
[23.9131,53.9866],
[23.9181,53.9755],
[23.913,53.9697],
[23.9084,53.9542],
[23.8864,53.9438],
[23.842,53.956],
[23.7987,53.9355],
[23.8181,53.9118],
[23.7864,53.9001],
[23.7745,53.9],
[23.7811,53.9111],
[23.7643,53.9246],
[23.7168,53.9365],
[23.6521,53.935],
[23.6104,53.9247],
[23.5983,53.9295],
[23.6002,53.9362],
[23.5815,53.9427],
[23.5569,53.9407],
[23.5371,53.9418],
[23.5268,53.956],
[23.515,53.9563],
[23.4892,53.9747],
[23.4807,53.998],
[23.5036,54.0065],
[23.5249,54.0311],
[23.5286,54.0658],
[23.5183,54.0898],
[23.4926,54.117],
[23.4953,54.1326],
[23.4858,54.1532],
[23.459,54.1755],
[23.4245,54.1775],
[23.3813,54.2289],
[23.3617,54.231],
[23.3484,54.2457],
[23.3217,54.2533],
[23.2339,54.2609],
[23.2024,54.2886],
[23.1542,54.297],
[23.1598,54.3096],
[23.1488,54.3144],
[23.0922,54.2985],
[23.0421,54.316],
[23.0632,54.341],
[22.9939,54.3619],
[23.0102,54.3828],
[22.9838,54.3896],
[22.8875,54.3999],
[22.888,54.4091],
[22.8547,54.4104],
[22.8363,54.4065],
[22.8114,54.371],
[22.792,54.3633],
[22.8056,54.3492],
[22.803,54.3409],
[22.7764,54.328],
[22.7641,54.3216],
[22.7538,54.2978],
[22.6942,54.2752],
[22.6445,54.288],
[22.6107,54.2599],
[22.576,54.267],
[22.5422,54.2689],
[22.5321,54.2491],
[22.5314,54.2477],
[22.5278,54.2296],
[22.5309,54.2211],
[22.5706,54.2037],
[22.5867,54.1792],
[22.5914,54.1507],
[22.6128,54.12],
[22.6367,54.1066],
[22.6355,54.093],
[22.6037,54.0819],
[22.5998,54.0528],
[22.6699,54.0296],
[22.6861,54.0035],
[22.6966,53.9735],
[22.7237,53.9526],
[22.7511,53.9432],
[22.7828,53.9155],
[22.7753,53.9037],
[22.7853,53.8838],
[22.7791,53.8658],
[22.7271,53.8336],
[22.7262,53.8048],
[22.6967,53.762],
[22.6881,53.7583],
[22.6413,53.7476],
[22.6411,53.7549],
[22.6284,53.7563],
[22.6212,53.7355],
[22.6066,53.7168],
[22.5853,53.7271],
[22.5841,53.7346],
[22.515,53.6983],
[22.4673,53.699],
[22.423,53.6815],
[22.3598,53.6559],
[22.3265,53.6318],
[22.3057,53.6268],
[22.2791,53.6208],
[22.2725,53.6106],
[22.1745,53.5576],
[22.0957,53.5322],
[22.0587,53.5297],
[22.0304,53.4969],
[22.0197,53.4975],
[22.0098,53.5135],
[21.9897,53.5221],
[21.9524,53.5095],
[21.9311,53.5104],
[21.9015,53.4929],
[21.892,53.467],
[21.8661,53.4594],
[21.8271,53.4641],
[21.7907,53.4795],
[21.6947,53.4922],
[21.6129,53.4808],
[21.5517,53.4781],
[21.472,53.4696],
[21.4311,53.4624],
[21.2813,53.4267],
[21.1755,53.3934],
[21.1143,53.3546],
[21.0533,53.3343],
[20.9777,53.3017],
[20.8755,53.2719],
[20.8514,53.2926],
[20.7914,53.3096],
[20.7557,53.3129],
[20.7426,53.318],
[20.721,53.3258],
[20.6552,53.3176],
[20.5389,53.3486],
[20.513,53.3342],
[20.4583,53.2468],
[20.4313,53.2273],
[20.4235,53.222],
[20.4111,53.2141],
[20.3882,53.238],
[20.3365,53.2161],
[20.3371,53.2254],
[20.3267,53.2228],
[20.3391,53.2338],
[20.3032,53.2268],
[20.2478,53.2382],
[20.242,53.258],
[20.2565,53.2776],
[20.2499,53.2878],
[20.2299,53.3063],
[20.2055,53.3126],
[20.1926,53.3268],
[20.1797,53.3308],
[20.0889,53.3722],
[20.0648,53.343],
[20.0451,53.3446],
[20.0261,53.3683],
[20.0332,53.3735],
[20.0307,53.3852],
[20.0456,53.3989],
[20.0414,53.4112],
[20.0201,53.4171],
[19.9927,53.4061],
[19.9718,53.4257],
[19.9795,53.4343],
[19.9541,53.4319],
[19.948,53.4382],
[19.9186,53.476],
[19.8959,53.4842],
[19.9022,53.5156],
[19.8762,53.5383],
[19.8889,53.543],
[19.8804,53.5618],
[19.8406,53.5695],
[19.8132,53.5825],
[19.8097,53.6008],
[19.7385,53.617],
[19.6868,53.5636],
[19.6861,53.5317],
[19.6296,53.5048],
[19.6106,53.5056],
[19.6106,53.524],
[19.4925,53.5481],
[19.4904,53.5411],
[19.4527,53.5493],
[19.4637,53.5668],
[19.3922,53.5733],
[19.371,53.5509],
[19.3943,53.5395],
[19.3943,53.5277],
[19.3552,53.5162],
[19.3497,53.4876],
[19.2913,53.495],
[19.2526,53.4897],
[19.2246,53.4841],
[19.1893,53.5115],
[19.2196,53.529],
[19.2076,53.548],
[19.1893,53.5477],
[19.1995,53.5701],
[19.1611,53.5845],
[19.1297,53.5883],
[19.0851,53.5983],
[19.024,53.5908],
[18.9893,53.5951],
[18.9767,53.5874],
[18.9267,53.5916],
[18.9027,53.5781],
[18.9058,53.5944],
[18.8902,53.5995],
[18.8581,53.6021],
[18.7682,53.6059],
[18.7671,53.6246],
[18.7458,53.6426],
[18.7833,53.678],
[18.7863,53.6915],
[18.8607,53.7261],
[18.8628,53.7404],
[18.8503,53.7607],
[18.8479,53.7794],
[18.8558,53.7937],
[18.8568,53.7986],
[18.8727,53.8039],
[18.8828,53.819],
[18.8788,53.8201],
[18.8856,53.8281],
[18.8893,53.8356],
[18.8888,53.8361],
[18.8719,53.843],
[18.8826,53.8764],
[18.8893,53.885],
[18.8986,53.8953],
[18.8915,53.9012],
[18.8828,53.912],
[18.8787,53.9101],
[18.8767,53.9112],
[18.8594,53.9333],
[18.8723,53.9642],
[18.8389,53.9911],
[18.8346,54.024],
[18.8137,54.0546],
[18.8049,54.0941],
[18.8193,54.0952],
[18.805,54.0952],
[18.8163,54.1105],
[18.8206,54.1195],
[18.8283,54.1415],
[18.8078,54.1473],
[18.8061,54.1541],
[18.7982,54.1537],
[18.7908,54.1535],
[18.7389,54.1517],
[18.7062,54.1461],
[18.6852,54.1513],
[18.6737,54.1386],
[18.6478,54.1367],
[18.6288,54.1423],
[18.6233,54.1257],
[18.5957,54.12],
[18.5893,54.1286],
[18.5768,54.1173],
[18.5648,54.1235],
[18.569,54.1292],
[18.5337,54.1267],
[18.4551,54.1224],
[18.4213,54.1207],
[18.3899,54.1218],
[18.3553,54.143],
[18.3473,54.1371],
[18.3272,54.1412],
[18.2984,54.1511],
[18.2763,54.1476],
[18.2677,54.1591],
[18.2233,54.166],
[18.2324,54.1708],
[18.2301,54.1822],
[18.2152,54.196],
[18.2381,54.2103],
[18.2504,54.2285],
[18.2656,54.2397],
[18.3054,54.2492],
[18.328,54.2655],
[18.3579,54.2616],
[18.384,54.2762],
[18.4327,54.279],
[18.4334,54.2879],
[18.456,54.3003],
[18.4526,54.3126],
[18.4862,54.3047],
[18.5011,54.3342],
[18.4825,54.3456],
[18.4955,54.3476],
[18.5325,54.3624],
[18.5177,54.3719],
[18.5181,54.3802],
[18.5003,54.3786],
[18.4905,54.3907],
[18.5123,54.4059],
[18.5075,54.4229],
[18.5139,54.441],
[18.5048,54.4452],
[18.5201,54.4557],
[18.5637,54.4639],
[18.6492,54.4665],
[18.6549,54.4876],
[18.6432,54.518],
[18.647,54.5346],
[18.6414,54.5655],
[18.6075,54.6152],
[18.5953,54.6634],
[18.6242,54.653],
[18.6483,54.6461],
[18.708,54.5871],
[18.7751,54.5476],
[18.8418,54.5461],
[18.8969,54.5737],
[18.9097,54.5915],
[18.9134,54.6148],
[18.8934,54.6541],
[18.8481,54.6871],
[18.7368,54.741],
[18.5049,54.821],
[18.3676,54.8804],
[18.3285,54.8864],
[18.1935,54.8848],
[18.0596,54.8849],
[18.0634,54.8427],
[18.0565,54.8273],
[18.0519,54.796],
[18.0383,54.7924],
[18.0316,54.7799],
[18.024,54.7752],
[18.0421,54.7583],
[18.0237,54.7548],
[18.0251,54.7385],
[18.0461,54.7431],
[18.0636,54.7319],
[18.0877,54.7308],
[18.1173,54.6991],
[18.1228,54.6803],
[18.1304,54.6799],
[18.1291,54.6644],
[18.1476,54.6517],
[18.08,54.6475],
[18.0643,54.6353],
[18.0511,54.625],
[18.0559,54.6105],
[18.0075,54.5996],
[18.022,54.5537],
[18.0474,54.5454],
[18.0515,54.5323],
[18.0067,54.5237],
[17.999,54.5116],
[18.0021,54.5016],
[17.9817,54.4894],
[17.9783,54.4698],
[17.9446,54.4687],
[17.9561,54.4811],
[17.959,54.5],
[17.8813,54.4849],
[17.8869,54.4794],
[17.85,54.4687],
[17.8474,54.4544],
[17.8582,54.4404],
[17.8813,54.41],
[17.8728,54.4065],
[17.8544,54.4038],
[17.8252,54.4158],
[17.7989,54.4115],
[17.7927,54.3946],
[17.8017,54.3859],
[17.7892,54.3753],
[17.7964,54.3706],
[17.7792,54.3651],
[17.7652,54.3541],
[17.7505,54.3543],
[17.7412,54.35],
[17.7477,54.3426],
[17.743,54.3298],
[17.7392,54.3236],
[17.7223,54.3224],
[17.7096,54.3124],
[17.7125,54.3031],
[17.711,54.3014],
[17.636,54.2456],
[17.6542,54.2269],
[17.6323,54.23],
[17.5956,54.2145],
[17.5999,54.2036],
[17.6199,54.2015],
[17.6105,54.191],
[17.6155,54.1761],
[17.6381,54.1805],
[17.6555,54.1737],
[17.6656,54.1367],
[17.6873,54.1206],
[17.6841,54.1028],
[17.6642,54.0998],
[17.6633,54.0778],
[17.6702,54.0683],
[17.6673,54.0566],
[17.6472,54.0259],
[17.5822,54.0312],
[17.5494,54.0327],
[17.5437,54.0363],
[17.5522,54.0441],
[17.5481,54.0476],
[17.5096,54.0425],
[17.4096,54.0787],
[17.362,54.0844],
[17.3545,54.0835],
[17.3556,54.0708],
[17.3417,54.0601],
[17.3498,54.0533],
[17.2702,54.0454],
[17.2119,54.0418],
[17.2048,54.0046],
[17.1836,54.0097],
[17.1775,53.9917],
[17.2315,53.9816],
[17.2263,53.9567],
[17.276,53.9061],
[17.2644,53.8902],
[17.298,53.8729],
[17.3066,53.8687],
[17.3208,53.8779],
[17.3302,53.8603],
[17.3424,53.8609],
[17.3411,53.8337],
[17.3736,53.8264],
[17.3658,53.8134],
[17.3764,53.792],
[17.4374,53.788],
[17.4726,53.7457],
[17.475,53.7396],
[17.4567,53.727],
[17.4672,53.7178],
[17.5061,53.7191],
[17.5211,53.7157],
[17.4964,53.6552],
[17.4762,53.6502],
[17.4706,53.6337],
[17.4905,53.6313],
[17.4701,53.6179],
[17.4665,53.6016],
[17.4314,53.5925],
[17.418,53.5665],
[17.4135,53.5602],
[17.4217,53.5548],
[17.4223,53.5361],
[17.404,53.5216],
[17.3907,53.4908],
[17.3829,53.4689],
[17.3504,53.4542],
[17.3453,53.4508],
[17.3164,53.4319],
[17.2994,53.4225],
[17.2944,53.42],
[17.2915,53.4175],
[17.2912,53.4164],
[17.2959,53.4037],
[17.2651,53.3858],
[17.2556,53.3812],
[17.2471,53.3746],
[17.2574,53.3627],
[17.2648,53.3375],
[17.2608,53.3267],
[17.2493,53.3235],
[17.2557,53.3191],
[17.2198,53.306],
[17.1945,53.2976],
[17.1852,53.2836],
[17.19,53.2704],
[17.1389,53.2613],
[17.0907,53.2517],
[17.0689,53.229],
[17.0452,53.2239],
[17.0329,53.2308],
[16.9987,53.2326],
[16.9935,53.2333],
[16.9828,53.229],
[16.9509,53.227],
[16.9491,53.2195],
[16.926,53.2128],
[16.9061,53.197],
[16.9139,53.179],
[16.8529,53.1693],
[16.8187,53.1026],
[16.7765,53.1019],
[16.7641,53.1064],
[16.7265,53.0544],
[16.6429,53.0592],
[16.6242,53.0517],
[16.6076,53.0419],
[16.5686,52.9953],
[16.5665,52.9743],
[16.5545,52.9606],
[16.5615,52.9155],
[16.5471,52.8988],
[16.4738,52.8824],
[16.408,52.8912],
[16.3937,52.8869],
[16.3631,52.8931],
[16.2267,52.8844],
[16.1998,52.8989],
[16.1645,52.8989],
[16.0559,52.861],
[15.9907,52.8579],
[15.9701,52.8537],
[15.9664,52.8536],
[15.9749,52.8402],
[15.9533,52.8368],
[15.9469,52.8269],
[15.9585,52.812],
[15.9344,52.8],
[15.9386,52.786],
[15.9255,52.784],
[15.9469,52.7546],
[15.9449,52.7293],
[15.9249,52.7248],
[15.9065,52.7143],
[15.7934,52.7069],
[15.814,52.6679],
[15.8186,52.6578],
[15.8079,52.6405],
[15.7959,52.6364],
[15.8004,52.6237],
[15.7854,52.6171]
]
]
]}
}
