{
"type": "Feature",
"properties": {"id":"ohm-r2694790","edge_precision":"unknown","ohm_relation":2694790,"ohm_version":29,"ohm_timestamp":"2026-09-15T22:38:52Z"},
"geometry": {"type": "MultiPolygon", "coordinates": [
[
[
[21.6704,58.3265],
[21.6791,58.3034],
[21.8496,58.2006],
[21.9578,58.1787],
[21.9843,58.1539],
[22.033,58.1274],
[21.9927,58.0975],
[21.9695,58.0551],
[21.9084,58.0058],
[21.8877,57.978],
[21.894,57.938],
[21.9534,57.8826],
[21.9744,57.8633],
[22.0034,57.852],
[22.0825,57.8518],
[22.1176,57.8667],
[22.1411,57.8911],
[22.2755,57.9539],
[22.2946,57.9805],
[22.2852,58.0085],
[22.3081,58.0285],
[22.3375,58.083],
[22.3407,58.1371],
[22.4513,58.0733],
[22.5588,58.0455],
[22.611,58.0522],
[22.6477,58.073],
[22.6574,58.0962],
[22.6411,58.1237],
[22.6674,58.1689],
[22.7185,58.1259],
[22.7539,58.1105],
[22.8176,58.1041],
[22.8683,58.1134],
[22.901,58.1359],
[22.9048,58.1642],
[22.8829,58.1876],
[22.833,58.2114],
[22.8793,58.2279],
[22.9138,58.2504],
[22.9855,58.2514],
[23.0272,58.2602],
[23.0599,58.2827],
[23.0662,58.3091],
[23.15,58.3401],
[23.1756,58.3668],
[23.2212,58.3759],
[23.3055,58.3686],
[23.3626,58.3823],
[23.3913,58.4001],
[23.4145,58.4437],
[23.4514,58.4617],
[23.4728,58.4908],
[23.5068,58.4992],
[23.5493,58.4922],
[23.5387,58.4651],
[23.5481,58.4342],
[23.5772,58.4069],
[23.6126,58.391],
[23.6726,58.3159],
[23.729,58.2902],
[23.8222,58.2856],
[23.9014,58.2574],
[23.833,58.2304],
[23.8173,58.2131],
[23.8153,58.1933],
[23.8383,58.1665],
[23.834,58.1409],
[23.8564,58.1145],
[23.8695,58.0825],
[23.9133,58.0587],
[23.9643,58.049],
[24.033,58.0575],
[24.0684,58.0725],
[24.0997,58.1014],
[24.1165,58.1547],
[24.1978,58.1751],
[24.2244,58.1946],
[24.2459,58.2256],
[24.3032,58.2282],
[24.376,58.2486],
[24.3577,58.1773],
[24.3755,58.1446],
[24.3659,58.0975],
[24.3806,58.0712],
[24.3125,57.9838],
[24.2783,57.9096],
[24.3074,57.8965],
[24.3532,57.8761],
[24.3656,57.876],
[24.4093,57.8717],
[24.4113,57.8645],
[24.4595,57.88],
[24.4521,57.8996],
[24.4595,57.9063],
[24.4461,57.9084],
[24.4623,57.925],
[24.5139,57.9306],
[24.5102,57.9347],
[24.5309,57.9469],
[24.5843,57.9618],
[24.6166,57.943],
[24.6289,57.942],
[24.6447,57.959],
[24.6748,57.9594],
[24.6897,57.9473],
[24.7144,57.963],
[24.7426,57.9651],
[24.7433,57.9812],
[24.8071,57.9903],
[24.8325,57.9728],
[24.9465,58.0085],
[25.0214,58.0183],
[25.0784,58.0663],
[25.1046,58.0663],
[25.1059,58.0778],
[25.1264,58.0794],
[25.1912,58.076],
[25.1995,58.0856],
[25.2065,58.0833],
[25.2166,58.0741],
[25.2055,58.0613],
[25.2162,58.0596],
[25.2175,58.0493],
[25.2283,58.0535],
[25.2173,58.0413],
[25.2198,58.0292],
[25.2461,58.0186],
[25.2304,58.0155],
[25.256,58.003],
[25.2563,57.9938],
[25.2828,57.9896],
[25.3026,57.994],
[25.2958,57.9998],
[25.3024,58],
[25.2971,58.0147],
[25.3038,58.0343],
[25.2649,58.0601],
[25.2868,58.0816],
[25.3187,58.0695],
[25.3721,58.0288],
[25.4083,58.0291],
[25.4668,58.0052],
[25.4433,57.996],
[25.4858,57.9748],
[25.5185,57.9801],
[25.5223,57.9743],
[25.5123,57.9695],
[25.5518,57.9722],
[25.5573,57.9604],
[25.5738,57.9739],
[25.5943,57.9596],
[25.589,57.9528],
[25.5804,57.9442],
[25.6387,57.9307],
[25.646,57.9237],
[25.6488,57.9166],
[25.6781,57.9123],
[25.6799,57.9045],
[25.7025,57.9032],
[25.7374,57.9242],
[25.7884,57.9046],
[25.7851,57.8992],
[25.8202,57.8649],
[25.8432,57.8606],
[25.8589,57.8572],
[25.8757,57.865],
[25.8859,57.8564],
[25.8836,57.849],
[25.896,57.8507],
[25.9317,57.8533],
[25.9619,57.8459],
[25.9915,57.856],
[26.0105,57.8579],
[26.0211,57.8466],
[26.0575,57.8472],
[26.0267,57.7796],
[26.0271,57.7747],
[26.0205,57.772],
[26.05,57.7623],
[26.0793,57.7666],
[26.1351,57.752],
[26.1429,57.7332],
[26.2058,57.715],
[26.1824,57.6916],
[26.1793,57.6875],
[26.2127,57.6792],
[26.212,57.6659],
[26.2396,57.6582],
[26.2432,57.6513],
[26.2316,57.6478],
[26.2462,57.6394],
[26.2407,57.6333],
[26.254,57.6258],
[26.2471,57.6209],
[26.2561,57.6214],
[26.255,57.614],
[26.2871,57.5917],
[26.311,57.5931],
[26.3123,57.5842],
[26.3351,57.5796],
[26.345,57.5841],
[26.4016,57.5722],
[26.4695,57.5756],
[26.4998,57.5245],
[26.5574,57.5139],
[26.5662,57.5195],
[26.5613,57.5284],
[26.583,57.5392],
[26.5889,57.5366],
[26.5886,57.5172],
[26.6166,57.5093],
[26.6146,57.5293],
[26.6471,57.554],
[26.6704,57.5541],
[26.6717,57.5656],
[26.7304,57.57],
[26.7376,57.5755],
[26.7287,57.5805],
[26.7383,57.5877],
[26.7727,57.575],
[26.7534,57.5635],
[26.773,57.5597],
[26.784,57.5761],
[26.7994,57.5823],
[26.8365,57.5834],
[26.8629,57.5939],
[26.8636,57.6088],
[26.8575,57.6103],
[26.8653,57.6171],
[26.9093,57.6333],
[26.9505,57.6208],
[26.9395,57.6103],
[26.9453,57.6029],
[26.9697,57.6053],
[26.9742,57.6129],
[27.0305,57.6042],
[27.0439,57.5972],
[27.0346,57.5856],
[27.0558,57.5827],
[27.089,57.5745],
[27.1174,57.5621],
[27.1942,57.5506],
[27.258,57.5508],
[27.3506,57.5177],
[27.3516,57.5182],
[27.3259,57.5723],
[27.3175,57.58],
[27.3565,57.5978],
[27.3778,57.5961],
[27.4051,57.6124],
[27.4699,57.6294],
[27.6117,57.6305],
[27.668,57.5989],
[27.667,57.5926],
[27.6952,57.5836],
[27.7295,57.591],
[27.9338,57.6735],
[28.0428,57.7773],
[28.0421,57.862],
[28.0193,57.9054],
[27.9739,57.9611],
[27.9149,58.0194],
[27.8306,58.0773],
[27.7858,58.108],
[27.6354,58.1004],
[27.6025,58.1175],
[27.4905,58.2192],
[27.4864,58.3066],
[27.5551,58.3686],
[27.3567,58.788],
[27.7383,58.9778],
[27.9055,59.0186],
[28.0591,59.1252],
[28.2513,59.2252],
[28.2949,59.295],
[28.3447,59.3738],
[28.147,59.5378],
[28.0894,59.5475],
[27.9966,59.5471],
[27.9492,59.4906],
[27.9053,59.4529],
[27.8218,59.4454],
[27.7545,59.4654],
[27.6189,59.4632],
[27.4053,59.4939],
[27.3346,59.4957],
[27.1272,59.481],
[26.9762,59.4834],
[26.8634,59.5252],
[26.7903,59.5641],
[26.5963,59.6098],
[26.6251,59.6433],
[26.6261,59.6658],
[26.5828,59.7058],
[26.5407,59.7222],
[26.4767,59.7228],
[26.4234,59.6988],
[26.4144,59.6807],
[26.417,59.6672],
[26.4603,59.6279],
[26.4764,59.6021],
[26.4217,59.5985],
[26.3965,59.5991],
[26.2912,59.6318],
[26.174,59.6306],
[26.1199,59.663],
[26.0811,59.6741],
[25.9744,59.6816],
[25.9172,59.6771],
[25.8562,59.7212],
[25.7883,59.734],
[25.7159,59.7148],
[25.6519,59.7117],
[25.5732,59.6809],
[25.5208,59.6963],
[25.4652,59.6954],
[25.4271,59.6827],
[25.3948,59.6549],
[25.3368,59.6706],
[25.2812,59.6698],
[25.243,59.657],
[25.2162,59.6315],
[25.1707,59.6297],
[25.0657,59.6754],
[24.9753,59.6938],
[24.9302,59.6896],
[24.8896,59.6713],
[24.8763,59.6492],
[24.8775,59.6109],
[24.8062,59.6345],
[24.7439,59.6369],
[24.7011,59.6306],
[24.6234,59.5993],
[24.5963,59.6309],
[24.5625,59.6455],
[24.5166,59.6505],
[24.4643,59.643],
[24.4291,59.6285],
[24.3827,59.5847],
[24.3807,59.5661],
[24.4047,59.5267],
[24.3412,59.5224],
[24.286,59.5038],
[24.2646,59.4892],
[24.2464,59.461],
[24.1502,59.4464],
[24.1093,59.4309],
[24.0247,59.4352],
[23.9555,59.4089],
[23.8112,59.3891],
[23.7708,59.3645],
[23.7682,59.3311],
[23.6602,59.3036],
[23.5634,59.2688],
[23.5227,59.2757],
[23.512,59.3],
[23.4843,59.3211],
[23.4041,59.3494],
[23.3228,59.3465],
[23.2744,59.3197],
[23.2715,59.2919],
[23.2983,59.2652],
[23.3587,59.2354],
[23.4006,59.224],
[23.3899,59.1813],
[23.4073,59.1519],
[23.4337,59.1306],
[23.3512,59.1021],
[23.1324,59.0925],
[23.0704,59.0737],
[23.0182,59.0373],
[22.9265,59.0335],
[22.861,59.0473],
[22.7813,59.0495],
[22.7854,59.0863],
[22.7584,59.1107],
[22.7046,59.128],
[22.5947,59.1406],
[22.5258,59.1283],
[22.5009,59.1094],
[22.4867,59.0759],
[22.4213,59.0619],
[22.3846,59.0423],
[22.2943,58.9974],
[22.2034,58.9832],
[22.0736,58.9955],
[22.0283,58.9912],
[21.9775,58.9717],
[21.9556,58.9506],
[21.9501,58.9317],
[21.9588,58.9087],
[21.978,58.8923],
[22.1207,58.843],
[22.2193,58.8309],
[22.3519,58.8402],
[22.3415,58.8067],
[22.3774,58.7606],
[22.375,58.7102],
[22.397,58.6825],
[22.4388,58.6575],
[22.4234,58.6282],
[22.25,58.6161],
[22.2024,58.5955],
[22.1446,58.5826],
[22.1053,58.5458],
[22.0763,58.5359],
[22.018,58.5547],
[21.9205,58.5672],
[21.7915,58.5431],
[21.7587,58.5262],
[21.7453,58.5033],
[21.7472,58.47],
[21.7749,58.4431],
[21.7312,58.4109],
[21.7166,58.3817],
[21.6801,58.3548],
[21.6704,58.3265]
]
],
[
[
[23.1164,57.8064],
[23.1274,57.7752],
[23.1513,57.7545],
[23.2461,57.7316],
[23.2927,57.7327],
[23.333,57.7433],
[23.3599,57.7633],
[23.3698,57.7894],
[23.3613,57.8188],
[23.3354,57.8428],
[23.2882,57.867],
[23.2458,57.8747],
[23.1946,57.8711],
[23.1567,57.8583],
[23.129,57.8357],
[23.1164,57.8064]
]
]
]}
}
