{
"type": "Feature",
"properties": {"id":"ohm-r2961652","edge_precision":"unknown","ohm_relation":2961652,"ohm_version":1,"ohm_timestamp":"2026-09-29T02:35:54Z"},
"geometry": {"type": "MultiPolygon", "coordinates": [
[
[
[92.1503,11.5855],
[92.1543,11.521],
[92.1727,11.4923],
[92.2067,11.4653],
[92.2729,11.4599],
[92.3064,11.4724],
[92.3241,11.4916],
[92.3318,11.5245],
[92.3267,11.5969],
[92.3155,11.6203],
[92.2932,11.6363],
[92.2504,11.6525],
[92.204,11.651],
[92.1802,11.6396],
[92.1563,11.6107],
[92.1503,11.5855]
]
],
[
[
[92.1589,10.9864],
[92.1717,10.9422],
[92.2101,10.9187],
[92.2505,10.9264],
[92.2698,10.9423],
[92.2804,10.9646],
[92.2824,10.9878],
[92.2729,11.0117],
[92.253,11.0286],
[92.2247,11.036],
[92.1813,11.0224],
[92.1589,10.9864]
]
],
[
[
[92.3156,10.7856],
[92.3256,10.6624],
[92.3374,10.6368],
[92.3584,10.6194],
[92.3259,10.5454],
[92.3302,10.5198],
[92.3448,10.4965],
[92.3879,10.4773],
[92.436,10.4885],
[92.4751,10.4645],
[92.5132,10.4578],
[92.5601,10.4734],
[92.5878,10.5076],
[92.6188,10.5588],
[92.6227,10.5845],
[92.6133,10.6116],
[92.6334,10.6341],
[92.6508,10.6826],
[92.6504,10.7123],
[92.6393,10.7436],
[92.6412,10.7997],
[92.6171,10.8396],
[92.6121,10.8728],
[92.6388,10.8748],
[92.6615,10.8881],
[92.6776,10.9275],
[92.7068,10.9454],
[92.7219,10.9733],
[92.7236,10.9973],
[92.7148,11.0217],
[92.6952,11.0392],
[92.671,11.0473],
[92.6489,11.0471],
[92.6252,11.0357],
[92.6035,10.9932],
[92.5678,10.9773],
[92.5525,10.9439],
[92.5113,10.955],
[92.458,10.9373],
[92.4116,10.8994],
[92.3736,10.8462],
[92.334,10.8228],
[92.3156,10.7856]
]
],
[
[
[92.4608,11.8511],
[92.4712,11.8073],
[92.498,11.7783],
[92.4977,11.7069],
[92.5194,11.6574],
[92.4968,11.6463],
[92.4813,11.6253],
[92.4746,11.5414],
[92.5253,11.4742],
[92.5584,11.4525],
[92.5271,11.4488],
[92.506,11.4331],
[92.4937,11.4056],
[92.4956,11.3797],
[92.5091,11.3564],
[92.5671,11.3032],
[92.6391,11.291],
[92.6337,11.228],
[92.6167,11.1978],
[92.6185,11.172],
[92.6414,11.1355],
[92.6772,11.1206],
[92.7117,11.0916],
[92.7606,11.0957],
[92.7869,11.1277],
[92.7902,11.1533],
[92.7814,11.1777],
[92.7587,11.1985],
[92.7349,11.2048],
[92.7565,11.2431],
[92.7784,11.3118],
[92.7749,11.3516],
[92.7501,11.3796],
[92.7393,11.4162],
[92.7408,11.4315],
[92.7621,11.4529],
[92.7783,11.4947],
[92.8194,11.6708],
[92.8154,11.7236],
[92.8433,11.86],
[92.8406,11.9404],
[92.8168,11.9846],
[92.8309,12.0076],
[92.8355,12.0524],
[92.8638,12.1006],
[92.8883,12.118],
[92.9001,12.1409],
[92.8936,12.1053],
[92.9068,12.054],
[92.8772,12.0208],
[92.8713,11.9942],
[92.8758,11.9737],
[92.9675,11.8813],
[92.9591,11.8366],
[92.973,11.8],
[93.0231,11.7654],
[93.0488,11.7348],
[93.0735,11.7261],
[93.0992,11.7275],
[93.1289,11.7492],
[93.1397,11.7919],
[93.1244,11.8253],
[93.1223,11.8587],
[93.1078,11.8787],
[93.1088,11.9095],
[93.0983,11.9466],
[93.0684,11.9991],
[93.1286,12.0559],
[93.1679,12.111],
[93.1775,12.1384],
[93.1738,12.1633],
[93.1548,12.1932],
[93.1577,12.2719],
[93.1287,12.3098],
[93.1271,12.3323],
[93.1137,12.3545],
[93.0832,12.3709],
[93.0561,12.372],
[93.0293,12.3596],
[93.0084,12.3323],
[92.9878,12.3207],
[92.9832,12.3319],
[93.0108,12.4032],
[93.0087,12.4523],
[93.0247,12.4933],
[93.0281,12.549],
[93.0128,12.6185],
[93.0205,12.6735],
[93.0342,12.7088],
[93.0303,12.7369],
[93.0034,12.7894],
[93.0065,12.8196],
[92.9885,12.8766],
[93.0282,12.9067],
[93.0612,12.986],
[93.06,13.0194],
[93.0863,13.0656],
[93.0916,13.1834],
[93.1094,13.2056],
[93.1134,13.2377],
[93.1361,13.2849],
[93.1424,13.3373],
[93.1358,13.3817],
[93.1571,13.4351],
[93.1377,13.4766],
[93.0975,13.4933],
[93.0989,13.532],
[93.1125,13.567],
[93.1007,13.6061],
[93.121,13.6361],
[93.1192,13.6708],
[93.0941,13.7014],
[93.0229,13.7297],
[92.9694,13.7165],
[92.9424,13.7011],
[92.927,13.6803],
[92.9235,13.653],
[92.8818,13.6558],
[92.8373,13.6229],
[92.8268,13.5952],
[92.8121,13.4942],
[92.7772,13.4687],
[92.7581,13.4289],
[92.7606,13.3902],
[92.7801,13.3631],
[92.7609,13.297],
[92.7728,13.252],
[92.727,13.2492],
[92.7072,13.2311],
[92.6994,13.2118],
[92.7085,13.1719],
[92.7417,13.1491],
[92.7173,13.1537],
[92.6758,13.1474],
[92.6547,13.1319],
[92.6431,13.1091],
[92.6422,13.0826],
[92.6617,13.0372],
[92.6385,13.0178],
[92.6211,12.9884],
[92.6193,12.9374],
[92.5956,12.8609],
[92.608,12.8046],
[92.5981,12.7712],
[92.6028,12.7421],
[92.6238,12.7183],
[92.6526,12.7101],
[92.6673,12.6838],
[92.6375,12.6386],
[92.6304,12.6037],
[92.6344,12.5791],
[92.6194,12.5585],
[92.615,12.536],
[92.625,12.4986],
[92.6469,12.4772],
[92.6471,12.2825],
[92.6418,12.2643],
[92.6138,12.2379],
[92.5967,12.2006],
[92.5734,12.1195],
[92.5648,12.0333],
[92.5376,12.0117],
[92.4873,11.9367],
[92.4608,11.8511]
]
],
[
[
[93.165,14.0189],
[93.1726,13.9494],
[93.2092,13.9211],
[93.2329,13.9194],
[93.2577,13.9282],
[93.2776,13.9492],
[93.2863,13.9734],
[93.272,14.0453],
[93.2524,14.0626],
[93.2272,14.071],
[93.2004,14.067],
[93.1793,14.0516],
[93.165,14.0189]
]
],
[
[
[93.2959,14.1404],
[93.3066,14.1071],
[93.297,14.0765],
[93.3038,14.0517],
[93.333,14.0092],
[93.3777,13.9988],
[93.4125,14.0215],
[93.4219,14.0699],
[93.4335,14.122],
[93.4223,14.2131],
[93.385,14.2425],
[93.3576,14.247],
[93.3251,14.2396],
[93.3052,14.2217],
[93.2968,14.1974],
[93.3018,14.1707],
[93.2959,14.1404]
]
],
[
[
[93.4969,14.8042],
[93.498,14.7704],
[93.5259,14.7385],
[93.5663,14.7351],
[93.5929,14.7525],
[93.6056,14.7824],
[93.6286,14.7842],
[93.6513,14.7973],
[93.6664,14.8247],
[93.688,14.8618],
[93.7053,14.9431],
[93.6799,14.9794],
[93.6341,14.988],
[93.6031,14.9696],
[93.577,14.9233],
[93.547,14.9198],
[93.5224,14.8998],
[93.514,14.8755],
[93.5184,14.8329],
[93.4969,14.8042]
]
],
[
[
[93.7917,12.2743],
[93.7963,12.2489],
[93.8085,12.2318],
[93.8336,12.217],
[93.8614,12.2124],
[93.8955,12.2197],
[93.9133,12.2313],
[93.9272,12.2541],
[93.9316,12.2844],
[93.9236,12.3106],
[93.8863,12.3446],
[93.8595,12.3486],
[93.8327,12.3415],
[93.8113,12.3276],
[93.7975,12.3067],
[93.7917,12.2743]
]
],
[
[
[94.1963,13.4609],
[94.2011,13.4156],
[94.2221,13.3905],
[94.245,13.3795],
[94.2915,13.3856],
[94.3146,13.4043],
[94.3271,13.4262],
[94.3274,13.4824],
[94.3113,13.5037],
[94.2895,13.5156],
[94.2366,13.5105],
[94.2123,13.4909],
[94.1963,13.4609]
]
]
]}
}
