{
"type": "Feature",
"properties": {"id":"ohm-r2694468","edge_precision":"unknown","ohm_relation":2694468,"ohm_version":9,"ohm_timestamp":"2026-08-21T04:43:58Z"},
"geometry": {"type": "MultiPolygon", "coordinates": [
[
[
[108.5592,19.0902],
[108.5878,18.9899],
[108.5857,18.9546],
[108.5947,18.925],
[108.566,18.8291],
[108.5804,18.795],
[108.6186,18.772],
[108.6371,18.7048],
[108.6391,18.6316],
[108.6202,18.585],
[108.6135,18.5416],
[108.6295,18.4851],
[108.6468,18.4646],
[108.6782,18.447],
[108.7892,18.4283],
[108.839,18.3799],
[108.9031,18.3587],
[108.9173,18.3389],
[108.9487,18.318],
[108.9852,18.3076],
[109.0779,18.3117],
[109.104,18.2711],
[109.1526,18.2397],
[109.1939,18.2318],
[109.2465,18.2416],
[109.2806,18.2312],
[109.3057,18.2326],
[109.3227,18.1901],
[109.3545,18.1686],
[109.4838,18.1392],
[109.5146,18.1394],
[109.5383,18.1204],
[109.5757,18.1132],
[109.6311,18.1137],
[109.6635,18.1328],
[109.7032,18.1339],
[109.7287,18.1443],
[109.7875,18.21],
[109.797,18.2609],
[109.8221,18.2926],
[109.8233,18.325],
[109.9192,18.3587],
[109.9359,18.344],
[109.9994,18.3173],
[110.0856,18.3433],
[110.116,18.3802],
[110.1574,18.5022],
[110.183,18.5214],
[110.2113,18.5204],
[110.2382,18.5328],
[110.2574,18.5616],
[110.2579,18.5896],
[110.2743,18.6012],
[110.4354,18.6164],
[110.4604,18.603],
[110.4943,18.6016],
[110.5431,18.6293],
[110.5546,18.6532],
[110.553,18.6835],
[110.5248,18.7203],
[110.5774,18.739],
[110.6138,18.7737],
[110.6261,18.8027],
[110.6129,18.8424],
[110.5718,18.8686],
[110.5653,18.9129],
[110.5742,18.9801],
[110.6172,19.0261],
[110.6328,19.1237],
[110.6715,19.1967],
[110.6897,19.2573],
[110.7347,19.3121],
[110.7372,19.3554],
[110.7999,19.388],
[110.862,19.4683],
[110.9084,19.4903],
[110.9493,19.5375],
[111.012,19.5843],
[111.0511,19.5822],
[111.0862,19.6031],
[111.0983,19.6429],
[111.0894,19.6771],
[111.068,19.7111],
[111.0609,19.73],
[111.0542,19.8412],
[111.0041,19.9985],
[110.9822,20.0406],
[110.9452,20.063],
[110.9077,20.0631],
[110.8835,20.052],
[110.8169,20.0619],
[110.7987,20.0865],
[110.7661,20.1101],
[110.7336,20.1928],
[110.6967,20.2151],
[110.6494,20.2058],
[110.6174,20.1663],
[110.5808,20.1623],
[110.5306,20.1342],
[110.5188,20.1563],
[110.5013,20.1694],
[110.4296,20.1786],
[110.3737,20.1668],
[110.3321,20.1422],
[110.2816,20.1257],
[110.2292,20.1273],
[110.1403,20.1139],
[110.1098,20.0912],
[110.0907,20.0467],
[110.0363,20.0366],
[110.0074,20.016],
[109.9585,20.0475],
[109.914,20.0411],
[109.8158,20.0493],
[109.7705,20.0323],
[109.7311,20.0554],
[109.6771,20.0596],
[109.601,20.0476],
[109.562,20.0324],
[109.5273,20.0013],
[109.4928,19.9837],
[109.4621,19.9238],
[109.4208,19.9254],
[109.3268,19.9682],
[109.2858,19.9676],
[109.2432,19.9536],
[109.2139,19.9315],
[109.2032,19.9097],
[109.1371,19.8624],
[109.104,19.8182],
[109.0982,19.7779],
[109.1066,19.748],
[109.0934,19.6816],
[108.977,19.6339],
[108.8763,19.5393],
[108.7826,19.489],
[108.7469,19.4464],
[108.6516,19.4177],
[108.6129,19.3789],
[108.604,19.3469],
[108.58,19.3199],
[108.5675,19.275],
[108.5746,19.2454],
[108.5706,19.2038],
[108.5766,19.1753],
[108.5969,19.1529],
[108.5676,19.13],
[108.5592,19.0902]
]
],
[
[
[111.1417,19.9173],
[111.1568,19.8719],
[111.174,19.857],
[111.1997,19.8494],
[111.2407,19.8621],
[111.2565,19.8826],
[111.2606,19.9066],
[111.2749,19.9112],
[111.3194,19.946],
[111.3302,19.98],
[111.3128,20.0219],
[111.2723,20.0396],
[111.2288,20.0234],
[111.1926,19.9674],
[111.1536,19.947],
[111.1417,19.9173]
]
],
[
[
[112.1553,16.9756],
[112.1721,16.941],
[112.2033,16.9263],
[112.2428,16.9334],
[112.2698,16.9278],
[112.2951,16.9127],
[112.3139,16.8884],
[112.2871,16.8728],
[112.275,16.8515],
[112.2762,16.8226],
[112.2929,16.7951],
[112.3143,16.7806],
[112.3391,16.7757],
[112.3672,16.7831],
[112.3842,16.7984],
[112.4026,16.8222],
[112.4077,16.8459],
[112.4005,16.8691],
[112.3802,16.8881],
[112.3954,16.9061],
[112.4005,16.9298],
[112.3744,16.982],
[112.3333,17.0093],
[112.2804,17.0305],
[112.2408,17.0228],
[112.2019,17.0295],
[112.1708,17.0138],
[112.1553,16.9756]
]
],
[
[
[112.6693,16.6634],
[112.6789,16.6409],
[112.6997,16.6213],
[112.7437,16.6103],
[112.7808,16.6305],
[112.7917,16.6701],
[112.7682,16.7089],
[112.7266,16.7242],
[112.6833,16.7076],
[112.6712,16.6863],
[112.6693,16.6634]
]
],
[
[
[114.2881,10.3469],
[114.3361,10.3267],
[114.3653,10.3269],
[114.4233,10.3492],
[114.4269,10.3989],
[114.3986,10.4403],
[114.3289,10.4364],
[114.2939,10.4153],
[114.2881,10.3469]
]
],
[
[
[116.6542,20.6925],
[116.6647,20.672],
[116.687,20.6548],
[116.7216,20.6449],
[116.7465,20.6453],
[116.7713,20.6568],
[116.7911,20.6927],
[116.779,20.7436],
[116.7421,20.7659],
[116.6922,20.7602],
[116.6689,20.7462],
[116.6546,20.7215],
[116.6542,20.6925]
]
],
[
[
[118.1317,24.3822],
[118.208,24.324],
[118.2013,24.3568],
[118.2434,24.3624],
[118.3184,24.3352],
[118.363,24.3431],
[118.3908,24.37],
[118.438,24.3485],
[118.4756,24.352],
[118.503,24.3766],
[118.5302,24.4397],
[118.5321,24.4635],
[118.5228,24.4953],
[118.4494,24.5286],
[118.4053,24.5428],
[118.3308,24.5089],
[118.2753,24.5053],
[118.2594,24.4954],
[118.2317,24.4781],
[118.1969,24.4375],
[118.1469,24.41],
[118.1317,24.3822]
]
],
[
[
[118.1781,24.1487],
[118.2048,24.1164],
[118.248,24.1108],
[118.2721,24.1224],
[118.2858,24.1388],
[118.2884,24.1792],
[118.2589,24.2093],
[118.2139,24.2112],
[118.1814,24.1837],
[118.1781,24.1487]
]
],
[
[
[119.2565,23.4035],
[119.274,23.362],
[119.2608,23.3208],
[119.2783,23.2891],
[119.322,23.2644],
[119.3657,23.2691],
[119.396,23.3026],
[119.3921,23.3439],
[119.3718,23.3668],
[119.3888,23.4054],
[119.3839,23.4312],
[119.371,23.4484],
[119.321,23.4674],
[119.2931,23.4604],
[119.2759,23.4467],
[119.2565,23.4035]
]
],
[
[
[119.3564,23.2307],
[119.3589,23.1865],
[119.3755,23.1598],
[119.4088,23.1394],
[119.4449,23.137],
[119.4749,23.1522],
[119.4998,23.1851],
[119.5391,23.1834],
[119.5719,23.2073],
[119.6042,23.1929],
[119.6446,23.1967],
[119.6725,23.1905],
[119.6997,23.1971],
[119.7199,23.2131],
[119.7355,23.2408],
[119.7377,23.2616],
[119.7299,23.2889],
[119.7109,23.3079],
[119.6629,23.3196],
[119.5714,23.2935],
[119.5635,23.3019],
[119.5934,23.3282],
[119.5993,23.3698],
[119.5844,23.4041],
[119.542,23.4341],
[119.5747,23.4563],
[119.621,23.4583],
[119.651,23.4735],
[119.6623,23.4891],
[119.6909,23.4955],
[119.7261,23.4852],
[119.758,23.4945],
[119.779,23.5184],
[119.7822,23.549],
[119.7701,23.5723],
[119.7453,23.5884],
[119.7568,23.6112],
[119.7568,23.632],
[119.7277,23.6718],
[119.7305,23.6943],
[119.7209,23.7186],
[119.6809,23.7536],
[119.635,23.8215],
[119.6107,23.8345],
[119.5818,23.8353],
[119.5453,23.8119],
[119.526,23.7694],
[119.5005,23.7425],
[119.4962,23.7064],
[119.4557,23.6654],
[119.4391,23.6121],
[119.4123,23.5801],
[119.4108,23.5593],
[119.4205,23.5342],
[119.4537,23.51],
[119.4509,23.4781],
[119.4678,23.4468],
[119.4375,23.4215],
[119.4249,23.373],
[119.4284,23.3387],
[119.446,23.3149],
[119.4409,23.2741],
[119.3837,23.2631],
[119.3564,23.2307]
]
],
[
[
[119.3874,24.9974],
[119.4018,24.9564],
[119.4243,24.9402],
[119.4676,24.9258],
[119.5134,24.9384],
[119.5314,24.9615],
[119.5346,24.9867],
[119.5238,25.0108],
[119.4939,25.0347],
[119.4492,25.0504],
[119.4068,25.0365],
[119.3874,24.9974]
]
],
[
[
[119.852,26.1411],
[119.8676,26.1088],
[119.9016,26.0917],
[119.9122,26.0507],
[119.9392,26.033],
[119.9106,26.0324],
[119.8854,26.0201],
[119.8701,25.999],
[119.8677,25.9721],
[119.8872,25.9345],
[119.9284,25.8993],
[119.9599,25.8895],
[119.9865,25.8944],
[120.0059,25.9071],
[120.0405,25.9436],
[120.0489,25.9676],
[120.0438,25.9923],
[120.0284,26.0116],
[119.967,26.0307],
[120.0003,26.0441],
[120.0183,26.0634],
[120.0235,26.097],
[120.0089,26.1252],
[120.0323,26.1623],
[120.0618,26.1839],
[120.0713,26.2122],
[120.0732,26.2546],
[120.065,26.2796],
[120.0415,26.3168],
[120.0132,26.3338],
[119.9661,26.32],
[119.9462,26.298],
[119.9306,26.2626],
[119.9096,26.2261],
[119.8851,26.2167],
[119.8648,26.1964],
[119.852,26.1411]
]
],
[
[
[119.9703,23.0777],
[119.9773,23.0446],
[120.001,23.0139],
[120.049,22.9945],
[120.0732,22.9762],
[120.1139,22.9239],
[120.1146,22.9019],
[120.1473,22.8125],
[120.2022,22.6905],
[120.1905,22.6608],
[120.1943,22.6304],
[120.2382,22.5524],
[120.3083,22.474],
[120.5059,22.3519],
[120.5496,22.3293],
[120.5623,22.3027],
[120.5873,22.278],
[120.5981,22.2269],
[120.6263,22.1975],
[120.6512,22.107],
[120.6282,22.0188],
[120.6361,21.9866],
[120.6549,21.9615],
[120.6543,21.9269],
[120.667,21.9009],
[120.687,21.8808],
[120.7203,21.8664],
[120.7569,21.8696],
[120.7802,21.8825],
[120.8399,21.843],
[120.8734,21.8425],
[120.8988,21.8538],
[120.9246,21.8956],
[120.9049,21.9556],
[120.9467,22.0018],
[120.9558,22.0258],
[120.9525,22.0703],
[120.9606,22.0997],
[120.9516,22.129],
[120.9564,22.2008],
[120.9499,22.3186],
[121.0014,22.4365],
[121.0345,22.5408],
[121.061,22.5706],
[121.0717,22.6224],
[121.1109,22.654],
[121.1573,22.6742],
[121.2181,22.7279],
[121.2532,22.7845],
[121.2558,22.8175],
[121.2957,22.8498],
[121.3556,22.9374],
[121.4088,23.0522],
[121.4618,23.0876],
[121.4803,23.1133],
[121.4816,23.1392],
[121.462,23.1857],
[121.4734,23.2049],
[121.4868,23.265],
[121.5082,23.2803],
[121.5263,23.3115],
[121.5322,23.3723],
[121.5678,23.4692],
[121.5628,23.5193],
[121.5823,23.554],
[121.5884,23.6219],
[121.6011,23.6477],
[121.6094,23.7016],
[121.6279,23.7369],
[121.6286,23.7872],
[121.6588,23.8617],
[121.6675,23.9479],
[121.6952,23.9805],
[121.7024,24.0029],
[121.6989,24.034],
[121.6761,24.0678],
[121.7133,24.1089],
[121.7187,24.1694],
[121.7822,24.2196],
[121.8202,24.2756],
[121.8308,24.3067],
[121.8306,24.3352],
[121.8473,24.373],
[121.8485,24.4011],
[121.9084,24.4576],
[121.9283,24.5287],
[121.9415,24.6087],
[121.9286,24.6368],
[121.9059,24.6521],
[121.8946,24.7263],
[121.8765,24.7743],
[121.8832,24.8219],
[121.9141,24.7925],
[121.9484,24.7825],
[121.9826,24.7853],
[122.0072,24.799],
[122.0232,24.8303],
[122.0117,24.8729],
[121.9844,24.899],
[121.9458,24.9058],
[121.9697,24.9297],
[122.0431,24.9621],
[122.0574,24.9781],
[122.0647,25.0041],
[122.0608,25.0315],
[122.0459,25.0539],
[121.988,25.0791],
[121.9803,25.0936],
[121.9832,25.1416],
[121.9628,25.1722],
[121.9317,25.1836],
[121.8914,25.1759],
[121.8453,25.1826],
[121.8445,25.2102],
[121.8237,25.2381],
[121.7927,25.2495],
[121.7553,25.2412],
[121.7297,25.2659],
[121.6898,25.2708],
[121.6596,25.3145],
[121.609,25.3438],
[121.532,25.3509],
[121.4807,25.3375],
[121.4076,25.2812],
[121.3309,25.1794],
[121.2234,25.1696],
[121.0526,25.1015],
[120.9863,25.0544],
[120.9583,24.9961],
[120.9193,24.9479],
[120.8929,24.8964],
[120.8657,24.8697],
[120.8524,24.8374],
[120.847,24.7815],
[120.818,24.7554],
[120.8076,24.7295],
[120.7435,24.7015],
[120.6707,24.6284],
[120.6415,24.5601],
[120.6027,24.4964],
[120.5397,24.4305],
[120.4771,24.3347],
[120.4322,24.22],
[120.3913,24.1676],
[120.369,24.115],
[120.3119,24.0516],
[120.2409,23.9141],
[120.2104,23.8945],
[120.1636,23.8439],
[120.1429,23.7672],
[120.0791,23.6471],
[120.0726,23.6163],
[120.0794,23.5777],
[120.0254,23.5251],
[119.9987,23.4795],
[119.9945,23.4437],
[120.0103,23.4055],
[120.0367,23.3867],
[120.0711,23.3847],
[120.0597,23.3322],
[120.0406,23.2994],
[120.0098,23.1659],
[119.9757,23.1155],
[119.9703,23.0777]
]
],
[
[
[120.1597,26.3468],
[120.1667,26.3075],
[120.1974,26.2856],
[120.2403,26.2878],
[120.2759,26.3169],
[120.2873,26.3405],
[120.2848,26.3655],
[120.2694,26.3865],
[120.2449,26.3985],
[120.2162,26.3987],
[120.1947,26.3893],
[120.1597,26.3468]
]
],
[
[
[120.2966,22.3369],
[120.2987,22.3109],
[120.3307,22.275],
[120.3799,22.2714],
[120.4068,22.2856],
[120.4382,22.3169],
[120.4473,22.3408],
[120.4434,22.3681],
[120.4285,22.391],
[120.4035,22.4057],
[120.369,22.4097],
[120.3407,22.401],
[120.3077,22.3678],
[120.2966,22.3369]
]
],
[
[
[120.3483,26.1751],
[120.3515,26.1344],
[120.386,26.1074],
[120.4303,26.109],
[120.4599,26.1378],
[120.4584,26.1775],
[120.4279,26.2049],
[120.3828,26.2068],
[120.3598,26.1926],
[120.3483,26.1751]
]
],
[
[
[120.4128,26.3663],
[120.4357,26.3215],
[120.4526,26.308],
[120.4795,26.301],
[120.5263,26.315],
[120.5527,26.3293],
[120.5663,26.3512],
[120.5665,26.3817],
[120.5503,26.408],
[120.5275,26.4237],
[120.4807,26.4363],
[120.4525,26.4312],
[120.4312,26.4164],
[120.4169,26.3952],
[120.4128,26.3663]
]
],
[
[
[121.405,22.6775],
[121.4292,22.6112],
[121.4712,22.5863],
[121.5062,22.5791],
[121.5334,22.5857],
[121.5589,22.6091],
[121.5706,22.6848],
[121.5532,22.7227],
[121.5117,22.7379],
[121.4344,22.7252],
[121.4113,22.7028],
[121.405,22.6775]
]
],
[
[
[121.4433,22.0852],
[121.4461,22.0642],
[121.4653,22.0165],
[121.5462,21.9585],
[121.5486,21.9383],
[121.569,21.9062],
[121.5989,21.8922],
[121.6366,21.8958],
[121.665,21.9203],
[121.674,21.9581],
[121.6516,21.9959],
[121.6569,22.0256],
[121.6385,22.0612],
[121.6392,22.0942],
[121.6201,22.1209],
[121.5879,22.1376],
[121.4857,22.1384],
[121.4518,22.1115],
[121.4433,22.0852]
]
],
[
[
[121.8889,25.4332],
[121.8987,25.3932],
[121.9366,25.3716],
[121.9802,25.38],
[121.9962,25.3947],
[122.0053,25.4181],
[121.9956,25.4534],
[121.9577,25.4762],
[121.9128,25.4674],
[121.8889,25.4332]
]
],
[
[
[122.0191,25.6506],
[122.0199,25.6059],
[122.0527,25.5763],
[122.1039,25.5753],
[122.1383,25.6082],
[122.1435,25.6312],
[122.1382,25.6536],
[122.1212,25.6738],
[122.1002,25.6835],
[122.0515,25.6809],
[122.0191,25.6506]
]
],
[
[
[122.0458,25.4733],
[122.0691,25.4404],
[122.1109,25.43],
[122.1511,25.4475],
[122.1652,25.4697],
[122.1674,25.4901],
[122.1444,25.5279],
[122.0971,25.54],
[122.0709,25.5309],
[122.0541,25.515],
[122.0458,25.4733]
]
]
]}
}
