{
"type": "Feature",
"properties": {"id":"ohm-r2922053","edge_precision":"unknown","ohm_relation":2922053,"ohm_version":2,"ohm_timestamp":"2026-05-23T09:04:38Z"},
"geometry": {"type": "MultiPolygon", "coordinates": [
[
[
[73.6237,15.6948],
[73.6569,15.655],
[73.6761,15.5973],
[73.7154,15.4716],
[73.7392,15.4447],
[73.7324,15.4029],
[73.7415,15.3736],
[73.7836,15.3249],
[73.8447,15.304],
[73.8884,15.1496],
[73.8799,15.14],
[73.8625,15.0937],
[73.8706,15.0566],
[73.888,15.0369],
[73.9343,15.011],
[73.9532,14.9784],
[73.9893,14.9576],
[73.9931,14.8973],
[74.029,14.8638],
[74.0358,14.8635],
[74.0857,14.9006],
[74.1241,14.925],
[74.162,14.9118],
[74.166,14.9186],
[74.1542,14.9433],
[74.1635,14.9582],
[74.1793,14.9567],
[74.2014,14.9254],
[74.2136,14.9473],
[74.2297,14.9502],
[74.2366,14.9665],
[74.2525,14.9588],
[74.2644,14.9786],
[74.2536,14.9979],
[74.2679,15.0017],
[74.2955,15.0451],
[74.2727,15.0975],
[74.285,15.114],
[74.2852,15.1487],
[74.2955,15.1509],
[74.317,15.1863],
[74.3017,15.2244],
[74.2916,15.2339],
[74.2596,15.2411],
[74.2514,15.2586],
[74.2609,15.2599],
[74.2762,15.2832],
[74.2943,15.2888],
[74.3262,15.2834],
[74.3365,15.295],
[74.3171,15.3292],
[74.3219,15.3436],
[74.3163,15.3628],
[74.3233,15.3677],
[74.2831,15.383],
[74.2689,15.4191],
[74.2755,15.4492],
[74.251,15.4918],
[74.2782,15.5229],
[74.278,15.5461],
[74.2618,15.5649],
[74.2453,15.5666],
[74.2644,15.6155],
[74.2538,15.6268],
[74.2442,15.6261],
[74.2505,15.6573],
[74.2239,15.669],
[74.215,15.6626],
[74.222,15.6555],
[74.2052,15.6511],
[74.2041,15.6637],
[74.1869,15.6675],
[74.1909,15.679],
[74.182,15.6822],
[74.1672,15.6718],
[74.1645,15.6535],
[74.1184,15.652],
[74.0787,15.6308],
[74.031,15.6227],
[74.0212,15.6061],
[73.9908,15.6115],
[73.9614,15.6415],
[73.9678,15.66],
[73.9639,15.691],
[73.9593,15.6992],
[73.9437,15.6985],
[73.9518,15.7163],
[73.9387,15.7427],
[73.8753,15.7507],
[73.8796,15.7741],
[73.8658,15.7847],
[73.8673,15.7965],
[73.8565,15.8008],
[73.8468,15.7864],
[73.8517,15.7808],
[73.8433,15.7811],
[73.8298,15.7645],
[73.8231,15.7399],
[73.809,15.7425],
[73.7849,15.7254],
[73.7425,15.7356],
[73.7283,15.7198],
[73.6754,15.727],
[73.6266,15.697],
[73.6237,15.6948]
]
]
]}
}
