{
"type": "Feature",
"properties": {"id":"ohm-r2863990","edge_precision":"unknown","ohm_relation":2863990,"ohm_version":7,"ohm_timestamp":"2026-04-28T01:42:01Z"},
"geometry": {"type": "MultiPolygon", "coordinates": [
[
[
[35.7273,36.3038],
[35.7452,36.2542],
[35.8427,36.1373],
[35.9051,36.0347],
[35.9075,36.0216],
[35.8526,35.9604],
[35.9177,35.9288],
[35.9311,35.9192],
[35.9755,35.9384],
[36.0054,35.9416],
[36.0177,35.9206],
[35.9988,35.8825],
[36.1067,35.8668],
[36.1264,35.853],
[36.1511,35.8122],
[36.1539,35.7883],
[36.1663,35.7861],
[36.27,35.7972],
[36.281,35.7883],
[36.281,35.7755],
[36.2494,35.7638],
[36.2556,35.7482],
[36.292,35.7387],
[36.3249,35.761],
[36.3435,35.7214],
[36.4053,35.7092],
[36.4135,35.6963],
[36.397,35.659],
[36.3963,35.5166],
[36.3807,35.5008],
[36.3538,35.4461],
[36.3544,35.426],
[36.3682,35.4008],
[36.4094,35.3594],
[36.4403,35.2905],
[36.4842,35.2249],
[36.4677,35.1238],
[36.5302,35.075],
[36.5034,35.0514],
[36.3922,35.0159],
[36.3771,35.0041],
[36.3847,34.9749],
[36.4293,34.9338],
[36.4348,34.9175],
[36.4314,34.8741],
[36.4135,34.8476],
[36.4526,34.7106],
[36.4599,34.6378],
[36.4649,34.6364],
[36.4522,34.5917],
[36.4323,34.5921],
[36.4147,34.6114],
[36.4038,34.6075],
[36.3982,34.5778],
[36.415,34.56],
[36.4076,34.5508],
[36.3419,34.5278],
[36.339,34.52],
[36.3553,34.4991],
[36.3766,34.4994],
[36.3838,34.5066],
[36.4023,34.5008],
[36.4184,34.5092],
[36.4489,34.5061],
[36.4617,34.4692],
[36.508,34.4493],
[36.5241,34.4267],
[36.531,34.4323],
[36.572,34.405],
[36.5285,34.3696],
[36.562,34.3203],
[36.6005,34.3095],
[36.6003,34.2944],
[36.5805,34.2775],
[36.5817,34.2647],
[36.5923,34.2294],
[36.6232,34.1993],
[36.595,34.1895],
[36.5669,34.1366],
[36.5419,34.1295],
[36.511,34.1017],
[36.5036,34.0636],
[36.4676,34.0483],
[36.4348,34.0597],
[36.4042,34.0492],
[36.403,34.0342],
[36.3576,34],
[40.0287,34],
[40.6905,34.3315],
[40.936,34.3861],
[40.9653,34.4019],
[40.988,34.4285],
[41.1957,34.7685],
[41.2042,34.7931],
[41.1915,35.1821],
[41.2013,35.243],
[41.2431,35.3665],
[41.2611,35.4942],
[41.3422,35.5937],
[41.358,35.6239],
[41.3635,35.6552],
[41.3545,35.8256],
[41.2367,36.0603],
[41.277,36.3548],
[41.3854,36.5164],
[41.4149,36.5274],
[41.7899,36.5893],
[41.8173,36.5997],
[42.2816,36.994],
[42.3683,37.0567],
[42.3772,37.0622],
[42.3769,37.0768],
[42.3636,37.0982],
[42.3525,37.0999],
[42.3536,37.1309],
[42.3272,37.1591],
[42.3202,37.1843],
[42.3482,37.2143],
[42.3403,37.2213],
[42.3428,37.2327],
[42.3058,37.26],
[42.2912,37.2624],
[42.2832,37.2823],
[42.2608,37.2713],
[42.2349,37.2836],
[42.2054,37.2802],
[42.2254,37.3113],
[42.2162,37.3204],
[42.1965,37.312],
[42.1837,37.2864],
[42.1021,37.2281],
[42.0889,37.2079],
[42.0552,37.1977],
[42.0348,37.1821],
[42.0031,37.1815],
[41.9512,37.1575],
[41.7007,37.1152],
[41.6472,37.117],
[41.5175,37.0779],
[41.2674,37.0798],
[41.2328,37.0743],
[41.2182,37.0621],
[41.1981,37.0639],
[41.1984,37.0801],
[41.1634,37.0948],
[41.1061,37.0948],
[40.9136,37.1318],
[40.8484,37.1223],
[40.8347,37.1068],
[40.8117,37.1259],
[40.7979,37.1193],
[40.7665,37.128],
[40.7536,37.1101],
[40.6961,37.104],
[40.6187,37.0645],
[40.5883,37.0616],
[40.5309,37.0284],
[40.4112,37.0147],
[40.3566,36.9628],
[40.2384,36.9152],
[40.1829,36.8777],
[40.0623,36.8561],
[40.0312,36.8267],
[39.8609,36.7786],
[39.8196,36.7565],
[39.7129,36.7504],
[39.6405,36.7248],
[39.595,36.723],
[39.4912,36.7003],
[39.3612,36.692],
[39.2129,36.6691],
[39.0206,36.7107],
[38.8907,36.7007],
[38.739,36.7082],
[38.5964,36.8044],
[38.5897,36.8253],
[38.5684,36.8257],
[38.5542,36.8449],
[38.3907,36.9023],
[38.3454,36.8996],
[38.2955,36.9075],
[38.2431,36.924],
[38.2306,36.9187],
[38.2139,36.9077],
[38.168,36.9106],
[38.1612,36.8988],
[38.0797,36.8762],
[38.0664,36.864],
[38.0456,36.8645],
[38.0292,36.8541],
[38.0317,36.8369],
[38.0185,36.826],
[37.994,36.8321],
[37.9407,36.8186],
[37.9035,36.7918],
[37.7996,36.7632],
[37.7837,36.7497],
[37.703,36.7577],
[37.6818,36.7438],
[37.658,36.749],
[37.6211,36.7244],
[37.4955,36.6737],
[37.4741,36.633],
[37.4436,36.633],
[37.4252,36.6441],
[37.3153,36.6653],
[37.2838,36.6701],
[37.2752,36.664],
[37.2168,36.6753],
[37.1625,36.6569],
[37.1422,36.6774],
[37.1247,36.6656],
[37.1058,36.6721],
[37.0859,36.6346],
[37.0571,36.6454],
[37.0575,36.6549],
[37.0207,36.6662],
[37.016,36.6955],
[37.0402,36.7032],
[37.0466,36.7262],
[37.037,36.7363],
[36.9927,36.7422],
[36.9993,36.749],
[36.9975,36.7656],
[36.9815,36.7618],
[36.9459,36.7769],
[36.934,36.7739],
[36.9239,36.7863],
[36.8848,36.7787],
[36.7934,36.7968],
[36.7519,36.8194],
[36.7127,36.8267],
[36.6652,36.827],
[36.4279,36.781],
[36.2346,36.7958],
[36.1345,36.777],
[36.1339,36.7246],
[36.1337,36.6991],
[36.1468,36.6799],
[36.1386,36.6387],
[36.0372,36.5924],
[35.9354,36.511],
[35.8914,36.4949],
[35.8232,36.4409],
[35.7301,36.3356],
[35.7273,36.3038]
]
]
]}
}
