{
"type": "Feature",
"properties": {"id":"ohm-r2691478","edge_precision":"unknown","ohm_relation":2691478,"ohm_version":25,"ohm_timestamp":"2026-04-15T06:03:32Z"},
"geometry": {"type": "MultiPolygon", "coordinates": [
[
[
[18.2152,54.196],
[18.2301,54.1822],
[18.2324,54.1708],
[18.2233,54.166],
[18.2677,54.1591],
[18.2763,54.1476],
[18.2984,54.1511],
[18.3272,54.1412],
[18.3473,54.1371],
[18.3553,54.143],
[18.3899,54.1218],
[18.4213,54.1207],
[18.4551,54.1224],
[18.5337,54.1267],
[18.569,54.1292],
[18.5648,54.1235],
[18.5768,54.1173],
[18.5893,54.1286],
[18.5957,54.12],
[18.6233,54.1257],
[18.6288,54.1423],
[18.6478,54.1367],
[18.6737,54.1386],
[18.6852,54.1513],
[18.7062,54.1461],
[18.7389,54.1517],
[18.7908,54.1535],
[18.7982,54.1537],
[18.8061,54.1541],
[18.8078,54.1473],
[18.8283,54.1415],
[18.8206,54.1195],
[18.8163,54.1105],
[18.805,54.0952],
[18.8193,54.0952],
[18.8049,54.0941],
[18.8137,54.0546],
[18.8346,54.024],
[18.8389,53.9911],
[18.8723,53.9642],
[18.8594,53.9333],
[18.8767,53.9112],
[18.8787,53.9101],
[18.8828,53.912],
[18.8859,53.9159],
[18.8918,53.9455],
[18.904,53.9684],
[18.9321,53.9695],
[18.9518,53.9899],
[18.9727,53.9934],
[19.0033,54.0135],
[19.0303,54.0448],
[19.0524,54.0514],
[19.0803,54.039],
[19.0985,54.0407],
[19.1449,54.0907],
[19.1957,54.0923],
[19.2173,54.1156],
[19.2568,54.149],
[19.244,54.1679],
[19.285,54.1869],
[19.3192,54.1904],
[19.3269,54.2063],
[19.3194,54.2144],
[19.3005,54.2457],
[19.2595,54.2668],
[19.2541,54.2704],
[19.2901,54.3008],
[19.4249,54.3243],
[19.3515,54.349],
[19.3463,54.3508],
[19.3468,54.3552],
[19.3318,54.3664],
[19.3086,54.416],
[19.3074,54.4192],
[19.1039,54.4021],
[19.0229,54.4018],
[18.9501,54.4151],
[18.8849,54.4021],
[18.796,54.4215],
[18.7733,54.4237],
[18.7511,54.4435],
[18.7221,54.455],
[18.6558,54.4683],
[18.6492,54.4665],
[18.5637,54.4639],
[18.5201,54.4557],
[18.5048,54.4452],
[18.5139,54.441],
[18.5075,54.4229],
[18.5123,54.4059],
[18.4905,54.3907],
[18.5003,54.3786],
[18.5181,54.3802],
[18.5177,54.3719],
[18.5325,54.3624],
[18.4955,54.3476],
[18.4825,54.3456],
[18.5011,54.3342],
[18.4862,54.3047],
[18.4526,54.3126],
[18.456,54.3003],
[18.4334,54.2879],
[18.4327,54.279],
[18.384,54.2762],
[18.3579,54.2616],
[18.328,54.2655],
[18.3054,54.2492],
[18.2656,54.2397],
[18.2504,54.2285],
[18.2381,54.2103],
[18.2152,54.196]
]
]
]}
}
