{
"type": "Feature",
"properties": {"id":"ohm-r2883429","edge_precision":"unknown","ohm_relation":2883429,"ohm_version":26,"ohm_timestamp":"2026-09-22T01:49:58Z"},
"geometry": {"type": "MultiPolygon", "coordinates": [
[
[
[3.3184,51.4207],
[3.3661,51.3693],
[3.3853,51.3341],
[3.3584,51.315],
[3.378,51.3027],
[3.366,51.2982],
[3.3808,51.2869],
[3.3769,51.276],
[3.4076,51.2569],
[3.4169,51.26],
[3.4275,51.2446],
[3.5276,51.246],
[3.5154,51.2872],
[3.5381,51.2837],
[3.5627,51.2959],
[3.5818,51.2869],
[3.5879,51.293],
[3.5811,51.2983],
[3.59,51.306],
[3.6213,51.2928],
[3.7731,51.2619],
[3.7854,51.2585],
[3.7955,51.256],
[3.7885,51.2264],
[3.7897,51.2179],
[3.805,51.2101],
[3.8647,51.2134],
[3.8885,51.223],
[3.8901,51.2139],
[3.8776,51.208],
[3.8863,51.2002],
[3.9158,51.2083],
[3.9186,51.2078],
[3.9171,51.212],
[3.9294,51.2203],
[3.936,51.2119],
[3.9587,51.2159],
[4.0148,51.2451],
[4.0619,51.2446],
[4.0714,51.2502],
[4.0785,51.2536],
[4.0866,51.2572],
[4.0876,51.2576],
[4.09,51.2587],
[4.0933,51.2602],
[4.1662,51.2929],
[4.2343,51.3478],
[4.2421,51.3539],
[4.2268,51.3598],
[4.2176,51.3739],
[4.2703,51.3758],
[4.3345,51.3777],
[4.3412,51.3576],
[4.3846,51.3544],
[4.4313,51.3639],
[4.4251,51.3713],
[4.4317,51.375],
[4.3836,51.4211],
[4.3952,51.4269],
[4.3966,51.442],
[4.3793,51.4468],
[4.4753,51.4778],
[4.5437,51.4774],
[4.5482,51.4733],
[4.5299,51.4495],
[4.5354,51.423],
[4.5747,51.4329],
[4.6413,51.422],
[4.6697,51.4264],
[4.6666,51.4444],
[4.6931,51.4517],
[4.7033,51.467],
[4.7169,51.4689],
[4.7527,51.4998],
[4.7787,51.5045],
[4.8157,51.4946],
[4.8211,51.4831],
[4.8419,51.4807],
[4.8361,51.4612],
[4.844,51.459],
[4.8234,51.4486],
[4.8282,51.4222],
[4.8415,51.4224],
[4.8365,51.4173],
[4.8122,51.4261],
[4.7666,51.4305],
[4.7712,51.4149],
[4.7874,51.4093],
[4.8393,51.4146],
[4.8674,51.4091],
[4.8861,51.4166],
[4.9032,51.4136],
[4.9247,51.3969],
[4.9139,51.3951],
[4.9278,51.3954],
[5.0047,51.444],
[5.0108,51.4722],
[5.033,51.4866],
[5.0402,51.4865],
[5.0458,51.4711],
[5.0793,51.4713],
[5.1046,51.4313],
[5.0712,51.3935],
[5.1317,51.347],
[5.1343,51.3155],
[5.1626,51.3103],
[5.2002,51.3227],
[5.2422,51.3052],
[5.226,51.2683],
[5.2379,51.2614],
[5.2631,51.2668],
[5.3365,51.2631],
[5.3461,51.2758],
[5.4174,51.2623],
[5.483,51.3002],
[5.5158,51.2952],
[5.5564,51.2664],
[5.5549,51.2445],
[5.5661,51.2209],
[5.6527,51.1977],
[5.658,51.1847],
[5.7093,51.1804],
[5.7491,51.1887],
[5.7767,51.1785],
[5.773,51.1734],
[5.7797,51.1718],
[5.7696,51.1691],
[5.7794,51.1633],
[5.7777,51.1513],
[5.8049,51.1629],
[5.815,51.1588],
[5.8243,51.1678],
[5.8558,51.1446],
[5.8099,51.1185],
[5.8109,51.1089],
[5.829,51.107],
[5.8333,51.0991],
[5.796,51.0915],
[5.8049,51.0797],
[5.7966,51.0718],
[5.8004,51.0612],
[5.7736,51.0624],
[5.7584,51.035],
[5.7749,51.026],
[5.7665,50.9981],
[5.7198,50.9615],
[5.7312,50.9549],
[5.7505,50.9608],
[5.7588,50.9517],
[5.7281,50.9256],
[5.7228,50.9092],
[5.6974,50.9095],
[5.6793,50.8805],
[5.6442,50.8714],
[5.6495,50.8683],
[5.6417,50.8642],
[5.6389,50.8477],
[5.654,50.8201],
[5.6939,50.8115],
[5.6983,50.7775],
[5.6821,50.7575],
[5.699,50.7553],
[5.7203,50.7647],
[5.7392,50.7571],
[5.7449,50.7688],
[5.7736,50.7832],
[5.7845,50.7672],
[5.7932,50.7702],
[5.8074,50.7561],
[5.845,50.7654],
[5.8489,50.7534],
[5.8865,50.7702],
[5.8921,50.7552],
[5.8967,50.7533],
[5.939,50.7579],
[5.9607,50.7625],
[5.9832,50.7528],
[6.021,50.7543],
[6.0184,50.7634],
[6.0276,50.7742],
[5.9749,50.798],
[5.9855,50.8106],
[6.0036,50.8015],
[6.0241,50.8135],
[6.025,50.8141],
[6.0253,50.8277],
[6.0163,50.8339],
[6.0189,50.8463],
[6.0551,50.8572],
[6.0575,50.851],
[6.0742,50.8465],
[6.081,50.8645],
[6.0867,50.8702],
[6.0881,50.8723],
[6.077,50.8943],
[6.0937,50.9212],
[6.054,50.9223],
[6.0509,50.9299],
[6.0182,50.9347],
[6.0169,50.9527],
[6.0052,50.9568],
[6.0265,50.9833],
[5.9893,50.9823],
[5.9604,51.004],
[5.9655,51.023],
[5.9519,51.0285],
[5.9576,51.0348],
[5.9685,51.048],
[5.9699,51.0608],
[5.9978,51.0844],
[6.0364,51.0961],
[6.0605,51.1159],
[6.0868,51.1243],
[6.0922,51.135],
[6.1094,51.1376],
[6.1211,51.1423],
[6.1628,51.1527],
[6.1754,51.1585],
[6.1391,51.1733],
[6.1747,51.1846],
[6.1808,51.1864],
[6.1652,51.1944],
[6.1,51.1698],
[6.0822,51.1716],
[6.0731,51.1828],
[6.0681,51.221],
[6.0863,51.2225],
[6.0833,51.2275],
[6.0727,51.2426],
[6.0999,51.2576],
[6.1538,51.3074],
[6.1592,51.3154],
[6.1686,51.333],
[6.1789,51.3336],
[6.1942,51.3349],
[6.1899,51.3395],
[6.2244,51.365],
[6.2144,51.3896],
[6.2267,51.4003],
[6.2053,51.3995],
[6.2139,51.4463],
[6.2245,51.4527],
[6.2222,51.4628],
[6.2228,51.4695],
[6.219,51.485],
[6.2142,51.5029],
[6.2074,51.5193],
[6.1769,51.5386],
[6.157,51.5666],
[6.0914,51.6059],
[6.0943,51.6163],
[6.1181,51.656],
[6.0349,51.674],
[6.032,51.6762],
[6.0298,51.6781],
[6.026,51.7084],
[6.0449,51.7169],
[6.0323,51.7238],
[5.9942,51.7383],
[5.9552,51.7381],
[5.9524,51.744],
[5.9533,51.748],
[5.9921,51.7703],
[5.9818,51.7739],
[5.9896,51.7823],
[5.9746,51.7851],
[5.9783,51.7979],
[5.9658,51.8056],
[5.9582,51.8169],
[5.945,51.8235],
[5.963,51.8369],
[6.002,51.8324],
[6.0553,51.8524],
[6.0514,51.8567],
[6.0635,51.8655],
[6.1013,51.849],
[6.1666,51.8407],
[6.1753,51.8379],
[6.1775,51.8627],
[6.2045,51.869],
[6.215,51.8676],
[6.2799,51.8741],
[6.299,51.8678],
[6.3065,51.8491],
[6.3471,51.8507],
[6.3682,51.8333],
[6.4075,51.8281],
[6.4057,51.8495],
[6.4092,51.8524],
[6.3879,51.8619],
[6.3905,51.874],
[6.4323,51.8594],
[6.4512,51.8653],
[6.4727,51.8542],
[6.5001,51.8622],
[6.5401,51.881],
[6.5498,51.8834],
[6.6842,51.9176],
[6.722,51.8961],
[6.7326,51.8987],
[6.7889,51.9297],
[6.7988,51.9587],
[6.8285,51.9641],
[6.8266,51.9935],
[6.8078,51.9949],
[6.753,52.0284],
[6.6879,52.0399],
[6.6869,52.0559],
[6.6953,52.0643],
[6.6948,52.0699],
[6.7475,52.0819],
[6.7446,52.0931],
[6.7554,52.0952],
[6.7606,52.1188],
[6.8555,52.1205],
[6.8735,52.1303],
[6.8805,52.156],
[6.8898,52.1612],
[6.9081,52.176],
[6.9547,52.184],
[6.9811,52.2207],
[6.9919,52.2272],
[7.0391,52.2276],
[7.0658,52.2412],
[7.0321,52.2717],
[7.0392,52.2934],
[7.0326,52.3007],
[7.0413,52.3111],
[7.0458,52.3164],
[7.0723,52.3519],
[7.0722,52.3728],
[7.0585,52.3962],
[7.0588,52.3992],
[7.0536,52.4008],
[7.0359,52.4028],
[7.0326,52.4072],
[7.0108,52.4291],
[6.9985,52.4568],
[6.9876,52.4698],
[6.9473,52.4366],
[6.8525,52.4499],
[6.8543,52.4597],
[6.7746,52.4596],
[6.7177,52.4781],
[6.6976,52.4863],
[6.7046,52.518],
[6.7053,52.521],
[6.6809,52.5533],
[6.7163,52.5485],
[6.726,52.5633],
[6.7667,52.5616],
[6.7188,52.5886],
[6.7273,52.6149],
[6.7101,52.6278],
[6.7555,52.6472],
[6.8732,52.6533],
[6.9133,52.6469],
[6.9193,52.6398],
[6.9759,52.6463],
[7.0062,52.6388],
[7.0418,52.6327],
[7.0421,52.6329],
[7.0557,52.6434],
[7.067,52.7549],
[7.0716,52.8104],
[7.0927,52.8382],
[7.0873,52.85],
[7.1193,52.8789],
[7.1531,52.913],
[7.1824,52.9434],
[7.2012,52.983],
[7.2174,53.007],
[7.1992,53.0813],
[7.2016,53.1026],
[7.2027,53.1129],
[7.2028,53.1134],
[7.1829,53.1218],
[7.1789,53.1385],
[7.2037,53.1765],
[7.2174,53.178],
[7.2276,53.1803],
[7.208,53.1885],
[7.2115,53.1925],
[7.2175,53.2024],
[7.219,53.2057],
[7.2118,53.2314],
[7.1918,53.315],
[7.188,53.3322],
[7.0046,53.3267],
[6.9523,53.3932],
[6.9241,53.4504],
[6.9104,53.4609],
[6.8589,53.4676],
[6.8222,53.4934],
[6.6369,53.5764],
[6.5571,53.5957],
[6.5526,53.6],
[6.5093,53.6091],
[6.4746,53.6073],
[6.4217,53.5933],
[6.382,53.5674],
[6.1505,53.5538],
[6.0743,53.53],
[5.9842,53.5186],
[5.8904,53.5242],
[5.7511,53.5171],
[5.6514,53.5256],
[5.6108,53.517],
[5.5576,53.4919],
[5.4618,53.4959],
[5.1885,53.4538],
[5.1411,53.4402],
[5.0853,53.412],
[5.0426,53.3596],
[4.9406,53.3316],
[4.7843,53.2553],
[4.768,53.2369],
[4.7656,53.2127],
[4.6898,53.1441],
[4.6465,53.0891],
[4.6248,53.0265],
[4.6357,52.9772],
[4.6255,52.9537],
[4.6234,52.8999],
[4.5517,52.7472],
[4.5375,52.6176],
[4.5019,52.5143],
[4.4184,52.3514],
[4.3226,52.2396],
[4.2654,52.1847],
[4.1233,52.0923],
[4.0333,52.0168],
[4.0152,51.9937],
[4.008,51.9641],
[3.9667,51.9303],
[3.943,51.894],
[3.8228,51.8626],
[3.7793,51.8311],
[3.7691,51.7977],
[3.6663,51.7779],
[3.6124,51.7458],
[3.5971,51.727],
[3.5912,51.7016],
[3.5967,51.6756],
[3.6163,51.6476],
[3.5249,51.6417],
[3.3618,51.5691],
[3.3412,51.5379],
[3.344,51.5118],
[3.3695,51.4847],
[3.4303,51.4473],
[3.3184,51.4207]
],
[
[4.915,51.4353],
[4.923,51.4474],
[4.9283,51.4385],
[4.9381,51.4447],
[4.9337,51.4409],
[4.94,51.4361],
[4.9362,51.4295],
[4.915,51.4353]
],
[
[4.9331,51.4495],
[4.9527,51.4516],
[4.9401,51.4452],
[4.9331,51.4495]
]
]
]}
}
