{
"type": "Feature",
"properties": {"id":"ohm-r2704716","edge_precision":"unknown","ohm_relation":2704716,"ohm_version":194,"ohm_timestamp":"2026-09-23T21:08:33Z"},
"geometry": {"type": "MultiPolygon", "coordinates": [
[
[
[5.8667,51.0516],
[5.878,51.038],
[5.8784,51.0178],
[5.8957,51.011],
[5.9055,51.0022],
[5.9037,50.9872],
[5.8926,50.9803],
[5.897,50.9749],
[5.9552,50.9884],
[5.9673,50.9794],
[5.9893,50.9823],
[6.0265,50.9833],
[6.0052,50.9568],
[6.0169,50.9527],
[6.0182,50.9347],
[6.0509,50.9299],
[6.054,50.9223],
[6.0937,50.9212],
[6.0752,50.893],
[6.0881,50.8723],
[6.0867,50.8702],
[6.086,50.8684],
[6.081,50.8645],
[6.0742,50.8465],
[6.0575,50.851],
[6.0551,50.8572],
[6.0189,50.8463],
[6.0163,50.8339],
[6.0253,50.8277],
[6.025,50.8141],
[6.0241,50.8135],
[6.0036,50.8015],
[5.9855,50.8106],
[5.9749,50.798],
[6.0276,50.7742],
[6.0184,50.7634],
[6.021,50.7543],
[6.0213,50.7535],
[6.0298,50.7498],
[6.0394,50.7424],
[6.0368,50.7201],
[6.0445,50.7284],
[6.0731,50.7209],
[6.1095,50.723],
[6.1108,50.7235],
[6.121,50.7175],
[6.123,50.7072],
[6.1659,50.6622],
[6.1948,50.663],
[6.1836,50.6462],
[6.1899,50.6397],
[6.2218,50.6407],
[6.2305,50.6493],
[6.2454,50.6408],
[6.2651,50.6428],
[6.2741,50.6298],
[6.262,50.6117],
[6.2483,50.6047],
[6.2408,50.5871],
[6.2359,50.5659],
[6.2246,50.5548],
[6.2105,50.5542],
[6.1968,50.5308],
[6.2248,50.4948],
[6.2699,50.5047],
[6.3166,50.4964],
[6.3513,50.4882],
[6.3375,50.4747],
[6.3405,50.4621],
[6.3747,50.4519],
[6.3701,50.4095],
[6.3429,50.3804],
[6.3611,50.3711],
[6.3682,50.3581],
[6.3997,50.3448],
[6.4081,50.3357],
[6.4055,50.3233],
[6.3615,50.3148],
[6.3628,50.3055],
[6.3346,50.3163],
[6.3329,50.3235],
[6.3066,50.3202],
[6.3094,50.3116],
[6.2961,50.309],
[6.2979,50.3023],
[6.2859,50.2941],
[6.2909,50.2765],
[6.2769,50.266],
[6.2158,50.257],
[6.1969,50.2378],
[6.1758,50.2355],
[6.1765,50.2258],
[6.1663,50.2202],
[6.179,50.2146],
[6.1889,50.2052],
[6.1858,50.1841],
[6.1926,50.182],
[6.1637,50.1786],
[6.1604,50.1716],
[6.1469,50.1778],
[6.1475,50.1703],
[6.1396,50.1686],
[6.1475,50.1601],
[6.1319,50.1535],
[6.1525,50.15],
[6.154,50.1417],
[6.1378,50.1299],
[6.1377,50.1299],
[6.1278,50.1163],
[6.1356,50.1035],
[6.1254,50.1008],
[6.133,50.0934],
[6.12,50.092],
[6.1158,50.0746],
[6.1291,50.0734],
[6.1123,50.0605],
[6.1167,50.0567],
[6.1239,50.0598],
[6.1214,50.0527],
[6.1342,50.0404],
[6.1301,50.0293],
[6.146,50.0225],
[6.1295,50.0186],
[6.1497,50.0088],
[6.1451,49.9982],
[6.1377,49.9985],
[6.1723,49.9848],
[6.1663,49.9768],
[6.1797,49.9521],
[6.1889,49.9567],
[6.1822,49.9658],
[6.1926,49.9673],
[6.1977,49.9482],
[6.1983,49.9484],
[6.2056,49.9552],
[6.2239,49.9501],
[6.2165,49.9445],
[6.2273,49.9366],
[6.224,49.9277],
[6.218,49.9231],
[6.231,49.9193],
[6.2339,49.9128],
[6.2269,49.9106],
[6.2354,49.8991],
[6.2969,49.8662],
[6.3106,49.8698],
[6.3141,49.8599],
[6.3225,49.8515],
[6.32,49.8399],
[6.3298,49.836],
[6.3411,49.8485],
[6.3636,49.8507],
[6.3845,49.8326],
[6.4296,49.8105],
[6.4519,49.8113],
[6.471,49.8223],
[6.5111,49.8014],
[6.5199,49.8128],
[6.5272,49.8108],
[6.5297,49.8041],
[6.5057,49.7898],
[6.5169,49.7826],
[6.5137,49.7716],
[6.5181,49.7621],
[6.5003,49.7524],
[6.5016,49.7332],
[6.5171,49.7235],
[6.4955,49.7261],
[6.5063,49.7135],
[6.4611,49.6923],
[6.4253,49.6638],
[6.4399,49.6564],
[6.4211,49.6208],
[6.3739,49.59],
[6.3817,49.5777],
[6.3568,49.5722],
[6.3752,49.5615],
[6.3794,49.5514],
[6.3604,49.5367],
[6.3559,49.5297],
[6.3673,49.5015],
[6.3677,49.4694],
[6.3688,49.4692],
[6.4033,49.4659],
[6.4299,49.4764],
[6.4405,49.4668],
[6.4509,49.4659],
[6.4643,49.4662],
[6.4856,49.4518],
[6.5043,49.4479],
[6.5424,49.4311],
[6.5575,49.4194],
[6.5372,49.4098],
[6.5522,49.3942],
[6.5799,49.3856],
[6.5877,49.3834],
[6.5829,49.3684],
[6.6023,49.3671],
[6.5851,49.3533],
[6.5739,49.359],
[6.5636,49.356],
[6.5655,49.3491],
[6.5788,49.3348],
[6.5913,49.3359],
[6.5956,49.3303],
[6.5891,49.3222],
[6.6048,49.3123],
[6.6533,49.2812],
[6.6703,49.2802],
[6.6624,49.2572],
[6.6907,49.2477],
[6.6854,49.2437],
[6.6934,49.2169],
[6.7198,49.2214],
[6.7233,49.219],
[6.7283,49.2108],
[6.7314,49.2063],
[6.7112,49.1883],
[6.7293,49.1694],
[6.7479,49.1661],
[6.7839,49.1682],
[6.8104,49.158],
[6.8342,49.1513],
[6.8472,49.157],
[6.8444,49.1731],
[6.8592,49.175],
[6.8617,49.1819],
[6.8363,49.211],
[6.8585,49.2226],
[6.8925,49.209],
[6.9185,49.2225],
[6.9379,49.2225],
[6.9592,49.2028],
[6.9754,49.2094],
[7.0109,49.1881],
[7.035,49.1914],
[7.0296,49.1767],
[7.0318,49.1586],
[7.0468,49.1369],
[7.0442,49.1207],
[7.0504,49.1138],
[7.0666,49.1143],
[7.072,49.1242],
[7.0902,49.1309],
[7.0826,49.1522],
[7.0982,49.1553],
[7.101,49.1555],
[7.1134,49.1518],
[7.104,49.1384],
[7.1263,49.142],
[7.1354,49.1286],
[7.1594,49.1203],
[7.1641,49.1281],
[7.1854,49.1303],
[7.1984,49.1151],
[7.2056,49.1236],
[7.245,49.13],
[7.2819,49.1246],
[7.2825,49.117],
[7.2935,49.115],
[7.3103,49.1296],
[7.3299,49.1451],
[7.3628,49.1432],
[7.369,49.1617],
[7.3653,49.1721],
[7.4456,49.1843],
[7.4357,49.1801],
[7.4417,49.1724],
[7.4324,49.1659],
[7.494,49.1695],
[7.4949,49.1554],
[7.5059,49.1515],
[7.4889,49.1369],
[7.5153,49.1217],
[7.5289,49.097],
[7.5632,49.0803],
[7.6007,49.0833],
[7.6294,49.0736],
[7.6348,49.0541],
[7.6756,49.045],
[7.6977,49.0497],
[7.696,49.0578],
[7.7216,49.0511],
[7.7319,49.0556],
[7.7319,49.0439],
[7.7572,49.0453],
[7.7838,49.0583],
[7.7945,49.0658],
[7.8183,49.0542],
[7.8677,49.0331],
[7.8888,49.0492],
[7.8952,49.0466],
[7.9107,49.0452],
[7.9232,49.0438],
[7.9318,49.0581],
[7.9458,49.0555],
[7.9496,49.0472],
[7.9666,49.0423],
[7.9746,49.0271],
[8.0313,49.0189],
[8.0545,49.0111],
[8.0684,48.9994],
[8.0685,48.9989],
[8.0686,48.9987],
[8.0919,48.9893],
[8.1327,48.9812],
[8.1621,48.9776],
[8.1632,48.9777],
[8.1658,48.978],
[8.1708,48.9766],
[8.1877,48.9763],
[8.1962,48.9764],
[8.1994,48.9669],
[8.2119,48.9734],
[8.2234,48.9757],
[8.2325,48.9664],
[8.1986,48.9581],
[8.1877,48.9457],
[8.1872,48.945],
[8.1685,48.9243],
[8.1677,48.9236],
[8.1618,48.9184],
[8.1413,48.8959],
[8.1216,48.8653],
[8.1148,48.8511],
[8.1108,48.8425],
[8.1013,48.816],
[8.0864,48.8015],
[8.0836,48.7994],
[8.0641,48.7896],
[8.0386,48.7903],
[8.0268,48.7843],
[8.0171,48.7625],
[7.9831,48.7612],
[7.9689,48.7539],
[7.9677,48.7322],
[7.9593,48.7185],
[7.955,48.715],
[7.9525,48.713],
[7.9411,48.7038],
[7.9247,48.6903],
[7.8983,48.6689],
[7.8958,48.6669],
[7.8443,48.6453],
[7.8361,48.6335],
[7.8314,48.6217],
[7.8179,48.6058],
[7.8067,48.5946],
[7.8002,48.5815],
[7.8042,48.5323],
[7.8061,48.5167],
[7.7969,48.5032],
[7.792,48.5002],
[7.7768,48.495],
[7.7675,48.4882],
[7.7667,48.4641],
[7.7437,48.4178],
[7.7331,48.3957],
[7.734,48.3625],
[7.7368,48.3581],
[7.7458,48.3331],
[7.74,48.3217],
[7.7053,48.3099],
[7.6909,48.2977],
[7.6809,48.2572],
[7.6721,48.2346],
[7.6661,48.2209],
[7.6496,48.2112],
[7.6371,48.1958],
[7.6108,48.1675],
[7.6,48.156],
[7.5974,48.1339],
[7.5774,48.1205],
[7.5772,48.1156],
[7.579,48.1005],
[7.5696,48.0809],
[7.5742,48.0504],
[7.5682,48.0357],
[7.5809,48.0232],
[7.5859,48.0192],
[7.6138,47.9941],
[7.6217,47.9717],
[7.5831,47.9313],
[7.5828,47.8999],
[7.5575,47.8804],
[7.5553,47.8692],
[7.5627,47.8411],
[7.5291,47.7806],
[7.549,47.7345],
[7.5402,47.7185],
[7.5117,47.7001],
[7.5195,47.6735],
[7.5213,47.6628],
[7.5425,47.6458],
[7.5674,47.6323],
[7.5736,47.6167],
[7.591,47.6047],
[7.589,47.5899],
[7.5907,47.5895],
[7.6191,47.5769],
[7.6456,47.597],
[7.6751,47.592],
[7.6933,47.601],
[7.6717,47.5872],
[7.6897,47.5714],
[7.6833,47.5685],
[7.634,47.5612],
[7.6665,47.5369],
[7.695,47.5325],
[7.7135,47.5398],
[7.7728,47.5522],
[7.7887,47.5552],
[7.8101,47.5683],
[7.8191,47.5872],
[7.8438,47.5821],
[7.8724,47.5886],
[7.9057,47.5777],
[7.9077,47.5559],
[7.918,47.5472],
[7.9462,47.5439],
[7.9598,47.5583],
[8.0222,47.5504],
[8.0661,47.5644],
[8.087,47.5574],
[8.0996,47.5634],
[8.1088,47.5822],
[8.1354,47.5836],
[8.1468,47.5951],
[8.1656,47.5945],
[8.2039,47.6211],
[8.219,47.6181],
[8.2238,47.6064],
[8.252,47.6143],
[8.2946,47.608],
[8.2975,47.5893],
[8.3322,47.5705],
[8.3828,47.5658],
[8.3979,47.5772],
[8.4328,47.5666],
[8.4947,47.5811],
[8.4887,47.5878],
[8.4669,47.5842],
[8.4567,47.6023],
[8.4792,47.6152],
[8.5083,47.6175],
[8.5167,47.6341],
[8.5693,47.6172],
[8.5745,47.612],
[8.5616,47.6013],
[8.5666,47.5972],
[8.5826,47.5961],
[8.5957,47.6056],
[8.6053,47.6153],
[8.5961,47.6435],
[8.6079,47.6524],
[8.6138,47.6441],
[8.6034,47.6388],
[8.6148,47.6377],
[8.6283,47.6488],
[8.6145,47.6616],
[8.6067,47.6721],
[8.5776,47.6615],
[8.5608,47.6704],
[8.5399,47.6651],
[8.5416,47.6569],
[8.5269,47.6605],
[8.5318,47.6457],
[8.4924,47.6421],
[8.4764,47.6501],
[8.471,47.6424],
[8.478,47.6398],
[8.4722,47.6386],
[8.4659,47.6573],
[8.4451,47.6539],
[8.4122,47.6663],
[8.4063,47.6762],
[8.4208,47.6839],
[8.4046,47.698],
[8.4171,47.7102],
[8.4549,47.7225],
[8.4498,47.7381],
[8.4562,47.7488],
[8.489,47.7732],
[8.5103,47.7762],
[8.5202,47.7705],
[8.5264,47.778],
[8.5773,47.7817],
[8.5749,47.7896],
[8.562,47.7926],
[8.568,47.8085],
[8.5753,47.7996],
[8.6139,47.8012],
[8.6221,47.7949],
[8.6151,47.784],
[8.6277,47.7594],
[8.6529,47.7734],
[8.6454,47.7872],
[8.6533,47.7999],
[8.6574,47.7917],
[8.681,47.7866],
[8.6886,47.7735],
[8.6836,47.7706],
[8.6928,47.7562],
[8.714,47.7654],
[8.7411,47.752],
[8.7236,47.7457],
[8.7111,47.7301],
[8.7363,47.7163],
[8.7281,47.6927],
[8.796,47.6754],
[8.7971,47.6884],
[8.8101,47.6934],
[8.794,47.7043],
[8.7694,47.7069],
[8.7697,47.7178],
[8.7992,47.7271],
[8.7994,47.7361],
[8.8122,47.7304],
[8.8048,47.7245],
[8.8262,47.7179],
[8.819,47.7128],
[8.8709,47.7047],
[8.8744,47.6943],
[8.8515,47.6976],
[8.8577,47.6927],
[8.8504,47.6818],
[8.8734,47.6702],
[8.8754,47.6547],
[8.8994,47.6478],
[9.0252,47.6864],
[9.1014,47.678],
[9.1261,47.6673],
[9.1505,47.6675],
[9.176,47.654],
[9.2562,47.659],
[9.3682,47.6214],
[9.4451,47.5948],
[9.5028,47.5472],
[9.5147,47.5369],
[9.5319,47.5357],
[9.5507,47.5371],
[9.5622,47.4959],
[9.5951,47.4633],
[9.6099,47.4704],
[9.6223,47.4575],
[9.6594,47.4514],
[9.6443,47.4348],
[9.6516,47.4046],
[9.6725,47.3926],
[9.6734,47.3815],
[9.6495,47.3674],
[9.6245,47.3661],
[9.6053,47.3515],
[9.5883,47.3175],
[9.5566,47.2985],
[9.5307,47.2706],
[9.5672,47.2419],
[9.5518,47.2237],
[9.5849,47.2053],
[9.5646,47.1703],
[9.5794,47.1711],
[9.6053,47.1492],
[9.6258,47.1459],
[9.6247,47.1326],
[9.635,47.1281],
[9.6227,47.1081],
[9.6266,47.0915],
[9.6116,47.0794],
[9.6071,47.0608],
[9.6327,47.0513],
[9.6451,47.0598],
[9.6818,47.0621],
[9.7186,47.0433],
[9.7849,47.0385],
[9.8361,47.0125],
[9.8597,47.0232],
[9.8762,47.0212],
[9.8803,47.0172],
[9.8707,47.0097],
[9.8888,47.0007],
[9.8923,46.9904],
[9.8707,46.9632],
[9.8787,46.9571],
[9.8761,46.9346],
[9.9372,46.9133],
[9.9779,46.9159],
[9.9901,46.9024],
[10.0177,46.9016],
[10.0519,46.8768],
[10.0512,46.8639],
[10.0875,46.8612],
[10.1052,46.8409],
[10.145,46.851],
[10.1574,46.8479],
[10.1937,46.8664],
[10.2327,46.8663],
[10.2325,46.8716],
[10.2348,46.8847],
[10.2257,46.8959],
[10.242,46.9188],
[10.2406,46.9313],
[10.2935,46.9219],
[10.317,46.9261],
[10.3077,46.9473],
[10.3278,46.954],
[10.3465,46.9896],
[10.3721,46.9907],
[10.3847,47],
[10.4266,46.9757],
[10.4221,46.9602],
[10.4342,46.9564],
[10.4894,46.9378],
[10.4862,46.9155],
[10.479,46.9108],
[10.4647,46.8843],
[10.4697,46.8549],
[10.4792,46.8591],
[10.4959,46.8486],
[10.5225,46.8466],
[10.5544,46.8499],
[10.551,46.8393],
[10.6258,46.8651],
[10.6506,46.8651],
[10.6646,46.8759],
[10.6948,46.8637],
[10.6931,46.8541],
[10.7225,46.8379],
[10.7561,46.8327],
[10.7644,46.8224],
[10.7513,46.815],
[10.7463,46.8044],
[10.7261,46.7979],
[10.7306,46.788],
[10.7625,46.7841],
[10.7865,46.7949],
[10.814,46.7761],
[10.836,46.7803],
[10.8792,46.7639],
[10.9211,46.7751],
[10.9754,46.7722],
[10.996,46.7669],
[11.0136,46.7718],
[11.0224,46.7654],
[11.0275,46.7769],
[11.0412,46.7994],
[11.0393,46.8051],
[11.0569,46.808],
[11.0837,46.8223],
[11.0704,46.8383],
[11.0749,46.8432],
[11.0749,46.8471],
[11.0721,46.8551],
[11.0779,46.859],
[11.1016,46.8898],
[11.0994,46.8972],
[11.0946,46.9084],
[11.1092,46.9158],
[11.1101,46.9243],
[11.1151,46.9312],
[11.1297,46.9277],
[11.1681,46.945],
[11.1643,46.9658],
[11.1692,46.9647],
[11.1782,46.9643],
[11.1902,46.9705],
[11.2029,46.9682],
[11.207,46.9624],
[11.2444,46.9716],
[11.2655,46.9805],
[11.3024,46.9832],
[11.3078,46.984],
[11.3171,46.991],
[11.337,46.9848],
[11.3592,46.99],
[11.3823,46.9706],
[11.4048,46.9649],
[11.4402,46.975],
[11.4537,46.9927],
[11.4685,46.9979],
[11.4788,47.0107],
[11.502,47.0096],
[11.5379,46.9841],
[11.5895,47.0053],
[11.6269,47.0131],
[11.6359,47.0023],
[11.6652,46.9916],
[11.7121,46.9925],
[11.73,46.9728],
[11.7651,46.9728],
[11.7816,46.9927],
[11.8367,46.993],
[11.8745,47.01],
[11.893,47.0162],
[11.9154,47.0328],
[11.9466,47.0327],
[11.9794,47.0505],
[12.0214,47.0473],
[12.0441,47.0614],
[12.0769,47.059],
[12.0919,47.0761],
[12.119,47.0732],
[12.136,47.0807],
[12.186,47.0921],
[12.227,47.0821],
[12.2408,47.0691],
[12.232,47.0639],
[12.2168,47.0587],
[12.2172,47.0511],
[12.2046,47.0274],
[12.1641,47.0196],
[12.1471,47.0247],
[12.1214,47.0067],
[12.1282,46.9852],
[12.1385,46.9821],
[12.1307,46.9644],
[12.1588,46.9507],
[12.1676,46.933],
[12.1439,46.9137],
[12.1598,46.9091],
[12.1889,46.9062],
[12.1953,46.9002],
[12.2062,46.8824],
[12.2182,46.8736],
[12.2219,46.8801],
[12.2422,46.8912],
[12.2667,46.888],
[12.2917,46.8651],
[12.292,46.8498],
[12.3054,46.8428],
[12.3057,46.8332],
[12.2824,46.8152],
[12.2922,46.8025],
[12.2805,46.7923],
[12.2844,46.7829],
[12.3265,46.7814],
[12.3575,46.775],
[12.3691,46.7404],
[12.3701,46.7406],
[12.384,46.7164],
[12.4427,46.6884],
[12.4738,46.6869],
[12.478,46.6798],
[12.5158,46.6784],
[12.569,46.6514],
[12.6191,46.6618],
[12.6412,46.6522],
[12.6906,46.657],
[12.7349,46.6357],
[12.7464,46.6419],
[12.7625,46.6479],
[12.7954,46.6424],
[12.819,46.6282],
[12.8313,46.6313],
[12.8372,46.6275],
[12.8336,46.6102],
[12.8477,46.6054],
[12.9319,46.6099],
[12.9488,46.6023],
[13.0613,46.5972],
[13.0836,46.602],
[13.1463,46.5871],
[13.1686,46.5889],
[13.1947,46.5719],
[13.2173,46.5705],
[13.2398,46.5517],
[13.2694,46.5613],
[13.3206,46.5512],
[13.3447,46.57],
[13.3705,46.567],
[13.3723,46.5793],
[13.4098,46.5721],
[13.4075,46.5615],
[13.4272,46.5575],
[13.4753,46.5576],
[13.5042,46.5663],
[13.5053,46.5559],
[13.52,46.5469],
[13.5609,46.5519],
[13.5763,46.538],
[13.5974,46.5457],
[13.6731,46.5231],
[13.7026,46.5224],
[13.7141,46.523],
[13.7374,46.5171],
[13.7781,46.5174],
[13.7947,46.5053],
[13.8122,46.5062],
[13.8313,46.5187],
[13.8553,46.5139],
[13.882,46.5228],
[13.912,46.5211],
[13.9888,46.4929],
[14.0065,46.4814],
[14.0507,46.4932],
[14.1114,46.4788],
[14.1215,46.4766],
[14.1445,46.4454],
[14.1534,46.4368],
[14.1695,46.4331],
[14.1911,46.4439],
[14.2193,46.4432],
[14.2372,46.4322],
[14.27,46.4409],
[14.2832,46.4435],
[14.311,46.4304],
[14.385,46.4401],
[14.4296,46.447],
[14.4384,46.4429],
[14.4301,46.4361],
[14.4423,46.4237],
[14.4922,46.4129],
[14.5218,46.4273],
[14.5652,46.3725],
[14.5817,46.3816],
[14.5894,46.4096],
[14.5825,46.4181],
[14.596,46.4368],
[14.6748,46.4507],
[14.6832,46.4679],
[14.7022,46.4669],
[14.6976,46.4745],
[14.7092,46.4809],
[14.7148,46.5],
[14.7284,46.4903],
[14.7413,46.5052],
[14.7483,46.4976],
[14.76,46.5045],
[14.7855,46.4995],
[14.8186,46.5094],
[14.8229,46.5356],
[14.8319,46.5393],
[14.8231,46.5459],
[14.8323,46.5485],
[14.8414,46.5735],
[14.8797,46.6113],
[14.9009,46.612],
[14.9196,46.6021],
[14.9229,46.6209],
[14.9313,46.6153],
[14.9557,46.6327],
[14.9708,46.6243],
[14.9794,46.6014],
[15.0162,46.6408],
[15.041,46.6518],
[15.0651,46.6521],
[15.0824,46.6451],
[15.1084,46.6598],
[15.1313,46.6507],
[15.1453,46.6598],
[15.1826,46.656],
[15.1974,46.6457],
[15.2359,46.6394],
[15.2948,46.6527],
[15.3194,46.6478],
[15.3355,46.6532],
[15.4204,46.6549],
[15.4217,46.6472],
[15.4569,46.639],
[15.4621,46.6153],
[15.4728,46.612],
[15.4882,46.6207],
[15.5023,46.6139],
[15.5201,46.6215],
[15.5457,46.6336],
[15.546,46.637],
[15.5511,46.6403],
[15.5439,46.6461],
[15.5535,46.6514],
[15.5437,46.6693],
[15.5951,46.69],
[15.6086,46.6877],
[15.6054,46.6811],
[15.63,46.68],
[15.6387,46.6914],
[15.6537,46.6921],
[15.65,46.7058],
[15.7216,46.6958],
[15.7685,46.699],
[15.8372,46.7223],
[15.9117,46.7101],
[15.9469,46.6891],
[15.9984,46.6806],
[16.0108,46.6649],
[16.0381,46.6561],
[16.0401,46.6613],
[16.0425,46.686],
[16.0288,46.7009],
[16.0298,46.7117],
[16.0037,46.7171],
[15.9882,46.7408],
[15.9891,46.7748],
[15.9981,46.8098],
[15.9854,46.8273],
[15.9962,46.8354],
[16.0077,46.8306],
[16.0186,46.8365],
[16.0584,46.8387],
[16.0901,46.8637],
[16.0992,46.8604],
[16.1139,46.8691],
[16.1332,46.8758],
[16.163,46.9049],
[16.1792,46.9066],
[16.1999,46.9418],
[16.2219,46.9355],
[16.2471,46.9491],
[16.2428,46.956],
[16.2553,46.9642],
[16.2764,46.9626],
[16.2758,46.9841],
[16.2901,47.014],
[16.3034,46.9983],
[16.3225,47.0026],
[16.3417,46.9962],
[16.3498,47.0104],
[16.3729,46.9984],
[16.4126,47.0047],
[16.4324,46.9927],
[16.4455,46.9932],
[16.4515,47.0043],
[16.4792,46.9938],
[16.5123,47.0016],
[16.4636,47.0322],
[16.4478,47.0227],
[16.4389,47.0297],
[16.4437,47.0382],
[16.4687,47.0433],
[16.5097,47.0506],
[16.5205,47.0615],
[16.4729,47.0736],
[16.4747,47.0853],
[16.4633,47.095],
[16.4748,47.1052],
[16.4848,47.1026],
[16.4829,47.1088],
[16.5007,47.1102],
[16.4999,47.1234],
[16.5293,47.1272],
[16.5288,47.1373],
[16.5168,47.1493],
[16.4543,47.1423],
[16.4491,47.1519],
[16.4643,47.1682],
[16.4549,47.1874],
[16.4282,47.185],
[16.4169,47.2053],
[16.4366,47.2099],
[16.4393,47.2179],
[16.4418,47.2486],
[16.4318,47.2529],
[16.4671,47.2529],
[16.4799,47.2626],
[16.4782,47.2761],
[16.4894,47.2803],
[16.4646,47.3338],
[16.4337,47.3528],
[16.4523,47.3571],
[16.4569,47.371],
[16.4514,47.3797],
[16.4614,47.3833],
[16.4463,47.4082],
[16.4853,47.4089],
[16.4907,47.4057],
[16.4838,47.3979],
[16.4966,47.3963],
[16.4966,47.389],
[16.5169,47.4106],
[16.5757,47.4064],
[16.581,47.4193],
[16.6204,47.4308],
[16.6275,47.4421],
[16.662,47.4557],
[16.6705,47.4743],
[16.6523,47.5003],
[16.6625,47.509],
[16.6689,47.5035],
[16.6898,47.5104],
[16.7144,47.5394],
[16.6982,47.5456],
[16.6889,47.5595],
[16.6646,47.5663],
[16.6751,47.5788],
[16.6664,47.5963],
[16.6731,47.605],
[16.6595,47.6061],
[16.6521,47.6229],
[16.6298,47.6281],
[16.5725,47.6199],
[16.5144,47.6461],
[16.4969,47.6393],
[16.4215,47.6653],
[16.4433,47.6741],
[16.4473,47.6963],
[16.4747,47.6813],
[16.4762,47.6903],
[16.4998,47.7047],
[16.5411,47.7122],
[16.5522,47.7225],
[16.5365,47.7366],
[16.5488,47.7432],
[16.548,47.7515],
[16.6343,47.7591],
[16.6397,47.7483],
[16.656,47.7417],
[16.7209,47.7353],
[16.7215,47.7226],
[16.749,47.6814],
[16.8283,47.6827],
[16.8391,47.7046],
[16.8669,47.7216],
[16.8752,47.6883],
[17.0931,47.7082],
[17.0703,47.7282],
[17.067,47.7675],
[17.051,47.794],
[17.0745,47.8083],
[17.0469,47.8284],
[17.0515,47.8379],
[17.01,47.8584],
[17.0178,47.8684],
[17.0852,47.8744],
[17.1042,47.8993],
[17.0956,47.9043],
[17.1127,47.9274],
[17.0909,47.9344],
[17.117,47.9609],
[17.0947,47.9709],
[17.1608,48.0067],
[17.1101,48.0312],
[17.0899,48.0198],
[17.0674,48.0314],
[17.0878,48.0457],
[17.0682,48.0554],
[17.0868,48.0654],
[17.0722,48.0705],
[17.0789,48.0782],
[17.0716,48.0809],
[17.0931,48.0914],
[17.1188,48.0809],
[17.1448,48.0959],
[17.1385,48.1346],
[17.0513,48.142],
[17.0113,48.1796],
[16.9761,48.1903],
[16.9605,48.2232],
[16.9461,48.2359],
[16.9571,48.2638],
[16.9203,48.2735],
[16.8947,48.3102],
[16.9088,48.326],
[16.8717,48.338],
[16.873,48.3488],
[16.8441,48.3505],
[16.8332,48.3805],
[16.8504,48.3832],
[16.8559,48.3962],
[16.8505,48.41],
[16.8636,48.4194],
[16.8502,48.4495],
[16.8631,48.453],
[16.8595,48.4594],
[16.8806,48.4774],
[16.89,48.4764],
[16.8961,48.4966],
[16.9169,48.4954],
[16.9139,48.512],
[16.9221,48.5134],
[16.9213,48.5201],
[16.9432,48.5216],
[16.9536,48.5423],
[16.9356,48.5714],
[16.9402,48.6165],
[16.9459,48.6134],
[16.9433,48.6184],
[16.9636,48.6306],
[16.9583,48.6393],
[16.9669,48.6369],
[16.9708,48.6436],
[16.964,48.646],
[16.9749,48.6475],
[16.967,48.6491],
[16.9707,48.674],
[16.9761,48.6713],
[16.9827,48.6901],
[16.9925,48.6888],
[16.9968,48.6891],
[17.0006,48.6955],
[16.993,48.6978],
[17.0054,48.6979],
[17.0016,48.7008],
[17.0007,48.7021],
[16.9969,48.7056],
[16.9962,48.706],
[17.005,48.7129],
[16.9976,48.7231],
[17.0127,48.7278],
[17.0195,48.7338],
[17.0183,48.734],
[17.0308,48.7488],
[17.0346,48.7499],
[17.0459,48.7681],
[17.0477,48.769],
[17.0742,48.7814],
[17.0769,48.7814],
[17.0937,48.7891],
[17.0934,48.7984],
[17.0943,48.7992],
[17.0947,48.7995],
[17.0971,48.8039],
[17.1,48.8069],
[17.1012,48.8063],
[17.1083,48.8172],
[17.1054,48.8318],
[17.1162,48.8407],
[17.1494,48.841],
[17.1681,48.8595],
[17.1783,48.8575],
[17.1742,48.8655],
[17.1896,48.8727],
[17.2037,48.8753],
[17.2048,48.8699],
[17.2291,48.8703],
[17.278,48.8603],
[17.306,48.8436],
[17.3202,48.8453],
[17.3618,48.8135],
[17.3785,48.8192],
[17.3963,48.8132],
[17.4117,48.824],
[17.427,48.8263],
[17.4311,48.8322],
[17.4532,48.8467],
[17.477,48.8415],
[17.5098,48.8196],
[17.5105,48.8189],
[17.52,48.8128],
[17.5553,48.8227],
[17.563,48.8259],
[17.5737,48.824],
[17.5755,48.8242],
[17.5945,48.8281],
[17.6019,48.8409],
[17.6209,48.842],
[17.6328,48.8548],
[17.6471,48.8542],
[17.6685,48.8542],
[17.703,48.8601],
[17.7036,48.8603],
[17.706,48.8626],
[17.746,48.8906],
[17.7775,48.9137],
[17.7813,48.9253],
[17.8172,48.9277],
[17.8442,48.9264],
[17.8853,48.9277],
[17.895,48.9509],
[17.9003,48.9584],
[17.9016,48.9761],
[17.9145,48.9974],
[17.9196,49.0146],
[17.9492,49.0242],
[17.9931,49.028],
[18.0143,49.0221],
[18.0516,49.0314],
[18.0527,49.0306],
[18.0817,49.0465],
[18.0968,49.0673],
[18.106,49.08],
[18.1097,49.0849],
[18.1159,49.0921],
[18.1103,49.1135],
[18.1222,49.118],
[18.1077,49.135],
[18.1184,49.1435],
[18.1188,49.1528],
[18.1367,49.161],
[18.131,49.1826],
[18.1309,49.1889],
[18.1494,49.2051],
[18.1531,49.2206],
[18.1561,49.2297],
[18.1444,49.2292],
[18.1468,49.2473],
[18.162,49.2577],
[18.1632,49.2609],
[18.1843,49.2698],
[18.184,49.287],
[18.1975,49.2895],
[18.2481,49.2947],
[18.252,49.2963],
[18.3011,49.31],
[18.3224,49.3151],
[18.3296,49.3188],
[18.3547,49.3226],
[18.4043,49.3502],
[18.3982,49.3568],
[18.4156,49.3675],
[18.4037,49.3967],
[18.45,49.3951],
[18.4761,49.4089],
[18.496,49.4359],
[18.523,49.4492],
[18.548,49.4679],
[18.5342,49.4849],
[18.5424,49.4949],
[18.5453,49.4999],
[18.5973,49.5102],
[18.6028,49.4971],
[18.6215,49.4958],
[18.6413,49.4984],
[18.6601,49.5031],
[18.6644,49.5023],
[18.6764,49.5076],
[18.6826,49.5064],
[18.713,49.5016],
[18.7373,49.49],
[18.7546,49.4884],
[18.7877,49.5081],
[18.7888,49.5087],
[18.8193,49.5163],
[18.8509,49.5172],
[18.9466,49.5174],
[18.9728,49.5024],
[18.9605,49.4828],
[18.9702,49.4768],
[18.9608,49.4547],
[18.9739,49.4517],
[18.989,49.4313],
[18.9687,49.4133],
[18.9799,49.3952],
[19.035,49.3957],
[19.0539,49.4152],
[19.0702,49.4124],
[19.0727,49.418],
[19.1215,49.4027],
[19.1972,49.4137],
[19.1857,49.4347],
[19.1986,49.4482],
[19.2253,49.4543],
[19.2283,49.4637],
[19.2205,49.4735],
[19.2355,49.4957],
[19.2333,49.5105],
[19.2607,49.5312],
[19.3624,49.5361],
[19.3714,49.5674],
[19.4,49.5741],
[19.41,49.5921],
[19.442,49.5985],
[19.4463,49.6132],
[19.4674,49.6138],
[19.4747,49.6034],
[19.4684,49.5965],
[19.4784,49.588],
[19.5293,49.573],
[19.5917,49.5928],
[19.5904,49.6226],
[19.6193,49.6235],
[19.6778,49.5749],
[19.751,49.5713],
[19.757,49.5562],
[19.7968,49.5594],
[19.8426,49.5414],
[19.8503,49.5301],
[19.8506,49.5213],
[19.8097,49.5028],
[19.7987,49.4861],
[19.8033,49.4779],
[19.7906,49.4107],
[19.7911,49.3835],
[19.8038,49.3648],
[19.7947,49.3445],
[19.805,49.3228],
[19.7924,49.3009],
[19.8098,49.2954],
[19.8228,49.2768],
[19.7925,49.268],
[19.785,49.2467],
[19.7668,49.2366],
[19.7669,49.2226],
[19.7584,49.216],
[19.7631,49.2076],
[19.7843,49.1993],
[19.8075,49.2057],
[19.8295,49.2017],
[19.841,49.1926],
[19.8694,49.1958],
[19.9023,49.2133],
[19.9033,49.2309],
[19.9322,49.2365],
[19.9816,49.2318],
[20.0086,49.2201],
[20.0065,49.2132],
[20.0205,49.2015],
[20.0537,49.1878],
[20.0628,49.1846],
[20.0881,49.1796],
[20.0844,49.1962],
[20.0962,49.22],
[20.1022,49.2251],
[20.102,49.2526],
[20.1251,49.2709],
[20.1342,49.3059],
[20.1515,49.3188],
[20.1318,49.3384],
[20.1289,49.3545],
[20.1188,49.3659],
[20.1125,49.3986],
[20.1159,49.4138],
[20.0954,49.4253],
[20.1163,49.4598],
[20.1423,49.4619],
[20.1727,49.4558],
[20.1803,49.4488],
[20.2291,49.461],
[20.2674,49.4372],
[20.287,49.44],
[20.2941,49.4335],
[20.3077,49.4345],
[20.3243,49.4199],
[20.3375,49.4025],
[20.339,49.4014],
[20.3623,49.3983],
[20.3698,49.4047],
[20.378,49.4065],
[20.3824,49.391],
[20.3865,49.3908],
[20.409,49.3935],
[20.4175,49.4059],
[20.4342,49.3976],
[20.4321,49.4175],
[20.4509,49.4128],
[20.446,49.4163],
[20.4473,49.4161],
[20.4491,49.4157],
[20.4763,49.4141],
[20.5049,49.4033],
[20.5099,49.3934],
[20.5577,49.3781],
[20.5762,49.3762],
[20.5974,49.3863],
[20.6058,49.4013],
[20.6136,49.4018],
[20.6139,49.4167],
[20.6149,49.4178],
[20.6197,49.418],
[20.6218,49.4145],
[20.647,49.4007],
[20.7049,49.4192],
[20.7115,49.4194],
[20.7451,49.4137],
[20.7423,49.4038],
[20.7583,49.3995],
[20.7477,49.3905],
[20.7613,49.3843],
[20.7576,49.375],
[20.7635,49.3709],
[20.7862,49.374],
[20.7825,49.361],
[20.81,49.3583],
[20.8069,49.3531],
[20.7979,49.3587],
[20.7965,49.3438],
[20.8126,49.3474],
[20.8259,49.3344],
[20.8595,49.3484],
[20.874,49.3395],
[20.8824,49.3329],
[20.8727,49.3198],
[20.9036,49.3235],
[20.9241,49.296],
[20.9696,49.3099],
[20.9865,49.3066],
[20.9941,49.3127],
[20.9882,49.3271],
[21.0081,49.3349],
[21.0113,49.3476],
[21.0439,49.3654],
[21.0753,49.3593],
[21.0941,49.3651],
[21.1041,49.3764],
[21.0543,49.4042],
[21.0472,49.4169],
[21.0547,49.4212],
[21.0964,49.4295],
[21.1137,49.4239],
[21.124,49.4366],
[21.1522,49.427],
[21.1815,49.404],
[21.1835,49.4028],
[21.2082,49.4025],
[21.2273,49.417],
[21.2235,49.4255],
[21.2327,49.4365],
[21.2659,49.447],
[21.272,49.4598],
[21.3072,49.448],
[21.3466,49.4494],
[21.3727,49.4326],
[21.3987,49.4338],
[21.4341,49.4123],
[21.4737,49.4136],
[21.4873,49.4285],
[21.4977,49.4282],
[21.517,49.4178],
[21.5303,49.4351],
[21.5521,49.4331],
[21.564,49.4413],
[21.5906,49.4338],
[21.6309,49.4473],
[21.6589,49.4168],
[21.7205,49.4128],
[21.7269,49.3981],
[21.7504,49.3891],
[21.7634,49.3835],
[21.7715,49.3631],
[21.7726,49.3607],
[21.7892,49.3555],
[21.7878,49.3677],
[21.797,49.3785],
[21.8402,49.3915],
[21.859,49.3686],
[21.8755,49.3736],
[21.8887,49.368],
[21.8934,49.3572],
[21.909,49.3536],
[21.934,49.3461],
[21.9523,49.35],
[21.9661,49.3451],
[21.9728,49.3335],
[21.9832,49.3104],
[21.9977,49.3009],
[22.0336,49.2791],
[22.0303,49.2627],
[22.0413,49.2579],
[22.0303,49.2259],
[22.0349,49.2225],
[22.062,49.2116],
[22.1438,49.2005],
[22.1431,49.1927],
[22.1882,49.1743],
[22.2225,49.1845],
[22.2358,49.1701],
[22.2259,49.1611],
[22.2257,49.1525],
[22.3177,49.1356],
[22.3346,49.1465],
[22.3673,49.1466],
[22.3918,49.1181],
[22.4227,49.0995],
[22.4561,49.1038],
[22.497,49.0859],
[22.5456,49.092],
[22.5466,49.0918],
[22.5657,49.088],
[22.5824,49.0973],
[22.6254,49.0804],
[22.6393,49.0598],
[22.6803,49.0392],
[22.7175,49.0527],
[22.7549,49.043],
[22.7717,49.0522],
[22.7948,49.0396],
[22.8093,49.0346],
[22.8129,49.0253],
[22.8338,49.0261],
[22.8471,49.0032],
[22.8912,49.0033],
[22.8944,49.0044],
[22.8891,49.0067],
[22.8938,49.0179],
[22.8856,49.0212],
[22.875,49.0294],
[22.881,49.0382],
[22.8666,49.0398],
[22.8701,49.0469],
[22.8747,49.0553],
[22.8662,49.0598],
[22.8665,49.0754],
[22.8835,49.0812],
[22.8928,49.0946],
[22.8627,49.1],
[22.8548,49.106],
[22.8602,49.1121],
[22.851,49.1147],
[22.8313,49.111],
[22.8304,49.1182],
[22.8121,49.1249],
[22.8163,49.1297],
[22.7924,49.1388],
[22.7892,49.1576],
[22.7728,49.1523],
[22.739,49.1579],
[22.7556,49.1826],
[22.7326,49.1821],
[22.7153,49.1662],
[22.7082,49.1809],
[22.7308,49.1985],
[22.7338,49.2116],
[22.7477,49.2155],
[22.7201,49.2212],
[22.7104,49.2155],
[22.7149,49.2027],
[22.7067,49.2077],
[22.682,49.1971],
[22.6713,49.2027],
[22.6703,49.2123],
[22.6536,49.2046],
[22.6296,49.2232],
[22.5982,49.218],
[22.5494,49.239],
[22.5473,49.2508],
[22.5374,49.2464],
[22.5341,49.2552],
[22.5106,49.2569],
[22.5105,49.2644],
[22.4905,49.2644],
[22.4902,49.2732],
[22.4621,49.2714],
[22.4725,49.2828],
[22.4612,49.2867],
[22.4721,49.2911],
[22.4875,49.3128],
[22.5032,49.3082],
[22.4978,49.3221],
[22.5159,49.3236],
[22.521,49.3447],
[22.4884,49.3601],
[22.4854,49.3685],
[22.46,49.3665],
[22.4516,49.3925],
[22.457,49.4033],
[22.4084,49.431],
[22.4041,49.4427],
[22.3825,49.4419],
[22.4013,49.4313],
[22.3395,49.421],
[22.3382,49.4308],
[22.3517,49.4436],
[22.3483,49.4511],
[22.311,49.4805],
[22.2909,49.4776],
[22.2961,49.4875],
[22.3282,49.5036],
[22.3321,49.5241],
[22.2898,49.5203],
[22.2726,49.5363],
[22.2361,49.5373],
[22.1974,49.578],
[22.193,49.6074],
[22.2202,49.5941],
[22.2379,49.6093],
[22.2689,49.6125],
[22.2912,49.6286],
[22.2907,49.6499],
[22.2981,49.659],
[22.2643,49.6625],
[22.2363,49.6945],
[22.203,49.7025],
[22.2054,49.7119],
[22.2272,49.7257],
[22.2047,49.7368],
[22.2366,49.7522],
[22.2246,49.7576],
[22.226,49.7677],
[22.2117,49.7787],
[22.2351,49.7854],
[22.2505,49.8142],
[22.2473,49.8251],
[22.2591,49.8284],
[22.2689,49.8215],
[22.2819,49.8285],
[22.3115,49.8201],
[22.3415,49.8031],
[22.3298,49.7892],
[22.3461,49.7838],
[22.3641,49.7986],
[22.386,49.8027],
[22.3982,49.8192],
[22.4709,49.7777],
[22.4874,49.7892],
[22.4702,49.8046],
[22.4746,49.8148],
[22.5116,49.8069],
[22.5346,49.8022],
[22.5263,49.7914],
[22.5743,49.7741],
[22.571,49.7631],
[22.6064,49.7674],
[22.6117,49.7523],
[22.6213,49.7509],
[22.6335,49.758],
[22.6252,49.7674],
[22.656,49.7811],
[22.6424,49.7935],
[22.6516,49.8023],
[22.7034,49.8064],
[22.7078,49.7972],
[22.6893,49.7929],
[22.6875,49.7862],
[22.7011,49.7777],
[22.7624,49.7831],
[22.7934,49.8006],
[22.8035,49.7912],
[22.831,49.7923],
[22.839,49.8024],
[22.8641,49.8055],
[22.8914,49.8032],
[22.8947,49.7958],
[22.9047,49.7982],
[22.8994,49.8137],
[22.908,49.82],
[22.9123,49.8268],
[22.8923,49.8372],
[22.8977,49.8462],
[22.8897,49.8591],
[22.8964,49.8659],
[22.8864,49.8761],
[22.9146,49.8864],
[22.8936,49.894],
[22.8903,49.9069],
[22.8635,49.9283],
[22.8748,49.9353],
[22.8729,49.9479],
[22.8281,49.9657],
[22.8121,49.9842],
[22.807,49.986],
[22.7463,50.0032],
[22.7312,50.0171],
[22.7038,50.0163],
[22.7086,50.0341],
[22.6947,50.0584],
[22.6995,50.0686],
[22.6648,50.0829],
[22.6765,50.0957],
[22.6665,50.1146],
[22.6469,50.1146],
[22.6445,50.13],
[22.5961,50.1459],
[22.5872,50.1782],
[22.5518,50.2006],
[22.6394,50.2266],
[22.9546,50.1892],
[23.2059,50.2832],
[23.6863,50.3316],
[23.8893,50.3694],
[23.8915,50.3622],
[23.9251,50.3593],
[24.0064,50.376],
[24.0672,50.3849],
[24.1137,50.377],
[24.1569,50.3877],
[24.1998,50.3785],
[24.2091,50.3747],
[24.2416,50.3766],
[24.2594,50.395],
[24.2542,50.4119],
[24.2621,50.4316],
[24.2792,50.4607],
[24.2722,50.4663],
[24.2713,50.4914],
[24.2595,50.5018],
[24.2738,50.5197],
[24.3084,50.536],
[24.3079,50.5533],
[24.3184,50.5582],
[24.3125,50.5715],
[24.2307,50.5835],
[24.2209,50.5896],
[24.2253,50.5928],
[24.2111,50.5922],
[24.201,50.6141],
[24.1734,50.6165],
[24.1756,50.6236],
[24.1632,50.6315],
[24.1732,50.632],
[24.1647,50.6381],
[24.1567,50.6401],
[24.1547,50.6466],
[24.126,50.6489],
[24.1065,50.6347],
[24.0982,50.6374],
[24.0885,50.6352],
[24.088,50.6446],
[24.0801,50.6449],
[24.0904,50.6536],
[24.0867,50.6694],
[24.0662,50.6778],
[24.0724,50.699],
[24.0672,50.7074],
[24.0753,50.7108],
[24.0715,50.7207],
[24.0443,50.7152],
[24.0166,50.723],
[24.0231,50.7454],
[24.0152,50.7472],
[24.024,50.7507],
[24.0112,50.7545],
[24.0179,50.7568],
[24.0145,50.7623],
[24.0251,50.7589],
[24.0236,50.7667],
[24.011,50.7723],
[23.9798,50.7682],
[23.9657,50.7784],
[23.9685,50.7857],
[23.9573,50.7944],
[23.969,50.8116],
[23.9633,50.8141],
[23.9835,50.8281],
[23.9824,50.832],
[24.0069,50.8412],
[24.0474,50.8381],
[24.0398,50.8363],
[24.0446,50.8334],
[24.1071,50.8387],
[24.1414,50.8569],
[24.1456,50.8676],
[24.1459,50.8688],
[24.1164,50.8699],
[24.0865,50.8891],
[24.052,50.8917],
[23.9978,50.9279],
[23.9868,50.9449],
[23.9834,50.9462],
[23.9688,50.9528],
[23.9669,50.9785],
[23.9569,50.9913],
[23.9151,51.0068],
[23.9156,51.0124],
[23.9352,51.0132],
[23.9229,51.0222],
[23.9165,51.0299],
[23.9298,51.0385],
[23.9132,51.0415],
[23.92,51.0467],
[23.914,51.0468],
[23.9131,51.0583],
[23.9088,51.0776],
[23.8979,51.0744],
[23.8854,51.0823],
[23.8757,51.0771],
[23.867,51.0959],
[23.8568,51.0998],
[23.8626,51.1128],
[23.8495,51.124],
[23.8538,51.1306],
[23.8699,51.1299],
[23.8694,51.1505],
[23.8429,51.1645],
[23.8242,51.1618],
[23.8265,51.1672],
[23.8138,51.1711],
[23.8073,51.1856],
[23.7842,51.19],
[23.7833,51.1987],
[23.7604,51.2029],
[23.7562,51.2125],
[23.7396,51.2118],
[23.742,51.227],
[23.7265,51.2363],
[23.7317,51.2387],
[23.7267,51.2453],
[23.7268,51.2616],
[23.7053,51.2752],
[23.6956,51.2916],
[23.6485,51.2873],
[23.6467,51.2982],
[23.6527,51.2998],
[23.6397,51.311],
[23.6358,51.32],
[23.6425,51.3265],
[23.6356,51.3279],
[23.6568,51.3396],
[23.6497,51.3439],
[23.656,51.3452],
[23.657,51.3598],
[23.6692,51.3609],
[23.6673,51.3681],
[23.6869,51.3686],
[23.6785,51.3838],
[23.6893,51.3883],
[23.6769,51.3938],
[23.7029,51.404],
[23.6931,51.4145],
[23.703,51.4199],
[23.689,51.4189],
[23.6773,51.4299],
[23.6861,51.4338],
[23.6866,51.4446],
[23.6493,51.4463],
[23.6462,51.4584],
[23.6759,51.4726],
[23.66,51.4905],
[23.6386,51.4855],
[23.6202,51.4965],
[23.625,51.5],
[23.6178,51.508],
[23.6246,51.5143],
[23.6128,51.5289],
[23.5646,51.5348],
[23.5657,51.5508],
[23.5781,51.5576],
[23.5677,51.5621],
[23.5676,51.5786],
[23.5542,51.5828],
[23.5401,51.6021],
[23.5469,51.6212],
[23.5421,51.6356],
[23.5406,51.6608],
[23.5592,51.6662],
[23.5524,51.7048],
[23.5502,51.7172],
[23.5286,51.7296],
[23.532,51.7436],
[23.6264,51.7806],
[23.6426,51.8027],
[23.6199,51.8305],
[23.6024,51.8307],
[23.6024,51.8419],
[23.6117,51.846],
[23.6079,51.8771],
[23.6285,51.8746],
[23.6385,51.896],
[23.6179,51.9032],
[23.6168,51.9237],
[23.6309,51.9231],
[23.645,51.936],
[23.6319,51.9512],
[23.6886,51.9919],
[23.6594,52.0191],
[23.6656,52.0386],
[23.6414,52.0594],
[23.6555,52.0587],
[23.644,52.0658],
[23.6537,52.0733],
[23.6151,52.0941],
[23.61,52.1012],
[23.6187,52.1088],
[23.5786,52.12],
[23.5565,52.1193],
[23.557,52.1116],
[23.5482,52.1103],
[23.5408,52.1291],
[23.4881,52.1527],
[23.4836,52.1676],
[23.5073,52.1752],
[23.486,52.1813],
[23.4692,52.1731],
[23.4544,52.1847],
[23.4256,52.176],
[23.3962,52.2008],
[23.374,52.1952],
[23.365,52.2083],
[23.2993,52.2117],
[23.3054,52.222],
[23.2667,52.215],
[23.2031,52.2268],
[23.1946,52.2408],
[23.2052,52.2557],
[23.1995,52.268],
[23.2047,52.276],
[23.1785,52.2832],
[23.1533,52.2795],
[23.1286,52.2882],
[23.1107,52.3005],
[23.0776,52.282],
[23.0534,52.2847],
[23.0482,52.2911],
[23.0589,52.3032],
[23.0484,52.3231],
[23.0091,52.3364],
[22.9953,52.3319],
[22.9858,52.3465],
[22.977,52.3464],
[22.9614,52.3668],
[22.9243,52.3748],
[22.8485,52.3584],
[22.74,52.3817],
[22.7203,52.3837],
[22.705,52.3924],
[22.6633,52.3854],
[22.6571,52.3934],
[22.6141,52.3875],
[22.6048,52.3989],
[22.5794,52.3933],
[22.5787,52.4028],
[22.5661,52.4035],
[22.5632,52.4107],
[22.5433,52.4234],
[22.5467,52.455],
[22.5546,52.4637],
[22.5439,52.4681],
[22.5309,52.4614],
[22.51,52.4909],
[22.5264,52.521],
[22.4839,52.5611],
[22.4674,52.5674],
[22.4588,52.5868],
[22.4142,52.6001],
[22.4079,52.6095],
[22.3723,52.6241],
[22.3726,52.6364],
[22.3455,52.6579],
[22.2744,52.671],
[22.2219,52.6889],
[22.2168,52.6984],
[22.1629,52.6928],
[22.1605,52.7024],
[22.0951,52.6906],
[22.0353,52.7578],
[21.9182,52.818],
[21.8667,52.857],
[21.811,52.9123],
[21.8317,52.9479],
[21.8161,52.9555],
[21.7715,52.9518],
[21.7749,52.9568],
[21.7476,52.973],
[21.7198,53.0271],
[21.6947,53.0366],
[21.6393,53.0617],
[21.6415,53.0766],
[21.6565,53.0817],
[21.6432,53.0853],
[21.6405,53.102],
[21.6199,53.1097],
[21.6918,53.1398],
[21.7052,53.1688],
[21.7564,53.176],
[21.7677,53.1939],
[21.87,53.2303],
[21.8669,53.2449],
[21.8982,53.2685],
[21.8377,53.296],
[21.7722,53.3729],
[21.789,53.3919],
[21.7842,53.4128],
[21.8092,53.4292],
[21.8521,53.4423],
[21.8661,53.4594],
[21.892,53.467],
[21.9015,53.4929],
[21.9311,53.5104],
[21.9524,53.5095],
[21.9897,53.5221],
[22.0098,53.5135],
[22.0197,53.4975],
[22.0304,53.4969],
[22.0587,53.5297],
[22.0957,53.5322],
[22.1745,53.5576],
[22.2725,53.6106],
[22.2791,53.6208],
[22.3057,53.6268],
[22.3265,53.6318],
[22.3598,53.6559],
[22.423,53.6815],
[22.4673,53.699],
[22.515,53.6983],
[22.5841,53.7346],
[22.5853,53.7271],
[22.6066,53.7168],
[22.6212,53.7355],
[22.6284,53.7563],
[22.6411,53.7549],
[22.6413,53.7476],
[22.6881,53.7583],
[22.6967,53.762],
[22.7262,53.8048],
[22.7271,53.8336],
[22.7791,53.8658],
[22.7853,53.8838],
[22.7753,53.9037],
[22.7828,53.9155],
[22.8799,53.9246],
[22.9949,53.9012],
[23.0228,53.9041],
[23.0361,53.8957],
[23.2055,53.8807],
[23.3352,53.809],
[23.3955,53.7881],
[23.4707,53.8074],
[23.5102,53.806],
[23.5462,53.8264],
[23.5539,53.832],
[23.5455,53.8446],
[23.5513,53.8514],
[23.5313,53.8594],
[23.5327,53.8718],
[23.5578,53.871],
[23.5842,53.8919],
[23.6568,53.9081],
[23.6805,53.9044],
[23.7168,53.9365],
[23.6521,53.935],
[23.6104,53.9247],
[23.5983,53.9295],
[23.6002,53.9362],
[23.5815,53.9427],
[23.5569,53.9407],
[23.5371,53.9418],
[23.5268,53.956],
[23.515,53.9563],
[23.4892,53.9747],
[23.4807,53.998],
[23.5036,54.0065],
[23.5249,54.0311],
[23.5286,54.0658],
[23.5183,54.0898],
[23.4926,54.117],
[23.4953,54.1326],
[23.4858,54.1532],
[23.459,54.1755],
[23.4245,54.1775],
[23.3813,54.2289],
[23.3617,54.231],
[23.3484,54.2457],
[23.3217,54.2533],
[23.2339,54.2609],
[23.2024,54.2886],
[23.1542,54.297],
[23.1598,54.3096],
[23.1488,54.3144],
[23.0922,54.2985],
[23.0421,54.316],
[23.0632,54.341],
[22.9939,54.3619],
[23.0102,54.3828],
[22.9838,54.3896],
[22.8875,54.3999],
[22.888,54.4091],
[22.8547,54.4104],
[22.8363,54.4065],
[22.8114,54.371],
[22.792,54.3633],
[22.7664,54.3852],
[22.736,54.4429],
[22.702,54.4572],
[22.6991,54.5064],
[22.6838,54.5195],
[22.6804,54.5331],
[22.7123,54.5637],
[22.6843,54.5873],
[22.7201,54.6066],
[22.7266,54.6227],
[22.7494,54.6317],
[22.7417,54.6425],
[22.7574,54.6514],
[22.7319,54.6655],
[22.7403,54.6749],
[22.7243,54.6868],
[22.7301,54.6981],
[22.7487,54.7065],
[22.7388,54.7187],
[22.743,54.7311],
[22.7729,54.7458],
[22.7781,54.7521],
[22.8059,54.7481],
[22.8149,54.7564],
[22.8048,54.754],
[22.8124,54.7666],
[22.8435,54.7666],
[22.8595,54.7777],
[22.8485,54.7858],
[22.8786,54.7917],
[22.8734,54.8061],
[22.887,54.8139],
[22.8705,54.8202],
[22.88,54.8255],
[22.8763,54.8341],
[22.8586,54.8388],
[22.8697,54.8525],
[22.8397,54.8645],
[22.8549,54.8855],
[22.8473,54.8967],
[22.8205,54.912],
[22.7951,54.903],
[22.7843,54.9246],
[22.7533,54.9188],
[22.7489,54.9244],
[22.7669,54.9347],
[22.7414,54.9397],
[22.7255,54.9637],
[22.7083,54.9733],
[22.6902,54.9716],
[22.6732,54.9884],
[22.6587,54.9808],
[22.6678,54.9681],
[22.653,54.9651],
[22.6352,54.9894],
[22.6264,54.9955],
[22.5966,55.0283],
[22.5976,55.046],
[22.5891,55.0705],
[22.5969,55.0735],
[22.6099,55.0914],
[22.5896,55.0979],
[22.5918,55.1128],
[22.5383,55.1356],
[22.4094,55.1333],
[22.3084,55.142],
[22.247,55.1557],
[22.192,55.1528],
[22.1809,55.1624],
[22.1865,55.1741],
[22.1568,55.175],
[22.1979,55.1827],
[22.187,55.1981],
[22.2129,55.2058],
[22.2137,55.2124],
[22.1601,55.2253],
[22.0563,55.2287],
[21.9382,55.2665],
[21.8624,55.2821],
[21.872,55.2938],
[21.8662,55.3141],
[21.8335,55.3245],
[21.813,55.3156],
[21.7592,55.3129],
[21.768,55.2941],
[21.7575,55.2877],
[21.7143,55.2928],
[21.7201,55.3017],
[21.7061,55.3217],
[21.6686,55.3555],
[21.6383,55.3584],
[21.6067,55.3728],
[21.6086,55.3827],
[21.5881,55.4021],
[21.6025,55.4271],
[21.5593,55.4472],
[21.5711,55.4665],
[21.5207,55.4975],
[21.5044,55.5258],
[21.508,55.539],
[21.5016,55.5438],
[21.509,55.5544],
[21.4967,55.5803],
[21.458,55.6091],
[21.4089,55.6892],
[21.3843,55.7022],
[21.3769,55.723],
[21.348,55.7398],
[21.3671,55.75],
[21.3645,55.7824],
[21.3099,55.8228],
[21.2904,55.852],
[21.2659,55.8539],
[21.2132,55.8757],
[21.1938,55.8682],
[21.1461,55.8741],
[21.1007,55.8924],
[20.9657,55.8972],
[20.9596,55.8976],
[20.9693,55.8214],
[21.0073,55.6599],
[21.0168,55.6374],
[21.0144,55.5883],
[20.9813,55.4638],
[20.9692,55.4329],
[20.8722,55.309],
[20.6736,55.1385],
[20.5471,55.0535],
[20.47,55.0214],
[20.3818,54.9971],
[20.3431,54.9939],
[20.2631,55.0134],
[20.1944,55.0123],
[20.1348,54.999],
[20.0565,55.0019],
[20.0124,55.0159],
[19.9766,55.0178],
[19.9098,55.0013],
[19.8571,54.9467],
[19.8451,54.9194],
[19.8419,54.8584],
[19.8747,54.7918],
[19.8546,54.7382],
[19.8067,54.6814],
[19.7569,54.623],
[19.5986,54.5151],
[19.572,54.4999],
[19.5162,54.4684],
[19.359,54.4278],
[19.3074,54.4192],
[19.1039,54.4021],
[19.0229,54.4018],
[18.9501,54.4151],
[18.8849,54.4021],
[18.796,54.4215],
[18.7733,54.4237],
[18.7511,54.4435],
[18.7221,54.455],
[18.6558,54.4683],
[18.6606,54.4877],
[18.649,54.5184],
[18.6492,54.5617],
[18.6242,54.6057],
[18.6075,54.6204],
[18.6037,54.6568],
[18.6209,54.6503],
[18.6448,54.6433],
[18.7033,54.5852],
[18.7726,54.5446],
[18.8436,54.5429],
[18.9018,54.5719],
[18.9152,54.5906],
[18.9191,54.6149],
[18.8985,54.6557],
[18.852,54.6896],
[18.7399,54.7437],
[18.5082,54.8237],
[18.3623,54.8853],
[18.0592,54.8882],
[17.8938,54.879],
[17.606,54.8286],
[17.4792,54.8138],
[17.3519,54.8038],
[17.1966,54.7755],
[17.0117,54.7207],
[16.9256,54.67],
[16.8567,54.6452],
[16.7379,54.6259],
[16.6247,54.6198],
[16.4762,54.5893],
[16.3714,54.5336],
[16.3305,54.4898],
[16.3013,54.4746],
[16.2466,54.4226],
[16.1515,54.3618],
[16.0962,54.3348],
[16.0247,54.314],
[15.8207,54.2944],
[15.6819,54.2588],
[15.5224,54.2386],
[15.4685,54.2202],
[15.3529,54.2135],
[15.2408,54.197],
[14.8593,54.1041],
[14.7055,54.0771],
[14.4655,54.0129],
[14.3808,53.9732],
[14.3455,53.9667],
[14.3047,53.9764],
[14.2611,53.9801],
[14.2406,53.9932],
[14.0547,54.1035],
[13.9714,54.1208],
[13.9109,54.1676],
[14.0035,54.2132],
[14.016,54.2379],
[14.0093,54.2657],
[13.9825,54.2922],
[13.9428,54.3047],
[13.8452,54.2948],
[13.8636,54.3353],
[13.8509,54.365],
[13.7957,54.3947],
[13.7607,54.429],
[13.6821,54.4595],
[13.7403,54.4829],
[13.7675,54.5098],
[13.774,54.5461],
[13.7569,54.5912],
[13.721,54.6158],
[13.6573,54.6351],
[13.5053,54.6326],
[13.5259,54.6688],
[13.521,54.6957],
[13.4939,54.7223],
[13.4543,54.7347],
[13.3712,54.7363],
[13.2475,54.722],
[13.194,54.7033],
[13.1405,54.6613],
[13.0674,54.6483],
[13.0132,54.6143],
[13.0052,54.5944],
[13.0064,54.5654],
[12.9736,54.5106],
[12.8674,54.4959],
[12.6678,54.4969],
[12.6297,54.5027],
[12.6057,54.5257],
[12.5684,54.5403],
[12.5237,54.5428],
[12.476,54.5339],
[12.4181,54.4993],
[12.378,54.4348],
[12.3404,54.4149],
[12.3152,54.3897],
[12.2723,54.3337],
[12.1499,54.2888],
[12.0778,54.2391],
[11.9825,54.2311],
[11.838,54.1983],
[11.7238,54.2075],
[11.6446,54.1975],
[11.5557,54.1518],
[11.4908,54.1345],
[11.4509,54.1044],
[11.4285,54.0762],
[11.3068,54.0306],
[11.2649,54.0404],
[11.2215,54.0634],
[11.1665,54.0693],
[11.0144,54.0571],
[10.9231,54.0294],
[10.9051,54.0375],
[10.943,54.0495],
[11.0292,54.1071],
[11.112,54.1383],
[11.1717,54.1734],
[11.1846,54.1993],
[11.1841,54.2401],
[11.18,54.2905],
[11.1664,54.3248],
[11.2091,54.3536],
[11.2288,54.3581],
[11.2985,54.3471],
[11.3423,54.3516],
[11.3969,54.3835],
[11.4064,54.4036],
[11.3991,54.436],
[11.3194,54.5297],
[11.2784,54.5533],
[11.2006,54.5725],
[11.0884,54.5919],
[11.0336,54.5879],
[10.997,54.5725],
[10.9341,54.5206],
[10.9133,54.4776],
[10.916,54.4319],
[10.8181,54.403],
[10.7468,54.3633],
[10.6762,54.4021],
[10.5073,54.4431],
[10.4238,54.4744],
[10.3585,54.4888],
[10.2666,54.4911],
[10.1807,54.5334],
[10.114,54.5404],
[10.1148,54.5781],
[10.1285,54.6137],
[10.1294,54.6965],
[10.1047,54.7296],
[10.0772,54.7445],
[10.0692,54.7651],
[10.0328,54.8094],
[10.0248,54.8105],
[9.9112,54.8362],
[9.8528,54.8302],
[9.7702,54.8198],
[9.6221,54.8468],
[9.6153,54.8618],
[9.6319,54.8783],
[9.607,54.8896],
[9.5887,54.8875],
[9.5377,54.8592],
[9.4424,54.8244],
[9.4203,54.8319],
[9.4146,54.8401],
[9.4047,54.8398],
[9.4037,54.8389],
[9.3975,54.8393],
[9.3828,54.8392],
[9.3739,54.8211],
[9.3628,54.8166],
[9.3609,54.8162],
[9.342,54.8036],
[9.3454,54.8021],
[9.3295,54.8056],
[9.2935,54.809],
[9.2949,54.8017],
[9.2842,54.8096],
[9.2501,54.8097],
[9.2359,54.831],
[9.2445,54.8443],
[9.2404,54.8499],
[9.1555,54.871],
[9.1135,54.8738],
[9.0478,54.8721],
[9.0269,54.8815],
[8.973,54.8967],
[8.8917,54.9049],
[8.8489,54.8973],
[8.8239,54.9068],
[8.7987,54.9046],
[8.777,54.8927],
[8.735,54.8931],
[8.681,54.9105],
[8.6356,54.9116],
[8.5559,54.9207],
[8.5574,54.9929],
[8.519,54.9926],
[8.5015,55.0002],
[8.4722,55.0253],
[8.478,55.0465],
[8.472,55.0547],
[8.4531,55.0581],
[8.3955,55.0694],
[8.3467,55.0654],
[8.3292,55.0836],
[8.3227,55.0845],
[8.2153,54.9407],
[8.1946,54.872],
[8.1876,54.7768],
[8.1954,54.7364],
[8.2152,54.7138],
[8.1705,54.6901],
[8.1578,54.6706],
[8.1574,54.6548],
[8.1691,54.6352],
[8.2031,54.6132],
[8.2639,54.6024],
[8.2993,54.5774],
[8.3621,54.5607],
[8.3524,54.4568],
[8.3662,54.4237],
[8.4325,54.3823],
[8.4977,54.3698],
[8.4939,54.2909],
[8.5245,54.2393],
[8.5253,54.2212],
[8.5241,54.1882],
[8.535,54.1691],
[8.5229,54.1533],
[8.5207,54.1246],
[8.5056,54.0974],
[8.5152,54.0601],
[8.5136,54.0249],
[8.5167,54.0122],
[8.3866,54.0281],
[8.3131,54.0198],
[8.2654,53.9832],
[8.259,53.9585],
[8.2715,53.9249],
[8.2811,53.9127],
[8.2531,53.9016],
[8.2246,53.8777],
[8.2181,53.8576],
[8.2263,53.8296],
[8.1758,53.8197],
[8.1245,53.8221],
[8.0834,53.8145],
[8.0479,53.8273],
[7.9966,53.832],
[7.8838,53.8467],
[7.8059,53.8348],
[7.6831,53.8352],
[7.6183,53.8146],
[7.4942,53.81],
[7.4121,53.7894],
[7.3272,53.7801],
[7.1811,53.7756],
[7.1239,53.7646],
[7.0658,53.7415],
[6.8419,53.722],
[6.7569,53.6921],
[6.7299,53.6699],
[6.6051,53.6503],
[6.5673,53.6272],
[6.5526,53.6],
[6.5571,53.5957],
[6.5512,53.5827],
[6.6131,53.5482],
[6.6138,53.5385],
[6.6219,53.5402],
[6.6285,53.5304],
[6.6567,53.528],
[6.6878,53.5039],
[6.6835,53.4967],
[6.6969,53.4998],
[6.6986,53.4937],
[6.8843,53.4459],
[6.8937,53.4357],
[6.8828,53.4193],
[6.8994,53.3577],
[6.9245,53.3396],
[7.0479,53.3071],
[7.1918,53.315],
[7.2118,53.2314],
[7.219,53.2057],
[7.2175,53.2024],
[7.2115,53.1925],
[7.208,53.1885],
[7.2276,53.1803],
[7.2174,53.178],
[7.2037,53.1765],
[7.1789,53.1385],
[7.1829,53.1218],
[7.2027,53.1129],
[7.2016,53.1026],
[7.1992,53.0813],
[7.2174,53.007],
[7.2012,52.983],
[7.1824,52.9434],
[7.1531,52.913],
[7.1193,52.8789],
[7.0873,52.85],
[7.0927,52.8382],
[7.0716,52.8104],
[7.067,52.7549],
[7.0557,52.6434],
[7.0421,52.6329],
[7.0418,52.6327],
[7.0066,52.6389],
[6.9781,52.6466],
[6.9418,52.6367],
[6.8734,52.6544],
[6.7689,52.6492],
[6.7555,52.6472],
[6.7101,52.6278],
[6.7273,52.6149],
[6.7188,52.5886],
[6.7667,52.5616],
[6.726,52.5633],
[6.7163,52.5485],
[6.6809,52.5533],
[6.7053,52.521],
[6.7046,52.518],
[6.6976,52.4863],
[6.7177,52.4781],
[6.7746,52.4596],
[6.8543,52.4597],
[6.8525,52.4499],
[6.9473,52.4366],
[6.9876,52.4698],
[6.9985,52.4568],
[7.0108,52.4291],
[7.0326,52.4072],
[7.0359,52.4028],
[7.0536,52.4008],
[7.0585,52.3962],
[7.0722,52.3728],
[7.0723,52.3519],
[7.0458,52.3164],
[7.0413,52.3111],
[7.0326,52.3007],
[7.0262,52.2873],
[7.0275,52.278],
[7.0321,52.2717],
[7.0658,52.2412],
[7.0391,52.2276],
[6.9919,52.2272],
[6.9811,52.2207],
[6.9547,52.184],
[6.9081,52.176],
[6.8898,52.1612],
[6.8805,52.156],
[6.8735,52.1303],
[6.8555,52.1205],
[6.7606,52.1188],
[6.7554,52.0952],
[6.7446,52.0931],
[6.7475,52.0819],
[6.6948,52.0699],
[6.6953,52.0643],
[6.6869,52.0559],
[6.6879,52.0399],
[6.753,52.0284],
[6.8078,51.9949],
[6.8266,51.9935],
[6.8285,51.9641],
[6.7988,51.9587],
[6.7889,51.9297],
[6.7326,51.8987],
[6.722,51.8961],
[6.6842,51.9176],
[6.5498,51.8834],
[6.5401,51.881],
[6.5001,51.8622],
[6.4727,51.8542],
[6.4512,51.8653],
[6.4323,51.8594],
[6.3905,51.874],
[6.3879,51.8619],
[6.4092,51.8524],
[6.4057,51.8495],
[6.4075,51.8281],
[6.3682,51.8333],
[6.3471,51.8507],
[6.3065,51.8491],
[6.299,51.8678],
[6.2799,51.8741],
[6.215,51.8676],
[6.2045,51.869],
[6.1969,51.8834],
[6.1914,51.8874],
[6.191,51.8917],
[6.168,51.901],
[6.1574,51.9051],
[6.1178,51.9017],
[6.1038,51.8925],
[6.1381,51.8836],
[6.1445,51.8698],
[6.167,51.8616],
[6.1666,51.8407],
[6.1013,51.849],
[6.0635,51.8655],
[6.0514,51.8567],
[6.0553,51.8524],
[6.002,51.8324],
[5.963,51.8369],
[5.9399,51.8347],
[5.944,51.8289],
[5.9425,51.8234],
[5.9293,51.8275],
[5.9238,51.8188],
[5.948,51.8113],
[5.9658,51.8056],
[5.9783,51.7979],
[5.9746,51.7851],
[5.9896,51.7823],
[5.9818,51.7739],
[5.9921,51.7703],
[5.9533,51.748],
[5.9524,51.744],
[5.9552,51.7381],
[5.9942,51.7383],
[6.0323,51.7238],
[6.0449,51.7169],
[6.026,51.7084],
[6.0298,51.6781],
[6.032,51.6762],
[6.0349,51.674],
[6.1181,51.656],
[6.0943,51.6163],
[6.0914,51.6059],
[6.157,51.5666],
[6.1769,51.5386],
[6.2074,51.5193],
[6.2142,51.5029],
[6.219,51.485],
[6.2228,51.4695],
[6.2222,51.4628],
[6.2139,51.4463],
[6.2053,51.3995],
[6.2267,51.4003],
[6.2144,51.3896],
[6.2244,51.365],
[6.1899,51.3395],
[6.1942,51.3349],
[6.1789,51.3336],
[6.1686,51.333],
[6.1592,51.3154],
[6.1538,51.3074],
[6.0999,51.2576],
[6.0727,51.2426],
[6.0833,51.2275],
[6.0863,51.2225],
[6.0681,51.221],
[6.0731,51.1828],
[6.0822,51.1716],
[6.1,51.1698],
[6.1652,51.1944],
[6.1808,51.1864],
[6.1747,51.1846],
[6.1391,51.1733],
[6.1754,51.1585],
[6.1628,51.1527],
[6.1211,51.1423],
[6.1094,51.1376],
[6.0922,51.135],
[6.0868,51.1243],
[6.0605,51.1159],
[6.0364,51.0961],
[5.9978,51.0844],
[5.9699,51.0608],
[5.9685,51.048],
[5.9576,51.0348],
[5.938,51.0351],
[5.9132,51.0669],
[5.8923,51.0533],
[5.8667,51.0516]
]
],
[
[
[7.7809,54.2028],
[7.7874,54.1694],
[7.8411,54.1274],
[7.8964,54.1182],
[7.9561,54.1337],
[7.9925,54.1563],
[8.0059,54.1819],
[8.0007,54.2086],
[7.9705,54.2316],
[7.9312,54.2408],
[7.842,54.2397],
[7.7998,54.2244],
[7.7809,54.2028]
]
],
[
[
[8.6437,47.7584],
[8.6521,47.7573],
[8.653,47.7659],
[8.6437,47.7584]
]
],
[
[
[8.6586,47.6913],
[8.6635,47.6859],
[8.6694,47.6849],
[8.6902,47.6953],
[8.7179,47.6907],
[8.703,47.7146],
[8.6863,47.7086],
[8.6647,47.7134],
[8.6764,47.6981],
[8.6586,47.6913]
]
]
]}
}
