{
"type": "Feature",
"properties": {"id":"ohm-r2692357","edge_precision":"unknown","ohm_relation":2692357,"ohm_version":43,"ohm_timestamp":"2026-08-28T04:49:14Z"},
"geometry": {"type": "MultiPolygon", "coordinates": [
[
[
[19.1029,44.3711],
[19.1182,44.3652],
[19.109,44.3561],
[19.1156,44.3434],
[19.1344,44.339],
[19.1307,44.3174],
[19.169,44.2816],
[19.2111,44.2907],
[19.2221,44.2696],
[19.2414,44.2615],
[19.2789,44.2765],
[19.3252,44.2715],
[19.3299,44.2498],
[19.3491,44.2315],
[19.3443,44.2187],
[19.3592,44.2085],
[19.3591,44.1839],
[19.407,44.1707],
[19.4195,44.1444],
[19.4432,44.1321],
[19.477,44.1489],
[19.4823,44.1401],
[19.4699,44.1271],
[19.4717,44.1188],
[19.4934,44.1157],
[19.5104,44.0818],
[19.5557,44.0711],
[19.5746,44.0463],
[19.5818,44.0491],
[19.5835,44.0694],
[19.5998,44.0702],
[19.604,44.0511],
[19.6237,44.0516],
[19.6142,44.0346],
[19.6207,44.0161],
[19.5636,43.9988],
[19.5662,43.9843],
[19.5387,43.9733],
[19.528,43.9566],
[19.5088,43.9554],
[19.4252,43.9586],
[19.4039,43.9679],
[19.388,43.9604],
[19.3532,43.9823],
[19.2678,44],
[19.2471,44.0147],
[19.2347,44.0095],
[19.2364,43.9879],
[19.2549,43.9643],
[19.2535,43.9512],
[19.2835,43.9313],
[19.3458,43.8532],
[19.3744,43.8348],
[19.372,43.8247],
[19.3942,43.7986],
[19.4209,43.7969],
[19.4311,43.7769],
[19.4655,43.7646],
[19.481,43.7337],
[19.5188,43.7145],
[19.5169,43.6896],
[19.5318,43.6677],
[19.5264,43.6497],
[19.5122,43.6444],
[19.5105,43.6282],
[19.6037,43.6097],
[19.647,43.5764],
[19.6806,43.5963],
[19.7205,43.5376],
[19.8581,43.5125],
[20.2657,43.1902],
[20.4648,43.0298],
[20.7436,42.8679],
[20.9468,42.7046],
[21.4261,42.7642],
[21.6582,42.6845],
[21.7516,42.7036],
[22.2679,42.9434],
[22.4808,43.2282],
[22.554,43.4616],
[22.5335,43.4711],
[22.5247,43.4914],
[22.49,43.5559],
[22.4877,43.5687],
[22.4966,43.5835],
[22.487,43.5917],
[22.4935,43.6002],
[22.4819,43.6254],
[22.4918,43.6392],
[22.4839,43.647],
[22.4768,43.6574],
[22.4591,43.6591],
[22.4245,43.6785],
[22.4079,43.6959],
[22.3943,43.7299],
[22.4024,43.7589],
[22.3775,43.7752],
[22.3572,43.8095],
[22.3887,43.8789],
[22.3945,43.9087],
[22.3885,43.9267],
[22.4088,43.9397],
[22.4087,43.9871],
[22.4173,43.9924],
[22.4095,44.0042],
[22.4412,44.0102],
[22.4422,44.0166],
[22.5298,44.0204],
[22.5435,44.0337],
[22.5306,44.0483],
[22.5349,44.0522],
[22.6213,44.0634],
[22.6246,44.0728],
[22.6155,44.0791],
[22.6198,44.0974],
[22.6103,44.1072],
[22.6204,44.1507],
[22.6269,44.1472],
[22.6285,44.158],
[22.6129,44.1656],
[22.636,44.1759],
[22.6288,44.1835],
[22.6431,44.186],
[22.6368,44.1905],
[22.6452,44.1978],
[22.6443,44.2087],
[22.6546,44.2049],
[22.6642,44.2132],
[22.669,44.2071],
[22.6763,44.2155],
[22.6725,44.2271],
[22.6864,44.2585],
[22.6791,44.2798],
[22.6466,44.2935],
[22.5637,44.3057],
[22.5259,44.3372],
[22.5031,44.3825],
[22.5015,44.4174],
[22.468,44.4408],
[22.4571,44.4718],
[22.4692,44.4803],
[22.5208,44.4719],
[22.5498,44.4819],
[22.5644,44.5356],
[22.5867,44.5503],
[22.6267,44.5503],
[22.6962,44.5161],
[22.7601,44.5372],
[22.7619,44.5566],
[22.7095,44.6014],
[22.6858,44.6076],
[22.6757,44.6184],
[22.627,44.614],
[22.5713,44.6358],
[22.4797,44.711],
[22.4642,44.717],
[22.4284,44.7122],
[22.3791,44.6749],
[22.3283,44.6735],
[22.3034,44.6553],
[22.3003,44.6403],
[22.2747,44.6264],
[22.2645,44.596],
[22.2305,44.5613],
[22.195,44.5095],
[22.1864,44.4843],
[22.1689,44.4751],
[22.1389,44.4735],
[22.0756,44.5056],
[22.07,44.5285],
[22.036,44.5489],
[22.0254,44.5689],
[22.0258,44.5929],
[22.0045,44.6079],
[21.9933,44.6325],
[21.9522,44.6349],
[21.9169,44.6475],
[21.8142,44.6504],
[21.7904,44.6634],
[21.7271,44.6534],
[21.6887,44.6653],
[21.6367,44.6596],
[21.6119,44.6835],
[21.6151,44.7164],
[21.5869,44.7589],
[21.5407,44.772],
[21.4012,44.7773],
[21.3911,44.7837],
[21.3791,44.814],
[21.3583,44.8222],
[21.3642,44.8296],
[21.3532,44.841],
[21.3621,44.84],
[21.3579,44.8499],
[21.3712,44.8666],
[21.4054,44.8662],
[21.4178,44.8735],
[21.4434,44.8665],
[21.4469,44.874],
[21.4855,44.8684],
[21.5602,44.8891],
[21.5583,44.9014],
[21.5504,44.9167],
[21.5466,44.9306],
[21.5197,44.938],
[21.4692,44.9585],
[21.4382,44.9605],
[21.4067,44.9785],
[21.4146,44.9868],
[21.3603,45.0204],
[21.3812,45.0272],
[21.3853,45.0286],
[21.4038,45.0338],
[21.4123,45.0364],
[21.4258,45.0351],
[21.4561,45.0404],
[21.4476,45.0576],
[21.4834,45.0913],
[21.4697,45.1045],
[21.4783,45.1213],
[21.5273,45.1379],
[21.5264,45.1527],
[21.5148,45.1711],
[21.4931,45.1732],
[21.4839,45.1903],
[21.4388,45.2029],
[21.4031,45.2292],
[21.3953,45.2189],
[21.3599,45.2222],
[21.3393,45.2356],
[21.2927,45.2427],
[21.2755,45.2294],
[21.219,45.2506],
[21.2029,45.2655],
[21.2088,45.2753],
[21.1913,45.2868],
[21.18,45.3126],
[21.1837,45.3208],
[21.1762,45.3251],
[21.1665,45.3196],
[21.162,45.3251],
[21.1446,45.3048],
[21.0965,45.2957],
[21.081,45.3178],
[21.0612,45.3158],
[21.0636,45.3319],
[21.0165,45.3246],
[21.01,45.3413],
[20.9603,45.3668],
[20.9484,45.3856],
[20.9312,45.3868],
[20.9355,45.393],
[20.9203,45.4173],
[20.9003,45.417],
[20.8648,45.4319],
[20.8752,45.4385],
[20.8717,45.4458],
[20.8809,45.4462],
[20.8663,45.465],
[20.833,45.48],
[20.7711,45.4799],
[20.7771,45.4906],
[20.7688,45.5003],
[20.8072,45.5158],
[20.8325,45.5359],
[20.7953,45.5875],
[20.7719,45.5829],
[20.7657,45.6125],
[20.8049,45.6572],
[20.803,45.682],
[20.7961,45.6871],
[20.8026,45.7378],
[20.8175,45.7521],
[20.8231,45.775],
[20.7835,45.7859],
[20.7741,45.7545],
[20.7327,45.7559],
[20.714,45.7489],
[20.6929,45.7599],
[20.6814,45.7973],
[20.6628,45.7941],
[20.6507,45.8118],
[20.6604,45.8292],
[20.6117,45.864],
[20.5814,45.8694],
[20.5694,45.9102],
[20.5159,45.8922],
[20.4831,45.9535],
[20.4474,45.9702],
[20.4054,45.9652],
[20.348,45.9997],
[20.3578,46.0056],
[20.3406,46.0363],
[20.346,46.0474],
[20.3093,46.072],
[20.3022,46.0866],
[20.2734,46.0982],
[20.2646,46.1094],
[20.283,46.1174],
[20.2638,46.1181],
[20.2643,46.1264],
[20.2549,46.1158],
[20.2482,46.1298],
[20.2332,46.1238],
[20.1818,46.16],
[20.1374,46.1443],
[20.1069,46.1626],
[20.106,46.1748],
[20.0947,46.1765],
[20.0637,46.1438],
[20.0637,46.1437],
[20.0611,46.1334],
[20.0814,46.1134],
[20.0403,46.0894],
[20.0415,46.0809],
[20.0901,46.0546],
[20.0686,46.0207],
[20.0341,46.0197],
[20.0329,46.0139],
[20.0657,45.9891],
[20.0973,45.9822],
[20.0931,45.9345],
[20.1176,45.9021],
[20.1336,45.8957],
[20.1197,45.879],
[20.087,45.8633],
[20.0854,45.8513],
[20.1421,45.8208],
[20.1494,45.8054],
[20.1474,45.7595],
[20.1681,45.7371],
[20.1364,45.713],
[20.0929,45.712],
[20.0993,45.699],
[20.0892,45.6808],
[20.0933,45.6759],
[20.1105,45.6632],
[20.1168,45.6553],
[20.0952,45.6294],
[20.0863,45.6156],
[20.0571,45.6051],
[20.0768,45.5875],
[20.1074,45.5966],
[20.1311,45.5925],
[20.1331,45.5847],
[20.1173,45.576],
[20.0961,45.5461],
[20.1098,45.5215],
[20.2198,45.4429],
[20.2234,45.4154],
[20.2013,45.3865],
[20.2044,45.3783],
[20.2679,45.3368],
[20.2523,45.3278],
[20.236,45.2924],
[20.2821,45.2638],
[20.313,45.2235],
[20.3118,45.1896],
[20.3062,45.1806],
[20.2768,45.1701],
[20.2813,45.1498],
[20.2793,45.1424],
[20.2725,45.1341],
[20.334,45.0745],
[20.3578,45.0493],
[20.363,45.0308],
[20.3567,45.0125],
[20.2992,44.9929],
[20.2905,44.9867],
[20.2876,44.9695],
[20.3012,44.9428],
[20.3059,44.9376],
[20.3795,44.8654],
[20.4516,44.8338],
[20.4359,44.7986],
[20.3597,44.7738],
[20.3148,44.7397],
[20.3072,44.7297],
[20.3041,44.6865],
[20.2873,44.6657],
[20.2736,44.6613],
[20.2444,44.6683],
[20.2265,44.6848],
[20.242,44.7053],
[20.2375,44.7123],
[20.2159,44.7114],
[20.1925,44.6774],
[20.1774,44.6726],
[20.1572,44.6818],
[20.1575,44.7077],
[20.1389,44.7144],
[20.0197,44.6719],
[19.9718,44.6335],
[19.9247,44.6352],
[19.9206,44.6528],
[19.9632,44.6613],
[20.0003,44.6855],
[19.9821,44.6935],
[19.9192,44.6893],
[19.8734,44.7038],
[19.8277,44.7375],
[19.7765,44.7501],
[19.7405,44.7453],
[19.7038,44.769],
[19.6963,44.7837],
[19.6959,44.8156],
[19.7426,44.8858],
[19.7567,44.8955],
[19.7569,44.9102],
[19.721,44.9108],
[19.6993,44.9269],
[19.6727,44.9251],
[19.6561,44.9547],
[19.6446,44.9602],
[19.6094,44.9607],
[19.5955,44.9723],
[19.5464,44.9843],
[19.5248,44.9772],
[19.5071,44.9814],
[19.4976,44.9792],
[19.4513,44.9741],
[19.4439,44.9486],
[19.4167,44.9605],
[19.3719,44.9378],
[19.4011,44.9241],
[19.3826,44.9124],
[19.3233,44.9173],
[19.3288,44.9065],
[19.3558,44.9014],
[19.3546,44.8922],
[19.3514,44.8894],
[19.3719,44.8785],
[19.3607,44.8694],
[19.3677,44.8571],
[19.3509,44.8584],
[19.3457,44.8397],
[19.355,44.8346],
[19.3532,44.8265],
[19.3372,44.8286],
[19.3332,44.8178],
[19.3199,44.8227],
[19.3239,44.8122],
[19.3123,44.8126],
[19.3095,44.805],
[19.3163,44.7944],
[19.2943,44.7855],
[19.3244,44.7845],
[19.3218,44.7748],
[19.3012,44.7685],
[19.3243,44.7637],
[19.3144,44.7524],
[19.3301,44.7498],
[19.3018,44.7306],
[19.314,44.72],
[19.3008,44.7134],
[19.3054,44.703],
[19.2982,44.6889],
[19.272,44.6872],
[19.2773,44.6724],
[19.2566,44.6589],
[19.2412,44.6318],
[19.2414,44.6165],
[19.2222,44.6138],
[19.227,44.596],
[19.2015,44.5894],
[19.184,44.5742],
[19.1817,44.5668],
[19.1968,44.5546],
[19.1732,44.5261],
[19.1299,44.5238],
[19.12,44.5031],
[19.1331,44.4957],
[19.1339,44.4795],
[19.1493,44.4544],
[19.1468,44.4161],
[19.1095,44.3972],
[19.1029,44.3711]
]
]
]}
}
