{
"type": "Feature",
"properties": {"id":"ohm-r2704702","edge_precision":"unknown","ohm_relation":2704702,"ohm_version":61,"ohm_timestamp":"2026-09-18T01:47:30Z"},
"geometry": {"type": "MultiPolygon", "coordinates": [
[
[
[20.8851,56.3376],
[20.8939,56.2987],
[20.8906,56.2309],
[20.8963,56.2085],
[20.945,56.1308],
[20.9747,56.0631],
[21.048,56.0682],
[21.0647,56.0692],
[21.1433,56.08],
[21.1447,56.0825],
[21.1623,56.0863],
[21.1807,56.0749],
[21.2025,56.0771],
[21.2155,56.1022],
[21.2251,56.1034],
[21.2206,56.1088],
[21.2356,56.1159],
[21.2365,56.1286],
[21.2279,56.1466],
[21.2308,56.1623],
[21.2793,56.1745],
[21.2826,56.1849],
[21.3318,56.2185],
[21.4521,56.2485],
[21.4917,56.2889],
[21.5021,56.2954],
[21.5144,56.2894],
[21.5345,56.2933],
[21.5574,56.3047],
[21.5611,56.3163],
[21.5984,56.3239],
[21.6349,56.3229],
[21.6732,56.3114],
[21.7161,56.3142],
[21.8357,56.3716],
[21.873,56.3615],
[21.9542,56.3816],
[21.9695,56.3766],
[21.9782,56.3851],
[21.9917,56.4136],
[22.0127,56.4141],
[22.016,56.4241],
[22.0475,56.4173],
[22.1301,56.4321],
[22.1657,56.4196],
[22.208,56.4243],
[22.2166,56.412],
[22.2437,56.3997],
[22.3118,56.41],
[22.3485,56.3938],
[22.4297,56.4094],
[22.5382,56.389],
[22.5804,56.3905],
[22.6166,56.3824],
[22.6352,56.3672],
[22.6813,56.3516],
[22.6975,56.3532],
[22.73,56.3731],
[22.8387,56.3649],
[22.8647,56.3704],
[22.9192,56.379],
[22.9286,56.3881],
[22.9205,56.3991],
[22.9365,56.4026],
[22.9416,56.4148],
[23.0022,56.4064],
[23.0189,56.3706],
[23.0051,56.3685],
[23.0267,56.3319],
[23.0455,56.32],
[23.0705,56.3244],
[23.0933,56.3046],
[23.1841,56.3374],
[23.1724,56.3546],
[23.1814,56.3584],
[23.1704,56.3669],
[23.2794,56.372],
[23.3065,56.3831],
[23.388,56.3789],
[23.4185,56.3705],
[23.439,56.3517],
[23.5449,56.3321],
[23.6302,56.36],
[23.7648,56.3733],
[23.7737,56.3701],
[23.7803,56.3605],
[23.7621,56.3332],
[23.7678,56.3329],
[23.7665,56.3237],
[23.7815,56.3205],
[23.7952,56.3391],
[23.8289,56.3381],
[24.019,56.3298],
[24.0227,56.3107],
[24.0492,56.2993],
[24.046,56.2797],
[24.0978,56.2773],
[24.0962,56.2711],
[24.1189,56.2618],
[24.1146,56.2509],
[24.1215,56.2489],
[24.1515,56.2533],
[24.1768,56.2509],
[24.201,56.267],
[24.2901,56.2856],
[24.2858,56.3007],
[24.3399,56.2959],
[24.3578,56.2723],
[24.3921,56.2784],
[24.4232,56.2611],
[24.4542,56.2582],
[24.4617,56.2663],
[24.5194,56.2813],
[24.5795,56.2882],
[24.5834,56.3056],
[24.5767,56.3231],
[24.6236,56.3458],
[24.6288,56.3756],
[24.6946,56.3796],
[24.7048,56.3878],
[24.7017,56.4038],
[24.7692,56.4008],
[24.8034,56.4117],
[24.7994,56.418],
[24.8064,56.4219],
[24.8244,56.4137],
[24.8628,56.4164],
[24.8512,56.4358],
[24.8735,56.4499],
[24.9024,56.4472],
[24.9194,56.436],
[24.9024,56.4205],
[24.9089,56.4096],
[24.9249,56.4028],
[24.9422,56.3753],
[24.9697,56.3649],
[24.9734,56.3102],
[25.0156,56.292],
[25.0191,56.2769],
[25.0566,56.2657],
[25.0637,56.2497],
[25.0568,56.2447],
[25.069,56.2387],
[25.063,56.2266],
[25.0751,56.2183],
[25.0703,56.2099],
[25.0755,56.1961],
[25.0855,56.1968],
[25.092,56.186],
[25.1665,56.1739],
[25.2,56.1763],
[25.2338,56.1922],
[25.2798,56.1582],
[25.3149,56.1449],
[25.337,56.1541],
[25.4041,56.1582],
[25.4026,56.1485],
[25.4196,56.1452],
[25.4315,56.1544],
[25.4798,56.1428],
[25.5047,56.1445],
[25.5096,56.1591],
[25.5361,56.1654],
[25.5514,56.162],
[25.5654,56.1399],
[25.6437,56.1348],
[25.6731,56.1494],
[25.6846,56.1441],
[25.6763,56.1299],
[25.6996,56.1195],
[25.6931,56.1038],
[25.6994,56.1012],
[25.6878,56.0865],
[25.7367,56.0768],
[25.7608,56.0636],
[25.8201,56.0548],
[25.8352,56.0326],
[25.8587,56.0225],
[25.8597,56.0148],
[25.8489,56.0082],
[25.8603,55.9997],
[25.8928,56.0008],
[25.9744,55.9816],
[25.9999,55.9629],
[26.0104,55.967],
[26.046,55.9542],
[26.0458,55.9445],
[26.1203,55.8795],
[26.2038,55.8589],
[26.2294,55.8382],
[26.2312,55.8124],
[26.2686,55.7677],
[26.3086,55.7448],
[26.3388,55.7438],
[26.3395,55.744],
[26.3399,55.7504],
[26.3595,55.7548],
[26.3831,55.7527],
[26.3937,55.7667],
[26.4983,55.8207],
[26.4999,55.83],
[26.516,55.8294],
[26.5095,55.8358],
[26.5183,55.8408],
[26.5115,55.8444],
[26.5143,55.8459],
[26.5473,55.8442],
[26.5482,55.8533],
[26.6275,55.8638],
[26.6363,55.8697],
[26.6312,55.8722],
[26.659,55.9081],
[26.6987,55.9226],
[26.7212,55.9169],
[26.7268,55.8877],
[26.7575,55.8788],
[26.7814,55.9052],
[26.802,55.9112],
[26.818,55.9106],
[26.853,55.8846],
[26.8774,55.8917],
[26.8789,55.9079],
[26.9124,55.919],
[26.9308,55.9152],
[26.9275,55.8893],
[26.9385,55.8708],
[27.0119,55.8691],
[27.0423,55.8898],
[27.0722,55.8959],
[27.1002,55.8739],
[27.1189,55.8777],
[27.134,55.8914],
[27.1525,55.8953],
[27.1643,55.8838],
[27.1687,55.8666],
[27.1972,55.856],
[27.2652,55.8629],
[27.3327,55.8448],
[27.3667,55.815],
[27.4312,55.7941],
[27.5694,55.7836],
[27.6155,55.7871],
[27.6397,55.8482],
[27.6247,55.8923],
[27.6532,55.9132],
[27.653,55.9295],
[27.7497,55.9789],
[27.7845,55.9758],
[27.8015,55.9819],
[27.8114,55.9918],
[27.8056,56.0078],
[27.817,56.008],
[27.8334,56.0238],
[27.8065,56.0354],
[27.8388,56.038],
[27.8738,56.0529],
[27.9049,56.0487],
[27.9356,56.0734],
[27.9411,56.0935],
[27.9697,56.1102],
[27.9719,56.1204],
[28.0088,56.1267],
[28.0446,56.1188],
[28.045,56.1289],
[28.0684,56.1403],
[28.0932,56.1365],
[28.0951,56.1503],
[28.1135,56.1625],
[28.1513,56.1702],
[28.1783,56.1791],
[28.1866,56.2002],
[28.1748,56.2048],
[28.204,56.2146],
[28.1876,56.2194],
[28.1854,56.2303],
[28.218,56.2484],
[28.2415,56.2787],
[28.2062,56.3227],
[28.194,56.3579],
[28.1632,56.3795],
[28.1946,56.4053],
[28.1825,56.428],
[28.1948,56.4412],
[28.1926,56.4488],
[28.1755,56.4541],
[28.1294,56.4907],
[28.1253,56.4975],
[28.1375,56.5082],
[28.1259,56.516],
[28.0947,56.5111],
[28.0924,56.5297],
[28.1055,56.5431],
[28.1411,56.5517],
[28.1372,56.5644],
[28.1435,56.5718],
[28.1274,56.5821],
[28.0431,56.5904],
[28.0388,56.6082],
[28.0114,56.6367],
[28.0125,56.6725],
[27.9948,56.6888],
[27.9786,56.6886],
[27.9805,56.7071],
[27.9626,56.7068],
[27.9178,56.7335],
[27.914,56.7504],
[27.9024,56.7465],
[27.9006,56.7599],
[27.9152,56.7733],
[27.9447,56.7768],
[27.9441,56.8027],
[27.9766,56.8117],
[27.9698,56.8206],
[27.9763,56.8249],
[27.966,56.8269],
[27.9713,56.8322],
[27.9649,56.8378],
[28.0144,56.9101],
[28.0948,57.0273],
[28.0124,57.3917],
[27.7295,57.591],
[27.6952,57.5836],
[27.667,57.5926],
[27.668,57.5989],
[27.6117,57.6305],
[27.4699,57.6294],
[27.4051,57.6124],
[27.3778,57.5961],
[27.3565,57.5978],
[27.3175,57.58],
[27.3259,57.5723],
[27.3516,57.5182],
[27.3506,57.5177],
[27.258,57.5508],
[27.1942,57.5506],
[27.1174,57.5621],
[27.089,57.5745],
[27.0558,57.5827],
[27.0346,57.5856],
[27.0439,57.5972],
[27.0305,57.6042],
[26.9742,57.6129],
[26.9697,57.6053],
[26.9453,57.6029],
[26.9395,57.6103],
[26.9505,57.6208],
[26.9093,57.6333],
[26.8653,57.6171],
[26.8575,57.6103],
[26.8636,57.6088],
[26.8629,57.5939],
[26.8365,57.5834],
[26.7994,57.5823],
[26.784,57.5761],
[26.773,57.5597],
[26.7534,57.5635],
[26.7727,57.575],
[26.7383,57.5877],
[26.7287,57.5805],
[26.7376,57.5755],
[26.7304,57.57],
[26.6717,57.5656],
[26.6704,57.5541],
[26.6471,57.554],
[26.6146,57.5293],
[26.6166,57.5093],
[26.5886,57.5172],
[26.5889,57.5366],
[26.583,57.5392],
[26.5613,57.5284],
[26.5662,57.5195],
[26.5574,57.5139],
[26.4998,57.5245],
[26.4695,57.5756],
[26.4016,57.5722],
[26.345,57.5841],
[26.3351,57.5796],
[26.3123,57.5842],
[26.311,57.5931],
[26.2871,57.5917],
[26.255,57.614],
[26.2561,57.6214],
[26.2471,57.6209],
[26.254,57.6258],
[26.2407,57.6333],
[26.2462,57.6394],
[26.2316,57.6478],
[26.2432,57.6513],
[26.2396,57.6582],
[26.212,57.6659],
[26.2127,57.6792],
[26.1793,57.6875],
[26.1824,57.6916],
[26.2058,57.715],
[26.1429,57.7332],
[26.1351,57.752],
[26.0793,57.7666],
[26.05,57.7623],
[26.0205,57.772],
[26.0271,57.7747],
[26.0267,57.7796],
[26.0575,57.8472],
[26.0211,57.8466],
[26.0105,57.8579],
[25.9915,57.856],
[25.9619,57.8459],
[25.9317,57.8533],
[25.896,57.8507],
[25.8836,57.849],
[25.8859,57.8564],
[25.8757,57.865],
[25.8589,57.8572],
[25.8432,57.8606],
[25.8202,57.8649],
[25.7851,57.8992],
[25.7884,57.9046],
[25.7374,57.9242],
[25.7025,57.9032],
[25.6799,57.9045],
[25.6781,57.9123],
[25.6488,57.9166],
[25.646,57.9237],
[25.6387,57.9307],
[25.5804,57.9442],
[25.589,57.9528],
[25.5943,57.9596],
[25.5738,57.9739],
[25.5573,57.9604],
[25.5518,57.9722],
[25.5123,57.9695],
[25.5223,57.9743],
[25.5185,57.9801],
[25.4858,57.9748],
[25.4433,57.996],
[25.4668,58.0052],
[25.4083,58.0291],
[25.3721,58.0288],
[25.3187,58.0695],
[25.2868,58.0816],
[25.2649,58.0601],
[25.3038,58.0343],
[25.2971,58.0147],
[25.3024,58],
[25.2958,57.9998],
[25.3026,57.994],
[25.2828,57.9896],
[25.2563,57.9938],
[25.256,58.003],
[25.2304,58.0155],
[25.2461,58.0186],
[25.2198,58.0292],
[25.2173,58.0413],
[25.2283,58.0535],
[25.2175,58.0493],
[25.2162,58.0596],
[25.2055,58.0613],
[25.2166,58.0741],
[25.2065,58.0833],
[25.1995,58.0856],
[25.1912,58.076],
[25.1264,58.0794],
[25.1059,58.0778],
[25.1046,58.0663],
[25.0784,58.0663],
[25.0214,58.0183],
[24.9465,58.0085],
[24.8325,57.9728],
[24.8071,57.9903],
[24.7433,57.9812],
[24.7426,57.9651],
[24.7144,57.963],
[24.6897,57.9473],
[24.6748,57.9594],
[24.6447,57.959],
[24.6289,57.942],
[24.6166,57.943],
[24.5843,57.9618],
[24.5309,57.9469],
[24.5102,57.9347],
[24.5139,57.9306],
[24.4623,57.925],
[24.4461,57.9084],
[24.4595,57.9063],
[24.4521,57.8996],
[24.4595,57.88],
[24.4113,57.8645],
[24.4093,57.8717],
[24.3656,57.876],
[24.3532,57.8761],
[24.3074,57.8965],
[24.2783,57.9096],
[24.2382,57.8416],
[24.2398,57.8122],
[24.2534,57.7811],
[24.2451,57.6998],
[24.2706,57.6609],
[24.28,57.6189],
[24.2657,57.5494],
[24.2849,57.51],
[24.2842,57.4647],
[24.3141,57.3588],
[24.3062,57.3227],
[24.3205,57.2784],
[24.2685,57.2266],
[24.193,57.1951],
[24.1264,57.1526],
[24.0603,57.1271],
[23.9636,57.1057],
[23.9341,57.0887],
[23.9111,57.0637],
[23.7437,57.0232],
[23.657,57.0149],
[23.6034,57.0209],
[23.5774,57.061],
[23.5453,57.0794],
[23.4049,57.0908],
[23.3535,57.1078],
[23.3271,57.1277],
[23.324,57.1749],
[23.2705,57.245],
[23.2711,57.2783],
[23.2088,57.3851],
[23.1664,57.4082],
[23.0832,57.4219],
[23.0079,57.4482],
[22.9532,57.4924],
[22.8681,57.5426],
[22.731,57.5971],
[22.6886,57.6308],
[22.6654,57.6668],
[22.6644,57.6983],
[22.6917,57.7466],
[22.6933,57.7651],
[22.669,57.7919],
[22.6245,57.8061],
[22.5591,57.8049],
[22.4486,57.7838],
[21.9935,57.6545],
[21.785,57.6406],
[21.6837,57.6235],
[21.6378,57.6013],
[21.6097,57.5764],
[21.5128,57.4565],
[21.4483,57.4293],
[21.428,57.3897],
[21.3446,57.3192],
[21.3273,57.272],
[21.3304,57.0811],
[21.2928,57.0243],
[21.2561,57.0034],
[21.1921,56.9621],
[21.0549,56.903],
[20.9841,56.8638],
[20.9648,56.8332],
[20.969,56.7307],
[20.9668,56.6968],
[20.9493,56.6432],
[20.9151,56.5777],
[20.9004,56.5276],
[20.9119,56.4519],
[20.8851,56.3376]
]
]
]}
}
