{
"type": "Feature",
"properties": {"id":"ohm-r2693464","edge_precision":"unknown","ohm_relation":2693464,"ohm_version":67,"ohm_timestamp":"2026-09-27T06:58:26Z"},
"geometry": {"type": "MultiPolygon", "coordinates": [
[
[
[20.2638,46.1181],
[20.283,46.1174],
[20.2646,46.1094],
[20.2734,46.0982],
[20.3022,46.0866],
[20.3093,46.072],
[20.346,46.0474],
[20.3406,46.0363],
[20.3578,46.0056],
[20.348,45.9997],
[20.4054,45.9652],
[20.4474,45.9702],
[20.4831,45.9535],
[20.5159,45.8922],
[20.5694,45.9102],
[20.5814,45.8694],
[20.6117,45.864],
[20.6604,45.8292],
[20.6507,45.8118],
[20.6628,45.7941],
[20.6814,45.7973],
[20.6929,45.7599],
[20.714,45.7489],
[20.7327,45.7559],
[20.7741,45.7545],
[20.7835,45.7859],
[20.8231,45.775],
[20.8175,45.7521],
[20.8026,45.7378],
[20.7961,45.6871],
[20.803,45.682],
[20.8049,45.6572],
[20.7657,45.6125],
[20.7719,45.5829],
[20.7953,45.5875],
[20.8325,45.5359],
[20.8072,45.5158],
[20.7688,45.5003],
[20.7771,45.4906],
[20.7711,45.4799],
[20.833,45.48],
[20.8663,45.465],
[20.8809,45.4462],
[20.8717,45.4458],
[20.8752,45.4385],
[20.8648,45.4319],
[20.9003,45.417],
[20.9203,45.4173],
[20.9355,45.393],
[20.9312,45.3868],
[20.9484,45.3856],
[20.9603,45.3668],
[21.01,45.3413],
[21.0165,45.3246],
[21.0636,45.3319],
[21.0612,45.3158],
[21.081,45.3178],
[21.0965,45.2957],
[21.1446,45.3048],
[21.162,45.3251],
[21.1665,45.3196],
[21.1762,45.3251],
[21.1837,45.3208],
[21.18,45.3126],
[21.1913,45.2868],
[21.2088,45.2753],
[21.2029,45.2655],
[21.219,45.2506],
[21.2755,45.2294],
[21.2927,45.2427],
[21.3393,45.2356],
[21.3599,45.2222],
[21.3953,45.2189],
[21.4031,45.2292],
[21.4388,45.2029],
[21.4839,45.1903],
[21.4931,45.1732],
[21.5148,45.1711],
[21.5264,45.1527],
[21.5273,45.1379],
[21.4783,45.1213],
[21.4697,45.1045],
[21.4834,45.0913],
[21.4476,45.0576],
[21.4561,45.0404],
[21.4258,45.0351],
[21.4123,45.0364],
[21.4038,45.0338],
[21.3853,45.0286],
[21.3812,45.0272],
[21.3603,45.0204],
[21.4146,44.9868],
[21.4067,44.9785],
[21.4382,44.9605],
[21.4692,44.9585],
[21.5197,44.938],
[21.5466,44.9306],
[21.5504,44.9167],
[21.5583,44.9014],
[21.5602,44.8891],
[21.4855,44.8684],
[21.4469,44.874],
[21.4434,44.8665],
[21.4178,44.8735],
[21.4054,44.8662],
[21.3712,44.8666],
[21.3579,44.8499],
[21.3621,44.84],
[21.3532,44.841],
[21.3642,44.8296],
[21.3583,44.8222],
[21.3791,44.814],
[21.3911,44.7837],
[21.4012,44.7773],
[21.5407,44.772],
[21.5869,44.7589],
[21.6151,44.7164],
[21.6119,44.6835],
[21.6367,44.6596],
[21.6887,44.6653],
[21.7271,44.6534],
[21.7904,44.6634],
[21.8142,44.6504],
[21.9169,44.6475],
[21.9522,44.6349],
[21.9933,44.6325],
[22.0045,44.6079],
[22.0258,44.5929],
[22.0254,44.5689],
[22.036,44.5489],
[22.07,44.5285],
[22.0756,44.5056],
[22.1389,44.4735],
[22.1689,44.4751],
[22.1864,44.4843],
[22.195,44.5095],
[22.2305,44.5613],
[22.2645,44.596],
[22.2747,44.6264],
[22.3003,44.6403],
[22.3034,44.6553],
[22.3283,44.6735],
[22.3791,44.6749],
[22.4284,44.7122],
[22.4642,44.717],
[22.4797,44.711],
[22.5713,44.6358],
[22.627,44.614],
[22.6757,44.6184],
[22.6858,44.6076],
[22.7095,44.6014],
[22.7619,44.5566],
[22.7601,44.5372],
[22.6962,44.5161],
[22.6267,44.5503],
[22.5867,44.5503],
[22.5644,44.5356],
[22.5498,44.4819],
[22.5208,44.4719],
[22.4692,44.4803],
[22.4571,44.4718],
[22.468,44.4408],
[22.5015,44.4174],
[22.5031,44.3825],
[22.5259,44.3372],
[22.5637,44.3057],
[22.6466,44.2935],
[22.6791,44.2798],
[22.6864,44.2585],
[22.6725,44.2271],
[22.6763,44.2155],
[22.6951,44.2053],
[22.7518,44.1981],
[22.809,44.1561],
[22.869,44.1343],
[22.9192,44.1023],
[23.0026,44.0955],
[23.0403,44.0798],
[23.0479,44.0606],
[23.0112,44.0136],
[22.895,43.9927],
[22.8797,43.9808],
[22.8373,43.8832],
[22.8439,43.8604],
[22.8668,43.8389],
[22.9811,43.8089],
[23.0755,43.7979],
[23.1317,43.8062],
[23.2707,43.8493],
[23.4176,43.8532],
[23.5114,43.8334],
[23.5567,43.8063],
[23.6121,43.7932],
[23.6985,43.8044],
[23.755,43.7999],
[23.7725,43.7824],
[23.8649,43.7556],
[23.9858,43.7414],
[24.0627,43.7189],
[24.0881,43.7024],
[24.1746,43.6831],
[24.3112,43.701],
[24.349,43.6977],
[24.4081,43.737],
[24.5125,43.7654],
[24.6254,43.7428],
[24.6988,43.6969],
[24.7291,43.6863],
[24.7512,43.6874],
[24.8052,43.7111],
[24.8761,43.7073],
[24.9625,43.7312],
[25.0076,43.7248],
[25.0539,43.6927],
[25.0925,43.6857],
[25.1722,43.6998],
[25.2494,43.6847],
[25.2867,43.6561],
[25.3515,43.6273],
[25.3901,43.6195],
[25.4482,43.6278],
[25.5097,43.6481],
[25.5644,43.6457],
[25.667,43.6903],
[25.7331,43.6928],
[25.7811,43.7109],
[25.8103,43.7455],
[25.8459,43.7563],
[25.8853,43.7843],
[25.8914,43.8006],
[25.9395,43.8516],
[26.0497,43.9069],
[26.1132,43.9745],
[26.1476,43.9853],
[26.1968,43.984],
[26.305,44.0279],
[26.3614,44.04],
[26.3762,44.0195],
[26.3962,43.9496],
[26.4314,43.9533],
[26.4648,43.9468],
[26.4916,43.925],
[26.5457,43.9449],
[26.5683,43.937],
[26.586,43.919],
[26.6172,43.8694],
[26.7355,43.8449],
[26.7674,43.8072],
[26.7751,43.8193],
[26.8081,43.8264],
[26.8222,43.8422],
[26.8372,43.8437],
[26.8598,43.8062],
[26.9031,43.7755],
[26.9033,43.753],
[26.9133,43.7414],
[26.9313,43.75],
[27.0008,43.6996],
[27.0704,43.7283],
[27.1289,43.6538],
[27.1917,43.6796],
[27.2562,43.6353],
[27.2769,43.6049],
[27.3059,43.5949],
[27.3856,43.6094],
[27.4088,43.5986],
[27.4189,43.5712],
[27.4585,43.5627],
[27.4884,43.5321],
[27.495,43.508],
[27.5199,43.4992],
[27.5779,43.5185],
[27.5883,43.5378],
[27.6038,43.5419],
[27.6382,43.5059],
[27.678,43.4789],
[27.7151,43.4733],
[27.7409,43.4568],
[27.8087,43.3877],
[27.8677,43.3654],
[27.9338,43.3943],
[27.9655,43.3928],
[28.0135,43.3531],
[28.1277,43.3484],
[28.1301,43.3466],
[28.1605,43.3621],
[28.2288,43.3608],
[28.3142,43.3786],
[28.3615,43.3698],
[28.4168,43.347],
[28.4446,43.3252],
[28.4768,43.3228],
[28.505,43.3343],
[28.5331,43.3784],
[28.5634,43.3937],
[28.6001,43.4281],
[28.6535,43.5114],
[28.656,43.5601],
[28.6226,43.6026],
[28.6317,43.6425],
[28.6178,43.6774],
[28.6295,43.6957],
[28.6321,43.7388],
[28.6322,43.7665],
[28.6535,43.7912],
[28.6444,43.8217],
[28.66,43.8427],
[28.66,43.8738],
[28.6848,43.9084],
[28.6917,43.9402],
[28.7207,43.9847],
[28.7012,44.0511],
[28.7389,44.0698],
[28.7606,44.1018],
[28.7515,44.133],
[28.7183,44.1717],
[28.7016,44.2256],
[28.6783,44.2463],
[28.6771,44.2843],
[28.7105,44.2843],
[28.7388,44.2994],
[28.7549,44.3545],
[28.9,44.489],
[29.0129,44.6348],
[29.1186,44.7196],
[29.175,44.7414],
[29.2577,44.76],
[29.4113,44.7754],
[29.4288,44.7524],
[29.4528,44.7401],
[29.4928,44.7336],
[29.5356,44.7392],
[29.5801,44.7587],
[29.6152,44.7859],
[29.6565,44.8322],
[29.6703,44.8682],
[29.7052,45.0872],
[29.7222,45.1178],
[29.7631,45.1517],
[29.76,45.1861],
[29.8001,45.2012],
[29.8128,45.2229],
[29.7918,45.2641],
[29.8166,45.3248],
[29.8089,45.4052],
[29.8282,45.4238],
[29.8353,45.4431],
[29.8364,45.4601],
[29.8243,45.4809],
[29.8024,45.4923],
[29.7954,45.5126],
[29.7688,45.5282],
[29.7266,45.5273],
[29.7097,45.5187],
[29.7472,45.5471],
[30.0976,45.7478],
[30.201,45.8039],
[30.2757,45.8482],
[30.3947,45.9597],
[30.5171,46.0521],
[30.5142,46.0533],
[30.4699,46.0762],
[30.4635,46.0786],
[30.4548,46.1142],
[30.3909,46.1946],
[30.3793,46.2195],
[30.2694,46.2649],
[30.2723,46.302],
[30.2921,46.3251],
[30.2847,46.3406],
[30.2999,46.3475],
[30.2883,46.3709],
[30.2723,46.3741],
[30.2607,46.3879],
[30.2554,46.3992],
[30.2611,46.414],
[30.2456,46.429],
[30.2182,46.444],
[30.1928,46.4456],
[30.1869,46.4338],
[30.1685,46.435],
[30.1747,46.4213],
[30.1697,46.4141],
[30.1532,46.4293],
[30.1446,46.4135],
[30.1301,46.4124],
[30.1355,46.4167],
[30.125,46.4251],
[30.1026,46.4326],
[30.0915,46.44],
[30.098,46.4273],
[30.0813,46.4347],
[30.0774,46.4239],
[30.0565,46.4278],
[30.0642,46.4427],
[30.0228,46.442],
[30.0254,46.4536],
[29.9937,46.4628],
[30.0232,46.4688],
[29.9952,46.4732],
[29.9894,46.485],
[30.001,46.4961],
[29.9876,46.494],
[29.9925,46.5013],
[29.9869,46.51],
[29.9829,46.4993],
[29.971,46.5017],
[29.9607,46.4905],
[29.9529,46.4903],
[29.9647,46.5054],
[29.9612,46.51],
[29.9372,46.4935],
[29.9432,46.502],
[29.9246,46.5027],
[29.9263,46.5133],
[29.9057,46.5147],
[29.9143,46.5216],
[29.8956,46.5277],
[29.903,46.5325],
[29.887,46.5473],
[29.879,46.5424],
[29.8728,46.5546],
[29.895,46.5557],
[29.8597,46.5683],
[29.8742,46.5695],
[29.8635,46.5742],
[29.8779,46.5794],
[29.8769,46.5863],
[29.8707,46.5875],
[29.869,46.5783],
[29.8494,46.5898],
[29.8271,46.5823],
[29.8402,46.5955],
[29.8292,46.6016],
[29.8148,46.5863],
[29.8164,46.6012],
[29.8001,46.6045],
[29.8097,46.5881],
[29.7973,46.5943],
[29.7969,46.5825],
[29.7883,46.5792],
[29.7222,46.6016],
[29.7549,46.6157],
[29.7424,46.6253],
[29.7634,46.6209],
[29.7518,46.6306],
[29.779,46.6337],
[29.7586,46.6475],
[29.7755,46.6533],
[29.7552,46.6484],
[29.7646,46.6655],
[29.7598,46.6693],
[29.7423,46.6651],
[29.7258,46.6717],
[29.727,46.6613],
[29.7186,46.6573],
[29.6986,46.6657],
[29.6979,46.6788],
[29.6884,46.6719],
[29.665,46.6766],
[29.6951,46.7118],
[29.6895,46.7341],
[29.6834,46.7404],
[29.6737,46.7349],
[29.6665,46.7558],
[29.6733,46.7778],
[29.6519,46.7913],
[29.6668,46.8073],
[29.6474,46.817],
[29.6473,46.8037],
[29.6338,46.8066],
[29.6313,46.8212],
[29.605,46.8145],
[29.5996,46.8201],
[29.6151,46.8313],
[29.6053,46.8337],
[29.5819,46.8246],
[29.5878,46.8013],
[29.5609,46.7964],
[29.5593,46.7762],
[29.5412,46.7965],
[29.5446,46.7798],
[29.5319,46.7782],
[29.4944,46.798],
[29.491,46.834],
[29.4992,46.8368],
[29.4893,46.8537],
[29.4816,46.8909],
[29.4651,46.9003],
[29.4678,46.9112],
[29.4717,46.918],
[29.474,46.9454],
[29.4443,46.9629],
[29.4217,46.9618],
[29.3897,46.9363],
[29.3609,46.9341],
[29.3198,46.9548],
[29.2939,46.9809],
[29.2925,46.9962],
[29.3003,46.9994],
[29.306,46.9984],
[29.2991,46.9879],
[29.3051,46.983],
[29.3145,46.9962],
[29.377,46.995],
[29.3547,47.0385],
[29.3611,47.0394],
[29.3634,47.0289],
[29.3848,47.0267],
[29.3889,47.0326],
[29.3794,47.0508],
[29.3916,47.0586],
[29.3687,47.0673],
[29.343,47.1061],
[29.3097,47.1031],
[29.2946,47.11],
[29.2962,47.1324],
[29.251,47.1624],
[29.2278,47.1684],
[29.2416,47.1591],
[29.2289,47.1442],
[29.2114,47.1616],
[29.1808,47.1586],
[29.1891,47.1183],
[29.1763,47.1045],
[29.1728,47.1239],
[29.1618,47.1256],
[29.1535,47.102],
[29.137,47.0969],
[29.1223,47.0747],
[29.1116,47.0787],
[29.1147,47.0874],
[29.0867,47.0908],
[29.0654,47.1089],
[29.104,47.1486],
[29.1432,47.1621],
[29.1803,47.2116],
[29.1488,47.2449],
[29.123,47.2779],
[29.0876,47.3146],
[29.072,47.3546],
[29.0922,47.3568],
[29.1308,47.3265],
[29.1606,47.3383],
[29.1612,47.3553],
[29.1473,47.3718],
[29.0757,47.4147],
[29.1188,47.4635],
[29.0977,47.4825],
[29.0275,47.5165],
[29.0179,47.5311],
[29.0285,47.5678],
[28.9846,47.6117],
[28.9971,47.65],
[28.9669,47.7205],
[28.9815,47.747],
[28.9945,47.8007],
[29.0241,47.8417],
[29.0214,47.8536],
[28.9886,47.8741],
[28.9265,47.8845],
[28.9056,47.8862],
[28.8262,47.9013],
[28.8192,47.9131],
[28.8354,47.9404],
[28.8035,47.9575],
[28.7885,47.9854],
[28.7532,47.9759],
[28.7241,47.9853],
[28.7012,48.006],
[28.7038,48.0214],
[28.6858,48.0267],
[28.5936,48.0347],
[28.5685,47.9956],
[28.5317,48.0028],
[28.5292,48.0115],
[28.5447,48.0368],
[28.5816,48.0442],
[28.5934,48.0646],
[28.6023,48.0773],
[28.6135,48.0653],
[28.6284,48.0671],
[28.6324,48.0863],
[28.5441,48.1179],
[28.5133,48.1209],
[28.4983,48.1148],
[28.4915,48.0774],
[28.501,48.0672],
[28.484,48.0688],
[28.4538,48.079],
[28.4217,48.1222],
[28.4397,48.1442],
[28.4334,48.1685],
[28.4161,48.1762],
[28.3851,48.1755],
[28.3564,48.1388],
[28.3296,48.1328],
[28.3066,48.1395],
[28.3057,48.1582],
[28.3548,48.1838],
[28.3697,48.2173],
[28.3593,48.2429],
[28.3357,48.2428],
[28.3233,48.2333],
[28.3031,48.2413],
[28.2193,48.2062],
[28.1884,48.213],
[28.1822,48.2331],
[28.1868,48.2512],
[28.1799,48.255],
[28.1445,48.2626],
[28.1365,48.246],
[28.1104,48.2326],
[28.0824,48.2377],
[28.0797,48.2506],
[28.0934,48.2937],
[28.0805,48.3123],
[28.0589,48.3232],
[27.9642,48.325],
[27.9056,48.3542],
[27.8821,48.373],
[27.8783,48.3852],
[27.8735,48.405],
[27.8222,48.4187],
[27.8018,48.4362],
[27.751,48.4577],
[27.6873,48.4416],
[27.6423,48.4419],
[27.5891,48.4634],
[27.6026,48.4891],
[27.5814,48.4911],
[27.5338,48.47],
[27.5111,48.4747],
[27.4787,48.5073],
[27.4833,48.5284],
[27.4754,48.5566],
[27.4406,48.6065],
[27.3611,48.6306],
[27.3374,48.6067],
[27.3175,48.601],
[27.2825,48.622],
[27.261,48.6239],
[27.2444,48.6119],
[27.26,48.5804],
[27.248,48.5675],
[27.1656,48.5826],
[27.1088,48.5571],
[27.0919,48.5568],
[26.997,48.5734],
[26.9862,48.5916],
[26.9776,48.591],
[26.9661,48.5775],
[26.9234,48.5765],
[26.9069,48.5524],
[26.8841,48.5432],
[26.8398,48.5588],
[26.8207,48.581],
[26.8259,48.6057],
[26.8053,48.6102],
[26.7799,48.6007],
[26.7977,48.5507],
[26.7613,48.5489],
[26.751,48.5775],
[26.7352,48.5866],
[26.7222,48.5816],
[26.7414,48.568],
[26.7414,48.5412],
[26.7174,48.5302],
[26.6635,48.5603],
[26.6233,48.5573],
[26.6285,48.5396],
[26.6697,48.5434],
[26.717,48.4989],
[26.6975,48.4861],
[26.6147,48.5066],
[26.6243,48.4647],
[26.6158,48.4508],
[26.5649,48.4563],
[26.4891,48.5443],
[26.4435,48.5387],
[26.3938,48.5363],
[26.3569,48.5077],
[26.3214,48.5169],
[26.3061,48.5081],
[26.2735,48.5396],
[26.1938,48.5248],
[26.1698,48.5289],
[26.1471,48.5443],
[26.1454,48.5977],
[26.12,48.6195],
[26.1059,48.6179],
[26.0956,48.5993],
[26.1045,48.5918],
[26.1032,48.5821],
[26.1221,48.5716],
[26.1289,48.555],
[26.12,48.5448],
[26.0936,48.5385],
[26.0615,48.5694],
[26.0437,48.5876],
[26.064,48.6035],
[26.0636,48.6122],
[26.0591,48.6192],
[26.0605,48.6293],
[26.0551,48.6461],
[26.0455,48.6491],
[26.0314,48.6432],
[26.0273,48.617],
[26.0224,48.6116],
[25.9727,48.6211],
[25.9338,48.5915],
[25.9059,48.587],
[25.8749,48.6001],
[25.8487,48.5974],
[25.8549,48.62],
[25.8057,48.6653],
[25.7828,48.6754],
[25.7589,48.6662],
[25.7382,48.633],
[25.7266,48.637],
[25.711,48.6631],
[25.6406,48.6696],
[25.5854,48.6352],
[25.5896,48.5965],
[25.5874,48.5898],
[25.6022,48.5705],
[25.6,48.5424],
[25.6093,48.531],
[25.5981,48.4729],
[25.607,48.4598],
[25.6026,48.4461],
[25.6111,48.4195],
[25.6014,48.4133],
[25.6194,48.4131],
[25.6111,48.3982],
[25.6195,48.3839],
[25.6104,48.3782],
[25.5596,48.3818],
[25.5036,48.3993],
[25.4605,48.3925],
[25.4147,48.3957],
[25.3967,48.3936],
[25.3679,48.3881],
[25.3016,48.3638],
[25.2988,48.3605],
[25.2455,48.312],
[25.1849,48.2507],
[25.1433,48.2461],
[25.1059,48.2245],
[25.1194,48.2176],
[25.1146,48.209],
[25.1408,48.1935],
[25.1302,48.1785],
[25.083,48.1795],
[25.093,48.1619],
[25.0651,48.1568],
[25.063,48.1505],
[25.0725,48.1461],
[25.0684,48.1333],
[25.0406,48.1289],
[25.0375,48.1124],
[24.9954,48.1202],
[24.9842,48.1145],
[24.9799,48.11],
[24.9946,48.0867],
[24.9109,48.0258],
[24.9202,48.0091],
[24.9086,47.9962],
[24.9143,47.9682],
[24.9233,47.9648],
[24.9156,47.9623],
[24.9288,47.953],
[24.9191,47.9455],
[24.9573,47.9201],
[24.9604,47.9033],
[24.945,47.8972],
[24.9574,47.8789],
[24.985,47.8679],
[24.9816,47.86],
[24.9983,47.8568],
[24.9825,47.8263],
[24.9608,47.8085],
[24.9465,47.7937],
[24.9226,47.7342],
[24.9011,47.7335],
[24.8896,47.7304],
[24.8856,47.7307],
[24.8785,47.7526],
[24.8554,47.7657],
[24.8514,47.7749],
[24.8363,47.7797],
[24.8364,47.7941],
[24.8216,47.8062],
[24.8265,47.8208],
[24.7846,47.8245],
[24.7782,47.8374],
[24.7653,47.8395],
[24.7528,47.8298],
[24.7345,47.8439],
[24.7061,47.84],
[24.7023,47.8527],
[24.6707,47.8655],
[24.6658,47.8764],
[24.6739,47.8964],
[24.6526,47.9107],
[24.6517,47.9192],
[24.6351,47.9245],
[24.6285,47.948],
[24.597,47.9462],
[24.5831,47.9648],
[24.5629,47.9686],
[24.5524,47.9585],
[24.5272,47.9616],
[24.5131,47.9516],
[24.488,47.9555],
[24.4359,47.9704],
[24.394,47.9543],
[24.3816,47.9265],
[24.3564,47.9167],
[24.345,47.9145],
[24.3248,47.926],
[24.2798,47.9053],
[24.2556,47.9068],
[24.2281,47.8965],
[24.1965,47.9161],
[24.1654,47.9204],
[24.1387,47.9121],
[24.1117,47.915],
[24.0984,47.9366],
[24.0638,47.9532],
[24.0322,47.949],
[24.0073,47.9675],
[23.9807,47.9591],
[23.9783,47.9678],
[23.9564,47.9651],
[23.9399,47.9478],
[23.8834,47.944],
[23.8646,47.9318],
[23.8425,47.9431],
[23.8334,47.9676],
[23.8167,47.9758],
[23.819,47.9831],
[23.7768,47.9939],
[23.7214,47.9942],
[23.7164,47.9881],
[23.7081,47.9945],
[23.6674,47.984],
[23.615,48.0086],
[23.5654,48.0033],
[23.5181,47.9529],
[23.4938,47.9678],
[23.4499,47.9762],
[23.4337,47.9905],
[23.4174,47.9867],
[23.3995,48.0012],
[23.3321,48.0204],
[23.3307,48.0323],
[23.3388,48.0353],
[23.3339,48.0382],
[23.2879,48.0469],
[23.2767,48.0599],
[23.2921,48.0721],
[23.2696,48.0853],
[23.2676,48.1001],
[23.252,48.1009],
[23.2467,48.092],
[23.2177,48.0456],
[23.1098,48.0516],
[23.0981,48.0444],
[23.1092,48.0354],
[23.0897,48.0194],
[23.0981,48.0158],
[23.0899,48.0048],
[23.0658,48.0077],
[23.0137,47.9904],
[22.9925,48.0046],
[22.9442,48.0166],
[22.927,48.0191],
[22.9204,48.0069],
[22.8724,48.0262],
[22.8646,48.022],
[22.8657,48.0122],
[22.8361,47.9901],
[22.8427,47.9881],
[22.8407,47.981],
[22.8728,47.9747],
[22.8695,47.966],
[22.8928,47.9671],
[22.8961,47.9541],
[22.847,47.9081],
[22.8256,47.9077],
[22.793,47.891],
[22.7582,47.8935],
[22.7686,47.8786],
[22.7622,47.8671],
[22.773,47.8631],
[22.7769,47.8427],
[22.7515,47.8342],
[22.7127,47.8356],
[22.6802,47.7877],
[22.5864,47.7723],
[22.5495,47.7726],
[22.4814,47.8109],
[22.4479,47.8031],
[22.426,47.7505],
[22.4305,47.7411],
[22.3942,47.7476],
[22.357,47.7491],
[22.3173,47.766],
[22.3175,47.7433],
[22.2855,47.7293],
[22.2646,47.7311],
[22.259,47.698],
[22.2261,47.688],
[22.2222,47.6622],
[22.2033,47.6549],
[22.1899,47.6117],
[22.1701,47.5917],
[22.1513,47.5938],
[22.1281,47.598],
[22.1294,47.596],
[22.1064,47.5733],
[22.0937,47.5582],
[22.0792,47.5623],
[22.0553,47.5485],
[22.0714,47.538],
[22.0615,47.529],
[22.0454,47.5398],
[22.0316,47.5262],
[22.0231,47.5181],
[22.0159,47.5046],
[22.0074,47.4759],
[22.021,47.4545],
[22.0329,47.451],
[22.026,47.4424],
[22.0353,47.4274],
[22.0229,47.3906],
[22.0119,47.3757],
[21.9615,47.3812],
[21.9385,47.373],
[21.8787,47.2874],
[21.8878,47.2721],
[21.8517,47.2391],
[21.8468,47.2238],
[21.8582,47.2201],
[21.858,47.187],
[21.8175,47.1728],
[21.7914,47.124],
[21.7924,47.1064],
[21.7709,47.1089],
[21.7261,47.0985],
[21.7128,47.0826],
[21.7164,47.0748],
[21.6827,47.0457],
[21.6485,47.0405],
[21.6612,47.0204],
[21.6779,47.0184],
[21.689,47.0018],
[21.6793,46.998],
[21.6679,46.9702],
[21.6816,46.9649],
[21.6732,46.9537],
[21.658,46.956],
[21.6383,46.933],
[21.5987,46.9275],
[21.599,46.9092],
[21.6088,46.8984],
[21.6142,46.8865],
[21.6036,46.885],
[21.5968,46.8613],
[21.5202,46.8373],
[21.5185,46.7998],
[21.5091,46.7834],
[21.4832,46.7648],
[21.529,46.7323],
[21.5293,46.7207],
[21.5112,46.7118],
[21.4942,46.6867],
[21.473,46.6956],
[21.4512,46.6885],
[21.4301,46.6938],
[21.4381,46.6701],
[21.4557,46.667],
[21.4415,46.6515],
[21.4164,46.6425],
[21.41,46.6218],
[21.3656,46.6378],
[21.3534,46.6304],
[21.33,46.6316],
[21.3141,46.6176],
[21.3012,46.5908],
[21.3208,46.5829],
[21.3035,46.5643],
[21.2897,46.5443],
[21.2743,46.5407],
[21.2605,46.5019],
[21.2743,46.4764],
[21.2964,46.4762],
[21.3025,46.4685],
[21.3178,46.4507],
[21.2897,46.4151],
[21.2962,46.4066],
[21.2253,46.4136],
[21.2164,46.4018],
[21.2064,46.4032],
[21.1966,46.3708],
[21.1995,46.3477],
[21.1762,46.3356],
[21.1731,46.3184],
[21.1805,46.3041],
[21.1516,46.2976],
[21.1455,46.3047],
[21.1226,46.3009],
[21.1155,46.3017],
[21.1032,46.2623],
[21.0711,46.2539],
[21.066,46.2427],
[21.0367,46.2479],
[21.025,46.2665],
[21.0158,46.2632],
[20.9903,46.2595],
[20.9525,46.2648],
[20.9466,46.2792],
[20.9251,46.2763],
[20.9221,46.2619],
[20.8906,46.2714],
[20.8734,46.2874],
[20.8065,46.2763],
[20.7756,46.2759],
[20.7489,46.2507],
[20.7619,46.2045],
[20.7274,46.2074],
[20.7258,46.1965],
[20.7332,46.192],
[20.7251,46.188],
[20.7052,46.1613],
[20.6848,46.1451],
[20.653,46.1482],
[20.6479,46.1339],
[20.6355,46.1266],
[20.5506,46.1764],
[20.5016,46.1901],
[20.4919,46.1808],
[20.4952,46.1709],
[20.4591,46.1429],
[20.4263,46.1452],
[20.3975,46.1574],
[20.3685,46.1528],
[20.3556,46.1697],
[20.3126,46.1502],
[20.3092,46.1565],
[20.2969,46.1522],
[20.2643,46.1264],
[20.2638,46.1181]
]
]
]}
}
