{
"type": "Feature",
"properties": {"id":"ohm-r2695015","edge_precision":"unknown","ohm_relation":2695015,"ohm_version":119,"ohm_timestamp":"2026-09-21T01:30:33Z"},
"geometry": {"type": "MultiPolygon", "coordinates": [
[
[
[9.876,50.6431],
[9.8788,50.6347],
[9.9074,50.6401],
[9.9279,50.6296],
[9.9606,50.6292],
[9.9687,50.6413],
[9.9492,50.6642],
[10.0022,50.6767],
[10.0506,50.6737],
[10.0715,50.6514],
[10.0741,50.6432],
[10.083,50.6336],
[10.0813,50.6198],
[10.0593,50.6268],
[10.0373,50.6126],
[10.0473,50.6005],
[10.051,50.5632],
[10.0613,50.5567],
[10.0568,50.5546],
[10.0421,50.5339],
[10.0412,50.5165],
[10.0734,50.5269],
[10.0699,50.5354],
[10.0998,50.5552],
[10.1206,50.5647],
[10.1206,50.5643],
[10.1273,50.5595],
[10.1207,50.5558],
[10.1372,50.5428],
[10.1469,50.5434],
[10.1506,50.552],
[10.1508,50.5523],
[10.1772,50.5423],
[10.178,50.552],
[10.1984,50.5547],
[10.2045,50.5442],
[10.2205,50.5389],
[10.2314,50.5315],
[10.2303,50.511],
[10.2563,50.513],
[10.3012,50.494],
[10.3306,50.4936],
[10.3423,50.4831],
[10.3356,50.4662],
[10.3683,50.439],
[10.3819,50.4387],
[10.3716,50.4323],
[10.4039,50.4249],
[10.3845,50.406],
[10.3946,50.3948],
[10.4262,50.3936],
[10.4492,50.4032],
[10.459,50.3821],
[10.47,50.3744],
[10.4889,50.375],
[10.4957,50.3669],
[10.4918,50.3554],
[10.5139,50.359],
[10.5151,50.3502],
[10.5326,50.3646],
[10.5434,50.3639],
[10.5546,50.3569],
[10.5512,50.3441],
[10.5622,50.3379],
[10.6009,50.334],
[10.5932,50.3068],
[10.6051,50.2935],
[10.5915,50.2698],
[10.6037,50.2719],
[10.5987,50.2631],
[10.6114,50.2497],
[10.5987,50.2457],
[10.6124,50.224],
[10.6597,50.2311],
[10.6576,50.2239],
[10.6868,50.226],
[10.6959,50.2126],
[10.7235,50.2046],
[10.7318,50.2129],
[10.729,50.2507],
[10.7687,50.2413],
[10.7822,50.2519],
[10.8013,50.2516],
[10.827,50.2378],
[10.8518,50.2514],
[10.8467,50.2762],
[10.8043,50.2797],
[10.8026,50.2919],
[10.7695,50.2931],
[10.7418,50.3159],
[10.7178,50.3205],
[10.7137,50.3338],
[10.7268,50.3367],
[10.7281,50.3463],
[10.7137,50.3477],
[10.7158,50.3654],
[10.7515,50.3577],
[10.7841,50.3853],
[10.8044,50.3801],
[10.8301,50.3932],
[10.8607,50.3877],
[10.876,50.3967],
[10.8879,50.3929],
[10.8921,50.3805],
[10.9369,50.3923],
[10.9623,50.3771],
[10.9577,50.3688],
[10.9852,50.348],
[10.9988,50.3511],
[10.9934,50.3652],
[11.034,50.3605],
[11.0428,50.3522],
[11.0304,50.3514],
[11.0433,50.3449],
[11.0865,50.3518],
[11.0872,50.3644],
[11.1152,50.3673],
[11.1168,50.3492],
[11.1387,50.3535],
[11.1594,50.3305],
[11.1321,50.3121],
[11.1326,50.3002],
[11.1451,50.2857],
[11.1844,50.281],
[11.1753,50.2696],
[11.1893,50.2707],
[11.1982,50.2916],
[11.249,50.2669],
[11.2622,50.2749],
[11.2514,50.2988],
[11.2703,50.3068],
[11.2558,50.322],
[11.2618,50.3376],
[11.2775,50.3363],
[11.2627,50.352],
[11.2847,50.3601],
[11.277,50.3804],
[11.2646,50.3874],
[11.2701,50.394],
[11.2582,50.3995],
[11.2691,50.4199],
[11.2636,50.4428],
[11.2463,50.4499],
[11.2551,50.4564],
[11.245,50.4707],
[11.2488,50.4794],
[11.2897,50.4846],
[11.2909,50.4751],
[11.301,50.4878],
[11.3212,50.4889],
[11.3236,50.5094],
[11.3463,50.5155],
[11.3461,50.5214],
[11.3707,50.5231],
[11.4337,50.5095],
[11.4392,50.4953],
[11.4198,50.4943],
[11.4254,50.4839],
[11.4174,50.4819],
[11.4205,50.4435],
[11.4515,50.4303],
[11.4436,50.4206],
[11.4625,50.4318],
[11.482,50.4315],
[11.4883,50.4167],
[11.4787,50.4011],
[11.519,50.3956],
[11.5207,50.374],
[11.5616,50.3843],
[11.5726,50.4001],
[11.5928,50.4027],
[11.6254,50.3872],
[11.6829,50.3929],
[11.7022,50.4022],
[11.7134,50.3968],
[11.7323,50.4041],
[11.7439,50.4105],
[11.7634,50.4061],
[11.7523,50.4158],
[11.7739,50.4116],
[11.7789,50.4185],
[11.7975,50.4173],
[11.8179,50.4006],
[11.8264,50.4036],
[11.8189,50.3952],
[11.8248,50.3895],
[11.92,50.4244],
[11.9362,50.4221],
[11.9458,50.4111],
[11.9539,50.4075],
[11.9506,50.3941],
[11.9648,50.3997],
[11.9839,50.3896],
[11.9788,50.369],
[11.9843,50.3654],
[11.9737,50.3523],
[12.0143,50.3477],
[12.0483,50.324],
[12.0465,50.3309],
[12.08,50.327],
[12.0911,50.3324],
[12.0903,50.3244],
[12.101,50.3182],
[12.1051,50.3218],
[12.123,50.3158],
[12.1301,50.3185],
[12.1309,50.319],
[12.1632,50.3215],
[12.1761,50.3227],
[12.2009,50.3091],
[12.1963,50.2955],
[12.1977,50.2915],
[12.2002,50.2742],
[12.2364,50.2692],
[12.2538,50.271],
[12.2662,50.2589],
[12.2659,50.2502],
[12.2469,50.2572],
[12.2479,50.2564],
[12.2416,50.2508],
[12.2395,50.2475],
[12.2551,50.2367],
[12.257,50.2362],
[12.2641,50.2334],
[12.2939,50.221],
[12.2825,50.208],
[12.2851,50.2088],
[12.288,50.2031],
[12.2777,50.1995],
[12.2922,50.1762],
[12.2957,50.1747],
[12.335,50.172],
[12.3375,50.1729],
[12.3235,50.182],
[12.3383,50.1926],
[12.3365,50.1942],
[12.3233,50.2073],
[12.3267,50.2185],
[12.3345,50.217],
[12.3313,50.2424],
[12.3512,50.237],
[12.3566,50.2453],
[12.3505,50.2536],
[12.3613,50.2708],
[12.3617,50.2762],
[12.3689,50.2813],
[12.3756,50.2864],
[12.3824,50.289],
[12.4005,50.2949],
[12.4006,50.2976],
[12.4007,50.3187],
[12.398,50.3209],
[12.431,50.3227],
[12.4353,50.3331],
[12.4368,50.3348],
[12.4621,50.3525],
[12.4807,50.3472],
[12.4842,50.3472],
[12.4926,50.3559],
[12.4864,50.3708],
[12.5143,50.3971],
[12.5166,50.3974],
[12.5602,50.3999],
[12.5836,50.407],
[12.6156,50.4141],
[12.6168,50.4158],
[12.637,50.413],
[12.6382,50.4123],
[12.667,50.4143],
[12.7072,50.3973],
[12.7079,50.4084],
[12.7345,50.4323],
[12.7536,50.4376],
[12.7949,50.4494],
[12.7969,50.4467],
[12.8025,50.4394],
[12.8105,50.4309],
[12.8067,50.4433],
[12.819,50.4603],
[12.8932,50.4302],
[12.9159,50.4215],
[12.9192,50.42],
[12.9361,50.407],
[12.9405,50.4052],
[12.9482,50.4047],
[12.9415,50.411],
[12.9766,50.4177],
[12.9936,50.4305],
[13.0162,50.4437],
[13.0224,50.4516],
[13.0234,50.4545],
[13.0184,50.467],
[13.031,50.5089],
[13.0443,50.5106],
[13.0516,50.506],
[13.0592,50.5011],
[13.0997,50.5026],
[13.1325,50.5186],
[13.1367,50.5064],
[13.1758,50.5038],
[13.1862,50.5038],
[13.1937,50.5032],
[13.1951,50.5161],
[13.2183,50.5378],
[13.2268,50.5481],
[13.2226,50.5627],
[13.2363,50.5713],
[13.2331,50.5791],
[13.2523,50.5948],
[13.2787,50.593],
[13.2847,50.5841],
[13.2911,50.5749],
[13.3096,50.5789],
[13.3251,50.5827],
[13.3193,50.6019],
[13.3279,50.6083],
[13.3415,50.6126],
[13.3642,50.618],
[13.3778,50.6283],
[13.3711,50.6508],
[13.392,50.6465],
[13.4136,50.6205],
[13.4206,50.616],
[13.4625,50.6018],
[13.4785,50.6157],
[13.502,50.6337],
[13.5182,50.637],
[13.5234,50.6442],
[13.5259,50.6494],
[13.5139,50.6555],
[13.5406,50.6695],
[13.5405,50.6897],
[13.5252,50.7044],
[13.5397,50.7079],
[13.5437,50.7103],
[13.5867,50.713],
[13.6019,50.71],
[13.627,50.7159],
[13.6249,50.723],
[13.6517,50.7303],
[13.6605,50.7312],
[13.6651,50.7322],
[13.7076,50.7169],
[13.7124,50.7199],
[13.7083,50.7254],
[13.7281,50.7337],
[13.7468,50.7283],
[13.7583,50.7358],
[13.7862,50.7337],
[13.8256,50.7245],
[13.8575,50.7282],
[13.862,50.7428],
[13.8735,50.7401],
[13.8842,50.739],
[13.9028,50.753],
[13.8873,50.7702],
[13.9003,50.7848],
[13.8965,50.7892],
[13.9203,50.7897],
[13.9209,50.7893],
[13.9273,50.7886],
[13.9431,50.7916],
[13.9561,50.8006],
[13.9544,50.8076],
[13.9825,50.8152],
[13.9908,50.82],
[14.0035,50.8102],
[14.0312,50.8042],
[14.0396,50.8103],
[14.0444,50.8102],
[14.0491,50.8104],
[14.0785,50.8125],
[14.087,50.8251],
[14.115,50.8308],
[14.1294,50.8341],
[14.1493,50.8423],
[14.182,50.8491],
[14.2235,50.8591],
[14.227,50.8632],
[14.2362,50.8769],
[14.2334,50.8876],
[14.2344,50.8879],
[14.2452,50.8866],
[14.2674,50.8953],
[14.2893,50.886],
[14.3125,50.887],
[14.3269,50.8895],
[14.3491,50.8927],
[14.3488,50.9006],
[14.3566,50.8981],
[14.3571,50.8987],
[14.3599,50.8986],
[14.3883,50.9003],
[14.3891,50.9175],
[14.3947,50.919],
[14.4021,50.9239],
[14.4017,50.9241],
[14.397,50.9362],
[14.397,50.9364],
[14.3734,50.9383],
[14.3608,50.9414],
[14.3106,50.9549],
[14.3173,50.9581],
[14.3026,50.9653],
[14.3281,50.9731],
[14.3297,50.9822],
[14.3235,50.9854],
[14.3187,50.9854],
[14.318,50.9853],
[14.3091,50.9834],
[14.2925,50.9784],
[14.2586,50.9885],
[14.2611,50.9937],
[14.2687,51],
[14.2605,51.0088],
[14.282,51.0156],
[14.286,51.031],
[14.2738,51.0396],
[14.2883,51.0391],
[14.3017,51.055],
[14.3179,51.0547],
[14.3451,51.039],
[14.362,51.0453],
[14.374,51.0386],
[14.3827,51.0385],
[14.3918,51.0238],
[14.4052,51.0209],
[14.4178,51.0191],
[14.429,51.0228],
[14.4318,51.0234],
[14.4538,51.0359],
[14.4746,51.0265],
[14.4765,51.0251],
[14.4927,51.0234],
[14.4908,51.0436],
[14.491,51.0436],
[14.4965,51.0446],
[14.497,51.0449],
[14.4988,51.0464],
[14.5004,51.0465],
[14.5014,51.0461],
[14.505,51.0444],
[14.4986,51.0221],
[14.5095,51.0207],
[14.5325,51.0163],
[14.5398,51.0104],
[14.5348,51.0037],
[14.557,51.0072],
[14.56,51.0072],
[14.5881,50.9904],
[14.5991,50.9872],
[14.5982,50.9765],
[14.5922,50.9667],
[14.5962,50.9627],
[14.5605,50.9251],
[14.5819,50.9135],
[14.6035,50.9212],
[14.6043,50.9211],
[14.6473,50.9316],
[14.6519,50.9267],
[14.6503,50.9047],
[14.65,50.9047],
[14.6448,50.9027],
[14.6443,50.9024],
[14.6337,50.8873],
[14.6306,50.8816],
[14.6299,50.8809],
[14.6189,50.8578],
[14.6579,50.8495],
[14.6648,50.8492],
[14.6795,50.8432],
[14.7116,50.8382],
[14.7223,50.8221],
[14.7447,50.8295],
[14.7499,50.8243],
[14.7905,50.824],
[14.7929,50.82],
[14.8056,50.8398],
[14.8212,50.8593],
[14.8214,50.8595],
[14.8215,50.8603],
[14.8214,50.8632],
[14.8245,50.8667],
[14.8234,50.8706],
[14.8197,50.8852],
[14.8676,50.9175],
[14.8766,50.9322],
[14.8919,50.9358],
[14.9069,50.9723],
[14.9197,50.9754],
[14.9171,50.9946],
[14.929,50.9978],
[14.9355,51.0205],
[14.9478,51.0283],
[14.9485,51.0426],
[14.9646,51.0501],
[14.9626,51.056],
[14.9681,51.0717],
[14.9793,51.077],
[14.9765,51.0839],
[14.9839,51.0909],
[14.9784,51.1084],
[14.9815,51.1173],
[14.996,51.1208],
[14.9956,51.1362],
[14.9928,51.14],
[14.9906,51.1428],
[15.0007,51.1494],
[14.9931,51.1624],
[15.0048,51.1674],
[15.0048,51.1757],
[15.0062,51.1792],
[15.0081,51.1839],
[15.0048,51.1914],
[15.0142,51.1981],
[15.0076,51.2045],
[15.0179,51.2203],
[15.0164,51.2277],
[15.0378,51.244],
[15.0233,51.2506],
[15.0378,51.258],
[15.0419,51.2729],
[15.0343,51.2777],
[15.0334,51.2941],
[15.0137,51.301],
[15.0093,51.3167],
[14.9861,51.3294],
[14.9763,51.3571],
[14.9651,51.3612],
[14.9742,51.3639],
[14.9837,51.374],
[14.9686,51.3793],
[14.9583,51.3954],
[14.9691,51.3983],
[14.9586,51.41],
[14.9672,51.4167],
[14.9601,51.4325],
[14.9707,51.4324],
[14.9737,51.4426],
[14.9486,51.4717],
[14.9338,51.473],
[14.9189,51.4829],
[14.869,51.4857],
[14.8336,51.5025],
[14.7838,51.5185],
[14.7298,51.5308],
[14.7295,51.5494],
[14.7114,51.5629],
[14.7283,51.5768],
[14.7299,51.5817],
[14.7649,51.6075],
[14.7533,51.6279],
[14.7509,51.6519],
[14.7578,51.6613],
[14.7372,51.679],
[14.7365,51.6885],
[14.6702,51.7251],
[14.6561,51.7411],
[14.6631,51.7557],
[14.6521,51.7655],
[14.6515,51.7863],
[14.6333,51.8015],
[14.6067,51.8042],
[14.5904,51.8204],
[14.5903,51.8384],
[14.6055,51.8407],
[14.6041,51.8479],
[14.611,51.8447],
[14.6113,51.8573],
[14.645,51.8677],
[14.6625,51.8905],
[14.6928,51.9011],
[14.7053,51.9336],
[14.7125,51.9366],
[14.7213,51.952],
[14.7059,51.9747],
[14.7214,51.996],
[14.7165,52.0012],
[14.7483,52.0317],
[14.7458,52.0547],
[14.7589,52.0642],
[14.7265,52.0927],
[14.699,52.0983],
[14.6825,52.117],
[14.6805,52.1442],
[14.7055,52.1731],
[14.6855,52.1945],
[14.7044,52.2076],
[14.7134,52.2297],
[14.7155,52.2362],
[14.7052,52.243],
[14.6911,52.256],
[14.6009,52.272],
[14.5768,52.2878],
[14.5742,52.2953],
[14.5849,52.3041],
[14.5775,52.3199],
[14.5761,52.3215],
[14.5683,52.3251],
[14.5535,52.3507],
[14.5524,52.3769],
[14.5345,52.395],
[14.5466,52.4141],
[14.5469,52.4313],
[14.5779,52.4409],
[14.6196,52.4802],
[14.6349,52.4977],
[14.6146,52.5089],
[14.6065,52.5259],
[14.6043,52.5352],
[14.6156,52.5542],
[14.6395,52.5711],
[14.6124,52.5887],
[14.5946,52.6108],
[14.5636,52.6243],
[14.5536,52.6274],
[14.4675,52.6602],
[14.4424,52.6795],
[14.4369,52.6802],
[14.3759,52.7345],
[14.3519,52.7519],
[14.2867,52.7712],
[14.2139,52.8183],
[14.1336,52.827],
[14.1229,52.8416],
[14.1428,52.8634],
[14.1597,52.8884],
[14.1433,52.9327],
[14.1391,52.9513],
[14.1449,52.9625],
[14.1634,52.9654],
[14.1713,52.9755],
[14.2867,53.0183],
[14.3562,53.0654],
[14.3883,53.1427],
[14.3711,53.1552],
[14.3669,53.1715],
[14.3775,53.2018],
[14.4032,53.2083],
[14.4088,53.2235],
[14.4414,53.2543],
[14.4211,53.2764],
[14.4068,53.3087],
[14.4122,53.3295],
[14.4056,53.3471],
[14.3902,53.3538],
[14.3948,53.3758],
[14.3778,53.4021],
[14.3692,53.4343],
[14.3713,53.4562],
[14.3584,53.4576],
[14.3507,53.4961],
[14.3282,53.5029],
[14.3193,53.5307],
[14.3059,53.5431],
[14.3178,53.6178],
[14.2843,53.6345],
[14.2843,53.6588],
[14.2711,53.6666],
[14.2829,53.6746],
[14.2829,53.6833],
[14.2666,53.699],
[14.2738,53.7449],
[14.2666,53.7535],
[14.2833,53.7733],
[14.2665,53.7957],
[14.2118,53.8681],
[14.2154,53.8808],
[14.2058,53.9106],
[14.2076,53.9159],
[14.2264,53.9288],
[14.2421,53.9871],
[14.2406,53.9932],
[14.0547,54.1035],
[13.9714,54.1208],
[13.9109,54.1676],
[14.0035,54.2132],
[14.016,54.2379],
[14.0093,54.2657],
[13.9825,54.2922],
[13.9428,54.3047],
[13.8452,54.2948],
[13.8636,54.3353],
[13.8509,54.365],
[13.7957,54.3947],
[13.7607,54.429],
[13.6821,54.4595],
[13.7403,54.4829],
[13.7675,54.5098],
[13.774,54.5461],
[13.7569,54.5912],
[13.721,54.6158],
[13.6573,54.6351],
[13.5053,54.6326],
[13.5259,54.6688],
[13.521,54.6957],
[13.4939,54.7223],
[13.4543,54.7347],
[13.3712,54.7363],
[13.2475,54.722],
[13.194,54.7033],
[13.1405,54.6613],
[13.0674,54.6483],
[13.0132,54.6143],
[13.0052,54.5944],
[13.0064,54.5654],
[12.9736,54.5106],
[12.8674,54.4959],
[12.6678,54.4969],
[12.6297,54.5027],
[12.6057,54.5257],
[12.5684,54.5403],
[12.5237,54.5428],
[12.476,54.5339],
[12.4181,54.4993],
[12.378,54.4348],
[12.3404,54.4149],
[12.3152,54.3897],
[12.2723,54.3337],
[12.1499,54.2888],
[12.0778,54.2391],
[11.9825,54.2311],
[11.838,54.1983],
[11.7238,54.2075],
[11.6446,54.1975],
[11.5557,54.1518],
[11.4908,54.1345],
[11.4509,54.1044],
[11.4285,54.0762],
[11.3068,54.0306],
[11.2649,54.0404],
[11.2215,54.0634],
[11.1665,54.0693],
[11.0144,54.0571],
[10.9231,54.0294],
[10.9276,54.0271],
[10.9036,53.957],
[10.9096,53.946],
[10.8949,53.928],
[10.9604,53.9145],
[10.9662,53.9069],
[10.9104,53.8976],
[10.9018,53.9052],
[10.9117,53.9149],
[10.8856,53.9247],
[10.8483,53.905],
[10.8477,53.8969],
[10.8191,53.8935],
[10.802,53.8767],
[10.7726,53.8739],
[10.7638,53.8634],
[10.7478,53.8516],
[10.7539,53.8488],
[10.748,53.8338],
[10.7627,53.822],
[10.764,53.8097],
[10.7683,53.7996],
[10.7709,53.7982],
[10.7722,53.7895],
[10.7669,53.7799],
[10.7597,53.7648],
[10.7587,53.7476],
[10.8049,53.7399],
[10.8085,53.7241],
[10.8241,53.7114],
[10.8526,53.7056],
[10.8529,53.6999],
[10.8714,53.7018],
[10.8924,53.7044],
[10.9166,53.6992],
[10.9252,53.6938],
[10.9184,53.6899],
[10.9361,53.6875],
[10.9421,53.6734],
[10.9385,53.6658],
[10.9547,53.6587],
[10.9523,53.6469],
[10.9474,53.643],
[10.9274,53.6228],
[10.9179,53.5993],
[10.9236,53.5837],
[10.9113,53.5721],
[10.8623,53.5646],
[10.8268,53.5762],
[10.8323,53.5426],
[10.8186,53.5337],
[10.8183,53.5275],
[10.8216,53.5244],
[10.8134,53.5213],
[10.8239,53.5137],
[10.7863,53.5103],
[10.7846,53.5077],
[10.756,53.4834],
[10.7206,53.476],
[10.702,53.4783],
[10.6934,53.455],
[10.6694,53.4586],
[10.6352,53.4562],
[10.6276,53.4451],
[10.618,53.4253],
[10.6152,53.383],
[10.5991,53.3777],
[10.5949,53.3636],
[10.6433,53.3699],
[10.6502,53.3691],
[10.7015,53.37],
[10.737,53.3446],
[10.7407,53.3259],
[10.7311,53.3074],
[10.7609,53.2933],
[10.7835,53.2906],
[10.8113,53.278],
[10.8157,53.2621],
[10.8206,53.2586],
[10.842,53.2555],
[10.8621,53.2499],
[10.891,53.2356],
[10.9073,53.2307],
[10.9718,53.1981],
[10.9759,53.1959],
[11.0119,53.1826],
[11.0446,53.1594],
[11.0881,53.1397],
[11.1197,53.1571],
[11.1313,53.1661],
[11.1497,53.1678],
[11.1718,53.1566],
[11.1864,53.1352],
[11.2125,53.1443],
[11.2312,53.1411],
[11.259,53.1281],
[11.2662,53.122],
[11.2708,53.0993],
[11.3268,53.0622],
[11.3381,53.0555],
[11.3834,53.0642],
[11.4477,53.0785],
[11.4779,53.0649],
[11.5054,53.0488],
[11.5446,53.0524],
[11.5689,53.0399],
[11.578,53.0369],
[11.5978,53.0358],
[11.5755,53.0214],
[11.5673,53.0175],
[11.552,53.0047],
[11.5607,53.004],
[11.5566,52.9987],
[11.5129,53.0072],
[11.4927,52.9597],
[11.5053,52.9408],
[11.47,52.9387],
[11.439,52.9241],
[11.4101,52.9058],
[11.4013,52.9036],
[11.3841,52.9014],
[11.3139,52.8783],
[11.2952,52.8748],
[11.2908,52.889],
[11.2391,52.8794],
[11.2306,52.8914],
[11.2203,52.8975],
[11.1876,52.9006],
[11.1574,52.9058],
[11.1549,52.9064],
[11.1544,52.9019],
[11.1114,52.8955],
[11.093,52.8997],
[11.0961,52.9089],
[11.0987,52.9126],
[11.0916,52.9135],
[11.013,52.9099],
[10.9979,52.9105],
[10.9924,52.9061],
[10.9888,52.8859],
[10.974,52.8772],
[10.93,52.8533],
[10.8955,52.8561],
[10.8908,52.8458],
[10.8691,52.8554],
[10.8414,52.8522],
[10.8004,52.8504],
[10.7964,52.8437],
[10.7648,52.842],
[10.7647,52.8406],
[10.7717,52.8339],
[10.7639,52.8302],
[10.757,52.8199],
[10.7602,52.8081],
[10.7607,52.8064],
[10.7593,52.7958],
[10.7557,52.7834],
[10.7761,52.7546],
[10.7917,52.7478],
[10.788,52.735],
[10.7965,52.7143],
[10.8286,52.7171],
[10.8334,52.7035],
[10.9029,52.6326],
[10.925,52.615],
[10.9202,52.6102],
[10.9768,52.6243],
[10.9758,52.6067],
[10.9427,52.5906],
[10.9474,52.5825],
[10.9417,52.5797],
[10.9374,52.5673],
[10.9518,52.5425],
[11.0088,52.4965],
[10.9589,52.4975],
[10.9433,52.4923],
[10.9346,52.4715],
[10.9336,52.4604],
[10.9983,52.4114],
[11.0166,52.3987],
[11.0186,52.3971],
[11.0149,52.388],
[11.0219,52.3935],
[11.069,52.3765],
[11.0747,52.3727],
[11.067,52.3697],
[11.0681,52.3554],
[11.0579,52.3504],
[10.9835,52.3417],
[11.036,52.3103],
[11.0377,52.3019],
[11.0221,52.2969],
[11.0118,52.288],
[11.0287,52.2702],
[11.0425,52.2722],
[11.0516,52.2622],
[11.0597,52.2425],
[11.0797,52.2368],
[11.0861,52.2286],
[11.0751,52.2199],
[11.0317,52.2123],
[11.0246,52.2011],
[11.0135,52.1996],
[11.0141,52.1819],
[11.036,52.1717],
[11.0522,52.1726],
[11.0614,52.1684],
[11.0548,52.1605],
[11.0608,52.1533],
[11.0447,52.1438],
[11.0458,52.1355],
[11.0277,52.1303],
[11.0143,52.1252],
[10.9724,52.1061],
[10.9553,52.1055],
[10.9442,52.0996],
[10.9405,52.0962],
[10.9707,52.086],
[10.9648,52.0564],
[10.9563,52.0579],
[10.8808,52.0589],
[10.8038,52.0476],
[10.8019,52.0475],
[10.744,52.0488],
[10.7219,52.0498],
[10.6481,52.0417],
[10.6553,52.0246],
[10.6417,52.0231],
[10.639,52.0152],
[10.6227,52.0112],
[10.6272,52.0082],
[10.6002,52.0072],
[10.5909,52.014],
[10.5608,52.004],
[10.587,51.9742],
[10.606,51.9774],
[10.606,51.9687],
[10.6198,51.9669],
[10.6199,51.9576],
[10.6477,51.9597],
[10.6496,51.9578],
[10.6474,51.9535],
[10.6429,51.9529],
[10.6325,51.9496],
[10.6248,51.949],
[10.6138,51.9359],
[10.6164,51.9299],
[10.6128,51.9204],
[10.6251,51.9177],
[10.6402,51.9132],
[10.6498,51.9046],
[10.6489,51.8882],
[10.5768,51.8423],
[10.5883,51.8373],
[10.5778,51.8256],
[10.574,51.8108],
[10.5848,51.7931],
[10.5861,51.7876],
[10.5788,51.7818],
[10.5912,51.7674],
[10.6276,51.758],
[10.6358,51.7349],
[10.6679,51.7073],
[10.6727,51.6979],
[10.663,51.6911],
[10.6678,51.6701],
[10.6898,51.646],
[10.7017,51.641],
[10.6768,51.6384],
[10.6824,51.6289],
[10.659,51.6259],
[10.6391,51.6209],
[10.6489,51.6067],
[10.6336,51.6082],
[10.6322,51.602],
[10.6382,51.5844],
[10.6662,51.5758],
[10.6571,51.5582],
[10.6272,51.5707],
[10.6278,51.5718],
[10.6013,51.5794],
[10.5926,51.5748],
[10.5741,51.5631],
[10.5701,51.5633],
[10.519,51.5536],
[10.5062,51.5634],
[10.5036,51.5623],
[10.488,51.575],
[10.4349,51.5914],
[10.3693,51.5871],
[10.3785,51.5791],
[10.3785,51.5624],
[10.3638,51.5561],
[10.3722,51.5539],
[10.3675,51.543],
[10.3644,51.5411],
[10.344,51.5247],
[10.3303,51.5174],
[10.3179,51.514],
[10.3014,51.5075],
[10.2995,51.4937],
[10.2581,51.4853],
[10.2449,51.4838],
[10.2351,51.4715],
[10.217,51.47],
[10.2054,51.4873],
[10.1793,51.4671],
[10.1858,51.4624],
[10.1675,51.4444],
[10.152,51.4474],
[10.14,51.4395],
[10.152,51.4299],
[10.1106,51.4307],
[10.0801,51.4345],
[10.0729,51.4183],
[10.05,51.4354],
[10.0379,51.4199],
[10.0088,51.4197],
[10.0059,51.4087],
[9.9876,51.3982],
[9.9625,51.3925],
[9.9467,51.3815],
[9.9285,51.3753],
[9.9254,51.3538],
[9.9297,51.34],
[9.9446,51.3308],
[9.947,51.3208],
[9.9395,51.3087],
[9.9683,51.3004],
[9.9742,51.2867],
[9.978,51.2849],
[10.0043,51.287],
[10.0576,51.2769],
[10.0471,51.2537],
[10.0788,51.2428],
[10.0673,51.2301],
[10.073,51.2244],
[10.091,51.2264],
[10.1129,51.2153],
[10.1398,51.2196],
[10.1497,51.2062],
[10.1646,51.2124],
[10.1816,51.2081],
[10.1955,51.1925],
[10.2363,51.1872],
[10.229,51.1744],
[10.2068,51.1644],
[10.2005,51.1482],
[10.2095,51.1433],
[10.2038,51.1325],
[10.2093,51.1259],
[10.2066,51.1222],
[10.1975,51.1121],
[10.1851,51.1244],
[10.1792,51.1276],
[10.186,51.1384],
[10.1773,51.1416],
[10.1648,51.154],
[10.118,51.1398],
[10.1531,51.1183],
[10.1726,51.1184],
[10.1741,51.1108],
[10.1719,51.1052],
[10.1604,51.108],
[10.1656,51.0995],
[10.1438,51.0851],
[10.1552,51.0706],
[10.1404,51.0586],
[10.1848,51.0491],
[10.2143,51.0253],
[10.1928,51.0186],
[10.2054,51.0071],
[10.1913,50.9996],
[10.1333,50.9968],
[10.1268,51.0112],
[10.104,51.005],
[10.0492,51.0133],
[10.0305,51.0094],
[10.0212,50.9933],
[10.0194,50.9806],
[10.0411,50.9676],
[10.0319,50.9591],
[10.0631,50.9437],
[10.0295,50.9372],
[10.0247,50.9438],
[10.0135,50.9348],
[9.9909,50.9434],
[9.9501,50.9445],
[9.9566,50.9338],
[9.952,50.927],
[9.956,50.9223],
[9.9661,50.9339],
[9.992,50.9342],
[9.9683,50.9111],
[9.9859,50.9096],
[10.0138,50.9206],
[10.0512,50.9001],
[10.0447,50.8945],
[10.0588,50.89],
[10.0558,50.8801],
[10.0216,50.8645],
[10.0216,50.8479],
[10.0388,50.8533],
[10.0231,50.8307],
[10.0053,50.8377],
[9.9967,50.826],
[9.9913,50.8293],
[9.97,50.8299],
[9.9522,50.8215],
[9.9566,50.8096],
[9.9443,50.7999],
[9.9547,50.786],
[9.9493,50.7799],
[9.9538,50.7792],
[9.9435,50.7713],
[9.949,50.7791],
[9.9296,50.7773],
[9.9254,50.7674],
[9.92,50.7593],
[9.9393,50.7559],
[9.9415,50.7392],
[9.9352,50.724],
[9.9074,50.7031],
[9.9229,50.6943],
[9.8792,50.6704],
[9.8858,50.6546],
[9.876,50.6431]
],
[
[13.0884,52.4197],
[13.1231,52.4396],
[13.1093,52.4506],
[13.1125,52.459],
[13.1178,52.4772],
[13.1573,52.5017],
[13.1685,52.5093],
[13.1585,52.513],
[13.1432,52.5197],
[13.1414,52.5525],
[13.1442,52.5521],
[13.1535,52.5733],
[13.1496,52.5834],
[13.1487,52.5858],
[13.1356,52.5847],
[13.1368,52.5836],
[13.1437,52.5843],
[13.1446,52.582],
[13.1366,52.5802],
[13.1354,52.5801],
[13.1344,52.5799],
[13.1284,52.586],
[13.1285,52.5862],
[13.129,52.5873],
[13.1354,52.5874],
[13.1399,52.5891],
[13.1538,52.5957],
[13.1574,52.5941],
[13.1576,52.5957],
[13.1571,52.5977],
[13.1621,52.5985],
[13.1645,52.5988],
[13.1679,52.597],
[13.2068,52.5865],
[13.2169,52.5852],
[13.2173,52.5874],
[13.2017,52.6067],
[13.2205,52.6283],
[13.2412,52.6281],
[13.2642,52.627],
[13.2622,52.6406],
[13.2838,52.6411],
[13.2826,52.6606],
[13.294,52.6594],
[13.31,52.6575],
[13.3007,52.6539],
[13.3094,52.6428],
[13.3102,52.63],
[13.3026,52.6272],
[13.3441,52.6238],
[13.3669,52.6254],
[13.3763,52.6111],
[13.3758,52.6072],
[13.3604,52.5912],
[13.3474,52.5901],
[13.3882,52.5695],
[13.4035,52.5404],
[13.3658,52.5357],
[13.377,52.5126],
[13.3763,52.5098],
[13.3758,52.5084],
[13.3776,52.508],
[13.4293,52.5086],
[13.454,52.4976],
[13.4449,52.4946],
[13.4397,52.4903],
[13.4581,52.4858],
[13.47,52.4731],
[13.478,52.4657],
[13.4749,52.4588],
[13.4571,52.459],
[13.5207,52.4265],
[13.5241,52.4136],
[13.516,52.4018],
[13.4797,52.3959],
[13.468,52.42],
[13.4635,52.4211],
[13.4181,52.4089],
[13.4284,52.3865],
[13.4208,52.3761],
[13.3884,52.3779],
[13.3872,52.3885],
[13.3704,52.3884],
[13.3718,52.3939],
[13.3433,52.4118],
[13.3121,52.3991],
[13.2968,52.4163],
[13.2733,52.4046],
[13.2498,52.4051],
[13.2471,52.42],
[13.225,52.4211],
[13.1592,52.4028],
[13.1578,52.3963],
[13.1717,52.3957],
[13.1433,52.3967],
[13.1396,52.396],
[13.1389,52.396],
[13.1115,52.4041],
[13.1096,52.4129],
[13.0906,52.4116],
[13.09,52.4143],
[13.0884,52.4197]
],
[
[13.1283,52.3887],
[13.1293,52.3917],
[13.1304,52.3904],
[13.1283,52.3887]
],
[
[13.159,52.601],
[13.1643,52.6018],
[13.165,52.6012],
[13.1643,52.5998],
[13.1643,52.5993],
[13.162,52.599],
[13.1595,52.5993],
[13.159,52.601]
]
]
]}
}
