{
"type": "Feature",
"properties": {"id":"ohm-r2893390","edge_precision":"unknown","ohm_relation":2893390,"ohm_version":6,"ohm_timestamp":"2026-05-22T15:18:04Z"},
"geometry": {"type": "MultiPolygon", "coordinates": [
[
[
[80.0589,28.9158],
[80.0652,28.8368],
[80.0755,28.8237],
[80.1193,28.8276],
[80.1714,28.782],
[80.2161,28.7546],
[80.2544,28.7551],
[80.2657,28.7428],
[80.2567,28.729],
[80.2776,28.7109],
[80.294,28.7127],
[80.3169,28.7003],
[80.3256,28.6664],
[80.3581,28.6405],
[80.3777,28.6287],
[80.4154,28.6394],
[80.4351,28.6368],
[80.4623,28.6217],
[80.4693,28.5827],
[80.4795,28.5875],
[80.4989,28.57],
[80.5181,28.5522],
[80.5306,28.5721],
[80.5216,28.5762],
[80.5065,28.671],
[80.5397,28.6902],
[80.5692,28.6881],
[80.5905,28.6799],
[80.58,28.6606],
[80.5976,28.6561],
[80.5896,28.6471],
[80.5948,28.6486],
[80.6063,28.652],
[80.6111,28.6387],
[80.6413,28.6436],
[80.6517,28.6343],
[80.6674,28.6424],
[80.6795,28.6211],
[80.6771,28.6043],
[80.6958,28.6039],
[80.6903,28.588],
[80.7144,28.5686],
[80.7243,28.5754],
[80.7386,28.5658],
[80.7384,28.5751],
[80.7687,28.5659],
[80.7694,28.5501],
[80.7894,28.5434],
[80.7886,28.5243],
[80.8155,28.5207],
[80.8445,28.4957],
[80.8659,28.4894],
[80.8615,28.5045],
[80.8752,28.5109],
[80.8964,28.5071],
[80.9084,28.4979],
[80.9023,28.4784],
[80.9153,28.4576],
[80.9139,28.4683],
[80.9172,28.4599],
[80.9303,28.4575],
[80.9423,28.4688],
[80.9318,28.4586],
[80.9512,28.4556],
[80.9514,28.4473],
[80.9638,28.4493],
[80.9667,28.4571],
[80.9802,28.455],
[80.9643,28.4446],
[80.9645,28.4376],
[80.9786,28.434],
[80.9774,28.4424],
[80.9888,28.4413],
[80.9979,28.4521],
[81.0173,28.4507],
[81.013,28.4372],
[81.0197,28.4309],
[81.03,28.4386],
[81.0347,28.4276],
[81.0167,28.4158],
[81.0348,28.3992],
[81.0362,28.4132],
[81.0508,28.407],
[81.058,28.4139],
[81.0891,28.3858],
[81.2107,28.3607],
[81.2339,28.326],
[81.2328,28.2889],
[81.3207,28.1972],
[81.3212,28.1686],
[81.3016,28.1665],
[81.312,28.1557],
[81.3202,28.1601],
[81.328,28.148],
[81.3181,28.145],
[81.3165,28.1344],
[81.384,28.1471],
[81.3857,28.1527],
[81.37,28.1531],
[81.3836,28.1671],
[81.3752,28.1785],
[81.4256,28.1712],
[81.4451,28.1613],
[81.45,28.1406],
[81.4839,28.1186],
[81.4781,28.0826],
[81.6437,27.9932],
[81.6988,27.9877],
[81.8046,27.903],
[81.8332,27.8977],
[81.8847,27.8569],
[81.9254,27.8599],
[81.9259,27.8764],
[81.9679,27.9288],
[82.07,27.9233],
[82.1216,27.8655],
[82.1491,27.8582],
[82.1533,27.8668],
[82.2074,27.8435],
[82.3037,27.7737],
[82.3678,27.7434],
[82.3952,27.7096],
[82.4493,27.6797],
[82.4736,27.6773],
[82.5167,27.6913],
[82.5408,27.6858],
[82.605,27.7058],
[82.6189,27.7022],
[82.6645,27.7225],
[82.6662,27.7158],
[82.681,27.7136],
[82.6995,27.722],
[82.7056,27.7164],
[82.7085,27.723],
[82.7064,27.704],
[82.7188,27.6857],
[82.7126,27.6635],
[82.7306,27.6532],
[82.7295,27.6428],
[82.7378,27.6427],
[82.7354,27.6095],
[82.7538,27.5865],
[82.7466,27.5554],
[82.7372,27.5473],
[82.7493,27.5227],
[82.7363,27.5184],
[82.7354,27.5028],
[82.8021,27.4964],
[82.9292,27.5011],
[82.9543,27.4682],
[83.0365,27.449],
[83.1884,27.4539],
[83.2177,27.4175],
[83.2723,27.3834],
[83.2659,27.366],
[83.273,27.3531],
[83.295,27.3341],
[83.3179,27.3305],
[83.3183,27.3378],
[83.3382,27.3336],
[83.3601,27.3437],
[83.3594,27.3524],
[83.3744,27.359],
[83.3719,27.3694],
[83.3881,27.3757],
[83.3856,27.3902],
[83.4097,27.4126],
[83.385,27.4361],
[83.4025,27.4568],
[83.4025,27.4663],
[83.3893,27.471],
[83.3882,27.4794],
[83.6149,27.4693],
[83.8308,27.3699],
[83.8638,27.3442],
[83.8837,27.3738],
[83.831,27.4273],
[83.8481,27.4488],
[83.8698,27.4374],
[83.9159,27.4403],
[83.9342,27.4499],
[83.9496,27.4412],
[83.998,27.4463],
[84.0163,27.4372],
[84.0575,27.4558],
[84.0532,27.4625],
[84.067,27.482],
[84.0929,27.4904],
[84.0978,27.5167],
[84.108,27.5216],
[84.1261,27.5117],
[84.1516,27.517],
[84.1491,27.4862],
[84.2084,27.4687],
[84.2137,27.4414],
[84.2325,27.4557],
[84.2585,27.451],
[84.2812,27.414],
[84.2794,27.3947],
[84.2942,27.3824],
[84.3055,27.3883],
[84.354,27.3716],
[84.3761,27.3751],
[84.4396,27.3688],
[84.4702,27.3548],
[84.4854,27.36],
[84.6052,27.3359],
[84.6202,27.3393],
[84.6914,27.2149],
[84.6808,27.2004],
[84.6876,27.1798],
[84.6729,27.171],
[84.6877,27.1587],
[84.677,27.1338],
[84.6797,27.1139],
[84.6697,27.1095],
[84.6753,27.1085],
[84.674,27.0959],
[84.6461,27.0758],
[84.6428,27.0469],
[84.7571,27.0028],
[84.7747,27.0174],
[84.7886,27.0094],
[84.7865,26.9987],
[84.7935,26.9963],
[84.8119,27.0209],
[84.8291,27.0197],
[84.8555,27.0083],
[84.8495,26.997],
[84.8574,26.9979],
[84.8558,26.9864],
[84.8868,26.9779],
[84.8916,26.9699],
[84.9622,26.9606],
[84.9778,26.9377],
[84.9687,26.9157],
[84.9999,26.9118],
[85.0045,26.8951],
[85.0609,26.8869],
[85.0304,26.8753],
[85.0231,26.8552],
[85.0577,26.8494],
[85.0628,26.858],
[85.0636,26.8497],
[85.0767,26.8586],
[85.0835,26.8535],
[85.0868,26.8624],
[85.099,26.8712],
[85.1905,26.8702],
[85.1914,26.8315],
[85.1767,26.8097],
[85.206,26.7613],
[85.3079,26.7521],
[85.3344,26.7417],
[85.3548,26.7603],
[85.3749,26.7615],
[85.4077,26.7917],
[85.4542,26.7822],
[85.4778,26.7933],
[85.4794,26.8024],
[85.4953,26.7972],
[85.4977,26.8129],
[85.522,26.8165],
[85.5436,26.8381],
[85.566,26.8409],
[85.5757,26.8609],
[85.5846,26.8583],
[85.5857,26.8469],
[85.6241,26.8737],
[85.6352,26.8724],
[85.6427,26.8534],
[85.7045,26.8322],
[85.7293,26.8087],
[85.7341,26.7374],
[85.7232,26.6826],
[85.7257,26.6704],
[85.7367,26.6642],
[85.7324,26.6536],
[85.7697,26.6296],
[85.8016,26.6243],
[85.8175,26.6024],
[85.8303,26.6015],
[85.8309,26.6115],
[85.8508,26.6085],
[85.8578,26.5897],
[85.8499,26.5685],
[85.8876,26.5838],
[85.8917,26.5941],
[85.9282,26.6162],
[85.9472,26.6133],
[85.9593,26.6512],
[85.979,26.658],
[86.0091,26.6555],
[86.0273,26.6663],
[86.0694,26.6575],
[86.1183,26.6304],
[86.1378,26.6293],
[86.1361,26.6065],
[86.191,26.6149],
[86.196,26.5938],
[86.2182,26.5886],
[86.2343,26.5904],
[86.2505,26.6151],
[86.3431,26.6173],
[86.3409,26.6062],
[86.3969,26.5939],
[86.3952,26.5855],
[86.456,26.5678],
[86.4972,26.5427],
[86.542,26.5383],
[86.5704,26.4966],
[86.6135,26.4879],
[86.6318,26.4647],
[86.6925,26.4513],
[86.6999,26.4378],
[86.72,26.4349],
[86.7302,26.4225],
[86.7466,26.4286],
[86.7443,26.4353],
[86.7665,26.4588],
[86.8335,26.4393],
[86.861,26.4576],
[86.8935,26.4615],
[86.8931,26.488],
[86.9294,26.4898],
[86.9335,26.5154],
[87.0165,26.5318],
[87.0376,26.5612],
[87.0425,26.5875],
[87.0708,26.5865],
[87.0718,26.5407],
[87.0912,26.4508],
[87.1622,26.4045],
[87.1882,26.406],
[87.1843,26.4144],
[87.2113,26.4138],
[87.2184,26.4046],
[87.2354,26.4152],
[87.2588,26.4099],
[87.2652,26.406],
[87.2655,26.3736],
[87.2888,26.3739],
[87.3008,26.3662],
[87.3117,26.3718],
[87.3403,26.3477],
[87.3574,26.3613],
[87.3557,26.3887],
[87.368,26.4081],
[87.388,26.4192],
[87.4272,26.4221],
[87.4637,26.4402],
[87.5471,26.4182],
[87.5526,26.4055],
[87.5843,26.3934],
[87.5883,26.3817],
[87.6053,26.3809],
[87.6121,26.3902],
[87.6514,26.3934],
[87.6495,26.4059],
[87.6775,26.4157],
[87.6771,26.4356],
[87.7129,26.4274],
[87.7338,26.4077],
[87.7392,26.4175],
[87.7493,26.4179],
[87.7533,26.4085],
[87.7667,26.4109],
[87.779,26.4362],
[87.7742,26.45],
[87.7921,26.469],
[87.8291,26.4504],
[87.8284,26.4401],
[87.8481,26.4369],
[87.8628,26.4527],
[87.8586,26.4638],
[87.8859,26.4768],
[87.8884,26.4868],
[87.909,26.4598],
[87.8985,26.4492],
[87.9241,26.4468],
[87.9152,26.4322],
[87.9256,26.4286],
[87.9261,26.4187],
[87.9659,26.3975],
[87.9918,26.3927],
[87.9974,26.365],
[88.0262,26.3663],
[88.0344,26.3929],
[88.0685,26.415],
[88.0992,26.4561],
[88.0909,26.4687],
[88.1074,26.4786],
[88.1096,26.5025],
[88.0986,26.5131],
[88.1076,26.5337],
[88.0981,26.5475],
[88.1054,26.5511],
[88.1056,26.5604],
[88.1138,26.5588],
[88.1128,26.5723],
[88.1302,26.5733],
[88.1302,26.6008],
[88.1386,26.6056],
[88.1418,26.6246],
[88.1602,26.6368],
[88.1669,26.6994],
[88.1814,26.7199],
[88.1871,26.7714],
[88.1662,26.8487],
[88.1715,26.8667],
[88.1385,26.8975],
[88.1439,26.9212],
[88.121,26.9505],
[88.1331,26.9823],
[88.0911,27.0062],
[88.0799,27.0343],
[88.0399,27.0354],
[88.0176,27.0745],
[88.0218,27.0869],
[87.9917,27.1083],
[87.9936,27.13],
[88.0089,27.141],
[88.0194,27.1702],
[88.0148,27.2117],
[88.0316,27.2504],
[88.0328,27.2853],
[88.0448,27.293],
[88.0413,27.3033],
[88.053,27.324],
[88.0684,27.3351],
[88.0423,27.371],
[88.0478,27.4053],
[88.0753,27.4327],
[88.0673,27.4576],
[88.0463,27.4763],
[88.0443,27.4965],
[88.0609,27.5118],
[88.058,27.5199],
[88.0661,27.5285],
[88.0592,27.5363],
[88.0798,27.5642],
[88.0775,27.5789],
[88.1137,27.6097],
[88.1195,27.6439],
[88.1433,27.6626],
[88.1536,27.6891],
[88.1474,27.7027],
[88.1564,27.7363],
[88.1782,27.7465],
[88.1818,27.7757],
[88.198,27.7904],
[88.1732,27.8203],
[88.2027,27.8365],
[88.1963,27.854],
[88.135,27.8816],
[88.0957,27.8674],
[88.0835,27.896],
[88.0644,27.8865],
[88.0365,27.9047],
[88.0277,27.9059],
[88.0213,27.8968],
[88.0023,27.8983],
[87.9847,27.8861],
[87.932,27.9181],
[87.8877,27.9103],
[87.8653,27.9114],
[87.8539,27.9289],
[87.8572,27.9458],
[87.8314,27.953],
[87.8245,27.9204],
[87.8134,27.9216],
[87.7845,27.8995],
[87.7753,27.8781],
[87.7785,27.8661],
[87.766,27.8597],
[87.7533,27.8361],
[87.7436,27.8354],
[87.733,27.8095],
[87.6901,27.812],
[87.6653,27.807],
[87.6692,27.8359],
[87.6332,27.8334],
[87.6313,27.8238],
[87.6103,27.8108],
[87.6024,27.8206],
[87.5906,27.8197],
[87.5785,27.862],
[87.5521,27.8652],
[87.5381,27.8445],
[87.4893,27.8458],
[87.4518,27.8225],
[87.4026,27.8336],
[87.4299,27.8402],
[87.4253,27.8595],
[87.3741,27.8456],
[87.3607,27.8286],
[87.3519,27.8281],
[87.3171,27.8259],
[87.3043,27.8434],
[87.2883,27.8458],
[87.2591,27.8499],
[87.2389,27.84],
[87.2269,27.8209],
[87.1724,27.8213],
[87.116,27.8398],
[87.1078,27.8747],
[87.089,27.883],
[87.0792,27.916],
[87.0523,27.9274],
[87.0381,27.9503],
[87.0236,27.9499],
[87.0177,27.9579],
[86.9877,27.9509],
[86.983,27.949],
[86.9327,27.9616],
[86.9303,27.9777],
[86.9248,27.9878],
[86.889,27.9968],
[86.8623,28.0265],
[86.8511,28.0278],
[86.847,28.0181],
[86.8287,28.014],
[86.8017,28.0237],
[86.7903,28.019],
[86.7728,28.0393],
[86.7571,28.0358],
[86.7494,28.0509],
[86.763,28.0754],
[86.7516,28.0803],
[86.7486,28.0986],
[86.7378,28.1041],
[86.6886,28.1089],
[86.6654,28.1025],
[86.6497,28.0754],
[86.6073,28.0751],
[86.6046,28.1002],
[86.5678,28.1123],
[86.5584,28.0782],
[86.5662,28.0678],
[86.5496,28.0512],
[86.5333,28.048],
[86.5164,28.0023],
[86.5139,27.9571],
[86.4681,27.946],
[86.4698,27.9312],
[86.4421,27.9059],
[86.4114,27.9062],
[86.3736,27.9416],
[86.3482,27.9384],
[86.336,27.9658],
[86.3196,27.9482],
[86.2992,27.9599],
[86.2884,27.9779],
[86.2368,27.9741],
[86.2243,27.9846],
[86.2254,28.031],
[86.2043,28.0849],
[86.2089,28.0951],
[86.2222,28.0958],
[86.1864,28.1738],
[86.1742,28.1696],
[86.1775,28.1431],
[86.1415,28.126],
[86.1223,28.0931],
[86.0918,28.0977],
[86.0812,28.0906],
[86.0947,28.062],
[86.0811,28.0155],
[86.1036,27.9831],
[86.1086,27.9543],
[86.1245,27.9414],
[86.1247,27.9277],
[86.067,27.9118],
[86.0648,27.8998],
[86.0136,27.9147],
[86.0002,27.9116],
[85.9689,27.9316],
[85.9475,27.9417],
[85.9642,27.9736],
[85.9777,27.9879],
[85.9737,28.0009],
[85.9352,28.0229],
[85.9154,28.0511],
[85.9012,28.0531],
[85.896,28.0757],
[85.8995,28.1041],
[85.8895,28.1166],
[85.8703,28.1237],
[85.8715,28.1466],
[85.8512,28.167],
[85.8494,28.1833],
[85.8284,28.1848],
[85.8162,28.2026],
[85.8004,28.1974],
[85.7769,28.2087],
[85.7503,28.2365],
[85.733,28.2915],
[85.7372,28.318],
[85.7271,28.3281],
[85.7317,28.3371],
[85.7196,28.3607],
[85.7223,28.3728],
[85.712,28.3858],
[85.6836,28.3825],
[85.6869,28.3454],
[85.6665,28.3476],
[85.6657,28.3318],
[85.654,28.3161],
[85.6623,28.303],
[85.6267,28.2653],
[85.6064,28.2562],
[85.6002,28.3048],
[85.556,28.3117],
[85.5062,28.3334],
[85.4368,28.3346],
[85.4151,28.3269],
[85.4116,28.3087],
[85.3771,28.2781],
[85.3484,28.2877],
[85.3481,28.301],
[85.3411,28.3035],
[85.2729,28.2881],
[85.2691,28.2982],
[85.2548,28.2931],
[85.2408,28.318],
[85.204,28.3404],
[85.1828,28.3232],
[85.1596,28.3319],
[85.1203,28.336],
[85.1099,28.3449],
[85.1083,28.3464],
[85.1274,28.3925],
[85.1165,28.4081],
[85.1148,28.4437],
[85.1001,28.4546],
[85.118,28.4854],
[85.1523,28.4905],
[85.1663,28.5327],
[85.1864,28.533],
[85.1869,28.5628],
[85.1903,28.5695],
[85.1737,28.5977],
[85.189,28.6058],
[85.1978,28.6276],
[85.185,28.632],
[85.1881,28.6412],
[85.1818,28.6445],
[85.1571,28.6438],
[85.1287,28.6789],
[85.1148,28.6869],
[85.1042,28.6825],
[85.0889,28.6718],
[85.0541,28.6804],
[85.0524,28.6703],
[85.0418,28.6689],
[85.0407,28.6583],
[85.0295,28.6558],
[84.9876,28.611],
[84.9927,28.6006],
[84.9483,28.5803],
[84.9451,28.595],
[84.9063,28.5888],
[84.9024,28.5938],
[84.8567,28.5708],
[84.78,28.6105],
[84.762,28.6128],
[84.7249,28.6204],
[84.7135,28.6336],
[84.6959,28.6363],
[84.7047,28.6712],
[84.6681,28.6839],
[84.6668,28.6939],
[84.6511,28.7015],
[84.6495,28.7177],
[84.6255,28.7367],
[84.5722,28.7349],
[84.5553,28.7516],
[84.5246,28.7414],
[84.5152,28.7493],
[84.4917,28.7344],
[84.4503,28.7645],
[84.4475,28.7662],
[84.4374,28.7701],
[84.4455,28.783],
[84.4443,28.7938],
[84.4313,28.8022],
[84.435,28.8212],
[84.4198,28.8314],
[84.4016,28.8295],
[84.409,28.8506],
[84.3956,28.8588],
[84.375,28.8655],
[84.3571,28.8593],
[84.3426,28.8733],
[84.3236,28.8621],
[84.2898,28.8756],
[84.2664,28.8989],
[84.2529,28.8892],
[84.2262,28.8931],
[84.2255,28.9434],
[84.2411,28.976],
[84.2387,28.996],
[84.2513,29.0181],
[84.2491,29.0367],
[84.2196,29.0539],
[84.1897,29.0473],
[84.1868,29.081],
[84.201,29.1049],
[84.2003,29.1249],
[84.174,29.1311],
[84.1623,29.1855],
[84.1679,29.2004],
[84.1991,29.2138],
[84.2004,29.2409],
[84.1833,29.2417],
[84.1414,29.2376],
[84.1162,29.2444],
[84.1135,29.2639],
[84.1218,29.2742],
[84.0914,29.2939],
[84.0693,29.2857],
[84.0428,29.3014],
[84.0269,29.288],
[83.99,29.2981],
[84.0002,29.3128],
[83.976,29.3279],
[83.9628,29.3305],
[83.9487,29.3162],
[83.9192,29.3249],
[83.9029,29.327],
[83.8973,29.3181],
[83.8598,29.3105],
[83.8492,29.2975],
[83.8391,29.2979],
[83.814,29.3023],
[83.7944,29.2766],
[83.8016,29.2554],
[83.792,29.2476],
[83.7711,29.2471],
[83.7648,29.2402],
[83.7112,29.2441],
[83.6819,29.2117],
[83.656,29.204],
[83.6606,29.1796],
[83.6566,29.1763],
[83.6338,29.1586],
[83.61,29.1812],
[83.5905,29.1748],
[83.5762,29.1807],
[83.5706,29.2032],
[83.5396,29.2025],
[83.5197,29.2168],
[83.5152,29.2284],
[83.522,29.2392],
[83.5143,29.2557],
[83.4912,29.2654],
[83.4877,29.2805],
[83.4656,29.2745],
[83.4381,29.3087],
[83.4462,29.3289],
[83.4432,29.3435],
[83.4167,29.3568],
[83.4136,29.3672],
[83.4125,29.3799],
[83.4229,29.3852],
[83.4257,29.4025],
[83.4133,29.4221],
[83.3715,29.4284],
[83.3664,29.4504],
[83.3548,29.4512],
[83.3432,29.466],
[83.3452,29.495],
[83.316,29.5087],
[83.3019,29.4994],
[83.2742,29.5031],
[83.2546,29.5445],
[83.2567,29.558],
[83.2827,29.558],
[83.2779,29.5699],
[83.2676,29.571],
[83.2614,29.5773],
[83.232,29.5776],
[83.2145,29.5891],
[83.2174,29.6049],
[83.2003,29.6053],
[83.1971,29.612],
[83.1759,29.5923],
[83.1585,29.5967],
[83.1613,29.6187],
[83.141,29.6254],
[83.1319,29.6194],
[83.1204,29.6297],
[83.1168,29.6167],
[83.0897,29.6117],
[83.0859,29.6026],
[83.0696,29.61],
[83.0658,29.6259],
[83.0427,29.6312],
[83.0365,29.6513],
[83.0215,29.6505],
[83.0083,29.6725],
[83.0003,29.6646],
[82.9843,29.6699],
[82.9566,29.6619],
[82.9421,29.6747],
[82.9477,29.6923],
[82.9353,29.7047],
[82.9278,29.7002],
[82.9147,29.7074],
[82.8616,29.6855],
[82.8286,29.6899],
[82.8173,29.6986],
[82.8186,29.7215],
[82.7988,29.7189],
[82.7652,29.731],
[82.7599,29.7594],
[82.745,29.7708],
[82.6903,29.7631],
[82.69,29.7686],
[82.6875,29.7736],
[82.6973,29.7811],
[82.6954,29.7921],
[82.7138,29.7942],
[82.7386,29.8147],
[82.7267,29.8346],
[82.7118,29.8384],
[82.697,29.8564],
[82.6401,29.834],
[82.6229,29.8383],
[82.6214,29.8476],
[82.6306,29.849],
[82.6432,29.8696],
[82.6049,29.8871],
[82.5889,29.9124],
[82.5668,29.9329],
[82.5627,29.955],
[82.5293,29.9724],
[82.5153,29.9529],
[82.4972,29.9475],
[82.488,29.9534],
[82.4744,29.9646],
[82.4757,29.9742],
[82.4285,29.9913],
[82.3955,30.0245],
[82.376,30.0267],
[82.3753,30.0142],
[82.3635,30.0096],
[82.335,30.0473],
[82.3201,30.0488],
[82.313,30.0385],
[82.2986,30.0384],
[82.2856,30.047],
[82.2844,30.0583],
[82.2585,30.0642],
[82.2469,30.075],
[82.2319,30.065],
[82.172,30.0655],
[82.1667,30.0824],
[82.1856,30.1111],
[82.172,30.1231],
[82.1977,30.1376],
[82.2062,30.1542],
[82.1827,30.1603],
[82.1851,30.1902],
[82.1579,30.1895],
[82.1387,30.2024],
[82.1298,30.2263],
[82.1119,30.2252],
[82.0991,30.2399],
[82.1172,30.258],
[82.1107,30.2775],
[82.1271,30.304],
[82.1107,30.3444],
[82.0973,30.3491],
[82.0817,30.3621],
[82.0658,30.3569],
[82.056,30.3333],
[82.0278,30.3399],
[82.0109,30.3421],
[82.01,30.3302],
[81.9897,30.3215],
[81.9569,30.3408],
[81.9631,30.3507],
[81.9498,30.3589],
[81.9352,30.3474],
[81.879,30.3648],
[81.8552,30.3798],
[81.8318,30.3742],
[81.8083,30.3867],
[81.7499,30.3887],
[81.7304,30.3987],
[81.7257,30.4122],
[81.6214,30.4469],
[81.6215,30.4249],
[81.6065,30.4117],
[81.5615,30.4279],
[81.5587,30.4076],
[81.551,30.4035],
[81.553,30.3718],
[81.4881,30.3819],
[81.4684,30.4043],
[81.4498,30.4117],
[81.4078,30.4209],
[81.4007,30.3964],
[81.4291,30.3833],
[81.4193,30.3706],
[81.3954,30.368],
[81.4058,30.3389],
[81.396,30.3237],
[81.4223,30.3054],
[81.4016,30.2931],
[81.4005,30.2824],
[81.4167,30.284],
[81.4149,30.2741],
[81.3936,30.25],
[81.3955,30.2069],
[81.3502,30.1778],
[81.3329,30.1529],
[81.3167,30.1515],
[81.3063,30.1641],
[81.257,30.1508],
[81.2614,30.1375],
[81.2903,30.1124],
[81.2887,30.0744],
[81.2716,30.0512],
[81.2715,30.0447],
[81.2378,30.0313],
[81.2535,30.022],
[81.2506,30.0151],
[81.2186,30.0074],
[81.2043,30.0234],
[81.1948,30.0234],
[81.1851,30.0104],
[81.1334,30.0154],
[81.092,30.0533],
[81.109,30.0853],
[81.098,30.1001],
[81.0821,30.0995],
[81.0832,30.1496],
[81.0626,30.1595],
[81.0348,30.1975],
[80.9946,30.1864],
[80.9744,30.1925],
[80.9285,30.1748],
[80.9162,30.1879],
[80.9197,30.2157],
[80.9074,30.2227],
[80.88,30.1826],
[80.8624,30.1696],
[80.8716,30.1603],
[80.876,30.1276],
[80.8429,30.1153],
[80.8455,30.1044],
[80.8368,30.0982],
[80.8206,30.0999],
[80.8054,30.0899],
[80.7795,30.0571],
[80.7582,30.0458],
[80.757,30.025],
[80.7457,30.0061],
[80.7188,30.0006],
[80.6768,29.958],
[80.6514,29.9547],
[80.6294,29.9639],
[80.602,29.957],
[80.5726,29.9175],
[80.5719,29.8913],
[80.5535,29.8493],
[80.5071,29.8224],
[80.4934,29.7946],
[80.4726,29.7976],
[80.4354,29.8049],
[80.4132,29.7912],
[80.4076,29.7945],
[80.398,29.7592],
[80.368,29.7486],
[80.3681,29.7237],
[80.3764,29.7197],
[80.3855,29.676],
[80.3921,29.6654],
[80.4085,29.661],
[80.4198,29.6403],
[80.42,29.6286],
[80.406,29.6127],
[80.4093,29.5975],
[80.3904,29.5732],
[80.3808,29.5715],
[80.3794,29.5612],
[80.3644,29.5638],
[80.3449,29.5522],
[80.3417,29.5412],
[80.3578,29.5315],
[80.342,29.5108],
[80.3152,29.5002],
[80.3126,29.4829],
[80.2972,29.4882],
[80.2855,29.4753],
[80.3004,29.4505],
[80.2789,29.4499],
[80.2752,29.4571],
[80.2678,29.4543],
[80.2722,29.4486],
[80.2421,29.4427],
[80.2474,29.4341],
[80.243,29.411],
[80.2751,29.3914],
[80.2791,29.3781],
[80.2717,29.3629],
[80.2937,29.3274],
[80.317,29.3142],
[80.3184,29.3014],
[80.3052,29.2871],
[80.2999,29.242],
[80.2909,29.2332],
[80.2952,29.2008],
[80.2865,29.1946],
[80.2761,29.2071],
[80.2607,29.2058],
[80.2518,29.2215],
[80.2411,29.2021],
[80.2585,29.1878],
[80.2581,29.1659],
[80.2713,29.1404],
[80.2333,29.1193],
[80.2098,29.1207],
[80.1835,29.1364],
[80.1447,29.1026],
[80.1259,29.0312],
[80.1314,29.0297],
[80.1248,29.0115],
[80.1359,29.0074],
[80.1269,29.0055],
[80.1181,28.9814],
[80.1009,28.9868],
[80.0589,28.9158]
]
]
]}
}
