{
"type": "Feature",
"properties": {"id":"ohm-r2863740","edge_precision":"unknown","ohm_relation":2863740,"ohm_version":20,"ohm_timestamp":"2026-09-08T23:05:43Z"},
"geometry": {"type": "MultiPolygon", "coordinates": [
[
[
[26.0094,39.4788],
[26.0228,39.4522],
[26.053,39.4323],
[26.1092,39.414],
[26.1562,39.4142],
[26.2483,39.4233],
[26.2931,39.4438],
[26.3776,39.44],
[26.47,39.4804],
[26.5652,39.4921],
[26.645,39.5123],
[26.7846,39.5279],
[26.8407,39.5168],
[26.8851,39.5273],
[26.9721,39.5258],
[27.0895,39.4977],
[27.1719,39.4468],
[27.2351,39.4256],
[27.3614,39.4256],
[27.4081,39.4107],
[27.4576,39.3598],
[27.4905,39.3024],
[27.5729,39.2493],
[27.6416,39.2386],
[27.7377,39.194],
[27.7734,39.145],
[27.7954,38.985],
[27.8036,38.8354],
[27.9053,38.6898],
[28.0069,38.6212],
[28.32,38.4987],
[28.4271,38.4063],
[28.4683,38.318],
[28.4518,38.167],
[28.3832,38.0849],
[28.2898,38.0308],
[28.1799,38.02],
[27.8696,38.0589],
[27.6828,38.0481],
[27.5729,38.0286],
[27.2093,37.9136],
[27.2104,37.8905],
[27.1971,37.8778],
[27.1825,37.838],
[27.1928,37.8105],
[27.213,37.7908],
[27.2047,37.7651],
[27.1855,37.7497],
[27.1207,37.7318],
[27.118,37.7284],
[27.096,37.7043],
[27.0784,37.6989],
[27.0219,37.6984],
[26.9929,37.6903],
[26.9508,37.6484],
[26.948,37.6461],
[26.986,37.6116],
[27.0904,37.5913],
[27.1126,37.5642],
[27.1167,37.5277],
[27.1324,37.5061],
[27.1272,37.4797],
[27.1321,37.4592],
[27.1673,37.434],
[27.1385,37.3567],
[27.1466,37.332],
[27.1597,37.3201],
[27.2443,37.294],
[27.343,37.3017],
[27.381,37.2701],
[27.4023,37.2634],
[27.4055,37.2389],
[27.4206,37.22],
[27.4734,37.1962],
[27.4393,37.1696],
[27.4118,37.2004],
[27.3631,37.2174],
[27.2349,37.1702],
[27.2046,37.1354],
[27.1998,37.1113],
[27.1722,37.062],
[27.1776,37.0325],
[27.2022,37.0027],
[27.2026,36.9875],
[27.2042,36.964],
[27.2265,36.9369],
[27.2382,36.9353],
[27.2911,36.9403],
[27.3275,36.9246],
[27.34,36.9307],
[27.3485,36.9333],
[27.3654,36.9574],
[27.3904,36.9582],
[27.4345,36.9264],
[27.4891,36.9178],
[27.5202,36.9272],
[27.5357,36.9425],
[27.5687,36.9348],
[27.5959,36.9425],
[27.64,36.9361],
[27.6677,36.9401],
[27.6899,36.9553],
[27.7855,36.95],
[27.8182,36.9551],
[27.889,36.9828],
[27.9419,36.9736],
[27.9922,36.983],
[28.0599,36.9814],
[28.0134,36.9706],
[27.9724,36.9426],
[27.9612,36.9053],
[27.9715,36.8809],
[27.9504,36.8401],
[27.9125,36.8515],
[27.8673,36.8469],
[27.8222,36.8555],
[27.7247,36.8274],
[27.6924,36.8422],
[27.6313,36.8493],
[27.5907,36.831],
[27.5725,36.8098],
[27.5088,36.7938],
[27.4502,36.8032],
[27.406,36.7869],
[27.3694,36.7522],
[27.3499,36.751],
[27.3212,36.736],
[27.3085,36.7082],
[27.311,36.6753],
[27.3272,36.6529],
[27.3885,36.6218],
[27.4241,36.6222],
[27.4706,36.6048],
[27.5058,36.6106],
[27.5292,36.6284],
[27.5908,36.6374],
[27.6613,36.6167],
[27.7039,36.62],
[27.7269,36.639],
[27.7285,36.6722],
[27.7457,36.6957],
[27.7501,36.721],
[27.8274,36.7031],
[27.8745,36.7048],
[27.907,36.6951],
[27.9274,36.6418],
[27.9187,36.6027],
[27.9282,36.5421],
[27.9455,36.5205],
[27.9759,36.5109],
[28.0451,36.5207],
[28.0819,36.5401],
[28.1189,36.5466],
[28.1526,36.5701],
[28.2075,36.643],
[28.2504,36.6509],
[28.2773,36.6785],
[28.3185,36.6837],
[28.3455,36.7039],
[28.3566,36.7297],
[28.3485,36.7551],
[28.403,36.7423],
[28.4286,36.749],
[28.4549,36.7694],
[28.4854,36.7502],
[28.5575,36.7474],
[28.5551,36.725],
[28.5667,36.6931],
[28.5877,36.6684],
[28.6122,36.6573],
[28.6686,36.6489],
[28.7199,36.663],
[28.7406,36.6571],
[28.7486,36.628],
[28.772,36.6118],
[28.7918,36.5749],
[28.8093,36.5575],
[28.8413,36.5458],
[28.8753,36.5526],
[28.9017,36.5692],
[28.9218,36.5986],
[28.947,36.6116],
[28.9915,36.6645],
[29.0058,36.6602],
[29.0118,36.6553],
[28.9805,36.6222],
[28.9711,36.5747],
[28.9552,36.5421],
[28.9684,36.5159],
[28.9857,36.5052],
[29.0181,36.4964],
[29.0551,36.4972],
[29.0474,36.4726],
[29.068,36.4379],
[29.0519,36.4163],
[29.0466,36.3878],
[29.0619,36.3585],
[29.1427,36.3021],
[29.209,36.2809],
[29.2779,36.2203],
[29.323,36.194],
[29.4299,36.1841],
[29.4421,36.1774],
[29.4332,36.1559],
[29.4353,36.1398],
[29.4572,36.1157],
[29.5115,36.1092],
[29.5308,36.0879],
[29.5475,36.0816],
[29.5864,36.0818],
[29.6054,36.0688],
[29.6386,36.0641],
[29.6845,36.0875],
[29.7037,36.0909],
[29.7369,36.0795],
[29.7648,36.0837],
[29.8487,36.1241],
[29.9035,36.1302],
[29.9628,36.1761],
[30.0055,36.179],
[30.065,36.2105],
[30.0983,36.2029],
[30.1434,36.2104],
[30.1889,36.2417],
[30.2061,36.272],
[30.2764,36.2703],
[30.3487,36.2327],
[30.3524,36.1952],
[30.3728,36.1742],
[30.4069,36.1663],
[30.4461,36.1804],
[30.5242,36.2479],
[30.5362,36.2616],
[30.5413,36.2902],
[30.5773,36.3161],
[30.5819,36.3478],
[30.538,36.4033],
[30.5551,36.4178],
[30.5745,36.473],
[30.6401,36.5689],
[30.645,36.5953],
[30.6397,36.6152],
[30.61,36.6382],
[30.6272,36.6963],
[30.6208,36.7432],
[30.6281,36.7825],
[30.6544,36.8149],
[30.6845,36.8353],
[30.706,36.8193],
[30.7523,36.8045],
[30.999,36.8153],
[31.0747,36.7988],
[31.3157,36.7677],
[31.3318,36.7617],
[31.3417,36.7408],
[31.3622,36.7261],
[31.5286,36.6771],
[31.6321,36.6154],
[31.7169,36.596],
[31.7536,36.5651],
[31.9398,36.5154],
[31.9627,36.4927],
[31.9802,36.4874],
[32.0172,36.4901],
[32.0712,36.4444],
[32.0898,36.4139],
[32.1223,36.392],
[32.1671,36.3177],
[32.2162,36.278],
[32.2258,36.2697],
[32.2276,36.2459],
[32.2631,36.2008],
[32.3151,36.1758],
[32.3632,36.1256],
[32.4296,36.0971],
[32.4609,36.0722],
[32.5088,36.0537],
[32.5535,36.0504],
[32.6505,36.0032],
[32.8073,35.9725],
[32.8376,35.9825],
[32.8986,36.0336],
[32.9658,36.056],
[33.0332,36.0485],
[33.0642,36.0283],
[33.0997,36.0293],
[33.1292,36.0479],
[33.1609,36.0921],
[33.1859,36.0849],
[33.2688,36.0851],
[33.3122,36.0884],
[33.3418,36.0995],
[33.3972,36.0819],
[33.4693,36.1138],
[33.5235,36.0842],
[33.5632,36.0825],
[33.5918,36.0903],
[33.6244,36.127],
[33.6356,36.1091],
[33.6581,36.0955],
[33.7026,36.0931],
[33.7417,36.1143],
[33.7524,36.1376],
[33.787,36.1405],
[33.8183,36.1568],
[33.8332,36.1798],
[33.8368,36.2029],
[33.8888,36.2663],
[33.9122,36.2061],
[33.9497,36.1902],
[33.9924,36.1963],
[34.0347,36.2526],
[34.0741,36.2597],
[34.1128,36.2892],
[34.1312,36.323],
[34.1306,36.3851],
[34.1704,36.4219],
[34.2039,36.435],
[34.3028,36.5448],
[34.3495,36.5679],
[34.3925,36.6016],
[34.46,36.6287],
[34.5065,36.675],
[34.5788,36.7097],
[34.5974,36.7349],
[34.6831,36.765],
[34.7425,36.7684],
[34.8086,36.7525],
[34.8451,36.7291],
[34.8711,36.6908],
[34.9791,36.6727],
[35.2844,36.5287],
[35.3125,36.5016],
[35.3437,36.4959],
[35.4033,36.5166],
[35.4497,36.5463],
[35.5541,36.5265],
[35.5978,36.5337],
[35.6433,36.5559],
[35.6757,36.5827],
[35.6988,36.6392],
[35.7629,36.6852],
[35.7707,36.72],
[35.7358,36.8005],
[35.7468,36.8928],
[35.8209,37.0047],
[36.0764,37.191],
[36.2164,37.2828],
[36.4719,37.3483],
[36.6806,37.3571],
[37.0459,37.3352],
[37.3233,37.2915],
[37.6282,37.1931],
[38.1116,37.0091],
[38.2503,36.9444],
[38.2955,36.9075],
[38.3454,36.8996],
[38.3907,36.9023],
[38.5542,36.8449],
[38.5684,36.8257],
[38.5897,36.8253],
[38.5964,36.8044],
[38.739,36.7082],
[38.8907,36.7007],
[39.0206,36.7107],
[39.2129,36.6691],
[39.3612,36.692],
[39.4912,36.7003],
[39.595,36.723],
[39.6405,36.7248],
[39.7129,36.7504],
[39.8196,36.7565],
[39.8609,36.7786],
[40.0312,36.8267],
[40.0623,36.8561],
[40.1829,36.8777],
[40.2384,36.9152],
[40.3566,36.9628],
[40.4112,37.0147],
[40.5309,37.0284],
[40.5883,37.0616],
[40.6187,37.0645],
[40.6961,37.104],
[40.7536,37.1101],
[40.7665,37.128],
[40.7979,37.1193],
[40.8117,37.1259],
[40.8347,37.1068],
[40.8484,37.1223],
[40.9136,37.1318],
[41.1061,37.0948],
[41.1634,37.0948],
[41.1984,37.0801],
[41.1981,37.0639],
[41.2182,37.0621],
[41.2328,37.0743],
[41.2674,37.0798],
[41.5175,37.0779],
[41.6472,37.117],
[41.7007,37.1152],
[41.9512,37.1575],
[42.0031,37.1815],
[42.0348,37.1821],
[42.0552,37.1977],
[42.0889,37.2079],
[42.1021,37.2281],
[42.1837,37.2864],
[42.1965,37.312],
[42.2162,37.3204],
[42.2254,37.3113],
[42.2054,37.2802],
[42.2349,37.2836],
[42.2608,37.2713],
[42.2832,37.2823],
[42.2912,37.2624],
[42.3058,37.26],
[42.3428,37.2327],
[42.3403,37.2213],
[42.3482,37.2143],
[42.3202,37.1843],
[42.3272,37.1591],
[42.3536,37.1309],
[42.3525,37.0999],
[42.3622,37.1168],
[42.3981,37.1112],
[42.448,37.1383],
[42.483,37.1347],
[42.5161,37.1442],
[42.5294,37.1393],
[42.5541,37.1505],
[42.5773,37.1455],
[42.5847,37.1703],
[42.618,37.2035],
[42.6128,37.2147],
[42.6304,37.2193],
[42.6553,37.246],
[42.6537,37.2665],
[42.6823,37.2708],
[42.6811,37.2807],
[42.6975,37.2917],
[42.6899,37.2944],
[42.6879,37.3086],
[42.7132,37.3079],
[42.7274,37.3203],
[42.7359,37.3184],
[42.7333,37.3362],
[42.7889,37.3801],
[42.8247,37.3714],
[42.8222,37.3604],
[42.8355,37.3429],
[42.8504,37.3488],
[42.9582,37.3123],
[42.9729,37.3259],
[43.0108,37.3323],
[43.0214,37.3537],
[43.061,37.357],
[43.0714,37.3666],
[43.147,37.373],
[43.1621,37.3577],
[43.1871,37.3595],
[43.2104,37.347],
[43.2421,37.3451],
[43.2495,37.3305],
[43.2693,37.3291],
[43.2695,37.3142],
[43.3024,37.3035],
[43.3176,37.3057],
[43.3258,37.3255],
[43.36,37.3281],
[43.3723,37.3076],
[43.3888,37.3058],
[43.3955,37.2943],
[43.43,37.2786],
[43.4595,37.2711],
[43.4764,37.2628],
[43.4744,37.2532],
[43.5141,37.2394],
[43.5667,37.2576],
[43.5848,37.2383],
[43.5952,37.233],
[43.6095,37.2384],
[43.6204,37.221],
[43.642,37.2175],
[43.6882,37.2357],
[43.805,37.2268],
[43.8307,37.1927],
[43.8527,37.2235],
[43.8948,37.2189],
[43.9197,37.2242],
[43.9267,37.238],
[43.939,37.2423],
[43.9302,37.2467],
[43.9477,37.2572],
[43.9438,37.2677],
[43.9578,37.2711],
[43.9541,37.2924],
[43.9928,37.2979],
[44.0206,37.3287],
[44.0237,37.3172],
[44.0404,37.3257],
[44.0684,37.3134],
[44.1255,37.3228],
[44.1531,37.3017],
[44.1639,37.3037],
[44.2101,37.2808],
[44.2278,37.2828],
[44.2418,37.2705],
[44.2507,37.2504],
[44.2678,37.2448],
[44.2651,37.1979],
[44.2758,37.1965],
[44.2816,37.1858],
[44.2764,37.1647],
[44.2229,37.1589],
[44.1989,37.1159],
[44.1839,37.1059],
[44.1844,37.0967],
[44.196,37.0914],
[44.1923,37.0804],
[44.2293,37.0531],
[44.2334,37.0395],
[44.2215,37.0347],
[44.2568,36.992],
[44.2517,36.9826],
[44.2913,36.9764],
[44.3098,36.963],
[44.3056,36.9719],
[44.3152,36.9847],
[44.3294,36.9882],
[44.3381,37.0084],
[44.3678,37.025],
[44.35,37.0401],
[44.3584,37.0517],
[44.3842,37.0598],
[44.3939,37.0507],
[44.3996,37.0573],
[44.4142,37.0532],
[44.4313,37.0668],
[44.4656,37.0739],
[44.517,37.1024],
[44.5137,37.1123],
[44.5255,37.1219],
[44.5522,37.1244],
[44.5503,37.1354],
[44.5696,37.1586],
[44.6009,37.1668],
[44.6267,37.1898],
[44.6478,37.1901],
[44.6743,37.1711],
[44.6938,37.1771],
[44.753,37.1628],
[44.7662,37.1675],
[44.7849,37.145],
[44.7528,37.1931],
[44.783,37.2588],
[44.8201,37.2937],
[44.7693,37.3199],
[44.7281,37.3625],
[44.6484,37.4138],
[44.5853,37.4901],
[44.6265,37.5751],
[44.6017,37.7012],
[44.5056,37.7707],
[44.2969,37.8553],
[44.2419,37.9507],
[44.2969,38.0373],
[44.3573,38.1583],
[44.3765,38.2252],
[44.5166,38.305],
[44.5056,38.3417],
[44.4342,38.3718],
[44.3161,38.374],
[44.2806,38.3792],
[44.2316,38.3616],
[44.2083,38.3379],
[44.2007,38.3039],
[44.1664,38.284],
[44.1685,38.2527],
[44.0957,38.2279],
[44.0524,38.2215],
[44.0456,38.1745],
[44.0305,38.1432],
[44.0497,38.0903],
[44.0469,38.0692],
[44.0215,37.9956],
[43.9989,37.9615],
[43.9948,37.9274],
[43.9851,37.9209],
[43.924,37.9236],
[43.9124,37.9442],
[43.9178,37.9691],
[43.8924,37.9794],
[43.8869,38.0021],
[43.8581,38.014],
[43.8485,38.0594],
[43.8265,38.0686],
[43.7606,38.054],
[43.7613,38.0719],
[43.7517,38.0773],
[43.7139,38.067],
[43.6871,38.0281],
[43.5841,38.047],
[43.409,38.0638],
[43.3527,38.0048],
[43.3603,37.9637],
[43.2113,37.9225],
[43.1845,37.9323],
[43.122,37.9196],
[43.086,37.9512],
[43.053,37.9415],
[43.0166,37.948],
[42.9253,37.9076],
[42.8989,37.9044],
[42.8649,37.9179],
[42.8529,37.9326],
[42.8642,37.968],
[42.8625,37.9948],
[42.8302,38.0167],
[42.822,38.04],
[42.8384,38.0811],
[42.8251,38.0965],
[42.8034,38.1048],
[42.7413,38.1089],
[42.6767,38.1248],
[42.5222,38.1275],
[42.3612,38.1462],
[42.3286,38.1904],
[42.2819,38.1983],
[42.2514,38.1791],
[42.1851,38.1769],
[42.1569,38.1432],
[42.1017,38.1189],
[42.0388,38.1751],
[41.9935,38.1659],
[41.9595,38.1454],
[41.9218,38.147],
[41.8847,38.1691],
[41.8586,38.205],
[41.8198,38.198],
[41.7937,38.2099],
[41.7583,38.2104],
[41.7127,38.2306],
[41.6396,38.2255],
[41.5984,38.2471],
[41.5915,38.2678],
[41.576,38.2797],
[41.5812,38.2961],
[41.5527,38.3365],
[41.4689,38.2932],
[41.4391,38.294],
[41.403,38.3075],
[41.3474,38.3613],
[41.3131,38.3675],
[41.2897,38.3858],
[41.2499,38.46],
[41.1785,38.4555],
[41.1524,38.4673],
[41.1404,38.5038],
[41.1139,38.52],
[41.0875,38.5573],
[41.071,38.5589],
[41.0655,38.567],
[41.0655,38.5967],
[41.0192,38.6233],
[41.0298,38.6405],
[40.9783,38.6649],
[40.9975,38.6834],
[41.0017,38.7177],
[40.9639,38.7562],
[40.9134,38.7819],
[40.9028,38.8512],
[40.8561,38.8619],
[40.8774,38.8921],
[40.8544,38.9415],
[40.819,38.9736],
[40.7994,38.9773],
[40.7837,38.9712],
[40.7404,39.005],
[40.7376,39.036],
[40.7023,39.0712],
[40.7174,39.1146],
[40.7088,39.1322],
[40.7164,39.1652],
[40.7885,39.2479],
[40.8255,39.265],
[40.7764,39.3014],
[40.7624,39.3061],
[40.7473,39.2899],
[40.7177,39.3069],
[40.6374,39.3099],
[40.5893,39.3263],
[40.5619,39.3181],
[40.5107,39.3417],
[40.4932,39.3603],
[40.4644,39.3611],
[40.4517,39.3733],
[40.3899,39.3946],
[40.3253,39.3786],
[40.19,39.4073],
[40.1475,39.3879],
[40.1125,39.3906],
[40.0932,39.3829],
[40.0575,39.4099],
[40.0215,39.3784],
[39.9178,39.3776],
[39.891,39.39],
[39.8845,39.4333],
[39.8745,39.4497],
[39.8055,39.4548],
[39.7204,39.5009],
[39.6709,39.486],
[39.6421,39.4569],
[39.5899,39.4282],
[39.5422,39.4312],
[39.5192,39.4577],
[39.5007,39.513],
[39.4344,39.5242],
[39.4135,39.5152],
[39.3953,39.468],
[39.3702,39.4558],
[39.2868,39.4402],
[39.2504,39.4672],
[39.1996,39.4471],
[39.1402,39.4479],
[39.1319,39.4786],
[39.0924,39.5446],
[39.089,39.5766],
[39.0677,39.6282],
[39.0698,39.6432],
[39.1007,39.6702],
[39.1182,39.704],
[39.1896,39.717],
[39.1965,39.7244],
[39.1989,39.7315],
[39.1645,39.7542],
[39.1566,39.7848],
[39.202,39.8067],
[39.2116,39.8188],
[39.1693,39.8222],
[39.1374,39.8341],
[39.1196,39.8565],
[39.1151,39.8934],
[39.1639,39.8995],
[39.1584,39.9482],
[39.0921,39.9663],
[38.9373,40.0484],
[38.9349,40.1062],
[38.9215,40.1581],
[38.9314,40.1815],
[38.9122,40.2206],
[38.9149,40.2318],
[38.9699,40.2895],
[39.0567,40.3243],
[39.0588,40.3353],
[39.0451,40.3557],
[39.0094,40.3523],
[38.9874,40.3811],
[38.9943,40.4083],
[38.9349,40.4446],
[38.8806,40.4496],
[38.8477,40.4668],
[38.7605,40.4853],
[38.7519,40.4678],
[38.7374,40.46],
[38.6993,40.4522],
[38.6595,40.4689],
[38.6193,40.459],
[38.5692,40.4613],
[38.5404,40.4522],
[38.504,40.4846],
[38.4786,40.4887],
[38.4734,40.518],
[38.4913,40.5396],
[38.5181,40.6145],
[38.5548,40.6455],
[38.5627,40.6663],
[38.5627,40.7231],
[38.5181,40.7348],
[38.504,40.747],
[38.517,40.7993],
[38.5009,40.8211],
[38.4892,40.8632],
[38.4993,40.9549],
[38.4327,40.9521],
[38.3938,40.9616],
[38.3499,40.9522],
[38.2897,40.9822],
[38.205,40.9761],
[38.1617,40.9903],
[38.0032,41.018],
[37.9181,41.0228],
[37.8916,41.0472],
[37.8452,41.0568],
[37.8264,41.0735],
[37.839,41.1117],
[37.8163,41.1468],
[37.7627,41.1566],
[37.7259,41.1539],
[37.693,41.1663],
[37.6663,41.165],
[37.6249,41.1476],
[37.5759,41.0915],
[37.5657,41.0696],
[37.5296,41.0629],
[37.5076,41.0934],
[37.4505,41.1133],
[37.4104,41.1404],
[37.343,41.1503],
[37.332,41.1688],
[37.3064,41.1817],
[37.1454,41.1865],
[37.0799,41.2062],
[37.0741,41.2597],
[37.0478,41.2997],
[36.9028,41.3681],
[36.821,41.3889],
[36.7116,41.4013],
[36.6597,41.4204],
[36.6207,41.4141],
[36.588,41.3953],
[36.5276,41.312],
[36.4813,41.2889],
[36.4252,41.2838],
[36.4039,41.3015],
[36.4041,41.3193],
[36.3887,41.3381],
[36.3503,41.3579],
[36.2797,41.3788],
[36.2711,41.3953],
[36.1745,41.4816],
[36.1688,41.5005],
[36.1813,41.5585],
[36.1611,41.6399],
[36.0844,41.7178],
[35.9864,41.7667],
[35.941,41.7708],
[35.7398,41.7013],
[35.5665,41.6685],
[35.4851,41.6832],
[35.4327,41.7181],
[35.314,41.7437],
[35.3037,41.7614],
[35.252,41.7879],
[35.2498,41.8198],
[35.1775,41.8743],
[35.1705,41.8955],
[35.1401,41.9288],
[35.1581,41.9815],
[35.2078,41.9753],
[35.2465,41.9904],
[35.2605,42.0121],
[35.2555,42.0357],
[35.2246,42.0685],
[35.2062,42.0768],
[35.163,42.0772],
[35.1229,42.0609],
[35.0969,42.0616],
[35.0825,42.0919],
[35.0483,42.1215],
[35.023,42.1294],
[34.9223,42.1308],
[34.8964,42.1088],
[34.8917,42.0741],
[34.8389,42.0244],
[34.7884,41.9932],
[34.7127,41.9808],
[34.5665,41.9839],
[34.5197,42.0073],
[34.4856,42.0134],
[34.3052,41.9789],
[34.1021,42.0157],
[33.9607,42.0174],
[33.9018,42.0096],
[33.6875,42.0172],
[33.5919,42.0251],
[33.458,42.049],
[33.3277,42.0562],
[33.1389,41.9867],
[33.0089,41.9614],
[32.9466,41.933],
[32.9361,41.9202],
[32.898,41.9087],
[32.7658,41.8942],
[32.6569,41.8675],
[32.5743,41.864],
[32.5215,41.8439],
[32.4856,41.8372],
[32.454,41.8126],
[32.3976,41.7892],
[32.3681,41.7891],
[32.3094,41.7612],
[32.255,41.7501],
[32.1838,41.7066],
[32.174,41.6844],
[32.1398,41.6679],
[32.1167,41.6356],
[32.0143,41.6099],
[31.975,41.5814],
[31.8768,41.5537],
[31.5885,41.4127],
[31.5132,41.3991],
[31.4376,41.3646],
[31.365,41.3424],
[31.3418,41.3061],
[31.3453,41.2799],
[31.3572,41.2628],
[31.3532,41.2201],
[31.2826,41.1534],
[31.2017,41.1342],
[30.9627,41.1102],
[30.7694,41.124],
[30.6647,41.1652],
[30.4699,41.1909],
[30.3845,41.215],
[30.3507,41.2351],
[30.3081,41.2388],
[30.2786,41.2501],
[30.2477,41.2454],
[30.221,41.2251],
[30.1976,41.2185],
[30.1479,41.1793],
[29.9863,41.1755],
[29.841,41.1783],
[29.7802,41.1968],
[29.681,41.1999],
[29.6198,41.2189],
[29.575,41.2107],
[29.3976,41.2522],
[29.304,41.2586],
[29.2673,41.2718],
[29.1526,41.2597],
[29.0867,41.2912],
[29.0409,41.2938],
[29.0117,41.2837],
[28.9457,41.3054],
[28.9048,41.3087],
[28.8254,41.3411],
[28.7302,41.3654],
[28.7018,41.383],
[28.647,41.3863],
[28.5189,41.44],
[28.493,41.3889],
[28.559,41.3686],
[28.5725,41.3504],
[28.5569,41.3045],
[28.5957,41.1911],
[28.5699,41.1418],
[28.5608,41.1055],
[28.5392,41.0843],
[28.5693,41.0509],
[28.5613,41.028],
[28.5722,41.0204],
[28.5713,40.9969],
[28.493,40.7626],
[28.2074,40.7618],
[28.0838,40.7514],
[27.8854,40.7821],
[27.6931,40.7977],
[27.6052,40.7785],
[27.5159,40.7421],
[27.4541,40.7004],
[27.3855,40.6254],
[27.3429,40.5952],
[27.2683,40.5629],
[27.0161,40.4866],
[26.7893,40.4457],
[26.6899,40.3952],
[26.6109,40.3172],
[26.532,40.2732],
[26.4915,40.2376],
[26.3844,40.1951],
[26.3898,40.1642],
[26.3837,40.1379],
[26.3438,40.1001],
[26.3239,40.0676],
[26.2697,40.0444],
[26.14,40.0154],
[26.1357,40.015],
[26.1144,39.9685],
[26.1167,39.9629],
[26.1215,39.9241],
[26.1019,39.9015],
[26.0997,39.8969],
[26.0935,39.8775],
[26.0956,39.8734],
[26.1169,39.8033],
[26.0914,39.7574],
[26.0879,39.7535],
[26.1049,39.7136],
[26.1099,39.6642],
[26.0964,39.6332],
[26.0595,39.6055],
[26.0094,39.4788]
]
]
]}
}
