{
"type": "Feature",
"properties": {"id":"ohm-r2889899","edge_precision":"unknown","ohm_relation":2889899,"ohm_version":4,"ohm_timestamp":"2026-01-10T07:05:11Z"},
"geometry": {"type": "MultiPolygon", "coordinates": [
[
[
[120.2395,36.1268],
[120.2622,36.0877],
[120.2649,36.0458],
[120.2745,36.0327],
[120.3333,36.0251],
[120.3691,35.9981],
[120.4408,36.01],
[120.4921,36.0405],
[120.6097,36.0449],
[120.6599,36.0731],
[120.5989,36.1268],
[120.6167,36.1498],
[120.6123,36.1632],
[120.6277,36.1763],
[120.6347,36.2048],
[120.6035,36.2322],
[120.6034,36.2512],
[120.5868,36.2477],
[120.5403,36.2582],
[120.504,36.2524],
[120.4685,36.259],
[120.455,36.2729],
[120.3991,36.2629],
[120.3874,36.2474],
[120.3705,36.2417],
[120.3378,36.2548],
[120.3151,36.2548],
[120.3048,36.2412],
[120.3102,36.2214],
[120.3351,36.1932],
[120.337,36.1783],
[120.2806,36.1423],
[120.2395,36.1268]
]
]
]}
}
