{
"type": "Feature",
"properties": {"id":"ohm-r2942671","edge_precision":"unknown","ohm_relation":2942671,"ohm_version":2,"ohm_timestamp":"2026-09-07T02:12:28Z"},
"geometry": {"type": "MultiPolygon", "coordinates": [
[
[
[87.7342,48.8808],
[87.7383,48.8724],
[87.7481,48.8652],
[87.7813,48.8695],
[87.7905,48.8465],
[87.8126,48.8423],
[87.8247,48.8279],
[87.7922,48.8232],
[87.8124,48.8165],
[87.8299,48.7985],
[87.8724,48.7953],
[87.935,48.7556],
[87.9712,48.7702],
[88.0258,48.7496],
[88.0548,48.7118],
[88.0904,48.7137],
[88.0716,48.6832],
[88.01,48.6487],
[88.0282,48.631],
[87.9979,48.6158],
[87.9701,48.6076],
[87.955,48.5938],
[87.9705,48.5732],
[87.9973,48.5697],
[88.0136,48.5629],
[88.0185,48.5491],
[88.0298,48.5497],
[88.0488,48.5411],
[88.0731,48.5483],
[88.086,48.5408],
[88.0977,48.5445],
[88.1158,48.5223],
[88.1434,48.5281],
[88.1752,48.499],
[88.253,48.4996],
[88.2571,48.4918],
[88.3586,48.4586],
[88.3463,48.4477],
[88.352,48.433],
[88.4219,48.4035],
[88.4425,48.3866],
[88.4743,48.3957],
[88.4845,48.4071],
[88.5062,48.4039],
[88.5205,48.3929],
[88.5134,48.3794],
[88.5365,48.3646],
[88.5519,48.3694],
[88.5715,48.3652],
[88.5672,48.3517],
[88.6029,48.3391],
[88.6065,48.3301],
[88.5659,48.2759],
[88.5905,48.2497],
[88.5973,48.2463],
[88.5877,48.2256],
[88.5881,48.2166],
[88.6193,48.2123],
[88.6376,48.1785],
[88.6685,48.1677],
[88.6943,48.1786],
[88.7148,48.1738],
[88.7096,48.1554],
[88.7298,48.1585],
[88.7576,48.1323],
[88.7791,48.1319],
[88.824,48.1],
[88.844,48.1111],
[88.9345,48.1088],
[88.9365,48.0962],
[89.0048,48.0544],
[89.0588,47.9904],
[89.1135,47.9849],
[89.1559,47.9952],
[89.1948,47.98],
[89.2342,47.9762],
[89.2562,47.9914],
[89.2727,47.9864],
[89.2843,47.9932],
[89.291,48.0118],
[89.3339,48.0218],
[89.3536,48.016],
[89.3682,48.0228],
[89.3832,48.0448],
[89.4015,48.0304],
[89.4927,48.0251],
[89.5344,48.0363],
[89.5803,48.0311],
[89.602,48.0089],
[89.586,47.9988],
[89.5927,47.968],
[89.62,47.9496],
[89.6402,47.9463],
[89.6411,47.9227],
[89.6544,47.9054],
[89.7235,47.9008],
[89.7502,47.8766],
[89.7383,47.8646],
[89.7499,47.8546],
[89.7518,47.8388],
[89.7604,47.8358],
[89.7588,47.8261],
[89.7943,47.834],
[89.8489,47.8261],
[89.8913,47.8383],
[89.9499,47.8312],
[89.957,47.886],
[89.9771,47.8788],
[90.0278,47.8784],
[90.0376,47.8715],
[90.0576,47.8847],
[90.0794,47.8702],
[90.0871,47.8604],
[90.0694,47.8446],
[90.066,47.8052],
[90.0742,47.7998],
[90.0657,47.7925],
[90.0805,47.7658],
[90.1188,47.7462],
[90.1236,47.7306],
[90.1396,47.7225],
[90.1784,47.726],
[90.2168,47.7041],
[90.2431,47.7081],
[90.2586,47.6935],
[90.3217,47.6858],
[90.3676,47.6602],
[90.3728,47.6447],
[90.3528,47.6474],
[90.3443,47.6268],
[90.3816,47.5929],
[90.3783,47.5859],
[90.3925,47.5665],
[90.3962,47.5421],
[90.4494,47.5173],
[90.4528,47.5006],
[90.4716,47.4909],
[90.4678,47.448],
[90.4543,47.4407],
[90.4578,47.4069],
[90.4825,47.3958],
[90.5021,47.4019],
[90.5203,47.3768],
[90.4985,47.3572],
[90.5058,47.3382],
[90.4774,47.3238],
[90.5121,47.2996],
[90.5365,47.2537],
[90.5376,47.2403],
[90.5583,47.2258],
[90.5598,47.2052],
[90.5837,47.1973],
[90.5945,47.168],
[90.618,47.1596],
[90.6207,47.148],
[90.6302,47.134],
[90.6511,47.1329],
[90.6486,47.1121],
[90.6644,47.0937],
[90.6911,47.0809],
[90.7273,47.03],
[90.7411,47.0268],
[90.7639,47.0053],
[90.7631,46.9931],
[90.8214,46.999],
[90.8296,46.9894],
[90.8528,46.9899],
[90.8536,46.9801],
[90.9021,46.9574],
[90.9089,46.9427],
[90.9216,46.9369],
[90.9138,46.9224],
[90.9172,46.9114],
[90.9356,46.8867],
[90.9434,46.8908],
[90.9556,46.8775],
[90.9537,46.8532],
[90.9372,46.8259],
[90.9577,46.8174],
[90.9658,46.7996],
[90.9853,46.7967],
[90.9896,46.7712],
[91.0162,46.7639],
[91.0165,46.7501],
[91.031,46.7441],
[91.0484,46.7198],
[91.0146,46.6096],
[91.0144,46.5806],
[91.0659,46.5756],
[91.0749,46.5576],
[91.0509,46.5354],
[91.0524,46.5111],
[91.0371,46.5015],
[91.0264,46.4758],
[91.0095,46.4608],
[91.0085,46.4365],
[90.9945,46.4226],
[90.9693,46.3607],
[90.9056,46.3144],
[90.8916,46.3127],
[90.9492,46.2292],
[90.9441,46.2252],
[90.9749,46.1623],
[91.0105,46.1243],
[91.0158,46.0861],
[91.0084,46.0784],
[91.0196,46.057],
[91.022,46.0223],
[90.8479,45.8873],
[90.715,45.7276],
[90.6785,45.6054],
[90.6678,45.5436],
[90.6703,45.487],
[90.7699,45.4284],
[90.7743,45.3951],
[90.8116,45.325],
[90.8017,45.2886],
[90.8329,45.2989],
[90.8694,45.2822],
[90.895,45.2503],
[90.8645,45.2041],
[90.8838,45.1893],
[90.9464,45.1953],
[90.9952,45.2138],
[91.0489,45.2057],
[91.0778,45.2143],
[91.1222,45.2141],
[91.1638,45.1995],
[91.1782,45.1669],
[91.1913,45.156],
[91.2233,45.1503],
[91.2417,45.1319],
[91.3352,45.1238],
[91.3364,45.1212],
[91.3729,45.1092],
[91.3854,45.1117],
[91.3907,45.126],
[91.4302,45.1563],
[91.461,45.1467],
[91.4983,45.0989],
[91.5332,45.0884],
[91.5586,45.0683],
[91.5686,45.0826],
[91.6135,45.0662],
[91.6802,45.062],
[91.8008,45.0816],
[92.0375,45.0822],
[92.0996,45.0755],
[92.2349,45.0135],
[92.2484,45.0211],
[92.3133,45.0268],
[92.3435,45.0124],
[92.4184,45.0169],
[92.4905,45.0001],
[92.5494,45.0177],
[92.6449,45.0205],
[92.7187,45.0323],
[92.7759,45.0498],
[92.8479,45.0374],
[92.8816,45.0465],
[92.9247,45.0349],
[92.9294,45.0157],
[92.9712,45.014],
[92.9848,44.9994],
[92.9984,45.0106],
[93.0544,45.0162],
[93.0935,45.007],
[93.1682,45.0133],
[93.2045,45.0025],
[93.2855,44.9824],
[93.3152,44.9803],
[93.3239,44.9944],
[93.3385,44.9869],
[93.3673,44.9878],
[93.428,44.9563],
[93.4648,44.9577],
[93.4786,44.9655],
[93.4895,44.96],
[93.5019,44.9567],
[93.5075,44.967],
[93.6708,44.9099],
[93.6938,44.895],
[93.7095,44.8967],
[93.7115,44.8761],
[93.7282,44.8612],
[94.0621,44.7324],
[94.15,44.6836],
[94.2114,44.6677],
[94.2218,44.6465],
[94.2762,44.6049],
[94.3264,44.5824],
[94.3418,44.5593],
[94.3478,44.5166],
[94.3906,44.5225],
[94.4623,44.5105],
[94.5116,44.4776],
[94.6105,44.4425],
[94.6717,44.3938],
[94.7186,44.3408],
[94.766,44.34],
[94.8238,44.318],
[94.9336,44.2941],
[94.9987,44.2509],
[95.4098,44.2938],
[95.426,44.2808],
[95.4063,44.2417],
[95.3689,44.2212],
[95.3509,44.143],
[95.3476,44.0892],
[95.3201,44.0295],
[95.3506,44.0193],
[95.3738,44.0244],
[95.4418,44.0051],
[95.5228,44.0051],
[95.6229,43.8514],
[95.6475,43.7763],
[95.7358,43.5943],
[95.8576,43.4136],
[95.877,43.2772],
[95.9092,43.2357],
[96.1124,43.0851],
[96.3638,42.8981],
[96.3876,42.7247],
[96.6415,42.7461],
[96.7475,42.755],
[96.9777,42.7544],
[97.1716,42.7946],
[97.225,42.7874],
[97.8444,42.7019],
[98.1923,42.652],
[98.6184,42.6317],
[99.1696,42.5905],
[99.5037,42.5651],
[99.5969,42.5827],
[99.9639,42.6461],
[100.0158,42.6365],
[100.0508,42.6451],
[100.2678,42.6353],
[100.3184,42.6869],
[100.848,42.6718],
[101.567,42.5254],
[101.8007,42.5034],
[102.0484,42.2525],
[102.0258,42.2362],
[102.0246,42.2242],
[102.0967,42.1999],
[102.1525,42.1959],
[102.1713,42.2039],
[102.4424,42.1419],
[102.5169,42.1461],
[102.5507,42.1589],
[102.6162,42.1397],
[102.7009,42.1387],
[102.7669,42.1255],
[102.9277,42.0614],
[102.9917,42.0324],
[103.4111,41.8813],
[103.7436,41.8244],
[103.7953,41.8073],
[103.8911,41.7956],
[104.0211,41.8029],
[104.059,41.7891],
[104.0782,41.8005],
[104.3425,41.845],
[104.4804,41.8643],
[104.5237,41.8734],
[104.5188,41.8231],
[104.4974,41.7723],
[104.5038,41.742],
[104.4991,41.6793],
[104.517,41.6596],
[104.682,41.6442],
[104.9164,41.6525],
[105.0077,41.58],
[105.217,41.7253],
[105.2293,41.7477],
[105.289,41.7471],
[105.3741,41.7778],
[105.3859,41.795],
[105.4387,41.8113],
[105.5921,41.8848],
[105.6969,41.9309],
[106.0282,42.0398],
[106.1531,42.0804],
[106.7208,42.2706],
[106.786,42.2914],
[107.0411,42.3143],
[107.257,42.3628],
[107.2928,42.4081],
[107.4532,42.4567],
[107.4962,42.455],
[107.5659,42.4116],
[107.9188,42.4023],
[107.9796,42.4123],
[108.0167,42.4313],
[108.1421,42.4425],
[108.2408,42.4606],
[108.2735,42.447],
[108.3062,42.4359],
[108.539,42.4406],
[108.6999,42.4103],
[108.7956,42.4139],
[108.8385,42.3956],
[108.9715,42.4456],
[109.0244,42.4542],
[109.2839,42.4345],
[109.3822,42.4463],
[109.4692,42.4535],
[109.4954,42.4663],
[109.5285,42.4675],
[109.6688,42.5513],
[109.7442,42.5786],
[109.9003,42.6317],
[110.1008,42.6391],
[110.1363,42.6721],
[110.2831,42.7173],
[110.334,42.736],
[110.4329,42.7772],
[110.4641,42.8326],
[110.478,42.8419],
[110.5481,42.886],
[110.624,42.9328],
[110.6835,43.0141],
[110.6823,43.0351],
[110.7093,43.0637],
[110.7669,43.0999],
[110.9874,43.307],
[111.0479,43.3419],
[111.1527,43.3793],
[111.2592,43.4132],
[111.3449,43.4307],
[111.3896,43.4699],
[111.4204,43.4819],
[111.4647,43.4901],
[111.5729,43.4908],
[111.7877,43.6664],
[111.8831,43.6722],
[111.9462,43.69],
[111.9498,43.698],
[111.9676,43.7445],
[111.959,43.8191],
[111.9067,43.8863],
[111.8698,43.9366],
[111.8303,43.9651],
[111.7882,43.996],
[111.6931,44.0354],
[111.6543,44.062],
[111.5392,44.1918],
[111.5192,44.249],
[111.522,44.2658],
[111.5026,44.2912],
[111.4251,44.3175],
[111.4093,44.3446],
[111.4249,44.4009],
[111.469,44.4787],
[111.5083,44.5085],
[111.5291,44.5521],
[111.5611,44.5713],
[111.5534,44.6454],
[111.5611,44.6698],
[111.6049,44.7558],
[111.6479,44.8132],
[111.7695,44.9806],
[111.8809,45.0418],
[111.9535,45.0718],
[111.9809,45.0869],
[112.0618,45.0959],
[112.1114,45.0716],
[112.3743,45.0616],
[112.4201,45.075],
[112.5188,45.0126],
[112.544,44.9846],
[112.5978,44.9275],
[112.7568,44.8626],
[112.8433,44.8391],
[112.938,44.8386],
[113.1143,44.7983],
[113.3931,44.7811],
[113.463,44.7759],
[113.6256,44.7424],
[113.6806,44.7688],
[113.7813,44.8418],
[113.8701,44.8744],
[113.8986,44.912],
[114.0562,44.9256],
[114.0891,44.9417],
[114.1334,44.9667],
[114.1605,44.9956],
[114.171,45.0225],
[114.1911,45.0421],
[114.3847,45.1434],
[114.4562,45.2061],
[114.528,45.2927],
[114.5416,45.3471],
[114.5411,45.3845],
[114.5976,45.4052],
[114.6797,45.4198],
[114.7372,45.4373],
[114.9155,45.3817],
[114.9741,45.376],
[115.1648,45.3962],
[115.3529,45.3877],
[115.5576,45.4362],
[115.691,45.4582],
[115.8691,45.5803],
[115.9319,45.6295],
[116.0149,45.6561],
[116.0283,45.6818],
[116.1215,45.6773],
[116.1723,45.6892],
[116.2059,45.7169],
[116.216,45.7254],
[116.2146,45.7417],
[116.2367,45.7539],
[116.2605,45.7697],
[116.28,45.7707],
[116.2712,45.8289],
[116.2794,45.8395],
[116.2665,45.8439],
[116.268,45.8521],
[116.2376,45.8726],
[116.2356,45.8823],
[116.2492,45.9024],
[116.2639,45.9614],
[116.3851,46.1117],
[116.4152,46.1332],
[116.4343,46.1377],
[116.5148,46.2157],
[116.5661,46.2537],
[116.5776,46.2887],
[116.5983,46.303],
[116.6578,46.3211],
[116.7611,46.3292],
[116.7732,46.3453],
[116.8109,46.3554],
[116.816,46.3753],
[116.8315,46.3837],
[116.8813,46.3735],
[116.8965,46.377],
[117.0885,46.3544],
[117.2432,46.3649],
[117.3685,46.3605],
[117.3803,46.3969],
[117.3694,46.4085],
[117.3922,46.4782],
[117.4407,46.5255],
[117.4151,46.5805],
[117.4938,46.5984],
[117.514,46.5902],
[117.5245,46.5982],
[117.5715,46.5955],
[117.5882,46.6033],
[117.6157,46.5949],
[117.6327,46.5791],
[117.6353,46.5547],
[117.702,46.5133],
[117.7606,46.5241],
[117.7664,46.5327],
[117.8316,46.5283],
[117.8641,46.5465],
[117.8626,46.5679],
[117.9269,46.6134],
[117.9681,46.6113],
[118.0355,46.6261],
[118.1008,46.6618],
[118.1156,46.6787],
[118.1912,46.6826],
[118.2114,46.6924],
[118.2278,46.713],
[118.273,46.7199],
[118.3129,46.74],
[118.4024,46.727],
[118.449,46.7048],
[118.5775,46.6934],
[118.6475,46.7194],
[118.6737,46.6961],
[118.7896,46.6857],
[118.7935,46.7001],
[118.7834,46.7172],
[118.8084,46.7334],
[118.8324,46.7673],
[118.8969,46.7758],
[118.9097,46.7701],
[118.915,46.743],
[118.9011,46.7325],
[118.9159,46.724],
[118.9424,46.7212],
[118.9579,46.7372],
[118.9999,46.7511],
[119.0083,46.7463],
[119.0129,46.7315],
[119.0449,46.6957],
[119.1008,46.6475],
[119.1308,46.6487],
[119.1408,46.656],
[119.1864,46.6438],
[119.2209,46.6508],
[119.2579,46.6423],
[119.2625,46.6279],
[119.3006,46.6087],
[119.3416,46.6178],
[119.3756,46.6055],
[119.4305,46.6386],
[119.48,46.6291],
[119.5555,46.6339],
[119.5814,46.6137],
[119.61,46.6193],
[119.6457,46.6248],
[119.6661,46.6171],
[119.6773,46.5855],
[119.7315,46.6147],
[119.7461,46.6117],
[119.7746,46.6253],
[119.8069,46.6674],
[119.8026,46.6818],
[119.8261,46.6723],
[119.7614,46.8133],
[119.7422,46.8395],
[119.7457,46.8788],
[119.7196,46.8967],
[119.6725,46.9026],
[119.6342,46.9288],
[119.6115,46.9336],
[119.5209,46.9241],
[119.4878,46.9455],
[119.4321,46.9621],
[119.3903,46.9574],
[119.3676,46.974],
[119.3868,47.0132],
[119.446,47.0465],
[119.5,47.0548],
[119.4827,47.1287],
[119.5129,47.1615],
[119.5519,47.1666],
[119.5593,47.1943],
[119.576,47.2044],
[119.5723,47.2334],
[119.564,47.2416],
[119.5703,47.2441],
[119.5508,47.2561],
[119.5589,47.2564],
[119.5618,47.2675],
[119.5494,47.2779],
[119.5618,47.2762],
[119.5537,47.2833],
[119.5605,47.2856],
[119.5507,47.2891],
[119.5555,47.2996],
[119.5325,47.2999],
[119.5301,47.307],
[119.5207,47.3021],
[119.5214,47.3167],
[119.4998,47.3258],
[119.4834,47.3225],
[119.4744,47.3269],
[119.4799,47.3335],
[119.4577,47.3526],
[119.4637,47.3582],
[119.3621,47.4034],
[119.3691,47.4078],
[119.3594,47.4119],
[119.3587,47.422],
[119.3425,47.4236],
[119.3475,47.4288],
[119.3215,47.4243],
[119.1946,47.4473],
[119.1525,47.4973],
[118.9664,47.5292],
[118.9359,47.549],
[118.8938,47.5618],
[118.8342,47.5676],
[118.7922,47.5813],
[118.7718,47.599],
[118.7254,47.6156],
[118.667,47.6222],
[118.6466,47.6369],
[118.6133,47.6408],
[118.5712,47.7307],
[118.5654,47.8273],
[118.5508,47.8409],
[118.5146,47.8477],
[118.471,47.8682],
[118.4643,47.9057],
[118.4826,47.9635],
[118.4739,47.9849],
[118.4506,47.9965],
[118.4353,47.9923],
[118.4346,48.0011],
[118.4175,48.014],
[118.3625,48.0136],
[118.3538,48.0108],
[118.3567,48.0047],
[118.3425,48.0036],
[118.3034,48.011],
[118.2904,48.0032],
[118.2704,48.0069],
[118.2574,48.0249],
[118.2493,48.0192],
[118.2302,48.0283],
[118.2311,48.041],
[118.1975,48.0423],
[118.1806,48.0389],
[118.1699,48.0482],
[118.1337,48.0344],
[118.1378,48.0311],
[118.1152,48.0199],
[118.1086,48.0056],
[118.0769,47.9904],
[118.0762,47.9475],
[118.0674,47.9371],
[118.0017,47.9328],
[117.9774,47.9387],
[117.9597,47.9269],
[117.9325,47.9229],
[117.8765,47.9289],
[117.8441,47.9234],
[117.8397,47.8978],
[117.8677,47.9037],
[117.8824,47.8859],
[117.8868,47.8385],
[117.8759,47.809],
[117.7716,47.7229],
[117.6757,47.6767],
[117.6557,47.6583],
[117.5798,47.6419],
[117.564,47.6506],
[117.4438,47.6158],
[117.0726,47.3793],
[116.3655,47.408],
[116.3115,47.4159],
[116.2598,47.435],
[116.1024,47.5191],
[116.0319,47.5302],
[115.9662,47.5223],
[115.9192,47.5318],
[115.8581,47.573],
[115.6937,47.8292],
[115.6913,47.8709],
[115.703,47.9119],
[115.7336,47.9638],
[115.743,48.0236],
[115.7665,48.0754],
[115.8088,48.1052],
[115.851,48.1083],
[115.9309,48.1334],
[115.9568,48.1601],
[115.9591,48.193],
[115.9474,48.2212],
[115.7994,48.3275],
[115.79,48.3743],
[115.817,48.5247],
[115.8499,48.5542],
[115.9039,48.5775],
[115.9767,48.6242],
[116.1318,48.7962],
[116.2234,48.8596],
[116.436,49.1639],
[116.4219,49.2928],
[116.4242,49.3632],
[116.436,49.4106],
[116.7059,49.8527],
[116.6495,49.9023],
[116.6216,49.9311],
[116.531,49.9454],
[116.3982,49.9809],
[116.233,50.0359],
[116.1857,50.0307],
[116.0727,50.0137],
[115.9829,49.9707],
[115.7454,49.8872],
[115.6548,49.8891],
[115.6099,49.9003],
[115.5067,49.9071],
[115.4712,49.9195],
[115.3687,49.9387],
[115.2239,49.9884],
[115.1292,50.0572],
[115.0793,50.0833],
[115.0677,50.0939],
[115.0685,50.1091],
[115.039,50.1366],
[115.0075,50.1639],
[114.9647,50.1821],
[114.8312,50.2237],
[114.7523,50.2338],
[114.7029,50.2423],
[114.6171,50.2456],
[114.5501,50.2345],
[114.4677,50.2335],
[114.3388,50.2827],
[114.1784,50.243],
[114.1055,50.2112],
[114.0621,50.1836],
[114,50.1637],
[113.8958,50.1116],
[113.7752,50.0814],
[113.7341,50.0706],
[113.7103,50.0442],
[113.6404,49.9927],
[113.5919,49.9848],
[113.534,49.9792],
[113.4888,49.9736],
[113.4739,49.9354],
[113.2628,49.8558],
[113.2061,49.8283],
[113.1623,49.7805],
[113.1597,49.7536],
[113.1283,49.7335],
[113.1144,49.7014],
[113.0736,49.6563],
[113.0686,49.6348],
[113.0439,49.6082],
[113.0143,49.5935],
[112.9475,49.5847],
[112.9151,49.5691],
[112.8108,49.5159],
[112.7858,49.5151],
[112.7442,49.5079],
[112.7226,49.52],
[112.6889,49.5041],
[112.6436,49.5139],
[112.6021,49.51],
[112.4865,49.5241],
[112.3555,49.4993],
[112.2783,49.4844],
[112.1946,49.4466],
[112.128,49.4311],
[111.9961,49.3919],
[111.9412,49.3797],
[111.8483,49.3746],
[111.8018,49.3788],
[111.7551,49.3865],
[111.689,49.3842],
[111.5231,49.3232],
[111.3748,49.3577],
[111.2768,49.3104],
[111.0786,49.262],
[110.8193,49.182],
[110.7083,49.1701],
[110.5518,49.1938],
[110.5244,49.1901],
[110.4252,49.223],
[110.4142,49.2283],
[110.4043,49.2489],
[110.3905,49.2515],
[110.3281,49.1991],
[110.2654,49.1717],
[110.1998,49.1542],
[110.1352,49.1664],
[110.1199,49.178],
[110.0924,49.1831],
[110.0306,49.1851],
[109.9026,49.2057],
[109.8533,49.2016],
[109.7939,49.2163],
[109.6838,49.226],
[109.5591,49.2208],
[109.4996,49.2362],
[109.487,49.2432],
[109.4753,49.2674],
[109.4325,49.2729],
[109.4222,49.2944],
[109.39,49.3003],
[109.3455,49.3249],
[109.1946,49.3523],
[109.0388,49.3246],
[108.9416,49.3462],
[108.9086,49.345],
[108.8912,49.3337],
[108.8621,49.3377],
[108.8488,49.3266],
[108.8206,49.3432],
[108.7962,49.3346],
[108.7464,49.3416],
[108.7178,49.3349],
[108.6525,49.3473],
[108.6081,49.3273],
[108.5714,49.3311],
[108.5175,49.3227],
[108.4701,49.3612],
[108.4662,49.3567],
[108.431,49.3721],
[108.4381,49.3938],
[108.4258,49.4135],
[108.3564,49.4279],
[108.3502,49.4656],
[108.3306,49.4975],
[108.3065,49.5077],
[108.2978,49.5399],
[108.2343,49.5402],
[108.1959,49.559],
[108.1611,49.5618],
[108.1243,49.5771],
[108.1308,49.5835],
[108.0275,49.6223],
[108.0349,49.6379],
[108.0242,49.6535],
[108.023,49.6734],
[107.9683,49.6548],
[107.9471,49.6706],
[107.9343,49.7114],
[107.9677,49.735],
[107.9698,49.7474],
[107.9485,49.7848],
[107.9726,49.7922],
[107.9806,49.8091],
[107.9367,49.8192],
[107.9319,49.8319],
[107.9444,49.8549],
[107.9233,49.8655],
[107.9192,49.8754],
[107.9704,49.9155],
[107.9745,49.937],
[107.9512,49.9439],
[107.9257,49.9364],
[107.8532,49.9365],
[107.8497,49.9522],
[107.8359,49.9612],
[107.8225,49.9569],
[107.8102,49.9372],
[107.7942,49.9332],
[107.7543,49.9706],
[107.7021,49.9881],
[107.6833,49.9849],
[107.6811,49.9721],
[107.6422,49.9777],
[107.6143,49.9718],
[107.585,49.971],
[107.5448,49.9857],
[107.5285,49.9756],
[107.4349,49.9835],
[107.4247,49.9788],
[107.4283,49.9717],
[107.411,49.9793],
[107.383,49.9776],
[107.3489,49.9997],
[107.3194,50.0038],
[107.2794,50.0005],
[107.2711,49.9901],
[107.2572,49.9882],
[107.2209,50.0052],
[107.213,49.9989],
[107.2045,50.0079],
[107.193,50.0066],
[107.1887,50.0148],
[107.169,50.0134],
[107.1643,50.0218],
[107.1461,50.0288],
[107.152,50.0433],
[107.0994,50.05],
[107.0912,50.0652],
[107.0799,50.0619],
[107.0719,50.0683],
[107.0664,50.0789],
[107.0753,50.0895],
[107.057,50.0878],
[107.0394,50.1291],
[107,50.1572],
[107.0134,50.1669],
[106.9968,50.1835],
[107.0136,50.191],
[107.0125,50.1991],
[106.9233,50.2383],
[106.8412,50.2832],
[106.8157,50.2982],
[106.7532,50.3126],
[106.5916,50.3385],
[106.5683,50.3346],
[106.5446,50.3432],
[106.5125,50.3429],
[106.4972,50.3242],
[106.4687,50.3181],
[106.387,50.3194],
[106.3179,50.3011],
[106.2612,50.2981],
[106.2097,50.3192],
[106.183,50.3397],
[106.1649,50.3388],
[106.0806,50.3354],
[106.0671,50.3515],
[106.0728,50.3821],
[106.0747,50.3896],
[106.0574,50.4045],
[105.9888,50.416],
[105.8991,50.4126],
[105.8442,50.4404],
[105.8197,50.4402],
[105.7051,50.4264],
[105.6446,50.4355],
[105.6288,50.4274],
[105.5251,50.458],
[105.4787,50.4444],
[105.4266,50.4442],
[105.3587,50.4769],
[105.3272,50.4731],
[105.2682,50.4654],
[105.2636,50.4599],
[105.2696,50.448],
[105.2586,50.4407],
[105.1981,50.4115],
[105.1632,50.4125],
[105.1563,50.4029],
[105.1202,50.3899],
[105.1045,50.3979],
[105.088,50.3879],
[105.0081,50.3869],
[104.977,50.3943],
[104.9652,50.4039],
[104.8898,50.4078],
[104.8739,50.3877],
[104.8734,50.3709],
[104.8519,50.3671],
[104.8499,50.3593],
[104.8323,50.36],
[104.8117,50.341],
[104.7695,50.3451],
[104.7633,50.3388],
[104.7234,50.3575],
[104.7097,50.3539],
[104.6992,50.3672],
[104.6731,50.3592],
[104.6684,50.3435],
[104.6502,50.3241],
[104.6227,50.3165],
[104.6088,50.3204],
[104.5612,50.3011],
[104.5337,50.3146],
[104.5069,50.3142],
[104.49,50.3076],
[104.4558,50.3144],
[104.4472,50.3058],
[104.4356,50.3072],
[104.3919,50.3116],
[104.3816,50.2965],
[104.3633,50.2632],
[104.3369,50.2433],
[104.2932,50.2418],
[104.2735,50.2213],
[104.2783,50.2012],
[104.1962,50.1755],
[104.1392,50.1394],
[104.0859,50.1417],
[104.0566,50.1511],
[103.9986,50.1503],
[103.9766,50.1562],
[103.9727,50.1651],
[103.9527,50.1667],
[103.939,50.1831],
[103.9312,50.1773],
[103.9051,50.1837],
[103.8903,50.1761],
[103.8797,50.1902],
[103.8361,50.1943],
[103.8371,50.1843],
[103.8006,50.1519],
[103.7784,50.1648],
[103.7378,50.1588],
[103.7254,50.1279],
[103.7102,50.1245],
[103.6842,50.1429],
[103.6501,50.1423],
[103.6353,50.1498],
[103.6085,50.1441],
[103.6023,50.1662],
[103.5572,50.1627],
[103.5142,50.1991],
[103.4904,50.1969],
[103.4248,50.2117],
[103.3791,50.2087],
[103.3687,50.2003],
[103.3534,50.203],
[103.2941,50.1859],
[103.2563,50.1929],
[103.2563,50.21],
[103.276,50.2262],
[103.2493,50.2558],
[103.2686,50.2642],
[103.2764,50.2849],
[103.2657,50.2905],
[103.2645,50.3005],
[103.2487,50.3027],
[103.2381,50.3219],
[103.2209,50.3191],
[103.2064,50.3314],
[103.1754,50.3314],
[103.1723,50.3165],
[103.1537,50.3151],
[103.1472,50.306],
[103.1045,50.3188],
[103.0746,50.319],
[103.0229,50.3059],
[102.9681,50.3045],
[102.9231,50.3104],
[102.8988,50.3291],
[102.8477,50.332],
[102.837,50.3438],
[102.8282,50.3553],
[102.7615,50.377],
[102.7505,50.4002],
[102.7318,50.4085],
[102.6882,50.3934],
[102.6477,50.4022],
[102.6428,50.4104],
[102.6161,50.4537],
[102.6205,50.4682],
[102.6106,50.5064],
[102.541,50.5316],
[102.5539,50.556],
[102.5362,50.5885],
[102.4696,50.601],
[102.4469,50.6195],
[102.4459,50.6457],
[102.3999,50.6416],
[102.3767,50.6667],
[102.3479,50.6629],
[102.3023,50.6819],
[102.3059,50.7021],
[102.3323,50.7186],
[102.3403,50.7325],
[102.3233,50.7516],
[102.2738,50.7931],
[102.2419,50.7975],
[102.2097,50.817],
[102.2205,50.8281],
[102.2096,50.8417],
[102.221,50.8518],
[102.212,50.8758],
[102.2454,50.902],
[102.2411,50.9175],
[102.2177,50.93],
[102.225,50.9376],
[102.2138,50.9538],
[102.243,50.9749],
[102.2302,50.9766],
[102.2036,51.0395],
[102.1511,51.0573],
[102.1492,51.0795],
[102.1641,51.0844],
[102.1699,51.0962],
[102.1402,51.0994],
[102.1328,51.1105],
[102.135,51.1313],
[102.1233,51.1391],
[102.1356,51.1592],
[102.1351,51.1742],
[102.1657,51.1814],
[102.1278,51.21],
[102.143,51.2204],
[102.1045,51.2465],
[102.1173,51.2559],
[102.1156,51.2878],
[102.1501,51.2795],
[102.184,51.295],
[102.1447,51.3418],
[102.125,51.3488],
[102.1243,51.3616],
[102.0221,51.3958],
[102.002,51.3867],
[101.9878,51.3951],
[101.9715,51.3927],
[101.9519,51.4137],
[101.9123,51.4144],
[101.8888,51.4008],
[101.8847,51.4085],
[101.8665,51.4086],
[101.8637,51.417],
[101.8285,51.4152],
[101.8041,51.4382],
[101.7491,51.4553],
[101.619,51.44],
[101.615,51.4543],
[101.6223,51.4692],
[101.5848,51.4812],
[101.5677,51.4699],
[101.5563,51.4928],
[101.4998,51.5033],
[101.4596,51.4912],
[101.4588,51.4707],
[101.4389,51.4557],
[101.3701,51.4558],
[101.3578,51.4677],
[101.3661,51.4716],
[101.3414,51.4895],
[101.2842,51.5081],
[101.2601,51.5426],
[101.2382,51.5466],
[101.1935,51.5224],
[101.1433,51.5201],
[101.1325,51.5242],
[101.1304,51.5481],
[101.1024,51.5792],
[101.1044,51.5912],
[101.0787,51.5598],
[101.0598,51.5712],
[101.0174,51.5703],
[101.0146,51.5804],
[101.0223,51.5872],
[100.9902,51.6128],
[100.9579,51.6159],
[100.9298,51.6068],
[100.8569,51.6337],
[100.8627,51.6417],
[100.8507,51.648],
[100.8228,51.6485],
[100.8102,51.6621],
[100.7345,51.6797],
[100.6929,51.7102],
[100.6685,51.7067],
[100.6573,51.7143],
[100.6562,51.7268],
[100.6231,51.7255],
[100.5974,51.7186],
[100.5865,51.7405],
[100.5355,51.7361],
[100.5289,51.7501],
[100.4529,51.7384],
[100.4438,51.7264],
[100.4103,51.73],
[100.4144,51.7479],
[100.3871,51.7383],
[100.3125,51.7368],
[100.2961,51.7428],
[100.2806,51.7375],
[100.262,51.7504],
[100.201,51.743],
[100.1387,51.7593],
[100.1034,51.7546],
[100.0614,51.7327],
[100.0087,51.7399],
[99.9798,51.7547],
[99.9645,51.7418],
[99.9275,51.748],
[99.9165,51.7376],
[99.8982,51.7596],
[99.8837,51.7615],
[99.8692,51.7775],
[99.8644,51.8055],
[99.8308,51.8068],
[99.8454,51.8207],
[99.8476,51.835],
[99.8195,51.8478],
[99.8279,51.8573],
[99.828,51.8832],
[99.8046,51.9137],
[99.6954,51.9],
[99.6827,51.8877],
[99.665,51.9044],
[99.6257,51.8927],
[99.6138,51.8791],
[99.5998,51.9043],
[99.601,51.9242],
[99.5689,51.9334],
[99.54,51.9523],
[99.5467,51.9601],
[99.5199,51.9685],
[99.4983,51.9514],
[99.48,51.9555],
[99.4626,51.949],
[99.4374,51.9561],
[99.4114,51.9531],
[99.401,51.9659],
[99.3895,51.9639],
[99.3885,51.955],
[99.3679,51.9538],
[99.3649,51.94],
[99.3364,51.9568],
[99.3055,51.9575],
[99.2631,51.9765],
[99.2826,51.9869],
[99.2686,51.9973],
[99.2805,52.0127],
[99.2761,52.0186],
[99.2366,52.0126],
[99.2179,52.0276],
[99.1736,52.0356],
[99.1281,52.0246],
[99.1038,52.0494],
[99.0854,52.0503],
[99.083,52.0637],
[99.0717,52.0695],
[99.0255,52.0657],
[99.0046,52.0747],
[99.0101,52.0797],
[98.9974,52.0865],
[99.0006,52.0996],
[98.9796,52.1154],
[98.9812,52.1272],
[98.9692,52.1426],
[98.9111,52.1496],
[98.8542,52.129],
[98.8572,52.1136],
[98.8397,52.0983],
[98.8413,52.0588],
[98.8065,52.0255],
[98.8196,52.0147],
[98.8071,52],
[98.809,51.9581],
[98.7799,51.9418],
[98.7643,51.8699],
[98.6805,51.8203],
[98.6645,51.8258],
[98.6124,51.8063],
[98.6038,51.7937],
[98.5546,51.7902],
[98.5328,51.7981],
[98.5156,51.7739],
[98.4523,51.7366],
[98.3785,51.7398],
[98.354,51.7315],
[98.3559,51.7011],
[98.3284,51.6973],
[98.2748,51.6161],
[98.2477,51.5971],
[98.2232,51.5951],
[98.2204,51.587],
[98.245,51.58],
[98.2341,51.5476],
[98.2574,51.5296],
[98.2563,51.5117],
[98.2269,51.4621],
[98.2241,51.4567],
[98.1866,51.4618],
[98.1809,51.4546],
[98.126,51.4713],
[98.0501,51.4502],
[98.049,51.4365],
[98.0211,51.3941],
[97.9873,51.365],
[97.9772,51.3649],
[97.9535,51.3342],
[97.962,51.2758],
[97.9408,51.2632],
[97.9458,51.2324],
[97.9347,51.2179],
[97.9393,51.202],
[97.9186,51.1702],
[97.9175,51.155],
[97.8991,51.1494],
[97.8966,51.1214],
[97.9011,51.1174],
[97.894,51.1053],
[97.8816,51.0966],
[97.8715,51.0802],
[97.8788,51.0773],
[97.8775,51.0683],
[97.8674,51.0648],
[97.8712,51.0514],
[97.8321,51.0256],
[97.8246,51.0098],
[97.8525,50.9936],
[97.8619,50.975],
[97.8565,50.9617],
[97.8793,50.9461],
[97.8867,50.9304],
[97.9354,50.9113],
[97.9423,50.915],
[97.9507,50.9076],
[97.9474,50.9011],
[97.9598,50.9006],
[97.9645,50.8894],
[97.9851,50.8905],
[97.9987,50.8757],
[98.0158,50.8745],
[98.0333,50.8647],
[98.0087,50.8365],
[97.9889,50.8327],
[97.9849,50.8212],
[97.9497,50.8081],
[97.9786,50.7841],
[97.9708,50.7499],
[97.991,50.733],
[97.9974,50.6989],
[98.0245,50.6919],
[98.008,50.6692],
[98.0236,50.6639],
[98.0252,50.6551],
[98.096,50.599],
[98.1243,50.5932],
[98.1872,50.5575],
[98.2728,50.5389],
[98.288,50.5249],
[98.2995,50.4978],
[98.3233,50.4952],
[98.3226,50.4911],
[98.3281,50.4763],
[98.3217,50.4682],
[98.2983,50.4522],
[98.2999,50.4409],
[98.2739,50.4093],
[98.2831,50.4045],
[98.2706,50.3985],
[98.2997,50.3614],
[98.2991,50.35],
[98.2852,50.3432],
[98.2942,50.3389],
[98.3046,50.3378],
[98.3081,50.3233],
[98.266,50.3067],
[98.2521,50.2933],
[98.2482,50.2728],
[98.2335,50.2612],
[98.2293,50.2387],
[98.172,50.2051],
[98.1697,50.1968],
[98.1849,50.1725],
[98.1823,50.1581],
[98.1491,50.1343],
[98.1127,50.1387],
[98.1204,50.1002],
[98.1027,50.0775],
[98.0637,50.07],
[98.0699,50.0359],
[98.0306,50.0346],
[97.989,50.0226],
[97.9783,50.0018],
[97.9342,49.9781],
[97.8978,49.984],
[97.8715,49.9755],
[97.8678,49.9539],
[97.8949,49.929],
[97.8701,49.918],
[97.8296,49.923],
[97.815,49.9507],
[97.7925,49.9587],
[97.7809,49.9755],
[97.7804,49.9936],
[97.7621,50.0005],
[97.739,49.9788],
[97.7098,49.9747],
[97.7004,49.9611],
[97.6781,49.9618],
[97.6157,49.9375],
[97.5716,49.9408],
[97.5548,49.9226],
[97.5783,49.9139],
[97.5673,49.905],
[97.5865,49.883],
[97.5806,49.8584],
[97.561,49.8546],
[97.5577,49.8436],
[97.5423,49.8449],
[97.5199,49.8341],
[97.5104,49.8147],
[97.4967,49.8064],
[97.466,49.8029],
[97.4216,49.7807],
[97.3992,49.7865],
[97.3842,49.7772],
[97.361,49.7822],
[97.3368,49.7687],
[97.3352,49.7578],
[97.3179,49.7518],
[97.2555,49.7505],
[97.2311,49.7429],
[97.1791,49.7775],
[97.1305,49.7911],
[97.1194,49.7925],
[97.1311,49.8116],
[97.1197,49.8196],
[97.0101,49.8334],
[96.9973,49.8575],
[96.995,49.893],
[96.8516,49.8957],
[96.8193,49.9111],
[96.7409,49.9076],
[96.7092,49.9287],
[96.6031,49.8737],
[96.5881,49.8851],
[96.5552,49.94],
[96.5254,49.9442],
[96.5119,49.9413],
[96.5003,49.9255],
[96.4738,49.9178],
[96.4591,49.9078],
[96.4615,49.8952],
[96.4245,49.8758],
[96.3483,49.9053],
[96.3398,49.9151],
[96.3473,49.926],
[96.3376,49.9316],
[96.3366,49.9428],
[96.3251,49.9487],
[96.3,49.9449],
[96.2998,49.9542],
[96.2807,49.9555],
[96.2607,49.9766],
[96.2215,49.9771],
[96.1974,49.9883],
[96.1069,49.9891],
[96.0829,50.0099],
[96.0662,50.0127],
[96.0175,50.0034],
[95.9964,49.9758],
[95.9676,49.9711],
[95.9352,49.9968],
[95.9101,49.9968],
[95.9065,50.0086],
[95.9161,50.021],
[95.8927,50.0315],
[95.8609,50.0436],
[95.796,50.0307],
[95.7907,50.0354],
[95.7602,50.0077],
[95.7636,49.9975],
[95.7888,49.984],
[95.7956,49.9641],
[95.7415,49.9675],
[95.7326,49.9597],
[95.707,49.959],
[95.6661,49.9643],
[95.653,49.9561],
[95.5723,49.9443],
[95.5537,49.9108],
[95.532,49.8972],
[95.5054,49.9073],
[95.497,49.9109],
[95.4259,49.9576],
[95.0816,49.9629],
[95.0165,49.9805],
[94.9973,50.0146],
[94.9992,50.0443],
[94.7607,50.0549],
[94.675,50.0372],
[94.6223,50.0355],
[94.6145,50.0356],
[94.6013,50.0702],
[94.5498,50.1154],
[94.5301,50.1359],
[94.5222,50.141],
[94.5309,50.1515],
[94.5203,50.1743],
[94.4808,50.1909],
[94.4542,50.1929],
[94.4432,50.1898],
[94.4208,50.1919],
[94.3891,50.2151],
[94.3631,50.3786],
[94.3415,50.5012],
[94.3047,50.5259],
[94.2837,50.5719],
[94.2404,50.5878],
[94.031,50.5967],
[93.9944,50.6048],
[93.941,50.5899],
[93.8562,50.6011],
[93.7034,50.5862],
[93.667,50.5905],
[93.636,50.6071],
[93.5817,50.605],
[93.5737,50.6097],
[93.5627,50.6029],
[93.5582,50.6122],
[93.5531,50.6033],
[93.5366,50.6006],
[93.5324,50.6086],
[93.5204,50.6036],
[93.5178,50.6126],
[93.5051,50.6164],
[93.4653,50.6271],
[93.3877,50.6314],
[93.3226,50.6148],
[93.2717,50.6102],
[93.2533,50.605],
[93.249,50.5941],
[93.225,50.5898],
[93.1911,50.5989],
[93.1401,50.5983],
[93.1107,50.5863],
[93.0766,50.6007],
[93.0498,50.6011],
[93.0078,50.6377],
[92.9783,50.6664],
[92.9752,50.6696],
[92.9776,50.679],
[93.0229,50.7162],
[93.0319,50.768],
[93.0034,50.7919],
[92.9588,50.7944],
[92.9403,50.7875],
[92.8539,50.8098],
[92.7877,50.8056],
[92.7566,50.7759],
[92.7611,50.7336],
[92.7339,50.7193],
[92.7067,50.7082],
[92.6278,50.7034],
[92.6025,50.7201],
[92.6183,50.7678],
[92.6002,50.7851],
[92.5615,50.7993],
[92.4899,50.7857],
[92.4697,50.7889],
[92.421,50.8111],
[92.4049,50.8292],
[92.4085,50.8516],
[92.402,50.86],
[92.3608,50.8843],
[92.3129,50.8767],
[92.3291,50.8276],
[92.303,50.8099],
[92.3181,50.7828],
[92.3159,50.754],
[92.2902,50.7475],
[92.2667,50.7287],
[92.2029,50.7147],
[92.0723,50.6964],
[92.0143,50.7071],
[91.8551,50.7338],
[91.7503,50.699],
[91.7233,50.6975],
[91.6611,50.6401],
[91.6503,50.593],
[91.6499,50.5862],
[91.6374,50.5836],
[91.5343,50.5814],
[91.534,50.5726],
[91.5225,50.5708],
[91.5247,50.562],
[91.4549,50.5485],
[91.459,50.5084],
[91.4396,50.4906],
[91.4005,50.4765],
[91.4094,50.4506],
[91.32,50.4709],
[91.2933,50.4696],
[91.16,50.4201],
[91.0932,50.436],
[90.9989,50.4296],
[90.9069,50.4139],
[90.9023,50.3922],
[90.9119,50.3645],
[90.9056,50.3482],
[90.8785,50.3569],
[90.8481,50.3454],
[90.8293,50.3569],
[90.7956,50.3264],
[90.7726,50.3377],
[90.7165,50.3153],
[90.7064,50.3129],
[90.7308,50.2434],
[90.6733,50.2143],
[90.6489,50.2255],
[90.6182,50.224],
[90.5807,50.2439],
[90.5443,50.2432],
[90.4834,50.2282],
[90.4815,50.2103],
[90.4389,50.195],
[90.4121,50.1991],
[90.3889,50.1926],
[90.3587,50.1634],
[90.329,50.1522],
[90.2852,50.1109],
[90.2088,50.1027],
[90.1652,50.1082],
[90.0669,50.0831],
[90.0077,50.0579],
[90.0023,50.0542],
[90.0051,50.0318],
[90.0307,50.0078],
[90.0316,49.9986],
[90.022,50.0012],
[90.0173,49.9905],
[89.9748,49.9713],
[89.8828,49.953],
[89.8614,49.9594],
[89.706,49.9439],
[89.5936,49.9123],
[89.6309,49.8993],
[89.6308,49.8853],
[89.6149,49.8778],
[89.6117,49.8635],
[89.6304,49.8452],
[89.6432,49.8434],
[89.6398,49.8355],
[89.651,49.8264],
[89.625,49.818],
[89.6245,49.8064],
[89.6735,49.7835],
[89.7119,49.7901],
[89.7191,49.7719],
[89.7124,49.7618],
[89.7208,49.7523],
[89.7136,49.7412],
[89.7192,49.7283],
[89.6778,49.7143],
[89.6608,49.6999],
[89.5892,49.6819],
[89.5467,49.6845],
[89.5033,49.6698],
[89.4774,49.6618],
[89.4589,49.665],
[89.4274,49.6194],
[89.4075,49.6222],
[89.3846,49.6062],
[89.391,49.5953],
[89.3475,49.5826],
[89.345,49.5918],
[89.2506,49.6423],
[89.2188,49.642],
[89.1888,49.6325],
[89.1824,49.6229],
[89.1996,49.6043],
[89.1915,49.586],
[89.2327,49.5537],
[89.2009,49.5228],
[89.1621,49.5174],
[89.1476,49.5021],
[89.0846,49.4861],
[89.035,49.4861],
[89.0136,49.4696],
[88.9845,49.4637],
[88.9708,49.4657],
[88.96,49.4776],
[88.9595,49.5],
[88.9326,49.5168],
[88.9295,49.5429],
[88.9001,49.559],
[88.8696,49.5467],
[88.8777,49.5409],
[88.8797,49.5138],
[88.8749,49.5014],
[88.8571,49.4918],
[88.8801,49.4781],
[88.8686,49.4674],
[88.8534,49.4667],
[88.8628,49.4595],
[88.8429,49.4416],
[88.8022,49.4604],
[88.7496,49.4603],
[88.7328,49.4515],
[88.6836,49.4622],
[88.6323,49.4954],
[88.5909,49.5012],
[88.5561,49.4909],
[88.4756,49.4713],
[88.445,49.4726],
[88.4059,49.4946],
[88.368,49.4838],
[88.3312,49.4935],
[88.3258,49.4849],
[88.3179,49.4751],
[88.2977,49.4709],
[88.2632,49.4824],
[88.2374,49.4746],
[88.2218,49.4797],
[88.1656,49.4455],
[88.1782,49.4354],
[88.1844,49.4159],
[88.1191,49.3913],
[88.1171,49.3794],
[88.1241,49.3729],
[88.1605,49.3628],
[88.1656,49.3404],
[88.1544,49.3372],
[88.17,49.3255],
[88.1581,49.3165],
[88.1701,49.2936],
[88.1263,49.2786],
[88.1067,49.2566],
[88.0849,49.2552],
[88.0816,49.2607],
[88.0526,49.2568],
[88.0572,49.242],
[88.018,49.2263],
[87.9884,49.183],
[87.9566,49.1855],
[87.9244,49.1737],
[87.875,49.1714],
[87.8232,49.1778],
[87.8145,49.1702],
[87.8199,49.1664],
[87.8159,49.1483],
[87.8302,49.1489],
[87.8345,49.1364],
[87.8541,49.1186],
[87.8661,49.1173],
[87.8653,49.1105],
[87.8524,49.0974],
[87.8386,49.096],
[87.8362,49.0821],
[87.8542,49.0703],
[87.8259,49.0488],
[87.8361,49.0381],
[87.8592,49.0366],
[87.863,49.0251],
[87.8823,49.018],
[87.8689,49.0046],
[87.8699,48.995],
[87.9008,48.9821],
[87.8672,48.9688],
[87.8678,48.9482],
[87.8123,48.9503],
[87.7788,48.9263],
[87.755,48.9309],
[87.7648,48.9183],
[87.7516,48.9141],
[87.7545,48.9086],
[87.7342,48.8808]
]
]
]}
}
