{
"type": "Feature",
"properties": {"id":"ohm-r2957454","edge_precision":"unknown","ohm_relation":2957454,"ohm_version":8,"ohm_timestamp":"2026-09-22T01:04:21Z"},
"geometry": {"type": "MultiPolygon", "coordinates": [
[
[
[39.9814,43.3504],
[40.0619,43.342],
[40.139,43.3067],
[40.2063,43.2892],
[40.2311,43.177],
[40.2406,43.1631],
[40.3131,43.1163],
[40.3516,43.1096],
[40.3917,43.1316],
[40.46,43.1044],
[40.5003,43.1059],
[40.537,43.07],
[40.5754,43.0549],
[40.6434,43.0593],
[40.6794,43.0491],
[40.84,43.0399],
[40.9352,42.9543],
[40.9684,42.9441],
[41.0166,42.9581],
[41.036,42.9249],
[41.0607,42.8286],
[41.1169,42.7691],
[41.1653,42.7557],
[41.2171,42.7647],
[41.2627,42.7547],
[41.2931,42.7408],
[41.3719,42.7274],
[41.41,42.7044],
[41.4662,42.5795],
[41.4978,42.4102],
[41.5159,42.3706],
[41.5512,42.3484],
[41.5774,42.2898],
[41.5899,42.2408],
[41.5798,42.2079],
[41.6121,42.1222],
[41.7061,42.0007],
[41.7187,41.908],
[41.7277,41.8584],
[41.7225,41.8189],
[41.6755,41.7272],
[41.6472,41.6942],
[41.618,41.6922],
[41.5935,41.6804],
[41.5272,41.6212],
[41.5151,41.5642],
[41.4999,41.5381],
[41.4832,41.5091],
[41.4408,41.4884],
[41.481,41.4625],
[41.4947,41.4257],
[41.5263,41.4108],
[41.5283,41.3753],
[41.494,41.3485],
[41.4809,41.318],
[41.4919,41.2437],
[41.4487,41.1812],
[41.4487,41.1425],
[41.47,41.1088],
[41.5146,41.1016],
[41.6039,41.0566],
[41.7652,41.1337],
[41.8339,41.0861],
[41.8497,41.0633],
[41.8469,41.0322],
[41.8181,41.0032],
[41.8888,40.9426],
[41.8795,40.9177],
[41.8493,40.8938],
[41.8363,40.8587],
[41.8675,40.8359],
[41.8754,40.8065],
[41.8679,40.7868],
[41.8545,40.785],
[41.8277,40.7379],
[41.8195,40.702],
[41.8222,40.6635],
[41.8861,40.6113],
[41.9163,40.4919],
[41.9595,40.4198],
[42.0076,40.4355],
[42.0351,40.4668],
[42.1374,40.4783],
[42.1827,40.4945],
[42.2309,40.4885],
[42.25,40.4618],
[42.32,40.424],
[42.3248,40.3853],
[42.2829,40.3722],
[42.2479,40.3356],
[42.2541,40.2963],
[42.2932,40.2261],
[42.3495,40.2093],
[42.4429,40.1169],
[42.5233,40.0807],
[42.513,40.0455],
[42.526,40.0066],
[42.5562,39.9724],
[42.627,39.9276],
[42.673,39.9471],
[42.7286,39.9424],
[42.7801,39.9587],
[42.9483,39.984],
[42.9998,40.005],
[43.0527,40.0092],
[43.1035,39.9897],
[43.1646,39.9819],
[43.2243,39.9829],
[43.2858,39.9967],
[43.3548,39.9925],
[43.3781,39.982],
[43.3664,39.9251],
[43.4046,39.8713],
[43.4029,39.8411],
[43.4176,39.7992],
[43.4436,39.774],
[43.4757,39.7754],
[43.4925,39.7881],
[43.5077,39.8283],
[43.53,39.8414],
[43.5512,39.8404],
[43.6078,39.8012],
[43.7458,39.7663],
[43.7712,39.7634],
[43.8059,39.7816],
[43.8389,39.7774],
[43.8816,39.758],
[43.9766,39.7475],
[43.999,39.7278],
[44.0449,39.7399],
[44.0935,39.7328],
[44.1305,39.744],
[44.1774,39.7127],
[44.2552,39.6985],
[44.309,39.6705],
[44.4267,39.6608],
[44.4498,39.6656],
[44.4673,39.6841],
[44.6158,39.7802],
[44.6325,39.7559],
[44.6307,39.7441],
[44.6479,39.7274],
[44.6685,39.7145],
[44.6908,39.7174],
[44.7023,39.7101],
[44.7151,39.7143],
[44.7429,39.692],
[44.7524,39.6824],
[44.7548,39.6708],
[44.7985,39.6489],
[44.8093,39.6274],
[44.8193,39.613],
[44.8552,39.6025],
[44.8755,39.6153],
[44.8811,39.6082],
[44.8739,39.5936],
[44.8911,39.5964],
[44.8954,39.6057],
[44.8996,39.5985],
[44.8883,39.5813],
[44.9155,39.5671],
[44.9068,39.5394],
[44.9186,39.5328],
[44.9096,39.5251],
[44.9365,39.512],
[44.952,39.4916],
[44.9384,39.4887],
[44.9509,39.4841],
[44.9369,39.4809],
[44.9486,39.4716],
[44.9398,39.4599],
[44.9476,39.4516],
[44.9769,39.4494],
[44.9607,39.4419],
[44.9642,39.4221],
[45,39.4114],
[45,42.7257],
[44.9791,42.7455],
[44.8866,42.7469],
[44.8696,42.7258],
[44.8685,42.6914],
[44.8568,42.6769],
[44.8354,42.6731],
[44.823,42.6413],
[44.8295,42.6179],
[44.803,42.6149],
[44.7659,42.6443],
[44.7467,42.6892],
[44.7444,42.7059],
[44.7518,42.7139],
[44.7458,42.7212],
[44.68,42.7559],
[44.6502,42.7461],
[44.58,42.7451],
[44.5529,42.7665],
[44.5346,42.7534],
[44.5129,42.7539],
[44.5009,42.7345],
[44.521,42.7041],
[44.5173,42.6968],
[44.4171,42.7189],
[44.4109,42.7092],
[44.3932,42.7051],
[44.3816,42.7152],
[44.3498,42.7108],
[44.3128,42.7215],
[44.3005,42.7059],
[44.2495,42.6811],
[44.2309,42.6401],
[44.2324,42.6269],
[44.1939,42.6351],
[44.1632,42.6063],
[44.1498,42.6043],
[44.1162,42.618],
[44.09,42.6051],
[44.0221,42.5973],
[43.9636,42.547],
[43.945,42.5498],
[43.9436,42.5628],
[43.8755,42.58],
[43.8389,42.5984],
[43.8262,42.5931],
[43.7987,42.5991],
[43.77,42.5887],
[43.7522,42.6006],
[43.7543,42.6166],
[43.7148,42.632],
[43.7379,42.6495],
[43.7582,42.6538],
[43.7783,42.6774],
[43.8076,42.7206],
[43.8046,42.7431],
[43.7622,42.7656],
[43.706,42.778],
[43.6894,42.7871],
[43.6853,42.8018],
[43.6528,42.795],
[43.6438,42.7977],
[43.6374,42.8129],
[43.6073,42.8143],
[43.6105,42.8341],
[43.5602,42.8684],
[43.5076,42.8677],
[43.4778,42.8899],
[43.3985,42.8969],
[43.3348,42.8901],
[43.3175,42.9148],
[43.3004,42.9073],
[43.2907,42.918],
[43.1863,42.9376],
[43.1732,42.9628],
[43.1437,42.9693],
[43.1128,43.0003],
[43.0867,42.9997],
[43.035,43.0299],
[43.0387,43.0387],
[43.0258,43.048],
[43.0156,43.0711],
[43.0415,43.0904],
[42.9936,43.1167],
[42.9635,43.1251],
[42.9275,43.1241],
[42.9214,43.1357],
[42.9321,43.1484],
[42.898,43.1588],
[42.8811,43.1535],
[42.8775,43.1697],
[42.8603,43.1786],
[42.8116,43.1673],
[42.7766,43.1888],
[42.6816,43.1699],
[42.6716,43.1456],
[42.6753,43.1354],
[42.6665,43.136],
[42.6156,43.1646],
[42.5433,43.1766],
[42.51,43.1991],
[42.4572,43.2129],
[42.4442,43.2265],
[42.4521,43.2376],
[42.4421,43.2508],
[42.4138,43.257],
[42.3881,43.2438],
[42.3582,43.2468],
[42.3411,43.2204],
[42.3067,43.2233],
[42.2952,43.2109],
[42.2528,43.2123],
[42.2464,43.2281],
[42.2162,43.231],
[42.1806,43.215],
[42.1634,43.2224],
[42.1319,43.2103],
[42.0954,43.214],
[42.0807,43.2047],
[42.0404,43.1868],
[42.0191,43.2171],
[41.9717,43.2124],
[41.9588,43.2025],
[41.9418,43.2252],
[41.9034,43.2286],
[41.8851,43.2498],
[41.8629,43.2427],
[41.8658,43.2338],
[41.8484,43.2115],
[41.8307,43.2147],
[41.8039,43.202],
[41.7877,43.2192],
[41.7732,43.2183],
[41.7281,43.2415],
[41.6927,43.2185],
[41.681,43.2172],
[41.6581,43.2378],
[41.6345,43.222],
[41.6142,43.221],
[41.5835,43.2374],
[41.5764,43.2536],
[41.5618,43.2493],
[41.5445,43.2696],
[41.5056,43.2819],
[41.4827,43.2911],
[41.4616,43.3085],
[41.4381,43.3065],
[41.4199,43.3182],
[41.4092,43.333],
[41.4152,43.3517],
[41.3936,43.3662],
[41.366,43.3701],
[41.3408,43.3475],
[41.291,43.337],
[41.2749,43.3476],
[41.2799,43.3527],
[41.2748,43.3606],
[41.2432,43.3589],
[41.2211,43.3805],
[41.168,43.3834],
[41.1555,43.3892],
[41.1526,43.4033],
[41.1275,43.397],
[41.1012,43.401],
[41.0964,43.3852],
[41.0468,43.3953],
[41.0043,43.4322],
[40.9499,43.4197],
[40.9292,43.4287],
[40.9236,43.4483],
[40.8929,43.4584],
[40.8994,43.4695],
[40.891,43.4895],
[40.8278,43.488],
[40.7133,43.5325],
[40.6933,43.5349],
[40.6924,43.5479],
[40.6618,43.5631],
[40.6079,43.5467],
[40.5938,43.531],
[40.5645,43.5187],
[40.5045,43.5251],
[40.4777,43.5491],
[40.4625,43.5465],
[40.4338,43.558],
[40.3879,43.5548],
[40.3285,43.5666],
[40.3145,43.5786],
[40.2944,43.5715],
[40.2603,43.5864],
[40.2131,43.5748],
[40.157,43.575],
[40.1306,43.5657],
[40.1065,43.5696],
[40.0906,43.5546],
[40.0951,43.5296],
[40.0632,43.5049],
[40.0447,43.4745],
[40.0412,43.4525],
[40.013,43.4299],
[40.0085,43.3852],
[39.9814,43.3504]
]
]
]}
}
