{
"type": "Feature",
"properties": {"id":"ohm-r2746682","edge_precision":"unknown","ohm_relation":2746682,"ohm_version":88,"ohm_timestamp":"2026-09-21T03:16:01Z"},
"geometry": {"type": "MultiPolygon", "coordinates": [
[
[
[18.9125,43.5022],
[18.9251,43.4912],
[18.9352,43.4942],
[18.9364,43.5027],
[18.95,43.5037],
[18.9617,43.4701],
[18.9561,43.4522],
[18.9779,43.456],
[18.9998,43.439],
[19.011,43.4456],
[19.0206,43.4086],
[19.042,43.3969],
[19.0346,43.379],
[19.0406,43.3647],
[19.061,43.3524],
[19.0831,43.3191],
[19.0802,43.2998],
[19.0361,43.2899],
[19.0085,43.2507],
[19.0161,43.2396],
[19.0394,43.239],
[19.06,43.2136],
[19.0927,43.2213],
[19.1109,43.2125],
[19.1369,43.2259],
[19.1703,43.2217],
[19.255,43.1768],
[19.2761,43.1583],
[19.2916,43.1558],
[19.3124,43.1275],
[19.3255,43.1296],
[19.3594,43.1148],
[19.3765,43.0961],
[19.3967,43.0333],
[19.4123,43.0157],
[19.4873,42.998],
[19.5762,42.9576],
[19.5836,42.9602],
[19.6212,42.9611],
[19.6799,42.9359],
[19.683,42.9024],
[19.6729,42.8833],
[19.6971,42.8659],
[19.716,42.8349],
[19.753,42.8228],
[19.7988,42.7951],
[19.8387,42.7915],
[19.9768,42.7498],
[19.9886,42.7258],
[19.9749,42.7114],
[20.0203,42.6983],
[20.0113,42.6773],
[20.0153,42.6616],
[19.9743,42.6607],
[19.9749,42.6521],
[19.9602,42.6403],
[19.9236,42.6498],
[19.9567,42.6891],
[19.9448,42.7028],
[19.9164,42.6918],
[19.9002,42.6416],
[19.8758,42.6307],
[19.8705,42.6395],
[19.8571,42.6413],
[19.86,42.65],
[19.853,42.6545],
[19.802,42.6609],
[19.7547,42.6405],
[19.7414,42.6439],
[19.7319,42.6596],
[19.7113,42.6563],
[19.7025,42.6442],
[19.6521,42.6339],
[19.6077,42.5683],
[19.6179,42.5504],
[19.615,42.5414],
[19.5651,42.5091],
[19.56,42.4884],
[19.5067,42.4414],
[19.505,42.4241],
[19.4658,42.4302],
[19.4569,42.4397],
[19.4257,42.4213],
[19.3591,42.4347],
[19.3222,42.4238],
[19.3022,42.4028],
[19.2958,42.3689],
[19.2664,42.3202],
[19.283,42.3067],
[19.2472,42.2641],
[19.3351,42.1061],
[19.2747,42.0544],
[19.231,42.0505],
[19.2168,42.0332],
[19.2201,42.0224],
[19.2646,42.0036],
[19.2682,41.9858],
[19.3519,41.9722],
[19.3505,41.9565],
[19.3514,41.9398],
[19.3717,41.9236],
[19.3441,41.9123],
[19.3426,41.9053],
[19.382,41.885],
[19.3709,41.8421],
[19.3426,41.8147],
[19.3722,41.807],
[19.4401,41.8217],
[19.4984,41.8068],
[19.5357,41.7874],
[19.5224,41.7529],
[19.5326,41.7109],
[19.5199,41.6584],
[19.5207,41.628],
[19.5294,41.6106],
[19.5158,41.6065],
[19.4483,41.6222],
[19.4062,41.6026],
[19.3997,41.5827],
[19.416,41.5408],
[19.4639,41.5118],
[19.4621,41.4998],
[19.4444,41.476],
[19.4071,41.4493],
[19.3656,41.4457],
[19.342,41.419],
[19.3445,41.3997],
[19.3694,41.3643],
[19.3778,41.3079],
[19.4096,41.2789],
[19.439,41.2662],
[19.4662,41.2661],
[19.4698,41.2559],
[19.4385,41.2147],
[19.426,41.1835],
[19.3988,41.1703],
[19.3869,41.1464],
[19.4071,41.1031],
[19.3915,41.0066],
[19.4104,40.9667],
[19.3696,40.933],
[19.348,40.8641],
[19.3174,40.8406],
[19.3154,40.8113],
[19.3267,40.7976],
[19.3177,40.7288],
[19.3014,40.7056],
[19.2793,40.6929],
[19.2657,40.6688],
[19.2648,40.6386],
[19.3164,40.5727],
[19.3295,40.5461],
[19.3303,40.5227],
[19.2918,40.5485],
[19.2605,40.5516],
[19.2283,40.5375],
[19.2159,40.5152],
[19.2217,40.4794],
[19.2494,40.4454],
[19.2399,40.4293],
[19.2443,40.4036],
[19.2993,40.3574],
[19.3208,40.3276],
[19.3225,40.3024],
[19.3348,40.2818],
[19.4381,40.1869],
[19.5514,40.1392],
[19.64,40.0903],
[19.6989,40.0731],
[19.7348,40.034],
[19.7715,40.0137],
[19.8265,40.0109],
[19.8771,39.9398],
[19.8585,39.911],
[19.866,39.8879],
[19.8919,39.8662],
[19.9594,39.8375],
[19.9584,39.825],
[19.9776,39.7909],
[19.9577,39.7275],
[19.9321,39.6924],
[19.9335,39.6832],
[19.9799,39.6484],
[19.9836,39.6456],
[19.9892,39.6404],
[20.0463,39.5925],
[20.0658,39.5548],
[20.1493,39.4636],
[20.1802,39.3925],
[20.2003,39.3628],
[20.2278,39.3571],
[20.2439,39.3087],
[20.3015,39.2595],
[20.3254,39.2469],
[20.4235,39.2358],
[20.4261,39.209],
[20.4406,39.1895],
[20.4997,39.1597],
[20.5601,39.096],
[20.6529,39.0382],
[20.6641,39.0247],
[20.6515,39.0066],
[20.6523,38.9851],
[20.6798,38.9352],
[20.6971,38.9187],
[20.7019,38.9293],
[20.7484,38.9397],
[20.7614,38.9631],
[20.8191,38.9439],
[20.8678,38.9685],
[21.0443,38.9551],
[21.0828,39.2748],
[21.0937,39.5125],
[21.3904,39.7579],
[21.5222,39.8212],
[21.7914,39.6818],
[22.0935,39.7621],
[22.3407,39.7241],
[22.8076,39.8835],
[22.7773,39.8994],
[22.7665,39.9191],
[22.7685,39.951],
[22.7418,39.9851],
[22.6413,40.0343],
[22.6344,40.056],
[22.6211,40.0727],
[22.6216,40.099],
[22.6015,40.1465],
[22.6046,40.1551],
[22.6395,40.1933],
[22.6409,40.2321],
[22.651,40.2601],
[22.7138,40.3515],
[22.7096,40.3839],
[22.6692,40.4084],
[22.6633,40.4259],
[22.6971,40.4383],
[22.715,40.461],
[22.7621,40.4718],
[22.7818,40.4465],
[22.8103,40.4363],
[22.8163,40.4166],
[22.8396,40.3971],
[22.836,40.3644],
[22.8543,40.3421],
[22.8868,40.3331],
[22.924,40.3406],
[22.9536,40.3308],
[22.9737,40.303],
[22.9979,40.2871],
[23.0877,40.2587],
[23.1196,40.2373],
[23.235,40.2095],
[23.2676,40.1947],
[23.2725,40.1804],
[23.2654,40.1312],
[23.2525,40.0968],
[23.2632,40.0628],
[23.2919,40.0415],
[23.3251,39.9962],
[23.3024,39.9609],
[23.3151,39.927],
[23.3562,39.9131],
[23.4226,39.9193],
[23.4527,39.9294],
[23.5596,39.8902],
[23.584,39.8809],
[23.7288,39.8686],
[23.7896,39.89],
[23.8034,39.9225],
[23.7843,39.9618],
[23.7565,39.9742],
[23.7335,39.9742],
[23.7247,39.9942],
[23.7036,40.0111],
[23.6136,40.0342],
[23.5244,40.0679],
[23.4554,40.1547],
[23.4018,40.1799],
[23.3876,40.209],
[23.4,40.2231],
[23.4133,40.2348],
[23.5222,40.1965],
[23.579,40.1847],
[23.6283,40.1857],
[23.6459,40.1648],
[23.6753,40.1497],
[23.6837,40.1272],
[23.7122,40.1044],
[23.6896,40.0973],
[23.6683,40.0765],
[23.6637,40.0634],
[23.6713,40.0382],
[23.7044,40.0189],
[23.7525,40.0218],
[23.7674,39.9917],
[23.8029,39.9678],
[23.8479,39.9604],
[23.8571,39.9378],
[23.8962,39.9056],
[23.9506,39.8973],
[24.0323,39.9242],
[24.0467,39.9451],
[24.0519,39.9735],
[24.0715,39.9957],
[24.0715,40.0391],
[24.0436,40.091],
[24.047,40.1195],
[24.0111,40.1574],
[23.9707,40.1714],
[23.9358,40.1943],
[23.8569,40.216],
[23.8363,40.2474],
[23.7916,40.2711],
[23.7662,40.2747],
[23.749,40.2965],
[23.8041,40.3002],
[23.8343,40.3184],
[23.8554,40.2941],
[23.8913,40.2782],
[23.9345,40.2681],
[23.9734,40.2688],
[23.9848,40.2718],
[24.0316,40.2533],
[24.1259,40.2455],
[24.1668,40.2042],
[24.1769,40.1743],
[24.2354,40.1366],
[24.2476,40.102],
[24.2917,40.0738],
[24.3216,40.0739],
[24.4085,40.0974],
[24.4354,40.1095],
[24.4514,40.1286],
[24.4492,40.1672],
[24.4291,40.2044],
[24.3307,40.272],
[24.3103,40.3117],
[24.2796,40.3419],
[24.1806,40.3949],
[24.0984,40.4066],
[24.0607,40.4662],
[24.0345,40.4866],
[23.9838,40.4869],
[23.9449,40.4602],
[23.9438,40.4229],
[23.9096,40.4367],
[23.8759,40.4784],
[23.9413,40.4885],
[23.9719,40.5027],
[23.9845,40.5283],
[23.9773,40.5504],
[23.9192,40.5911],
[23.8652,40.5997],
[23.8328,40.6227],
[23.7839,40.6815],
[23.7547,40.6959],
[23.7691,40.7169],
[23.8257,40.7389],
[23.8536,40.7383],
[23.8715,40.7291],
[23.945,40.7015],
[24.0677,40.6771],
[24.1721,40.7047],
[24.2715,40.7584],
[24.3845,40.803],
[24.4035,40.8737],
[24.4253,40.8901],
[24.5164,40.9147],
[24.5981,40.8256],
[24.5288,40.7937],
[24.5145,40.78],
[24.4595,40.6737],
[24.4595,40.6315],
[24.4907,40.592],
[24.5282,40.5799],
[24.5518,40.5834],
[24.5767,40.535],
[24.6257,40.5173],
[24.6997,40.5423],
[24.7142,40.5541],
[24.7918,40.5686],
[24.8244,40.5922],
[24.8355,40.618],
[24.8319,40.6393],
[24.8392,40.6685],
[24.8325,40.7171],
[24.838,40.7412],
[24.8171,40.7691],
[24.7818,40.7867],
[24.765,40.8068],
[24.7679,40.812],
[24.8007,40.8054],
[24.8447,40.8201],
[24.9177,40.8801],
[25.0246,40.9012],
[25.0495,40.9375],
[25.0723,40.9528],
[25.0958,40.9249],
[25.1564,40.902],
[25.2162,40.8995],
[25.2633,40.8819],
[25.3218,40.9025],
[25.349,40.8767],
[25.4316,40.8607],
[25.531,40.8215],
[25.5612,40.8169],
[25.6243,40.8232],
[25.6974,40.8084],
[25.8147,40.8098],
[25.9026,40.794],
[25.9407,40.7991],
[25.976,40.7543],
[25.9744,40.7251],
[25.9942,40.7031],
[26.0112,40.6704],
[26.0079,40.6331],
[26.0279,40.5991],
[26.057,40.5756],
[26.1032,40.5567],
[26.1512,40.5489],
[26.2157,40.558],
[26.3122,40.5506],
[26.373,40.5654],
[26.4275,40.5595],
[26.4633,40.5711],
[26.4842,40.5594],
[26.5423,40.5514],
[26.6259,40.5947],
[26.71,40.5979],
[26.7774,40.613],
[26.7829,40.6018],
[26.7732,40.5942],
[26.7259,40.5958],
[26.6822,40.5679],
[26.6666,40.5481],
[26.6354,40.5508],
[26.5835,40.5394],
[26.4676,40.4839],
[26.429,40.4762],
[26.3085,40.408],
[26.2316,40.379],
[26.1752,40.3428],
[26.1645,40.3279],
[26.1646,40.3032],
[26.1901,40.2618],
[26.2233,40.2406],
[26.2235,40.2248],
[26.2181,40.2054],
[26.1864,40.1709],
[26.1598,40.1206],
[26.1167,40.0681],
[26.1133,40.0459],
[26.1357,40.015],
[26.1144,39.9685],
[26.0749,39.9799],
[26.0375,39.9774],
[26.019,39.9664],
[26.0049,39.9445],
[26.0115,39.9146],
[26.0231,39.9034],
[26.0625,39.8908],
[26.0997,39.8969],
[26.0935,39.8775],
[26.0554,39.8875],
[25.9527,39.8798],
[25.9236,39.8667],
[25.9092,39.8392],
[25.916,39.8163],
[25.9386,39.7916],
[26.0402,39.7468],
[26.0879,39.7535],
[26.1049,39.7136],
[26.1099,39.6642],
[26.0964,39.6332],
[26.0595,39.6055],
[26.0094,39.4788],
[26.0228,39.4522],
[26.053,39.4323],
[26.1092,39.414],
[26.1562,39.4142],
[26.1271,39.399],
[26.1132,39.3691],
[26.0982,39.3568],
[26.0534,39.3383],
[25.9826,39.3258],
[25.916,39.3372],
[25.8701,39.3278],
[25.8072,39.2722],
[25.7809,39.2264],
[25.7785,39.1841],
[25.7921,39.1584],
[25.8416,39.1183],
[25.8988,39.098],
[25.93,39.0687],
[25.9932,39.0654],
[26.0384,39.0523],
[26.0799,39.0309],
[26.1392,38.9703],
[26.1693,38.9636],
[26.1993,38.9709],
[26.209,38.9774],
[26.2338,38.9729],
[26.3023,38.9401],
[26.3929,38.9225],
[26.5232,38.9299],
[26.5631,38.9454],
[26.5891,38.9675],
[26.6364,38.9742],
[26.6613,38.9983],
[26.6688,39.0227],
[26.6611,39.0615],
[26.6197,39.1066],
[26.5861,39.189],
[26.5661,39.2045],
[26.5408,39.211],
[26.5202,39.2465],
[26.4809,39.2724],
[26.5016,39.3064],
[26.5003,39.323],
[26.4854,39.3434],
[26.4571,39.3676],
[26.4195,39.382],
[26.3986,39.4113],
[26.3543,39.4297],
[26.3335,39.4303],
[26.2991,39.4168],
[26.2483,39.4233],
[26.2931,39.4438],
[26.3776,39.44],
[26.47,39.4804],
[26.5652,39.4921],
[26.645,39.5123],
[26.7846,39.5279],
[26.8407,39.5168],
[26.8851,39.5273],
[26.8811,39.5164],
[26.8521,39.518],
[26.8228,39.5074],
[26.8029,39.4783],
[26.7632,39.4637],
[26.747,39.4457],
[26.748,39.4101],
[26.7247,39.3957],
[26.6982,39.4247],
[26.6349,39.4357],
[26.5797,39.4377],
[26.5376,39.4187],
[26.5229,39.3859],
[26.544,39.3448],
[26.5456,39.3228],
[26.5286,39.2974],
[26.5248,39.2725],
[26.5324,39.2555],
[26.5614,39.2377],
[26.6831,39.2251],
[26.6893,39.1858],
[26.7269,39.1399],
[26.7849,39.1208],
[26.8201,39.0873],
[26.7747,39.0724],
[26.7489,39.0458],
[26.7438,38.9563],
[26.7546,38.9317],
[26.7548,38.9066],
[26.7714,38.8857],
[26.816,38.8691],
[26.8701,38.8728],
[26.9271,38.8946],
[26.9543,38.8861],
[26.8565,38.8552],
[26.8403,38.8315],
[26.8436,38.8011],
[26.8142,38.8033],
[26.7621,38.7831],
[26.7074,38.7742],
[26.6645,38.7253],
[26.6559,38.7084],
[26.658,38.6792],
[26.6807,38.6566],
[26.6834,38.6401],
[26.7234,38.5835],
[26.6807,38.5863],
[26.6495,38.5638],
[26.6408,38.5671],
[26.6204,38.582],
[26.6068,38.6251],
[26.5845,38.6402],
[26.5591,38.681],
[26.4965,38.7125],
[26.412,38.722],
[26.3431,38.6997],
[26.3114,38.6752],
[26.3003,38.6433],
[26.3111,38.5517],
[26.2522,38.5621],
[26.1912,38.5862],
[26.1482,38.6078],
[26.1159,38.6062],
[26.0874,38.6314],
[25.9966,38.6459],
[25.8259,38.6141],
[25.7877,38.5721],
[25.7777,38.5433],
[25.8147,38.4733],
[25.8685,38.4367],
[25.8964,38.4307],
[25.9117,38.3856],
[25.9331,38.367],
[25.9326,38.3598],
[25.9067,38.3513],
[25.8395,38.3046],
[25.8149,38.2667],
[25.8157,38.2267],
[25.8536,38.1822],
[25.9827,38.1112],
[26.0338,38.1089],
[26.0678,38.1364],
[26.0768,38.1646],
[26.1237,38.172],
[26.1412,38.1844],
[26.1659,38.2183],
[26.1679,38.2419],
[26.1606,38.2561],
[26.1709,38.2634],
[26.1776,38.266],
[26.1941,38.2369],
[26.2089,38.2276],
[26.2614,38.2239],
[26.3073,38.1898],
[26.3652,38.1851],
[26.4028,38.1625],
[26.4543,38.1507],
[26.4665,38.1439],
[26.4724,38.1244],
[26.4998,38.0932],
[26.5881,38.0609],
[26.6216,38.0624],
[26.6461,38.075],
[26.6667,38.1004],
[26.6864,38.1641],
[26.7184,38.1658],
[26.7409,38.1292],
[26.7756,38.1199],
[26.7889,38.1081],
[26.7958,38.0951],
[26.7956,38.0566],
[26.8142,38.015],
[26.8326,37.995],
[26.8621,37.9867],
[26.8852,37.9894],
[26.916,38.0066],
[26.9307,38.0262],
[26.964,38.033],
[27.0178,38.0124],
[27.0487,37.9765],
[27.0757,37.9712],
[27.1224,37.9451],
[27.1668,37.9389],
[27.2128,37.9452],
[27.2173,37.9375],
[27.2093,37.9136],
[27.2104,37.8905],
[27.1971,37.8778],
[27.1825,37.838],
[27.1928,37.8105],
[27.213,37.7908],
[27.2047,37.7651],
[27.1855,37.7497],
[27.1207,37.7318],
[27.1098,37.7515],
[27.1194,37.7651],
[27.1197,37.7891],
[27.0863,37.8185],
[27.0354,37.8196],
[27.0118,37.8351],
[26.9881,37.8386],
[26.9562,37.8369],
[26.9151,37.8181],
[26.8578,37.8475],
[26.7319,37.8544],
[26.649,37.834],
[26.611,37.8104],
[26.5639,37.7953],
[26.5147,37.7413],
[26.5254,37.6972],
[26.4882,37.6944],
[26.4578,37.6725],
[26.4445,37.6457],
[26.4087,37.6457],
[26.3824,37.6312],
[26.4108,37.6606],
[26.4189,37.6913],
[26.3989,37.723],
[26.3619,37.7335],
[26.272,37.7174],
[26.1955,37.6737],
[26.153,37.6805],
[26.0623,37.6747],
[26.0199,37.6519],
[25.9652,37.6],
[25.9268,37.5476],
[25.9214,37.5135],
[25.9365,37.4863],
[25.9734,37.4683],
[26.0786,37.4759],
[26.1051,37.4867],
[26.1384,37.5171],
[26.2138,37.5229],
[26.246,37.5334],
[26.3468,37.5932],
[26.3431,37.5732],
[26.3611,37.5449],
[26.3612,37.5175],
[26.3784,37.4981],
[26.4069,37.4882],
[26.4414,37.4922],
[26.4627,37.4689],
[26.4811,37.4626],
[26.5449,37.4673],
[26.5795,37.4797],
[26.5985,37.5014],
[26.6003,37.5271],
[26.5765,37.5542],
[26.5999,37.5628],
[26.6187,37.5844],
[26.6205,37.6162],
[26.6095,37.6357],
[26.6549,37.6461],
[26.6773,37.6652],
[26.7029,37.6675],
[26.7305,37.6441],
[26.7355,37.6166],
[26.7512,37.5959],
[26.8072,37.5822],
[26.9029,37.6036],
[26.9261,37.6198],
[26.9363,37.6455],
[26.948,37.6461],
[26.986,37.6116],
[27.0904,37.5913],
[27.1126,37.5642],
[27.1167,37.5277],
[27.1324,37.5061],
[27.1272,37.4797],
[27.1321,37.4592],
[27.1673,37.434],
[27.1385,37.3567],
[27.1466,37.332],
[27.1597,37.3201],
[27.2443,37.294],
[27.343,37.3017],
[27.381,37.2701],
[27.4023,37.2634],
[27.4055,37.2389],
[27.4206,37.22],
[27.4734,37.1962],
[27.4393,37.1696],
[27.4118,37.2004],
[27.3631,37.2174],
[27.2349,37.1702],
[27.2046,37.1354],
[27.1998,37.1113],
[27.1722,37.062],
[27.1776,37.0325],
[27.2022,37.0027],
[27.2026,36.9875],
[27.1654,37.001],
[27.1053,36.9986],
[27.1002,37.0141],
[27.1358,37.0218],
[27.1564,37.0417],
[27.1597,37.0657],
[27.1423,37.0908],
[27.1068,37.1054],
[27.0691,37.1077],
[27.0376,37.0968],
[27.021,37.0781],
[26.9621,37.106],
[26.9532,37.1425],
[26.91,37.1868],
[26.9058,37.2043],
[26.8406,37.2545],
[26.8542,37.2843],
[26.8391,37.3198],
[26.8201,37.3405],
[26.8211,37.37],
[26.802,37.3999],
[26.7591,37.4406],
[26.7272,37.4542],
[26.6832,37.4446],
[26.6603,37.4174],
[26.6458,37.3767],
[26.6107,37.4097],
[26.5784,37.4219],
[26.5488,37.4204],
[26.5284,37.4454],
[26.5042,37.4532],
[26.4596,37.4464],
[26.4422,37.432],
[26.4345,37.4134],
[26.4414,37.3872],
[26.4793,37.366],
[26.4733,37.2898],
[26.481,37.2683],
[26.5186,37.2372],
[26.5574,37.2266],
[26.5821,37.2296],
[26.6108,37.2434],
[26.6232,37.2636],
[26.6522,37.2822],
[26.6594,37.3001],
[26.6716,37.2801],
[26.6642,37.2482],
[26.6765,37.2269],
[26.7102,37.2108],
[26.7068,37.1865],
[26.7185,37.1524],
[26.7546,37.1273],
[26.7761,37.0897],
[26.8315,37.0568],
[26.8447,37.0409],
[26.832,37.023],
[26.8283,36.9991],
[26.834,36.9849],
[26.8557,36.9682],
[26.8577,36.9406],
[26.8773,36.9174],
[26.8665,36.8927],
[26.875,36.8618],
[26.9031,36.8445],
[26.9371,36.8434],
[26.9634,36.8573],
[26.9796,36.8828],
[27.0138,36.8892],
[27.032,36.9048],
[27.0761,36.8947],
[27.0405,36.8822],
[26.9707,36.8172],
[26.9194,36.8093],
[26.8893,36.7959],
[26.8652,36.7559],
[26.8641,36.7184],
[26.8768,36.6858],
[26.9028,36.6576],
[26.9249,36.6416],
[26.9625,36.6299],
[26.9869,36.6313],
[27.0147,36.6454],
[27.0268,36.6667],
[27.0238,36.6873],
[27.0371,36.7211],
[27.0493,36.7253],
[27.0978,36.7139],
[27.0559,36.6825],
[27.0505,36.6556],
[27.0566,36.6349],
[27.0239,36.6379],
[26.9852,36.6172],
[26.9772,36.5987],
[26.979,36.5768],
[26.9997,36.5529],
[27.0418,36.5268],
[27.0654,36.5226],
[27.1024,36.5295],
[27.1644,36.5154],
[27.2132,36.5179],
[27.2467,36.5426],
[27.2671,36.5816],
[27.2632,36.6015],
[27.2226,36.6521],
[27.2351,36.6732],
[27.2316,36.6968],
[27.2217,36.7103],
[27.1917,36.7245],
[27.1435,36.724],
[27.2009,36.7711],
[27.3481,36.8073],
[27.3988,36.8363],
[27.4076,36.8623],
[27.3992,36.8933],
[27.3784,36.9205],
[27.3485,36.9333],
[27.3654,36.9574],
[27.3904,36.9582],
[27.4345,36.9264],
[27.4891,36.9178],
[27.5202,36.9272],
[27.5357,36.9425],
[27.5687,36.9348],
[27.5959,36.9425],
[27.64,36.9361],
[27.6677,36.9401],
[27.6899,36.9553],
[27.7855,36.95],
[27.8182,36.9551],
[27.889,36.9828],
[27.9419,36.9736],
[27.9922,36.983],
[28.0599,36.9814],
[28.0134,36.9706],
[27.9724,36.9426],
[27.9612,36.9053],
[27.9715,36.8809],
[27.9504,36.8401],
[27.9125,36.8515],
[27.8673,36.8469],
[27.8222,36.8555],
[27.7247,36.8274],
[27.6924,36.8422],
[27.6313,36.8493],
[27.5907,36.831],
[27.5725,36.8098],
[27.5088,36.7938],
[27.4502,36.8032],
[27.406,36.7869],
[27.3694,36.7522],
[27.3499,36.751],
[27.3212,36.736],
[27.3085,36.7082],
[27.311,36.6753],
[27.3272,36.6529],
[27.3885,36.6218],
[27.4241,36.6222],
[27.4706,36.6048],
[27.5058,36.6106],
[27.5292,36.6284],
[27.5908,36.6374],
[27.6613,36.6167],
[27.7039,36.62],
[27.7269,36.639],
[27.7285,36.6722],
[27.7457,36.6957],
[27.7501,36.721],
[27.8274,36.7031],
[27.7885,36.6905],
[27.7201,36.6277],
[27.6972,36.5756],
[27.7071,36.5461],
[27.7327,36.5307],
[27.779,36.5259],
[27.8327,36.4785],
[27.878,36.4717],
[27.9098,36.4855],
[27.9222,36.5019],
[27.9282,36.5421],
[27.9455,36.5205],
[27.9759,36.5109],
[28.0451,36.5207],
[28.0819,36.5401],
[28.1189,36.5466],
[28.1526,36.5701],
[28.2075,36.643],
[28.2504,36.6509],
[28.2773,36.6785],
[28.3185,36.6837],
[28.3455,36.7039],
[28.3566,36.7297],
[28.3485,36.7551],
[28.403,36.7423],
[28.4286,36.749],
[28.4549,36.7694],
[28.4854,36.7502],
[28.5575,36.7474],
[28.5551,36.725],
[28.5667,36.6931],
[28.5877,36.6684],
[28.6122,36.6573],
[28.6686,36.6489],
[28.7199,36.663],
[28.7406,36.6571],
[28.7486,36.628],
[28.772,36.6118],
[28.7918,36.5749],
[28.8093,36.5575],
[28.8413,36.5458],
[28.8753,36.5526],
[28.9017,36.5692],
[28.9218,36.5986],
[28.947,36.6116],
[28.9915,36.6645],
[29.0058,36.6602],
[29.0118,36.6553],
[28.9805,36.6222],
[28.9711,36.5747],
[28.9552,36.5421],
[28.9684,36.5159],
[28.9857,36.5052],
[29.0181,36.4964],
[29.0551,36.4972],
[29.0474,36.4726],
[29.068,36.4379],
[29.0519,36.4163],
[29.0466,36.3878],
[29.0619,36.3585],
[29.1427,36.3021],
[29.209,36.2809],
[29.2779,36.2203],
[29.323,36.194],
[29.4299,36.1841],
[29.4421,36.1774],
[29.4332,36.1559],
[29.4353,36.1398],
[29.4572,36.1157],
[29.5115,36.1092],
[29.5308,36.0879],
[29.5475,36.0816],
[29.5864,36.0818],
[29.6054,36.0688],
[29.6386,36.0641],
[29.6845,36.0875],
[29.7037,36.0909],
[29.7369,36.0795],
[29.7648,36.0837],
[29.8487,36.1241],
[29.9035,36.1302],
[29.9628,36.1761],
[30.0055,36.179],
[30.065,36.2105],
[30.0983,36.2029],
[30.1434,36.2104],
[30.1889,36.2417],
[30.2061,36.272],
[30.2764,36.2703],
[30.3487,36.2327],
[30.3524,36.1952],
[30.3728,36.1742],
[30.4069,36.1663],
[30.4461,36.1804],
[30.5242,36.2479],
[30.5362,36.2616],
[30.5413,36.2902],
[30.5773,36.3161],
[30.5819,36.3478],
[30.538,36.4033],
[30.5551,36.4178],
[30.5745,36.473],
[30.6401,36.5689],
[30.645,36.5953],
[30.6397,36.6152],
[30.61,36.6382],
[30.6272,36.6963],
[30.6208,36.7432],
[30.6281,36.7825],
[30.6544,36.8149],
[30.6845,36.8353],
[30.706,36.8193],
[30.7523,36.8045],
[30.999,36.8153],
[31.0747,36.7988],
[31.3157,36.7677],
[31.3318,36.7617],
[31.3417,36.7408],
[31.3622,36.7261],
[31.5286,36.6771],
[31.6321,36.6154],
[31.7169,36.596],
[31.7536,36.5651],
[31.9398,36.5154],
[31.9627,36.4927],
[31.9802,36.4874],
[32.0172,36.4901],
[32.0712,36.4444],
[32.0898,36.4139],
[32.1223,36.392],
[32.1671,36.3177],
[32.2162,36.278],
[32.2258,36.2697],
[32.2276,36.2459],
[32.2631,36.2008],
[32.3151,36.1758],
[32.3632,36.1256],
[32.4296,36.0971],
[32.4609,36.0722],
[32.5088,36.0537],
[32.5535,36.0504],
[32.6505,36.0032],
[32.8073,35.9725],
[32.8376,35.9825],
[32.8986,36.0336],
[32.9658,36.056],
[33.0332,36.0485],
[33.0642,36.0283],
[33.0997,36.0293],
[33.1292,36.0479],
[33.1609,36.0921],
[33.1859,36.0849],
[33.2688,36.0851],
[33.3122,36.0884],
[33.3418,36.0995],
[33.3972,36.0819],
[33.4693,36.1138],
[33.5235,36.0842],
[33.5632,36.0825],
[33.5918,36.0903],
[33.6244,36.127],
[33.6356,36.1091],
[33.6581,36.0955],
[33.7026,36.0931],
[33.7417,36.1143],
[33.7524,36.1376],
[33.787,36.1405],
[33.8183,36.1568],
[33.8332,36.1798],
[33.8368,36.2029],
[33.8888,36.2663],
[33.9122,36.2061],
[33.9497,36.1902],
[33.9924,36.1963],
[34.0347,36.2526],
[34.0741,36.2597],
[34.1128,36.2892],
[34.1312,36.323],
[34.1306,36.3851],
[34.1704,36.4219],
[34.2039,36.435],
[34.3028,36.5448],
[34.3495,36.5679],
[34.3925,36.6016],
[34.46,36.6287],
[34.5065,36.675],
[34.5788,36.7097],
[34.5974,36.7349],
[34.6831,36.765],
[34.7425,36.7684],
[34.8086,36.7525],
[34.8451,36.7291],
[34.8711,36.6908],
[34.9791,36.6727],
[35.2844,36.5287],
[35.3125,36.5016],
[35.3437,36.4959],
[35.4033,36.5166],
[35.4497,36.5463],
[35.5541,36.5265],
[35.5978,36.5337],
[35.6433,36.5559],
[35.6757,36.5827],
[35.6988,36.6392],
[35.7629,36.6852],
[35.7707,36.72],
[35.8866,36.7683],
[36.0149,36.88],
[36.1146,36.8089],
[36.1345,36.777],
[36.1339,36.7246],
[36.1337,36.6991],
[36.1468,36.6799],
[36.1386,36.6387],
[36.0372,36.5924],
[35.9354,36.511],
[35.8914,36.4949],
[35.8232,36.4409],
[35.7301,36.3356],
[35.7273,36.3038],
[35.7452,36.2542],
[35.8427,36.1373],
[35.9051,36.0347],
[35.9075,36.0216],
[35.8526,35.9604],
[35.8311,35.9069],
[35.7769,35.8926],
[35.7472,35.8646],
[35.7512,35.8233],
[35.7802,35.751],
[35.7238,35.7],
[35.7104,35.6626],
[35.7137,35.6404],
[35.6721,35.6152],
[35.6579,35.58],
[35.6641,35.5618],
[35.6933,35.5344],
[35.7102,35.4823],
[35.7495,35.4566],
[35.7943,35.4543],
[35.8508,35.4067],
[35.8685,35.2439],
[35.8878,35.2167],
[35.8312,35.1213],
[35.8324,35.0283],
[35.8003,34.9014],
[35.798,34.8547],
[35.8269,34.7675],
[35.8507,34.747],
[35.8745,34.7408],
[35.9167,34.6198],
[35.9284,34.5699],
[35.8782,34.5194],
[35.8428,34.5129],
[35.7856,34.5416],
[35.7515,34.5367],
[35.7333,34.525],
[35.719,34.4893],
[35.7509,34.4402],
[35.6879,34.4095],
[35.674,34.3834],
[35.6064,34.3154],
[35.5707,34.1542],
[35.5838,34.095],
[35.5667,34.0364],
[35.5493,34],
[38.9206,34],
[39.0234,34.0436],
[39.6277,34.0254],
[39.9412,34],
[45,34],
[45,36.7534],
[44.9724,36.7493],
[44.9601,36.7688],
[44.9388,36.7861],
[44.919,36.7755],
[44.8912,36.7825],
[44.8587,36.7731],
[44.845,36.7787],
[44.8384,36.8158],
[44.8525,36.8306],
[44.8668,36.8319],
[44.8613,36.8463],
[44.9037,36.8614],
[44.9005,36.8757],
[44.9126,36.8978],
[44.9124,36.917],
[44.8827,36.9543],
[44.9056,37.0098],
[44.8939,37.0293],
[44.8683,37.0318],
[44.8545,37.0471],
[44.8171,37.0398],
[44.8018,37.0482],
[44.7991,37.0675],
[44.7777,37.0757],
[44.7839,37.0924],
[44.7657,37.0998],
[44.7476,37.1203],
[44.7849,37.145],
[44.7528,37.1931],
[44.783,37.2588],
[44.8201,37.2937],
[44.7693,37.3199],
[44.7281,37.3625],
[44.6484,37.4138],
[44.5853,37.4901],
[44.6265,37.5751],
[44.6017,37.7012],
[44.5056,37.7707],
[44.2969,37.8553],
[44.2419,37.9507],
[44.2969,38.0373],
[44.3573,38.1583],
[44.3765,38.2252],
[44.5166,38.305],
[44.5056,38.3417],
[44.4342,38.3718],
[44.3161,38.374],
[44.2998,38.3944],
[44.3113,38.3963],
[44.3196,38.4084],
[44.3171,38.4324],
[44.3023,38.447],
[44.3133,38.465],
[44.3115,38.4766],
[44.3228,38.4841],
[44.3248,38.5024],
[44.3102,38.5304],
[44.3127,38.5608],
[44.3251,38.5779],
[44.3174,38.6063],
[44.321,38.6251],
[44.2726,38.6467],
[44.2823,38.6764],
[44.2556,38.7186],
[44.2808,38.7337],
[44.2765,38.743],
[44.2929,38.766],
[44.2879,38.7837],
[44.3145,38.8071],
[44.2951,38.8266],
[44.2998,38.8406],
[44.2771,38.8548],
[44.2459,38.8515],
[44.245,38.8704],
[44.2117,38.8915],
[44.2203,38.905],
[44.2153,38.9206],
[44.1996,38.9227],
[44.1919,38.9347],
[44.1991,38.9492],
[44.1823,38.9569],
[44.189,38.98],
[44.1723,38.9896],
[44.1794,39.0102],
[44.2126,39.0209],
[44.1952,39.0384],
[44.2057,39.0567],
[44.1913,39.0732],
[44.1967,39.0842],
[44.2209,39.0924],
[44.2241,39.1027],
[44.209,39.1151],
[44.2135,39.1313],
[44.1669,39.1776],
[44.1142,39.1876],
[44.1088,39.2012],
[44.0984,39.204],
[44.0944,39.2163],
[44.1034,39.2406],
[44.0854,39.2564],
[44.0942,39.2759],
[44.1072,39.2842],
[44.08,39.2943],
[44.0742,39.3355],
[44.058,39.3448],
[44.0569,39.3554],
[44.0363,39.3622],
[44.0335,39.377],
[44.0555,39.3908],
[44.0521,39.4068],
[44.0717,39.4129],
[44.1304,39.4028],
[44.1856,39.403],
[44.1963,39.4142],
[44.2193,39.4187],
[44.232,39.4163],
[44.2485,39.3972],
[44.2649,39.3991],
[44.2941,39.377],
[44.3161,39.3916],
[44.3326,39.3882],
[44.3765,39.4129],
[44.4215,39.4113],
[44.4342,39.4423],
[44.4085,39.4717],
[44.439,39.5088],
[44.4332,39.5093],
[44.4273,39.5438],
[44.416,39.5565],
[44.4802,39.6106],
[44.4872,39.6434],
[44.4812,39.6714],
[44.4673,39.6841],
[44.4498,39.6656],
[44.4267,39.6608],
[44.309,39.6705],
[44.2552,39.6985],
[44.1774,39.7127],
[44.1305,39.744],
[44.0935,39.7328],
[44.0449,39.7399],
[43.999,39.7278],
[43.9766,39.7475],
[43.8816,39.758],
[43.8389,39.7774],
[43.8059,39.7816],
[43.7712,39.7634],
[43.7458,39.7663],
[43.6078,39.8012],
[43.5512,39.8404],
[43.53,39.8414],
[43.5077,39.8283],
[43.4925,39.7881],
[43.4757,39.7754],
[43.4436,39.774],
[43.4176,39.7992],
[43.4029,39.8411],
[43.4046,39.8713],
[43.3664,39.9251],
[43.3781,39.982],
[43.3548,39.9925],
[43.2858,39.9967],
[43.2243,39.9829],
[43.1646,39.9819],
[43.1035,39.9897],
[43.0527,40.0092],
[42.9998,40.005],
[42.9483,39.984],
[42.7801,39.9587],
[42.7286,39.9424],
[42.673,39.9471],
[42.627,39.9276],
[42.5562,39.9724],
[42.526,40.0066],
[42.513,40.0455],
[42.5233,40.0807],
[42.4429,40.1169],
[42.3495,40.2093],
[42.2932,40.2261],
[42.2541,40.2963],
[42.2479,40.3356],
[42.2829,40.3722],
[42.3248,40.3853],
[42.32,40.424],
[42.25,40.4618],
[42.2309,40.4885],
[42.1827,40.4945],
[42.1374,40.4783],
[42.0351,40.4668],
[42.0076,40.4355],
[41.9595,40.4198],
[41.9163,40.4919],
[41.8861,40.6113],
[41.8222,40.6635],
[41.8195,40.702],
[41.8277,40.7379],
[41.8545,40.785],
[41.8679,40.7868],
[41.8754,40.8065],
[41.8675,40.8359],
[41.8363,40.8587],
[41.8493,40.8938],
[41.8795,40.9177],
[41.8888,40.9426],
[41.8181,41.0032],
[41.8469,41.0322],
[41.8497,41.0633],
[41.8339,41.0861],
[41.7652,41.1337],
[41.6039,41.0566],
[41.5146,41.1016],
[41.47,41.1088],
[41.4487,41.1425],
[41.4487,41.1812],
[41.4919,41.2437],
[41.4809,41.318],
[41.494,41.3485],
[41.5283,41.3753],
[41.5263,41.4108],
[41.4947,41.4257],
[41.481,41.4625],
[41.4408,41.4884],
[41.3785,41.4158],
[41.3253,41.4077],
[41.2419,41.3747],
[41.1909,41.3359],
[41.1162,41.3077],
[41.0379,41.2509],
[40.9251,41.2172],
[40.8698,41.2201],
[40.7788,41.195],
[40.7238,41.1561],
[40.693,41.1199],
[40.586,41.0849],
[40.5406,41.0728],
[40.4982,41.0786],
[40.3637,41.0599],
[40.3134,41.0333],
[40.2552,40.9872],
[40.1717,40.952],
[40.1104,40.9542],
[40.081,40.983],
[40.0508,40.9953],
[39.9928,41.0025],
[39.8815,40.992],
[39.86,41.0153],
[39.7841,41.0399],
[39.7229,41.0495],
[39.6652,41.0352],
[39.6009,41.0558],
[39.5104,41.1248],
[39.4141,41.1447],
[39.2764,41.0873],
[39.2609,41.086],
[39.2169,41.1111],
[39.1615,41.1168],
[39.0958,41.0859],
[39.0374,41.0732],
[38.9102,41.0763],
[38.858,41.0493],
[38.7886,41.0414],
[38.6966,40.9864],
[38.6585,41.0075],
[38.6119,41.0099],
[38.5202,40.9549],
[38.4993,40.9549],
[38.4327,40.9521],
[38.3938,40.9616],
[38.3499,40.9522],
[38.2897,40.9822],
[38.205,40.9761],
[38.1617,40.9903],
[38.0032,41.018],
[37.9181,41.0228],
[37.8916,41.0472],
[37.8452,41.0568],
[37.8264,41.0735],
[37.839,41.1117],
[37.8163,41.1468],
[37.7627,41.1566],
[37.7259,41.1539],
[37.693,41.1663],
[37.6663,41.165],
[37.6249,41.1476],
[37.5759,41.0915],
[37.5657,41.0696],
[37.5296,41.0629],
[37.5076,41.0934],
[37.4505,41.1133],
[37.4104,41.1404],
[37.343,41.1503],
[37.332,41.1688],
[37.3064,41.1817],
[37.1454,41.1865],
[37.0799,41.2062],
[37.0741,41.2597],
[37.0478,41.2997],
[36.9028,41.3681],
[36.821,41.3889],
[36.7116,41.4013],
[36.6597,41.4204],
[36.6207,41.4141],
[36.588,41.3953],
[36.5276,41.312],
[36.4813,41.2889],
[36.4252,41.2838],
[36.4039,41.3015],
[36.4041,41.3193],
[36.3887,41.3381],
[36.3503,41.3579],
[36.2797,41.3788],
[36.2711,41.3953],
[36.1745,41.4816],
[36.1688,41.5005],
[36.1813,41.5585],
[36.1611,41.6399],
[36.0844,41.7178],
[35.9864,41.7667],
[35.941,41.7708],
[35.7398,41.7013],
[35.5665,41.6685],
[35.4851,41.6832],
[35.4327,41.7181],
[35.314,41.7437],
[35.3037,41.7614],
[35.252,41.7879],
[35.2498,41.8198],
[35.1775,41.8743],
[35.1705,41.8955],
[35.1401,41.9288],
[35.1581,41.9815],
[35.2078,41.9753],
[35.2465,41.9904],
[35.2605,42.0121],
[35.2555,42.0357],
[35.2246,42.0685],
[35.2062,42.0768],
[35.163,42.0772],
[35.1229,42.0609],
[35.0969,42.0616],
[35.0825,42.0919],
[35.0483,42.1215],
[35.023,42.1294],
[34.9223,42.1308],
[34.8964,42.1088],
[34.8917,42.0741],
[34.8389,42.0244],
[34.7884,41.9932],
[34.7127,41.9808],
[34.5665,41.9839],
[34.5197,42.0073],
[34.4856,42.0134],
[34.3052,41.9789],
[34.1021,42.0157],
[33.9607,42.0174],
[33.9018,42.0096],
[33.6875,42.0172],
[33.5919,42.0251],
[33.458,42.049],
[33.3277,42.0562],
[33.1389,41.9867],
[33.0089,41.9614],
[32.9466,41.933],
[32.9361,41.9202],
[32.898,41.9087],
[32.7658,41.8942],
[32.6569,41.8675],
[32.5743,41.864],
[32.5215,41.8439],
[32.4856,41.8372],
[32.454,41.8126],
[32.3976,41.7892],
[32.3681,41.7891],
[32.3094,41.7612],
[32.255,41.7501],
[32.1838,41.7066],
[32.174,41.6844],
[32.1398,41.6679],
[32.1167,41.6356],
[32.0143,41.6099],
[31.975,41.5814],
[31.8768,41.5537],
[31.5885,41.4127],
[31.5132,41.3991],
[31.4376,41.3646],
[31.365,41.3424],
[31.3418,41.3061],
[31.3453,41.2799],
[31.3572,41.2628],
[31.3532,41.2201],
[31.2826,41.1534],
[31.2017,41.1342],
[30.9627,41.1102],
[30.7694,41.124],
[30.6647,41.1652],
[30.4699,41.1909],
[30.3845,41.215],
[30.3507,41.2351],
[30.3081,41.2388],
[30.2786,41.2501],
[30.2477,41.2454],
[30.221,41.2251],
[30.1976,41.2185],
[30.1479,41.1793],
[29.9863,41.1755],
[29.841,41.1783],
[29.7802,41.1968],
[29.681,41.1999],
[29.6198,41.2189],
[29.575,41.2107],
[29.3976,41.2522],
[29.304,41.2586],
[29.2673,41.2718],
[29.1526,41.2597],
[29.0867,41.2912],
[29.0409,41.2938],
[29.0117,41.2837],
[28.9457,41.3054],
[28.9048,41.3087],
[28.8254,41.3411],
[28.7302,41.3654],
[28.7018,41.383],
[28.647,41.3863],
[28.5189,41.44],
[28.3008,41.5268],
[28.2518,41.5579],
[28.2177,41.5981],
[28.147,41.6473],
[28.1555,41.6712],
[28.1454,41.6942],
[28.0943,41.7417],
[28.0861,41.7699],
[28.0417,41.8122],
[28.0279,41.845],
[28.0789,41.8484],
[28.1043,41.8703],
[28.0979,41.956],
[28.0859,41.982],
[28.0895,41.982],
[28.0667,42.0375],
[28.0335,42.0875],
[28.0127,42.0989],
[27.9837,42.1325],
[27.9602,42.1419],
[27.8834,42.2167],
[27.8356,42.2481],
[27.8326,42.2465],
[27.7164,42.2316],
[27.6236,42.2396],
[27.5942,42.2122],
[27.6185,42.1791],
[27.6026,42.1595],
[27.5619,42.1506],
[27.5424,42.1583],
[27.531,42.1736],
[27.4919,42.187],
[27.46,42.1802],
[27.4395,42.1934],
[27.4144,42.183],
[27.378,42.2032],
[27.3535,42.1921],
[27.3221,42.202],
[27.2988,42.1968],
[27.2651,42.2019],
[27.2572,42.1807],
[27.2788,42.1747],
[27.2712,42.1567],
[27.2938,42.1576],
[27.2794,42.132],
[27.2898,42.1185],
[27.2732,42.102],
[27.2408,42.1051],
[27.2218,42.0986],
[27.2164,42.0858],
[27.2008,42.0832],
[27.1981,42.0736],
[27.207,42.0609],
[27.2003,42.0595],
[27.1837,42.0701],
[27.1636,42.0647],
[27.1534,42.0721],
[27.1286,42.0695],
[27.1106,42.0858],
[27.0614,42.0899],
[27.0244,42.0818],
[27.0258,42.0562],
[27.0062,42.0388],
[26.9813,42.0379],
[26.984,42.0191],
[26.9661,41.9966],
[26.9313,42.0029],
[26.9012,41.986],
[26.8707,41.991],
[26.8479,41.9805],
[26.8471,41.9697],
[26.8094,41.976],
[26.7871,41.9896],
[26.7591,41.9705],
[26.754,41.958],
[26.7137,41.9686],
[26.6684,41.9647],
[26.6239,41.9796],
[26.6183,41.9656],
[26.5616,41.9258],
[26.3938,41.886],
[26.3709,41.9],
[26.3751,41.9211],
[26.3586,41.9708],
[26.3039,42.0132],
[26.2749,42.001],
[26.2626,41.9863],
[26.2352,41.991],
[26.2075,42.0069],
[26.187,42.0054],
[26.1654,41.9753],
[26.1772,41.937],
[26.1943,41.9184],
[26.1819,41.8481],
[26.1836,41.8079],
[26.153,41.7996],
[26.0536,41.7205],
[26.0286,41.7184],
[26.0136,41.7336],
[25.9503,41.724],
[25.9423,41.699],
[25.9165,41.6826],
[25.9149,41.6603],
[25.9035,41.6618],
[25.8933,41.6427],
[25.879,41.6435],
[25.872,41.6532],
[25.8687,41.6415],
[25.855,41.6389],
[25.8231,41.6524],
[25.8011,41.6495],
[25.7916,41.66],
[25.7791,41.6522],
[25.7608,41.6541],
[25.7449,41.6229],
[25.713,41.6102],
[25.6797,41.6245],
[25.6474,41.6083],
[25.6419,41.6195],
[25.6076,41.6207],
[25.6461,41.6867],
[25.6885,41.692],
[25.703,41.7377],
[25.6794,41.7513],
[25.6691,41.7496],
[25.6288,41.7226],
[25.6026,41.7559],
[25.5886,41.8067],
[25.5281,41.8035],
[25.4557,41.8221],
[25.422,41.7992],
[25.4306,41.7866],
[25.425,41.7756],
[25.3963,41.786],
[25.3681,41.7659],
[25.351,41.7761],
[25.3203,41.7785],
[25.3169,41.7855],
[25.3378,41.8039],
[25.3364,41.8329],
[25.3707,41.8305],
[25.3842,41.8412],
[25.3803,41.847],
[25.3293,41.8562],
[25.3073,41.848],
[25.2991,41.8273],
[25.2741,41.8226],
[25.2612,41.8333],
[25.2111,41.8442],
[25.2192,41.8611],
[25.2094,41.8756],
[25.1907,41.8828],
[25.1586,41.8648],
[25.1709,41.8528],
[25.1699,41.8436],
[25.1633,41.8333],
[25.1269,41.8157],
[25.1359,41.8027],
[25.0873,41.7824],
[25.0768,41.8012],
[25.0222,41.8154],
[25.0108,41.8334],
[24.9787,41.8139],
[24.957,41.7771],
[24.9659,41.7465],
[24.9611,41.7324],
[24.9124,41.7337],
[24.9063,41.7148],
[24.863,41.7032],
[24.8468,41.6761],
[24.8188,41.6846],
[24.8195,41.7044],
[24.8064,41.7055],
[24.7908,41.6916],
[24.7795,41.7029],
[24.726,41.6527],
[24.6855,41.6329],
[24.6501,41.626],
[24.6382,41.6107],
[24.6181,41.6167],
[24.6037,41.6103],
[24.5479,41.6252],
[24.5573,41.6532],
[24.554,41.6709],
[24.5361,41.6916],
[24.5608,41.7132],
[24.5591,41.7345],
[24.5675,41.7547],
[24.5343,41.8882],
[24.5556,41.9009],
[24.5718,41.9372],
[24.5868,41.9444],
[24.5912,41.9524],
[24.5841,41.9589],
[24.564,41.956],
[24.4934,41.9046],
[24.4794,41.926],
[24.4736,41.964],
[24.4644,41.9724],
[24.4602,41.9369],
[24.4367,41.9316],
[24.4395,41.9187],
[24.4262,41.9221],
[24.4227,41.9061],
[24.4442,41.8744],
[24.4234,41.8611],
[24.38,41.855],
[24.3296,41.8177],
[24.3175,41.7993],
[24.3193,41.7885],
[24.2962,41.7675],
[24.3116,41.7222],
[24.2769,41.7205],
[24.2726,41.7079],
[24.2566,41.71],
[24.2321,41.7234],
[24.189,41.7204],
[24.1813,41.7393],
[24.2017,41.7675],
[24.1899,41.7715],
[24.1809,41.7638],
[24.1679,41.7848],
[24.1035,41.7753],
[24.085,41.782],
[24.0402,41.766],
[23.9957,41.7915],
[23.9772,41.812],
[23.9284,41.8296],
[23.9133,41.844],
[23.9076,41.8652],
[23.8619,41.8457],
[23.8271,41.861],
[23.8057,41.8897],
[23.7838,41.8815],
[23.7645,41.9199],
[23.7751,41.9491],
[23.7601,41.9643],
[23.78,42.0111],
[23.8138,42.0339],
[23.8041,42.049],
[23.7878,42.0507],
[23.7826,42.0716],
[23.7998,42.0851],
[23.7859,42.0956],
[23.7864,42.1094],
[23.8056,42.1191],
[23.8058,42.1264],
[23.7626,42.1525],
[23.764,42.1753],
[23.74,42.1781],
[23.7337,42.1506],
[23.6915,42.1562],
[23.662,42.177],
[23.6484,42.1582],
[23.5855,42.152],
[23.5895,42.1276],
[23.5721,42.0889],
[23.5442,42.0774],
[23.4931,42.0915],
[23.46,42.0659],
[23.4271,42.0536],
[23.3257,42.0638],
[23.2501,42.0929],
[23.1939,42.0929],
[23.1224,42.0583],
[23.0327,42.0574],
[22.9775,42.0663],
[22.9399,42.0966],
[22.9344,42.0854],
[22.9009,42.0638],
[22.9122,42.0434],
[22.8671,42.0222],
[22.8245,42.0225],
[22.7987,42.0461],
[22.7805,42.0368],
[22.7394,42.0452],
[22.7177,42.0686],
[22.6799,42.0635],
[22.6307,42.0937],
[22.6047,42.0979],
[22.6087,42.1058],
[22.5807,42.11],
[22.5482,42.1346],
[22.5279,42.1399],
[22.5127,42.1528],
[22.5183,42.1579],
[22.506,42.1688],
[22.5011,42.196],
[22.4688,42.201],
[22.4506,42.2419],
[22.4346,42.2578],
[22.4248,42.2559],
[22.3984,42.2937],
[22.3783,42.3091],
[22.3598,42.3117],
[22.2927,42.3492],
[22.2975,42.3694],
[22.3136,42.374],
[22.3107,42.4208],
[22.2922,42.4316],
[22.2839,42.4479],
[22.2294,42.471],
[22.2182,42.4835],
[22.2022,42.4765],
[22.2044,42.4578],
[22.1793,42.4578],
[22.172,42.4447],
[22.1508,42.4418],
[22.0763,42.472],
[22.0419,42.4753],
[22.0255,42.4484],
[22.0321,42.4318],
[22.0101,42.4232],
[22.0125,42.4123],
[21.9639,42.407],
[21.956,42.4001],
[21.9412,42.4113],
[21.8982,42.4138],
[21.8743,42.4468],
[21.8352,42.4674],
[21.7953,42.5115],
[21.7603,42.5309],
[21.7776,42.5617],
[21.8383,42.5864],
[21.8533,42.6148],
[21.8335,42.6269],
[21.836,42.6339],
[21.8262,42.6441],
[21.7899,42.6512],
[21.7713,42.6673],
[21.7717,42.6769],
[21.7597,42.6838],
[21.7524,42.7013],
[21.6746,42.6872],
[21.6604,42.6655],
[21.6442,42.6801],
[21.6384,42.6981],
[21.6186,42.6952],
[21.5873,42.7036],
[21.5923,42.7262],
[21.5714,42.7278],
[21.5595,42.7377],
[21.5405,42.7231],
[21.4793,42.7477],
[21.4675,42.7363],
[21.4491,42.7502],
[21.393,42.7451],
[21.3892,42.7582],
[21.4113,42.7761],
[21.41,42.8052],
[21.4247,42.8106],
[21.4173,42.8262],
[21.4236,42.8471],
[21.4371,42.8516],
[21.4351,42.8723],
[21.3652,42.8709],
[21.35,42.881],
[21.342,42.8996],
[21.331,42.9026],
[21.3045,42.9061],
[21.273,42.8955],
[21.2703,42.91],
[21.2357,42.9504],
[21.2438,42.9809],
[21.2378,43.0055],
[21.2252,43.0203],
[21.1973,43.0234],
[21.193,43.008],
[21.1711,43.0005],
[21.1634,43.0147],
[21.1677,43.0263],
[21.1558,43.0296],
[21.153,43.0601],
[21.1395,43.0823],
[21.1499,43.091],
[21.1372,43.1135],
[21.1134,43.1112],
[21.0887,43.1359],
[21.0758,43.115],
[21.0507,43.1076],
[21.0254,43.1296],
[20.9953,43.1384],
[20.9571,43.126],
[20.9336,43.1342],
[20.9262,43.1459],
[20.8893,43.156],
[20.8817,43.1669],
[20.8632,43.1648],
[20.8561,43.1744],
[20.8311,43.1792],
[20.8019,43.1681],
[20.7896,43.1897],
[20.8095,43.2242],
[20.7923,43.2199],
[20.7721,43.2022],
[20.735,43.2124],
[20.7113,43.1952],
[20.6914,43.2321],
[20.6627,43.2381],
[20.6665,43.2518],
[20.6588,43.2655],
[20.6481,43.2637],
[20.6297,43.2868],
[20.621,43.2871],
[20.5877,43.2537],
[20.576,43.2196],
[20.5174,43.2551],
[20.4651,43.2872],
[20.4514,43.2705],
[20.403,43.2705],
[20.3714,43.2885],
[20.3319,43.2752],
[20.265,43.3317],
[20.1998,43.3239],
[20.1345,43.3162],
[20.0281,43.5042],
[19.9663,43.5177],
[19.958,43.4808],
[19.8581,43.5125],
[19.7205,43.5376],
[19.6806,43.5963],
[19.647,43.5764],
[19.6037,43.6097],
[19.5105,43.6282],
[19.4986,43.639],
[19.4881,43.6327],
[19.4995,43.6159],
[19.4914,43.5965],
[19.5114,43.586],
[19.4808,43.5718],
[19.4459,43.582],
[19.4186,43.5786],
[19.4081,43.5699],
[19.4024,43.5704],
[19.4051,43.5774],
[19.3923,43.5738],
[19.388,43.5773],
[19.4019,43.5876],
[19.3845,43.5918],
[19.3694,43.6108],
[19.3366,43.5886],
[19.3038,43.5899],
[19.2911,43.6002],
[19.2731,43.597],
[19.2636,43.6071],
[19.2554,43.598],
[19.2683,43.602],
[19.2725,43.5966],
[19.2625,43.5895],
[19.2459,43.5927],
[19.2537,43.5756],
[19.2461,43.5481],
[19.2507,43.5295],
[19.2241,43.5276],
[19.1526,43.537],
[19.1258,43.5206],
[19.1031,43.522],
[19.0966,43.5131],
[19.0868,43.5167],
[19.0425,43.503],
[19.0435,43.5244],
[18.9977,43.5582],
[18.9884,43.5554],
[18.9801,43.5303],
[18.9244,43.5147],
[18.9179,43.5088],
[18.924,43.5048],
[18.9125,43.5022]
],
[
[19.3952,43.5539],
[19.4076,43.5547],
[19.4205,43.5685],
[19.429,43.5532],
[19.4141,43.5397],
[19.3952,43.5539]
]
],
[
[
[24.9193,39.52],
[24.9219,39.4736],
[24.9334,39.4503],
[24.9685,39.4231],
[25.0056,39.4234],
[25.022,39.4311],
[25.0847,39.4873],
[25.1095,39.522],
[25.1069,39.5454],
[25.0972,39.558],
[25.0202,39.6017],
[24.9977,39.6036],
[24.9582,39.5887],
[24.9289,39.5518],
[24.9193,39.52]
]
],
[
[
[24.9825,39.9842],
[24.9937,39.9299],
[25.0067,39.9071],
[24.9955,39.8668],
[24.9951,39.8228],
[25.0247,39.7957],
[25.0874,39.7923],
[25.0894,39.7866],
[25.1138,39.7671],
[25.1599,39.7578],
[25.243,39.7556],
[25.2673,39.7634],
[25.3367,39.7419],
[25.3832,39.7478],
[25.399,39.7596],
[25.4254,39.8091],
[25.4066,39.8456],
[25.4083,39.8622],
[25.4357,39.8939],
[25.4383,39.9225],
[25.478,39.9494],
[25.4958,39.9743],
[25.5004,40.0362],
[25.4926,40.0559],
[25.4705,40.0725],
[25.4401,40.0768],
[25.392,40.0588],
[25.356,40.0592],
[25.3303,40.0467],
[25.312,40.0172],
[25.25,40.0445],
[25.1914,40.0411],
[25.174,40.0586],
[25.1302,40.0667],
[25.102,40.0591],
[25.0756,40.0332],
[25.0026,40.0192],
[24.9866,40.0019],
[24.9825,39.9842]
]
],
[
[
[25.3949,40.4775],
[25.3961,40.4643],
[25.4263,40.4266],
[25.5065,40.3829],
[25.5306,40.3618],
[25.5867,40.3516],
[25.6183,40.3557],
[25.7244,40.3876],
[25.7458,40.4067],
[25.7529,40.457],
[25.7482,40.4811],
[25.6913,40.5246],
[25.5736,40.5503],
[25.4871,40.5364],
[25.4088,40.5012],
[25.3949,40.4775]
]
],
[
[
[25.4457,38.5443],
[25.4494,38.5161],
[25.4895,38.484],
[25.5216,38.4784],
[25.5546,38.4907],
[25.6185,38.4927],
[25.6499,38.5065],
[25.6604,38.5209],
[25.6736,38.5925],
[25.6608,38.6167],
[25.6218,38.6426],
[25.5651,38.6518],
[25.5172,38.6407],
[25.4942,38.6275],
[25.4783,38.6049],
[25.4783,38.5853],
[25.459,38.5672],
[25.4457,38.5443]
]
],
[
[
[25.6147,40.1508],
[25.6164,40.108],
[25.6376,40.0895],
[25.6732,40.0816],
[25.7003,40.0595],
[25.7366,40.05],
[25.8545,40.0607],
[25.9386,40.0843],
[25.9849,40.0863],
[26.0451,40.1142],
[26.0649,40.1371],
[26.0682,40.1602],
[26.0616,40.1814],
[26.0278,40.2027],
[26.0213,40.2388],
[25.9615,40.2794],
[25.892,40.2764],
[25.8056,40.253],
[25.7572,40.2448],
[25.6316,40.1811],
[25.6147,40.1508]
]
],
[
[
[26.0781,36.5537],
[26.0947,36.5095],
[26.1291,36.4854],
[26.1637,36.4866],
[26.1963,36.5138],
[26.2391,36.5076],
[26.2617,36.4835],
[26.3123,36.4653],
[26.3991,36.4753],
[26.4192,36.501],
[26.4622,36.4833],
[26.498,36.4917],
[26.5216,36.5083],
[26.5301,36.5255],
[26.5197,36.5595],
[26.5253,36.5914],
[26.5098,36.6177],
[26.4184,36.6821],
[26.3578,36.6849],
[26.2996,36.6409],
[26.2489,36.6384],
[26.2113,36.6041],
[26.1854,36.5925],
[26.1573,36.6047],
[26.1273,36.6025],
[26.0968,36.5872],
[26.0813,36.5689],
[26.0781,36.5537]
]
],
[
[
[26.1684,35.857],
[26.1719,35.8394],
[26.1866,35.8223],
[26.2254,35.8106],
[26.2555,35.8191],
[26.2889,35.8498],
[26.2859,35.8848],
[26.2598,35.9047],
[26.2375,35.9089],
[26.1983,35.8999],
[26.1794,35.8833],
[26.1684,35.857]
]
],
[
[
[26.2181,36.9627],
[26.2417,36.938],
[26.2904,36.9271],
[26.3559,36.95],
[26.4555,36.9496],
[26.5172,36.9584],
[26.5433,36.977],
[26.5505,37.0025],
[26.5257,37.0404],
[26.4667,37.0659],
[26.4175,37.0523],
[26.3357,37.0298],
[26.2483,37.0271],
[26.2186,36.9995],
[26.2181,36.9627]
]
],
[
[
[26.3375,36.0743],
[26.3639,36.022],
[26.4048,36.0017],
[26.4522,36.0168],
[26.4646,36.0441],
[26.4582,36.0843],
[26.4419,36.1091],
[26.3908,36.1263],
[26.3484,36.1086],
[26.3375,36.0743]
]
],
[
[
[26.3976,35.8175],
[26.42,35.7869],
[26.4733,35.7784],
[26.5113,35.7973],
[26.5218,35.8349],
[26.492,35.8652],
[26.4531,35.8712],
[26.4098,35.851],
[26.3976,35.8175]
]
],
[
[
[26.4476,35.9121],
[26.4764,35.8811],
[26.5118,35.8741],
[26.555,35.891],
[26.5709,35.9276],
[26.5584,35.9553],
[26.5171,35.975],
[26.4811,35.9705],
[26.4616,35.9586],
[26.4491,35.9415],
[26.4476,35.9121]
]
],
[
[
[26.5423,36.4103],
[26.5717,36.3795],
[26.6077,36.3754],
[26.6033,36.3434],
[26.6269,36.3033],
[26.6459,36.2911],
[26.6857,36.2828],
[26.6927,36.2623],
[26.7074,36.2492],
[26.7369,36.2398],
[26.7818,36.2487],
[26.8154,36.2915],
[26.8067,36.3236],
[26.7879,36.338],
[26.7496,36.3456],
[26.7435,36.3642],
[26.709,36.397],
[26.6735,36.4041],
[26.6773,36.4258],
[26.6565,36.4567],
[26.6271,36.4661],
[26.5761,36.4594],
[26.5462,36.4366],
[26.5423,36.4103]
]
],
[
[
[26.7601,35.8873],
[26.7803,35.8473],
[26.827,35.8298],
[26.872,35.8513],
[26.8809,35.8756],
[26.8664,35.9204],
[26.8327,35.9364],
[26.7914,35.931],
[26.7685,35.9131],
[26.7601,35.8873]
]
],
[
[
[26.7701,35.3642],
[26.785,35.3304],
[26.8615,35.2977],
[26.9039,35.2995],
[26.9342,35.3204],
[26.9619,35.3275],
[26.9856,35.3503],
[27.03,35.3706],
[27.0571,35.4049],
[27.1212,35.3558],
[27.17,35.3612],
[27.209,35.3929],
[27.2284,35.4304],
[27.256,35.4361],
[27.2773,35.4533],
[27.2914,35.4776],
[27.2946,35.5034],
[27.2716,35.5371],
[27.2686,35.5615],
[27.2484,35.597],
[27.2133,35.6368],
[27.2405,35.6671],
[27.2699,35.7218],
[27.2658,35.7644],
[27.2832,35.7901],
[27.2932,35.8497],
[27.2876,35.8772],
[27.294,35.9],
[27.2782,35.9323],
[27.2468,35.946],
[27.2127,35.9471],
[27.1809,35.9311],
[27.1634,35.9017],
[27.1413,35.8852],
[27.1331,35.8667],
[27.1384,35.841],
[27.1179,35.8264],
[27.1104,35.8108],
[27.1085,35.7455],
[27.0765,35.7041],
[27.0641,35.6645],
[27.0179,35.6298],
[27.0015,35.603],
[27.008,35.5766],
[27.0509,35.5312],
[27.0522,35.4845],
[27.0374,35.4727],
[26.9978,35.4786],
[26.9534,35.4692],
[26.9364,35.4904],
[26.8981,35.5002],
[26.8424,35.4847],
[26.8071,35.4739],
[26.7816,35.4446],
[26.7826,35.4137],
[26.7949,35.3988],
[26.7753,35.3803],
[26.7701,35.3642]
]
],
[
[
[26.8728,37.4815],
[26.878,37.4558],
[26.9046,37.4211],
[26.9409,37.3935],
[26.9888,37.3845],
[27.0302,37.4048],
[27.0547,37.4364],
[27.0625,37.4696],
[27.0559,37.4943],
[27.0321,37.5155],
[26.9881,37.5284],
[26.9515,37.5273],
[26.8884,37.5055],
[26.8728,37.4815]
]
],
[
[
[26.9069,36.4975],
[26.9154,36.4743],
[26.9382,36.4585],
[26.9643,36.454],
[27.003,36.4637],
[27.0301,36.4891],
[27.0339,36.5184],
[27.0164,36.5409],
[26.9842,36.5514],
[26.9487,36.5467],
[26.9131,36.5182],
[26.9069,36.4975]
]
],
[
[
[27.0289,37.2697],
[27.0604,37.2378],
[27.0886,37.2324],
[27.117,37.237],
[27.1379,37.2474],
[27.1544,37.2675],
[27.1461,37.3227],
[27.1083,37.3471],
[27.0618,37.3433],
[27.0314,37.312],
[27.0289,37.2697]
]
],
[
[
[27.2296,36.481],
[27.2439,36.4524],
[27.2386,36.4257],
[27.2434,36.4085],
[27.2846,36.3759],
[27.3201,36.3666],
[27.3502,36.3418],
[27.3718,36.3357],
[27.4081,36.3341],
[27.4491,36.3156],
[27.48,36.321],
[27.5167,36.3545],
[27.5215,36.3904],
[27.4852,36.4412],
[27.4188,36.4816],
[27.3863,36.5183],
[27.36,36.5262],
[27.3236,36.521],
[27.2898,36.5279],
[27.2533,36.5195],
[27.232,36.4957],
[27.2296,36.481]
]
],
[
[
[27.464,36.2345],
[27.4664,36.2066],
[27.4718,36.1883],
[27.4929,36.1697],
[27.5233,36.1638],
[27.5498,36.1714],
[27.5761,36.1631],
[27.6381,36.1742],
[27.6314,36.1602],
[27.6336,36.1358],
[27.6707,36.0846],
[27.7068,36.0697],
[27.7029,36.0228],
[27.6652,35.9401],
[27.6973,35.8844],
[27.7049,35.8532],
[27.7331,35.8359],
[27.7601,35.8334],
[27.8245,35.8528],
[27.9029,35.8987],
[27.9363,35.9343],
[27.982,36.0063],
[28.0237,36.0275],
[28.0715,36.0117],
[28.1023,36.0127],
[28.1346,36.0349],
[28.1529,36.1079],
[28.1373,36.1345],
[28.1854,36.1676],
[28.1957,36.2015],
[28.2262,36.2368],
[28.2261,36.2682],
[28.2596,36.3001],
[28.2671,36.3398],
[28.2954,36.3692],
[28.2997,36.3834],
[28.2879,36.4134],
[28.2942,36.4352],
[28.2882,36.4636],
[28.2474,36.495],
[28.2087,36.5],
[28.1818,36.4879],
[28.1635,36.4667],
[28.0957,36.4584],
[27.8875,36.3784],
[27.8398,36.3527],
[27.8093,36.3168],
[27.7658,36.3074],
[27.7363,36.3252],
[27.6973,36.327],
[27.6115,36.2895],
[27.5051,36.2797],
[27.4712,36.2574],
[27.464,36.2345]
]
]
]}
}
